{
"type": "FeatureCollection",
"name": "100",
"crs": { "type": "name", "properties": { "name": "urn:ogc:def:crs:OGC:1.3:CRS84" } },
"xy_coordinate_resolution": 1e-05,
"features": [
{ "type": "Feature", "properties": { "variant": "T0", "miles": 1.0 }, "geometry": { "type": "Polygon", "coordinates": [ [ [ -77.15816, 38.8547 ], [ -77.15597, 38.85304 ], [ -77.15591, 38.85228 ], [ -77.15689, 38.85223 ], [ -77.16141, 38.85532 ], [ -77.16114, 38.85606 ], [ -77.15919, 38.85548 ], [ -77.15866, 38.8562 ], [ -77.16039, 38.85719 ], [ -77.16114, 38.85883 ], [ -77.16021, 38.85962 ], [ -77.16108, 38.8603 ], [ -77.16115, 38.86087 ], [ -77.16076, 38.86114 ], [ -77.1599, 38.86085 ], [ -77.15777, 38.86226 ], [ -77.1568, 38.86238 ], [ -77.15665, 38.86162 ], [ -77.1581, 38.86044 ], [ -77.15625, 38.85953 ], [ -77.15585, 38.86047 ], [ -77.155, 38.86076 ], [ -77.15509, 38.86147 ], [ -77.15372, 38.86287 ], [ -77.15287, 38.86457 ], [ -77.1517, 38.86588 ], [ -77.1506, 38.86638 ], [ -77.14998, 38.86579 ], [ -77.15092, 38.86454 ], [ -77.15016, 38.86374 ], [ -77.15154, 38.86324 ], [ -77.15175, 38.8627 ], [ -77.15101, 38.863 ], [ -77.14959, 38.86253 ], [ -77.14939, 38.86148 ], [ -77.15038, 38.86122 ], [ -77.15054, 38.86073 ], [ -77.14891, 38.85978 ], [ -77.15093, 38.85686 ], [ -77.14838, 38.85565 ], [ -77.14759, 38.85621 ], [ -77.14657, 38.85602 ], [ -77.1455, 38.85638 ], [ -77.14451, 38.85781 ], [ -77.14723, 38.85973 ], [ -77.14826, 38.8599 ], [ -77.14807, 38.8608 ], [ -77.14891, 38.86122 ], [ -77.14836, 38.86212 ], [ -77.14765, 38.86229 ], [ -77.1444, 38.85934 ], [ -77.14384, 38.86013 ], [ -77.14303, 38.85958 ], [ -77.14182, 38.8596 ], [ -77.14101, 38.85922 ], [ -77.14069, 38.85849 ], [ -77.14152, 38.85799 ], [ -77.14012, 38.85714 ], [ -77.13952, 38.85805 ], [ -77.13859, 38.85781 ], [ -77.13899, 38.85638 ], [ -77.13725, 38.85543 ], [ -77.13701, 38.85505 ], [ -77.13756, 38.85424 ], [ -77.13654, 38.85357 ], [ -77.13787, 38.85232 ], [ -77.14006, 38.85294 ], [ -77.13725, 38.85143 ], [ -77.13825, 38.84957 ], [ -77.1392, 38.84939 ], [ -77.14185, 38.85065 ], [ -77.14264, 38.84978 ], [ -77.14165, 38.84917 ], [ -77.14176, 38.84846 ], [ -77.14223, 38.84827 ], [ -77.1443, 38.84891 ], [ -77.14494, 38.84746 ], [ -77.14561, 38.84709 ], [ -77.14629, 38.84729 ], [ -77.14664, 38.84793 ], [ -77.14585, 38.84892 ], [ -77.14697, 38.84895 ], [ -77.1476, 38.84936 ], [ -77.1476, 38.85006 ], [ -77.14686, 38.85058 ], [ -77.14771, 38.85097 ], [ -77.1481, 38.85167 ], [ -77.14838, 38.85177 ], [ -77.14835, 38.85003 ], [ -77.14917, 38.84814 ], [ -77.15002, 38.84776 ], [ -77.1505, 38.84842 ], [ -77.14972, 38.85016 ], [ -77.14971, 38.85147 ], [ -77.15055, 38.84918 ], [ -77.15121, 38.84875 ], [ -77.15203, 38.84876 ], [ -77.15261, 38.84978 ], [ -77.15138, 38.85075 ], [ -77.15102, 38.85184 ], [ -77.15243, 38.85208 ], [ -77.15299, 38.85346 ], [ -77.15779, 38.85521 ], [ -77.15816, 38.8547 ] ], [ [ -77.14775, 38.85459 ], [ -77.1483, 38.85412 ], [ -77.14805, 38.8536 ], [ -77.14844, 38.853 ], [ -77.14788, 38.85278 ], [ -77.14736, 38.85328 ], [ -77.14799, 38.85377 ], [ -77.14775, 38.85459 ] ], [ [ -77.14416, 38.85554 ], [ -77.14422, 38.85553 ], [ -77.14423, 38.85545 ], [ -77.14416, 38.85554 ] ], [ [ -77.14323, 38.85465 ], [ -77.14135, 38.85358 ], [ -77.14125, 38.85371 ], [ -77.14323, 38.85465 ] ], [ [ -77.14398, 38.85167 ], [ -77.14617, 38.8527 ], [ -77.1468, 38.85206 ], [ -77.14666, 38.85167 ], [ -77.14427, 38.85101 ], [ -77.14398, 38.85167 ] ], [ [ -77.14375, 38.85049 ], [ -77.14374, 38.85045 ], [ -77.14372, 38.85048 ], [ -77.14375, 38.85049 ] ], [ [ -77.15227, 38.86259 ], [ -77.1521, 38.86254 ], [ -77.15195, 38.86262 ], [ -77.15227, 38.86259 ] ], [ [ -77.15301, 38.85862 ], [ -77.15312, 38.85814 ], [ -77.15272, 38.85819 ], [ -77.15301, 38.85862 ] ], [ [ -77.15245, 38.85652 ], [ -77.15285, 38.8552 ], [ -77.15378, 38.85488 ], [ -77.15008, 38.85362 ], [ -77.14936, 38.85483 ], [ -77.15245, 38.85652 ] ], [ [ -77.15146, 38.85288 ], [ -77.15133, 38.8529 ], [ -77.15148, 38.85296 ], [ -77.15146, 38.85288 ] ], [ [ -77.15948, 38.8587 ], [ -77.15918, 38.85815 ], [ -77.15834, 38.85924 ], [ -77.15948, 38.8587 ] ], [ [ -77.15819, 38.85705 ], [ -77.15745, 38.8581 ], [ -77.15729, 38.8585 ], [ -77.15832, 38.85718 ], [ -77.15819, 38.85705 ] ], [ [ -77.15658, 38.85713 ], [ -77.15716, 38.85618 ], [ -77.15643, 38.85595 ], [ -77.15565, 38.85667 ], [ -77.15658, 38.85713 ] ], [ [ -77.15431, 38.85631 ], [ -77.15395, 38.85614 ], [ -77.15363, 38.85714 ], [ -77.15367, 38.85715 ], [ -77.15431, 38.85631 ] ], [ [ -77.15515, 38.85545 ], [ -77.1547, 38.85514 ], [ -77.15429, 38.85504 ], [ -77.15515, 38.85545 ] ], [ [ -77.15511, 38.85768 ], [ -77.15487, 38.8577 ], [ -77.15479, 38.8578 ], [ -77.15511, 38.85768 ] ], [ [ -77.15451, 38.85828 ], [ -77.15449, 38.85825 ], [ -77.15449, 38.85827 ], [ -77.15451, 38.85828 ] ], [ [ -77.14565, 38.85001 ], [ -77.14525, 38.85002 ], [ -77.1452, 38.85013 ], [ -77.1455, 38.85021 ], [ -77.14565, 38.85001 ] ], [ [ -77.14398, 38.85641 ], [ -77.14374, 38.85608 ], [ -77.14303, 38.85701 ], [ -77.14337, 38.85719 ], [ -77.14398, 38.85641 ] ], [ [ -77.13907, 38.8506 ], [ -77.13873, 38.85104 ], [ -77.14078, 38.85202 ], [ -77.14112, 38.85157 ], [ -77.13907, 38.8506 ] ], [ [ -77.14191, 38.85637 ], [ -77.14172, 38.85617 ], [ -77.14167, 38.85624 ], [ -77.14191, 38.85637 ] ], [ [ -77.13979, 38.8553 ], [ -77.13956, 38.85517 ], [ -77.13974, 38.85535 ], [ -77.13979, 38.8553 ] ], [ [ -77.13898, 38.85491 ], [ -77.13874, 38.85481 ], [ -77.13913, 38.85496 ], [ -77.13898, 38.85491 ] ] ] } },
{ "type": "Feature", "properties": { "variant": "T0", "miles": 1.5 }, "geometry": { "type": "Polygon", "coordinates": [ [ [ -77.16512, 38.84778 ], [ -77.16576, 38.84921 ], [ -77.16534, 38.8499 ], [ -77.16667, 38.84916 ], [ -77.16747, 38.84959 ], [ -77.16713, 38.85023 ], [ -77.1658, 38.85092 ], [ -77.16572, 38.85159 ], [ -77.16664, 38.85252 ], [ -77.16591, 38.85487 ], [ -77.16529, 38.85546 ], [ -77.16454, 38.855 ], [ -77.16282, 38.85505 ], [ -77.16114, 38.85606 ], [ -77.15919, 38.85548 ], [ -77.15866, 38.8562 ], [ -77.16022, 38.85698 ], [ -77.16113, 38.85872 ], [ -77.16093, 38.85922 ], [ -77.16366, 38.86059 ], [ -77.16405, 38.86159 ], [ -77.16709, 38.85868 ], [ -77.16806, 38.85871 ], [ -77.16803, 38.85947 ], [ -77.16731, 38.86001 ], [ -77.16814, 38.86032 ], [ -77.16826, 38.86039 ], [ -77.16827, 38.8604 ], [ -77.16868, 38.86063 ], [ -77.16877, 38.86104 ], [ -77.16794, 38.86144 ], [ -77.16647, 38.86087 ], [ -77.16607, 38.86112 ], [ -77.16879, 38.86269 ], [ -77.1688, 38.86345 ], [ -77.16782, 38.86346 ], [ -77.16532, 38.86203 ], [ -77.16684, 38.86323 ], [ -77.16602, 38.86371 ], [ -77.16449, 38.86299 ], [ -77.16579, 38.86377 ], [ -77.16594, 38.86452 ], [ -77.16497, 38.86464 ], [ -77.16365, 38.86389 ], [ -77.16236, 38.86527 ], [ -77.1634, 38.86605 ], [ -77.16328, 38.86646 ], [ -77.16283, 38.86667 ], [ -77.16158, 38.86617 ], [ -77.16076, 38.86686 ], [ -77.16024, 38.86678 ], [ -77.16002, 38.86615 ], [ -77.15744, 38.86754 ], [ -77.15798, 38.86847 ], [ -77.15596, 38.87013 ], [ -77.15724, 38.87104 ], [ -77.15661, 38.87255 ], [ -77.15613, 38.87273 ], [ -77.15498, 38.87269 ], [ -77.15444, 38.87216 ], [ -77.15015, 38.87042 ], [ -77.14699, 38.86959 ], [ -77.14682, 38.87006 ], [ -77.14797, 38.87106 ], [ -77.14744, 38.87151 ], [ -77.14607, 38.87171 ], [ -77.14564, 38.87147 ], [ -77.14528, 38.87006 ], [ -77.14564, 38.86904 ], [ -77.144, 38.86852 ], [ -77.14372, 38.86793 ], [ -77.14202, 38.86685 ], [ -77.14252, 38.86604 ], [ -77.14202, 38.86476 ], [ -77.14348, 38.86342 ], [ -77.14286, 38.86261 ], [ -77.14353, 38.86225 ], [ -77.1426, 38.86185 ], [ -77.14256, 38.86105 ], [ -77.14145, 38.86189 ], [ -77.14092, 38.86185 ], [ -77.14064, 38.86111 ], [ -77.14116, 38.86039 ], [ -77.14042, 38.86019 ], [ -77.1391, 38.86143 ], [ -77.13832, 38.86088 ], [ -77.13616, 38.86275 ], [ -77.13532, 38.86236 ], [ -77.13568, 38.86122 ], [ -77.1366, 38.86098 ], [ -77.13718, 38.86025 ], [ -77.13652, 38.85956 ], [ -77.13658, 38.8581 ], [ -77.13745, 38.85751 ], [ -77.13839, 38.85776 ], [ -77.13899, 38.85638 ], [ -77.13805, 38.85587 ], [ -77.13657, 38.85756 ], [ -77.13488, 38.85814 ], [ -77.13288, 38.85784 ], [ -77.13241, 38.85721 ], [ -77.1318, 38.85735 ], [ -77.13133, 38.85637 ], [ -77.13021, 38.85654 ], [ -77.12985, 38.85582 ], [ -77.13211, 38.85379 ], [ -77.13147, 38.85331 ], [ -77.13201, 38.8526 ], [ -77.13115, 38.85266 ], [ -77.12977, 38.85354 ], [ -77.12927, 38.8534 ], [ -77.12922, 38.85264 ], [ -77.13039, 38.85176 ], [ -77.12924, 38.85118 ], [ -77.12903, 38.85043 ], [ -77.13015, 38.85019 ], [ -77.13234, 38.85095 ], [ -77.13279, 38.85153 ], [ -77.1346, 38.84888 ], [ -77.13384, 38.849 ], [ -77.13328, 38.84824 ], [ -77.13512, 38.84723 ], [ -77.13369, 38.84559 ], [ -77.13387, 38.84483 ], [ -77.13483, 38.84498 ], [ -77.13557, 38.84583 ], [ -77.13683, 38.84522 ], [ -77.13818, 38.84562 ], [ -77.13766, 38.844 ], [ -77.13844, 38.84301 ], [ -77.13773, 38.84266 ], [ -77.1377, 38.84225 ], [ -77.13857, 38.84191 ], [ -77.14045, 38.84235 ], [ -77.14059, 38.84348 ], [ -77.14087, 38.84198 ], [ -77.14185, 38.84155 ], [ -77.14256, 38.84207 ], [ -77.1423, 38.84312 ], [ -77.14317, 38.84322 ], [ -77.14329, 38.8439 ], [ -77.14498, 38.84581 ], [ -77.14339, 38.8488 ], [ -77.1443, 38.84891 ], [ -77.14529, 38.84716 ], [ -77.14849, 38.84695 ], [ -77.1489, 38.84737 ], [ -77.14881, 38.8481 ], [ -77.14733, 38.8491 ], [ -77.14767, 38.84989 ], [ -77.14686, 38.85058 ], [ -77.14838, 38.85177 ], [ -77.14842, 38.84979 ], [ -77.14917, 38.84814 ], [ -77.15002, 38.84776 ], [ -77.1505, 38.84842 ], [ -77.14972, 38.85016 ], [ -77.14971, 38.85147 ], [ -77.15059, 38.84914 ], [ -77.15127, 38.84873 ], [ -77.15217, 38.84882 ], [ -77.15257, 38.84987 ], [ -77.15138, 38.85075 ], [ -77.15102, 38.85184 ], [ -77.15243, 38.85208 ], [ -77.15299, 38.85346 ], [ -77.15779, 38.85521 ], [ -77.15816, 38.8547 ], [ -77.15764, 38.8542 ], [ -77.15328, 38.85178 ], [ -77.15473, 38.85003 ], [ -77.15491, 38.84832 ], [ -77.15664, 38.84686 ], [ -77.15746, 38.84732 ], [ -77.16004, 38.8471 ], [ -77.16046, 38.84646 ], [ -77.16512, 38.84778 ] ], [ [ -77.14586, 38.86726 ], [ -77.14556, 38.86726 ], [ -77.14615, 38.8675 ], [ -77.14586, 38.86726 ] ], [ [ -77.1476, 38.86643 ], [ -77.14857, 38.866 ], [ -77.14773, 38.86501 ], [ -77.14815, 38.86453 ], [ -77.14881, 38.86452 ], [ -77.14733, 38.86249 ], [ -77.14699, 38.86277 ], [ -77.14746, 38.86339 ], [ -77.14613, 38.86459 ], [ -77.1476, 38.86643 ] ], [ [ -77.14572, 38.86336 ], [ -77.14566, 38.86332 ], [ -77.14514, 38.86341 ], [ -77.14572, 38.86336 ] ], [ [ -77.14665, 38.8615 ], [ -77.1463, 38.86106 ], [ -77.14558, 38.86176 ], [ -77.14596, 38.86205 ], [ -77.14665, 38.8615 ] ], [ [ -77.14566, 38.85844 ], [ -77.14649, 38.8576 ], [ -77.1476, 38.85737 ], [ -77.14904, 38.85877 ], [ -77.15093, 38.85686 ], [ -77.14838, 38.85565 ], [ -77.14759, 38.85621 ], [ -77.14657, 38.85602 ], [ -77.1455, 38.85638 ], [ -77.14466, 38.8579 ], [ -77.14566, 38.85844 ] ], [ [ -77.1468, 38.85206 ], [ -77.14666, 38.85167 ], [ -77.14427, 38.85101 ], [ -77.14398, 38.85167 ], [ -77.14617, 38.8527 ], [ -77.1468, 38.85206 ] ], [ [ -77.14565, 38.85001 ], [ -77.14525, 38.85002 ], [ -77.1452, 38.85013 ], [ -77.14565, 38.85001 ] ], [ [ -77.15055, 38.86653 ], [ -77.1485, 38.86726 ], [ -77.14792, 38.86824 ], [ -77.15318, 38.87032 ], [ -77.15055, 38.86653 ] ], [ [ -77.15483, 38.86784 ], [ -77.15552, 38.86689 ], [ -77.15413, 38.86774 ], [ -77.15343, 38.86767 ], [ -77.15414, 38.86859 ], [ -77.15482, 38.86829 ], [ -77.15483, 38.86784 ] ], [ [ -77.15403, 38.86653 ], [ -77.15337, 38.86615 ], [ -77.1535, 38.86537 ], [ -77.15235, 38.86631 ], [ -77.15317, 38.86734 ], [ -77.15403, 38.86653 ] ], [ [ -77.15372, 38.86287 ], [ -77.15365, 38.86327 ], [ -77.15411, 38.86268 ], [ -77.15372, 38.86287 ] ], [ [ -77.15312, 38.85814 ], [ -77.15272, 38.85819 ], [ -77.15301, 38.85862 ], [ -77.15312, 38.85814 ] ], [ [ -77.15285, 38.8552 ], [ -77.15378, 38.85488 ], [ -77.15008, 38.85362 ], [ -77.14936, 38.85483 ], [ -77.15245, 38.85652 ], [ -77.15285, 38.8552 ] ], [ [ -77.15845, 38.85219 ], [ -77.15919, 38.85093 ], [ -77.15834, 38.85163 ], [ -77.15845, 38.85219 ] ], [ [ -77.15741, 38.85075 ], [ -77.15734, 38.85083 ], [ -77.15792, 38.85048 ], [ -77.15741, 38.85075 ] ], [ [ -77.16073, 38.85488 ], [ -77.16048, 38.8549 ], [ -77.16119, 38.85519 ], [ -77.1617, 38.85442 ], [ -77.16145, 38.85416 ], [ -77.16073, 38.85488 ] ], [ [ -77.15963, 38.85436 ], [ -77.15975, 38.85444 ], [ -77.15976, 38.85417 ], [ -77.15963, 38.85436 ] ], [ [ -77.16427, 38.8492 ], [ -77.16382, 38.84847 ], [ -77.16379, 38.8501 ], [ -77.16427, 38.8492 ] ], [ [ -77.16246, 38.84937 ], [ -77.16243, 38.84851 ], [ -77.16211, 38.84993 ], [ -77.16246, 38.84937 ] ], [ [ -77.15982, 38.84987 ], [ -77.15979, 38.84993 ], [ -77.16073, 38.84986 ], [ -77.1608, 38.84955 ], [ -77.15982, 38.84987 ] ], [ [ -77.15995, 38.8482 ], [ -77.15989, 38.84819 ], [ -77.15997, 38.84829 ], [ -77.15995, 38.8482 ] ], [ [ -77.15865, 38.8485 ], [ -77.15876, 38.84818 ], [ -77.15829, 38.84824 ], [ -77.15865, 38.8485 ] ], [ [ -77.16439, 38.85108 ], [ -77.16187, 38.851 ], [ -77.16234, 38.85227 ], [ -77.16514, 38.85282 ], [ -77.16439, 38.85235 ], [ -77.16439, 38.85108 ] ], [ [ -77.16308, 38.85353 ], [ -77.16247, 38.85341 ], [ -77.16322, 38.85402 ], [ -77.16473, 38.85386 ], [ -77.16308, 38.85353 ] ], [ [ -77.15745, 38.8581 ], [ -77.15729, 38.8585 ], [ -77.15832, 38.85718 ], [ -77.15745, 38.8581 ] ], [ [ -77.15644, 38.86572 ], [ -77.15683, 38.86654 ], [ -77.15756, 38.86612 ], [ -77.15706, 38.86617 ], [ -77.15644, 38.86572 ] ], [ [ -77.15741, 38.86448 ], [ -77.15676, 38.86531 ], [ -77.15689, 38.86518 ], [ -77.15783, 38.86472 ], [ -77.15741, 38.86448 ] ], [ [ -77.15886, 38.8614 ], [ -77.15989, 38.86155 ], [ -77.16056, 38.86114 ], [ -77.1599, 38.86085 ], [ -77.1592, 38.86111 ], [ -77.15823, 38.86188 ], [ -77.15876, 38.86238 ], [ -77.15886, 38.8614 ] ], [ [ -77.15761, 38.86022 ], [ -77.15426, 38.86459 ], [ -77.1581, 38.86044 ], [ -77.15761, 38.86022 ] ], [ [ -77.15948, 38.8587 ], [ -77.15918, 38.85815 ], [ -77.15834, 38.85924 ], [ -77.15948, 38.8587 ] ], [ [ -77.16261, 38.86138 ], [ -77.16117, 38.86053 ], [ -77.16085, 38.86108 ], [ -77.16171, 38.86118 ], [ -77.16271, 38.86198 ], [ -77.16261, 38.86138 ] ], [ [ -77.16179, 38.86352 ], [ -77.16134, 38.86351 ], [ -77.16199, 38.86383 ], [ -77.16251, 38.86328 ], [ -77.16179, 38.86352 ] ], [ [ -77.16017, 38.86318 ], [ -77.16068, 38.86331 ], [ -77.16051, 38.86322 ], [ -77.16017, 38.86318 ] ], [ [ -77.15716, 38.85618 ], [ -77.15643, 38.85595 ], [ -77.15565, 38.85667 ], [ -77.15658, 38.85713 ], [ -77.15716, 38.85618 ] ], [ [ -77.15363, 38.85714 ], [ -77.15431, 38.85631 ], [ -77.15395, 38.85614 ], [ -77.15363, 38.85714 ] ], [ [ -77.15515, 38.85545 ], [ -77.15525, 38.85536 ], [ -77.15504, 38.85524 ], [ -77.15433, 38.85505 ], [ -77.15515, 38.85545 ] ], [ [ -77.15479, 38.8578 ], [ -77.15511, 38.85768 ], [ -77.15487, 38.8577 ], [ -77.15479, 38.8578 ] ], [ [ -77.15449, 38.85825 ], [ -77.15449, 38.85827 ], [ -77.15451, 38.85828 ], [ -77.15449, 38.85825 ] ], [ [ -77.15645, 38.85963 ], [ -77.15625, 38.85953 ], [ -77.15627, 38.85965 ], [ -77.15645, 38.85963 ] ], [ [ -77.155, 38.86076 ], [ -77.15514, 38.86133 ], [ -77.15572, 38.86057 ], [ -77.155, 38.86076 ] ], [ [ -77.15539, 38.86864 ], [ -77.15563, 38.86895 ], [ -77.15642, 38.86828 ], [ -77.15539, 38.86864 ] ], [ [ -77.15616, 38.8519 ], [ -77.15629, 38.85166 ], [ -77.1561, 38.85173 ], [ -77.15616, 38.8519 ] ], [ [ -77.15617, 38.84998 ], [ -77.15604, 38.85038 ], [ -77.15669, 38.84967 ], [ -77.15615, 38.84916 ], [ -77.15617, 38.84998 ] ], [ [ -77.15154, 38.86324 ], [ -77.15175, 38.8627 ], [ -77.15049, 38.86294 ], [ -77.14931, 38.86199 ], [ -77.15016, 38.86374 ], [ -77.15154, 38.86324 ] ], [ [ -77.14844, 38.853 ], [ -77.14788, 38.85278 ], [ -77.14736, 38.85328 ], [ -77.14802, 38.8539 ], [ -77.14762, 38.8547 ], [ -77.1479, 38.85446 ], [ -77.14844, 38.853 ] ], [ [ -77.15147, 38.85296 ], [ -77.15148, 38.85296 ], [ -77.15146, 38.85288 ], [ -77.15147, 38.85296 ] ], [ [ -77.15038, 38.86122 ], [ -77.15054, 38.86073 ], [ -77.15022, 38.86058 ], [ -77.14946, 38.86104 ], [ -77.15038, 38.86122 ] ], [ [ -77.15224, 38.86242 ], [ -77.15195, 38.86262 ], [ -77.15227, 38.86259 ], [ -77.15224, 38.86242 ] ], [ [ -77.14744, 38.8596 ], [ -77.14791, 38.85941 ], [ -77.14716, 38.85861 ], [ -77.14685, 38.85899 ], [ -77.14744, 38.8596 ] ], [ [ -77.14008, 38.85723 ], [ -77.14045, 38.85733 ], [ -77.14016, 38.85717 ], [ -77.14008, 38.85723 ] ], [ [ -77.13688, 38.85301 ], [ -77.13787, 38.85232 ], [ -77.13995, 38.85309 ], [ -77.13778, 38.85186 ], [ -77.13688, 38.85301 ] ], [ [ -77.13873, 38.85104 ], [ -77.14078, 38.85202 ], [ -77.14112, 38.85157 ], [ -77.13907, 38.8506 ], [ -77.13873, 38.85104 ] ], [ [ -77.13828, 38.84892 ], [ -77.13532, 38.85294 ], [ -77.13687, 38.85094 ], [ -77.13825, 38.84957 ], [ -77.13828, 38.84892 ] ], [ [ -77.14234, 38.85014 ], [ -77.14167, 38.85033 ], [ -77.14043, 38.84936 ], [ -77.13979, 38.84967 ], [ -77.1419, 38.85058 ], [ -77.14234, 38.85014 ] ], [ [ -77.14048, 38.84701 ], [ -77.14043, 38.84622 ], [ -77.13988, 38.84646 ], [ -77.14093, 38.84788 ], [ -77.14048, 38.84701 ] ], [ [ -77.14303, 38.85958 ], [ -77.14291, 38.85963 ], [ -77.14287, 38.85993 ], [ -77.14344, 38.86005 ], [ -77.14303, 38.85958 ] ], [ [ -77.14167, 38.85624 ], [ -77.14191, 38.85637 ], [ -77.14199, 38.85626 ], [ -77.14167, 38.85624 ] ], [ [ -77.14125, 38.85371 ], [ -77.14323, 38.85465 ], [ -77.14334, 38.85452 ], [ -77.14125, 38.85371 ] ], [ [ -77.14237, 38.84753 ], [ -77.14252, 38.84774 ], [ -77.14255, 38.84765 ], [ -77.14237, 38.84753 ] ], [ [ -77.14374, 38.85045 ], [ -77.14372, 38.85048 ], [ -77.14375, 38.85049 ], [ -77.14374, 38.85045 ] ], [ [ -77.14416, 38.85554 ], [ -77.14422, 38.85553 ], [ -77.14423, 38.85545 ], [ -77.14416, 38.85554 ] ], [ [ -77.14398, 38.85641 ], [ -77.14374, 38.85608 ], [ -77.14303, 38.85701 ], [ -77.14337, 38.85719 ], [ -77.14398, 38.85641 ] ], [ [ -77.14463, 38.8628 ], [ -77.14449, 38.86262 ], [ -77.144, 38.86232 ], [ -77.14463, 38.8628 ] ], [ [ -77.1447, 38.86054 ], [ -77.14469, 38.86055 ], [ -77.14471, 38.86055 ], [ -77.1447, 38.86054 ] ], [ [ -77.14348, 38.86524 ], [ -77.14369, 38.86507 ], [ -77.14352, 38.86496 ], [ -77.14348, 38.86524 ] ], [ [ -77.14214, 38.84583 ], [ -77.14221, 38.84514 ], [ -77.14189, 38.84557 ], [ -77.14214, 38.84583 ] ], [ [ -77.13737, 38.84801 ], [ -77.13731, 38.84761 ], [ -77.13714, 38.84769 ], [ -77.13737, 38.84801 ] ], [ [ -77.13956, 38.8485 ], [ -77.13974, 38.84843 ], [ -77.13868, 38.847 ], [ -77.13956, 38.8485 ] ], [ [ -77.13886, 38.86003 ], [ -77.13882, 38.86011 ], [ -77.13906, 38.85983 ], [ -77.13886, 38.86003 ] ], [ [ -77.13969, 38.85532 ], [ -77.13974, 38.85535 ], [ -77.13979, 38.8553 ], [ -77.13969, 38.85532 ] ], [ [ -77.13899, 38.85494 ], [ -77.13913, 38.85496 ], [ -77.13898, 38.85491 ], [ -77.13899, 38.85494 ] ], [ [ -77.13646, 38.85356 ], [ -77.13659, 38.85363 ], [ -77.13654, 38.85357 ], [ -77.13646, 38.85356 ] ], [ [ -77.13358, 38.85418 ], [ -77.13412, 38.85371 ], [ -77.13318, 38.8532 ], [ -77.13288, 38.85347 ], [ -77.13362, 38.85381 ], [ -77.13358, 38.85418 ] ], [ [ -77.13409, 38.85224 ], [ -77.13551, 38.85011 ], [ -77.13496, 38.85082 ], [ -77.13409, 38.85224 ] ], [ [ -77.13627, 38.84662 ], [ -77.13636, 38.84652 ], [ -77.1362, 38.84655 ], [ -77.13627, 38.84662 ] ], [ [ -77.13594, 38.84823 ], [ -77.13579, 38.8483 ], [ -77.13644, 38.84921 ], [ -77.13594, 38.84823 ] ], [ [ -77.13608, 38.85534 ], [ -77.13625, 38.85606 ], [ -77.13692, 38.85525 ], [ -77.13526, 38.85434 ], [ -77.13522, 38.85494 ], [ -77.13608, 38.85534 ] ], [ [ -77.13319, 38.85447 ], [ -77.1332, 38.85451 ], [ -77.1334, 38.85434 ], [ -77.13319, 38.85447 ] ], [ [ -77.13391, 38.85615 ], [ -77.13382, 38.85599 ], [ -77.13384, 38.85605 ], [ -77.13391, 38.85615 ] ] ] } },
{ "type": "Feature", "properties": { "variant": "T0", "miles": 2.0 }, "geometry": { "type": "Polygon", "coordinates": [ [ [ -77.17212, 38.84624 ], [ -77.17256, 38.84681 ], [ -77.17198, 38.84891 ], [ -77.17104, 38.84869 ], [ -77.17107, 38.8475 ], [ -77.16994, 38.84826 ], [ -77.17051, 38.84882 ], [ -77.17032, 38.8496 ], [ -77.17135, 38.84991 ], [ -77.17218, 38.85077 ], [ -77.1706, 38.852 ], [ -77.17047, 38.8526 ], [ -77.17179, 38.85279 ], [ -77.17197, 38.85318 ], [ -77.17175, 38.85356 ], [ -77.1704, 38.85368 ], [ -77.17006, 38.85602 ], [ -77.17267, 38.85594 ], [ -77.17275, 38.857 ], [ -77.17352, 38.85754 ], [ -77.17332, 38.85792 ], [ -77.17194, 38.85825 ], [ -77.17311, 38.85866 ], [ -77.17303, 38.85949 ], [ -77.1749, 38.85992 ], [ -77.17521, 38.86064 ], [ -77.17481, 38.86092 ], [ -77.17263, 38.86053 ], [ -77.17212, 38.8613 ], [ -77.17159, 38.86134 ], [ -77.17118, 38.86107 ], [ -77.17131, 38.86021 ], [ -77.17063, 38.86049 ], [ -77.17058, 38.86136 ], [ -77.16969, 38.86169 ], [ -77.1663, 38.86084 ], [ -77.16607, 38.86112 ], [ -77.17049, 38.86409 ], [ -77.17415, 38.86854 ], [ -77.17389, 38.8689 ], [ -77.17292, 38.8688 ], [ -77.17003, 38.8657 ], [ -77.16773, 38.86807 ], [ -77.16726, 38.86945 ], [ -77.16771, 38.87022 ], [ -77.16688, 38.87088 ], [ -77.16683, 38.87147 ], [ -77.16479, 38.87196 ], [ -77.16334, 38.87292 ], [ -77.16377, 38.87357 ], [ -77.16254, 38.87454 ], [ -77.16369, 38.87443 ], [ -77.16404, 38.87474 ], [ -77.16367, 38.87563 ], [ -77.16274, 38.87584 ], [ -77.16064, 38.87498 ], [ -77.16321, 38.87651 ], [ -77.16333, 38.87727 ], [ -77.16287, 38.87748 ], [ -77.1605, 38.87625 ], [ -77.15953, 38.87702 ], [ -77.15902, 38.87695 ], [ -77.15882, 38.8762 ], [ -77.15939, 38.8756 ], [ -77.15766, 38.87562 ], [ -77.15792, 38.87479 ], [ -77.15504, 38.87281 ], [ -77.15309, 38.87358 ], [ -77.15361, 38.87525 ], [ -77.15295, 38.87594 ], [ -77.15212, 38.87554 ], [ -77.15163, 38.87392 ], [ -77.14782, 38.87394 ], [ -77.14716, 38.87573 ], [ -77.1486, 38.87657 ], [ -77.14872, 38.87733 ], [ -77.14775, 38.87742 ], [ -77.14653, 38.87669 ], [ -77.14601, 38.87796 ], [ -77.14505, 38.8781 ], [ -77.14476, 38.87722 ], [ -77.14405, 38.87678 ], [ -77.14397, 38.87596 ], [ -77.1421, 38.87532 ], [ -77.14268, 38.87373 ], [ -77.14077, 38.87406 ], [ -77.14007, 38.87352 ], [ -77.14077, 38.87292 ], [ -77.14383, 38.87252 ], [ -77.14558, 38.87095 ], [ -77.14526, 38.86985 ], [ -77.14564, 38.86904 ], [ -77.14219, 38.86764 ], [ -77.141, 38.86894 ], [ -77.13922, 38.86785 ], [ -77.13917, 38.86845 ], [ -77.13831, 38.86881 ], [ -77.13717, 38.86769 ], [ -77.1364, 38.86837 ], [ -77.13358, 38.86835 ], [ -77.13295, 38.86887 ], [ -77.13243, 38.86882 ], [ -77.13211, 38.86849 ], [ -77.13255, 38.8676 ], [ -77.13216, 38.86691 ], [ -77.13084, 38.86695 ], [ -77.12997, 38.86632 ], [ -77.13063, 38.86576 ], [ -77.13211, 38.86571 ], [ -77.13206, 38.86472 ], [ -77.13273, 38.86416 ], [ -77.13322, 38.86431 ], [ -77.13348, 38.86547 ], [ -77.13382, 38.86547 ], [ -77.1348, 38.86413 ], [ -77.13523, 38.86217 ], [ -77.13106, 38.86229 ], [ -77.13041, 38.86264 ], [ -77.12982, 38.86232 ], [ -77.12954, 38.86379 ], [ -77.12876, 38.86425 ], [ -77.1282, 38.86351 ], [ -77.12696, 38.86337 ], [ -77.12669, 38.86187 ], [ -77.12705, 38.86112 ], [ -77.12797, 38.86093 ], [ -77.12766, 38.86057 ], [ -77.12823, 38.85995 ], [ -77.12995, 38.86029 ], [ -77.13044, 38.86123 ], [ -77.13148, 38.86031 ], [ -77.13354, 38.86015 ], [ -77.13421, 38.8605 ], [ -77.13419, 38.86002 ], [ -77.12987, 38.86018 ], [ -77.12899, 38.8596 ], [ -77.12899, 38.85884 ], [ -77.12948, 38.85868 ], [ -77.13057, 38.85922 ], [ -77.13418, 38.85894 ], [ -77.13455, 38.85799 ], [ -77.13302, 38.85789 ], [ -77.13241, 38.85721 ], [ -77.1318, 38.85735 ], [ -77.13136, 38.85698 ], [ -77.13002, 38.85733 ], [ -77.12977, 38.85683 ], [ -77.12837, 38.85756 ], [ -77.1274, 38.85747 ], [ -77.12731, 38.85691 ], [ -77.12787, 38.85631 ], [ -77.13067, 38.85541 ], [ -77.13211, 38.85379 ], [ -77.13147, 38.85331 ], [ -77.13201, 38.8526 ], [ -77.13115, 38.85266 ], [ -77.12977, 38.85354 ], [ -77.12844, 38.85275 ], [ -77.12802, 38.85179 ], [ -77.12565, 38.85241 ], [ -77.12518, 38.85223 ], [ -77.12476, 38.8516 ], [ -77.12499, 38.85123 ], [ -77.1265, 38.85086 ], [ -77.12622, 38.85026 ], [ -77.12672, 38.84988 ], [ -77.12598, 38.84952 ], [ -77.12561, 38.85062 ], [ -77.12476, 38.85101 ], [ -77.12427, 38.85034 ], [ -77.1247, 38.84906 ], [ -77.12245, 38.84841 ], [ -77.12205, 38.84742 ], [ -77.12301, 38.84698 ], [ -77.12412, 38.84752 ], [ -77.12476, 38.84686 ], [ -77.12458, 38.84606 ], [ -77.12504, 38.84586 ], [ -77.12811, 38.84766 ], [ -77.1298, 38.84705 ], [ -77.13011, 38.84655 ], [ -77.13134, 38.84665 ], [ -77.13226, 38.84581 ], [ -77.13142, 38.84542 ], [ -77.13027, 38.84582 ], [ -77.12844, 38.84472 ], [ -77.12939, 38.84357 ], [ -77.12872, 38.8434 ], [ -77.1286, 38.843 ], [ -77.13037, 38.84179 ], [ -77.1301, 38.84147 ], [ -77.12878, 38.8421 ], [ -77.12817, 38.84151 ], [ -77.13075, 38.8398 ], [ -77.1335, 38.83973 ], [ -77.13479, 38.84054 ], [ -77.13457, 38.84105 ], [ -77.13556, 38.84072 ], [ -77.13613, 38.84146 ], [ -77.13706, 38.84159 ], [ -77.1369, 38.84235 ], [ -77.13528, 38.84323 ], [ -77.13575, 38.84374 ], [ -77.13667, 38.84331 ], [ -77.13839, 38.84057 ], [ -77.14028, 38.84118 ], [ -77.14055, 38.84166 ], [ -77.1414, 38.84102 ], [ -77.14204, 38.8413 ], [ -77.14482, 38.84103 ], [ -77.14564, 38.84194 ], [ -77.14675, 38.84156 ], [ -77.14602, 38.84093 ], [ -77.14612, 38.84017 ], [ -77.14662, 38.84005 ], [ -77.14731, 38.84046 ], [ -77.14773, 38.84021 ], [ -77.14709, 38.83925 ], [ -77.14737, 38.8389 ], [ -77.14834, 38.83902 ], [ -77.14923, 38.84029 ], [ -77.15126, 38.83901 ], [ -77.15222, 38.83911 ], [ -77.15256, 38.83972 ], [ -77.15131, 38.84066 ], [ -77.15203, 38.84141 ], [ -77.15211, 38.84267 ], [ -77.15166, 38.84322 ], [ -77.15076, 38.84332 ], [ -77.15006, 38.84281 ], [ -77.14875, 38.84327 ], [ -77.14851, 38.84246 ], [ -77.14327, 38.84337 ], [ -77.14329, 38.8439 ], [ -77.14473, 38.84517 ], [ -77.145, 38.84599 ], [ -77.14339, 38.8488 ], [ -77.1443, 38.84891 ], [ -77.14529, 38.84716 ], [ -77.14849, 38.84695 ], [ -77.1489, 38.84737 ], [ -77.14881, 38.8481 ], [ -77.14733, 38.8491 ], [ -77.14767, 38.84989 ], [ -77.14686, 38.85058 ], [ -77.14838, 38.85177 ], [ -77.14842, 38.84979 ], [ -77.14917, 38.84814 ], [ -77.15002, 38.84776 ], [ -77.1505, 38.84842 ], [ -77.14972, 38.85016 ], [ -77.14971, 38.85147 ], [ -77.15059, 38.84914 ], [ -77.15127, 38.84873 ], [ -77.15217, 38.84882 ], [ -77.15257, 38.84987 ], [ -77.15138, 38.85075 ], [ -77.15102, 38.85184 ], [ -77.15243, 38.85208 ], [ -77.15299, 38.85346 ], [ -77.15779, 38.85521 ], [ -77.15816, 38.8547 ], [ -77.15764, 38.8542 ], [ -77.15328, 38.85178 ], [ -77.15473, 38.85003 ], [ -77.15509, 38.84805 ], [ -77.15471, 38.84789 ], [ -77.15359, 38.8486 ], [ -77.1531, 38.84844 ], [ -77.1529, 38.84805 ], [ -77.15342, 38.84743 ], [ -77.1518, 38.8474 ], [ -77.15079, 38.84649 ], [ -77.15092, 38.84569 ], [ -77.15251, 38.84514 ], [ -77.15298, 38.84399 ], [ -77.15392, 38.84422 ], [ -77.15392, 38.84642 ], [ -77.1545, 38.84662 ], [ -77.1546, 38.84578 ], [ -77.15512, 38.8457 ], [ -77.15662, 38.84667 ], [ -77.15924, 38.8462 ], [ -77.15962, 38.84562 ], [ -77.16048, 38.84543 ], [ -77.16129, 38.8458 ], [ -77.16153, 38.84666 ], [ -77.16414, 38.84741 ], [ -77.16525, 38.84705 ], [ -77.16705, 38.84727 ], [ -77.171, 38.846 ], [ -77.17212, 38.84624 ] ], [ [ -77.14897, 38.87105 ], [ -77.14931, 38.87054 ], [ -77.14699, 38.86959 ], [ -77.14691, 38.87017 ], [ -77.14897, 38.87105 ] ], [ [ -77.14586, 38.86726 ], [ -77.14556, 38.86726 ], [ -77.14615, 38.8675 ], [ -77.14586, 38.86726 ] ], [ [ -77.14572, 38.86336 ], [ -77.14566, 38.86332 ], [ -77.14514, 38.86341 ], [ -77.14572, 38.86336 ] ], [ [ -77.14441, 38.86241 ], [ -77.144, 38.86232 ], [ -77.14463, 38.8628 ], [ -77.14441, 38.86241 ] ], [ [ -77.1447, 38.86054 ], [ -77.14469, 38.86055 ], [ -77.14471, 38.86055 ], [ -77.1447, 38.86054 ] ], [ [ -77.14665, 38.8615 ], [ -77.1463, 38.86106 ], [ -77.14558, 38.86176 ], [ -77.14665, 38.8615 ] ], [ [ -77.14566, 38.85844 ], [ -77.14649, 38.8576 ], [ -77.1476, 38.85737 ], [ -77.14904, 38.85877 ], [ -77.15093, 38.85686 ], [ -77.14838, 38.85565 ], [ -77.14759, 38.85621 ], [ -77.14657, 38.85602 ], [ -77.1455, 38.85638 ], [ -77.14466, 38.8579 ], [ -77.14566, 38.85844 ] ], [ [ -77.14374, 38.85608 ], [ -77.14303, 38.85701 ], [ -77.14337, 38.85719 ], [ -77.14374, 38.85608 ] ], [ [ -77.14423, 38.85545 ], [ -77.14416, 38.85554 ], [ -77.14422, 38.85553 ], [ -77.14423, 38.85545 ] ], [ [ -77.14617, 38.8527 ], [ -77.14661, 38.85232 ], [ -77.14666, 38.85167 ], [ -77.14427, 38.85101 ], [ -77.14398, 38.85167 ], [ -77.14617, 38.8527 ] ], [ [ -77.14374, 38.85045 ], [ -77.14372, 38.85048 ], [ -77.14375, 38.85049 ], [ -77.14374, 38.85045 ] ], [ [ -77.15483, 38.86784 ], [ -77.15552, 38.86689 ], [ -77.15413, 38.86774 ], [ -77.15343, 38.86767 ], [ -77.15414, 38.86859 ], [ -77.15482, 38.86829 ], [ -77.15483, 38.86784 ] ], [ [ -77.1581, 38.86044 ], [ -77.15798, 38.86029 ], [ -77.15761, 38.86022 ], [ -77.15426, 38.86459 ], [ -77.1581, 38.86044 ] ], [ [ -77.15372, 38.86287 ], [ -77.15365, 38.86327 ], [ -77.15411, 38.86268 ], [ -77.15372, 38.86287 ] ], [ [ -77.155, 38.86076 ], [ -77.15514, 38.86133 ], [ -77.15529, 38.86114 ], [ -77.15572, 38.86057 ], [ -77.155, 38.86076 ] ], [ [ -77.15451, 38.85828 ], [ -77.15449, 38.85825 ], [ -77.15449, 38.85827 ], [ -77.15451, 38.85828 ] ], [ [ -77.15487, 38.8577 ], [ -77.15479, 38.8578 ], [ -77.15511, 38.85768 ], [ -77.15487, 38.8577 ] ], [ [ -77.15395, 38.85614 ], [ -77.15363, 38.85714 ], [ -77.15367, 38.85715 ], [ -77.15425, 38.85639 ], [ -77.15395, 38.85614 ] ], [ [ -77.15504, 38.85524 ], [ -77.15429, 38.85504 ], [ -77.15515, 38.85545 ], [ -77.15504, 38.85524 ] ], [ [ -77.16326, 38.87085 ], [ -77.16317, 38.8705 ], [ -77.16195, 38.87076 ], [ -77.16203, 38.87105 ], [ -77.16326, 38.87085 ] ], [ [ -77.16606, 38.86877 ], [ -77.16663, 38.8674 ], [ -77.16936, 38.86472 ], [ -77.16838, 38.86391 ], [ -77.16686, 38.8656 ], [ -77.16648, 38.86721 ], [ -77.16559, 38.8679 ], [ -77.16552, 38.86853 ], [ -77.16453, 38.86853 ], [ -77.16441, 38.86912 ], [ -77.16606, 38.86877 ] ], [ [ -77.1623, 38.86657 ], [ -77.16158, 38.86617 ], [ -77.16266, 38.86696 ], [ -77.16383, 38.86745 ], [ -77.1623, 38.86657 ] ], [ [ -77.16367, 38.86602 ], [ -77.16385, 38.86612 ], [ -77.16382, 38.86599 ], [ -77.16367, 38.86602 ] ], [ [ -77.16347, 38.86455 ], [ -77.1644, 38.86457 ], [ -77.16502, 38.86513 ], [ -77.16527, 38.86622 ], [ -77.16571, 38.865 ], [ -77.16735, 38.86318 ], [ -77.16532, 38.86203 ], [ -77.16684, 38.86323 ], [ -77.16602, 38.86371 ], [ -77.16446, 38.86302 ], [ -77.16579, 38.86377 ], [ -77.16594, 38.86452 ], [ -77.16497, 38.86464 ], [ -77.16365, 38.86389 ], [ -77.16236, 38.86527 ], [ -77.16347, 38.86455 ] ], [ [ -77.16743, 38.85844 ], [ -77.16509, 38.85836 ], [ -77.16497, 38.85796 ], [ -77.16556, 38.8574 ], [ -77.1649, 38.85757 ], [ -77.16418, 38.85705 ], [ -77.16497, 38.85631 ], [ -77.16363, 38.85653 ], [ -77.1628, 38.85613 ], [ -77.16311, 38.85552 ], [ -77.16457, 38.85525 ], [ -77.16453, 38.855 ], [ -77.16282, 38.85505 ], [ -77.16062, 38.85611 ], [ -77.15919, 38.85548 ], [ -77.15866, 38.8562 ], [ -77.16031, 38.85707 ], [ -77.16113, 38.85872 ], [ -77.16093, 38.85922 ], [ -77.16366, 38.86059 ], [ -77.16405, 38.86159 ], [ -77.16743, 38.85844 ] ], [ [ -77.15845, 38.85219 ], [ -77.15919, 38.85093 ], [ -77.15834, 38.85163 ], [ -77.15845, 38.85219 ] ], [ [ -77.16753, 38.85984 ], [ -77.16731, 38.86001 ], [ -77.16946, 38.86028 ], [ -77.16753, 38.85984 ] ], [ [ -77.16431, 38.85394 ], [ -77.16473, 38.85386 ], [ -77.16247, 38.85341 ], [ -77.1631, 38.85399 ], [ -77.16431, 38.85394 ] ], [ [ -77.16435, 38.85143 ], [ -77.16439, 38.85108 ], [ -77.16187, 38.851 ], [ -77.1618, 38.8513 ], [ -77.16435, 38.85143 ] ], [ [ -77.16246, 38.84937 ], [ -77.16243, 38.84851 ], [ -77.16211, 38.84993 ], [ -77.16246, 38.84937 ] ], [ [ -77.1675, 38.85398 ], [ -77.16607, 38.85412 ], [ -77.16595, 38.85443 ], [ -77.16633, 38.85481 ], [ -77.166, 38.85556 ], [ -77.1668, 38.85692 ], [ -77.16735, 38.8559 ], [ -77.16787, 38.85581 ], [ -77.16832, 38.85603 ], [ -77.1684, 38.85754 ], [ -77.16896, 38.85437 ], [ -77.1681, 38.85512 ], [ -77.16742, 38.85451 ], [ -77.16874, 38.85258 ], [ -77.1675, 38.85398 ] ], [ [ -77.16908, 38.8501 ], [ -77.16933, 38.85157 ], [ -77.1704, 38.85071 ], [ -77.16908, 38.8501 ] ], [ [ -77.16761, 38.84956 ], [ -77.16781, 38.84967 ], [ -77.16784, 38.8496 ], [ -77.16761, 38.84956 ] ], [ [ -77.16694, 38.84836 ], [ -77.16643, 38.84847 ], [ -77.16534, 38.8499 ], [ -77.16694, 38.84836 ] ], [ [ -77.16427, 38.8492 ], [ -77.16382, 38.84847 ], [ -77.16379, 38.8501 ], [ -77.16427, 38.8492 ] ], [ [ -77.16845, 38.84836 ], [ -77.1695, 38.84818 ], [ -77.1691, 38.84779 ], [ -77.16837, 38.84784 ], [ -77.16845, 38.84836 ] ], [ [ -77.16683, 38.85045 ], [ -77.1658, 38.85092 ], [ -77.16572, 38.85159 ], [ -77.16659, 38.85225 ], [ -77.16648, 38.85309 ], [ -77.16714, 38.85245 ], [ -77.16666, 38.85101 ], [ -77.16755, 38.85081 ], [ -77.16683, 38.85045 ] ], [ [ -77.16514, 38.85282 ], [ -77.16522, 38.85262 ], [ -77.1626, 38.85232 ], [ -77.16514, 38.85282 ] ], [ [ -77.17131, 38.85704 ], [ -77.17139, 38.85754 ], [ -77.17071, 38.85801 ], [ -77.17176, 38.85822 ], [ -77.17131, 38.85704 ] ], [ [ -77.16987, 38.85711 ], [ -77.16975, 38.85783 ], [ -77.17051, 38.85797 ], [ -77.16987, 38.85711 ] ], [ [ -77.1709, 38.85945 ], [ -77.17139, 38.86001 ], [ -77.17166, 38.85931 ], [ -77.16903, 38.8588 ], [ -77.1687, 38.85902 ], [ -77.1709, 38.85945 ] ], [ [ -77.16451, 38.87022 ], [ -77.16462, 38.87064 ], [ -77.16607, 38.87 ], [ -77.16451, 38.87022 ] ], [ [ -77.15982, 38.84987 ], [ -77.15979, 38.84993 ], [ -77.16073, 38.84986 ], [ -77.1608, 38.84955 ], [ -77.15982, 38.84987 ] ], [ [ -77.15989, 38.84819 ], [ -77.15997, 38.84829 ], [ -77.15999, 38.84822 ], [ -77.15989, 38.84819 ] ], [ [ -77.15865, 38.8485 ], [ -77.15876, 38.84818 ], [ -77.15829, 38.84824 ], [ -77.15865, 38.8485 ] ], [ [ -77.16119, 38.85519 ], [ -77.1617, 38.85442 ], [ -77.16143, 38.85414 ], [ -77.16049, 38.8549 ], [ -77.16119, 38.85519 ] ], [ [ -77.15954, 38.8543 ], [ -77.15975, 38.85444 ], [ -77.15973, 38.85426 ], [ -77.15954, 38.8543 ] ], [ [ -77.15745, 38.8581 ], [ -77.15729, 38.8585 ], [ -77.15832, 38.85718 ], [ -77.15745, 38.8581 ] ], [ [ -77.16171, 38.86118 ], [ -77.16281, 38.86211 ], [ -77.16261, 38.86138 ], [ -77.16117, 38.86053 ], [ -77.16093, 38.86106 ], [ -77.16171, 38.86118 ] ], [ [ -77.15917, 38.86113 ], [ -77.15823, 38.86188 ], [ -77.15876, 38.86238 ], [ -77.15886, 38.8614 ], [ -77.15989, 38.86155 ], [ -77.16056, 38.86114 ], [ -77.15982, 38.86089 ], [ -77.15917, 38.86113 ] ], [ [ -77.15948, 38.8587 ], [ -77.15918, 38.85815 ], [ -77.15834, 38.85924 ], [ -77.15948, 38.8587 ] ], [ [ -77.16002, 38.8735 ], [ -77.16135, 38.87271 ], [ -77.15904, 38.87309 ], [ -77.16002, 38.8735 ] ], [ [ -77.15825, 38.86705 ], [ -77.15744, 38.86754 ], [ -77.15845, 38.86718 ], [ -77.15891, 38.86738 ], [ -77.15971, 38.86631 ], [ -77.15825, 38.86705 ] ], [ [ -77.15683, 38.86654 ], [ -77.15756, 38.86612 ], [ -77.15706, 38.86617 ], [ -77.15644, 38.86572 ], [ -77.15683, 38.86654 ] ], [ [ -77.15741, 38.86448 ], [ -77.15676, 38.86531 ], [ -77.15783, 38.86472 ], [ -77.15741, 38.86448 ] ], [ [ -77.16056, 38.86847 ], [ -77.16057, 38.86772 ], [ -77.16142, 38.86755 ], [ -77.16078, 38.86712 ], [ -77.15991, 38.86818 ], [ -77.16056, 38.86847 ] ], [ [ -77.16179, 38.86352 ], [ -77.16134, 38.86351 ], [ -77.16199, 38.86383 ], [ -77.16251, 38.86328 ], [ -77.16179, 38.86352 ] ], [ [ -77.16017, 38.86318 ], [ -77.16068, 38.86331 ], [ -77.16044, 38.86318 ], [ -77.16017, 38.86318 ] ], [ [ -77.16119, 38.86873 ], [ -77.16292, 38.86837 ], [ -77.16151, 38.86863 ], [ -77.1607, 38.86852 ], [ -77.16119, 38.86873 ] ], [ [ -77.16042, 38.87028 ], [ -77.16041, 38.87026 ], [ -77.16041, 38.87027 ], [ -77.16042, 38.87028 ] ], [ [ -77.15596, 38.87013 ], [ -77.15611, 38.87025 ], [ -77.15704, 38.86935 ], [ -77.15596, 38.87013 ] ], [ [ -77.15539, 38.86864 ], [ -77.15563, 38.86895 ], [ -77.15642, 38.86828 ], [ -77.15539, 38.86864 ] ], [ [ -77.15565, 38.85667 ], [ -77.15658, 38.85713 ], [ -77.15716, 38.85618 ], [ -77.15643, 38.85595 ], [ -77.15565, 38.85667 ] ], [ [ -77.15645, 38.85963 ], [ -77.15625, 38.85953 ], [ -77.15628, 38.85968 ], [ -77.15645, 38.85963 ] ], [ [ -77.15817, 38.87166 ], [ -77.15747, 38.8713 ], [ -77.15704, 38.87165 ], [ -77.15817, 38.87166 ] ], [ [ -77.15615, 38.84916 ], [ -77.15604, 38.85038 ], [ -77.15669, 38.84967 ], [ -77.15615, 38.84916 ] ], [ [ -77.15616, 38.8519 ], [ -77.15629, 38.85166 ], [ -77.15588, 38.8518 ], [ -77.15616, 38.8519 ] ], [ [ -77.15774, 38.85038 ], [ -77.15734, 38.85083 ], [ -77.15751, 38.85075 ], [ -77.15774, 38.85038 ] ], [ [ -77.15015, 38.86819 ], [ -77.15021, 38.86743 ], [ -77.15071, 38.8673 ], [ -77.15153, 38.86778 ], [ -77.15055, 38.86653 ], [ -77.14854, 38.86722 ], [ -77.14792, 38.86824 ], [ -77.15227, 38.87007 ], [ -77.15015, 38.86819 ] ], [ [ -77.15154, 38.86324 ], [ -77.15175, 38.8627 ], [ -77.15049, 38.86294 ], [ -77.1491, 38.8621 ], [ -77.15016, 38.86377 ], [ -77.15154, 38.86324 ] ], [ [ -77.15022, 38.86058 ], [ -77.14946, 38.86104 ], [ -77.14966, 38.86127 ], [ -77.15037, 38.86105 ], [ -77.15022, 38.86058 ] ], [ [ -77.15285, 38.8552 ], [ -77.15378, 38.85488 ], [ -77.15008, 38.85362 ], [ -77.14936, 38.85483 ], [ -77.15245, 38.85652 ], [ -77.15285, 38.8552 ] ], [ [ -77.15224, 38.86242 ], [ -77.15195, 38.86262 ], [ -77.15218, 38.86248 ], [ -77.15224, 38.86242 ] ], [ [ -77.15312, 38.85814 ], [ -77.15272, 38.85819 ], [ -77.15301, 38.85862 ], [ -77.15312, 38.85814 ] ], [ [ -77.15146, 38.85288 ], [ -77.15133, 38.8529 ], [ -77.15147, 38.85296 ], [ -77.15146, 38.85288 ] ], [ [ -77.15235, 38.86631 ], [ -77.15317, 38.86734 ], [ -77.15403, 38.86653 ], [ -77.15337, 38.86615 ], [ -77.15354, 38.86544 ], [ -77.15235, 38.86631 ] ], [ [ -77.15242, 38.87263 ], [ -77.15338, 38.87223 ], [ -77.15224, 38.87176 ], [ -77.15242, 38.87263 ] ], [ [ -77.14844, 38.853 ], [ -77.14788, 38.85278 ], [ -77.14736, 38.85328 ], [ -77.14802, 38.8539 ], [ -77.14762, 38.8547 ], [ -77.14789, 38.85448 ], [ -77.14844, 38.853 ] ], [ [ -77.14525, 38.85002 ], [ -77.1452, 38.85013 ], [ -77.1455, 38.85021 ], [ -77.14525, 38.85002 ] ], [ [ -77.14857, 38.866 ], [ -77.14779, 38.86483 ], [ -77.14881, 38.86452 ], [ -77.14733, 38.86249 ], [ -77.14699, 38.86277 ], [ -77.14746, 38.86339 ], [ -77.14613, 38.86459 ], [ -77.14712, 38.86624 ], [ -77.14857, 38.866 ] ], [ [ -77.14744, 38.8596 ], [ -77.14791, 38.85941 ], [ -77.14716, 38.85861 ], [ -77.14744, 38.8596 ] ], [ [ -77.15233, 38.8464 ], [ -77.15254, 38.84636 ], [ -77.15232, 38.84621 ], [ -77.15233, 38.8464 ] ], [ [ -77.14093, 38.86557 ], [ -77.14095, 38.86557 ], [ -77.14038, 38.86525 ], [ -77.14093, 38.86557 ] ], [ [ -77.14037, 38.86359 ], [ -77.13883, 38.86291 ], [ -77.13881, 38.8631 ], [ -77.14019, 38.86378 ], [ -77.14037, 38.86359 ] ], [ [ -77.14119, 38.86272 ], [ -77.14191, 38.86223 ], [ -77.14317, 38.86219 ], [ -77.14254, 38.86177 ], [ -77.14235, 38.86095 ], [ -77.14145, 38.86189 ], [ -77.14092, 38.86185 ], [ -77.14064, 38.86111 ], [ -77.14116, 38.86039 ], [ -77.14042, 38.86019 ], [ -77.1392, 38.86138 ], [ -77.14119, 38.86272 ] ], [ [ -77.14008, 38.85723 ], [ -77.14045, 38.85733 ], [ -77.14016, 38.85717 ], [ -77.14008, 38.85723 ] ], [ [ -77.13963, 38.85521 ], [ -77.13956, 38.85517 ], [ -77.13974, 38.85535 ], [ -77.13963, 38.85521 ] ], [ [ -77.13688, 38.85301 ], [ -77.13787, 38.85232 ], [ -77.13995, 38.85309 ], [ -77.13778, 38.85186 ], [ -77.13688, 38.85301 ] ], [ [ -77.13873, 38.85104 ], [ -77.14078, 38.85202 ], [ -77.14112, 38.85157 ], [ -77.13907, 38.8506 ], [ -77.13873, 38.85104 ] ], [ [ -77.13828, 38.84892 ], [ -77.13532, 38.85294 ], [ -77.13687, 38.85094 ], [ -77.13825, 38.84957 ], [ -77.13828, 38.84892 ] ], [ [ -77.13851, 38.84707 ], [ -77.13956, 38.8485 ], [ -77.13974, 38.84843 ], [ -77.13851, 38.84707 ] ], [ [ -77.13636, 38.84652 ], [ -77.1362, 38.84655 ], [ -77.13627, 38.84662 ], [ -77.13636, 38.84652 ] ], [ [ -77.13505, 38.84523 ], [ -77.13557, 38.84583 ], [ -77.13548, 38.84571 ], [ -77.13505, 38.84523 ] ], [ [ -77.14167, 38.85624 ], [ -77.14191, 38.85637 ], [ -77.14199, 38.85626 ], [ -77.14167, 38.85624 ] ], [ [ -77.14334, 38.85452 ], [ -77.14135, 38.85358 ], [ -77.14125, 38.85371 ], [ -77.14334, 38.85452 ] ], [ [ -77.14234, 38.85014 ], [ -77.14167, 38.85033 ], [ -77.14043, 38.84936 ], [ -77.13979, 38.84967 ], [ -77.14185, 38.85065 ], [ -77.14234, 38.85014 ] ], [ [ -77.14237, 38.84753 ], [ -77.14252, 38.84774 ], [ -77.14255, 38.84765 ], [ -77.14237, 38.84753 ] ], [ [ -77.14189, 38.84557 ], [ -77.14214, 38.84583 ], [ -77.14221, 38.84514 ], [ -77.14189, 38.84557 ] ], [ [ -77.14287, 38.85993 ], [ -77.14334, 38.86016 ], [ -77.14303, 38.85958 ], [ -77.14287, 38.85993 ] ], [ [ -77.14348, 38.86524 ], [ -77.14369, 38.86507 ], [ -77.14352, 38.86496 ], [ -77.14348, 38.86524 ] ], [ [ -77.14431, 38.87471 ], [ -77.14429, 38.87431 ], [ -77.1437, 38.87476 ], [ -77.14431, 38.87471 ] ], [ [ -77.14048, 38.84701 ], [ -77.14043, 38.84622 ], [ -77.13988, 38.84646 ], [ -77.14093, 38.84788 ], [ -77.14048, 38.84701 ] ], [ [ -77.13422, 38.84205 ], [ -77.13449, 38.84235 ], [ -77.13454, 38.84232 ], [ -77.13422, 38.84205 ] ], [ [ -77.13635, 38.86502 ], [ -77.13879, 38.86538 ], [ -77.13839, 38.86477 ], [ -77.13884, 38.86443 ], [ -77.13804, 38.864 ], [ -77.13724, 38.86405 ], [ -77.13703, 38.86345 ], [ -77.13628, 38.86305 ], [ -77.13566, 38.86528 ], [ -77.13635, 38.86502 ] ], [ [ -77.13718, 38.86025 ], [ -77.13652, 38.85956 ], [ -77.13645, 38.85833 ], [ -77.1373, 38.85754 ], [ -77.13839, 38.85776 ], [ -77.13899, 38.85638 ], [ -77.13805, 38.85587 ], [ -77.13677, 38.85741 ], [ -77.13548, 38.85802 ], [ -77.1356, 38.86107 ], [ -77.13629, 38.86104 ], [ -77.13718, 38.86025 ] ], [ [ -77.13692, 38.85525 ], [ -77.13526, 38.85434 ], [ -77.13522, 38.85494 ], [ -77.13608, 38.85534 ], [ -77.13625, 38.85606 ], [ -77.13692, 38.85525 ] ], [ [ -77.13318, 38.8532 ], [ -77.13288, 38.85347 ], [ -77.13362, 38.85381 ], [ -77.13358, 38.85418 ], [ -77.13412, 38.85371 ], [ -77.13318, 38.8532 ] ], [ [ -77.13319, 38.85447 ], [ -77.1332, 38.85451 ], [ -77.1334, 38.85434 ], [ -77.13319, 38.85447 ] ], [ [ -77.13356, 38.85055 ], [ -77.13273, 38.85031 ], [ -77.13269, 38.8499 ], [ -77.13458, 38.84884 ], [ -77.13087, 38.85053 ], [ -77.13234, 38.85095 ], [ -77.13283, 38.85149 ], [ -77.13356, 38.85055 ] ], [ [ -77.13285, 38.8481 ], [ -77.13095, 38.84848 ], [ -77.13122, 38.84887 ], [ -77.13285, 38.8481 ] ], [ [ -77.13141, 38.84075 ], [ -77.13122, 38.84083 ], [ -77.13209, 38.84184 ], [ -77.13141, 38.84075 ] ], [ [ -77.13409, 38.85224 ], [ -77.13551, 38.85011 ], [ -77.13496, 38.85082 ], [ -77.13409, 38.85224 ] ], [ [ -77.13585, 38.84842 ], [ -77.13644, 38.84921 ], [ -77.13655, 38.84906 ], [ -77.13585, 38.84842 ] ], [ [ -77.13512, 38.84723 ], [ -77.13481, 38.84687 ], [ -77.13488, 38.84725 ], [ -77.13512, 38.84723 ] ], [ [ -77.13899, 38.85494 ], [ -77.13913, 38.85496 ], [ -77.13898, 38.85491 ], [ -77.13899, 38.85494 ] ], [ [ -77.13731, 38.84761 ], [ -77.13714, 38.84769 ], [ -77.13737, 38.84801 ], [ -77.13731, 38.84761 ] ], [ [ -77.13646, 38.85356 ], [ -77.13659, 38.85363 ], [ -77.13654, 38.85357 ], [ -77.13646, 38.85356 ] ], [ [ -77.13859, 38.86162 ], [ -77.13892, 38.8614 ], [ -77.13832, 38.86088 ], [ -77.13798, 38.86133 ], [ -77.13859, 38.86162 ] ], [ [ -77.1369, 38.86208 ], [ -77.13687, 38.86206 ], [ -77.13683, 38.86207 ], [ -77.1369, 38.86208 ] ], [ [ -77.13886, 38.86003 ], [ -77.13882, 38.86011 ], [ -77.13906, 38.85983 ], [ -77.13886, 38.86003 ] ], [ [ -77.13751, 38.86237 ], [ -77.13714, 38.8622 ], [ -77.1375, 38.86239 ], [ -77.13751, 38.86237 ] ], [ [ -77.13439, 38.84659 ], [ -77.13476, 38.84681 ], [ -77.13408, 38.84603 ], [ -77.13439, 38.84659 ] ], [ [ -77.13311, 38.84269 ], [ -77.13306, 38.84264 ], [ -77.13287, 38.84274 ], [ -77.13311, 38.84269 ] ], [ [ -77.13428, 38.84761 ], [ -77.13412, 38.84763 ], [ -77.13415, 38.84767 ], [ -77.13428, 38.84761 ] ], [ [ -77.13422, 38.86085 ], [ -77.13393, 38.86112 ], [ -77.13414, 38.86103 ], [ -77.13422, 38.86085 ] ], [ [ -77.13391, 38.85615 ], [ -77.13382, 38.85599 ], [ -77.13384, 38.85605 ], [ -77.13391, 38.85615 ] ], [ [ -77.12899, 38.84849 ], [ -77.12941, 38.8498 ], [ -77.13008, 38.8495 ], [ -77.12936, 38.84832 ], [ -77.12899, 38.84849 ] ], [ [ -77.12584, 38.84753 ], [ -77.12539, 38.84797 ], [ -77.12721, 38.8485 ], [ -77.12584, 38.84753 ] ], [ [ -77.12925, 38.85126 ], [ -77.12968, 38.85224 ], [ -77.13039, 38.85176 ], [ -77.12925, 38.85126 ] ] ] } },
{ "type": "Feature", "properties": { "variant": "T2s", "miles": 1.0 }, "geometry": { "type": "Polygon", "coordinates": [ [ [ -77.15816, 38.8547 ], [ -77.15597, 38.85304 ], [ -77.15591, 38.85228 ], [ -77.15689, 38.85223 ], [ -77.16141, 38.85532 ], [ -77.16114, 38.85606 ], [ -77.15919, 38.85548 ], [ -77.15866, 38.8562 ], [ -77.16039, 38.85719 ], [ -77.16114, 38.85883 ], [ -77.16021, 38.85962 ], [ -77.16108, 38.8603 ], [ -77.16115, 38.86087 ], [ -77.16076, 38.86114 ], [ -77.1599, 38.86085 ], [ -77.15777, 38.86226 ], [ -77.1568, 38.86238 ], [ -77.15665, 38.86162 ], [ -77.1581, 38.86044 ], [ -77.15625, 38.85953 ], [ -77.15585, 38.86047 ], [ -77.155, 38.86076 ], [ -77.15509, 38.86147 ], [ -77.15372, 38.86287 ], [ -77.15287, 38.86457 ], [ -77.1517, 38.86588 ], [ -77.15076, 38.86624 ], [ -77.1502, 38.86561 ], [ -77.15092, 38.86454 ], [ -77.15016, 38.86374 ], [ -77.15154, 38.86324 ], [ -77.15175, 38.8627 ], [ -77.15101, 38.863 ], [ -77.14959, 38.86253 ], [ -77.14939, 38.86148 ], [ -77.15038, 38.86122 ], [ -77.15054, 38.86073 ], [ -77.14891, 38.85978 ], [ -77.15093, 38.85686 ], [ -77.14838, 38.85565 ], [ -77.14759, 38.85621 ], [ -77.14657, 38.85602 ], [ -77.1455, 38.85638 ], [ -77.14451, 38.85781 ], [ -77.14723, 38.85973 ], [ -77.14826, 38.8599 ], [ -77.14807, 38.8608 ], [ -77.14891, 38.86122 ], [ -77.14836, 38.86212 ], [ -77.14765, 38.86229 ], [ -77.1452, 38.85969 ], [ -77.14021, 38.85692 ], [ -77.13952, 38.85805 ], [ -77.13859, 38.85781 ], [ -77.13899, 38.85638 ], [ -77.13741, 38.85552 ], [ -77.13711, 38.85501 ], [ -77.13756, 38.85424 ], [ -77.13654, 38.85357 ], [ -77.13787, 38.85232 ], [ -77.14006, 38.85294 ], [ -77.13725, 38.85143 ], [ -77.13825, 38.84957 ], [ -77.1392, 38.84939 ], [ -77.14185, 38.85065 ], [ -77.14264, 38.84978 ], [ -77.14165, 38.84917 ], [ -77.14176, 38.84846 ], [ -77.14223, 38.84827 ], [ -77.1443, 38.84891 ], [ -77.14494, 38.84746 ], [ -77.14561, 38.84709 ], [ -77.14629, 38.84729 ], [ -77.14664, 38.84793 ], [ -77.14585, 38.84892 ], [ -77.14697, 38.84895 ], [ -77.1476, 38.84936 ], [ -77.1476, 38.85006 ], [ -77.14686, 38.85058 ], [ -77.14771, 38.85097 ], [ -77.1481, 38.85167 ], [ -77.14838, 38.85177 ], [ -77.14835, 38.85003 ], [ -77.14917, 38.84814 ], [ -77.15002, 38.84776 ], [ -77.1505, 38.84842 ], [ -77.14972, 38.85016 ], [ -77.14971, 38.85147 ], [ -77.15055, 38.84918 ], [ -77.15121, 38.84875 ], [ -77.15203, 38.84876 ], [ -77.15261, 38.84978 ], [ -77.15138, 38.85075 ], [ -77.15102, 38.85184 ], [ -77.15243, 38.85208 ], [ -77.15299, 38.85346 ], [ -77.15779, 38.85521 ], [ -77.15816, 38.8547 ] ], [ [ -77.14955, 38.85492 ], [ -77.15245, 38.85652 ], [ -77.15285, 38.8552 ], [ -77.15378, 38.85488 ], [ -77.15008, 38.85362 ], [ -77.14955, 38.85492 ] ], [ [ -77.14828, 38.8541 ], [ -77.14805, 38.8536 ], [ -77.14844, 38.853 ], [ -77.14788, 38.85278 ], [ -77.14736, 38.85328 ], [ -77.14802, 38.8539 ], [ -77.14762, 38.8547 ], [ -77.14828, 38.8541 ] ], [ [ -77.14398, 38.85167 ], [ -77.14617, 38.8527 ], [ -77.14661, 38.85232 ], [ -77.14666, 38.85167 ], [ -77.14427, 38.85101 ], [ -77.14398, 38.85167 ] ], [ [ -77.14375, 38.85049 ], [ -77.14374, 38.85045 ], [ -77.14372, 38.85048 ], [ -77.14375, 38.85049 ] ], [ [ -77.15301, 38.85862 ], [ -77.15312, 38.85814 ], [ -77.15272, 38.85819 ], [ -77.15301, 38.85862 ] ], [ [ -77.15948, 38.8587 ], [ -77.15918, 38.85815 ], [ -77.15834, 38.85924 ], [ -77.15948, 38.8587 ] ], [ [ -77.1562, 38.85616 ], [ -77.15565, 38.85667 ], [ -77.15658, 38.85713 ], [ -77.15716, 38.85618 ], [ -77.1562, 38.85616 ] ], [ [ -77.15431, 38.85631 ], [ -77.15395, 38.85614 ], [ -77.15363, 38.85714 ], [ -77.15367, 38.85715 ], [ -77.15431, 38.85631 ] ], [ [ -77.15515, 38.85545 ], [ -77.1547, 38.85514 ], [ -77.15429, 38.85504 ], [ -77.15515, 38.85545 ] ], [ [ -77.15819, 38.85705 ], [ -77.15745, 38.8581 ], [ -77.15729, 38.8585 ], [ -77.15832, 38.85718 ], [ -77.15819, 38.85705 ] ], [ [ -77.15511, 38.85768 ], [ -77.15487, 38.8577 ], [ -77.15479, 38.8578 ], [ -77.15511, 38.85768 ] ], [ [ -77.15451, 38.85828 ], [ -77.15449, 38.85825 ], [ -77.15449, 38.85827 ], [ -77.15451, 38.85828 ] ], [ [ -77.15147, 38.85296 ], [ -77.15146, 38.85288 ], [ -77.15133, 38.8529 ], [ -77.15147, 38.85296 ] ], [ [ -77.15218, 38.86248 ], [ -77.15227, 38.86259 ], [ -77.15224, 38.86242 ], [ -77.15218, 38.86248 ] ], [ [ -77.14565, 38.85001 ], [ -77.14525, 38.85002 ], [ -77.1452, 38.85013 ], [ -77.1455, 38.85021 ], [ -77.14565, 38.85001 ] ], [ [ -77.14374, 38.85608 ], [ -77.14303, 38.85701 ], [ -77.14337, 38.85719 ], [ -77.14398, 38.85641 ], [ -77.14374, 38.85608 ] ], [ [ -77.14125, 38.85371 ], [ -77.14334, 38.85452 ], [ -77.14135, 38.85358 ], [ -77.14125, 38.85371 ] ], [ [ -77.13907, 38.8506 ], [ -77.13873, 38.85104 ], [ -77.14078, 38.85202 ], [ -77.14112, 38.85157 ], [ -77.13907, 38.8506 ] ], [ [ -77.14416, 38.85554 ], [ -77.14422, 38.85553 ], [ -77.14423, 38.85545 ], [ -77.14416, 38.85554 ] ], [ [ -77.14191, 38.85637 ], [ -77.14172, 38.85617 ], [ -77.14167, 38.85624 ], [ -77.14191, 38.85637 ] ], [ [ -77.13979, 38.8553 ], [ -77.13956, 38.85517 ], [ -77.13974, 38.85535 ], [ -77.13979, 38.8553 ] ], [ [ -77.13898, 38.85491 ], [ -77.13874, 38.85481 ], [ -77.13913, 38.85496 ], [ -77.13898, 38.85491 ] ] ] } },
{ "type": "Feature", "properties": { "variant": "T2s", "miles": 1.5 }, "geometry": { "type": "Polygon", "coordinates": [ [ [ -77.16512, 38.84778 ], [ -77.16576, 38.84921 ], [ -77.16534, 38.8499 ], [ -77.16667, 38.84916 ], [ -77.16747, 38.84959 ], [ -77.16713, 38.85023 ], [ -77.1658, 38.85092 ], [ -77.16572, 38.85159 ], [ -77.16664, 38.85252 ], [ -77.16576, 38.85526 ], [ -77.16529, 38.85546 ], [ -77.16454, 38.855 ], [ -77.16282, 38.85505 ], [ -77.16062, 38.85611 ], [ -77.15919, 38.85548 ], [ -77.15866, 38.8562 ], [ -77.16022, 38.85698 ], [ -77.16105, 38.85852 ], [ -77.16098, 38.85918 ], [ -77.16021, 38.85962 ], [ -77.16117, 38.86045 ], [ -77.16085, 38.86108 ], [ -77.16175, 38.8612 ], [ -77.16293, 38.86239 ], [ -77.16221, 38.86336 ], [ -77.16134, 38.86351 ], [ -77.16168, 38.86424 ], [ -77.16051, 38.86579 ], [ -77.15744, 38.86754 ], [ -77.15801, 38.86831 ], [ -77.15783, 38.8687 ], [ -77.15539, 38.87043 ], [ -77.15648, 38.87176 ], [ -77.15619, 38.87249 ], [ -77.15517, 38.87225 ], [ -77.15435, 38.87118 ], [ -77.15374, 38.87178 ], [ -77.1527, 38.87127 ], [ -77.15337, 38.87015 ], [ -77.14504, 38.85971 ], [ -77.1444, 38.85934 ], [ -77.14384, 38.86013 ], [ -77.14291, 38.85963 ], [ -77.14419, 38.86077 ], [ -77.1441, 38.86118 ], [ -77.14366, 38.86141 ], [ -77.14235, 38.86095 ], [ -77.14145, 38.86189 ], [ -77.14059, 38.86153 ], [ -77.14116, 38.86039 ], [ -77.14042, 38.86019 ], [ -77.1392, 38.86138 ], [ -77.13985, 38.86171 ], [ -77.13951, 38.86259 ], [ -77.13883, 38.86285 ], [ -77.13821, 38.86392 ], [ -77.13724, 38.86405 ], [ -77.13696, 38.8637 ], [ -77.13751, 38.86237 ], [ -77.13687, 38.86206 ], [ -77.13616, 38.86275 ], [ -77.13564, 38.8627 ], [ -77.13536, 38.86216 ], [ -77.13445, 38.86203 ], [ -77.13423, 38.86166 ], [ -77.13489, 38.86109 ], [ -77.13675, 38.86084 ], [ -77.13718, 38.86025 ], [ -77.13652, 38.85956 ], [ -77.13645, 38.85833 ], [ -77.1373, 38.85754 ], [ -77.13839, 38.85776 ], [ -77.13899, 38.85638 ], [ -77.13805, 38.85587 ], [ -77.13657, 38.85756 ], [ -77.13488, 38.85814 ], [ -77.13265, 38.8577 ], [ -77.13244, 38.85605 ], [ -77.13074, 38.85654 ], [ -77.12984, 38.85624 ], [ -77.12985, 38.85582 ], [ -77.13211, 38.85379 ], [ -77.13147, 38.85331 ], [ -77.13201, 38.8526 ], [ -77.12941, 38.8511 ], [ -77.1292, 38.85036 ], [ -77.13015, 38.85019 ], [ -77.13234, 38.85095 ], [ -77.13279, 38.85153 ], [ -77.1346, 38.84888 ], [ -77.13342, 38.84875 ], [ -77.13367, 38.84801 ], [ -77.13979, 38.84526 ], [ -77.14189, 38.84317 ], [ -77.14317, 38.84322 ], [ -77.14329, 38.8439 ], [ -77.14494, 38.84561 ], [ -77.1449, 38.84651 ], [ -77.144, 38.84727 ], [ -77.14339, 38.8488 ], [ -77.1443, 38.84891 ], [ -77.14529, 38.84716 ], [ -77.14849, 38.84695 ], [ -77.1489, 38.84737 ], [ -77.14881, 38.8481 ], [ -77.14733, 38.8491 ], [ -77.14767, 38.84989 ], [ -77.14686, 38.85058 ], [ -77.14838, 38.85177 ], [ -77.14842, 38.84979 ], [ -77.14917, 38.84814 ], [ -77.15002, 38.84776 ], [ -77.1505, 38.84842 ], [ -77.14972, 38.85016 ], [ -77.14971, 38.85147 ], [ -77.15059, 38.84914 ], [ -77.15127, 38.84873 ], [ -77.15217, 38.84882 ], [ -77.15257, 38.84987 ], [ -77.15138, 38.85075 ], [ -77.15102, 38.85184 ], [ -77.15243, 38.85208 ], [ -77.15299, 38.85346 ], [ -77.15779, 38.85521 ], [ -77.15816, 38.8547 ], [ -77.15764, 38.8542 ], [ -77.15328, 38.85178 ], [ -77.15473, 38.85003 ], [ -77.15491, 38.84832 ], [ -77.15664, 38.84686 ], [ -77.15746, 38.84732 ], [ -77.16004, 38.8471 ], [ -77.16046, 38.84646 ], [ -77.16512, 38.84778 ] ], [ [ -77.15154, 38.86324 ], [ -77.15175, 38.8627 ], [ -77.15049, 38.86294 ], [ -77.14931, 38.86199 ], [ -77.15009, 38.86367 ], [ -77.15154, 38.86324 ] ], [ [ -77.14981, 38.85834 ], [ -77.15093, 38.85686 ], [ -77.14838, 38.85565 ], [ -77.14759, 38.85621 ], [ -77.14657, 38.85602 ], [ -77.1455, 38.85638 ], [ -77.14451, 38.85781 ], [ -77.14566, 38.85844 ], [ -77.14649, 38.8576 ], [ -77.1476, 38.85737 ], [ -77.14904, 38.85877 ], [ -77.14981, 38.85834 ] ], [ [ -77.1483, 38.85412 ], [ -77.14805, 38.8536 ], [ -77.14844, 38.853 ], [ -77.14788, 38.85278 ], [ -77.14736, 38.85328 ], [ -77.14799, 38.85377 ], [ -77.14775, 38.85459 ], [ -77.1483, 38.85412 ] ], [ [ -77.14422, 38.85553 ], [ -77.14423, 38.85545 ], [ -77.14416, 38.85554 ], [ -77.14422, 38.85553 ] ], [ [ -77.14135, 38.85358 ], [ -77.14125, 38.85371 ], [ -77.14323, 38.85465 ], [ -77.14135, 38.85358 ] ], [ [ -77.15623, 38.86809 ], [ -77.15539, 38.86864 ], [ -77.15563, 38.86895 ], [ -77.15623, 38.86809 ] ], [ [ -77.15491, 38.86771 ], [ -77.15552, 38.86689 ], [ -77.15413, 38.86774 ], [ -77.15343, 38.86767 ], [ -77.15414, 38.86859 ], [ -77.15482, 38.86829 ], [ -77.15491, 38.86771 ] ], [ [ -77.15403, 38.86653 ], [ -77.15337, 38.86615 ], [ -77.1535, 38.86537 ], [ -77.15235, 38.86631 ], [ -77.15317, 38.86734 ], [ -77.15403, 38.86653 ] ], [ [ -77.15372, 38.86287 ], [ -77.15365, 38.86327 ], [ -77.15411, 38.86268 ], [ -77.15372, 38.86287 ] ], [ [ -77.15312, 38.85814 ], [ -77.15272, 38.85819 ], [ -77.15301, 38.85862 ], [ -77.15312, 38.85814 ] ], [ [ -77.15285, 38.8552 ], [ -77.15378, 38.85488 ], [ -77.15008, 38.85362 ], [ -77.14936, 38.85483 ], [ -77.15245, 38.85652 ], [ -77.15285, 38.8552 ] ], [ [ -77.15886, 38.8614 ], [ -77.15989, 38.86155 ], [ -77.16056, 38.86114 ], [ -77.1599, 38.86085 ], [ -77.1592, 38.86111 ], [ -77.15823, 38.86188 ], [ -77.15876, 38.86238 ], [ -77.15886, 38.8614 ] ], [ [ -77.15761, 38.86022 ], [ -77.15426, 38.86459 ], [ -77.1581, 38.86044 ], [ -77.15761, 38.86022 ] ], [ [ -77.15948, 38.8587 ], [ -77.15918, 38.85815 ], [ -77.15834, 38.85924 ], [ -77.15948, 38.8587 ] ], [ [ -77.15832, 38.85718 ], [ -77.15819, 38.85705 ], [ -77.15729, 38.8585 ], [ -77.15832, 38.85718 ] ], [ [ -77.15774, 38.85038 ], [ -77.15734, 38.85083 ], [ -77.15751, 38.85075 ], [ -77.15774, 38.85038 ] ], [ [ -77.16439, 38.85108 ], [ -77.16187, 38.851 ], [ -77.16234, 38.85227 ], [ -77.16514, 38.85282 ], [ -77.16433, 38.85216 ], [ -77.16439, 38.85108 ] ], [ [ -77.15834, 38.85163 ], [ -77.15845, 38.85219 ], [ -77.15919, 38.85093 ], [ -77.15834, 38.85163 ] ], [ [ -77.16382, 38.84847 ], [ -77.16379, 38.8501 ], [ -77.16427, 38.8492 ], [ -77.16382, 38.84847 ] ], [ [ -77.16246, 38.84937 ], [ -77.16243, 38.84851 ], [ -77.16211, 38.84993 ], [ -77.16246, 38.84937 ] ], [ [ -77.15982, 38.84987 ], [ -77.15979, 38.84993 ], [ -77.16073, 38.84986 ], [ -77.16071, 38.84961 ], [ -77.15982, 38.84987 ] ], [ [ -77.15999, 38.84822 ], [ -77.15989, 38.84819 ], [ -77.15997, 38.84829 ], [ -77.15999, 38.84822 ] ], [ [ -77.15865, 38.8485 ], [ -77.15876, 38.84818 ], [ -77.15829, 38.84824 ], [ -77.15865, 38.8485 ] ], [ [ -77.16143, 38.85414 ], [ -77.16048, 38.8549 ], [ -77.16119, 38.85519 ], [ -77.16166, 38.85446 ], [ -77.16143, 38.85414 ] ], [ [ -77.15975, 38.85444 ], [ -77.15976, 38.85417 ], [ -77.15954, 38.8543 ], [ -77.15975, 38.85444 ] ], [ [ -77.16351, 38.85362 ], [ -77.16247, 38.85341 ], [ -77.16322, 38.85402 ], [ -77.16473, 38.85386 ], [ -77.16351, 38.85362 ] ], [ [ -77.15683, 38.86654 ], [ -77.15756, 38.86612 ], [ -77.15706, 38.86617 ], [ -77.15644, 38.86572 ], [ -77.15683, 38.86654 ] ], [ [ -77.15741, 38.86448 ], [ -77.15676, 38.86531 ], [ -77.15783, 38.86472 ], [ -77.15741, 38.86448 ] ], [ [ -77.16017, 38.86318 ], [ -77.16068, 38.86331 ], [ -77.16044, 38.86318 ], [ -77.16017, 38.86318 ] ], [ [ -77.15487, 38.8577 ], [ -77.15479, 38.8578 ], [ -77.15511, 38.85768 ], [ -77.15487, 38.8577 ] ], [ [ -77.15565, 38.85667 ], [ -77.15658, 38.85713 ], [ -77.15716, 38.85618 ], [ -77.15643, 38.85595 ], [ -77.15565, 38.85667 ] ], [ [ -77.15429, 38.85504 ], [ -77.15525, 38.85536 ], [ -77.15509, 38.85526 ], [ -77.15429, 38.85504 ] ], [ [ -77.15367, 38.85715 ], [ -77.15431, 38.85631 ], [ -77.15395, 38.85614 ], [ -77.15367, 38.85715 ] ], [ [ -77.15627, 38.85977 ], [ -77.15625, 38.85989 ], [ -77.15645, 38.85963 ], [ -77.15627, 38.85977 ] ], [ [ -77.155, 38.86076 ], [ -77.15514, 38.86133 ], [ -77.15572, 38.86057 ], [ -77.155, 38.86076 ] ], [ [ -77.15449, 38.85827 ], [ -77.15451, 38.85828 ], [ -77.15449, 38.85825 ], [ -77.15449, 38.85827 ] ], [ [ -77.15616, 38.8519 ], [ -77.15629, 38.85166 ], [ -77.1561, 38.85173 ], [ -77.15616, 38.8519 ] ], [ [ -77.15617, 38.84998 ], [ -77.15604, 38.85038 ], [ -77.15669, 38.84967 ], [ -77.15615, 38.84916 ], [ -77.15617, 38.84998 ] ], [ [ -77.15224, 38.86242 ], [ -77.15195, 38.86262 ], [ -77.15218, 38.86248 ], [ -77.15224, 38.86242 ] ], [ [ -77.15147, 38.85296 ], [ -77.15148, 38.85296 ], [ -77.15146, 38.85288 ], [ -77.15147, 38.85296 ] ], [ [ -77.15038, 38.86122 ], [ -77.15054, 38.86073 ], [ -77.15022, 38.86058 ], [ -77.14946, 38.86104 ], [ -77.15038, 38.86122 ] ], [ [ -77.14427, 38.85101 ], [ -77.14398, 38.85167 ], [ -77.14617, 38.8527 ], [ -77.1468, 38.85206 ], [ -77.14666, 38.85167 ], [ -77.14427, 38.85101 ] ], [ [ -77.14525, 38.85002 ], [ -77.1452, 38.85013 ], [ -77.1455, 38.85021 ], [ -77.14525, 38.85002 ] ], [ [ -77.14375, 38.85049 ], [ -77.14374, 38.85045 ], [ -77.14372, 38.85048 ], [ -77.14375, 38.85049 ] ], [ [ -77.13995, 38.85309 ], [ -77.14006, 38.85294 ], [ -77.13778, 38.85186 ], [ -77.13688, 38.85301 ], [ -77.13787, 38.85232 ], [ -77.13995, 38.85309 ] ], [ [ -77.13828, 38.84892 ], [ -77.13532, 38.85294 ], [ -77.13687, 38.85094 ], [ -77.13825, 38.84957 ], [ -77.13828, 38.84892 ] ], [ [ -77.13714, 38.84769 ], [ -77.13737, 38.84801 ], [ -77.13749, 38.84785 ], [ -77.13714, 38.84769 ] ], [ [ -77.14374, 38.85608 ], [ -77.14303, 38.85701 ], [ -77.14337, 38.85719 ], [ -77.14374, 38.85608 ] ], [ [ -77.14685, 38.85899 ], [ -77.14744, 38.8596 ], [ -77.14791, 38.85941 ], [ -77.14716, 38.85861 ], [ -77.14685, 38.85899 ] ], [ [ -77.14234, 38.85014 ], [ -77.14167, 38.85033 ], [ -77.14043, 38.84936 ], [ -77.13979, 38.84967 ], [ -77.14185, 38.85065 ], [ -77.14234, 38.85014 ] ], [ [ -77.14048, 38.84701 ], [ -77.14043, 38.84622 ], [ -77.13988, 38.84646 ], [ -77.14093, 38.84788 ], [ -77.14048, 38.84701 ] ], [ [ -77.14257, 38.84753 ], [ -77.14237, 38.84753 ], [ -77.14252, 38.84774 ], [ -77.14257, 38.84753 ] ], [ [ -77.14214, 38.84583 ], [ -77.14221, 38.84514 ], [ -77.14189, 38.84557 ], [ -77.14214, 38.84583 ] ], [ [ -77.14112, 38.85157 ], [ -77.13907, 38.8506 ], [ -77.13873, 38.85104 ], [ -77.14078, 38.85202 ], [ -77.14112, 38.85157 ] ], [ [ -77.14199, 38.85626 ], [ -77.14172, 38.85617 ], [ -77.14167, 38.85624 ], [ -77.14199, 38.85626 ] ], [ [ -77.13974, 38.84843 ], [ -77.13868, 38.847 ], [ -77.13851, 38.84707 ], [ -77.13974, 38.84843 ] ], [ [ -77.13798, 38.86133 ], [ -77.13859, 38.86162 ], [ -77.13892, 38.8614 ], [ -77.13829, 38.861 ], [ -77.13798, 38.86133 ] ], [ [ -77.13899, 38.85494 ], [ -77.13913, 38.85496 ], [ -77.13898, 38.85491 ], [ -77.13899, 38.85494 ] ], [ [ -77.13979, 38.8553 ], [ -77.13956, 38.85517 ], [ -77.13969, 38.85532 ], [ -77.13979, 38.8553 ] ], [ [ -77.13882, 38.86011 ], [ -77.13906, 38.85983 ], [ -77.13896, 38.8598 ], [ -77.13882, 38.86011 ] ], [ [ -77.14008, 38.85723 ], [ -77.14045, 38.85733 ], [ -77.14016, 38.85717 ], [ -77.14008, 38.85723 ] ], [ [ -77.13585, 38.84842 ], [ -77.13644, 38.84921 ], [ -77.13655, 38.84906 ], [ -77.13585, 38.84842 ] ], [ [ -77.13393, 38.85215 ], [ -77.13409, 38.85224 ], [ -77.13551, 38.85011 ], [ -77.13393, 38.85215 ] ], [ [ -77.13608, 38.85534 ], [ -77.13625, 38.85606 ], [ -77.13692, 38.85525 ], [ -77.13526, 38.85434 ], [ -77.13522, 38.85494 ], [ -77.13608, 38.85534 ] ], [ [ -77.13318, 38.8532 ], [ -77.13288, 38.85347 ], [ -77.13362, 38.85381 ], [ -77.13358, 38.85418 ], [ -77.13412, 38.85371 ], [ -77.13318, 38.8532 ] ], [ [ -77.1332, 38.85451 ], [ -77.1334, 38.85434 ], [ -77.13319, 38.85447 ], [ -77.1332, 38.85451 ] ], [ [ -77.13659, 38.85363 ], [ -77.13657, 38.85342 ], [ -77.13646, 38.85356 ], [ -77.13659, 38.85363 ] ], [ [ -77.13391, 38.85615 ], [ -77.13382, 38.85599 ], [ -77.13382, 38.85614 ], [ -77.13391, 38.85615 ] ] ] } },
{ "type": "Feature", "properties": { "variant": "T2s", "miles": 2.0 }, "geometry": { "type": "Polygon", "coordinates": [ [ [ -77.1598, 38.84553 ], [ -77.16073, 38.84547 ], [ -77.16136, 38.84589 ], [ -77.16153, 38.84666 ], [ -77.16414, 38.84741 ], [ -77.16525, 38.84705 ], [ -77.16705, 38.84727 ], [ -77.17095, 38.84601 ], [ -77.17212, 38.84624 ], [ -77.17256, 38.84681 ], [ -77.17198, 38.84891 ], [ -77.17104, 38.84869 ], [ -77.17107, 38.8475 ], [ -77.16994, 38.84826 ], [ -77.17051, 38.84882 ], [ -77.17032, 38.8496 ], [ -77.17135, 38.84991 ], [ -77.17154, 38.85066 ], [ -77.17058, 38.85081 ], [ -77.16908, 38.8501 ], [ -77.16933, 38.85197 ], [ -77.1675, 38.85398 ], [ -77.16602, 38.85424 ], [ -77.16633, 38.85481 ], [ -77.166, 38.85556 ], [ -77.1668, 38.85692 ], [ -77.16735, 38.8559 ], [ -77.16832, 38.85603 ], [ -77.16782, 38.85836 ], [ -77.16656, 38.85821 ], [ -77.16554, 38.85858 ], [ -77.16497, 38.85796 ], [ -77.16556, 38.8574 ], [ -77.1649, 38.85757 ], [ -77.16418, 38.85705 ], [ -77.16497, 38.85631 ], [ -77.16311, 38.85647 ], [ -77.16298, 38.85562 ], [ -77.16457, 38.85525 ], [ -77.16453, 38.855 ], [ -77.16282, 38.85505 ], [ -77.16062, 38.85611 ], [ -77.15919, 38.85548 ], [ -77.15866, 38.8562 ], [ -77.16022, 38.85698 ], [ -77.16105, 38.85852 ], [ -77.16098, 38.85918 ], [ -77.16021, 38.85962 ], [ -77.16117, 38.86045 ], [ -77.16085, 38.86108 ], [ -77.16175, 38.8612 ], [ -77.16293, 38.86239 ], [ -77.16221, 38.86336 ], [ -77.16134, 38.86351 ], [ -77.16168, 38.86424 ], [ -77.16051, 38.86579 ], [ -77.15744, 38.86754 ], [ -77.15845, 38.86718 ], [ -77.15899, 38.86786 ], [ -77.16173, 38.86884 ], [ -77.16203, 38.87105 ], [ -77.16394, 38.87074 ], [ -77.16476, 38.87116 ], [ -77.1647, 38.87208 ], [ -77.16334, 38.87292 ], [ -77.16377, 38.87357 ], [ -77.16254, 38.87454 ], [ -77.16369, 38.87443 ], [ -77.16404, 38.87474 ], [ -77.16367, 38.87563 ], [ -77.16274, 38.87584 ], [ -77.16064, 38.87498 ], [ -77.16259, 38.87614 ], [ -77.16272, 38.8769 ], [ -77.16175, 38.877 ], [ -77.1605, 38.87625 ], [ -77.15953, 38.87702 ], [ -77.15902, 38.87695 ], [ -77.15882, 38.8762 ], [ -77.15939, 38.8756 ], [ -77.15766, 38.87562 ], [ -77.15792, 38.87479 ], [ -77.15504, 38.87281 ], [ -77.15309, 38.87358 ], [ -77.15361, 38.87525 ], [ -77.15295, 38.87594 ], [ -77.15212, 38.87554 ], [ -77.15163, 38.87392 ], [ -77.14664, 38.87371 ], [ -77.14661, 38.87295 ], [ -77.1486, 38.87275 ], [ -77.14878, 38.87216 ], [ -77.14776, 38.87167 ], [ -77.14775, 38.87126 ], [ -77.14812, 38.87096 ], [ -77.14897, 38.87105 ], [ -77.14931, 38.87054 ], [ -77.1422, 38.86707 ], [ -77.14199, 38.8667 ], [ -77.14248, 38.866 ], [ -77.14086, 38.86553 ], [ -77.13976, 38.86462 ], [ -77.13724, 38.86405 ], [ -77.13703, 38.86345 ], [ -77.13628, 38.86305 ], [ -77.13557, 38.86536 ], [ -77.13635, 38.86502 ], [ -77.13691, 38.86532 ], [ -77.13962, 38.86539 ], [ -77.14011, 38.86556 ], [ -77.14009, 38.86632 ], [ -77.1279, 38.86658 ], [ -77.1277, 38.86583 ], [ -77.12685, 38.86532 ], [ -77.12677, 38.86354 ], [ -77.12553, 38.86358 ], [ -77.12483, 38.86307 ], [ -77.12494, 38.86119 ], [ -77.12542, 38.86102 ], [ -77.12615, 38.86171 ], [ -77.12678, 38.86169 ], [ -77.12705, 38.86112 ], [ -77.12797, 38.86093 ], [ -77.12651, 38.85981 ], [ -77.12628, 38.85833 ], [ -77.12725, 38.85823 ], [ -77.12805, 38.85964 ], [ -77.12972, 38.85833 ], [ -77.13056, 38.85871 ], [ -77.13057, 38.85922 ], [ -77.13418, 38.85894 ], [ -77.13455, 38.85799 ], [ -77.13302, 38.85789 ], [ -77.13241, 38.85721 ], [ -77.1318, 38.85735 ], [ -77.13136, 38.85698 ], [ -77.13002, 38.85733 ], [ -77.12977, 38.85683 ], [ -77.12837, 38.85756 ], [ -77.1274, 38.85747 ], [ -77.12731, 38.85691 ], [ -77.12787, 38.85631 ], [ -77.13067, 38.85541 ], [ -77.13211, 38.85379 ], [ -77.13147, 38.85331 ], [ -77.13201, 38.8526 ], [ -77.13115, 38.85266 ], [ -77.12977, 38.85354 ], [ -77.12844, 38.85275 ], [ -77.12802, 38.85179 ], [ -77.12598, 38.85226 ], [ -77.12557, 38.852 ], [ -77.12584, 38.85126 ], [ -77.12791, 38.85047 ], [ -77.12245, 38.84841 ], [ -77.12205, 38.84742 ], [ -77.12248, 38.84699 ], [ -77.12412, 38.84752 ], [ -77.12476, 38.84686 ], [ -77.12458, 38.84606 ], [ -77.12555, 38.84597 ], [ -77.12642, 38.84672 ], [ -77.12539, 38.84797 ], [ -77.1283, 38.84901 ], [ -77.12886, 38.84885 ], [ -77.12954, 38.84987 ], [ -77.13979, 38.84526 ], [ -77.14242, 38.8425 ], [ -77.14494, 38.84206 ], [ -77.14544, 38.8422 ], [ -77.14547, 38.84297 ], [ -77.14327, 38.84337 ], [ -77.14329, 38.8439 ], [ -77.14473, 38.84517 ], [ -77.145, 38.84599 ], [ -77.14339, 38.8488 ], [ -77.1443, 38.84891 ], [ -77.14529, 38.84716 ], [ -77.14849, 38.84695 ], [ -77.1489, 38.84737 ], [ -77.14881, 38.8481 ], [ -77.14733, 38.8491 ], [ -77.14767, 38.84989 ], [ -77.14686, 38.85058 ], [ -77.14838, 38.85177 ], [ -77.14842, 38.84979 ], [ -77.14917, 38.84814 ], [ -77.15002, 38.84776 ], [ -77.1505, 38.84842 ], [ -77.14972, 38.85016 ], [ -77.14971, 38.85147 ], [ -77.15059, 38.84914 ], [ -77.15127, 38.84873 ], [ -77.15217, 38.84882 ], [ -77.15257, 38.84987 ], [ -77.15138, 38.85075 ], [ -77.15102, 38.85184 ], [ -77.15243, 38.85208 ], [ -77.15299, 38.85346 ], [ -77.15779, 38.85521 ], [ -77.15816, 38.8547 ], [ -77.15764, 38.8542 ], [ -77.15328, 38.85178 ], [ -77.15473, 38.85003 ], [ -77.15509, 38.84805 ], [ -77.15471, 38.84789 ], [ -77.15359, 38.8486 ], [ -77.1531, 38.84844 ], [ -77.1529, 38.84805 ], [ -77.15342, 38.84743 ], [ -77.1516, 38.84732 ], [ -77.15073, 38.84609 ], [ -77.15126, 38.84542 ], [ -77.15251, 38.84514 ], [ -77.15264, 38.84431 ], [ -77.15351, 38.84395 ], [ -77.15392, 38.84422 ], [ -77.15416, 38.84651 ], [ -77.1545, 38.84662 ], [ -77.15431, 38.84613 ], [ -77.15512, 38.8457 ], [ -77.15662, 38.84667 ], [ -77.15928, 38.84605 ], [ -77.1598, 38.84553 ] ], [ [ -77.15227, 38.87007 ], [ -77.15015, 38.86819 ], [ -77.15021, 38.86743 ], [ -77.15071, 38.8673 ], [ -77.15153, 38.86778 ], [ -77.15055, 38.86653 ], [ -77.14858, 38.86719 ], [ -77.14792, 38.86824 ], [ -77.15227, 38.87007 ] ], [ [ -77.14733, 38.86249 ], [ -77.14699, 38.86277 ], [ -77.14746, 38.86339 ], [ -77.14613, 38.86459 ], [ -77.14712, 38.86624 ], [ -77.1476, 38.86643 ], [ -77.14857, 38.866 ], [ -77.14773, 38.86505 ], [ -77.14868, 38.86436 ], [ -77.14733, 38.86249 ] ], [ [ -77.15154, 38.86324 ], [ -77.15175, 38.8627 ], [ -77.15049, 38.86294 ], [ -77.14931, 38.86199 ], [ -77.15009, 38.86367 ], [ -77.15154, 38.86324 ] ], [ [ -77.14558, 38.86176 ], [ -77.14596, 38.86205 ], [ -77.14665, 38.8615 ], [ -77.1463, 38.86106 ], [ -77.14558, 38.86176 ] ], [ [ -77.14566, 38.85844 ], [ -77.14649, 38.8576 ], [ -77.1476, 38.85737 ], [ -77.14904, 38.85877 ], [ -77.15093, 38.85686 ], [ -77.14838, 38.85565 ], [ -77.14759, 38.85621 ], [ -77.14657, 38.85602 ], [ -77.1455, 38.85638 ], [ -77.14466, 38.8579 ], [ -77.14566, 38.85844 ] ], [ [ -77.1468, 38.85206 ], [ -77.14666, 38.85167 ], [ -77.14427, 38.85101 ], [ -77.14398, 38.85167 ], [ -77.14617, 38.8527 ], [ -77.1468, 38.85206 ] ], [ [ -77.14565, 38.85001 ], [ -77.14525, 38.85002 ], [ -77.1452, 38.85013 ], [ -77.14565, 38.85001 ] ], [ [ -77.15817, 38.87166 ], [ -77.15747, 38.8713 ], [ -77.15704, 38.87165 ], [ -77.15817, 38.87166 ] ], [ [ -77.15596, 38.87013 ], [ -77.15611, 38.87025 ], [ -77.15681, 38.86988 ], [ -77.15704, 38.86935 ], [ -77.15596, 38.87013 ] ], [ [ -77.15756, 38.86612 ], [ -77.15706, 38.86617 ], [ -77.15658, 38.86555 ], [ -77.15703, 38.86641 ], [ -77.15756, 38.86612 ] ], [ [ -77.15798, 38.86029 ], [ -77.15761, 38.86022 ], [ -77.15426, 38.86459 ], [ -77.15798, 38.86029 ] ], [ [ -77.15628, 38.85968 ], [ -77.15625, 38.85989 ], [ -77.15645, 38.85963 ], [ -77.15628, 38.85968 ] ], [ [ -77.15451, 38.85828 ], [ -77.15449, 38.85825 ], [ -77.15449, 38.85827 ], [ -77.15451, 38.85828 ] ], [ [ -77.15312, 38.85814 ], [ -77.15272, 38.85819 ], [ -77.15301, 38.85862 ], [ -77.15312, 38.85814 ] ], [ [ -77.15285, 38.8552 ], [ -77.15378, 38.85488 ], [ -77.15008, 38.85362 ], [ -77.14936, 38.85483 ], [ -77.15245, 38.85652 ], [ -77.15285, 38.8552 ] ], [ [ -77.15231, 38.84621 ], [ -77.15217, 38.84626 ], [ -77.15233, 38.8464 ], [ -77.15231, 38.84621 ] ], [ [ -77.16143, 38.85414 ], [ -77.16048, 38.8549 ], [ -77.16119, 38.85519 ], [ -77.16143, 38.85414 ] ], [ [ -77.15954, 38.8543 ], [ -77.15975, 38.85444 ], [ -77.15976, 38.85417 ], [ -77.15954, 38.8543 ] ], [ [ -77.15834, 38.85163 ], [ -77.15845, 38.85219 ], [ -77.15919, 38.85093 ], [ -77.15834, 38.85163 ] ], [ [ -77.15741, 38.85075 ], [ -77.15734, 38.85083 ], [ -77.15792, 38.85048 ], [ -77.15741, 38.85075 ] ], [ [ -77.15615, 38.84916 ], [ -77.15604, 38.85038 ], [ -77.15669, 38.84967 ], [ -77.15615, 38.84916 ] ], [ [ -77.16414, 38.85373 ], [ -77.16247, 38.85341 ], [ -77.16322, 38.85402 ], [ -77.16471, 38.8539 ], [ -77.16414, 38.85373 ] ], [ [ -77.1608, 38.84955 ], [ -77.15979, 38.84993 ], [ -77.16002, 38.84994 ], [ -77.1608, 38.84955 ] ], [ [ -77.15995, 38.8482 ], [ -77.15989, 38.84819 ], [ -77.15997, 38.84829 ], [ -77.15995, 38.8482 ] ], [ [ -77.16775, 38.84936 ], [ -77.16761, 38.84956 ], [ -77.16781, 38.84967 ], [ -77.16775, 38.84936 ] ], [ [ -77.16694, 38.84836 ], [ -77.16643, 38.84847 ], [ -77.16534, 38.8499 ], [ -77.16694, 38.84836 ] ], [ [ -77.16382, 38.84847 ], [ -77.16379, 38.8501 ], [ -77.16427, 38.8492 ], [ -77.16382, 38.84847 ] ], [ [ -77.16246, 38.84937 ], [ -77.16243, 38.84851 ], [ -77.16211, 38.84993 ], [ -77.16246, 38.84937 ] ], [ [ -77.16845, 38.84836 ], [ -77.1695, 38.84818 ], [ -77.1691, 38.84779 ], [ -77.16843, 38.84784 ], [ -77.16845, 38.84836 ] ], [ [ -77.1658, 38.85093 ], [ -77.16572, 38.85159 ], [ -77.16652, 38.85211 ], [ -77.16661, 38.85311 ], [ -77.16714, 38.85245 ], [ -77.16666, 38.85101 ], [ -77.1676, 38.85088 ], [ -77.16698, 38.85055 ], [ -77.1658, 38.85093 ] ], [ [ -77.16187, 38.851 ], [ -77.1618, 38.8513 ], [ -77.16435, 38.85143 ], [ -77.16439, 38.85108 ], [ -77.16187, 38.851 ] ], [ [ -77.16514, 38.85282 ], [ -77.16522, 38.85262 ], [ -77.1626, 38.85232 ], [ -77.16514, 38.85282 ] ], [ [ -77.15865, 38.8485 ], [ -77.15876, 38.84818 ], [ -77.15829, 38.84824 ], [ -77.15865, 38.8485 ] ], [ [ -77.16056, 38.86114 ], [ -77.1599, 38.86085 ], [ -77.15917, 38.86113 ], [ -77.15823, 38.86188 ], [ -77.15876, 38.86238 ], [ -77.15886, 38.8614 ], [ -77.16056, 38.86114 ] ], [ [ -77.16032, 38.86309 ], [ -77.16021, 38.86299 ], [ -77.16017, 38.86318 ], [ -77.16032, 38.86309 ] ], [ [ -77.16135, 38.87271 ], [ -77.15904, 38.87309 ], [ -77.16002, 38.8735 ], [ -77.16135, 38.87271 ] ], [ [ -77.16041, 38.87026 ], [ -77.16041, 38.87027 ], [ -77.16042, 38.87028 ], [ -77.16041, 38.87026 ] ], [ [ -77.15832, 38.85718 ], [ -77.15819, 38.85705 ], [ -77.15729, 38.8585 ], [ -77.15832, 38.85718 ] ], [ [ -77.15716, 38.85618 ], [ -77.15643, 38.85595 ], [ -77.15565, 38.85667 ], [ -77.15658, 38.85713 ], [ -77.15716, 38.85618 ] ], [ [ -77.15606, 38.85175 ], [ -77.15588, 38.8518 ], [ -77.15616, 38.8519 ], [ -77.15606, 38.85175 ] ], [ [ -77.15866, 38.85347 ], [ -77.1587, 38.85345 ], [ -77.15865, 38.85346 ], [ -77.15866, 38.85347 ] ], [ [ -77.15864, 38.85885 ], [ -77.15834, 38.85924 ], [ -77.15948, 38.8587 ], [ -77.15918, 38.85815 ], [ -77.15864, 38.85885 ] ], [ [ -77.15741, 38.86448 ], [ -77.15676, 38.86531 ], [ -77.15689, 38.86518 ], [ -77.15783, 38.86472 ], [ -77.15741, 38.86448 ] ], [ [ -77.1547, 38.85514 ], [ -77.15429, 38.85504 ], [ -77.15515, 38.85545 ], [ -77.1547, 38.85514 ] ], [ [ -77.15487, 38.8577 ], [ -77.15479, 38.8578 ], [ -77.15511, 38.85768 ], [ -77.15487, 38.8577 ] ], [ [ -77.15431, 38.85631 ], [ -77.15395, 38.85614 ], [ -77.15365, 38.85711 ], [ -77.15431, 38.85631 ] ], [ [ -77.15199, 38.87175 ], [ -77.15209, 38.87275 ], [ -77.15338, 38.87223 ], [ -77.15199, 38.87175 ] ], [ [ -77.15488, 38.86775 ], [ -77.15552, 38.86689 ], [ -77.15413, 38.86774 ], [ -77.15343, 38.86767 ], [ -77.15414, 38.86859 ], [ -77.15488, 38.86775 ] ], [ [ -77.15403, 38.86653 ], [ -77.15337, 38.86615 ], [ -77.1535, 38.86537 ], [ -77.15235, 38.86631 ], [ -77.15317, 38.86734 ], [ -77.15403, 38.86653 ] ], [ [ -77.15372, 38.86287 ], [ -77.15365, 38.86327 ], [ -77.15411, 38.86268 ], [ -77.15372, 38.86287 ] ], [ [ -77.15224, 38.86242 ], [ -77.15195, 38.86262 ], [ -77.15218, 38.86248 ], [ -77.15224, 38.86242 ] ], [ [ -77.15022, 38.86058 ], [ -77.14946, 38.86104 ], [ -77.14966, 38.86127 ], [ -77.15037, 38.86122 ], [ -77.15022, 38.86058 ] ], [ [ -77.155, 38.86076 ], [ -77.15514, 38.86133 ], [ -77.15572, 38.86057 ], [ -77.155, 38.86076 ] ], [ [ -77.15539, 38.86864 ], [ -77.15563, 38.86895 ], [ -77.15642, 38.86828 ], [ -77.15539, 38.86864 ] ], [ [ -77.15147, 38.85296 ], [ -77.15148, 38.85296 ], [ -77.15146, 38.85288 ], [ -77.15147, 38.85296 ] ], [ [ -77.15106, 38.87287 ], [ -77.15071, 38.87225 ], [ -77.15061, 38.87252 ], [ -77.15054, 38.8728 ], [ -77.15106, 38.87287 ] ], [ [ -77.14844, 38.853 ], [ -77.14788, 38.85278 ], [ -77.14736, 38.85328 ], [ -77.14802, 38.8539 ], [ -77.14762, 38.8547 ], [ -77.14818, 38.85425 ], [ -77.14844, 38.853 ] ], [ [ -77.14744, 38.8596 ], [ -77.14791, 38.85941 ], [ -77.14716, 38.85861 ], [ -77.14744, 38.8596 ] ], [ [ -77.14317, 38.86219 ], [ -77.14254, 38.86177 ], [ -77.14235, 38.86095 ], [ -77.14145, 38.86189 ], [ -77.14092, 38.86185 ], [ -77.14064, 38.86111 ], [ -77.14116, 38.86039 ], [ -77.14042, 38.86019 ], [ -77.1392, 38.86138 ], [ -77.13985, 38.86171 ], [ -77.13982, 38.86207 ], [ -77.14136, 38.86254 ], [ -77.14317, 38.86219 ] ], [ [ -77.13899, 38.85638 ], [ -77.13805, 38.85587 ], [ -77.13677, 38.85741 ], [ -77.13548, 38.85802 ], [ -77.1356, 38.86107 ], [ -77.13655, 38.86101 ], [ -77.13718, 38.86025 ], [ -77.13652, 38.85956 ], [ -77.13658, 38.8581 ], [ -77.1373, 38.85754 ], [ -77.13844, 38.85765 ], [ -77.13899, 38.85638 ] ], [ [ -77.13995, 38.85309 ], [ -77.14006, 38.85294 ], [ -77.13778, 38.85186 ], [ -77.13688, 38.85301 ], [ -77.13787, 38.85232 ], [ -77.13995, 38.85309 ] ], [ [ -77.13828, 38.84892 ], [ -77.13532, 38.85294 ], [ -77.13687, 38.85094 ], [ -77.13825, 38.84957 ], [ -77.13828, 38.84892 ] ], [ [ -77.13737, 38.84801 ], [ -77.13731, 38.84761 ], [ -77.13714, 38.84769 ], [ -77.13737, 38.84801 ] ], [ [ -77.14566, 38.86332 ], [ -77.14514, 38.86341 ], [ -77.14535, 38.86366 ], [ -77.14566, 38.86332 ] ], [ [ -77.14586, 38.86726 ], [ -77.14556, 38.86726 ], [ -77.14615, 38.8675 ], [ -77.14586, 38.86726 ] ], [ [ -77.14167, 38.85624 ], [ -77.14191, 38.85637 ], [ -77.14199, 38.85626 ], [ -77.14167, 38.85624 ] ], [ [ -77.14334, 38.85452 ], [ -77.14135, 38.85358 ], [ -77.14125, 38.85371 ], [ -77.14334, 38.85452 ] ], [ [ -77.14234, 38.85014 ], [ -77.14167, 38.85033 ], [ -77.14043, 38.84936 ], [ -77.13979, 38.84967 ], [ -77.14185, 38.85065 ], [ -77.14234, 38.85014 ] ], [ [ -77.14237, 38.84753 ], [ -77.14252, 38.84774 ], [ -77.14255, 38.84765 ], [ -77.14237, 38.84753 ] ], [ [ -77.14189, 38.84557 ], [ -77.14214, 38.84583 ], [ -77.14221, 38.84514 ], [ -77.14189, 38.84557 ] ], [ [ -77.14375, 38.85049 ], [ -77.14374, 38.85045 ], [ -77.14372, 38.85048 ], [ -77.14375, 38.85049 ] ], [ [ -77.14423, 38.85545 ], [ -77.14416, 38.85554 ], [ -77.14422, 38.85553 ], [ -77.14423, 38.85545 ] ], [ [ -77.14337, 38.85719 ], [ -77.14398, 38.85641 ], [ -77.14374, 38.85608 ], [ -77.14309, 38.85704 ], [ -77.14337, 38.85719 ] ], [ [ -77.14335, 38.8651 ], [ -77.14348, 38.86524 ], [ -77.14369, 38.86507 ], [ -77.14335, 38.8651 ] ], [ [ -77.1447, 38.86054 ], [ -77.14469, 38.86055 ], [ -77.14471, 38.86055 ], [ -77.1447, 38.86054 ] ], [ [ -77.14287, 38.85993 ], [ -77.14334, 38.86016 ], [ -77.14303, 38.85958 ], [ -77.14287, 38.85993 ] ], [ [ -77.144, 38.86232 ], [ -77.14463, 38.8628 ], [ -77.14473, 38.86262 ], [ -77.144, 38.86232 ] ], [ [ -77.13956, 38.8485 ], [ -77.13974, 38.84843 ], [ -77.13868, 38.847 ], [ -77.13956, 38.8485 ] ], [ [ -77.1405, 38.84707 ], [ -77.14043, 38.84622 ], [ -77.13988, 38.84646 ], [ -77.14101, 38.84785 ], [ -77.1405, 38.84707 ] ], [ [ -77.14112, 38.85157 ], [ -77.13907, 38.8506 ], [ -77.13873, 38.85104 ], [ -77.14078, 38.85202 ], [ -77.14112, 38.85157 ] ], [ [ -77.13979, 38.8553 ], [ -77.13956, 38.85517 ], [ -77.13969, 38.85532 ], [ -77.13979, 38.8553 ] ], [ [ -77.13913, 38.85496 ], [ -77.13874, 38.85481 ], [ -77.13899, 38.85494 ], [ -77.13913, 38.85496 ] ], [ [ -77.14008, 38.85723 ], [ -77.14045, 38.85733 ], [ -77.14016, 38.85717 ], [ -77.14008, 38.85723 ] ], [ [ -77.13751, 38.86237 ], [ -77.13714, 38.8622 ], [ -77.1375, 38.86239 ], [ -77.13751, 38.86237 ] ], [ [ -77.1369, 38.86208 ], [ -77.13687, 38.86206 ], [ -77.13683, 38.86207 ], [ -77.1369, 38.86208 ] ], [ [ -77.13141, 38.86228 ], [ -77.13161, 38.8631 ], [ -77.13072, 38.86371 ], [ -77.12954, 38.86381 ], [ -77.12923, 38.86549 ], [ -77.13031, 38.86552 ], [ -77.13022, 38.86477 ], [ -77.13088, 38.86421 ], [ -77.13481, 38.8641 ], [ -77.13494, 38.86217 ], [ -77.13141, 38.86228 ] ], [ [ -77.13421, 38.8605 ], [ -77.13419, 38.86002 ], [ -77.13058, 38.86031 ], [ -77.12948, 38.85998 ], [ -77.12917, 38.86031 ], [ -77.12995, 38.86029 ], [ -77.13044, 38.86123 ], [ -77.13148, 38.86031 ], [ -77.13421, 38.8605 ] ], [ [ -77.13356, 38.85055 ], [ -77.13273, 38.85031 ], [ -77.13269, 38.8499 ], [ -77.13458, 38.84884 ], [ -77.13087, 38.85053 ], [ -77.13234, 38.85095 ], [ -77.13283, 38.85149 ], [ -77.13356, 38.85055 ] ], [ [ -77.14037, 38.86359 ], [ -77.13883, 38.86291 ], [ -77.13881, 38.8631 ], [ -77.14019, 38.86378 ], [ -77.14037, 38.86359 ] ], [ [ -77.13798, 38.86133 ], [ -77.13859, 38.86162 ], [ -77.13892, 38.8614 ], [ -77.13832, 38.86088 ], [ -77.13798, 38.86133 ] ], [ [ -77.13886, 38.86003 ], [ -77.13882, 38.86011 ], [ -77.13906, 38.85983 ], [ -77.13886, 38.86003 ] ], [ [ -77.13646, 38.85356 ], [ -77.13659, 38.85363 ], [ -77.13654, 38.85357 ], [ -77.13646, 38.85356 ] ], [ [ -77.13358, 38.85418 ], [ -77.13412, 38.85371 ], [ -77.13318, 38.8532 ], [ -77.13288, 38.85347 ], [ -77.13362, 38.85381 ], [ -77.13358, 38.85418 ] ], [ [ -77.13655, 38.84906 ], [ -77.13594, 38.84823 ], [ -77.13585, 38.84842 ], [ -77.13655, 38.84906 ] ], [ [ -77.13409, 38.85224 ], [ -77.13551, 38.85011 ], [ -77.13399, 38.85208 ], [ -77.13409, 38.85224 ] ], [ [ -77.13391, 38.85615 ], [ -77.13382, 38.85599 ], [ -77.13382, 38.85614 ], [ -77.13391, 38.85615 ] ], [ [ -77.13636, 38.8557 ], [ -77.13625, 38.85606 ], [ -77.13692, 38.85525 ], [ -77.13526, 38.85434 ], [ -77.1356, 38.85522 ], [ -77.13636, 38.8557 ] ], [ [ -77.13319, 38.85447 ], [ -77.1332, 38.85451 ], [ -77.1334, 38.85434 ], [ -77.13319, 38.85447 ] ], [ [ -77.13422, 38.86111 ], [ -77.13422, 38.86085 ], [ -77.13414, 38.86103 ], [ -77.13422, 38.86111 ] ], [ [ -77.13039, 38.85176 ], [ -77.12926, 38.85119 ], [ -77.12923, 38.8512 ], [ -77.12968, 38.85224 ], [ -77.13039, 38.85176 ] ] ] } }
]
}
