{
"type": "FeatureCollection",
"name": "102",
"crs": { "type": "name", "properties": { "name": "urn:ogc:def:crs:OGC:1.3:CRS84" } },
"xy_coordinate_resolution": 1e-05,
"features": [
{ "type": "Feature", "properties": { "variant": "T0", "miles": 0.5 }, "geometry": { "type": "Polygon", "coordinates": [ [ [ -77.15222, 38.82934 ], [ -77.15316, 38.82891 ], [ -77.15363, 38.8291 ], [ -77.15301, 38.83175 ], [ -77.15378, 38.8322 ], [ -77.15491, 38.83037 ], [ -77.15607, 38.83043 ], [ -77.15552, 38.83175 ], [ -77.15636, 38.83241 ], [ -77.15563, 38.8334 ], [ -77.15727, 38.83509 ], [ -77.15654, 38.83561 ], [ -77.15606, 38.83543 ], [ -77.1528, 38.83296 ], [ -77.15257, 38.8345 ], [ -77.15323, 38.83475 ], [ -77.15394, 38.83433 ], [ -77.15456, 38.83492 ], [ -77.1542, 38.83683 ], [ -77.15338, 38.83689 ], [ -77.15325, 38.838 ], [ -77.15392, 38.83859 ], [ -77.15231, 38.84007 ], [ -77.15114, 38.84026 ], [ -77.15053, 38.83957 ], [ -77.14966, 38.83934 ], [ -77.14969, 38.83744 ], [ -77.14873, 38.83734 ], [ -77.14755, 38.83785 ], [ -77.14719, 38.83754 ], [ -77.14752, 38.83674 ], [ -77.14697, 38.83615 ], [ -77.14942, 38.83423 ], [ -77.14992, 38.83407 ], [ -77.15054, 38.8345 ], [ -77.15118, 38.83447 ], [ -77.15123, 38.83418 ], [ -77.14619, 38.83296 ], [ -77.14568, 38.83374 ], [ -77.14515, 38.83378 ], [ -77.14469, 38.83311 ], [ -77.1455, 38.83101 ], [ -77.1486, 38.82928 ], [ -77.1495, 38.82933 ], [ -77.15172, 38.83092 ], [ -77.15222, 38.82934 ] ], [ [ -77.1514, 38.83298 ], [ -77.14662, 38.83184 ], [ -77.14659, 38.83193 ], [ -77.15054, 38.83302 ], [ -77.1514, 38.83298 ] ] ] } },
{ "type": "Feature", "properties": { "variant": "T0", "miles": 1.0 }, "geometry": { "type": "Polygon", "coordinates": [ [ [ -77.15983, 38.8239 ], [ -77.16027, 38.82331 ], [ -77.16079, 38.82327 ], [ -77.16193, 38.8243 ], [ -77.16013, 38.82575 ], [ -77.16268, 38.82761 ], [ -77.16211, 38.82899 ], [ -77.16298, 38.83127 ], [ -77.1643, 38.83242 ], [ -77.16308, 38.83338 ], [ -77.16216, 38.83712 ], [ -77.16366, 38.8376 ], [ -77.16371, 38.83832 ], [ -77.1629, 38.83874 ], [ -77.15835, 38.83706 ], [ -77.15964, 38.83841 ], [ -77.1606, 38.84133 ], [ -77.16027, 38.84213 ], [ -77.15871, 38.8423 ], [ -77.15735, 38.84085 ], [ -77.15537, 38.84136 ], [ -77.15501, 38.84237 ], [ -77.1542, 38.84266 ], [ -77.15305, 38.84159 ], [ -77.15218, 38.84145 ], [ -77.15189, 38.84306 ], [ -77.15102, 38.84336 ], [ -77.14987, 38.84291 ], [ -77.14903, 38.84507 ], [ -77.14814, 38.84539 ], [ -77.14579, 38.84389 ], [ -77.14573, 38.84312 ], [ -77.14449, 38.84299 ], [ -77.14427, 38.84262 ], [ -77.14456, 38.84212 ], [ -77.14675, 38.84156 ], [ -77.14438, 38.83975 ], [ -77.14353, 38.8402 ], [ -77.14283, 38.83967 ], [ -77.14553, 38.83753 ], [ -77.14064, 38.83683 ], [ -77.13999, 38.83605 ], [ -77.13825, 38.83572 ], [ -77.13676, 38.83479 ], [ -77.1367, 38.83438 ], [ -77.13753, 38.834 ], [ -77.13763, 38.83243 ], [ -77.13861, 38.83239 ], [ -77.13885, 38.83292 ], [ -77.13961, 38.83306 ], [ -77.13972, 38.83366 ], [ -77.1401, 38.83359 ], [ -77.1399, 38.83254 ], [ -77.14046, 38.8319 ], [ -77.14151, 38.8318 ], [ -77.14179, 38.83241 ], [ -77.14325, 38.83204 ], [ -77.14192, 38.83139 ], [ -77.14251, 38.83079 ], [ -77.14104, 38.83072 ], [ -77.14025, 38.83121 ], [ -77.13971, 38.83073 ], [ -77.13899, 38.83099 ], [ -77.13857, 38.83074 ], [ -77.13869, 38.82972 ], [ -77.1403, 38.82812 ], [ -77.1411, 38.82856 ], [ -77.1413, 38.82965 ], [ -77.14289, 38.82975 ], [ -77.14372, 38.82804 ], [ -77.1426, 38.82756 ], [ -77.1428, 38.82695 ], [ -77.14198, 38.82711 ], [ -77.14168, 38.82639 ], [ -77.1424, 38.82559 ], [ -77.14314, 38.82562 ], [ -77.14346, 38.82505 ], [ -77.14446, 38.82466 ], [ -77.14364, 38.82397 ], [ -77.14394, 38.82324 ], [ -77.14446, 38.82321 ], [ -77.14548, 38.8239 ], [ -77.14645, 38.82359 ], [ -77.1467, 38.82468 ], [ -77.14791, 38.82471 ], [ -77.14848, 38.82401 ], [ -77.14908, 38.82422 ], [ -77.14908, 38.82555 ], [ -77.14797, 38.82658 ], [ -77.14843, 38.8273 ], [ -77.14814, 38.828 ], [ -77.15121, 38.83058 ], [ -77.15053, 38.82912 ], [ -77.15047, 38.82663 ], [ -77.14945, 38.82649 ], [ -77.14943, 38.82572 ], [ -77.15263, 38.82578 ], [ -77.15279, 38.82494 ], [ -77.15213, 38.82437 ], [ -77.15385, 38.82343 ], [ -77.15439, 38.82407 ], [ -77.154, 38.82593 ], [ -77.15503, 38.82561 ], [ -77.15652, 38.82661 ], [ -77.15728, 38.82494 ], [ -77.15638, 38.82487 ], [ -77.15558, 38.82414 ], [ -77.15563, 38.82291 ], [ -77.15678, 38.82261 ], [ -77.15842, 38.82358 ], [ -77.15983, 38.8239 ] ], [ [ -77.15228, 38.84025 ], [ -77.15211, 38.84035 ], [ -77.1524, 38.84034 ], [ -77.15228, 38.84025 ] ], [ [ -77.15464, 38.83415 ], [ -77.1528, 38.83296 ], [ -77.15257, 38.8345 ], [ -77.15323, 38.83475 ], [ -77.15464, 38.83415 ] ], [ [ -77.15378, 38.8322 ], [ -77.15465, 38.8306 ], [ -77.15546, 38.83022 ], [ -77.15321, 38.8301 ], [ -77.15319, 38.83185 ], [ -77.15378, 38.8322 ] ], [ [ -77.15378, 38.82834 ], [ -77.15535, 38.82736 ], [ -77.15379, 38.827 ], [ -77.15378, 38.82834 ] ], [ [ -77.15862, 38.83483 ], [ -77.15831, 38.83454 ], [ -77.15816, 38.83506 ], [ -77.15765, 38.8352 ], [ -77.15791, 38.83528 ], [ -77.15862, 38.83483 ] ], [ [ -77.15634, 38.83245 ], [ -77.15563, 38.8334 ], [ -77.15609, 38.83377 ], [ -77.15725, 38.83357 ], [ -77.15634, 38.83245 ] ], [ [ -77.15719, 38.83148 ], [ -77.15771, 38.83155 ], [ -77.15782, 38.83243 ], [ -77.15969, 38.83415 ], [ -77.16257, 38.83232 ], [ -77.15597, 38.83037 ], [ -77.15616, 38.83084 ], [ -77.15552, 38.83175 ], [ -77.15637, 38.83229 ], [ -77.15719, 38.83148 ] ], [ [ -77.15906, 38.8301 ], [ -77.15773, 38.8289 ], [ -77.15769, 38.82972 ], [ -77.15906, 38.8301 ] ], [ [ -77.15898, 38.82832 ], [ -77.15916, 38.82845 ], [ -77.15778, 38.82722 ], [ -77.15898, 38.82832 ] ], [ [ -77.16057, 38.83655 ], [ -77.16087, 38.83666 ], [ -77.16116, 38.83553 ], [ -77.16057, 38.83655 ] ], [ [ -77.1593, 38.83611 ], [ -77.1596, 38.83559 ], [ -77.15912, 38.8359 ], [ -77.1593, 38.83611 ] ], [ [ -77.15888, 38.82654 ], [ -77.1611, 38.82807 ], [ -77.16118, 38.82791 ], [ -77.15888, 38.82654 ] ], [ [ -77.15862, 38.82522 ], [ -77.15857, 38.82535 ], [ -77.15912, 38.825 ], [ -77.15862, 38.82522 ] ], [ [ -77.16035, 38.83049 ], [ -77.16152, 38.83083 ], [ -77.16044, 38.82906 ], [ -77.16035, 38.83049 ] ], [ [ -77.15841, 38.84014 ], [ -77.15895, 38.84078 ], [ -77.15806, 38.83872 ], [ -77.15841, 38.84014 ] ], [ [ -77.15657, 38.82798 ], [ -77.15498, 38.82897 ], [ -77.15636, 38.82933 ], [ -77.15657, 38.82798 ] ], [ [ -77.1566, 38.83946 ], [ -77.15561, 38.83926 ], [ -77.15572, 38.83869 ], [ -77.15506, 38.8386 ], [ -77.15553, 38.84029 ], [ -77.1566, 38.83981 ], [ -77.1566, 38.83946 ] ], [ [ -77.15731, 38.83778 ], [ -77.15697, 38.83743 ], [ -77.15638, 38.8378 ], [ -77.15658, 38.83827 ], [ -77.15731, 38.83778 ] ], [ [ -77.15589, 38.83533 ], [ -77.15536, 38.8357 ], [ -77.15512, 38.83672 ], [ -77.15654, 38.83587 ], [ -77.15589, 38.83533 ] ], [ [ -77.15411, 38.83987 ], [ -77.15394, 38.83926 ], [ -77.15339, 38.83958 ], [ -77.15411, 38.83987 ] ], [ [ -77.14923, 38.84023 ], [ -77.14923, 38.84029 ], [ -77.14926, 38.84027 ], [ -77.14923, 38.84023 ] ], [ [ -77.14949, 38.8384 ], [ -77.14957, 38.83841 ], [ -77.14957, 38.83838 ], [ -77.14949, 38.8384 ] ], [ [ -77.14956, 38.83747 ], [ -77.14967, 38.83755 ], [ -77.14969, 38.83744 ], [ -77.14956, 38.83747 ] ], [ [ -77.14655, 38.83644 ], [ -77.14621, 38.83656 ], [ -77.14718, 38.83659 ], [ -77.14698, 38.83623 ], [ -77.14655, 38.83644 ] ], [ [ -77.14531, 38.83151 ], [ -77.14506, 38.83141 ], [ -77.14456, 38.83239 ], [ -77.14493, 38.83248 ], [ -77.14531, 38.83151 ] ], [ [ -77.14644, 38.82825 ], [ -77.1455, 38.82736 ], [ -77.14514, 38.82813 ], [ -77.14644, 38.82825 ] ], [ [ -77.14436, 38.82613 ], [ -77.14457, 38.82619 ], [ -77.14466, 38.826 ], [ -77.14436, 38.82613 ] ], [ [ -77.15035, 38.83955 ], [ -77.15006, 38.83953 ], [ -77.15007, 38.83972 ], [ -77.15035, 38.83955 ] ], [ [ -77.15118, 38.83447 ], [ -77.15123, 38.83418 ], [ -77.14757, 38.83329 ], [ -77.149, 38.83377 ], [ -77.14935, 38.83428 ], [ -77.15118, 38.83447 ] ], [ [ -77.15054, 38.83302 ], [ -77.15138, 38.83311 ], [ -77.14662, 38.83184 ], [ -77.15054, 38.83302 ] ], [ [ -77.15242, 38.82684 ], [ -77.15185, 38.82681 ], [ -77.15197, 38.82914 ], [ -77.15242, 38.82684 ] ], [ [ -77.14602, 38.83057 ], [ -77.14639, 38.83066 ], [ -77.14622, 38.8306 ], [ -77.14573, 38.83047 ], [ -77.14602, 38.83057 ] ], [ [ -77.14745, 38.82995 ], [ -77.148, 38.82963 ], [ -77.1478, 38.82942 ], [ -77.14694, 38.82966 ], [ -77.14745, 38.82995 ] ], [ [ -77.1466, 38.82956 ], [ -77.14635, 38.82933 ], [ -77.14598, 38.82939 ], [ -77.1466, 38.82956 ] ], [ [ -77.14796, 38.84397 ], [ -77.14834, 38.84326 ], [ -77.14826, 38.84331 ], [ -77.14796, 38.84397 ] ], [ [ -77.14676, 38.8431 ], [ -77.1469, 38.84294 ], [ -77.1468, 38.84297 ], [ -77.14676, 38.8431 ] ], [ [ -77.14293, 38.82684 ], [ -77.14311, 38.82683 ], [ -77.14299, 38.82675 ], [ -77.14293, 38.82684 ] ], [ [ -77.1429, 38.83508 ], [ -77.14309, 38.83522 ], [ -77.14327, 38.83502 ], [ -77.1429, 38.83508 ] ], [ [ -77.13947, 38.83485 ], [ -77.1395, 38.83481 ], [ -77.13937, 38.83483 ], [ -77.13947, 38.83485 ] ], [ [ -77.14377, 38.83104 ], [ -77.14387, 38.83084 ], [ -77.14369, 38.83076 ], [ -77.14338, 38.83088 ], [ -77.14377, 38.83104 ] ] ] } },
{ "type": "Feature", "properties": { "variant": "T0", "miles": 1.5 }, "geometry": { "type": "Polygon", "coordinates": [ [ [ -77.16633, 38.81782 ], [ -77.16719, 38.81824 ], [ -77.16719, 38.81866 ], [ -77.16682, 38.81895 ], [ -77.16577, 38.81882 ], [ -77.16533, 38.81982 ], [ -77.16617, 38.82022 ], [ -77.16646, 38.82083 ], [ -77.16605, 38.82184 ], [ -77.16723, 38.82228 ], [ -77.16744, 38.82307 ], [ -77.16763, 38.82227 ], [ -77.16858, 38.82169 ], [ -77.16954, 38.82184 ], [ -77.16922, 38.82351 ], [ -77.17058, 38.82385 ], [ -77.17093, 38.82466 ], [ -77.17008, 38.82499 ], [ -77.16758, 38.82437 ], [ -77.16678, 38.82574 ], [ -77.16543, 38.82554 ], [ -77.16567, 38.82648 ], [ -77.16489, 38.82693 ], [ -77.16414, 38.82629 ], [ -77.16312, 38.82609 ], [ -77.16308, 38.82567 ], [ -77.16383, 38.82519 ], [ -77.16311, 38.82539 ], [ -77.16245, 38.82482 ], [ -77.16355, 38.82338 ], [ -77.16013, 38.82575 ], [ -77.16444, 38.82872 ], [ -77.16593, 38.83025 ], [ -77.16835, 38.82864 ], [ -77.16885, 38.82852 ], [ -77.16993, 38.82914 ], [ -77.16971, 38.82996 ], [ -77.16869, 38.82983 ], [ -77.16738, 38.83067 ], [ -77.16816, 38.83132 ], [ -77.17158, 38.83228 ], [ -77.1718, 38.83266 ], [ -77.17162, 38.83304 ], [ -77.17014, 38.83332 ], [ -77.1694, 38.83271 ], [ -77.1683, 38.83249 ], [ -77.16874, 38.83329 ], [ -77.16833, 38.83393 ], [ -77.1699, 38.83466 ], [ -77.16994, 38.83507 ], [ -77.16907, 38.83541 ], [ -77.16754, 38.83482 ], [ -77.16783, 38.83595 ], [ -77.16729, 38.83707 ], [ -77.16845, 38.83711 ], [ -77.16859, 38.83651 ], [ -77.16964, 38.83581 ], [ -77.17014, 38.83594 ], [ -77.17046, 38.83697 ], [ -77.17256, 38.8367 ], [ -77.17297, 38.8374 ], [ -77.17204, 38.83791 ], [ -77.17217, 38.83892 ], [ -77.17124, 38.83913 ], [ -77.17069, 38.83815 ], [ -77.16768, 38.83849 ], [ -77.16733, 38.83946 ], [ -77.16619, 38.84025 ], [ -77.16816, 38.84025 ], [ -77.16885, 38.84079 ], [ -77.16816, 38.84133 ], [ -77.16611, 38.84133 ], [ -77.16651, 38.84219 ], [ -77.1657, 38.84262 ], [ -77.16472, 38.84133 ], [ -77.16223, 38.8412 ], [ -77.16112, 38.83957 ], [ -77.15984, 38.83943 ], [ -77.16055, 38.84176 ], [ -77.15976, 38.84239 ], [ -77.15869, 38.84228 ], [ -77.15911, 38.84289 ], [ -77.16012, 38.84292 ], [ -77.16054, 38.84413 ], [ -77.15848, 38.84478 ], [ -77.15546, 38.84446 ], [ -77.15496, 38.84371 ], [ -77.15546, 38.84253 ], [ -77.15509, 38.84226 ], [ -77.15389, 38.84259 ], [ -77.15247, 38.84142 ], [ -77.15204, 38.84149 ], [ -77.15211, 38.84267 ], [ -77.1517, 38.8432 ], [ -77.15076, 38.84332 ], [ -77.15006, 38.84281 ], [ -77.1497, 38.84302 ], [ -77.14966, 38.84387 ], [ -77.14867, 38.84538 ], [ -77.14734, 38.84498 ], [ -77.14579, 38.84389 ], [ -77.14573, 38.84312 ], [ -77.14346, 38.84329 ], [ -77.14305, 38.84407 ], [ -77.14363, 38.84469 ], [ -77.14339, 38.84703 ], [ -77.14237, 38.84753 ], [ -77.14298, 38.84876 ], [ -77.14269, 38.84941 ], [ -77.14173, 38.84928 ], [ -77.14043, 38.84622 ], [ -77.13851, 38.84707 ], [ -77.13896, 38.848 ], [ -77.13863, 38.84833 ], [ -77.13811, 38.84838 ], [ -77.13731, 38.84761 ], [ -77.13604, 38.84802 ], [ -77.13561, 38.84778 ], [ -77.13545, 38.84726 ], [ -77.13683, 38.8459 ], [ -77.13818, 38.84562 ], [ -77.13766, 38.84401 ], [ -77.13838, 38.8434 ], [ -77.13844, 38.84301 ], [ -77.13773, 38.84266 ], [ -77.13804, 38.84194 ], [ -77.14029, 38.84231 ], [ -77.1414, 38.84102 ], [ -77.14235, 38.84169 ], [ -77.14241, 38.84238 ], [ -77.14675, 38.84156 ], [ -77.14438, 38.83975 ], [ -77.14353, 38.8402 ], [ -77.14283, 38.83967 ], [ -77.14553, 38.83753 ], [ -77.14064, 38.83683 ], [ -77.13999, 38.83605 ], [ -77.13825, 38.83572 ], [ -77.13676, 38.83479 ], [ -77.1367, 38.83438 ], [ -77.13753, 38.834 ], [ -77.13786, 38.83174 ], [ -77.13614, 38.83183 ], [ -77.13637, 38.83384 ], [ -77.13539, 38.83389 ], [ -77.13506, 38.83349 ], [ -77.1345, 38.83123 ], [ -77.13509, 38.82982 ], [ -77.1347, 38.83013 ], [ -77.13381, 38.82982 ], [ -77.13342, 38.82777 ], [ -77.13402, 38.82717 ], [ -77.13483, 38.82722 ], [ -77.13512, 38.82645 ], [ -77.13663, 38.82678 ], [ -77.13786, 38.82564 ], [ -77.13707, 38.8251 ], [ -77.13768, 38.8245 ], [ -77.1375, 38.82406 ], [ -77.13777, 38.8237 ], [ -77.13849, 38.82369 ], [ -77.13851, 38.82319 ], [ -77.1376, 38.82275 ], [ -77.13777, 38.82238 ], [ -77.13625, 38.82134 ], [ -77.1363, 38.82093 ], [ -77.1385, 38.81954 ], [ -77.13651, 38.81819 ], [ -77.13661, 38.81743 ], [ -77.13783, 38.81752 ], [ -77.14046, 38.81951 ], [ -77.14087, 38.81818 ], [ -77.13977, 38.81738 ], [ -77.13985, 38.81697 ], [ -77.14099, 38.81687 ], [ -77.14157, 38.81619 ], [ -77.14275, 38.81686 ], [ -77.14291, 38.8174 ], [ -77.14429, 38.81571 ], [ -77.14515, 38.81607 ], [ -77.14414, 38.81789 ], [ -77.14514, 38.81824 ], [ -77.14558, 38.81831 ], [ -77.14675, 38.81702 ], [ -77.14743, 38.81715 ], [ -77.14798, 38.81667 ], [ -77.14862, 38.81686 ], [ -77.1492, 38.81639 ], [ -77.15004, 38.81678 ], [ -77.15028, 38.81832 ], [ -77.15097, 38.81845 ], [ -77.15191, 38.81638 ], [ -77.15357, 38.81624 ], [ -77.15426, 38.81678 ], [ -77.15425, 38.81771 ], [ -77.15509, 38.8177 ], [ -77.15575, 38.81696 ], [ -77.15624, 38.81711 ], [ -77.15647, 38.8178 ], [ -77.15735, 38.81794 ], [ -77.1575, 38.81845 ], [ -77.15804, 38.81853 ], [ -77.15773, 38.81661 ], [ -77.15868, 38.8157 ], [ -77.15938, 38.81623 ], [ -77.1594, 38.82109 ], [ -77.16062, 38.82139 ], [ -77.16082, 38.81815 ], [ -77.16226, 38.81741 ], [ -77.16412, 38.81891 ], [ -77.16333, 38.81774 ], [ -77.16357, 38.81738 ], [ -77.16471, 38.8176 ], [ -77.16586, 38.81692 ], [ -77.16634, 38.8172 ], [ -77.16633, 38.81782 ] ], [ [ -77.15228, 38.84025 ], [ -77.15211, 38.84035 ], [ -77.1524, 38.84034 ], [ -77.15228, 38.84025 ] ], [ [ -77.15464, 38.83415 ], [ -77.1528, 38.83296 ], [ -77.15257, 38.8345 ], [ -77.15323, 38.83475 ], [ -77.15464, 38.83415 ] ], [ [ -77.15378, 38.8322 ], [ -77.15465, 38.8306 ], [ -77.15546, 38.83022 ], [ -77.15321, 38.8301 ], [ -77.15319, 38.83185 ], [ -77.15378, 38.8322 ] ], [ [ -77.15378, 38.82834 ], [ -77.15535, 38.82736 ], [ -77.15379, 38.827 ], [ -77.15378, 38.82834 ] ], [ [ -77.15235, 38.82399 ], [ -77.15385, 38.82343 ], [ -77.15444, 38.82419 ], [ -77.1559, 38.82266 ], [ -77.15749, 38.82297 ], [ -77.15798, 38.82218 ], [ -77.15594, 38.82167 ], [ -77.1553, 38.82288 ], [ -77.15478, 38.82298 ], [ -77.15306, 38.8222 ], [ -77.15287, 38.82083 ], [ -77.15074, 38.82035 ], [ -77.15174, 38.82147 ], [ -77.15183, 38.82572 ], [ -77.15266, 38.82566 ], [ -77.15235, 38.82399 ] ], [ [ -77.15272, 38.81955 ], [ -77.15293, 38.8196 ], [ -77.15292, 38.81955 ], [ -77.15272, 38.81955 ] ], [ [ -77.15625, 38.82502 ], [ -77.15628, 38.82564 ], [ -77.15558, 38.82585 ], [ -77.15567, 38.8263 ], [ -77.15652, 38.82661 ], [ -77.15703, 38.82495 ], [ -77.15625, 38.82502 ] ], [ [ -77.15737, 38.81961 ], [ -77.1565, 38.81981 ], [ -77.15652, 38.82039 ], [ -77.15704, 38.82051 ], [ -77.15737, 38.81961 ] ], [ [ -77.1636, 38.82011 ], [ -77.1621, 38.81871 ], [ -77.16201, 38.82174 ], [ -77.1629, 38.82196 ], [ -77.1636, 38.82011 ] ], [ [ -77.16167, 38.82314 ], [ -77.16104, 38.82297 ], [ -77.1609, 38.82329 ], [ -77.16167, 38.82314 ] ], [ [ -77.1597, 38.82259 ], [ -77.15932, 38.8225 ], [ -77.15924, 38.82262 ], [ -77.1597, 38.82259 ] ], [ [ -77.16188, 38.83833 ], [ -77.15835, 38.83706 ], [ -77.15999, 38.83832 ], [ -77.16188, 38.83833 ] ], [ [ -77.16057, 38.83655 ], [ -77.16087, 38.83666 ], [ -77.16116, 38.83553 ], [ -77.16057, 38.83655 ] ], [ [ -77.1593, 38.83611 ], [ -77.1596, 38.83559 ], [ -77.15912, 38.8359 ], [ -77.1593, 38.83611 ] ], [ [ -77.16087, 38.83305 ], [ -77.16005, 38.83281 ], [ -77.16077, 38.83346 ], [ -77.16087, 38.83305 ] ], [ [ -77.16189, 38.83209 ], [ -77.15906, 38.83126 ], [ -77.16242, 38.83241 ], [ -77.16189, 38.83209 ] ], [ [ -77.16152, 38.83083 ], [ -77.16044, 38.82906 ], [ -77.16035, 38.83049 ], [ -77.16152, 38.83083 ] ], [ [ -77.1611, 38.82807 ], [ -77.16118, 38.82791 ], [ -77.15888, 38.82654 ], [ -77.1611, 38.82807 ] ], [ [ -77.16516, 38.83952 ], [ -77.1663, 38.83858 ], [ -77.16567, 38.83862 ], [ -77.1643, 38.84025 ], [ -77.16516, 38.83952 ] ], [ [ -77.166, 38.83664 ], [ -77.16428, 38.8364 ], [ -77.16512, 38.83733 ], [ -77.16591, 38.83713 ], [ -77.166, 38.83664 ] ], [ [ -77.16453, 38.83431 ], [ -77.16451, 38.8349 ], [ -77.16455, 38.8352 ], [ -77.16453, 38.83431 ] ], [ [ -77.16491, 38.83225 ], [ -77.16424, 38.83267 ], [ -77.16481, 38.83247 ], [ -77.16491, 38.83225 ] ], [ [ -77.16598, 38.83156 ], [ -77.16667, 38.8323 ], [ -77.16673, 38.83176 ], [ -77.16598, 38.83156 ] ], [ [ -77.16595, 38.83331 ], [ -77.1659, 38.83496 ], [ -77.16635, 38.83558 ], [ -77.16595, 38.83331 ] ], [ [ -77.16321, 38.83552 ], [ -77.16315, 38.83334 ], [ -77.16216, 38.83712 ], [ -77.16292, 38.83677 ], [ -77.16321, 38.83552 ] ], [ [ -77.16271, 38.83024 ], [ -77.16298, 38.83127 ], [ -77.16368, 38.83164 ], [ -77.16388, 38.83144 ], [ -77.16309, 38.83121 ], [ -77.16271, 38.83024 ] ], [ [ -77.16252, 38.83942 ], [ -77.16286, 38.84024 ], [ -77.16407, 38.83872 ], [ -77.16252, 38.83942 ] ], [ [ -77.15691, 38.84275 ], [ -77.1569, 38.84278 ], [ -77.15723, 38.84276 ], [ -77.15691, 38.84275 ] ], [ [ -77.15839, 38.84208 ], [ -77.15735, 38.84085 ], [ -77.15586, 38.84136 ], [ -77.15642, 38.84174 ], [ -77.15749, 38.84137 ], [ -77.15839, 38.84208 ] ], [ [ -77.15895, 38.84078 ], [ -77.15806, 38.83872 ], [ -77.15798, 38.8398 ], [ -77.15895, 38.84078 ] ], [ [ -77.15731, 38.83778 ], [ -77.15697, 38.83743 ], [ -77.15638, 38.8378 ], [ -77.15658, 38.83827 ], [ -77.15731, 38.83778 ] ], [ [ -77.15862, 38.83483 ], [ -77.15831, 38.83454 ], [ -77.15816, 38.83506 ], [ -77.15765, 38.8352 ], [ -77.15823, 38.83507 ], [ -77.15862, 38.83483 ] ], [ [ -77.15634, 38.83245 ], [ -77.15563, 38.8334 ], [ -77.15609, 38.83377 ], [ -77.15725, 38.83357 ], [ -77.15634, 38.83245 ] ], [ [ -77.15801, 38.83095 ], [ -77.15597, 38.83037 ], [ -77.15616, 38.83084 ], [ -77.15552, 38.83175 ], [ -77.15637, 38.83227 ], [ -77.15801, 38.83095 ] ], [ [ -77.15906, 38.8301 ], [ -77.15773, 38.8289 ], [ -77.15769, 38.82972 ], [ -77.15906, 38.8301 ] ], [ [ -77.15636, 38.82933 ], [ -77.15663, 38.82803 ], [ -77.15657, 38.82798 ], [ -77.15514, 38.82887 ], [ -77.15636, 38.82933 ] ], [ [ -77.15585, 38.8248 ], [ -77.15584, 38.82482 ], [ -77.15588, 38.82483 ], [ -77.15585, 38.8248 ] ], [ [ -77.15567, 38.82476 ], [ -77.15584, 38.82479 ], [ -77.15572, 38.82471 ], [ -77.15567, 38.82476 ] ], [ [ -77.15916, 38.82845 ], [ -77.15765, 38.8273 ], [ -77.15802, 38.82765 ], [ -77.15916, 38.82845 ] ], [ [ -77.15862, 38.82522 ], [ -77.15857, 38.82535 ], [ -77.15912, 38.825 ], [ -77.15862, 38.82522 ] ], [ [ -77.15589, 38.83533 ], [ -77.15554, 38.83554 ], [ -77.15512, 38.83672 ], [ -77.15645, 38.83591 ], [ -77.15589, 38.83533 ] ], [ [ -77.1566, 38.83946 ], [ -77.15561, 38.83926 ], [ -77.15572, 38.83869 ], [ -77.15506, 38.8386 ], [ -77.15553, 38.84029 ], [ -77.1566, 38.83979 ], [ -77.1566, 38.83946 ] ], [ [ -77.15416, 38.82509 ], [ -77.154, 38.82593 ], [ -77.15464, 38.82561 ], [ -77.15416, 38.82509 ] ], [ [ -77.15364, 38.83971 ], [ -77.15411, 38.83987 ], [ -77.15394, 38.83926 ], [ -77.15339, 38.83958 ], [ -77.15364, 38.83971 ] ], [ [ -77.15426, 38.8215 ], [ -77.15426, 38.82123 ], [ -77.15425, 38.82134 ], [ -77.15426, 38.8215 ] ], [ [ -77.14718, 38.83659 ], [ -77.147, 38.83623 ], [ -77.14621, 38.83656 ], [ -77.14718, 38.83659 ] ], [ [ -77.14456, 38.83239 ], [ -77.14491, 38.83254 ], [ -77.14531, 38.83151 ], [ -77.14456, 38.83239 ] ], [ [ -77.14622, 38.8306 ], [ -77.14573, 38.83047 ], [ -77.14602, 38.83057 ], [ -77.14622, 38.8306 ] ], [ [ -77.1478, 38.82942 ], [ -77.14692, 38.82965 ], [ -77.14745, 38.82995 ], [ -77.1478, 38.82942 ] ], [ [ -77.14598, 38.82939 ], [ -77.1466, 38.82956 ], [ -77.14635, 38.82939 ], [ -77.14598, 38.82939 ] ], [ [ -77.1455, 38.82736 ], [ -77.14514, 38.82813 ], [ -77.14641, 38.82823 ], [ -77.1455, 38.82736 ] ], [ [ -77.14457, 38.82619 ], [ -77.14457, 38.82586 ], [ -77.1444, 38.82608 ], [ -77.14457, 38.82619 ] ], [ [ -77.14391, 38.82482 ], [ -77.14386, 38.82476 ], [ -77.14386, 38.82482 ], [ -77.14391, 38.82482 ] ], [ [ -77.14175, 38.82201 ], [ -77.14116, 38.82253 ], [ -77.14131, 38.82256 ], [ -77.14175, 38.82201 ] ], [ [ -77.14183, 38.8191 ], [ -77.14232, 38.81946 ], [ -77.14243, 38.81871 ], [ -77.14183, 38.8191 ] ], [ [ -77.14923, 38.84029 ], [ -77.1493, 38.84023 ], [ -77.14923, 38.84023 ], [ -77.14923, 38.84029 ] ], [ [ -77.14957, 38.83841 ], [ -77.14957, 38.83838 ], [ -77.14949, 38.8384 ], [ -77.14957, 38.83841 ] ], [ [ -77.14967, 38.83755 ], [ -77.14969, 38.83744 ], [ -77.14956, 38.83747 ], [ -77.14967, 38.83755 ] ], [ [ -77.15118, 38.83447 ], [ -77.15123, 38.83418 ], [ -77.14757, 38.83329 ], [ -77.149, 38.83377 ], [ -77.14935, 38.83428 ], [ -77.15118, 38.83447 ] ], [ [ -77.14662, 38.83184 ], [ -77.14659, 38.83193 ], [ -77.15138, 38.83311 ], [ -77.14662, 38.83184 ] ], [ [ -77.15121, 38.83058 ], [ -77.15053, 38.82912 ], [ -77.15047, 38.82663 ], [ -77.14945, 38.82649 ], [ -77.14924, 38.82611 ], [ -77.14943, 38.82572 ], [ -77.15045, 38.82555 ], [ -77.15038, 38.82173 ], [ -77.14952, 38.82102 ], [ -77.14866, 38.82364 ], [ -77.14683, 38.82417 ], [ -77.1467, 38.82468 ], [ -77.14791, 38.82471 ], [ -77.14848, 38.82401 ], [ -77.14908, 38.82422 ], [ -77.14908, 38.82555 ], [ -77.14797, 38.82658 ], [ -77.14843, 38.8273 ], [ -77.14814, 38.828 ], [ -77.15121, 38.83058 ] ], [ [ -77.14892, 38.82003 ], [ -77.1488, 38.82014 ], [ -77.14936, 38.82027 ], [ -77.14892, 38.82003 ] ], [ [ -77.14638, 38.81968 ], [ -77.1464, 38.81965 ], [ -77.14613, 38.81961 ], [ -77.14638, 38.81968 ] ], [ [ -77.15242, 38.82684 ], [ -77.15185, 38.82681 ], [ -77.15197, 38.82914 ], [ -77.15242, 38.82684 ] ], [ [ -77.15007, 38.83972 ], [ -77.15035, 38.83955 ], [ -77.15012, 38.83954 ], [ -77.15007, 38.83972 ] ], [ [ -77.1448, 38.82277 ], [ -77.14426, 38.82293 ], [ -77.14548, 38.8239 ], [ -77.1459, 38.82355 ], [ -77.14508, 38.8233 ], [ -77.1448, 38.82277 ] ], [ [ -77.14424, 38.82111 ], [ -77.14355, 38.82105 ], [ -77.14349, 38.82136 ], [ -77.14482, 38.82178 ], [ -77.14424, 38.82111 ] ], [ [ -77.14616, 38.82203 ], [ -77.14636, 38.82253 ], [ -77.14637, 38.82206 ], [ -77.14642, 38.82175 ], [ -77.14616, 38.82203 ] ], [ [ -77.14796, 38.84397 ], [ -77.14834, 38.84326 ], [ -77.14826, 38.84331 ], [ -77.14796, 38.84397 ] ], [ [ -77.14676, 38.8431 ], [ -77.1469, 38.84294 ], [ -77.1468, 38.84297 ], [ -77.14676, 38.8431 ] ], [ [ -77.14453, 38.81951 ], [ -77.14461, 38.81938 ], [ -77.14385, 38.81922 ], [ -77.14453, 38.81951 ] ], [ [ -77.1395, 38.83481 ], [ -77.13937, 38.83483 ], [ -77.13947, 38.83485 ], [ -77.1395, 38.83481 ] ], [ [ -77.14009, 38.83218 ], [ -77.14074, 38.8318 ], [ -77.14151, 38.8318 ], [ -77.14179, 38.83241 ], [ -77.14319, 38.83212 ], [ -77.14192, 38.83139 ], [ -77.14251, 38.83079 ], [ -77.14104, 38.83072 ], [ -77.14059, 38.83181 ], [ -77.13927, 38.8319 ], [ -77.13885, 38.83292 ], [ -77.13961, 38.83306 ], [ -77.13972, 38.83366 ], [ -77.1401, 38.83359 ], [ -77.14009, 38.83218 ] ], [ [ -77.13974, 38.83084 ], [ -77.13971, 38.83073 ], [ -77.13961, 38.83083 ], [ -77.13974, 38.83084 ] ], [ [ -77.1403, 38.82812 ], [ -77.14081, 38.82821 ], [ -77.1413, 38.82965 ], [ -77.14289, 38.82975 ], [ -77.14372, 38.82804 ], [ -77.1426, 38.82756 ], [ -77.1428, 38.82695 ], [ -77.14198, 38.82711 ], [ -77.13923, 38.82621 ], [ -77.13815, 38.8268 ], [ -77.13661, 38.82957 ], [ -77.13803, 38.82898 ], [ -77.13935, 38.8293 ], [ -77.1403, 38.82812 ] ], [ [ -77.14369, 38.83076 ], [ -77.14331, 38.83089 ], [ -77.14377, 38.83104 ], [ -77.14369, 38.83076 ] ], [ [ -77.14299, 38.82675 ], [ -77.14293, 38.82684 ], [ -77.14311, 38.82683 ], [ -77.14299, 38.82675 ] ], [ [ -77.1431, 38.83521 ], [ -77.14327, 38.83502 ], [ -77.1429, 38.83508 ], [ -77.1431, 38.83521 ] ], [ [ -77.14077, 38.82594 ], [ -77.14107, 38.82559 ], [ -77.14089, 38.82573 ], [ -77.14077, 38.82594 ] ], [ [ -77.13591, 38.83114 ], [ -77.13601, 38.83137 ], [ -77.1362, 38.83109 ], [ -77.13591, 38.83114 ] ], [ [ -77.13798, 38.83015 ], [ -77.13854, 38.83058 ], [ -77.13853, 38.83022 ], [ -77.13798, 38.83015 ] ], [ [ -77.13601, 38.83154 ], [ -77.13601, 38.83158 ], [ -77.13608, 38.83172 ], [ -77.13601, 38.83154 ] ], [ [ -77.14214, 38.84583 ], [ -77.14221, 38.84514 ], [ -77.14209, 38.84535 ], [ -77.14214, 38.84583 ] ] ] } },
{ "type": "Feature", "properties": { "variant": "T2s", "miles": 0.5 }, "geometry": { "type": "Polygon", "coordinates": [ [ [ -77.15378, 38.8322 ], [ -77.15512, 38.83026 ], [ -77.15607, 38.83043 ], [ -77.15552, 38.83175 ], [ -77.15636, 38.83241 ], [ -77.15563, 38.8334 ], [ -77.15668, 38.83472 ], [ -77.15582, 38.83507 ], [ -77.1528, 38.83296 ], [ -77.15257, 38.8345 ], [ -77.15323, 38.83475 ], [ -77.15394, 38.83433 ], [ -77.15441, 38.83452 ], [ -77.15439, 38.83644 ], [ -77.1542, 38.83683 ], [ -77.15338, 38.83689 ], [ -77.15335, 38.83913 ], [ -77.15112, 38.84026 ], [ -77.15053, 38.83957 ], [ -77.14966, 38.83934 ], [ -77.14969, 38.83744 ], [ -77.14873, 38.83734 ], [ -77.14755, 38.83785 ], [ -77.14719, 38.83754 ], [ -77.14752, 38.83674 ], [ -77.14697, 38.83615 ], [ -77.14942, 38.83423 ], [ -77.14992, 38.83407 ], [ -77.15054, 38.8345 ], [ -77.15118, 38.83447 ], [ -77.15123, 38.83418 ], [ -77.14619, 38.83296 ], [ -77.14568, 38.83374 ], [ -77.14515, 38.83378 ], [ -77.14469, 38.83311 ], [ -77.14583, 38.83069 ], [ -77.14901, 38.82917 ], [ -77.15177, 38.83095 ], [ -77.15242, 38.83052 ], [ -77.1529, 38.83068 ], [ -77.15301, 38.83175 ], [ -77.15378, 38.8322 ] ], [ [ -77.1514, 38.83298 ], [ -77.14662, 38.83184 ], [ -77.14659, 38.83193 ], [ -77.15054, 38.83302 ], [ -77.1514, 38.83298 ] ] ] } },
{ "type": "Feature", "properties": { "variant": "T2s", "miles": 1.0 }, "geometry": { "type": "Polygon", "coordinates": [ [ [ -77.15607, 38.83043 ], [ -77.15552, 38.83175 ], [ -77.15635, 38.83239 ], [ -77.15676, 38.83172 ], [ -77.15771, 38.83155 ], [ -77.15782, 38.83243 ], [ -77.15969, 38.83415 ], [ -77.16284, 38.83216 ], [ -77.16381, 38.83225 ], [ -77.16395, 38.83265 ], [ -77.16308, 38.83338 ], [ -77.16216, 38.83712 ], [ -77.16368, 38.83762 ], [ -77.16342, 38.83866 ], [ -77.15736, 38.83696 ], [ -77.14823, 38.84221 ], [ -77.14702, 38.84256 ], [ -77.14632, 38.84203 ], [ -77.14675, 38.84156 ], [ -77.14571, 38.84064 ], [ -77.14438, 38.83975 ], [ -77.14353, 38.8402 ], [ -77.14283, 38.83967 ], [ -77.14553, 38.83753 ], [ -77.14064, 38.83683 ], [ -77.13999, 38.83605 ], [ -77.13825, 38.83572 ], [ -77.13676, 38.83479 ], [ -77.1367, 38.83438 ], [ -77.13753, 38.834 ], [ -77.13763, 38.83243 ], [ -77.13861, 38.83239 ], [ -77.13885, 38.83292 ], [ -77.13961, 38.83306 ], [ -77.13972, 38.83366 ], [ -77.1401, 38.83359 ], [ -77.1399, 38.83254 ], [ -77.14051, 38.83188 ], [ -77.14151, 38.8318 ], [ -77.14179, 38.83241 ], [ -77.14324, 38.83206 ], [ -77.14192, 38.83139 ], [ -77.14251, 38.83079 ], [ -77.14104, 38.83072 ], [ -77.14025, 38.83121 ], [ -77.13971, 38.83073 ], [ -77.13899, 38.83099 ], [ -77.13849, 38.83033 ], [ -77.13869, 38.82972 ], [ -77.13939, 38.82935 ], [ -77.1394, 38.82881 ], [ -77.1403, 38.82812 ], [ -77.1411, 38.82856 ], [ -77.1413, 38.82965 ], [ -77.14289, 38.82975 ], [ -77.14372, 38.82804 ], [ -77.1426, 38.82756 ], [ -77.1428, 38.82695 ], [ -77.14198, 38.82711 ], [ -77.14168, 38.82639 ], [ -77.1424, 38.82559 ], [ -77.14314, 38.82562 ], [ -77.14346, 38.82505 ], [ -77.14446, 38.82466 ], [ -77.14364, 38.82397 ], [ -77.14394, 38.82324 ], [ -77.14446, 38.82321 ], [ -77.14548, 38.8239 ], [ -77.14645, 38.82359 ], [ -77.1467, 38.82468 ], [ -77.14791, 38.82471 ], [ -77.14848, 38.82401 ], [ -77.14908, 38.82422 ], [ -77.14908, 38.82555 ], [ -77.14797, 38.82658 ], [ -77.14843, 38.8273 ], [ -77.14814, 38.828 ], [ -77.15121, 38.83058 ], [ -77.15053, 38.82912 ], [ -77.15047, 38.82663 ], [ -77.14945, 38.82649 ], [ -77.14924, 38.82611 ], [ -77.14992, 38.82556 ], [ -77.15263, 38.82578 ], [ -77.15279, 38.82494 ], [ -77.15213, 38.82437 ], [ -77.15235, 38.82399 ], [ -77.15333, 38.82351 ], [ -77.15429, 38.82366 ], [ -77.154, 38.82593 ], [ -77.15503, 38.82561 ], [ -77.15574, 38.82613 ], [ -77.15508, 38.82712 ], [ -77.15185, 38.82681 ], [ -77.15191, 38.82899 ], [ -77.1531, 38.83106 ], [ -77.15301, 38.83175 ], [ -77.15378, 38.8322 ], [ -77.15491, 38.83037 ], [ -77.15607, 38.83043 ] ], [ [ -77.14992, 38.83407 ], [ -77.15054, 38.8345 ], [ -77.15118, 38.83447 ], [ -77.15123, 38.83418 ], [ -77.14757, 38.83329 ], [ -77.149, 38.83377 ], [ -77.14935, 38.83427 ], [ -77.14992, 38.83407 ] ], [ [ -77.15054, 38.83302 ], [ -77.15138, 38.83311 ], [ -77.14662, 38.83184 ], [ -77.15054, 38.83302 ] ], [ [ -77.1478, 38.82942 ], [ -77.14692, 38.82965 ], [ -77.14745, 38.82995 ], [ -77.1478, 38.82942 ] ], [ [ -77.14635, 38.82933 ], [ -77.14598, 38.82939 ], [ -77.1466, 38.82956 ], [ -77.14635, 38.82933 ] ], [ [ -77.1455, 38.82736 ], [ -77.14514, 38.82813 ], [ -77.14643, 38.82825 ], [ -77.1455, 38.82736 ] ], [ [ -77.15654, 38.83587 ], [ -77.15589, 38.83533 ], [ -77.15532, 38.83575 ], [ -77.15512, 38.83672 ], [ -77.15654, 38.83587 ] ], [ [ -77.15372, 38.83351 ], [ -77.1528, 38.83296 ], [ -77.15257, 38.8345 ], [ -77.15323, 38.83475 ], [ -77.15464, 38.83415 ], [ -77.15372, 38.83351 ] ], [ [ -77.16057, 38.83655 ], [ -77.16087, 38.83666 ], [ -77.16116, 38.83553 ], [ -77.16057, 38.83655 ] ], [ [ -77.1593, 38.83611 ], [ -77.1596, 38.83559 ], [ -77.15912, 38.8359 ], [ -77.1593, 38.83611 ] ], [ [ -77.15782, 38.83535 ], [ -77.15862, 38.83483 ], [ -77.15831, 38.83454 ], [ -77.15782, 38.83535 ] ], [ [ -77.15634, 38.83245 ], [ -77.15563, 38.8334 ], [ -77.15609, 38.83377 ], [ -77.15725, 38.83357 ], [ -77.15634, 38.83245 ] ], [ [ -77.14655, 38.83644 ], [ -77.14621, 38.83656 ], [ -77.14718, 38.83659 ], [ -77.147, 38.83623 ], [ -77.14655, 38.83644 ] ], [ [ -77.14531, 38.83151 ], [ -77.14506, 38.83141 ], [ -77.14456, 38.83239 ], [ -77.14491, 38.83254 ], [ -77.14531, 38.83151 ] ], [ [ -77.14351, 38.83084 ], [ -77.14331, 38.83089 ], [ -77.14377, 38.83104 ], [ -77.14351, 38.83084 ] ], [ [ -77.14299, 38.82675 ], [ -77.14293, 38.82684 ], [ -77.14311, 38.82683 ], [ -77.14299, 38.82675 ] ], [ [ -77.14457, 38.82586 ], [ -77.14436, 38.82613 ], [ -77.14457, 38.82619 ], [ -77.14457, 38.82586 ] ], [ [ -77.14949, 38.8384 ], [ -77.14957, 38.83841 ], [ -77.14957, 38.83838 ], [ -77.14949, 38.8384 ] ], [ [ -77.14967, 38.83755 ], [ -77.14969, 38.83744 ], [ -77.14956, 38.83747 ], [ -77.14967, 38.83755 ] ], [ [ -77.15006, 38.83953 ], [ -77.15007, 38.83972 ], [ -77.15035, 38.83955 ], [ -77.15006, 38.83953 ] ], [ [ -77.14923, 38.84023 ], [ -77.14923, 38.84029 ], [ -77.14926, 38.84027 ], [ -77.14923, 38.84023 ] ], [ [ -77.14573, 38.83047 ], [ -77.14639, 38.83066 ], [ -77.14622, 38.8306 ], [ -77.14573, 38.83047 ] ], [ [ -77.1429, 38.83508 ], [ -77.14309, 38.83522 ], [ -77.14327, 38.83502 ], [ -77.1429, 38.83508 ] ], [ [ -77.13947, 38.83485 ], [ -77.1395, 38.83481 ], [ -77.13937, 38.83483 ], [ -77.13947, 38.83485 ] ] ] } },
{ "type": "Feature", "properties": { "variant": "T2s", "miles": 1.5 }, "geometry": { "type": "Polygon", "coordinates": [ [ [ -77.16593, 38.83025 ], [ -77.16835, 38.82864 ], [ -77.16885, 38.82852 ], [ -77.16993, 38.82914 ], [ -77.16971, 38.82996 ], [ -77.16869, 38.82983 ], [ -77.16738, 38.83067 ], [ -77.16816, 38.83132 ], [ -77.17034, 38.8319 ], [ -77.17103, 38.83301 ], [ -77.17014, 38.83332 ], [ -77.1694, 38.83271 ], [ -77.1683, 38.83249 ], [ -77.16874, 38.83329 ], [ -77.16833, 38.83393 ], [ -77.1699, 38.83466 ], [ -77.16994, 38.83507 ], [ -77.16907, 38.83541 ], [ -77.16754, 38.83482 ], [ -77.16783, 38.83595 ], [ -77.16729, 38.83707 ], [ -77.17256, 38.8367 ], [ -77.17297, 38.8374 ], [ -77.17204, 38.83791 ], [ -77.17217, 38.83892 ], [ -77.17124, 38.83913 ], [ -77.17069, 38.83815 ], [ -77.16768, 38.83849 ], [ -77.16733, 38.83946 ], [ -77.16619, 38.84025 ], [ -77.16816, 38.84025 ], [ -77.16885, 38.84079 ], [ -77.16816, 38.84133 ], [ -77.16611, 38.84133 ], [ -77.16651, 38.84219 ], [ -77.1657, 38.84262 ], [ -77.16472, 38.84133 ], [ -77.16223, 38.8412 ], [ -77.16112, 38.83957 ], [ -77.15984, 38.83943 ], [ -77.1606, 38.8416 ], [ -77.16013, 38.84223 ], [ -77.15924, 38.84243 ], [ -77.15847, 38.84215 ], [ -77.1566, 38.84032 ], [ -77.1566, 38.83946 ], [ -77.15561, 38.83926 ], [ -77.1559, 38.83853 ], [ -77.15731, 38.83778 ], [ -77.15697, 38.83743 ], [ -77.14816, 38.84237 ], [ -77.14591, 38.84286 ], [ -77.14569, 38.84211 ], [ -77.14675, 38.84156 ], [ -77.14438, 38.83975 ], [ -77.14353, 38.8402 ], [ -77.14283, 38.83967 ], [ -77.14553, 38.83753 ], [ -77.14064, 38.83683 ], [ -77.13999, 38.83605 ], [ -77.13825, 38.83572 ], [ -77.13676, 38.83479 ], [ -77.1367, 38.83438 ], [ -77.13753, 38.834 ], [ -77.13786, 38.83174 ], [ -77.13614, 38.83183 ], [ -77.13637, 38.83384 ], [ -77.13539, 38.83389 ], [ -77.13506, 38.83349 ], [ -77.1345, 38.83123 ], [ -77.13509, 38.82982 ], [ -77.1347, 38.83013 ], [ -77.13381, 38.82982 ], [ -77.13342, 38.82777 ], [ -77.13402, 38.82717 ], [ -77.13483, 38.82722 ], [ -77.13512, 38.82645 ], [ -77.13663, 38.82678 ], [ -77.13786, 38.82564 ], [ -77.13707, 38.8251 ], [ -77.13768, 38.8245 ], [ -77.1375, 38.82406 ], [ -77.13777, 38.8237 ], [ -77.13849, 38.82369 ], [ -77.13851, 38.82319 ], [ -77.1376, 38.82275 ], [ -77.13777, 38.82238 ], [ -77.13625, 38.82134 ], [ -77.1363, 38.82093 ], [ -77.1385, 38.81954 ], [ -77.13636, 38.81779 ], [ -77.13661, 38.81743 ], [ -77.13772, 38.81746 ], [ -77.14156, 38.82011 ], [ -77.14224, 38.81979 ], [ -77.14243, 38.81871 ], [ -77.14125, 38.81861 ], [ -77.14044, 38.81787 ], [ -77.1403, 38.81722 ], [ -77.14071, 38.81695 ], [ -77.14652, 38.81874 ], [ -77.14632, 38.81949 ], [ -77.14385, 38.81922 ], [ -77.14483, 38.81964 ], [ -77.14487, 38.82067 ], [ -77.14461, 38.82102 ], [ -77.14355, 38.82105 ], [ -77.14349, 38.82136 ], [ -77.14495, 38.82186 ], [ -77.14504, 38.82259 ], [ -77.14428, 38.82298 ], [ -77.14548, 38.8239 ], [ -77.14645, 38.82359 ], [ -77.1467, 38.82468 ], [ -77.14791, 38.82471 ], [ -77.14848, 38.82401 ], [ -77.14908, 38.82422 ], [ -77.14908, 38.82555 ], [ -77.14797, 38.82658 ], [ -77.14843, 38.8273 ], [ -77.14814, 38.828 ], [ -77.15121, 38.83058 ], [ -77.15053, 38.82912 ], [ -77.15047, 38.82663 ], [ -77.14945, 38.82649 ], [ -77.14924, 38.82611 ], [ -77.14992, 38.82556 ], [ -77.15263, 38.82578 ], [ -77.15279, 38.82494 ], [ -77.15213, 38.82437 ], [ -77.15235, 38.82399 ], [ -77.15333, 38.82351 ], [ -77.15429, 38.82366 ], [ -77.154, 38.82593 ], [ -77.15552, 38.82576 ], [ -77.15542, 38.8268 ], [ -77.15456, 38.82715 ], [ -77.15185, 38.82681 ], [ -77.15192, 38.82903 ], [ -77.1531, 38.83106 ], [ -77.15301, 38.83175 ], [ -77.15378, 38.8322 ], [ -77.15512, 38.83026 ], [ -77.15607, 38.83043 ], [ -77.15552, 38.83175 ], [ -77.15635, 38.83239 ], [ -77.15676, 38.83172 ], [ -77.15766, 38.83154 ], [ -77.15801, 38.83095 ], [ -77.15627, 38.83041 ], [ -77.15609, 38.82983 ], [ -77.15684, 38.82932 ], [ -77.15906, 38.8301 ], [ -77.1591, 38.82861 ], [ -77.15974, 38.82759 ], [ -77.1611, 38.82807 ], [ -77.1615, 38.82742 ], [ -77.16234, 38.82729 ], [ -77.16593, 38.83025 ] ], [ [ -77.14655, 38.83644 ], [ -77.14621, 38.83656 ], [ -77.14718, 38.83659 ], [ -77.14698, 38.83623 ], [ -77.14655, 38.83644 ] ], [ [ -77.15054, 38.83302 ], [ -77.15138, 38.83311 ], [ -77.14662, 38.83184 ], [ -77.15054, 38.83302 ] ], [ [ -77.14639, 38.83066 ], [ -77.14573, 38.83047 ], [ -77.14602, 38.83057 ], [ -77.14639, 38.83066 ] ], [ [ -77.1478, 38.82942 ], [ -77.14692, 38.82965 ], [ -77.14745, 38.82995 ], [ -77.1478, 38.82942 ] ], [ [ -77.14635, 38.82933 ], [ -77.14598, 38.82939 ], [ -77.1466, 38.82956 ], [ -77.14635, 38.82933 ] ], [ [ -77.1455, 38.82736 ], [ -77.14514, 38.82813 ], [ -77.14643, 38.82825 ], [ -77.1455, 38.82736 ] ], [ [ -77.1633, 38.83936 ], [ -77.16407, 38.83872 ], [ -77.16252, 38.83942 ], [ -77.16292, 38.84018 ], [ -77.1633, 38.83936 ] ], [ [ -77.16321, 38.83552 ], [ -77.16315, 38.83334 ], [ -77.16216, 38.83712 ], [ -77.16292, 38.83677 ], [ -77.16321, 38.83552 ] ], [ [ -77.15835, 38.83706 ], [ -77.15999, 38.83832 ], [ -77.16207, 38.83839 ], [ -77.15835, 38.83706 ] ], [ [ -77.15589, 38.83533 ], [ -77.15554, 38.83554 ], [ -77.15512, 38.83672 ], [ -77.15645, 38.83591 ], [ -77.15589, 38.83533 ] ], [ [ -77.15725, 38.83357 ], [ -77.15634, 38.83245 ], [ -77.15563, 38.8334 ], [ -77.15725, 38.83357 ] ], [ [ -77.16538, 38.83922 ], [ -77.1643, 38.84025 ], [ -77.16475, 38.84025 ], [ -77.1663, 38.83858 ], [ -77.16565, 38.83872 ], [ -77.16538, 38.83922 ] ], [ [ -77.16179, 38.83206 ], [ -77.15906, 38.83126 ], [ -77.16242, 38.83241 ], [ -77.16179, 38.83206 ] ], [ [ -77.16393, 38.83148 ], [ -77.16309, 38.83121 ], [ -77.16314, 38.83133 ], [ -77.16393, 38.83148 ] ], [ [ -77.16321, 38.83045 ], [ -77.16441, 38.83044 ], [ -77.16228, 38.82867 ], [ -77.16211, 38.82899 ], [ -77.16309, 38.83121 ], [ -77.16321, 38.83045 ] ], [ [ -77.16595, 38.83331 ], [ -77.1659, 38.83496 ], [ -77.16635, 38.83558 ], [ -77.16595, 38.83331 ] ], [ [ -77.16598, 38.83156 ], [ -77.16667, 38.8323 ], [ -77.16673, 38.83176 ], [ -77.16598, 38.83156 ] ], [ [ -77.16481, 38.83247 ], [ -77.16491, 38.83225 ], [ -77.16424, 38.83267 ], [ -77.16481, 38.83247 ] ], [ [ -77.16455, 38.8352 ], [ -77.16453, 38.83431 ], [ -77.16442, 38.83481 ], [ -77.16455, 38.8352 ] ], [ [ -77.166, 38.83664 ], [ -77.16428, 38.8364 ], [ -77.16512, 38.83733 ], [ -77.16593, 38.83728 ], [ -77.166, 38.83664 ] ], [ [ -77.16005, 38.83281 ], [ -77.16077, 38.83346 ], [ -77.16124, 38.83316 ], [ -77.16005, 38.83281 ] ], [ [ -77.15969, 38.83415 ], [ -77.1597, 38.83414 ], [ -77.15921, 38.8337 ], [ -77.15969, 38.83415 ] ], [ [ -77.15782, 38.83535 ], [ -77.15862, 38.83483 ], [ -77.15831, 38.83454 ], [ -77.15782, 38.83535 ] ], [ [ -77.16035, 38.83049 ], [ -77.16152, 38.83083 ], [ -77.16077, 38.82928 ], [ -77.16045, 38.82921 ], [ -77.16035, 38.83049 ] ], [ [ -77.16057, 38.83655 ], [ -77.16087, 38.83666 ], [ -77.16116, 38.83553 ], [ -77.16057, 38.83655 ] ], [ [ -77.15912, 38.8359 ], [ -77.15898, 38.83599 ], [ -77.1593, 38.83611 ], [ -77.1596, 38.83559 ], [ -77.15912, 38.8359 ] ], [ [ -77.15798, 38.8398 ], [ -77.15895, 38.84078 ], [ -77.15806, 38.83872 ], [ -77.15798, 38.8398 ] ], [ [ -77.15014, 38.83405 ], [ -77.14757, 38.83329 ], [ -77.149, 38.83377 ], [ -77.14935, 38.83428 ], [ -77.14992, 38.83407 ], [ -77.15118, 38.83447 ], [ -77.15014, 38.83405 ] ], [ [ -77.1528, 38.83296 ], [ -77.15257, 38.8345 ], [ -77.15323, 38.83475 ], [ -77.15464, 38.83415 ], [ -77.1528, 38.83296 ] ], [ [ -77.1429, 38.83508 ], [ -77.14309, 38.83522 ], [ -77.14327, 38.83502 ], [ -77.1429, 38.83508 ] ], [ [ -77.14531, 38.83151 ], [ -77.14506, 38.83141 ], [ -77.14456, 38.83239 ], [ -77.14491, 38.83254 ], [ -77.14531, 38.83151 ] ], [ [ -77.14192, 38.83139 ], [ -77.14251, 38.83079 ], [ -77.14104, 38.83072 ], [ -77.14059, 38.83181 ], [ -77.13927, 38.8319 ], [ -77.13885, 38.83292 ], [ -77.1401, 38.83359 ], [ -77.13988, 38.83262 ], [ -77.14033, 38.83197 ], [ -77.14151, 38.8318 ], [ -77.14179, 38.83241 ], [ -77.14324, 38.83206 ], [ -77.14192, 38.83139 ] ], [ [ -77.14377, 38.83104 ], [ -77.14387, 38.83084 ], [ -77.14331, 38.83089 ], [ -77.14377, 38.83104 ] ], [ [ -77.14372, 38.82804 ], [ -77.1426, 38.82756 ], [ -77.1428, 38.82695 ], [ -77.14198, 38.82711 ], [ -77.13923, 38.82621 ], [ -77.13815, 38.8268 ], [ -77.13661, 38.82957 ], [ -77.13803, 38.82898 ], [ -77.13935, 38.8293 ], [ -77.1394, 38.82881 ], [ -77.1403, 38.82812 ], [ -77.1411, 38.82856 ], [ -77.1413, 38.82965 ], [ -77.14289, 38.82975 ], [ -77.14372, 38.82804 ] ], [ [ -77.14299, 38.82675 ], [ -77.14293, 38.82684 ], [ -77.14311, 38.82683 ], [ -77.14299, 38.82675 ] ], [ [ -77.14386, 38.82482 ], [ -77.14386, 38.82485 ], [ -77.14391, 38.82482 ], [ -77.14386, 38.82482 ] ], [ [ -77.14957, 38.83841 ], [ -77.14957, 38.83838 ], [ -77.14949, 38.8384 ], [ -77.14957, 38.83841 ] ], [ [ -77.14969, 38.83744 ], [ -77.14956, 38.83747 ], [ -77.14967, 38.83755 ], [ -77.14969, 38.83744 ] ], [ [ -77.15007, 38.83972 ], [ -77.15035, 38.83955 ], [ -77.15012, 38.83954 ], [ -77.15007, 38.83972 ] ], [ [ -77.1493, 38.84023 ], [ -77.14923, 38.84023 ], [ -77.14926, 38.84027 ], [ -77.1493, 38.84023 ] ], [ [ -77.14457, 38.82619 ], [ -77.14457, 38.82586 ], [ -77.1444, 38.82608 ], [ -77.14457, 38.82619 ] ], [ [ -77.14186, 38.82209 ], [ -77.14175, 38.82201 ], [ -77.14116, 38.82253 ], [ -77.14186, 38.82209 ] ], [ [ -77.14077, 38.82594 ], [ -77.14107, 38.82559 ], [ -77.14089, 38.82573 ], [ -77.14077, 38.82594 ] ], [ [ -77.13974, 38.83084 ], [ -77.13971, 38.83073 ], [ -77.13961, 38.83083 ], [ -77.13974, 38.83084 ] ], [ [ -77.13591, 38.83114 ], [ -77.13601, 38.83137 ], [ -77.1362, 38.83109 ], [ -77.13591, 38.83114 ] ], [ [ -77.13798, 38.83015 ], [ -77.13854, 38.83058 ], [ -77.13853, 38.83022 ], [ -77.13798, 38.83015 ] ], [ [ -77.13608, 38.83172 ], [ -77.13601, 38.83154 ], [ -77.13602, 38.83161 ], [ -77.13608, 38.83172 ] ], [ [ -77.13947, 38.83485 ], [ -77.1395, 38.83481 ], [ -77.13937, 38.83483 ], [ -77.13947, 38.83485 ] ] ] } }
]
}
