{
"type": "FeatureCollection",
"name": "104",
"crs": { "type": "name", "properties": { "name": "urn:ogc:def:crs:OGC:1.3:CRS84" } },
"xy_coordinate_resolution": 1e-05,
"features": [
{ "type": "Feature", "properties": { "variant": "T0", "miles": 0.5 }, "geometry": { "type": "Polygon", "coordinates": [ [ [ -77.13511, 38.85302 ], [ -77.13595, 38.85328 ], [ -77.13611, 38.85401 ], [ -77.13521, 38.85438 ], [ -77.13512, 38.85506 ], [ -77.13396, 38.85547 ], [ -77.13382, 38.85614 ], [ -77.13494, 38.85656 ], [ -77.13506, 38.85732 ], [ -77.1346, 38.85752 ], [ -77.1326, 38.85701 ], [ -77.1318, 38.85735 ], [ -77.13136, 38.85698 ], [ -77.13054, 38.85742 ], [ -77.12977, 38.85683 ], [ -77.12837, 38.85756 ], [ -77.1274, 38.85747 ], [ -77.12776, 38.85639 ], [ -77.13067, 38.85541 ], [ -77.13086, 38.85481 ], [ -77.13234, 38.85362 ], [ -77.13329, 38.8535 ], [ -77.13358, 38.85418 ], [ -77.13511, 38.85302 ] ], [ [ -77.1334, 38.85434 ], [ -77.13319, 38.85447 ], [ -77.1332, 38.85451 ], [ -77.1334, 38.85434 ] ] ] } },
{ "type": "Feature", "properties": { "variant": "T0", "miles": 1.0 }, "geometry": { "type": "Polygon", "coordinates": [ [ [ -77.13981, 38.84964 ], [ -77.13873, 38.85104 ], [ -77.14286, 38.85321 ], [ -77.14235, 38.85387 ], [ -77.14135, 38.85358 ], [ -77.14073, 38.85449 ], [ -77.14291, 38.85565 ], [ -77.14241, 38.85631 ], [ -77.14167, 38.85624 ], [ -77.14278, 38.85702 ], [ -77.14281, 38.85795 ], [ -77.14152, 38.85858 ], [ -77.13964, 38.85826 ], [ -77.13909, 38.85952 ], [ -77.1382, 38.85983 ], [ -77.13781, 38.85955 ], [ -77.13794, 38.85881 ], [ -77.13736, 38.85833 ], [ -77.13754, 38.85795 ], [ -77.13839, 38.85776 ], [ -77.13899, 38.85638 ], [ -77.13805, 38.85587 ], [ -77.13657, 38.85756 ], [ -77.13488, 38.85814 ], [ -77.13288, 38.85784 ], [ -77.13241, 38.85721 ], [ -77.1318, 38.85735 ], [ -77.13136, 38.85698 ], [ -77.13002, 38.85733 ], [ -77.12977, 38.85683 ], [ -77.12837, 38.85756 ], [ -77.1274, 38.85747 ], [ -77.12731, 38.85691 ], [ -77.12787, 38.85631 ], [ -77.13067, 38.85541 ], [ -77.13211, 38.85379 ], [ -77.13147, 38.85331 ], [ -77.13201, 38.8526 ], [ -77.13115, 38.85266 ], [ -77.12977, 38.85354 ], [ -77.12927, 38.8534 ], [ -77.12922, 38.85264 ], [ -77.13039, 38.85176 ], [ -77.12675, 38.84989 ], [ -77.12654, 38.84914 ], [ -77.12698, 38.84891 ], [ -77.12854, 38.84934 ], [ -77.13171, 38.85095 ], [ -77.13234, 38.85095 ], [ -77.13279, 38.85153 ], [ -77.13356, 38.85055 ], [ -77.13273, 38.85031 ], [ -77.13269, 38.8499 ], [ -77.1346, 38.84887 ], [ -77.13384, 38.849 ], [ -77.13328, 38.84824 ], [ -77.13577, 38.84693 ], [ -77.1367, 38.84711 ], [ -77.13737, 38.84801 ], [ -77.13847, 38.84734 ], [ -77.13956, 38.8485 ], [ -77.14086, 38.8481 ], [ -77.14135, 38.84877 ], [ -77.13981, 38.84964 ] ], [ [ -77.13692, 38.85525 ], [ -77.13526, 38.85434 ], [ -77.13522, 38.85494 ], [ -77.13608, 38.85534 ], [ -77.13625, 38.85606 ], [ -77.13692, 38.85525 ] ], [ [ -77.13851, 38.84924 ], [ -77.13828, 38.84892 ], [ -77.13532, 38.85294 ], [ -77.13851, 38.84924 ] ], [ [ -77.13594, 38.84823 ], [ -77.13579, 38.8483 ], [ -77.13644, 38.84921 ], [ -77.13594, 38.84823 ] ], [ [ -77.14008, 38.85723 ], [ -77.14045, 38.85733 ], [ -77.14016, 38.85717 ], [ -77.14008, 38.85723 ] ], [ [ -77.13963, 38.85521 ], [ -77.13956, 38.85517 ], [ -77.13974, 38.85535 ], [ -77.13963, 38.85521 ] ], [ [ -77.13688, 38.85301 ], [ -77.13787, 38.85232 ], [ -77.13995, 38.85309 ], [ -77.13778, 38.85186 ], [ -77.13688, 38.85301 ] ], [ [ -77.13659, 38.85363 ], [ -77.13657, 38.85342 ], [ -77.13654, 38.85357 ], [ -77.13659, 38.85363 ] ], [ [ -77.13913, 38.85496 ], [ -77.13874, 38.85481 ], [ -77.13898, 38.85491 ], [ -77.13913, 38.85496 ] ], [ [ -77.13382, 38.85614 ], [ -77.13391, 38.85615 ], [ -77.13384, 38.85605 ], [ -77.13382, 38.85614 ] ], [ [ -77.1332, 38.85451 ], [ -77.1334, 38.85434 ], [ -77.13319, 38.85447 ], [ -77.1332, 38.85451 ] ], [ [ -77.13318, 38.8532 ], [ -77.13288, 38.85347 ], [ -77.13362, 38.85381 ], [ -77.13358, 38.85418 ], [ -77.13411, 38.85372 ], [ -77.13318, 38.8532 ] ], [ [ -77.13393, 38.85215 ], [ -77.13409, 38.85224 ], [ -77.13551, 38.85011 ], [ -77.13393, 38.85215 ] ] ] } },
{ "type": "Feature", "properties": { "variant": "T0", "miles": 1.5 }, "geometry": { "type": "Polygon", "coordinates": [ [ [ -77.14561, 38.84709 ], [ -77.14641, 38.8474 ], [ -77.14663, 38.84795 ], [ -77.14585, 38.84892 ], [ -77.14713, 38.849 ], [ -77.14769, 38.8496 ], [ -77.14686, 38.85058 ], [ -77.14957, 38.85239 ], [ -77.14915, 38.85309 ], [ -77.14788, 38.85278 ], [ -77.14736, 38.85328 ], [ -77.14802, 38.8539 ], [ -77.14762, 38.8547 ], [ -77.14905, 38.85348 ], [ -77.14991, 38.85385 ], [ -77.14793, 38.85604 ], [ -77.1455, 38.85638 ], [ -77.14451, 38.85781 ], [ -77.14723, 38.85973 ], [ -77.14856, 38.85938 ], [ -77.14963, 38.85831 ], [ -77.15047, 38.85871 ], [ -77.14936, 38.86096 ], [ -77.1496, 38.86172 ], [ -77.1491, 38.8621 ], [ -77.14955, 38.86328 ], [ -77.1484, 38.86377 ], [ -77.14739, 38.86245 ], [ -77.14647, 38.86318 ], [ -77.1455, 38.8632 ], [ -77.14441, 38.86241 ], [ -77.1428, 38.86203 ], [ -77.14235, 38.86095 ], [ -77.14145, 38.86189 ], [ -77.14092, 38.86185 ], [ -77.14064, 38.86111 ], [ -77.14116, 38.86039 ], [ -77.14042, 38.86019 ], [ -77.1392, 38.86138 ], [ -77.13985, 38.86171 ], [ -77.13951, 38.86259 ], [ -77.13806, 38.86381 ], [ -77.13725, 38.86338 ], [ -77.13751, 38.86237 ], [ -77.13687, 38.86206 ], [ -77.13616, 38.86275 ], [ -77.13564, 38.8627 ], [ -77.13536, 38.86216 ], [ -77.13445, 38.86203 ], [ -77.13423, 38.86166 ], [ -77.13489, 38.86109 ], [ -77.13675, 38.86084 ], [ -77.13718, 38.86025 ], [ -77.13652, 38.85956 ], [ -77.13645, 38.85833 ], [ -77.1373, 38.85754 ], [ -77.13839, 38.85776 ], [ -77.13899, 38.85638 ], [ -77.13805, 38.85587 ], [ -77.13657, 38.85756 ], [ -77.13488, 38.85814 ], [ -77.13288, 38.85784 ], [ -77.13241, 38.85721 ], [ -77.1318, 38.85735 ], [ -77.13136, 38.85698 ], [ -77.13002, 38.85733 ], [ -77.12977, 38.85683 ], [ -77.12837, 38.85756 ], [ -77.1274, 38.85747 ], [ -77.12731, 38.85691 ], [ -77.12787, 38.85631 ], [ -77.13067, 38.85541 ], [ -77.13211, 38.85379 ], [ -77.13147, 38.85331 ], [ -77.13201, 38.8526 ], [ -77.13115, 38.85266 ], [ -77.12977, 38.85354 ], [ -77.12927, 38.8534 ], [ -77.12922, 38.85264 ], [ -77.13039, 38.85176 ], [ -77.12926, 38.85119 ], [ -77.12644, 38.85224 ], [ -77.12515, 38.85219 ], [ -77.12529, 38.85144 ], [ -77.1265, 38.85086 ], [ -77.12622, 38.85026 ], [ -77.12672, 38.84988 ], [ -77.12598, 38.84952 ], [ -77.12529, 38.85095 ], [ -77.12476, 38.85101 ], [ -77.1243, 38.85052 ], [ -77.12376, 38.85165 ], [ -77.12251, 38.85278 ], [ -77.12136, 38.85278 ], [ -77.12116, 38.8524 ], [ -77.12261, 38.85105 ], [ -77.1235, 38.84865 ], [ -77.11828, 38.84697 ], [ -77.11791, 38.84628 ], [ -77.11844, 38.84571 ], [ -77.11897, 38.84572 ], [ -77.12267, 38.84699 ], [ -77.12352, 38.84614 ], [ -77.12237, 38.8449 ], [ -77.12275, 38.84409 ], [ -77.12369, 38.8443 ], [ -77.12563, 38.84602 ], [ -77.12789, 38.84398 ], [ -77.12858, 38.84383 ], [ -77.12913, 38.84448 ], [ -77.12671, 38.8467 ], [ -77.12811, 38.84766 ], [ -77.1298, 38.84705 ], [ -77.13011, 38.84655 ], [ -77.13134, 38.84665 ], [ -77.13226, 38.84581 ], [ -77.13051, 38.84522 ], [ -77.13011, 38.84445 ], [ -77.13029, 38.8437 ], [ -77.13148, 38.84306 ], [ -77.13075, 38.84222 ], [ -77.13093, 38.84147 ], [ -77.13145, 38.84139 ], [ -77.13209, 38.84184 ], [ -77.13335, 38.84135 ], [ -77.13449, 38.84235 ], [ -77.13563, 38.84192 ], [ -77.13608, 38.84214 ], [ -77.13619, 38.84254 ], [ -77.13528, 38.84323 ], [ -77.1364, 38.84458 ], [ -77.13838, 38.8434 ], [ -77.13844, 38.84301 ], [ -77.13773, 38.84266 ], [ -77.13804, 38.84194 ], [ -77.14045, 38.84235 ], [ -77.14059, 38.84348 ], [ -77.14087, 38.84198 ], [ -77.14185, 38.84155 ], [ -77.14256, 38.84207 ], [ -77.1423, 38.84312 ], [ -77.14317, 38.84322 ], [ -77.14342, 38.84359 ], [ -77.14305, 38.84407 ], [ -77.14363, 38.84469 ], [ -77.14345, 38.84663 ], [ -77.14401, 38.8472 ], [ -77.14339, 38.8488 ], [ -77.1443, 38.84891 ], [ -77.1449, 38.84753 ], [ -77.14561, 38.84709 ] ], [ [ -77.14012, 38.85714 ], [ -77.14008, 38.85723 ], [ -77.14045, 38.85733 ], [ -77.14012, 38.85714 ] ], [ [ -77.13967, 38.85524 ], [ -77.13956, 38.85517 ], [ -77.13969, 38.85532 ], [ -77.13967, 38.85524 ] ], [ [ -77.13778, 38.85186 ], [ -77.13688, 38.85301 ], [ -77.13787, 38.85232 ], [ -77.14006, 38.85294 ], [ -77.13778, 38.85186 ] ], [ [ -77.13907, 38.8506 ], [ -77.13873, 38.85104 ], [ -77.14078, 38.85202 ], [ -77.14112, 38.85157 ], [ -77.13907, 38.8506 ] ], [ [ -77.13828, 38.84892 ], [ -77.13532, 38.85294 ], [ -77.13687, 38.85094 ], [ -77.13825, 38.84957 ], [ -77.13828, 38.84892 ] ], [ [ -77.13731, 38.84761 ], [ -77.13714, 38.84769 ], [ -77.13737, 38.84801 ], [ -77.13731, 38.84761 ] ], [ [ -77.1362, 38.84655 ], [ -77.13627, 38.84662 ], [ -77.13636, 38.84652 ], [ -77.1362, 38.84655 ] ], [ [ -77.14303, 38.85958 ], [ -77.14291, 38.85963 ], [ -77.14287, 38.85993 ], [ -77.14344, 38.86005 ], [ -77.14303, 38.85958 ] ], [ [ -77.14172, 38.85617 ], [ -77.14167, 38.85624 ], [ -77.14191, 38.85637 ], [ -77.14172, 38.85617 ] ], [ [ -77.14334, 38.85452 ], [ -77.14135, 38.85358 ], [ -77.14125, 38.85371 ], [ -77.14334, 38.85452 ] ], [ [ -77.14234, 38.85014 ], [ -77.14167, 38.85033 ], [ -77.14043, 38.84936 ], [ -77.13979, 38.84967 ], [ -77.14195, 38.85053 ], [ -77.14234, 38.85014 ] ], [ [ -77.14048, 38.84701 ], [ -77.14043, 38.84622 ], [ -77.13988, 38.84646 ], [ -77.14093, 38.84788 ], [ -77.14048, 38.84701 ] ], [ [ -77.14558, 38.86176 ], [ -77.14596, 38.86205 ], [ -77.14665, 38.8615 ], [ -77.14627, 38.86114 ], [ -77.14558, 38.86176 ] ], [ [ -77.14374, 38.85608 ], [ -77.14303, 38.85701 ], [ -77.14337, 38.85719 ], [ -77.14374, 38.85608 ] ], [ [ -77.1468, 38.85206 ], [ -77.14666, 38.85167 ], [ -77.14427, 38.85101 ], [ -77.14398, 38.85167 ], [ -77.14617, 38.8527 ], [ -77.1468, 38.85206 ] ], [ [ -77.14375, 38.85049 ], [ -77.14374, 38.85045 ], [ -77.14372, 38.85048 ], [ -77.14375, 38.85049 ] ], [ [ -77.14416, 38.85554 ], [ -77.14422, 38.85553 ], [ -77.14423, 38.85545 ], [ -77.14416, 38.85554 ] ], [ [ -77.1455, 38.85021 ], [ -77.14565, 38.85001 ], [ -77.14556, 38.85001 ], [ -77.14525, 38.85002 ], [ -77.1455, 38.85021 ] ], [ [ -77.1447, 38.86054 ], [ -77.14469, 38.86055 ], [ -77.14471, 38.86055 ], [ -77.1447, 38.86054 ] ], [ [ -77.14237, 38.84753 ], [ -77.14252, 38.84774 ], [ -77.14257, 38.84753 ], [ -77.14237, 38.84753 ] ], [ [ -77.14214, 38.84583 ], [ -77.14221, 38.84514 ], [ -77.14189, 38.84557 ], [ -77.14214, 38.84583 ] ], [ [ -77.13851, 38.84707 ], [ -77.13956, 38.8485 ], [ -77.13974, 38.84843 ], [ -77.13851, 38.84707 ] ], [ [ -77.13384, 38.85605 ], [ -77.13382, 38.85599 ], [ -77.13382, 38.85614 ], [ -77.13384, 38.85605 ] ], [ [ -77.1332, 38.85451 ], [ -77.1334, 38.85434 ], [ -77.13319, 38.85447 ], [ -77.1332, 38.85451 ] ], [ [ -77.13318, 38.8532 ], [ -77.13288, 38.85347 ], [ -77.13362, 38.85381 ], [ -77.13358, 38.85418 ], [ -77.13411, 38.85372 ], [ -77.13318, 38.8532 ] ], [ [ -77.13356, 38.85055 ], [ -77.13273, 38.85031 ], [ -77.13269, 38.8499 ], [ -77.13458, 38.84884 ], [ -77.13087, 38.85053 ], [ -77.13234, 38.85095 ], [ -77.13283, 38.85149 ], [ -77.13356, 38.85055 ] ], [ [ -77.13161, 38.84837 ], [ -77.13095, 38.84848 ], [ -77.13122, 38.84887 ], [ -77.13295, 38.84821 ], [ -77.13161, 38.84837 ] ], [ [ -77.13659, 38.85363 ], [ -77.13657, 38.85342 ], [ -77.13646, 38.85356 ], [ -77.13659, 38.85363 ] ], [ [ -77.13882, 38.86011 ], [ -77.13906, 38.85983 ], [ -77.13896, 38.8598 ], [ -77.13882, 38.86011 ] ], [ [ -77.13899, 38.85494 ], [ -77.13913, 38.85496 ], [ -77.13898, 38.85491 ], [ -77.13899, 38.85494 ] ], [ [ -77.13892, 38.8614 ], [ -77.13832, 38.86088 ], [ -77.13798, 38.86133 ], [ -77.13892, 38.8614 ] ], [ [ -77.13512, 38.84723 ], [ -77.13481, 38.84687 ], [ -77.13488, 38.84725 ], [ -77.13512, 38.84723 ] ], [ [ -77.13412, 38.84763 ], [ -77.13415, 38.84767 ], [ -77.13428, 38.84761 ], [ -77.13412, 38.84763 ] ], [ [ -77.13292, 38.84279 ], [ -77.13311, 38.84269 ], [ -77.13306, 38.84264 ], [ -77.13292, 38.84279 ] ], [ [ -77.13557, 38.84583 ], [ -77.13561, 38.84578 ], [ -77.13505, 38.84523 ], [ -77.13557, 38.84583 ] ], [ [ -77.13476, 38.84681 ], [ -77.13408, 38.84603 ], [ -77.13391, 38.84612 ], [ -77.13476, 38.84681 ] ], [ [ -77.13608, 38.85534 ], [ -77.13625, 38.85606 ], [ -77.13692, 38.85525 ], [ -77.13526, 38.85434 ], [ -77.13522, 38.85494 ], [ -77.13608, 38.85534 ] ], [ [ -77.13409, 38.85224 ], [ -77.13551, 38.85011 ], [ -77.13496, 38.85082 ], [ -77.13409, 38.85224 ] ], [ [ -77.13655, 38.84906 ], [ -77.13594, 38.84823 ], [ -77.13585, 38.84842 ], [ -77.13655, 38.84906 ] ], [ [ -77.12964, 38.84885 ], [ -77.1296, 38.84825 ], [ -77.12899, 38.84849 ], [ -77.12964, 38.84885 ] ], [ [ -77.12584, 38.84753 ], [ -77.12539, 38.84797 ], [ -77.12721, 38.8485 ], [ -77.12584, 38.84753 ] ], [ [ -77.1245, 38.84711 ], [ -77.12475, 38.84686 ], [ -77.12394, 38.84746 ], [ -77.1245, 38.84711 ] ] ] } },
{ "type": "Feature", "properties": { "variant": "T2s", "miles": 0.5 }, "geometry": { "type": "Polygon", "coordinates": [ [ [ -77.13189, 38.85397 ], [ -77.13329, 38.8535 ], [ -77.13358, 38.85418 ], [ -77.13416, 38.85391 ], [ -77.13511, 38.85424 ], [ -77.13519, 38.855 ], [ -77.13431, 38.85516 ], [ -77.13382, 38.85614 ], [ -77.13494, 38.85656 ], [ -77.13506, 38.85732 ], [ -77.1346, 38.85752 ], [ -77.1326, 38.85701 ], [ -77.1318, 38.85735 ], [ -77.13136, 38.85698 ], [ -77.13054, 38.85742 ], [ -77.12977, 38.85683 ], [ -77.12837, 38.85756 ], [ -77.1274, 38.85747 ], [ -77.12776, 38.85639 ], [ -77.13067, 38.85541 ], [ -77.13189, 38.85397 ] ], [ [ -77.1332, 38.85451 ], [ -77.1334, 38.85434 ], [ -77.13319, 38.85447 ], [ -77.1332, 38.85451 ] ] ] } },
{ "type": "Feature", "properties": { "variant": "T2s", "miles": 1.0 }, "geometry": { "type": "Polygon", "coordinates": [ [ [ -77.14122, 38.85398 ], [ -77.14073, 38.85449 ], [ -77.14291, 38.85565 ], [ -77.14241, 38.85631 ], [ -77.14167, 38.85624 ], [ -77.14278, 38.85702 ], [ -77.14293, 38.85778 ], [ -77.14152, 38.85858 ], [ -77.13964, 38.85826 ], [ -77.13885, 38.85961 ], [ -77.13792, 38.85936 ], [ -77.13794, 38.85881 ], [ -77.13736, 38.85833 ], [ -77.13754, 38.85795 ], [ -77.13839, 38.85776 ], [ -77.13899, 38.85638 ], [ -77.13805, 38.85587 ], [ -77.13657, 38.85756 ], [ -77.13488, 38.85814 ], [ -77.13288, 38.85784 ], [ -77.13241, 38.85721 ], [ -77.1318, 38.85735 ], [ -77.13136, 38.85698 ], [ -77.13002, 38.85733 ], [ -77.12977, 38.85683 ], [ -77.12837, 38.85756 ], [ -77.1274, 38.85747 ], [ -77.12776, 38.85639 ], [ -77.13067, 38.85541 ], [ -77.13086, 38.85481 ], [ -77.13262, 38.85349 ], [ -77.13329, 38.8535 ], [ -77.13358, 38.85418 ], [ -77.13416, 38.85391 ], [ -77.13511, 38.85424 ], [ -77.13522, 38.85494 ], [ -77.13608, 38.85534 ], [ -77.13625, 38.85606 ], [ -77.13787, 38.85394 ], [ -77.13931, 38.85381 ], [ -77.13967, 38.85322 ], [ -77.14045, 38.85324 ], [ -77.14122, 38.85398 ] ], [ [ -77.14012, 38.85714 ], [ -77.14008, 38.85723 ], [ -77.14045, 38.85733 ], [ -77.14012, 38.85714 ] ], [ [ -77.13967, 38.85524 ], [ -77.13956, 38.85517 ], [ -77.13969, 38.85532 ], [ -77.13967, 38.85524 ] ], [ [ -77.1332, 38.85451 ], [ -77.1334, 38.85434 ], [ -77.13319, 38.85447 ], [ -77.1332, 38.85451 ] ], [ [ -77.13382, 38.85614 ], [ -77.13391, 38.85615 ], [ -77.13384, 38.85605 ], [ -77.13382, 38.85614 ] ] ] } },
{ "type": "Feature", "properties": { "variant": "T2s", "miles": 1.5 }, "geometry": { "type": "Polygon", "coordinates": [ [ [ -77.14372, 38.85048 ], [ -77.14426, 38.851 ], [ -77.14398, 38.85167 ], [ -77.14571, 38.85249 ], [ -77.14617, 38.8527 ], [ -77.14745, 38.85151 ], [ -77.1482, 38.85201 ], [ -77.14736, 38.85328 ], [ -77.14802, 38.8539 ], [ -77.14762, 38.8547 ], [ -77.14872, 38.85457 ], [ -77.14875, 38.85534 ], [ -77.14759, 38.85621 ], [ -77.14657, 38.85602 ], [ -77.1455, 38.85638 ], [ -77.14451, 38.85781 ], [ -77.14723, 38.85973 ], [ -77.14856, 38.85938 ], [ -77.14963, 38.85831 ], [ -77.15047, 38.85871 ], [ -77.1493, 38.8603 ], [ -77.1497, 38.86131 ], [ -77.1491, 38.8621 ], [ -77.14955, 38.86328 ], [ -77.1484, 38.86377 ], [ -77.14739, 38.86245 ], [ -77.14647, 38.86318 ], [ -77.1455, 38.8632 ], [ -77.14441, 38.86241 ], [ -77.1428, 38.86203 ], [ -77.14235, 38.86095 ], [ -77.14145, 38.86189 ], [ -77.14092, 38.86185 ], [ -77.14064, 38.86111 ], [ -77.14116, 38.86039 ], [ -77.14042, 38.86019 ], [ -77.1392, 38.86138 ], [ -77.14174, 38.86302 ], [ -77.1419, 38.86377 ], [ -77.14094, 38.8639 ], [ -77.13883, 38.86291 ], [ -77.14021, 38.86405 ], [ -77.13965, 38.86468 ], [ -77.13804, 38.864 ], [ -77.13724, 38.86405 ], [ -77.13703, 38.86345 ], [ -77.13628, 38.86305 ], [ -77.13603, 38.86464 ], [ -77.13514, 38.86496 ], [ -77.13474, 38.86427 ], [ -77.13523, 38.86217 ], [ -77.13103, 38.86229 ], [ -77.13032, 38.86177 ], [ -77.13099, 38.86121 ], [ -77.1366, 38.86098 ], [ -77.13718, 38.86025 ], [ -77.13652, 38.85956 ], [ -77.13645, 38.85833 ], [ -77.1373, 38.85754 ], [ -77.13839, 38.85776 ], [ -77.13899, 38.85638 ], [ -77.13805, 38.85587 ], [ -77.13657, 38.85756 ], [ -77.13488, 38.85814 ], [ -77.13288, 38.85784 ], [ -77.13241, 38.85721 ], [ -77.1318, 38.85735 ], [ -77.13136, 38.85698 ], [ -77.13002, 38.85733 ], [ -77.12977, 38.85683 ], [ -77.12837, 38.85756 ], [ -77.1274, 38.85747 ], [ -77.12776, 38.85639 ], [ -77.13067, 38.85541 ], [ -77.13211, 38.85379 ], [ -77.13147, 38.85331 ], [ -77.13201, 38.8526 ], [ -77.13175, 38.85246 ], [ -77.13025, 38.85336 ], [ -77.12927, 38.8534 ], [ -77.12922, 38.85264 ], [ -77.13039, 38.85176 ], [ -77.12851, 38.85079 ], [ -77.12834, 38.85004 ], [ -77.12878, 38.84982 ], [ -77.13234, 38.85095 ], [ -77.13279, 38.85153 ], [ -77.13461, 38.84887 ], [ -77.13572, 38.84855 ], [ -77.13644, 38.84921 ], [ -77.13719, 38.84854 ], [ -77.13771, 38.84861 ], [ -77.13795, 38.84935 ], [ -77.13532, 38.85294 ], [ -77.13878, 38.84885 ], [ -77.13976, 38.84886 ], [ -77.13979, 38.84967 ], [ -77.14185, 38.85065 ], [ -77.14234, 38.85014 ], [ -77.14167, 38.85033 ], [ -77.14109, 38.84972 ], [ -77.1416, 38.84897 ], [ -77.14128, 38.84792 ], [ -77.14159, 38.84758 ], [ -77.14254, 38.84776 ], [ -77.14309, 38.84876 ], [ -77.14592, 38.84892 ], [ -77.14663, 38.84945 ], [ -77.14596, 38.85 ], [ -77.14403, 38.85006 ], [ -77.14372, 38.85048 ] ], [ [ -77.14172, 38.85617 ], [ -77.14167, 38.85624 ], [ -77.14191, 38.85637 ], [ -77.14172, 38.85617 ] ], [ [ -77.13979, 38.8553 ], [ -77.13956, 38.85517 ], [ -77.13969, 38.85532 ], [ -77.13979, 38.8553 ] ], [ [ -77.13778, 38.85186 ], [ -77.13688, 38.85301 ], [ -77.13787, 38.85232 ], [ -77.14006, 38.85294 ], [ -77.13778, 38.85186 ] ], [ [ -77.14112, 38.85157 ], [ -77.13907, 38.8506 ], [ -77.13873, 38.85104 ], [ -77.14078, 38.85202 ], [ -77.14112, 38.85157 ] ], [ [ -77.14303, 38.85958 ], [ -77.14291, 38.85963 ], [ -77.14287, 38.85993 ], [ -77.14344, 38.86005 ], [ -77.14303, 38.85958 ] ], [ [ -77.14374, 38.85608 ], [ -77.14303, 38.85701 ], [ -77.14337, 38.85719 ], [ -77.14398, 38.85641 ], [ -77.14374, 38.85608 ] ], [ [ -77.14416, 38.85554 ], [ -77.14422, 38.85553 ], [ -77.14423, 38.85545 ], [ -77.14416, 38.85554 ] ], [ [ -77.14558, 38.86176 ], [ -77.14596, 38.86205 ], [ -77.14665, 38.8615 ], [ -77.1462, 38.86126 ], [ -77.14558, 38.86176 ] ], [ [ -77.1447, 38.86054 ], [ -77.14469, 38.86055 ], [ -77.14471, 38.86055 ], [ -77.1447, 38.86054 ] ], [ [ -77.14334, 38.85452 ], [ -77.14135, 38.85358 ], [ -77.14125, 38.85371 ], [ -77.14334, 38.85452 ] ], [ [ -77.13798, 38.86133 ], [ -77.13859, 38.86162 ], [ -77.13892, 38.8614 ], [ -77.13829, 38.861 ], [ -77.13798, 38.86133 ] ], [ [ -77.13886, 38.86003 ], [ -77.13882, 38.86011 ], [ -77.13906, 38.85983 ], [ -77.13886, 38.86003 ] ], [ [ -77.13625, 38.85606 ], [ -77.13692, 38.85525 ], [ -77.13526, 38.85434 ], [ -77.13522, 38.85494 ], [ -77.13636, 38.8557 ], [ -77.13625, 38.85606 ] ], [ [ -77.13393, 38.85215 ], [ -77.13409, 38.85224 ], [ -77.13562, 38.85026 ], [ -77.13393, 38.85215 ] ], [ [ -77.14008, 38.85723 ], [ -77.14045, 38.85733 ], [ -77.14016, 38.85717 ], [ -77.14008, 38.85723 ] ], [ [ -77.13913, 38.85496 ], [ -77.13874, 38.85481 ], [ -77.13898, 38.85491 ], [ -77.13913, 38.85496 ] ], [ [ -77.13659, 38.85363 ], [ -77.13657, 38.85342 ], [ -77.13654, 38.85357 ], [ -77.13659, 38.85363 ] ], [ [ -77.13751, 38.86237 ], [ -77.13714, 38.8622 ], [ -77.1375, 38.86239 ], [ -77.13751, 38.86237 ] ], [ [ -77.13683, 38.86207 ], [ -77.1369, 38.86208 ], [ -77.13687, 38.86206 ], [ -77.13683, 38.86207 ] ], [ [ -77.13412, 38.85371 ], [ -77.13318, 38.8532 ], [ -77.13288, 38.85347 ], [ -77.13368, 38.85409 ], [ -77.13412, 38.85371 ] ], [ [ -77.1332, 38.85451 ], [ -77.1334, 38.85434 ], [ -77.13319, 38.85447 ], [ -77.1332, 38.85451 ] ], [ [ -77.13391, 38.85615 ], [ -77.13382, 38.85599 ], [ -77.13382, 38.85614 ], [ -77.13391, 38.85615 ] ] ] } }
]
}
