{
"type": "FeatureCollection",
"name": "106",
"crs": { "type": "name", "properties": { "name": "urn:ogc:def:crs:OGC:1.3:CRS84" } },
"xy_coordinate_resolution": 1e-05,
"features": [
{ "type": "Feature", "properties": { "variant": "T0", "miles": 0.5 }, "geometry": { "type": "Polygon", "coordinates": [ [ [ -77.17218, 38.85077 ], [ -77.17047, 38.8526 ], [ -77.17179, 38.85279 ], [ -77.17197, 38.85318 ], [ -77.17175, 38.85356 ], [ -77.1704, 38.85368 ], [ -77.17032, 38.85462 ], [ -77.17551, 38.85446 ], [ -77.17567, 38.85632 ], [ -77.17496, 38.85682 ], [ -77.17446, 38.85671 ], [ -77.17418, 38.85549 ], [ -77.17406, 38.85712 ], [ -77.17339, 38.85728 ], [ -77.17332, 38.85792 ], [ -77.17194, 38.85825 ], [ -77.17314, 38.85869 ], [ -77.17248, 38.86035 ], [ -77.17155, 38.86012 ], [ -77.17166, 38.85931 ], [ -77.16903, 38.8588 ], [ -77.1687, 38.85902 ], [ -77.17133, 38.8597 ], [ -77.17109, 38.86044 ], [ -77.16753, 38.85984 ], [ -77.16571, 38.86156 ], [ -77.16475, 38.86172 ], [ -77.16454, 38.86098 ], [ -77.16743, 38.85844 ], [ -77.16509, 38.85836 ], [ -77.16497, 38.85796 ], [ -77.16556, 38.8574 ], [ -77.1649, 38.85757 ], [ -77.16418, 38.85705 ], [ -77.16504, 38.85638 ], [ -77.16311, 38.85647 ], [ -77.16289, 38.85572 ], [ -77.16457, 38.85525 ], [ -77.16454, 38.85434 ], [ -77.16538, 38.85395 ], [ -77.16633, 38.85481 ], [ -77.166, 38.85556 ], [ -77.16693, 38.85702 ], [ -77.16735, 38.8559 ], [ -77.16832, 38.85603 ], [ -77.1684, 38.85754 ], [ -77.16896, 38.85437 ], [ -77.1681, 38.85512 ], [ -77.16742, 38.85444 ], [ -77.16898, 38.85268 ], [ -77.16685, 38.85233 ], [ -77.16666, 38.85101 ], [ -77.1676, 38.85088 ], [ -77.16735, 38.85035 ], [ -77.1681, 38.84987 ], [ -77.16878, 38.85031 ], [ -77.16933, 38.85157 ], [ -77.17156, 38.85018 ], [ -77.17218, 38.85077 ] ], [ [ -77.17051, 38.85797 ], [ -77.17005, 38.85771 ], [ -77.16987, 38.85711 ], [ -77.16975, 38.85783 ], [ -77.17051, 38.85797 ] ], [ [ -77.17006, 38.85602 ], [ -77.17263, 38.85593 ], [ -77.17274, 38.85556 ], [ -77.17011, 38.85571 ], [ -77.17006, 38.85602 ] ], [ [ -77.17283, 38.85686 ], [ -77.17275, 38.857 ], [ -77.17295, 38.85704 ], [ -77.17283, 38.85686 ] ], [ [ -77.17176, 38.85822 ], [ -77.17131, 38.85704 ], [ -77.17139, 38.85754 ], [ -77.17071, 38.85801 ], [ -77.17176, 38.85822 ] ] ] } },
{ "type": "Feature", "properties": { "variant": "T0", "miles": 1.0 }, "geometry": { "type": "Polygon", "coordinates": [ [ [ -77.17958, 38.84858 ], [ -77.18057, 38.84834 ], [ -77.18171, 38.84992 ], [ -77.18101, 38.85046 ], [ -77.17986, 38.8498 ], [ -77.17989, 38.85083 ], [ -77.17945, 38.85106 ], [ -77.17863, 38.85064 ], [ -77.17843, 38.8496 ], [ -77.17794, 38.85089 ], [ -77.17838, 38.85291 ], [ -77.18028, 38.85383 ], [ -77.17941, 38.85442 ], [ -77.17932, 38.85736 ], [ -77.18217, 38.85693 ], [ -77.18296, 38.85739 ], [ -77.18283, 38.85779 ], [ -77.18155, 38.8581 ], [ -77.18206, 38.85856 ], [ -77.18188, 38.85894 ], [ -77.17951, 38.85967 ], [ -77.17956, 38.86046 ], [ -77.18101, 38.86041 ], [ -77.18165, 38.86121 ], [ -77.18231, 38.86136 ], [ -77.1823, 38.86254 ], [ -77.17855, 38.86377 ], [ -77.17766, 38.86296 ], [ -77.17739, 38.86357 ], [ -77.17808, 38.86406 ], [ -77.17792, 38.86446 ], [ -77.17603, 38.8646 ], [ -77.17577, 38.86375 ], [ -77.17372, 38.86599 ], [ -77.17103, 38.86429 ], [ -77.17049, 38.86346 ], [ -77.17045, 38.86246 ], [ -77.17131, 38.86021 ], [ -77.17063, 38.86049 ], [ -77.17058, 38.86136 ], [ -77.16982, 38.86168 ], [ -77.1663, 38.86084 ], [ -77.16607, 38.86112 ], [ -77.17064, 38.86423 ], [ -77.17102, 38.86495 ], [ -77.17072, 38.86529 ], [ -77.16977, 38.86514 ], [ -77.16782, 38.86346 ], [ -77.16532, 38.86203 ], [ -77.16684, 38.86323 ], [ -77.16602, 38.86371 ], [ -77.16446, 38.86302 ], [ -77.16579, 38.86377 ], [ -77.16594, 38.86452 ], [ -77.16497, 38.86464 ], [ -77.16365, 38.86389 ], [ -77.16236, 38.86527 ], [ -77.1634, 38.86605 ], [ -77.16328, 38.86646 ], [ -77.16283, 38.86667 ], [ -77.16158, 38.86617 ], [ -77.16076, 38.86686 ], [ -77.16024, 38.86678 ], [ -77.16005, 38.86603 ], [ -77.16063, 38.86534 ], [ -77.1598, 38.86497 ], [ -77.16005, 38.86429 ], [ -77.15882, 38.86388 ], [ -77.15769, 38.86287 ], [ -77.15787, 38.86248 ], [ -77.15877, 38.86242 ], [ -77.15886, 38.8614 ], [ -77.15989, 38.86155 ], [ -77.16056, 38.86114 ], [ -77.1599, 38.86085 ], [ -77.15874, 38.8611 ], [ -77.15798, 38.85998 ], [ -77.15828, 38.85964 ], [ -77.15928, 38.85987 ], [ -77.16047, 38.85928 ], [ -77.16135, 38.85928 ], [ -77.1637, 38.86063 ], [ -77.16405, 38.86159 ], [ -77.16743, 38.85844 ], [ -77.16509, 38.85836 ], [ -77.16497, 38.85796 ], [ -77.16556, 38.8574 ], [ -77.1649, 38.85757 ], [ -77.16418, 38.85705 ], [ -77.16497, 38.85631 ], [ -77.16363, 38.85653 ], [ -77.1628, 38.85613 ], [ -77.16311, 38.85552 ], [ -77.16457, 38.85525 ], [ -77.16453, 38.855 ], [ -77.16282, 38.85505 ], [ -77.16197, 38.85571 ], [ -77.16117, 38.85527 ], [ -77.1617, 38.85442 ], [ -77.16143, 38.85414 ], [ -77.16073, 38.85488 ], [ -77.15979, 38.85467 ], [ -77.16096, 38.85217 ], [ -77.16028, 38.85171 ], [ -77.16046, 38.85099 ], [ -77.15856, 38.85076 ], [ -77.1582, 38.85004 ], [ -77.15858, 38.84976 ], [ -77.16241, 38.84998 ], [ -77.1625, 38.84811 ], [ -77.16141, 38.84758 ], [ -77.16165, 38.84684 ], [ -77.16393, 38.8474 ], [ -77.16525, 38.84705 ], [ -77.16705, 38.84727 ], [ -77.17105, 38.846 ], [ -77.174, 38.84673 ], [ -77.17339, 38.84378 ], [ -77.17379, 38.84308 ], [ -77.17468, 38.8434 ], [ -77.17534, 38.84513 ], [ -77.17522, 38.84858 ], [ -77.17621, 38.84773 ], [ -77.17854, 38.8474 ], [ -77.17944, 38.84781 ], [ -77.17958, 38.84858 ] ], [ [ -77.17387, 38.86415 ], [ -77.17337, 38.86451 ], [ -77.17352, 38.86461 ], [ -77.17387, 38.86415 ] ], [ [ -77.17194, 38.85825 ], [ -77.1781, 38.85946 ], [ -77.17817, 38.85831 ], [ -77.17643, 38.85849 ], [ -77.17565, 38.85803 ], [ -77.17609, 38.85749 ], [ -77.17574, 38.85693 ], [ -77.17638, 38.85647 ], [ -77.17588, 38.856 ], [ -77.17605, 38.85561 ], [ -77.17791, 38.85523 ], [ -77.17584, 38.85535 ], [ -77.17567, 38.85632 ], [ -77.17496, 38.85682 ], [ -77.1742, 38.85634 ], [ -77.17448, 38.85572 ], [ -77.17418, 38.85549 ], [ -77.17406, 38.85712 ], [ -77.17339, 38.85728 ], [ -77.17332, 38.85792 ], [ -77.17194, 38.85825 ] ], [ [ -77.17295, 38.85704 ], [ -77.17279, 38.85665 ], [ -77.17278, 38.85658 ], [ -77.17295, 38.85704 ] ], [ [ -77.17131, 38.85704 ], [ -77.17139, 38.85754 ], [ -77.17071, 38.85801 ], [ -77.17176, 38.85822 ], [ -77.17131, 38.85704 ] ], [ [ -77.1684, 38.85754 ], [ -77.16896, 38.85437 ], [ -77.1681, 38.85512 ], [ -77.16742, 38.85451 ], [ -77.16898, 38.85268 ], [ -77.16868, 38.85255 ], [ -77.1675, 38.85398 ], [ -77.16607, 38.85412 ], [ -77.16595, 38.85443 ], [ -77.16633, 38.85481 ], [ -77.166, 38.85556 ], [ -77.1668, 38.85692 ], [ -77.16735, 38.8559 ], [ -77.16787, 38.85581 ], [ -77.16832, 38.85603 ], [ -77.1684, 38.85754 ] ], [ [ -77.16925, 38.85145 ], [ -77.1704, 38.85071 ], [ -77.16908, 38.8501 ], [ -77.16886, 38.85042 ], [ -77.16925, 38.85145 ] ], [ [ -77.16855, 38.84837 ], [ -77.16909, 38.84822 ], [ -77.1695, 38.84818 ], [ -77.1691, 38.84779 ], [ -77.16836, 38.84785 ], [ -77.16855, 38.84837 ] ], [ [ -77.17282, 38.8484 ], [ -77.17392, 38.84781 ], [ -77.17246, 38.8475 ], [ -77.17231, 38.84858 ], [ -77.17145, 38.84895 ], [ -77.17104, 38.84869 ], [ -77.17107, 38.8475 ], [ -77.16994, 38.84826 ], [ -77.17051, 38.84882 ], [ -77.17032, 38.8496 ], [ -77.17146, 38.85003 ], [ -77.17316, 38.84892 ], [ -77.17282, 38.8484 ] ], [ [ -77.17727, 38.85371 ], [ -77.17657, 38.85104 ], [ -77.17552, 38.84969 ], [ -77.17496, 38.85115 ], [ -77.17585, 38.85124 ], [ -77.17639, 38.85172 ], [ -77.17619, 38.8536 ], [ -77.17514, 38.85413 ], [ -77.17186, 38.85433 ], [ -77.1704, 38.85368 ], [ -77.17032, 38.85462 ], [ -77.17805, 38.85415 ], [ -77.17727, 38.85371 ] ], [ [ -77.17047, 38.8526 ], [ -77.17277, 38.85208 ], [ -77.17418, 38.85141 ], [ -77.17154, 38.85139 ], [ -77.17056, 38.85207 ], [ -77.17047, 38.8526 ] ], [ [ -77.17304, 38.85041 ], [ -77.17407, 38.85032 ], [ -77.17413, 38.8497 ], [ -77.17304, 38.85041 ] ], [ [ -77.17705, 38.8497 ], [ -77.17707, 38.84998 ], [ -77.17708, 38.85002 ], [ -77.17705, 38.8497 ] ], [ [ -77.17347, 38.85301 ], [ -77.17198, 38.85318 ], [ -77.17488, 38.85306 ], [ -77.17509, 38.85225 ], [ -77.17347, 38.85301 ] ], [ [ -77.17265, 38.85582 ], [ -77.17274, 38.85556 ], [ -77.17011, 38.85571 ], [ -77.17006, 38.85602 ], [ -77.17265, 38.85582 ] ], [ [ -77.17741, 38.8613 ], [ -77.17638, 38.86153 ], [ -77.1763, 38.86275 ], [ -77.17741, 38.8613 ] ], [ [ -77.17701, 38.86037 ], [ -77.17607, 38.86017 ], [ -77.17503, 38.85998 ], [ -77.17686, 38.86071 ], [ -77.17701, 38.86037 ] ], [ [ -77.16776, 38.86022 ], [ -77.16946, 38.86028 ], [ -77.16731, 38.86001 ], [ -77.16776, 38.86022 ] ], [ [ -77.16897, 38.85907 ], [ -77.1709, 38.85945 ], [ -77.17139, 38.86001 ], [ -77.17166, 38.85931 ], [ -77.16903, 38.8588 ], [ -77.16897, 38.85907 ] ], [ [ -77.17228, 38.86147 ], [ -77.17176, 38.86277 ], [ -77.17289, 38.86159 ], [ -77.17228, 38.86147 ] ], [ [ -77.17051, 38.85797 ], [ -77.16987, 38.85711 ], [ -77.16975, 38.85783 ], [ -77.17051, 38.85797 ] ], [ [ -77.16867, 38.8603 ], [ -77.16874, 38.86032 ], [ -77.16867, 38.86029 ], [ -77.16867, 38.8603 ] ], [ [ -77.16455, 38.85382 ], [ -77.16427, 38.85376 ], [ -77.16247, 38.85341 ], [ -77.16322, 38.85402 ], [ -77.16455, 38.85382 ] ], [ [ -77.16514, 38.85282 ], [ -77.16363, 38.85243 ], [ -77.1626, 38.85232 ], [ -77.16514, 38.85282 ] ], [ [ -77.16438, 38.85117 ], [ -77.16187, 38.851 ], [ -77.1618, 38.8513 ], [ -77.16435, 38.85143 ], [ -77.16438, 38.85117 ] ], [ [ -77.16379, 38.8501 ], [ -77.16427, 38.8492 ], [ -77.16382, 38.84847 ], [ -77.16379, 38.8501 ] ], [ [ -77.16685, 38.84836 ], [ -77.16643, 38.84847 ], [ -77.16534, 38.8499 ], [ -77.16615, 38.84946 ], [ -77.16685, 38.84836 ] ], [ [ -77.1676, 38.85088 ], [ -77.16683, 38.85045 ], [ -77.1658, 38.85092 ], [ -77.16572, 38.85159 ], [ -77.16659, 38.85225 ], [ -77.16648, 38.85309 ], [ -77.16714, 38.85245 ], [ -77.16666, 38.85101 ], [ -77.1676, 38.85088 ] ], [ [ -77.16781, 38.84967 ], [ -77.16775, 38.84936 ], [ -77.16761, 38.84956 ], [ -77.16781, 38.84967 ] ], [ [ -77.16274, 38.86202 ], [ -77.16261, 38.86138 ], [ -77.16117, 38.86053 ], [ -77.16085, 38.86108 ], [ -77.16171, 38.86118 ], [ -77.16274, 38.86202 ] ], [ [ -77.16251, 38.86328 ], [ -77.16179, 38.86352 ], [ -77.16134, 38.86351 ], [ -77.16199, 38.86383 ], [ -77.16251, 38.86328 ] ], [ [ -77.16051, 38.86322 ], [ -77.16017, 38.86318 ], [ -77.16068, 38.86331 ], [ -77.16051, 38.86322 ] ] ] } },
{ "type": "Feature", "properties": { "variant": "T0", "miles": 1.5 }, "geometry": { "type": "Polygon", "coordinates": [ [ [ -77.18448, 38.84402 ], [ -77.18479, 38.84506 ], [ -77.18572, 38.84492 ], [ -77.18618, 38.84586 ], [ -77.18601, 38.84678 ], [ -77.1855, 38.84744 ], [ -77.18465, 38.84773 ], [ -77.18467, 38.84818 ], [ -77.18578, 38.84886 ], [ -77.18604, 38.8496 ], [ -77.18679, 38.84987 ], [ -77.18661, 38.85062 ], [ -77.18707, 38.8512 ], [ -77.18598, 38.8516 ], [ -77.18558, 38.8533 ], [ -77.18722, 38.8542 ], [ -77.18672, 38.85486 ], [ -77.18565, 38.85456 ], [ -77.18569, 38.85534 ], [ -77.189, 38.85417 ], [ -77.18986, 38.8545 ], [ -77.19053, 38.85539 ], [ -77.19026, 38.8575 ], [ -77.18928, 38.85751 ], [ -77.18898, 38.85663 ], [ -77.18819, 38.85749 ], [ -77.18656, 38.85765 ], [ -77.18682, 38.8593 ], [ -77.18744, 38.85923 ], [ -77.18807, 38.85861 ], [ -77.18898, 38.85928 ], [ -77.18937, 38.86055 ], [ -77.18902, 38.86086 ], [ -77.18816, 38.86065 ], [ -77.18822, 38.86156 ], [ -77.19014, 38.86182 ], [ -77.19055, 38.86249 ], [ -77.19026, 38.86284 ], [ -77.18728, 38.86239 ], [ -77.18742, 38.86479 ], [ -77.18438, 38.86652 ], [ -77.18466, 38.86817 ], [ -77.17978, 38.86915 ], [ -77.17988, 38.87028 ], [ -77.17945, 38.87051 ], [ -77.17893, 38.87044 ], [ -77.17856, 38.86985 ], [ -77.1753, 38.87039 ], [ -77.17523, 38.87223 ], [ -77.17452, 38.87276 ], [ -77.17384, 38.87221 ], [ -77.17391, 38.87061 ], [ -77.17219, 38.87089 ], [ -77.17131, 38.87031 ], [ -77.17141, 38.8699 ], [ -77.17267, 38.86922 ], [ -77.17397, 38.86892 ], [ -77.16809, 38.87019 ], [ -77.16688, 38.87088 ], [ -77.16683, 38.87147 ], [ -77.16428, 38.87221 ], [ -77.1637, 38.87202 ], [ -77.1581, 38.87274 ], [ -77.15758, 38.8737 ], [ -77.15706, 38.87378 ], [ -77.15504, 38.87281 ], [ -77.15432, 38.87294 ], [ -77.15387, 38.87193 ], [ -77.15301, 38.8714 ], [ -77.15299, 38.87086 ], [ -77.15336, 38.87016 ], [ -77.1545, 38.86958 ], [ -77.15403, 38.86873 ], [ -77.15482, 38.86829 ], [ -77.15553, 38.86692 ], [ -77.15413, 38.86774 ], [ -77.15319, 38.86752 ], [ -77.15314, 38.86711 ], [ -77.15403, 38.86653 ], [ -77.15337, 38.86615 ], [ -77.15364, 38.86552 ], [ -77.15332, 38.86506 ], [ -77.15351, 38.86468 ], [ -77.15433, 38.86461 ], [ -77.15657, 38.86171 ], [ -77.1581, 38.86044 ], [ -77.15625, 38.85953 ], [ -77.15564, 38.86062 ], [ -77.15454, 38.86063 ], [ -77.15385, 38.86123 ], [ -77.15333, 38.86116 ], [ -77.15303, 38.86082 ], [ -77.15329, 38.85998 ], [ -77.15232, 38.86056 ], [ -77.15132, 38.86003 ], [ -77.15139, 38.85962 ], [ -77.15312, 38.85854 ], [ -77.15312, 38.85814 ], [ -77.15202, 38.85827 ], [ -77.15134, 38.85772 ], [ -77.15212, 38.85719 ], [ -77.15315, 38.85498 ], [ -77.15391, 38.8549 ], [ -77.15515, 38.85545 ], [ -77.15596, 38.85477 ], [ -77.15779, 38.85521 ], [ -77.15816, 38.8547 ], [ -77.15599, 38.85306 ], [ -77.15328, 38.85178 ], [ -77.15473, 38.85003 ], [ -77.15509, 38.84805 ], [ -77.15471, 38.84789 ], [ -77.15359, 38.8486 ], [ -77.1531, 38.84844 ], [ -77.1529, 38.84805 ], [ -77.15342, 38.84743 ], [ -77.15269, 38.84717 ], [ -77.15271, 38.84641 ], [ -77.1545, 38.84662 ], [ -77.15431, 38.84613 ], [ -77.15512, 38.8457 ], [ -77.15662, 38.84667 ], [ -77.15924, 38.8462 ], [ -77.15962, 38.84562 ], [ -77.16041, 38.84542 ], [ -77.16129, 38.8458 ], [ -77.16153, 38.84666 ], [ -77.16379, 38.84738 ], [ -77.16532, 38.84705 ], [ -77.16705, 38.84727 ], [ -77.17095, 38.84601 ], [ -77.174, 38.84673 ], [ -77.17401, 38.84546 ], [ -77.17218, 38.84565 ], [ -77.17113, 38.84484 ], [ -77.17021, 38.84507 ], [ -77.16972, 38.84561 ], [ -77.16878, 38.84542 ], [ -77.16921, 38.84432 ], [ -77.17073, 38.84381 ], [ -77.1706, 38.84348 ], [ -77.16977, 38.84388 ], [ -77.16934, 38.84364 ], [ -77.16972, 38.84253 ], [ -77.16915, 38.84206 ], [ -77.1698, 38.84133 ], [ -77.16816, 38.84133 ], [ -77.16747, 38.84079 ], [ -77.16816, 38.84025 ], [ -77.1698, 38.84025 ], [ -77.17075, 38.83831 ], [ -77.17058, 38.83709 ], [ -77.17205, 38.83671 ], [ -77.17412, 38.83759 ], [ -77.17475, 38.83863 ], [ -77.17447, 38.83977 ], [ -77.17599, 38.84304 ], [ -77.17569, 38.84386 ], [ -77.17486, 38.84382 ], [ -77.17503, 38.84428 ], [ -77.17611, 38.84456 ], [ -77.1763, 38.84405 ], [ -77.17612, 38.84116 ], [ -77.17993, 38.84049 ], [ -77.18079, 38.84067 ], [ -77.18096, 38.84118 ], [ -77.18265, 38.84116 ], [ -77.18232, 38.84348 ], [ -77.18448, 38.84402 ] ], [ [ -77.17179, 38.86752 ], [ -77.17141, 38.86814 ], [ -77.17235, 38.86816 ], [ -77.17179, 38.86752 ] ], [ [ -77.17367, 38.86776 ], [ -77.17399, 38.86763 ], [ -77.17398, 38.86718 ], [ -77.17293, 38.86628 ], [ -77.17289, 38.86562 ], [ -77.17049, 38.86346 ], [ -77.17045, 38.86246 ], [ -77.17131, 38.86021 ], [ -77.17063, 38.86049 ], [ -77.17058, 38.86136 ], [ -77.16982, 38.86168 ], [ -77.1663, 38.86084 ], [ -77.16607, 38.86112 ], [ -77.17036, 38.86396 ], [ -77.17367, 38.86776 ] ], [ [ -77.17212, 38.86247 ], [ -77.17289, 38.86159 ], [ -77.17228, 38.86147 ], [ -77.1718, 38.86274 ], [ -77.17212, 38.86247 ] ], [ [ -77.17166, 38.85931 ], [ -77.16903, 38.8588 ], [ -77.1687, 38.85902 ], [ -77.1709, 38.85945 ], [ -77.17139, 38.86001 ], [ -77.17166, 38.85931 ] ], [ [ -77.1781, 38.85946 ], [ -77.17817, 38.85831 ], [ -77.17643, 38.85849 ], [ -77.17565, 38.85803 ], [ -77.17609, 38.85749 ], [ -77.17574, 38.85693 ], [ -77.17638, 38.85647 ], [ -77.17588, 38.856 ], [ -77.17605, 38.85561 ], [ -77.17791, 38.85523 ], [ -77.17584, 38.85535 ], [ -77.17567, 38.85632 ], [ -77.17496, 38.85682 ], [ -77.1742, 38.85634 ], [ -77.17448, 38.85572 ], [ -77.17418, 38.85549 ], [ -77.17406, 38.85712 ], [ -77.17339, 38.85728 ], [ -77.17332, 38.85792 ], [ -77.17194, 38.85825 ], [ -77.1781, 38.85946 ] ], [ [ -77.17136, 38.85704 ], [ -77.17131, 38.85704 ], [ -77.17139, 38.85754 ], [ -77.17071, 38.85801 ], [ -77.17176, 38.85822 ], [ -77.17136, 38.85704 ] ], [ [ -77.17263, 38.85593 ], [ -77.17274, 38.85556 ], [ -77.17011, 38.85571 ], [ -77.17006, 38.85602 ], [ -77.17263, 38.85593 ] ], [ [ -77.17805, 38.85415 ], [ -77.17712, 38.85353 ], [ -77.17657, 38.85104 ], [ -77.17586, 38.85053 ], [ -77.17564, 38.84969 ], [ -77.17496, 38.85115 ], [ -77.17585, 38.85124 ], [ -77.17639, 38.85172 ], [ -77.17619, 38.8536 ], [ -77.17514, 38.85413 ], [ -77.17186, 38.85433 ], [ -77.1704, 38.85368 ], [ -77.1705, 38.85461 ], [ -77.17805, 38.85415 ] ], [ [ -77.17139, 38.85217 ], [ -77.17263, 38.85212 ], [ -77.17418, 38.85141 ], [ -77.17154, 38.85139 ], [ -77.17056, 38.85207 ], [ -77.17047, 38.8526 ], [ -77.17139, 38.85217 ] ], [ [ -77.17316, 38.84892 ], [ -77.17305, 38.84802 ], [ -77.17392, 38.84781 ], [ -77.17246, 38.8475 ], [ -77.17198, 38.84891 ], [ -77.17104, 38.84869 ], [ -77.17107, 38.8475 ], [ -77.16994, 38.84826 ], [ -77.17051, 38.84882 ], [ -77.17032, 38.8496 ], [ -77.17148, 38.85002 ], [ -77.17316, 38.84892 ] ], [ [ -77.1715, 38.84157 ], [ -77.17163, 38.84151 ], [ -77.17127, 38.84147 ], [ -77.17139, 38.8418 ], [ -77.1715, 38.84157 ] ], [ [ -77.17916, 38.86346 ], [ -77.17919, 38.86346 ], [ -77.17918, 38.86345 ], [ -77.17916, 38.86346 ] ], [ [ -77.17966, 38.86019 ], [ -77.17951, 38.85967 ], [ -77.17956, 38.86046 ], [ -77.17998, 38.86052 ], [ -77.17966, 38.86019 ] ], [ [ -77.18035, 38.85378 ], [ -77.18172, 38.85258 ], [ -77.1816, 38.85186 ], [ -77.17832, 38.85222 ], [ -77.17838, 38.85291 ], [ -77.18028, 38.85383 ], [ -77.17941, 38.85442 ], [ -77.17935, 38.85735 ], [ -77.18035, 38.85378 ] ], [ [ -77.17863, 38.85064 ], [ -77.17843, 38.8496 ], [ -77.178, 38.85116 ], [ -77.17942, 38.85106 ], [ -77.17863, 38.85064 ] ], [ [ -77.17968, 38.84859 ], [ -77.17999, 38.84836 ], [ -77.17946, 38.84819 ], [ -77.17932, 38.84855 ], [ -77.17968, 38.84859 ] ], [ [ -77.17935, 38.84707 ], [ -77.18256, 38.84725 ], [ -77.18139, 38.84573 ], [ -77.18177, 38.84447 ], [ -77.18131, 38.84434 ], [ -77.18119, 38.8457 ], [ -77.18045, 38.84622 ], [ -77.17974, 38.84607 ], [ -77.17983, 38.8452 ], [ -77.17911, 38.84535 ], [ -77.17873, 38.84507 ], [ -77.17893, 38.84386 ], [ -77.17851, 38.84525 ], [ -77.17785, 38.84584 ], [ -77.17655, 38.846 ], [ -77.17542, 38.84553 ], [ -77.17522, 38.84858 ], [ -77.17621, 38.84773 ], [ -77.17935, 38.84707 ] ], [ [ -77.17951, 38.842 ], [ -77.17952, 38.84187 ], [ -77.17913, 38.84269 ], [ -77.17951, 38.842 ] ], [ [ -77.1843, 38.86289 ], [ -77.1839, 38.86229 ], [ -77.18244, 38.86229 ], [ -77.18154, 38.8626 ], [ -77.18161, 38.86349 ], [ -77.1843, 38.86289 ] ], [ [ -77.18277, 38.86121 ], [ -77.1834, 38.86121 ], [ -77.18351, 38.86096 ], [ -77.18288, 38.86091 ], [ -77.18277, 38.86121 ] ], [ [ -77.18363, 38.85963 ], [ -77.1836, 38.85947 ], [ -77.1835, 38.85955 ], [ -77.18363, 38.85963 ] ], [ [ -77.18425, 38.8543 ], [ -77.18368, 38.85432 ], [ -77.18336, 38.85679 ], [ -77.18436, 38.85663 ], [ -77.18425, 38.8543 ] ], [ [ -77.18339, 38.85066 ], [ -77.18347, 38.85109 ], [ -77.18347, 38.85082 ], [ -77.18339, 38.85066 ] ], [ [ -77.18267, 38.84844 ], [ -77.18069, 38.84845 ], [ -77.18091, 38.84896 ], [ -77.18183, 38.84877 ], [ -77.18225, 38.84918 ], [ -77.18267, 38.84844 ] ], [ [ -77.18307, 38.84484 ], [ -77.18276, 38.84536 ], [ -77.1833, 38.84486 ], [ -77.18307, 38.84484 ] ], [ [ -77.18442, 38.85056 ], [ -77.18462, 38.85071 ], [ -77.18462, 38.85054 ], [ -77.18463, 38.85022 ], [ -77.18442, 38.85056 ] ], [ [ -77.18377, 38.8461 ], [ -77.18344, 38.84639 ], [ -77.18465, 38.84643 ], [ -77.18461, 38.84532 ], [ -77.18377, 38.8461 ] ], [ [ -77.18464, 38.85018 ], [ -77.18465, 38.8499 ], [ -77.18453, 38.84992 ], [ -77.18464, 38.85018 ] ], [ [ -77.18358, 38.84959 ], [ -77.18373, 38.8496 ], [ -77.18373, 38.84944 ], [ -77.18358, 38.84959 ] ], [ [ -77.18419, 38.85322 ], [ -77.18423, 38.85286 ], [ -77.18397, 38.85291 ], [ -77.18419, 38.85322 ] ], [ [ -77.18573, 38.85643 ], [ -77.18576, 38.85642 ], [ -77.18573, 38.85642 ], [ -77.18573, 38.85643 ] ], [ [ -77.17947, 38.85105 ], [ -77.18123, 38.85085 ], [ -77.18172, 38.85099 ], [ -77.1818, 38.85166 ], [ -77.18213, 38.85136 ], [ -77.182, 38.85066 ], [ -77.18037, 38.8509 ], [ -77.17986, 38.8498 ], [ -77.17998, 38.85042 ], [ -77.17947, 38.85105 ] ], [ [ -77.18168, 38.85409 ], [ -77.18083, 38.85709 ], [ -77.18196, 38.85696 ], [ -77.1824, 38.85353 ], [ -77.18168, 38.85409 ] ], [ [ -77.18023, 38.86355 ], [ -77.18021, 38.86337 ], [ -77.18005, 38.86349 ], [ -77.18023, 38.86355 ] ], [ [ -77.18125, 38.84227 ], [ -77.18136, 38.84235 ], [ -77.18138, 38.84228 ], [ -77.18125, 38.84227 ] ], [ [ -77.17706, 38.8685 ], [ -77.17537, 38.86715 ], [ -77.17536, 38.86879 ], [ -77.17706, 38.8685 ] ], [ [ -77.1746, 38.86531 ], [ -77.17481, 38.8654 ], [ -77.1757, 38.86388 ], [ -77.1746, 38.86531 ] ], [ [ -77.17701, 38.86037 ], [ -77.17503, 38.85998 ], [ -77.17583, 38.86054 ], [ -77.17686, 38.86071 ], [ -77.17701, 38.86037 ] ], [ [ -77.17638, 38.86153 ], [ -77.1763, 38.86275 ], [ -77.17741, 38.8613 ], [ -77.17693, 38.86105 ], [ -77.17638, 38.86153 ] ], [ [ -77.17707, 38.84998 ], [ -77.17708, 38.85002 ], [ -77.17705, 38.8497 ], [ -77.17707, 38.84998 ] ], [ [ -77.17807, 38.86604 ], [ -77.17815, 38.866 ], [ -77.17786, 38.86606 ], [ -77.17807, 38.86604 ] ], [ [ -77.1774, 38.86356 ], [ -77.178, 38.86353 ], [ -77.17766, 38.86296 ], [ -77.1774, 38.86356 ] ], [ [ -77.17805, 38.84193 ], [ -77.17742, 38.84198 ], [ -77.17748, 38.84241 ], [ -77.17805, 38.84193 ] ], [ [ -77.17758, 38.84355 ], [ -77.17753, 38.84356 ], [ -77.17757, 38.84359 ], [ -77.17758, 38.84355 ] ], [ [ -77.1743, 38.84244 ], [ -77.17461, 38.84323 ], [ -77.17459, 38.84294 ], [ -77.1743, 38.84244 ] ], [ [ -77.17352, 38.86461 ], [ -77.17387, 38.86415 ], [ -77.17358, 38.86437 ], [ -77.17352, 38.86461 ] ], [ [ -77.17309, 38.8399 ], [ -77.17345, 38.83901 ], [ -77.17319, 38.83843 ], [ -77.17205, 38.83794 ], [ -77.17348, 38.84128 ], [ -77.17309, 38.8399 ] ], [ [ -77.17118, 38.84029 ], [ -77.17139, 38.8403 ], [ -77.17127, 38.83991 ], [ -77.17118, 38.84029 ] ], [ [ -77.17188, 38.84305 ], [ -77.17205, 38.84349 ], [ -77.17318, 38.84323 ], [ -77.17281, 38.84248 ], [ -77.17188, 38.84305 ] ], [ [ -77.1733, 38.84452 ], [ -77.1737, 38.84456 ], [ -77.17358, 38.84426 ], [ -77.1725, 38.84459 ], [ -77.1733, 38.84452 ] ], [ [ -77.17407, 38.85032 ], [ -77.17413, 38.8497 ], [ -77.17304, 38.85041 ], [ -77.17407, 38.85032 ] ], [ [ -77.173, 38.85316 ], [ -77.17199, 38.85325 ], [ -77.17488, 38.85306 ], [ -77.17509, 38.85225 ], [ -77.173, 38.85316 ] ], [ [ -77.17295, 38.85704 ], [ -77.17278, 38.85658 ], [ -77.17275, 38.85664 ], [ -77.17295, 38.85704 ] ], [ [ -77.16047, 38.87048 ], [ -77.16041, 38.87026 ], [ -77.16032, 38.87044 ], [ -77.1605, 38.8706 ], [ -77.16047, 38.87048 ] ], [ [ -77.16119, 38.86873 ], [ -77.16292, 38.86837 ], [ -77.1607, 38.86852 ], [ -77.16119, 38.86873 ] ], [ [ -77.16142, 38.86755 ], [ -77.16078, 38.86712 ], [ -77.15989, 38.86817 ], [ -77.16056, 38.86847 ], [ -77.16057, 38.86772 ], [ -77.16142, 38.86755 ] ], [ [ -77.16199, 38.86383 ], [ -77.16251, 38.86328 ], [ -77.1624, 38.86321 ], [ -77.16141, 38.86354 ], [ -77.16199, 38.86383 ] ], [ [ -77.16039, 38.86314 ], [ -77.16021, 38.86299 ], [ -77.16017, 38.86318 ], [ -77.16039, 38.86314 ] ], [ [ -77.16056, 38.86114 ], [ -77.1599, 38.86085 ], [ -77.15917, 38.86113 ], [ -77.15823, 38.86188 ], [ -77.15876, 38.86238 ], [ -77.15886, 38.8614 ], [ -77.16056, 38.86114 ] ], [ [ -77.16175, 38.8612 ], [ -77.16281, 38.86211 ], [ -77.16261, 38.86138 ], [ -77.16117, 38.86053 ], [ -77.16104, 38.86105 ], [ -77.16175, 38.8612 ] ], [ [ -77.16093, 38.85922 ], [ -77.16366, 38.86059 ], [ -77.16405, 38.86159 ], [ -77.16743, 38.85844 ], [ -77.16509, 38.85836 ], [ -77.16497, 38.85796 ], [ -77.16556, 38.8574 ], [ -77.1649, 38.85757 ], [ -77.16418, 38.85705 ], [ -77.16497, 38.85631 ], [ -77.16363, 38.85653 ], [ -77.1628, 38.85613 ], [ -77.16311, 38.85552 ], [ -77.16457, 38.85525 ], [ -77.16453, 38.855 ], [ -77.16282, 38.85505 ], [ -77.16062, 38.85611 ], [ -77.15919, 38.85548 ], [ -77.15866, 38.8562 ], [ -77.16022, 38.85698 ], [ -77.16093, 38.85922 ] ], [ [ -77.16143, 38.85414 ], [ -77.16048, 38.8549 ], [ -77.16119, 38.85519 ], [ -77.16143, 38.85414 ] ], [ [ -77.15954, 38.8543 ], [ -77.15975, 38.85444 ], [ -77.15973, 38.85426 ], [ -77.15954, 38.8543 ] ], [ [ -77.16073, 38.84986 ], [ -77.1608, 38.84955 ], [ -77.15979, 38.84993 ], [ -77.16073, 38.84986 ] ], [ [ -77.15999, 38.84822 ], [ -77.15989, 38.84819 ], [ -77.15997, 38.84829 ], [ -77.15999, 38.84822 ] ], [ [ -77.16451, 38.87022 ], [ -77.16462, 38.87064 ], [ -77.16508, 38.87055 ], [ -77.16603, 38.86995 ], [ -77.16451, 38.87022 ] ], [ [ -77.16936, 38.86472 ], [ -77.16838, 38.86391 ], [ -77.16686, 38.8656 ], [ -77.16648, 38.86721 ], [ -77.16559, 38.8679 ], [ -77.16552, 38.86853 ], [ -77.16453, 38.86853 ], [ -77.16423, 38.86916 ], [ -77.16606, 38.86877 ], [ -77.16647, 38.86763 ], [ -77.16936, 38.86472 ] ], [ [ -77.16735, 38.86318 ], [ -77.16532, 38.86203 ], [ -77.16684, 38.86323 ], [ -77.16602, 38.86371 ], [ -77.16446, 38.86302 ], [ -77.16579, 38.86377 ], [ -77.16594, 38.86452 ], [ -77.16497, 38.86464 ], [ -77.16365, 38.86389 ], [ -77.16236, 38.86527 ], [ -77.16347, 38.86455 ], [ -77.16428, 38.86452 ], [ -77.16494, 38.865 ], [ -77.1653, 38.86601 ], [ -77.16735, 38.86318 ] ], [ [ -77.16427, 38.85376 ], [ -77.16247, 38.85341 ], [ -77.16322, 38.85402 ], [ -77.16427, 38.85376 ] ], [ [ -77.16363, 38.85243 ], [ -77.1626, 38.85232 ], [ -77.16514, 38.85282 ], [ -77.16363, 38.85243 ] ], [ [ -77.16656, 38.85219 ], [ -77.16661, 38.85311 ], [ -77.16714, 38.85245 ], [ -77.16666, 38.85101 ], [ -77.16754, 38.85079 ], [ -77.16683, 38.85045 ], [ -77.1658, 38.85092 ], [ -77.16656, 38.85219 ] ], [ [ -77.16615, 38.84946 ], [ -77.16694, 38.84836 ], [ -77.16643, 38.84847 ], [ -77.16557, 38.84984 ], [ -77.16615, 38.84946 ] ], [ [ -77.16896, 38.85437 ], [ -77.1681, 38.85512 ], [ -77.16742, 38.85457 ], [ -77.16898, 38.85268 ], [ -77.16868, 38.85255 ], [ -77.1675, 38.85398 ], [ -77.16607, 38.85412 ], [ -77.16595, 38.85443 ], [ -77.16633, 38.85481 ], [ -77.166, 38.85556 ], [ -77.16693, 38.85702 ], [ -77.16707, 38.85626 ], [ -77.16787, 38.85581 ], [ -77.16832, 38.85603 ], [ -77.1684, 38.85754 ], [ -77.16896, 38.85437 ] ], [ [ -77.16886, 38.85042 ], [ -77.16933, 38.85157 ], [ -77.1704, 38.85071 ], [ -77.16908, 38.8501 ], [ -77.16886, 38.85042 ] ], [ [ -77.16775, 38.84936 ], [ -77.16761, 38.84956 ], [ -77.16781, 38.84967 ], [ -77.16775, 38.84936 ] ], [ [ -77.16845, 38.84836 ], [ -77.1695, 38.84818 ], [ -77.1691, 38.84779 ], [ -77.16843, 38.84784 ], [ -77.16845, 38.84836 ] ], [ [ -77.16987, 38.85711 ], [ -77.16975, 38.85783 ], [ -77.17051, 38.85797 ], [ -77.16987, 38.85711 ] ], [ [ -77.16731, 38.86001 ], [ -77.16946, 38.86028 ], [ -77.16844, 38.86008 ], [ -77.16731, 38.86001 ] ], [ [ -77.17102, 38.8666 ], [ -77.17016, 38.86561 ], [ -77.1678, 38.86797 ], [ -77.16731, 38.86929 ], [ -77.16843, 38.86746 ], [ -77.16926, 38.86742 ], [ -77.17001, 38.86799 ], [ -77.17102, 38.8666 ] ], [ [ -77.16266, 38.86696 ], [ -77.16383, 38.86745 ], [ -77.1623, 38.86657 ], [ -77.16158, 38.86617 ], [ -77.16266, 38.86696 ] ], [ [ -77.16382, 38.86599 ], [ -77.1638, 38.86589 ], [ -77.16367, 38.86602 ], [ -77.16382, 38.86599 ] ], [ [ -77.16195, 38.87076 ], [ -77.16203, 38.87105 ], [ -77.16326, 38.87085 ], [ -77.16317, 38.8705 ], [ -77.16195, 38.87076 ] ], [ [ -77.16427, 38.8492 ], [ -77.16382, 38.84847 ], [ -77.16379, 38.8501 ], [ -77.16427, 38.8492 ] ], [ [ -77.16435, 38.85143 ], [ -77.16439, 38.85108 ], [ -77.16187, 38.851 ], [ -77.1618, 38.85128 ], [ -77.16435, 38.85143 ] ], [ [ -77.16243, 38.84851 ], [ -77.16211, 38.84993 ], [ -77.16241, 38.84998 ], [ -77.16243, 38.84851 ] ], [ [ -77.15747, 38.8713 ], [ -77.15704, 38.87165 ], [ -77.15745, 38.87167 ], [ -77.15798, 38.87167 ], [ -77.15747, 38.8713 ] ], [ [ -77.15596, 38.87013 ], [ -77.15611, 38.87025 ], [ -77.15704, 38.86935 ], [ -77.15596, 38.87013 ] ], [ [ -77.15539, 38.86864 ], [ -77.15563, 38.86895 ], [ -77.15642, 38.86828 ], [ -77.15539, 38.86864 ] ], [ [ -77.15756, 38.86612 ], [ -77.15706, 38.86617 ], [ -77.15658, 38.86555 ], [ -77.15683, 38.86654 ], [ -77.15756, 38.86612 ] ], [ [ -77.15832, 38.85718 ], [ -77.15819, 38.85705 ], [ -77.15729, 38.8585 ], [ -77.15832, 38.85718 ] ], [ [ -77.15716, 38.85618 ], [ -77.15643, 38.85595 ], [ -77.15565, 38.85667 ], [ -77.15658, 38.85713 ], [ -77.15716, 38.85618 ] ], [ [ -77.15606, 38.85175 ], [ -77.15588, 38.8518 ], [ -77.15616, 38.8519 ], [ -77.15606, 38.85175 ] ], [ [ -77.15774, 38.85038 ], [ -77.15734, 38.85083 ], [ -77.15751, 38.85075 ], [ -77.15774, 38.85038 ] ], [ [ -77.15615, 38.84916 ], [ -77.15604, 38.85038 ], [ -77.15669, 38.84967 ], [ -77.15615, 38.84916 ] ], [ [ -77.1587, 38.85345 ], [ -77.15864, 38.85346 ], [ -77.15866, 38.85347 ], [ -77.1587, 38.85345 ] ], [ [ -77.15865, 38.8485 ], [ -77.15876, 38.84818 ], [ -77.15829, 38.84824 ], [ -77.15865, 38.8485 ] ], [ [ -77.15834, 38.85163 ], [ -77.15845, 38.85219 ], [ -77.15919, 38.85093 ], [ -77.15834, 38.85163 ] ], [ [ -77.15864, 38.85885 ], [ -77.15834, 38.85924 ], [ -77.15948, 38.8587 ], [ -77.15918, 38.85815 ], [ -77.15864, 38.85885 ] ], [ [ -77.15825, 38.86705 ], [ -77.15744, 38.86754 ], [ -77.15845, 38.86718 ], [ -77.15891, 38.86738 ], [ -77.15988, 38.86622 ], [ -77.15825, 38.86705 ] ], [ [ -77.15741, 38.86448 ], [ -77.15676, 38.86531 ], [ -77.15783, 38.86472 ], [ -77.15741, 38.86448 ] ], [ [ -77.15487, 38.8577 ], [ -77.15479, 38.8578 ], [ -77.15511, 38.85768 ], [ -77.15487, 38.8577 ] ], [ [ -77.15431, 38.85631 ], [ -77.15395, 38.85614 ], [ -77.15365, 38.85711 ], [ -77.15431, 38.85631 ] ], [ [ -77.15449, 38.85827 ], [ -77.15451, 38.85828 ], [ -77.15449, 38.85825 ], [ -77.15449, 38.85827 ] ] ] } },
{ "type": "Feature", "properties": { "variant": "T2s", "miles": 0.5 }, "geometry": { "type": "Polygon", "coordinates": [ [ [ -77.17218, 38.85077 ], [ -77.17047, 38.8526 ], [ -77.17179, 38.85279 ], [ -77.17197, 38.85318 ], [ -77.17175, 38.85356 ], [ -77.1704, 38.85368 ], [ -77.17032, 38.85462 ], [ -77.17551, 38.85446 ], [ -77.1757, 38.85626 ], [ -77.17496, 38.85682 ], [ -77.17446, 38.85671 ], [ -77.17418, 38.85549 ], [ -77.17406, 38.85712 ], [ -77.17339, 38.85728 ], [ -77.17332, 38.85792 ], [ -77.17194, 38.85825 ], [ -77.17314, 38.85869 ], [ -77.17248, 38.86035 ], [ -77.17155, 38.86012 ], [ -77.17166, 38.85931 ], [ -77.16903, 38.8588 ], [ -77.1687, 38.85902 ], [ -77.17133, 38.8597 ], [ -77.17109, 38.86044 ], [ -77.16753, 38.85984 ], [ -77.16658, 38.86057 ], [ -77.1656, 38.86057 ], [ -77.16561, 38.85981 ], [ -77.16743, 38.85844 ], [ -77.16509, 38.85836 ], [ -77.16497, 38.85796 ], [ -77.16556, 38.8574 ], [ -77.1649, 38.85757 ], [ -77.16418, 38.85705 ], [ -77.16504, 38.85638 ], [ -77.16311, 38.85647 ], [ -77.16289, 38.85572 ], [ -77.16457, 38.85525 ], [ -77.16454, 38.85434 ], [ -77.16538, 38.85395 ], [ -77.16633, 38.85481 ], [ -77.166, 38.85556 ], [ -77.16693, 38.85702 ], [ -77.16735, 38.8559 ], [ -77.16832, 38.85603 ], [ -77.1684, 38.85754 ], [ -77.16896, 38.85437 ], [ -77.1681, 38.85512 ], [ -77.16742, 38.85444 ], [ -77.16898, 38.85268 ], [ -77.16685, 38.85233 ], [ -77.16666, 38.85101 ], [ -77.1676, 38.85088 ], [ -77.16735, 38.85035 ], [ -77.1681, 38.84987 ], [ -77.16878, 38.85031 ], [ -77.16933, 38.85157 ], [ -77.17156, 38.85018 ], [ -77.17218, 38.85077 ] ], [ [ -77.17051, 38.85797 ], [ -77.17005, 38.85771 ], [ -77.16987, 38.85711 ], [ -77.16975, 38.85783 ], [ -77.17051, 38.85797 ] ], [ [ -77.17283, 38.85686 ], [ -77.17275, 38.857 ], [ -77.17295, 38.85704 ], [ -77.17283, 38.85686 ] ], [ [ -77.17264, 38.85587 ], [ -77.17274, 38.85556 ], [ -77.17011, 38.85571 ], [ -77.17006, 38.85602 ], [ -77.17264, 38.85587 ] ], [ [ -77.17176, 38.85822 ], [ -77.17131, 38.85704 ], [ -77.17139, 38.85754 ], [ -77.17071, 38.85801 ], [ -77.17176, 38.85822 ] ] ] } },
{ "type": "Feature", "properties": { "variant": "T2s", "miles": 1.0 }, "geometry": { "type": "Polygon", "coordinates": [ [ [ -77.174, 38.84673 ], [ -77.1734, 38.84337 ], [ -77.17432, 38.8431 ], [ -77.17541, 38.84544 ], [ -77.17522, 38.84858 ], [ -77.17621, 38.84773 ], [ -77.17876, 38.84742 ], [ -77.17945, 38.84784 ], [ -77.17929, 38.84855 ], [ -77.18057, 38.84834 ], [ -77.18171, 38.84992 ], [ -77.18101, 38.85046 ], [ -77.17986, 38.8498 ], [ -77.17989, 38.85083 ], [ -77.17945, 38.85106 ], [ -77.17863, 38.85064 ], [ -77.17843, 38.8496 ], [ -77.17794, 38.85089 ], [ -77.17838, 38.85291 ], [ -77.18028, 38.85383 ], [ -77.17941, 38.85442 ], [ -77.17921, 38.85806 ], [ -77.17643, 38.85849 ], [ -77.17565, 38.85803 ], [ -77.17609, 38.85749 ], [ -77.17574, 38.85693 ], [ -77.17638, 38.85647 ], [ -77.17588, 38.856 ], [ -77.17605, 38.85561 ], [ -77.17791, 38.85523 ], [ -77.17584, 38.85535 ], [ -77.17567, 38.85632 ], [ -77.17496, 38.85682 ], [ -77.1742, 38.85634 ], [ -77.17448, 38.85572 ], [ -77.17418, 38.85549 ], [ -77.17406, 38.85712 ], [ -77.17339, 38.85728 ], [ -77.17332, 38.85792 ], [ -77.17194, 38.85825 ], [ -77.17869, 38.85982 ], [ -77.17809, 38.86107 ], [ -77.17767, 38.86132 ], [ -77.17693, 38.86105 ], [ -77.17638, 38.86153 ], [ -77.17582, 38.86368 ], [ -77.17372, 38.86599 ], [ -77.17103, 38.86429 ], [ -77.17049, 38.86346 ], [ -77.17045, 38.86246 ], [ -77.17131, 38.86021 ], [ -77.17063, 38.86049 ], [ -77.17058, 38.86136 ], [ -77.16972, 38.86169 ], [ -77.16778, 38.86141 ], [ -77.1656, 38.86057 ], [ -77.16561, 38.85981 ], [ -77.16743, 38.85844 ], [ -77.16509, 38.85836 ], [ -77.16497, 38.85796 ], [ -77.16556, 38.8574 ], [ -77.1649, 38.85757 ], [ -77.16418, 38.85705 ], [ -77.16497, 38.85631 ], [ -77.16363, 38.85653 ], [ -77.1628, 38.85613 ], [ -77.16311, 38.85552 ], [ -77.16457, 38.85525 ], [ -77.16453, 38.855 ], [ -77.16282, 38.85505 ], [ -77.16197, 38.85571 ], [ -77.16117, 38.85527 ], [ -77.1617, 38.85442 ], [ -77.16143, 38.85414 ], [ -77.16073, 38.85488 ], [ -77.15979, 38.85467 ], [ -77.16096, 38.85217 ], [ -77.16028, 38.85171 ], [ -77.16046, 38.85099 ], [ -77.15892, 38.85087 ], [ -77.15819, 38.85046 ], [ -77.15858, 38.84976 ], [ -77.16241, 38.84998 ], [ -77.1625, 38.84811 ], [ -77.16141, 38.84758 ], [ -77.16165, 38.84684 ], [ -77.16393, 38.8474 ], [ -77.16525, 38.84705 ], [ -77.16705, 38.84727 ], [ -77.17105, 38.846 ], [ -77.174, 38.84673 ] ], [ [ -77.17176, 38.85822 ], [ -77.17136, 38.85704 ], [ -77.17131, 38.85704 ], [ -77.17139, 38.85754 ], [ -77.17071, 38.85801 ], [ -77.17176, 38.85822 ] ], [ [ -77.17006, 38.85602 ], [ -77.17263, 38.85593 ], [ -77.17274, 38.85556 ], [ -77.17011, 38.85571 ], [ -77.17006, 38.85602 ] ], [ [ -77.1705, 38.85461 ], [ -77.17805, 38.85415 ], [ -77.17712, 38.85353 ], [ -77.17657, 38.85104 ], [ -77.17586, 38.85053 ], [ -77.17564, 38.84969 ], [ -77.17496, 38.85115 ], [ -77.17585, 38.85124 ], [ -77.17639, 38.85172 ], [ -77.17619, 38.8536 ], [ -77.17514, 38.85413 ], [ -77.17186, 38.85433 ], [ -77.1704, 38.85368 ], [ -77.1705, 38.85461 ] ], [ [ -77.17047, 38.8526 ], [ -77.17139, 38.85217 ], [ -77.17263, 38.85212 ], [ -77.17418, 38.85141 ], [ -77.17154, 38.85139 ], [ -77.17056, 38.85207 ], [ -77.17047, 38.8526 ] ], [ [ -77.16936, 38.85153 ], [ -77.1704, 38.85071 ], [ -77.16908, 38.8501 ], [ -77.16886, 38.85042 ], [ -77.16936, 38.85153 ] ], [ [ -77.17148, 38.85002 ], [ -77.17316, 38.84892 ], [ -77.17305, 38.84802 ], [ -77.17392, 38.84781 ], [ -77.17246, 38.8475 ], [ -77.17198, 38.84891 ], [ -77.17104, 38.84869 ], [ -77.17107, 38.8475 ], [ -77.16994, 38.84826 ], [ -77.17051, 38.84882 ], [ -77.17032, 38.8496 ], [ -77.17148, 38.85002 ] ], [ [ -77.17704, 38.84971 ], [ -77.17708, 38.85002 ], [ -77.17705, 38.8497 ], [ -77.17704, 38.84971 ] ], [ [ -77.17374, 38.85036 ], [ -77.17413, 38.8497 ], [ -77.17304, 38.85041 ], [ -77.17374, 38.85036 ] ], [ [ -77.17347, 38.85301 ], [ -77.17198, 38.85318 ], [ -77.17488, 38.85306 ], [ -77.17509, 38.85225 ], [ -77.17347, 38.85301 ] ], [ [ -77.17278, 38.85658 ], [ -77.17275, 38.857 ], [ -77.17295, 38.85704 ], [ -77.17278, 38.85658 ] ], [ [ -77.17139, 38.86001 ], [ -77.17166, 38.85931 ], [ -77.16903, 38.8588 ], [ -77.1687, 38.85902 ], [ -77.1709, 38.85945 ], [ -77.17139, 38.86001 ] ], [ [ -77.17701, 38.86037 ], [ -77.17607, 38.86017 ], [ -77.17503, 38.85998 ], [ -77.17686, 38.86071 ], [ -77.17701, 38.86037 ] ], [ [ -77.17178, 38.86275 ], [ -77.17205, 38.86254 ], [ -77.17289, 38.86159 ], [ -77.17228, 38.86147 ], [ -77.17178, 38.86275 ] ], [ [ -77.17371, 38.86428 ], [ -77.17352, 38.86461 ], [ -77.17387, 38.86415 ], [ -77.17371, 38.86428 ] ], [ [ -77.16693, 38.85702 ], [ -77.16735, 38.8559 ], [ -77.16832, 38.85603 ], [ -77.1684, 38.85754 ], [ -77.16896, 38.85437 ], [ -77.1681, 38.85512 ], [ -77.16742, 38.85451 ], [ -77.16898, 38.85268 ], [ -77.16868, 38.85255 ], [ -77.16737, 38.85406 ], [ -77.16607, 38.85412 ], [ -77.16633, 38.85481 ], [ -77.166, 38.85556 ], [ -77.16693, 38.85702 ] ], [ [ -77.16654, 38.8531 ], [ -77.16714, 38.85245 ], [ -77.16666, 38.85101 ], [ -77.1676, 38.85088 ], [ -77.16683, 38.85045 ], [ -77.1658, 38.85092 ], [ -77.16572, 38.85159 ], [ -77.16652, 38.85211 ], [ -77.16654, 38.8531 ] ], [ [ -77.16534, 38.8499 ], [ -77.16667, 38.84866 ], [ -77.16694, 38.84836 ], [ -77.16643, 38.84847 ], [ -77.16534, 38.8499 ] ], [ [ -77.16761, 38.84956 ], [ -77.16784, 38.84938 ], [ -77.16775, 38.84936 ], [ -77.16761, 38.84956 ] ], [ [ -77.16858, 38.84782 ], [ -77.16845, 38.84836 ], [ -77.1695, 38.84818 ], [ -77.1691, 38.84779 ], [ -77.16858, 38.84782 ] ], [ [ -77.17051, 38.85797 ], [ -77.16992, 38.8571 ], [ -77.16987, 38.85711 ], [ -77.16975, 38.85783 ], [ -77.17051, 38.85797 ] ], [ [ -77.16946, 38.86028 ], [ -77.16753, 38.85984 ], [ -77.16731, 38.86001 ], [ -77.16946, 38.86028 ] ], [ [ -77.16867, 38.8603 ], [ -77.16874, 38.86032 ], [ -77.16867, 38.86029 ], [ -77.16867, 38.8603 ] ], [ [ -77.16439, 38.85108 ], [ -77.16187, 38.851 ], [ -77.1618, 38.8513 ], [ -77.16435, 38.85143 ], [ -77.16439, 38.85108 ] ], [ [ -77.16379, 38.8501 ], [ -77.16427, 38.8492 ], [ -77.16382, 38.84847 ], [ -77.16379, 38.8501 ] ], [ [ -77.16514, 38.85282 ], [ -77.16363, 38.85243 ], [ -77.1626, 38.85232 ], [ -77.16514, 38.85282 ] ], [ [ -77.16473, 38.85386 ], [ -77.16351, 38.85362 ], [ -77.16247, 38.85341 ], [ -77.16322, 38.85402 ], [ -77.16473, 38.85386 ] ] ] } },
{ "type": "Feature", "properties": { "variant": "T2s", "miles": 1.5 }, "geometry": { "type": "MultiPolygon", "coordinates": [ [ [ [ -77.18218, 38.84098 ], [ -77.18283, 38.84155 ], [ -77.18232, 38.84348 ], [ -77.18431, 38.84392 ], [ -77.18479, 38.84506 ], [ -77.18572, 38.84492 ], [ -77.18602, 38.84526 ], [ -77.18615, 38.84652 ], [ -77.1855, 38.84744 ], [ -77.18465, 38.84773 ], [ -77.18467, 38.84818 ], [ -77.18578, 38.84886 ], [ -77.18604, 38.8496 ], [ -77.18679, 38.84987 ], [ -77.18661, 38.85062 ], [ -77.18707, 38.8512 ], [ -77.18598, 38.8516 ], [ -77.18558, 38.8533 ], [ -77.18722, 38.8542 ], [ -77.18672, 38.85486 ], [ -77.18565, 38.85456 ], [ -77.18569, 38.85534 ], [ -77.18909, 38.85418 ], [ -77.19053, 38.85539 ], [ -77.19034, 38.85609 ], [ -77.18909, 38.85642 ], [ -77.18872, 38.85613 ], [ -77.1889, 38.85558 ], [ -77.18632, 38.85639 ], [ -77.18502, 38.85643 ], [ -77.18432, 38.85591 ], [ -77.18425, 38.8543 ], [ -77.18368, 38.85432 ], [ -77.18342, 38.85613 ], [ -77.18266, 38.85661 ], [ -77.18205, 38.85601 ], [ -77.1827, 38.85249 ], [ -77.18168, 38.85257 ], [ -77.1816, 38.85186 ], [ -77.17832, 38.85222 ], [ -77.17838, 38.85291 ], [ -77.18028, 38.85383 ], [ -77.17941, 38.85442 ], [ -77.17921, 38.85806 ], [ -77.17643, 38.85849 ], [ -77.17565, 38.85803 ], [ -77.17609, 38.85749 ], [ -77.17574, 38.85693 ], [ -77.17638, 38.85647 ], [ -77.17588, 38.856 ], [ -77.17605, 38.85561 ], [ -77.17791, 38.85523 ], [ -77.17584, 38.85535 ], [ -77.17567, 38.85632 ], [ -77.17496, 38.85682 ], [ -77.1742, 38.85634 ], [ -77.17448, 38.85572 ], [ -77.17418, 38.85549 ], [ -77.17406, 38.85712 ], [ -77.17339, 38.85728 ], [ -77.17332, 38.85792 ], [ -77.17194, 38.85825 ], [ -77.17869, 38.85982 ], [ -77.17809, 38.86107 ], [ -77.17767, 38.86132 ], [ -77.17693, 38.86105 ], [ -77.17638, 38.86153 ], [ -77.17604, 38.86329 ], [ -77.17387, 38.86617 ], [ -77.17293, 38.86595 ], [ -77.17049, 38.86346 ], [ -77.17045, 38.86246 ], [ -77.17131, 38.86021 ], [ -77.17063, 38.86049 ], [ -77.17058, 38.86136 ], [ -77.16969, 38.86169 ], [ -77.16778, 38.86141 ], [ -77.16549, 38.86045 ], [ -77.16561, 38.85981 ], [ -77.16743, 38.85844 ], [ -77.16509, 38.85836 ], [ -77.16497, 38.85796 ], [ -77.16556, 38.8574 ], [ -77.1649, 38.85757 ], [ -77.16418, 38.85705 ], [ -77.16497, 38.85631 ], [ -77.16363, 38.85653 ], [ -77.1628, 38.85613 ], [ -77.16311, 38.85552 ], [ -77.16457, 38.85525 ], [ -77.16453, 38.855 ], [ -77.16282, 38.85505 ], [ -77.16062, 38.85611 ], [ -77.15919, 38.85548 ], [ -77.15685, 38.85918 ], [ -77.15589, 38.85935 ], [ -77.15513, 38.8589 ], [ -77.15507, 38.85814 ], [ -77.15581, 38.85803 ], [ -77.15416, 38.85757 ], [ -77.15391, 38.85685 ], [ -77.15596, 38.85477 ], [ -77.15779, 38.85521 ], [ -77.15816, 38.8547 ], [ -77.15599, 38.85306 ], [ -77.15328, 38.85178 ], [ -77.15473, 38.85003 ], [ -77.15509, 38.84805 ], [ -77.15471, 38.84789 ], [ -77.15359, 38.8486 ], [ -77.1531, 38.84844 ], [ -77.1529, 38.84805 ], [ -77.15342, 38.84743 ], [ -77.15269, 38.84717 ], [ -77.15271, 38.84641 ], [ -77.1545, 38.84662 ], [ -77.15431, 38.84613 ], [ -77.15512, 38.8457 ], [ -77.15662, 38.84667 ], [ -77.15924, 38.8462 ], [ -77.15962, 38.84562 ], [ -77.16041, 38.84542 ], [ -77.16129, 38.8458 ], [ -77.16153, 38.84666 ], [ -77.16379, 38.84738 ], [ -77.16532, 38.84705 ], [ -77.16705, 38.84727 ], [ -77.17095, 38.84601 ], [ -77.174, 38.84673 ], [ -77.17401, 38.84546 ], [ -77.17218, 38.84565 ], [ -77.17113, 38.84484 ], [ -77.17021, 38.84507 ], [ -77.16972, 38.84561 ], [ -77.16878, 38.84542 ], [ -77.16921, 38.84432 ], [ -77.17073, 38.84381 ], [ -77.1706, 38.84348 ], [ -77.16977, 38.84388 ], [ -77.16934, 38.84364 ], [ -77.16972, 38.84253 ], [ -77.16915, 38.84206 ], [ -77.1698, 38.84133 ], [ -77.16816, 38.84133 ], [ -77.16747, 38.84079 ], [ -77.16816, 38.84025 ], [ -77.1698, 38.84025 ], [ -77.17075, 38.83831 ], [ -77.17058, 38.83709 ], [ -77.17101, 38.83685 ], [ -77.17258, 38.83671 ], [ -77.17447, 38.83801 ], [ -77.17485, 38.83908 ], [ -77.17447, 38.83977 ], [ -77.17598, 38.84292 ], [ -77.17569, 38.84386 ], [ -77.17486, 38.84382 ], [ -77.17503, 38.84428 ], [ -77.17611, 38.84456 ], [ -77.1763, 38.84405 ], [ -77.17612, 38.84116 ], [ -77.17999, 38.84048 ], [ -77.18079, 38.84067 ], [ -77.18096, 38.84118 ], [ -77.18218, 38.84098 ] ], [ [ -77.17295, 38.85704 ], [ -77.17278, 38.85658 ], [ -77.17275, 38.857 ], [ -77.17295, 38.85704 ] ], [ [ -77.17274, 38.85556 ], [ -77.17011, 38.85571 ], [ -77.17006, 38.85602 ], [ -77.17263, 38.85591 ], [ -77.17274, 38.85556 ] ], [ [ -77.17805, 38.85415 ], [ -77.17712, 38.85353 ], [ -77.17657, 38.85104 ], [ -77.17586, 38.85053 ], [ -77.17564, 38.84969 ], [ -77.17496, 38.85115 ], [ -77.17585, 38.85124 ], [ -77.1764, 38.85175 ], [ -77.17652, 38.85303 ], [ -77.17609, 38.85369 ], [ -77.17514, 38.85413 ], [ -77.1718, 38.85433 ], [ -77.1704, 38.85368 ], [ -77.17032, 38.85462 ], [ -77.17805, 38.85415 ] ], [ [ -77.17139, 38.85217 ], [ -77.17263, 38.85212 ], [ -77.17418, 38.85141 ], [ -77.17154, 38.85139 ], [ -77.17056, 38.85207 ], [ -77.17047, 38.8526 ], [ -77.17139, 38.85217 ] ], [ [ -77.17316, 38.84892 ], [ -77.17305, 38.84802 ], [ -77.17392, 38.84781 ], [ -77.17246, 38.8475 ], [ -77.17198, 38.84891 ], [ -77.17104, 38.84869 ], [ -77.17107, 38.8475 ], [ -77.16994, 38.84826 ], [ -77.17051, 38.84882 ], [ -77.17032, 38.8496 ], [ -77.17148, 38.85002 ], [ -77.17316, 38.84892 ] ], [ [ -77.17318, 38.84323 ], [ -77.17281, 38.84248 ], [ -77.17188, 38.84305 ], [ -77.17205, 38.84349 ], [ -77.17318, 38.84323 ] ], [ [ -77.17118, 38.84029 ], [ -77.17139, 38.8403 ], [ -77.17127, 38.83991 ], [ -77.17118, 38.84029 ] ], [ [ -77.17289, 38.84052 ], [ -77.17348, 38.84128 ], [ -77.17308, 38.83979 ], [ -77.17343, 38.83895 ], [ -77.17317, 38.83839 ], [ -77.17205, 38.83794 ], [ -77.17289, 38.84052 ] ], [ [ -77.182, 38.85066 ], [ -77.18037, 38.8509 ], [ -77.17986, 38.8498 ], [ -77.17989, 38.85083 ], [ -77.17947, 38.85105 ], [ -77.18123, 38.85085 ], [ -77.18172, 38.85099 ], [ -77.1818, 38.85166 ], [ -77.182, 38.85066 ] ], [ [ -77.17844, 38.8496 ], [ -77.17843, 38.8496 ], [ -77.178, 38.85116 ], [ -77.17942, 38.85106 ], [ -77.17863, 38.85064 ], [ -77.17844, 38.8496 ] ], [ [ -77.17621, 38.84773 ], [ -77.17916, 38.84709 ], [ -77.18256, 38.84725 ], [ -77.18139, 38.84573 ], [ -77.18177, 38.84447 ], [ -77.18131, 38.84434 ], [ -77.18119, 38.8457 ], [ -77.18045, 38.84622 ], [ -77.17974, 38.84607 ], [ -77.17983, 38.8452 ], [ -77.17911, 38.84535 ], [ -77.17873, 38.84507 ], [ -77.17893, 38.84386 ], [ -77.17851, 38.84525 ], [ -77.17785, 38.84584 ], [ -77.17655, 38.846 ], [ -77.17542, 38.84553 ], [ -77.17528, 38.84858 ], [ -77.17621, 38.84773 ] ], [ [ -77.18382, 38.85323 ], [ -77.18419, 38.85322 ], [ -77.18423, 38.85286 ], [ -77.18382, 38.85323 ] ], [ [ -77.18212, 38.84936 ], [ -77.18287, 38.84854 ], [ -77.18069, 38.84845 ], [ -77.18091, 38.84896 ], [ -77.18183, 38.84877 ], [ -77.18212, 38.84936 ] ], [ [ -77.17946, 38.84819 ], [ -77.17929, 38.84855 ], [ -77.17968, 38.84859 ], [ -77.17946, 38.84819 ] ], [ [ -77.18377, 38.8461 ], [ -77.18344, 38.84639 ], [ -77.18465, 38.84643 ], [ -77.18475, 38.84515 ], [ -77.18377, 38.8461 ] ], [ [ -77.18125, 38.84227 ], [ -77.18136, 38.84235 ], [ -77.18138, 38.84228 ], [ -77.18125, 38.84227 ] ], [ [ -77.18307, 38.84484 ], [ -77.18276, 38.84536 ], [ -77.1833, 38.84486 ], [ -77.18307, 38.84484 ] ], [ [ -77.18465, 38.8499 ], [ -77.18453, 38.84992 ], [ -77.18464, 38.85018 ], [ -77.18465, 38.8499 ] ], [ [ -77.18373, 38.8496 ], [ -77.18373, 38.84944 ], [ -77.18358, 38.84959 ], [ -77.18373, 38.8496 ] ], [ [ -77.18347, 38.85082 ], [ -77.18364, 38.85068 ], [ -77.18339, 38.85066 ], [ -77.18347, 38.85109 ], [ -77.18347, 38.85082 ] ], [ [ -77.17913, 38.84269 ], [ -77.17921, 38.84269 ], [ -77.17929, 38.84246 ], [ -77.17913, 38.84269 ] ], [ [ -77.17757, 38.84359 ], [ -77.17759, 38.84355 ], [ -77.17753, 38.84356 ], [ -77.17757, 38.84359 ] ], [ [ -77.17805, 38.84193 ], [ -77.17742, 38.84198 ], [ -77.17748, 38.84241 ], [ -77.17805, 38.84193 ] ], [ [ -77.1743, 38.84244 ], [ -77.17461, 38.84323 ], [ -77.17459, 38.84294 ], [ -77.1743, 38.84244 ] ], [ [ -77.1733, 38.84452 ], [ -77.1737, 38.84456 ], [ -77.17358, 38.84426 ], [ -77.17248, 38.84458 ], [ -77.1733, 38.84452 ] ], [ [ -77.17413, 38.8497 ], [ -77.17304, 38.85041 ], [ -77.17374, 38.85036 ], [ -77.17413, 38.8497 ] ], [ [ -77.17198, 38.85318 ], [ -77.17488, 38.85306 ], [ -77.17509, 38.85225 ], [ -77.17346, 38.85301 ], [ -77.17198, 38.85318 ] ], [ [ -77.17212, 38.86247 ], [ -77.17289, 38.86159 ], [ -77.17228, 38.86147 ], [ -77.1718, 38.86274 ], [ -77.17212, 38.86247 ] ], [ [ -77.17701, 38.86037 ], [ -77.17503, 38.85998 ], [ -77.17583, 38.86054 ], [ -77.17686, 38.86071 ], [ -77.17701, 38.86037 ] ], [ [ -77.17352, 38.86461 ], [ -77.17387, 38.86415 ], [ -77.17371, 38.86428 ], [ -77.17352, 38.86461 ] ], [ [ -77.1715, 38.84157 ], [ -77.17163, 38.84151 ], [ -77.17127, 38.84147 ], [ -77.17139, 38.8418 ], [ -77.1715, 38.84157 ] ], [ [ -77.16946, 38.86028 ], [ -77.16731, 38.86001 ], [ -77.16776, 38.86022 ], [ -77.16946, 38.86028 ] ], [ [ -77.1709, 38.85945 ], [ -77.17139, 38.86001 ], [ -77.17166, 38.85931 ], [ -77.16903, 38.8588 ], [ -77.16897, 38.85907 ], [ -77.1709, 38.85945 ] ], [ [ -77.16896, 38.85437 ], [ -77.1681, 38.85512 ], [ -77.16742, 38.85451 ], [ -77.16898, 38.85268 ], [ -77.16868, 38.85255 ], [ -77.1675, 38.85398 ], [ -77.16607, 38.85412 ], [ -77.16595, 38.85443 ], [ -77.16633, 38.85481 ], [ -77.166, 38.85556 ], [ -77.1668, 38.85692 ], [ -77.16735, 38.8559 ], [ -77.16787, 38.85581 ], [ -77.16832, 38.85603 ], [ -77.1684, 38.85754 ], [ -77.16896, 38.85437 ] ], [ [ -77.16683, 38.85045 ], [ -77.1658, 38.85092 ], [ -77.16572, 38.85159 ], [ -77.16659, 38.85225 ], [ -77.16648, 38.85309 ], [ -77.16714, 38.85245 ], [ -77.16666, 38.85101 ], [ -77.16758, 38.85084 ], [ -77.16683, 38.85045 ] ], [ [ -77.16187, 38.851 ], [ -77.1618, 38.8513 ], [ -77.16435, 38.85143 ], [ -77.16438, 38.85117 ], [ -77.16187, 38.851 ] ], [ [ -77.16246, 38.84937 ], [ -77.16243, 38.84851 ], [ -77.16211, 38.84993 ], [ -77.16241, 38.84998 ], [ -77.16246, 38.84937 ] ], [ [ -77.17131, 38.85704 ], [ -77.17139, 38.85754 ], [ -77.17071, 38.85801 ], [ -77.17176, 38.85822 ], [ -77.17131, 38.85704 ] ], [ [ -77.16994, 38.85748 ], [ -77.16987, 38.85711 ], [ -77.16975, 38.85783 ], [ -77.17051, 38.85797 ], [ -77.16994, 38.85748 ] ], [ [ -77.1704, 38.85071 ], [ -77.16908, 38.8501 ], [ -77.16886, 38.85042 ], [ -77.16933, 38.85157 ], [ -77.1704, 38.85071 ] ], [ [ -77.1695, 38.84818 ], [ -77.1691, 38.84779 ], [ -77.16836, 38.84785 ], [ -77.16878, 38.84834 ], [ -77.1695, 38.84818 ] ], [ [ -77.16874, 38.86032 ], [ -77.16867, 38.86029 ], [ -77.16867, 38.8603 ], [ -77.16874, 38.86032 ] ], [ [ -77.16643, 38.84847 ], [ -77.16534, 38.8499 ], [ -77.16618, 38.84944 ], [ -77.16694, 38.84836 ], [ -77.16643, 38.84847 ] ], [ [ -77.16775, 38.84936 ], [ -77.16761, 38.84956 ], [ -77.16781, 38.84967 ], [ -77.16775, 38.84936 ] ], [ [ -77.16427, 38.8492 ], [ -77.16382, 38.84847 ], [ -77.16379, 38.8501 ], [ -77.16427, 38.8492 ] ], [ [ -77.16143, 38.85414 ], [ -77.16048, 38.8549 ], [ -77.16119, 38.85519 ], [ -77.16143, 38.85414 ] ], [ [ -77.16351, 38.85362 ], [ -77.16247, 38.85341 ], [ -77.16322, 38.85402 ], [ -77.16471, 38.8539 ], [ -77.16351, 38.85362 ] ], [ [ -77.16514, 38.85282 ], [ -77.16522, 38.85262 ], [ -77.16363, 38.85243 ], [ -77.1626, 38.85232 ], [ -77.16514, 38.85282 ] ], [ [ -77.1587, 38.85345 ], [ -77.15864, 38.85346 ], [ -77.15866, 38.85347 ], [ -77.1587, 38.85345 ] ], [ [ -77.15616, 38.8519 ], [ -77.15629, 38.85166 ], [ -77.15615, 38.85172 ], [ -77.15616, 38.8519 ] ], [ [ -77.15982, 38.84987 ], [ -77.15979, 38.84993 ], [ -77.16073, 38.84986 ], [ -77.16071, 38.84961 ], [ -77.15982, 38.84987 ] ], [ [ -77.15619, 38.84984 ], [ -77.15604, 38.85038 ], [ -77.15669, 38.84967 ], [ -77.15615, 38.84916 ], [ -77.15619, 38.84984 ] ], [ [ -77.15997, 38.84829 ], [ -77.15999, 38.84822 ], [ -77.15989, 38.84819 ], [ -77.15997, 38.84829 ] ], [ [ -77.15865, 38.8485 ], [ -77.15876, 38.84818 ], [ -77.15829, 38.84824 ], [ -77.15865, 38.8485 ] ], [ [ -77.15834, 38.85163 ], [ -77.15845, 38.85219 ], [ -77.15919, 38.85093 ], [ -77.15834, 38.85163 ] ], [ [ -77.1578, 38.85063 ], [ -77.15792, 38.85048 ], [ -77.15774, 38.85038 ], [ -77.15734, 38.85083 ], [ -77.1578, 38.85063 ] ], [ [ -77.15975, 38.85444 ], [ -77.15976, 38.85417 ], [ -77.15954, 38.8543 ], [ -77.15975, 38.85444 ] ], [ [ -77.15565, 38.85667 ], [ -77.15658, 38.85713 ], [ -77.15716, 38.85618 ], [ -77.15643, 38.85595 ], [ -77.15565, 38.85667 ] ] ], [ [ [ -77.17764, 38.86959 ], [ -77.17724, 38.86986 ], [ -77.17531, 38.87019 ], [ -77.17525, 38.87165 ], [ -77.17452, 38.87216 ], [ -77.17387, 38.87159 ], [ -77.17392, 38.87042 ], [ -77.17214, 38.87072 ], [ -77.17131, 38.87031 ], [ -77.17141, 38.8699 ], [ -77.17267, 38.86922 ], [ -77.17397, 38.86892 ], [ -77.17049, 38.86968 ], [ -77.16966, 38.86928 ], [ -77.17052, 38.86705 ], [ -77.17213, 38.86623 ], [ -77.17367, 38.86776 ], [ -77.17535, 38.86789 ], [ -77.17536, 38.86879 ], [ -77.17678, 38.86855 ], [ -77.17757, 38.86891 ], [ -77.17764, 38.86959 ] ], [ [ -77.17141, 38.86814 ], [ -77.17168, 38.86832 ], [ -77.17235, 38.86816 ], [ -77.17179, 38.86752 ], [ -77.17141, 38.86814 ] ] ] ] } }
]
}
