{
"type": "FeatureCollection",
"name": "107",
"crs": { "type": "name", "properties": { "name": "urn:ogc:def:crs:OGC:1.3:CRS84" } },
"xy_coordinate_resolution": 1e-05,
"features": [
{ "type": "Feature", "properties": { "variant": "T0", "miles": 0.5 }, "geometry": { "type": "Polygon", "coordinates": [ [ [ -77.15529, 38.86511 ], [ -77.15796, 38.86242 ], [ -77.15893, 38.86251 ], [ -77.15881, 38.86326 ], [ -77.15644, 38.86572 ], [ -77.15746, 38.86756 ], [ -77.15845, 38.86718 ], [ -77.15958, 38.86824 ], [ -77.15891, 38.86935 ], [ -77.15903, 38.86997 ], [ -77.15696, 38.87164 ], [ -77.15793, 38.87184 ], [ -77.15811, 38.87271 ], [ -77.15899, 38.87333 ], [ -77.15866, 38.87387 ], [ -77.15736, 38.87429 ], [ -77.15548, 38.87294 ], [ -77.15432, 38.87294 ], [ -77.15261, 38.87191 ], [ -77.1523, 38.8713 ], [ -77.14998, 38.87017 ], [ -77.15046, 38.8695 ], [ -77.15227, 38.87007 ], [ -77.15015, 38.86819 ], [ -77.15021, 38.86743 ], [ -77.15071, 38.8673 ], [ -77.15153, 38.86778 ], [ -77.15055, 38.86653 ], [ -77.14794, 38.86774 ], [ -77.14707, 38.86739 ], [ -77.14743, 38.86657 ], [ -77.14857, 38.866 ], [ -77.14773, 38.86505 ], [ -77.14815, 38.86453 ], [ -77.14881, 38.86452 ], [ -77.14799, 38.8635 ], [ -77.1483, 38.86277 ], [ -77.14904, 38.86263 ], [ -77.15016, 38.86377 ], [ -77.15234, 38.86258 ], [ -77.15343, 38.8633 ], [ -77.15304, 38.86425 ], [ -77.15385, 38.86429 ], [ -77.15529, 38.86511 ] ], [ [ -77.15567, 38.86891 ], [ -77.15642, 38.86828 ], [ -77.15623, 38.86809 ], [ -77.15539, 38.86864 ], [ -77.15567, 38.86891 ] ], [ [ -77.15414, 38.86859 ], [ -77.15488, 38.86775 ], [ -77.15552, 38.86689 ], [ -77.15413, 38.86774 ], [ -77.15343, 38.86767 ], [ -77.15414, 38.86859 ] ], [ [ -77.15611, 38.87025 ], [ -77.15704, 38.86935 ], [ -77.15596, 38.87013 ], [ -77.15611, 38.87025 ] ], [ [ -77.15304, 38.86717 ], [ -77.15403, 38.86653 ], [ -77.15337, 38.86615 ], [ -77.1535, 38.86537 ], [ -77.15235, 38.86631 ], [ -77.15304, 38.86717 ] ] ] } },
{ "type": "Feature", "properties": { "variant": "T0", "miles": 1.0 }, "geometry": { "type": "Polygon", "coordinates": [ [ [ -77.1658, 38.86116 ], [ -77.16446, 38.86302 ], [ -77.16579, 38.86377 ], [ -77.16594, 38.86452 ], [ -77.16497, 38.86464 ], [ -77.16365, 38.86389 ], [ -77.16236, 38.86527 ], [ -77.16372, 38.86449 ], [ -77.16476, 38.8648 ], [ -77.16572, 38.86815 ], [ -77.16503, 38.86869 ], [ -77.16453, 38.86853 ], [ -77.16423, 38.86916 ], [ -77.16678, 38.86872 ], [ -77.16761, 38.86981 ], [ -77.16771, 38.87022 ], [ -77.16688, 38.87088 ], [ -77.1679, 38.8719 ], [ -77.16626, 38.87608 ], [ -77.16689, 38.87651 ], [ -77.16685, 38.87693 ], [ -77.16645, 38.87719 ], [ -77.16562, 38.87704 ], [ -77.16485, 38.87752 ], [ -77.16526, 38.87798 ], [ -77.16464, 38.87857 ], [ -77.16225, 38.8773 ], [ -77.16195, 38.87744 ], [ -77.1629, 38.87832 ], [ -77.16218, 38.87884 ], [ -77.16049, 38.87769 ], [ -77.15946, 38.87744 ], [ -77.15872, 38.87661 ], [ -77.15774, 38.87658 ], [ -77.15553, 38.87794 ], [ -77.15569, 38.8787 ], [ -77.15528, 38.87896 ], [ -77.1546, 38.87878 ], [ -77.15486, 38.87973 ], [ -77.15434, 38.88038 ], [ -77.15233, 38.87919 ], [ -77.15306, 38.87865 ], [ -77.15163, 38.87392 ], [ -77.14782, 38.87394 ], [ -77.14771, 38.87503 ], [ -77.14684, 38.8762 ], [ -77.14644, 38.87648 ], [ -77.14556, 38.87615 ], [ -77.14517, 38.87527 ], [ -77.14541, 38.87382 ], [ -77.1439, 38.87367 ], [ -77.14332, 38.87324 ], [ -77.14558, 38.87095 ], [ -77.14526, 38.86985 ], [ -77.14564, 38.86904 ], [ -77.14022, 38.86699 ], [ -77.13892, 38.86591 ], [ -77.13964, 38.86539 ], [ -77.14248, 38.86599 ], [ -77.14243, 38.86506 ], [ -77.14348, 38.86524 ], [ -77.14439, 38.86448 ], [ -77.1437, 38.86337 ], [ -77.14464, 38.86301 ], [ -77.14473, 38.86262 ], [ -77.14297, 38.86212 ], [ -77.14246, 38.86154 ], [ -77.14434, 38.8593 ], [ -77.14249, 38.85886 ], [ -77.14302, 38.85766 ], [ -77.1439, 38.85749 ], [ -77.14723, 38.85973 ], [ -77.14787, 38.85962 ], [ -77.14981, 38.85834 ], [ -77.15067, 38.8572 ], [ -77.1511, 38.85696 ], [ -77.15212, 38.85719 ], [ -77.15278, 38.8553 ], [ -77.15349, 38.85488 ], [ -77.15572, 38.85572 ], [ -77.15565, 38.85667 ], [ -77.15747, 38.85767 ], [ -77.15729, 38.8585 ], [ -77.1587, 38.85685 ], [ -77.16009, 38.85686 ], [ -77.16113, 38.85872 ], [ -77.16093, 38.85922 ], [ -77.16366, 38.86059 ], [ -77.16405, 38.86159 ], [ -77.16498, 38.86074 ], [ -77.1658, 38.86116 ] ], [ [ -77.15429, 38.87732 ], [ -77.15648, 38.87613 ], [ -77.15792, 38.87479 ], [ -77.15504, 38.87281 ], [ -77.15309, 38.87358 ], [ -77.15429, 38.87732 ] ], [ [ -77.15414, 38.86859 ], [ -77.15482, 38.86829 ], [ -77.15552, 38.86689 ], [ -77.15413, 38.86774 ], [ -77.15343, 38.86767 ], [ -77.15414, 38.86859 ] ], [ [ -77.15317, 38.86734 ], [ -77.15403, 38.86653 ], [ -77.15337, 38.86615 ], [ -77.1535, 38.86537 ], [ -77.15235, 38.86631 ], [ -77.15317, 38.86734 ] ], [ [ -77.15411, 38.86268 ], [ -77.15372, 38.86287 ], [ -77.15365, 38.86327 ], [ -77.15411, 38.86268 ] ], [ [ -77.15216, 38.85933 ], [ -77.15309, 38.85814 ], [ -77.15152, 38.8582 ], [ -77.15105, 38.85882 ], [ -77.15216, 38.85933 ] ], [ [ -77.16002, 38.8735 ], [ -77.16135, 38.87271 ], [ -77.15904, 38.87309 ], [ -77.16002, 38.8735 ] ], [ [ -77.16041, 38.87026 ], [ -77.16041, 38.87027 ], [ -77.16042, 38.87028 ], [ -77.16041, 38.87026 ] ], [ [ -77.15984, 38.86625 ], [ -77.15825, 38.86705 ], [ -77.15744, 38.86754 ], [ -77.15845, 38.86718 ], [ -77.15891, 38.86738 ], [ -77.15984, 38.86625 ] ], [ [ -77.15874, 38.8622 ], [ -77.15886, 38.8614 ], [ -77.15989, 38.86155 ], [ -77.16056, 38.86114 ], [ -77.1599, 38.86085 ], [ -77.15917, 38.86113 ], [ -77.15823, 38.86188 ], [ -77.15874, 38.8622 ] ], [ [ -77.15834, 38.85924 ], [ -77.15948, 38.8587 ], [ -77.15918, 38.85815 ], [ -77.15834, 38.85924 ] ], [ [ -77.16239, 38.86322 ], [ -77.16192, 38.86349 ], [ -77.16134, 38.86351 ], [ -77.16199, 38.86383 ], [ -77.16239, 38.86322 ] ], [ [ -77.16277, 38.86206 ], [ -77.16261, 38.86138 ], [ -77.16117, 38.86053 ], [ -77.16085, 38.86108 ], [ -77.16171, 38.86118 ], [ -77.16277, 38.86206 ] ], [ [ -77.1631, 38.87414 ], [ -77.16254, 38.87454 ], [ -77.16278, 38.87463 ], [ -77.1631, 38.87414 ] ], [ [ -77.16203, 38.87105 ], [ -77.16326, 38.87085 ], [ -77.16317, 38.8705 ], [ -77.16195, 38.87076 ], [ -77.16203, 38.87105 ] ], [ [ -77.16292, 38.86837 ], [ -77.16106, 38.86864 ], [ -77.1607, 38.86852 ], [ -77.16119, 38.86873 ], [ -77.16292, 38.86837 ] ], [ [ -77.16266, 38.86696 ], [ -77.16383, 38.86745 ], [ -77.16158, 38.86617 ], [ -77.16266, 38.86696 ] ], [ [ -77.16367, 38.86602 ], [ -77.16382, 38.86599 ], [ -77.1638, 38.86589 ], [ -77.16367, 38.86602 ] ], [ [ -77.16607, 38.87 ], [ -77.16451, 38.87022 ], [ -77.16462, 38.87064 ], [ -77.16507, 38.87055 ], [ -77.16607, 38.87 ] ], [ [ -77.16044, 38.86318 ], [ -77.16017, 38.86318 ], [ -77.16068, 38.86331 ], [ -77.16044, 38.86318 ] ], [ [ -77.16137, 38.86753 ], [ -77.16078, 38.86712 ], [ -77.15989, 38.86817 ], [ -77.16056, 38.86847 ], [ -77.16057, 38.86772 ], [ -77.16137, 38.86753 ] ], [ [ -77.16201, 38.87579 ], [ -77.16125, 38.87522 ], [ -77.16064, 38.87498 ], [ -77.16201, 38.87579 ] ], [ [ -77.15611, 38.87025 ], [ -77.15704, 38.86935 ], [ -77.15596, 38.87013 ], [ -77.15611, 38.87025 ] ], [ [ -77.15563, 38.86895 ], [ -77.15623, 38.86809 ], [ -77.15539, 38.86864 ], [ -77.15563, 38.86895 ] ], [ [ -77.15683, 38.86654 ], [ -77.15756, 38.86612 ], [ -77.15706, 38.86617 ], [ -77.15658, 38.86555 ], [ -77.15683, 38.86654 ] ], [ [ -77.15426, 38.86459 ], [ -77.15798, 38.86029 ], [ -77.15761, 38.86022 ], [ -77.15426, 38.86459 ] ], [ [ -77.15645, 38.85963 ], [ -77.15628, 38.85968 ], [ -77.15625, 38.85989 ], [ -77.15645, 38.85963 ] ], [ [ -77.15783, 38.86472 ], [ -77.15741, 38.86448 ], [ -77.15676, 38.86531 ], [ -77.15689, 38.86518 ], [ -77.15783, 38.86472 ] ], [ [ -77.15728, 38.87167 ], [ -77.15762, 38.87167 ], [ -77.15817, 38.87166 ], [ -77.15747, 38.8713 ], [ -77.15728, 38.87167 ] ], [ [ -77.15572, 38.86057 ], [ -77.155, 38.86076 ], [ -77.15514, 38.86133 ], [ -77.15572, 38.86057 ] ], [ [ -77.15504, 38.85768 ], [ -77.15479, 38.8578 ], [ -77.15511, 38.85768 ], [ -77.15504, 38.85768 ] ], [ [ -77.15365, 38.85711 ], [ -77.15431, 38.85631 ], [ -77.15395, 38.85614 ], [ -77.15365, 38.85711 ] ], [ [ -77.15449, 38.85827 ], [ -77.15451, 38.85828 ], [ -77.15449, 38.85825 ], [ -77.15449, 38.85827 ] ], [ [ -77.14895, 38.87104 ], [ -77.14931, 38.87054 ], [ -77.14699, 38.86959 ], [ -77.14691, 38.87017 ], [ -77.14895, 38.87104 ] ], [ [ -77.14792, 38.86824 ], [ -77.15227, 38.87007 ], [ -77.15015, 38.86819 ], [ -77.15021, 38.86743 ], [ -77.15071, 38.8673 ], [ -77.15153, 38.86778 ], [ -77.15055, 38.86653 ], [ -77.14858, 38.86719 ], [ -77.14792, 38.86824 ] ], [ [ -77.14769, 38.86637 ], [ -77.14857, 38.866 ], [ -77.14779, 38.86483 ], [ -77.14881, 38.86452 ], [ -77.14733, 38.86249 ], [ -77.14699, 38.86277 ], [ -77.14746, 38.86339 ], [ -77.14613, 38.86459 ], [ -77.14657, 38.86543 ], [ -77.14472, 38.86691 ], [ -77.14615, 38.8675 ], [ -77.14555, 38.86683 ], [ -77.14572, 38.86644 ], [ -77.14769, 38.86637 ] ], [ [ -77.15016, 38.86377 ], [ -77.15154, 38.86324 ], [ -77.15175, 38.8627 ], [ -77.15049, 38.86294 ], [ -77.1491, 38.8621 ], [ -77.15016, 38.86377 ] ], [ [ -77.15037, 38.86105 ], [ -77.15022, 38.86058 ], [ -77.14946, 38.86104 ], [ -77.14966, 38.86127 ], [ -77.15037, 38.86105 ] ], [ [ -77.15227, 38.86259 ], [ -77.15224, 38.86242 ], [ -77.15195, 38.86262 ], [ -77.15227, 38.86259 ] ], [ [ -77.15224, 38.87176 ], [ -77.15242, 38.87263 ], [ -77.15338, 38.87223 ], [ -77.15224, 38.87176 ] ], [ [ -77.14535, 38.86366 ], [ -77.14566, 38.86332 ], [ -77.14514, 38.86341 ], [ -77.14535, 38.86366 ] ], [ [ -77.14648, 38.86163 ], [ -77.1463, 38.86106 ], [ -77.14558, 38.86176 ], [ -77.14596, 38.86205 ], [ -77.14648, 38.86163 ] ], [ [ -77.14471, 38.86055 ], [ -77.1447, 38.86054 ], [ -77.14469, 38.86055 ], [ -77.14471, 38.86055 ] ] ] } },
{ "type": "Feature", "properties": { "variant": "T0", "miles": 1.5 }, "geometry": { "type": "Polygon", "coordinates": [ [ [ -77.16917, 38.85471 ], [ -77.17013, 38.85489 ], [ -77.17006, 38.85602 ], [ -77.17108, 38.85612 ], [ -77.17131, 38.8565 ], [ -77.17114, 38.85689 ], [ -77.16987, 38.85711 ], [ -77.16975, 38.85783 ], [ -77.17268, 38.85842 ], [ -77.1732, 38.85907 ], [ -77.17237, 38.85947 ], [ -77.16903, 38.8588 ], [ -77.1687, 38.85902 ], [ -77.17133, 38.8597 ], [ -77.1714, 38.86011 ], [ -77.17063, 38.86049 ], [ -77.17069, 38.86124 ], [ -77.16995, 38.86164 ], [ -77.16859, 38.8616 ], [ -77.1663, 38.86084 ], [ -77.16607, 38.86112 ], [ -77.17036, 38.86396 ], [ -77.17367, 38.86776 ], [ -77.17412, 38.86659 ], [ -77.17505, 38.86635 ], [ -77.1754, 38.86666 ], [ -77.17536, 38.86879 ], [ -77.17722, 38.8686 ], [ -77.17766, 38.86912 ], [ -77.1772, 38.86974 ], [ -77.17531, 38.87006 ], [ -77.17502, 38.87202 ], [ -77.17405, 38.87198 ], [ -77.17391, 38.87061 ], [ -77.17264, 38.87082 ], [ -77.17288, 38.87154 ], [ -77.1718, 38.87302 ], [ -77.17116, 38.87329 ], [ -77.17082, 38.87434 ], [ -77.17132, 38.87588 ], [ -77.17224, 38.87597 ], [ -77.17228, 38.87747 ], [ -77.17309, 38.87714 ], [ -77.17401, 38.87741 ], [ -77.17392, 38.87918 ], [ -77.17478, 38.87951 ], [ -77.17458, 38.88026 ], [ -77.17384, 38.88029 ], [ -77.17361, 38.88092 ], [ -77.1704, 38.88351 ], [ -77.16944, 38.88336 ], [ -77.17001, 38.88225 ], [ -77.16938, 38.88185 ], [ -77.16776, 38.88322 ], [ -77.16544, 38.88421 ], [ -77.16422, 38.8833 ], [ -77.16278, 38.88382 ], [ -77.1623, 38.88364 ], [ -77.16214, 38.88325 ], [ -77.16293, 38.8826 ], [ -77.15975, 38.88183 ], [ -77.16001, 38.88378 ], [ -77.16069, 38.88416 ], [ -77.16069, 38.88457 ], [ -77.16031, 38.88486 ], [ -77.15766, 38.88503 ], [ -77.15707, 38.88566 ], [ -77.15692, 38.88672 ], [ -77.15621, 38.88699 ], [ -77.15565, 38.88661 ], [ -77.15488, 38.88399 ], [ -77.15401, 38.88423 ], [ -77.15364, 38.88317 ], [ -77.15224, 38.88229 ], [ -77.1526, 38.8834 ], [ -77.15226, 38.88372 ], [ -77.15174, 38.88376 ], [ -77.15103, 38.88306 ], [ -77.14997, 38.88307 ], [ -77.14991, 38.88225 ], [ -77.14935, 38.8822 ], [ -77.14869, 38.88271 ], [ -77.14817, 38.88264 ], [ -77.14793, 38.88201 ], [ -77.14671, 38.88183 ], [ -77.14682, 38.8832 ], [ -77.14586, 38.88334 ], [ -77.14532, 38.88192 ], [ -77.14237, 38.88105 ], [ -77.14217, 38.88013 ], [ -77.1394, 38.87952 ], [ -77.13961, 38.87867 ], [ -77.13894, 38.87836 ], [ -77.13859, 38.87805 ], [ -77.13907, 38.87698 ], [ -77.13835, 38.87686 ], [ -77.13761, 38.87593 ], [ -77.13683, 38.87603 ], [ -77.1361, 38.87503 ], [ -77.13515, 38.87457 ], [ -77.13571, 38.87391 ], [ -77.13988, 38.87311 ], [ -77.13957, 38.87228 ], [ -77.13688, 38.87271 ], [ -77.13534, 38.87048 ], [ -77.13493, 38.86899 ], [ -77.13241, 38.86881 ], [ -77.1321, 38.86847 ], [ -77.13255, 38.8676 ], [ -77.13216, 38.86691 ], [ -77.13084, 38.86695 ], [ -77.12997, 38.86632 ], [ -77.13063, 38.86576 ], [ -77.13211, 38.86571 ], [ -77.13206, 38.86472 ], [ -77.13273, 38.86416 ], [ -77.13344, 38.86468 ], [ -77.13348, 38.86547 ], [ -77.13509, 38.86397 ], [ -77.13562, 38.86395 ], [ -77.13603, 38.86464 ], [ -77.13557, 38.86536 ], [ -77.13627, 38.86502 ], [ -77.13879, 38.86538 ], [ -77.13839, 38.86477 ], [ -77.13872, 38.86444 ], [ -77.13975, 38.86453 ], [ -77.14037, 38.86359 ], [ -77.13883, 38.86291 ], [ -77.13821, 38.86392 ], [ -77.13724, 38.86405 ], [ -77.13696, 38.8637 ], [ -77.13751, 38.86237 ], [ -77.13572, 38.86198 ], [ -77.1355, 38.86161 ], [ -77.13718, 38.86025 ], [ -77.13652, 38.85956 ], [ -77.13658, 38.8581 ], [ -77.13745, 38.85751 ], [ -77.13839, 38.85776 ], [ -77.13899, 38.85638 ], [ -77.13474, 38.85405 ], [ -77.13466, 38.85323 ], [ -77.13559, 38.8531 ], [ -77.13659, 38.85363 ], [ -77.13661, 38.85317 ], [ -77.13738, 38.85296 ], [ -77.13787, 38.85232 ], [ -77.13995, 38.85309 ], [ -77.14085, 38.85224 ], [ -77.14195, 38.8526 ], [ -77.14309, 38.85143 ], [ -77.14617, 38.8527 ], [ -77.14745, 38.85151 ], [ -77.14978, 38.8523 ], [ -77.15166, 38.8518 ], [ -77.1526, 38.85226 ], [ -77.15299, 38.85346 ], [ -77.15779, 38.85521 ], [ -77.15816, 38.8547 ], [ -77.15574, 38.85269 ], [ -77.15649, 38.85137 ], [ -77.15705, 38.85097 ], [ -77.15801, 38.85111 ], [ -77.15729, 38.85258 ], [ -77.15866, 38.85347 ], [ -77.15951, 38.85294 ], [ -77.16035, 38.85127 ], [ -77.1613, 38.85109 ], [ -77.16153, 38.85184 ], [ -77.16082, 38.8533 ], [ -77.15954, 38.8543 ], [ -77.16141, 38.85532 ], [ -77.16147, 38.85574 ], [ -77.16062, 38.85611 ], [ -77.15919, 38.85548 ], [ -77.15866, 38.8562 ], [ -77.16022, 38.85698 ], [ -77.16113, 38.85872 ], [ -77.16093, 38.85922 ], [ -77.16366, 38.86059 ], [ -77.16405, 38.86159 ], [ -77.16743, 38.85844 ], [ -77.16509, 38.85836 ], [ -77.16497, 38.85796 ], [ -77.16557, 38.85743 ], [ -77.16547, 38.8565 ], [ -77.16642, 38.85632 ], [ -77.16693, 38.85702 ], [ -77.16707, 38.85626 ], [ -77.16787, 38.85581 ], [ -77.16832, 38.85603 ], [ -77.1684, 38.85754 ], [ -77.16917, 38.85471 ] ], [ [ -77.15429, 38.87732 ], [ -77.15648, 38.87613 ], [ -77.15792, 38.87479 ], [ -77.15504, 38.87281 ], [ -77.15309, 38.87358 ], [ -77.15429, 38.87732 ] ], [ [ -77.14792, 38.86824 ], [ -77.15227, 38.87007 ], [ -77.15015, 38.86819 ], [ -77.15021, 38.86743 ], [ -77.15071, 38.8673 ], [ -77.15153, 38.86778 ], [ -77.15055, 38.86653 ], [ -77.14858, 38.86719 ], [ -77.14792, 38.86824 ] ], [ [ -77.15016, 38.86374 ], [ -77.15154, 38.86324 ], [ -77.15175, 38.8627 ], [ -77.15049, 38.86294 ], [ -77.14931, 38.86199 ], [ -77.15016, 38.86374 ] ], [ [ -77.15037, 38.86114 ], [ -77.15022, 38.86058 ], [ -77.14946, 38.86104 ], [ -77.14966, 38.86127 ], [ -77.15037, 38.86114 ] ], [ [ -77.14904, 38.85877 ], [ -77.15093, 38.85686 ], [ -77.14838, 38.85565 ], [ -77.14759, 38.85621 ], [ -77.14657, 38.85602 ], [ -77.1455, 38.85638 ], [ -77.14451, 38.85781 ], [ -77.14566, 38.85844 ], [ -77.14649, 38.8576 ], [ -77.1476, 38.85737 ], [ -77.14904, 38.85877 ] ], [ [ -77.14936, 38.85483 ], [ -77.15245, 38.85652 ], [ -77.15293, 38.85512 ], [ -77.15378, 38.85488 ], [ -77.15008, 38.85362 ], [ -77.14936, 38.85483 ] ], [ [ -77.16574, 38.88291 ], [ -77.16698, 38.88232 ], [ -77.16831, 38.88116 ], [ -77.16788, 38.88088 ], [ -77.16611, 38.88257 ], [ -77.1653, 38.88263 ], [ -77.16574, 38.88291 ] ], [ [ -77.16583, 38.88116 ], [ -77.16681, 38.88019 ], [ -77.16637, 38.8799 ], [ -77.16583, 38.88116 ] ], [ [ -77.16405, 38.88185 ], [ -77.16494, 38.87984 ], [ -77.16346, 38.8816 ], [ -77.16405, 38.88185 ] ], [ [ -77.16515, 38.87934 ], [ -77.16524, 38.87916 ], [ -77.16507, 38.87905 ], [ -77.16515, 38.87934 ] ], [ [ -77.16588, 38.87814 ], [ -77.16578, 38.87811 ], [ -77.16586, 38.87816 ], [ -77.16588, 38.87814 ] ], [ [ -77.16201, 38.87579 ], [ -77.16214, 38.87559 ], [ -77.16064, 38.87498 ], [ -77.16201, 38.87579 ] ], [ [ -77.16002, 38.8735 ], [ -77.16135, 38.87271 ], [ -77.15904, 38.87309 ], [ -77.16002, 38.8735 ] ], [ [ -77.16041, 38.87026 ], [ -77.16041, 38.87027 ], [ -77.16042, 38.87028 ], [ -77.16041, 38.87026 ] ], [ [ -77.1607, 38.86852 ], [ -77.16119, 38.86873 ], [ -77.16292, 38.86837 ], [ -77.1607, 38.86852 ] ], [ [ -77.16057, 38.86772 ], [ -77.16142, 38.86755 ], [ -77.16078, 38.86712 ], [ -77.15989, 38.86817 ], [ -77.16056, 38.86847 ], [ -77.16057, 38.86772 ] ], [ [ -77.16064, 38.86329 ], [ -77.16039, 38.86314 ], [ -77.16021, 38.86299 ], [ -77.16017, 38.86318 ], [ -77.16064, 38.86329 ] ], [ [ -77.15886, 38.8614 ], [ -77.16056, 38.86114 ], [ -77.1599, 38.86085 ], [ -77.15917, 38.86113 ], [ -77.15823, 38.86188 ], [ -77.15876, 38.86238 ], [ -77.15886, 38.8614 ] ], [ [ -77.16946, 38.87976 ], [ -77.16835, 38.87923 ], [ -77.16799, 38.87955 ], [ -77.16946, 38.87976 ] ], [ [ -77.16994, 38.8776 ], [ -77.17092, 38.87723 ], [ -77.171, 38.87645 ], [ -77.16955, 38.87694 ], [ -77.16994, 38.8776 ] ], [ [ -77.16462, 38.87064 ], [ -77.166, 38.86991 ], [ -77.16451, 38.87022 ], [ -77.16462, 38.87064 ] ], [ [ -77.16647, 38.86763 ], [ -77.16936, 38.86472 ], [ -77.16838, 38.86391 ], [ -77.16686, 38.8656 ], [ -77.16648, 38.86721 ], [ -77.16559, 38.8679 ], [ -77.16552, 38.86853 ], [ -77.16453, 38.86853 ], [ -77.16423, 38.86916 ], [ -77.16606, 38.86877 ], [ -77.16647, 38.86763 ] ], [ [ -77.1653, 38.86601 ], [ -77.16735, 38.86318 ], [ -77.16532, 38.86203 ], [ -77.16684, 38.86323 ], [ -77.16602, 38.86371 ], [ -77.16446, 38.86302 ], [ -77.16579, 38.86377 ], [ -77.16594, 38.86452 ], [ -77.16497, 38.86464 ], [ -77.16365, 38.86389 ], [ -77.16236, 38.86527 ], [ -77.16347, 38.86455 ], [ -77.16428, 38.86452 ], [ -77.16494, 38.865 ], [ -77.1653, 38.86601 ] ], [ [ -77.16776, 38.86022 ], [ -77.16946, 38.86028 ], [ -77.16731, 38.86001 ], [ -77.16776, 38.86022 ] ], [ [ -77.16874, 38.86033 ], [ -77.16871, 38.86031 ], [ -77.16867, 38.86029 ], [ -77.16874, 38.86033 ] ], [ [ -77.17002, 38.86796 ], [ -77.17102, 38.8666 ], [ -77.17016, 38.86561 ], [ -77.1678, 38.86797 ], [ -77.16731, 38.86929 ], [ -77.16846, 38.86745 ], [ -77.16926, 38.86742 ], [ -77.17002, 38.86796 ] ], [ [ -77.17253, 38.86925 ], [ -77.17397, 38.86903 ], [ -77.17397, 38.86892 ], [ -77.17253, 38.86925 ] ], [ [ -77.17179, 38.86752 ], [ -77.17168, 38.86832 ], [ -77.17235, 38.86816 ], [ -77.17179, 38.86752 ] ], [ [ -77.17169, 38.871 ], [ -77.17151, 38.87101 ], [ -77.17156, 38.87117 ], [ -77.17169, 38.871 ] ], [ [ -77.17247, 38.88006 ], [ -77.17159, 38.87957 ], [ -77.17147, 38.87997 ], [ -77.17247, 38.88006 ] ], [ [ -77.17034, 38.87905 ], [ -77.17026, 38.87896 ], [ -77.17022, 38.87902 ], [ -77.17034, 38.87905 ] ], [ [ -77.17124, 38.88104 ], [ -77.17024, 38.88093 ], [ -77.17021, 38.88098 ], [ -77.17095, 38.88145 ], [ -77.17124, 38.88104 ] ], [ [ -77.16104, 38.86105 ], [ -77.16175, 38.8612 ], [ -77.16281, 38.86211 ], [ -77.16261, 38.86138 ], [ -77.16117, 38.86053 ], [ -77.16104, 38.86105 ] ], [ [ -77.16217, 38.87103 ], [ -77.16326, 38.87085 ], [ -77.16317, 38.8705 ], [ -77.16195, 38.87076 ], [ -77.16217, 38.87103 ] ], [ [ -77.16167, 38.86623 ], [ -77.16266, 38.86696 ], [ -77.16383, 38.86745 ], [ -77.1623, 38.86657 ], [ -77.16167, 38.86623 ] ], [ [ -77.16251, 38.86328 ], [ -77.16179, 38.86352 ], [ -77.16134, 38.86351 ], [ -77.16199, 38.86383 ], [ -77.16251, 38.86328 ] ], [ [ -77.16382, 38.86599 ], [ -77.16367, 38.86602 ], [ -77.16385, 38.86612 ], [ -77.16382, 38.86599 ] ], [ [ -77.16278, 38.87463 ], [ -77.1631, 38.87414 ], [ -77.16254, 38.87454 ], [ -77.16278, 38.87463 ] ], [ [ -77.15618, 38.8833 ], [ -77.15849, 38.88278 ], [ -77.15838, 38.88192 ], [ -77.15608, 38.8821 ], [ -77.15618, 38.8833 ] ], [ [ -77.15729, 38.87809 ], [ -77.15721, 38.8782 ], [ -77.15731, 38.87817 ], [ -77.15729, 38.87809 ] ], [ [ -77.15728, 38.87803 ], [ -77.15723, 38.87764 ], [ -77.15706, 38.87765 ], [ -77.15728, 38.87803 ] ], [ [ -77.15611, 38.87025 ], [ -77.15704, 38.86935 ], [ -77.15596, 38.87013 ], [ -77.15611, 38.87025 ] ], [ [ -77.15642, 38.86828 ], [ -77.15539, 38.86864 ], [ -77.15563, 38.86895 ], [ -77.15642, 38.86828 ] ], [ [ -77.15683, 38.86654 ], [ -77.15756, 38.86612 ], [ -77.15706, 38.86617 ], [ -77.15658, 38.86555 ], [ -77.15683, 38.86654 ] ], [ [ -77.15426, 38.86459 ], [ -77.15798, 38.86029 ], [ -77.15761, 38.86022 ], [ -77.15426, 38.86459 ] ], [ [ -77.15645, 38.85963 ], [ -77.15628, 38.85968 ], [ -77.15625, 38.85989 ], [ -77.15645, 38.85963 ] ], [ [ -77.15301, 38.85862 ], [ -77.15312, 38.85814 ], [ -77.15272, 38.85819 ], [ -77.15301, 38.85862 ] ], [ [ -77.161, 38.88085 ], [ -77.1609, 38.8808 ], [ -77.1608, 38.88084 ], [ -77.161, 38.88085 ] ], [ [ -77.16288, 38.87849 ], [ -77.16324, 38.8779 ], [ -77.16195, 38.87744 ], [ -77.16288, 38.87849 ] ], [ [ -77.16302, 38.88037 ], [ -77.16307, 38.8804 ], [ -77.16332, 38.87999 ], [ -77.16302, 38.88037 ] ], [ [ -77.15658, 38.85713 ], [ -77.15716, 38.85618 ], [ -77.15643, 38.85595 ], [ -77.15565, 38.85667 ], [ -77.15658, 38.85713 ] ], [ [ -77.15819, 38.85705 ], [ -77.15745, 38.8581 ], [ -77.15729, 38.8585 ], [ -77.15832, 38.85718 ], [ -77.15819, 38.85705 ] ], [ [ -77.15988, 38.86622 ], [ -77.15825, 38.86705 ], [ -77.15744, 38.86754 ], [ -77.15845, 38.86718 ], [ -77.15891, 38.86738 ], [ -77.15988, 38.86622 ] ], [ [ -77.15918, 38.85815 ], [ -77.15864, 38.85885 ], [ -77.15834, 38.85924 ], [ -77.15948, 38.8587 ], [ -77.15918, 38.85815 ] ], [ [ -77.15741, 38.86448 ], [ -77.1571, 38.86487 ], [ -77.15676, 38.86531 ], [ -77.15783, 38.86472 ], [ -77.15741, 38.86448 ] ], [ [ -77.15704, 38.87165 ], [ -77.1578, 38.87167 ], [ -77.15817, 38.87166 ], [ -77.15747, 38.8713 ], [ -77.15704, 38.87165 ] ], [ [ -77.1581, 38.88043 ], [ -77.15796, 38.87989 ], [ -77.15805, 38.88056 ], [ -77.1581, 38.88043 ] ], [ [ -77.15865, 38.87754 ], [ -77.15864, 38.87785 ], [ -77.15913, 38.87843 ], [ -77.15924, 38.87759 ], [ -77.15865, 38.87754 ] ], [ [ -77.15515, 38.85545 ], [ -77.1547, 38.85514 ], [ -77.15429, 38.85504 ], [ -77.15515, 38.85545 ] ], [ [ -77.15479, 38.8578 ], [ -77.15511, 38.85768 ], [ -77.15487, 38.8577 ], [ -77.15479, 38.8578 ] ], [ [ -77.15451, 38.85828 ], [ -77.15449, 38.85825 ], [ -77.15449, 38.85827 ], [ -77.15451, 38.85828 ] ], [ [ -77.15363, 38.85714 ], [ -77.15431, 38.85631 ], [ -77.15395, 38.85614 ], [ -77.15363, 38.85714 ] ], [ [ -77.15482, 38.86829 ], [ -77.15491, 38.86771 ], [ -77.15552, 38.86689 ], [ -77.15413, 38.86774 ], [ -77.15343, 38.86767 ], [ -77.15414, 38.86859 ], [ -77.15482, 38.86829 ] ], [ [ -77.15398, 38.86656 ], [ -77.15337, 38.86615 ], [ -77.1535, 38.86537 ], [ -77.15235, 38.86631 ], [ -77.15317, 38.86734 ], [ -77.15398, 38.86656 ] ], [ [ -77.15411, 38.86268 ], [ -77.15372, 38.86287 ], [ -77.15365, 38.86327 ], [ -77.15411, 38.86268 ] ], [ [ -77.15572, 38.86057 ], [ -77.155, 38.86076 ], [ -77.15514, 38.86133 ], [ -77.15572, 38.86057 ] ], [ [ -77.1521, 38.86254 ], [ -77.15227, 38.86259 ], [ -77.15224, 38.86242 ], [ -77.1521, 38.86254 ] ], [ [ -77.15146, 38.85288 ], [ -77.15133, 38.8529 ], [ -77.15148, 38.85296 ], [ -77.15146, 38.85288 ] ], [ [ -77.14383, 38.87252 ], [ -77.14558, 38.87095 ], [ -77.14526, 38.86985 ], [ -77.14564, 38.86904 ], [ -77.14219, 38.86764 ], [ -77.14126, 38.86951 ], [ -77.14034, 38.86953 ], [ -77.14121, 38.87283 ], [ -77.14383, 38.87252 ] ], [ [ -77.14615, 38.8675 ], [ -77.14586, 38.86726 ], [ -77.14556, 38.86726 ], [ -77.14615, 38.8675 ] ], [ [ -77.14535, 38.86366 ], [ -77.14566, 38.86332 ], [ -77.14514, 38.86341 ], [ -77.14535, 38.86366 ] ], [ [ -77.14463, 38.8628 ], [ -77.14434, 38.86239 ], [ -77.144, 38.86232 ], [ -77.14463, 38.8628 ] ], [ [ -77.14596, 38.86205 ], [ -77.14665, 38.8615 ], [ -77.1463, 38.86106 ], [ -77.14558, 38.86176 ], [ -77.14596, 38.86205 ] ], [ [ -77.14191, 38.85637 ], [ -77.14172, 38.85617 ], [ -77.14167, 38.85624 ], [ -77.14191, 38.85637 ] ], [ [ -77.14259, 38.85532 ], [ -77.14334, 38.85452 ], [ -77.14135, 38.85358 ], [ -77.14073, 38.85449 ], [ -77.14259, 38.85532 ] ], [ [ -77.1516, 38.87933 ], [ -77.1515, 38.87929 ], [ -77.15143, 38.87936 ], [ -77.1516, 38.87933 ] ], [ [ -77.14723, 38.87903 ], [ -77.14752, 38.8779 ], [ -77.14622, 38.87804 ], [ -77.14657, 38.87933 ], [ -77.14723, 38.87903 ] ], [ [ -77.14716, 38.87573 ], [ -77.14912, 38.87468 ], [ -77.14962, 38.87482 ], [ -77.14987, 38.87556 ], [ -77.15167, 38.87609 ], [ -77.15245, 38.87805 ], [ -77.15286, 38.878 ], [ -77.15163, 38.87392 ], [ -77.14782, 38.87394 ], [ -77.14716, 38.87573 ] ], [ [ -77.14869, 38.87097 ], [ -77.14931, 38.87054 ], [ -77.14699, 38.86959 ], [ -77.14691, 38.87017 ], [ -77.14869, 38.87097 ] ], [ [ -77.15064, 38.87708 ], [ -77.15055, 38.87681 ], [ -77.15036, 38.87681 ], [ -77.15064, 38.87708 ] ], [ [ -77.15199, 38.87175 ], [ -77.15242, 38.87263 ], [ -77.15338, 38.87223 ], [ -77.15199, 38.87175 ] ], [ [ -77.15315, 38.88109 ], [ -77.15321, 38.88106 ], [ -77.15302, 38.88106 ], [ -77.15315, 38.88109 ] ], [ [ -77.14775, 38.85459 ], [ -77.1483, 38.85412 ], [ -77.14805, 38.8536 ], [ -77.14844, 38.853 ], [ -77.14788, 38.85278 ], [ -77.14736, 38.85328 ], [ -77.14799, 38.85377 ], [ -77.14775, 38.85459 ] ], [ [ -77.14712, 38.86624 ], [ -77.14857, 38.866 ], [ -77.14779, 38.86483 ], [ -77.14881, 38.86452 ], [ -77.14733, 38.86249 ], [ -77.14699, 38.86277 ], [ -77.14746, 38.86339 ], [ -77.14613, 38.86459 ], [ -77.14712, 38.86624 ] ], [ [ -77.14423, 38.85545 ], [ -77.14416, 38.85554 ], [ -77.14422, 38.85553 ], [ -77.14423, 38.85545 ] ], [ [ -77.14716, 38.85861 ], [ -77.14744, 38.8596 ], [ -77.14791, 38.85941 ], [ -77.14716, 38.85861 ] ], [ [ -77.14309, 38.85704 ], [ -77.14337, 38.85719 ], [ -77.14398, 38.85641 ], [ -77.14374, 38.85608 ], [ -77.14309, 38.85704 ] ], [ [ -77.1392, 38.86138 ], [ -77.14119, 38.86272 ], [ -77.14191, 38.86223 ], [ -77.14317, 38.86219 ], [ -77.14254, 38.86177 ], [ -77.14235, 38.86095 ], [ -77.14145, 38.86189 ], [ -77.14092, 38.86185 ], [ -77.14064, 38.86111 ], [ -77.14116, 38.86039 ], [ -77.14042, 38.86019 ], [ -77.1392, 38.86138 ] ], [ [ -77.13832, 38.86088 ], [ -77.13798, 38.86133 ], [ -77.13859, 38.86162 ], [ -77.13892, 38.8614 ], [ -77.13832, 38.86088 ] ], [ [ -77.13906, 38.85983 ], [ -77.13886, 38.86003 ], [ -77.13882, 38.86011 ], [ -77.13906, 38.85983 ] ], [ [ -77.13913, 38.85496 ], [ -77.13886, 38.85486 ], [ -77.13874, 38.85481 ], [ -77.13913, 38.85496 ] ], [ [ -77.14303, 38.85958 ], [ -77.14287, 38.85993 ], [ -77.14334, 38.86016 ], [ -77.14303, 38.85958 ] ], [ [ -77.1447, 38.86054 ], [ -77.14469, 38.86055 ], [ -77.14471, 38.86055 ], [ -77.1447, 38.86054 ] ], [ [ -77.14352, 38.86496 ], [ -77.14348, 38.86524 ], [ -77.14369, 38.86507 ], [ -77.14352, 38.86496 ] ], [ [ -77.13969, 38.85532 ], [ -77.13979, 38.8553 ], [ -77.13956, 38.85517 ], [ -77.13969, 38.85532 ] ], [ [ -77.14008, 38.85723 ], [ -77.14045, 38.85733 ], [ -77.14012, 38.85714 ], [ -77.14008, 38.85723 ] ], [ [ -77.14038, 38.86525 ], [ -77.14037, 38.86547 ], [ -77.14095, 38.86557 ], [ -77.14038, 38.86525 ] ], [ [ -77.13905, 38.87839 ], [ -77.13903, 38.87838 ], [ -77.13902, 38.87838 ], [ -77.13905, 38.87839 ] ], [ [ -77.13668, 38.86844 ], [ -77.13669, 38.86831 ], [ -77.13657, 38.86846 ], [ -77.13668, 38.86844 ] ], [ [ -77.13809, 38.87007 ], [ -77.13694, 38.87055 ], [ -77.13734, 38.87101 ], [ -77.13812, 38.8707 ], [ -77.13809, 38.87007 ] ] ] } },
{ "type": "Feature", "properties": { "variant": "T2s", "miles": 0.5 }, "geometry": { "type": "Polygon", "coordinates": [ [ [ -77.15529, 38.86511 ], [ -77.15796, 38.86242 ], [ -77.15893, 38.86251 ], [ -77.15881, 38.86326 ], [ -77.15644, 38.86572 ], [ -77.15746, 38.86756 ], [ -77.15845, 38.86718 ], [ -77.15905, 38.86778 ], [ -77.15596, 38.87013 ], [ -77.15678, 38.86987 ], [ -77.15767, 38.87054 ], [ -77.15696, 38.87164 ], [ -77.15794, 38.87185 ], [ -77.1582, 38.87375 ], [ -77.15736, 38.87429 ], [ -77.15548, 38.87294 ], [ -77.15432, 38.87294 ], [ -77.15261, 38.87191 ], [ -77.1523, 38.8713 ], [ -77.14998, 38.87017 ], [ -77.15046, 38.8695 ], [ -77.15227, 38.87007 ], [ -77.15015, 38.86819 ], [ -77.15021, 38.86743 ], [ -77.15071, 38.8673 ], [ -77.15153, 38.86778 ], [ -77.15055, 38.86653 ], [ -77.14794, 38.86774 ], [ -77.14707, 38.86739 ], [ -77.14743, 38.86657 ], [ -77.14857, 38.866 ], [ -77.14773, 38.86505 ], [ -77.14815, 38.86453 ], [ -77.14881, 38.86452 ], [ -77.14819, 38.86347 ], [ -77.14842, 38.86273 ], [ -77.14947, 38.86288 ], [ -77.15016, 38.86377 ], [ -77.15234, 38.86258 ], [ -77.15343, 38.8633 ], [ -77.15304, 38.86425 ], [ -77.15385, 38.86429 ], [ -77.15529, 38.86511 ] ], [ [ -77.15414, 38.86859 ], [ -77.15482, 38.86829 ], [ -77.15552, 38.86689 ], [ -77.15413, 38.86774 ], [ -77.15343, 38.86767 ], [ -77.15414, 38.86859 ] ], [ [ -77.15317, 38.86734 ], [ -77.15403, 38.86653 ], [ -77.15337, 38.86615 ], [ -77.1535, 38.86537 ], [ -77.15235, 38.86631 ], [ -77.15317, 38.86734 ] ], [ [ -77.15563, 38.86895 ], [ -77.15623, 38.86809 ], [ -77.15539, 38.86864 ], [ -77.15563, 38.86895 ] ] ] } },
{ "type": "Feature", "properties": { "variant": "T2s", "miles": 1.0 }, "geometry": { "type": "Polygon", "coordinates": [ [ [ -77.1611, 38.86105 ], [ -77.16266, 38.86203 ], [ -77.1628, 38.86277 ], [ -77.16218, 38.86338 ], [ -77.16134, 38.86351 ], [ -77.16168, 38.86424 ], [ -77.16048, 38.86582 ], [ -77.15744, 38.86754 ], [ -77.15845, 38.86718 ], [ -77.15899, 38.86786 ], [ -77.16119, 38.86873 ], [ -77.16298, 38.86836 ], [ -77.16432, 38.86723 ], [ -77.16508, 38.86771 ], [ -77.16417, 38.86891 ], [ -77.16462, 38.87064 ], [ -77.16662, 38.86968 ], [ -77.16759, 38.8698 ], [ -77.16772, 38.8702 ], [ -77.16681, 38.87092 ], [ -77.16784, 38.87149 ], [ -77.1679, 38.8719 ], [ -77.16626, 38.87608 ], [ -77.16689, 38.87651 ], [ -77.16685, 38.87693 ], [ -77.16645, 38.87719 ], [ -77.16562, 38.87704 ], [ -77.16485, 38.87752 ], [ -77.16526, 38.87798 ], [ -77.16464, 38.87857 ], [ -77.16225, 38.8773 ], [ -77.16195, 38.87744 ], [ -77.1629, 38.87832 ], [ -77.16218, 38.87884 ], [ -77.16049, 38.87769 ], [ -77.15946, 38.87744 ], [ -77.15872, 38.87661 ], [ -77.15774, 38.87658 ], [ -77.15553, 38.87794 ], [ -77.15569, 38.8787 ], [ -77.15528, 38.87896 ], [ -77.1546, 38.87878 ], [ -77.15477, 38.88014 ], [ -77.15382, 38.88031 ], [ -77.15163, 38.87392 ], [ -77.14782, 38.87394 ], [ -77.14762, 38.87476 ], [ -77.14681, 38.87492 ], [ -77.14594, 38.87575 ], [ -77.14517, 38.87527 ], [ -77.14541, 38.87382 ], [ -77.14336, 38.87333 ], [ -77.14373, 38.87262 ], [ -77.14478, 38.87259 ], [ -77.14449, 38.87212 ], [ -77.14558, 38.87095 ], [ -77.14526, 38.86985 ], [ -77.14575, 38.8689 ], [ -77.14037, 38.86664 ], [ -77.14065, 38.86567 ], [ -77.14248, 38.86599 ], [ -77.14243, 38.86506 ], [ -77.14348, 38.86524 ], [ -77.14439, 38.86448 ], [ -77.1437, 38.86337 ], [ -77.14464, 38.86301 ], [ -77.14473, 38.86262 ], [ -77.14284, 38.86205 ], [ -77.14244, 38.86137 ], [ -77.14434, 38.8593 ], [ -77.14366, 38.85893 ], [ -77.14291, 38.85911 ], [ -77.14242, 38.85845 ], [ -77.14302, 38.85766 ], [ -77.1439, 38.85749 ], [ -77.14723, 38.85973 ], [ -77.14787, 38.85962 ], [ -77.14981, 38.85834 ], [ -77.15067, 38.8572 ], [ -77.1511, 38.85696 ], [ -77.15212, 38.85719 ], [ -77.15283, 38.85523 ], [ -77.15377, 38.85487 ], [ -77.15572, 38.85572 ], [ -77.15565, 38.85667 ], [ -77.15747, 38.85767 ], [ -77.15729, 38.8585 ], [ -77.1587, 38.85685 ], [ -77.15942, 38.85665 ], [ -77.16015, 38.85691 ], [ -77.16113, 38.85872 ], [ -77.16021, 38.85962 ], [ -77.16111, 38.86034 ], [ -77.1611, 38.86105 ] ], [ [ -77.15423, 38.87735 ], [ -77.15792, 38.87479 ], [ -77.15504, 38.87281 ], [ -77.15309, 38.87358 ], [ -77.15423, 38.87735 ] ], [ [ -77.15015, 38.86819 ], [ -77.15021, 38.86743 ], [ -77.15071, 38.8673 ], [ -77.15153, 38.86778 ], [ -77.15055, 38.86653 ], [ -77.14858, 38.86719 ], [ -77.14792, 38.86824 ], [ -77.15227, 38.87007 ], [ -77.15015, 38.86819 ] ], [ [ -77.15154, 38.86324 ], [ -77.15175, 38.8627 ], [ -77.15049, 38.86294 ], [ -77.1491, 38.8621 ], [ -77.15016, 38.86377 ], [ -77.15154, 38.86324 ] ], [ [ -77.15227, 38.86259 ], [ -77.15224, 38.86242 ], [ -77.15195, 38.86262 ], [ -77.15227, 38.86259 ] ], [ [ -77.15235, 38.85918 ], [ -77.15312, 38.85854 ], [ -77.15312, 38.85814 ], [ -77.15152, 38.8582 ], [ -77.15105, 38.85882 ], [ -77.15235, 38.85918 ] ], [ [ -77.16064, 38.87498 ], [ -77.16129, 38.87536 ], [ -77.16201, 38.87579 ], [ -77.16064, 38.87498 ] ], [ [ -77.16002, 38.8735 ], [ -77.16135, 38.87271 ], [ -77.15904, 38.87309 ], [ -77.16002, 38.8735 ] ], [ [ -77.15704, 38.87165 ], [ -77.15817, 38.87166 ], [ -77.15747, 38.8713 ], [ -77.15704, 38.87165 ] ], [ [ -77.15703, 38.86641 ], [ -77.15756, 38.86612 ], [ -77.15706, 38.86617 ], [ -77.15658, 38.86555 ], [ -77.15703, 38.86641 ] ], [ [ -77.15676, 38.86531 ], [ -77.15783, 38.86472 ], [ -77.15741, 38.86448 ], [ -77.15676, 38.86531 ] ], [ [ -77.15426, 38.86459 ], [ -77.15798, 38.86029 ], [ -77.15761, 38.86022 ], [ -77.15426, 38.86459 ] ], [ [ -77.15886, 38.8614 ], [ -77.16056, 38.86114 ], [ -77.1599, 38.86085 ], [ -77.15917, 38.86113 ], [ -77.15823, 38.86188 ], [ -77.15876, 38.86238 ], [ -77.15886, 38.8614 ] ], [ [ -77.16017, 38.86318 ], [ -77.16032, 38.86309 ], [ -77.16021, 38.86299 ], [ -77.16017, 38.86318 ] ], [ [ -77.16042, 38.87028 ], [ -77.16041, 38.87026 ], [ -77.16041, 38.87027 ], [ -77.16042, 38.87028 ] ], [ [ -77.16217, 38.87103 ], [ -77.16326, 38.87085 ], [ -77.16317, 38.8705 ], [ -77.16195, 38.87076 ], [ -77.16217, 38.87103 ] ], [ [ -77.16254, 38.87454 ], [ -77.16278, 38.87463 ], [ -77.1631, 38.87414 ], [ -77.16254, 38.87454 ] ], [ [ -77.15834, 38.85924 ], [ -77.15948, 38.8587 ], [ -77.15918, 38.85815 ], [ -77.15834, 38.85924 ] ], [ [ -77.15414, 38.86859 ], [ -77.15488, 38.86775 ], [ -77.15552, 38.86689 ], [ -77.15413, 38.86774 ], [ -77.15343, 38.86767 ], [ -77.15414, 38.86859 ] ], [ [ -77.15666, 38.86967 ], [ -77.15611, 38.87025 ], [ -77.15704, 38.86935 ], [ -77.15666, 38.86967 ] ], [ [ -77.15623, 38.86809 ], [ -77.15539, 38.86864 ], [ -77.15563, 38.86895 ], [ -77.15642, 38.86828 ], [ -77.15623, 38.86809 ] ], [ [ -77.15411, 38.86268 ], [ -77.15372, 38.86287 ], [ -77.15365, 38.86327 ], [ -77.15411, 38.86268 ] ], [ [ -77.15572, 38.86057 ], [ -77.155, 38.86076 ], [ -77.15514, 38.86133 ], [ -77.15572, 38.86057 ] ], [ [ -77.15451, 38.85828 ], [ -77.15449, 38.85825 ], [ -77.15449, 38.85827 ], [ -77.15451, 38.85828 ] ], [ [ -77.15511, 38.85768 ], [ -77.15487, 38.8577 ], [ -77.15479, 38.8578 ], [ -77.15511, 38.85768 ] ], [ [ -77.15429, 38.85634 ], [ -77.15395, 38.85614 ], [ -77.15363, 38.85714 ], [ -77.15367, 38.85715 ], [ -77.15429, 38.85634 ] ], [ [ -77.15627, 38.85965 ], [ -77.15645, 38.85963 ], [ -77.15625, 38.85953 ], [ -77.15627, 38.85965 ] ], [ [ -77.15403, 38.86653 ], [ -77.15337, 38.86615 ], [ -77.1535, 38.86537 ], [ -77.15235, 38.86631 ], [ -77.15317, 38.86734 ], [ -77.15403, 38.86653 ] ], [ [ -77.14897, 38.87105 ], [ -77.14931, 38.87054 ], [ -77.14699, 38.86959 ], [ -77.14691, 38.87017 ], [ -77.14897, 38.87105 ] ], [ [ -77.15338, 38.87223 ], [ -77.15199, 38.87175 ], [ -77.15242, 38.87263 ], [ -77.15338, 38.87223 ] ], [ [ -77.14628, 38.86109 ], [ -77.14558, 38.86176 ], [ -77.14596, 38.86205 ], [ -77.14665, 38.8615 ], [ -77.14628, 38.86109 ] ], [ [ -77.15037, 38.86122 ], [ -77.15022, 38.86058 ], [ -77.14946, 38.86104 ], [ -77.14966, 38.86127 ], [ -77.15037, 38.86122 ] ], [ [ -77.14881, 38.86452 ], [ -77.14733, 38.86249 ], [ -77.14699, 38.86277 ], [ -77.14746, 38.86339 ], [ -77.14613, 38.86459 ], [ -77.14657, 38.86543 ], [ -77.14472, 38.86691 ], [ -77.14615, 38.8675 ], [ -77.14555, 38.86683 ], [ -77.14572, 38.86644 ], [ -77.14698, 38.86619 ], [ -77.1476, 38.86643 ], [ -77.14857, 38.866 ], [ -77.14773, 38.86505 ], [ -77.14815, 38.86453 ], [ -77.14881, 38.86452 ] ], [ [ -77.14471, 38.86055 ], [ -77.1447, 38.86054 ], [ -77.14469, 38.86055 ], [ -77.14471, 38.86055 ] ], [ [ -77.14514, 38.86341 ], [ -77.14535, 38.86366 ], [ -77.14572, 38.86336 ], [ -77.14566, 38.86332 ], [ -77.14514, 38.86341 ] ] ] } },
{ "type": "Feature", "properties": { "variant": "T2s", "miles": 1.5 }, "geometry": { "type": "Polygon", "coordinates": [ [ [ -77.16824, 38.86255 ], [ -77.17051, 38.8641 ], [ -77.17367, 38.86776 ], [ -77.17535, 38.86789 ], [ -77.17536, 38.86879 ], [ -77.17638, 38.86877 ], [ -77.17674, 38.86927 ], [ -77.17665, 38.86968 ], [ -77.17475, 38.87047 ], [ -77.17264, 38.87082 ], [ -77.17288, 38.87154 ], [ -77.1718, 38.87302 ], [ -77.17116, 38.87329 ], [ -77.17082, 38.87434 ], [ -77.17132, 38.87588 ], [ -77.17224, 38.87597 ], [ -77.17228, 38.87749 ], [ -77.17287, 38.87804 ], [ -77.17377, 38.8781 ], [ -77.17392, 38.87918 ], [ -77.17478, 38.87951 ], [ -77.17488, 38.87992 ], [ -77.17306, 38.88098 ], [ -77.17259, 38.88078 ], [ -77.17249, 38.87986 ], [ -77.1717, 38.87954 ], [ -77.17127, 38.88059 ], [ -77.17053, 38.88096 ], [ -77.16959, 38.88069 ], [ -77.16947, 38.88029 ], [ -77.17009, 38.87988 ], [ -77.17036, 38.87901 ], [ -77.16965, 38.87948 ], [ -77.16835, 38.87923 ], [ -77.16772, 38.87963 ], [ -77.16668, 38.87924 ], [ -77.16519, 38.88253 ], [ -77.16603, 38.88332 ], [ -77.16594, 38.88408 ], [ -77.16497, 38.88401 ], [ -77.16422, 38.8833 ], [ -77.16278, 38.88382 ], [ -77.16214, 38.88325 ], [ -77.16293, 38.8826 ], [ -77.15975, 38.88183 ], [ -77.16001, 38.88378 ], [ -77.16069, 38.88416 ], [ -77.16069, 38.88457 ], [ -77.16031, 38.88486 ], [ -77.15766, 38.88503 ], [ -77.15707, 38.88566 ], [ -77.15692, 38.88672 ], [ -77.15598, 38.88693 ], [ -77.15488, 38.88399 ], [ -77.15401, 38.88423 ], [ -77.15364, 38.88317 ], [ -77.15224, 38.88229 ], [ -77.1526, 38.8834 ], [ -77.15174, 38.88376 ], [ -77.15103, 38.88306 ], [ -77.14997, 38.88307 ], [ -77.14991, 38.88225 ], [ -77.14817, 38.88264 ], [ -77.14793, 38.88201 ], [ -77.14657, 38.88181 ], [ -77.14608, 38.88218 ], [ -77.14267, 38.8812 ], [ -77.14208, 38.88071 ], [ -77.14217, 38.88013 ], [ -77.1394, 38.87952 ], [ -77.13961, 38.87867 ], [ -77.13894, 38.87836 ], [ -77.13859, 38.87805 ], [ -77.13907, 38.87698 ], [ -77.13835, 38.87686 ], [ -77.13761, 38.87593 ], [ -77.13683, 38.87603 ], [ -77.1361, 38.87503 ], [ -77.13518, 38.87467 ], [ -77.13571, 38.87391 ], [ -77.13988, 38.87311 ], [ -77.13957, 38.87228 ], [ -77.13805, 38.87253 ], [ -77.13644, 38.87222 ], [ -77.13653, 38.87146 ], [ -77.13812, 38.8707 ], [ -77.13825, 38.86909 ], [ -77.14019, 38.86911 ], [ -77.14121, 38.87283 ], [ -77.14383, 38.87252 ], [ -77.14558, 38.87095 ], [ -77.14526, 38.86985 ], [ -77.14564, 38.86904 ], [ -77.14219, 38.86764 ], [ -77.141, 38.86894 ], [ -77.13818, 38.8671 ], [ -77.13662, 38.8677 ], [ -77.13622, 38.86743 ], [ -77.13644, 38.86677 ], [ -77.13438, 38.86685 ], [ -77.13234, 38.86644 ], [ -77.13206, 38.86472 ], [ -77.13273, 38.86416 ], [ -77.13344, 38.86468 ], [ -77.13348, 38.86547 ], [ -77.13509, 38.86397 ], [ -77.13562, 38.86395 ], [ -77.13603, 38.86464 ], [ -77.13557, 38.86536 ], [ -77.13627, 38.86502 ], [ -77.13879, 38.86538 ], [ -77.13839, 38.86477 ], [ -77.13872, 38.86444 ], [ -77.13975, 38.86453 ], [ -77.14037, 38.86359 ], [ -77.13883, 38.86291 ], [ -77.13821, 38.86392 ], [ -77.13724, 38.86405 ], [ -77.13696, 38.8637 ], [ -77.13751, 38.86237 ], [ -77.13572, 38.86198 ], [ -77.1355, 38.86161 ], [ -77.13711, 38.86035 ], [ -77.13655, 38.85911 ], [ -77.1375, 38.85857 ], [ -77.13754, 38.85795 ], [ -77.13839, 38.85776 ], [ -77.13899, 38.85638 ], [ -77.13474, 38.85405 ], [ -77.13459, 38.8533 ], [ -77.13507, 38.85302 ], [ -77.13659, 38.85363 ], [ -77.13661, 38.85317 ], [ -77.13738, 38.85296 ], [ -77.13787, 38.85232 ], [ -77.13995, 38.85309 ], [ -77.14085, 38.85224 ], [ -77.14195, 38.8526 ], [ -77.14309, 38.85143 ], [ -77.14617, 38.8527 ], [ -77.14745, 38.85151 ], [ -77.14978, 38.8523 ], [ -77.15166, 38.8518 ], [ -77.1526, 38.85226 ], [ -77.15299, 38.85346 ], [ -77.15779, 38.85521 ], [ -77.15816, 38.8547 ], [ -77.15574, 38.85269 ], [ -77.15649, 38.85137 ], [ -77.15705, 38.85097 ], [ -77.15801, 38.85111 ], [ -77.15729, 38.85258 ], [ -77.15866, 38.85347 ], [ -77.15951, 38.85294 ], [ -77.16035, 38.85127 ], [ -77.1613, 38.85109 ], [ -77.16153, 38.85184 ], [ -77.16082, 38.8533 ], [ -77.15954, 38.8543 ], [ -77.16141, 38.85532 ], [ -77.16147, 38.85574 ], [ -77.16062, 38.85611 ], [ -77.15919, 38.85548 ], [ -77.15866, 38.8562 ], [ -77.16022, 38.85698 ], [ -77.16105, 38.85852 ], [ -77.16098, 38.85918 ], [ -77.16021, 38.85962 ], [ -77.16117, 38.86045 ], [ -77.16085, 38.86108 ], [ -77.16175, 38.8612 ], [ -77.16292, 38.86237 ], [ -77.16221, 38.86336 ], [ -77.16134, 38.86351 ], [ -77.16172, 38.86385 ], [ -77.16119, 38.86491 ], [ -77.16256, 38.86539 ], [ -77.16341, 38.86458 ], [ -77.16428, 38.86452 ], [ -77.16498, 38.86506 ], [ -77.16527, 38.86622 ], [ -77.16585, 38.86481 ], [ -77.16824, 38.86255 ] ], [ [ -77.15315, 38.88109 ], [ -77.15321, 38.88106 ], [ -77.15302, 38.88106 ], [ -77.15315, 38.88109 ] ], [ [ -77.15429, 38.87732 ], [ -77.15648, 38.87613 ], [ -77.15792, 38.87479 ], [ -77.15504, 38.87281 ], [ -77.15309, 38.87358 ], [ -77.15429, 38.87732 ] ], [ [ -77.15338, 38.87223 ], [ -77.15224, 38.87176 ], [ -77.15199, 38.87175 ], [ -77.15242, 38.87263 ], [ -77.15338, 38.87223 ] ], [ [ -77.15153, 38.86778 ], [ -77.15055, 38.86653 ], [ -77.14858, 38.86719 ], [ -77.14792, 38.86824 ], [ -77.15227, 38.87007 ], [ -77.14998, 38.8678 ], [ -77.15071, 38.8673 ], [ -77.15153, 38.86778 ] ], [ [ -77.15016, 38.86374 ], [ -77.15154, 38.86324 ], [ -77.15175, 38.8627 ], [ -77.15049, 38.86294 ], [ -77.14931, 38.86199 ], [ -77.15016, 38.86374 ] ], [ [ -77.15037, 38.86114 ], [ -77.15022, 38.86058 ], [ -77.14946, 38.86104 ], [ -77.14966, 38.86127 ], [ -77.15037, 38.86114 ] ], [ [ -77.14904, 38.85877 ], [ -77.15093, 38.85686 ], [ -77.14838, 38.85565 ], [ -77.14759, 38.85621 ], [ -77.14657, 38.85602 ], [ -77.1455, 38.85638 ], [ -77.14451, 38.85781 ], [ -77.14566, 38.85844 ], [ -77.14649, 38.8576 ], [ -77.1476, 38.85737 ], [ -77.14904, 38.85877 ] ], [ [ -77.14955, 38.85492 ], [ -77.15245, 38.85652 ], [ -77.15285, 38.8552 ], [ -77.15378, 38.85488 ], [ -77.15008, 38.85362 ], [ -77.14955, 38.85492 ] ], [ [ -77.16409, 38.88176 ], [ -77.16438, 38.88113 ], [ -77.16494, 38.87984 ], [ -77.16346, 38.8816 ], [ -77.16409, 38.88176 ] ], [ [ -77.16302, 38.88037 ], [ -77.16323, 38.88014 ], [ -77.16332, 38.87999 ], [ -77.16302, 38.88037 ] ], [ [ -77.163, 38.87835 ], [ -77.16332, 38.87794 ], [ -77.16225, 38.8773 ], [ -77.16195, 38.87744 ], [ -77.163, 38.87835 ] ], [ [ -77.16201, 38.87579 ], [ -77.16214, 38.87559 ], [ -77.16064, 38.87498 ], [ -77.16201, 38.87579 ] ], [ [ -77.15984, 38.86625 ], [ -77.15825, 38.86705 ], [ -77.15744, 38.86754 ], [ -77.15845, 38.86718 ], [ -77.15891, 38.86738 ], [ -77.15984, 38.86625 ] ], [ [ -77.15664, 38.86592 ], [ -77.15658, 38.86555 ], [ -77.15644, 38.86572 ], [ -77.15683, 38.86654 ], [ -77.15756, 38.86612 ], [ -77.15664, 38.86592 ] ], [ [ -77.15676, 38.86531 ], [ -77.15783, 38.86472 ], [ -77.15741, 38.86448 ], [ -77.15676, 38.86531 ] ], [ [ -77.15874, 38.8622 ], [ -77.15886, 38.8614 ], [ -77.15989, 38.86155 ], [ -77.16056, 38.86114 ], [ -77.1599, 38.86085 ], [ -77.15917, 38.86113 ], [ -77.15823, 38.86188 ], [ -77.15874, 38.8622 ] ], [ [ -77.15802, 38.86033 ], [ -77.15761, 38.86022 ], [ -77.15426, 38.86459 ], [ -77.15657, 38.86171 ], [ -77.15802, 38.86033 ] ], [ [ -77.15834, 38.85924 ], [ -77.15948, 38.8587 ], [ -77.15918, 38.85815 ], [ -77.15834, 38.85924 ] ], [ [ -77.15832, 38.85718 ], [ -77.15745, 38.8581 ], [ -77.15729, 38.8585 ], [ -77.15832, 38.85718 ] ], [ [ -77.16994, 38.8776 ], [ -77.17092, 38.87723 ], [ -77.171, 38.87645 ], [ -77.16955, 38.87694 ], [ -77.16994, 38.8776 ] ], [ [ -77.16203, 38.87105 ], [ -77.16326, 38.87085 ], [ -77.16317, 38.8705 ], [ -77.16195, 38.87076 ], [ -77.16203, 38.87105 ] ], [ [ -77.16292, 38.86837 ], [ -77.16106, 38.86864 ], [ -77.1607, 38.86852 ], [ -77.16119, 38.86873 ], [ -77.16292, 38.86837 ] ], [ [ -77.16266, 38.86696 ], [ -77.16383, 38.86745 ], [ -77.16158, 38.86617 ], [ -77.16266, 38.86696 ] ], [ [ -77.16731, 38.86929 ], [ -77.16886, 38.86735 ], [ -77.17001, 38.86799 ], [ -77.17102, 38.8666 ], [ -77.17016, 38.86561 ], [ -77.1678, 38.86797 ], [ -77.16731, 38.86929 ] ], [ [ -77.1665, 38.86758 ], [ -77.16936, 38.86472 ], [ -77.16838, 38.86391 ], [ -77.16686, 38.8656 ], [ -77.16648, 38.86721 ], [ -77.16559, 38.8679 ], [ -77.16552, 38.86853 ], [ -77.16453, 38.86853 ], [ -77.16423, 38.86916 ], [ -77.16606, 38.86877 ], [ -77.1665, 38.86758 ] ], [ [ -77.17151, 38.87101 ], [ -77.17156, 38.87117 ], [ -77.17174, 38.87097 ], [ -77.17151, 38.87101 ] ], [ [ -77.17253, 38.86925 ], [ -77.17397, 38.86903 ], [ -77.17397, 38.86892 ], [ -77.17253, 38.86925 ] ], [ [ -77.17179, 38.86752 ], [ -77.17141, 38.86814 ], [ -77.17235, 38.86816 ], [ -77.17179, 38.86752 ] ], [ [ -77.16367, 38.86602 ], [ -77.16385, 38.86612 ], [ -77.1638, 38.86589 ], [ -77.16367, 38.86602 ] ], [ [ -77.16607, 38.87 ], [ -77.16451, 38.87022 ], [ -77.16462, 38.87064 ], [ -77.16607, 38.87 ] ], [ [ -77.16254, 38.87454 ], [ -77.16278, 38.87463 ], [ -77.1631, 38.87414 ], [ -77.16254, 38.87454 ] ], [ [ -77.16581, 38.87812 ], [ -77.16586, 38.87816 ], [ -77.16588, 38.87814 ], [ -77.16581, 38.87812 ] ], [ [ -77.16515, 38.8792 ], [ -77.16524, 38.87916 ], [ -77.16507, 38.87905 ], [ -77.16515, 38.8792 ] ], [ [ -77.16041, 38.87027 ], [ -77.16042, 38.87028 ], [ -77.16041, 38.87026 ], [ -77.16041, 38.87027 ] ], [ [ -77.16051, 38.86322 ], [ -77.16017, 38.86318 ], [ -77.16068, 38.86331 ], [ -77.16051, 38.86322 ] ], [ [ -77.15993, 38.86819 ], [ -77.16056, 38.86847 ], [ -77.16057, 38.86772 ], [ -77.16142, 38.86755 ], [ -77.16078, 38.86712 ], [ -77.15993, 38.86819 ] ], [ [ -77.15931, 38.87305 ], [ -77.16002, 38.8735 ], [ -77.16135, 38.87271 ], [ -77.15966, 38.873 ], [ -77.15931, 38.87305 ] ], [ [ -77.15629, 38.88315 ], [ -77.15849, 38.88278 ], [ -77.15838, 38.88192 ], [ -77.15608, 38.8821 ], [ -77.15593, 38.88281 ], [ -77.15629, 38.88315 ] ], [ [ -77.15611, 38.87025 ], [ -77.15704, 38.86935 ], [ -77.15596, 38.87013 ], [ -77.15611, 38.87025 ] ], [ [ -77.15563, 38.86895 ], [ -77.15623, 38.86809 ], [ -77.15539, 38.86864 ], [ -77.15563, 38.86895 ] ], [ [ -77.15482, 38.86829 ], [ -77.15553, 38.86692 ], [ -77.15552, 38.86689 ], [ -77.15413, 38.86774 ], [ -77.15343, 38.86767 ], [ -77.15414, 38.86859 ], [ -77.15482, 38.86829 ] ], [ [ -77.15645, 38.85963 ], [ -77.15628, 38.85968 ], [ -77.15625, 38.85989 ], [ -77.15645, 38.85963 ] ], [ [ -77.15301, 38.85862 ], [ -77.15312, 38.85814 ], [ -77.15272, 38.85819 ], [ -77.15301, 38.85862 ] ], [ [ -77.15913, 38.87843 ], [ -77.15924, 38.87759 ], [ -77.1586, 38.87754 ], [ -77.15913, 38.87843 ] ], [ [ -77.1608, 38.88084 ], [ -77.161, 38.88085 ], [ -77.16114, 38.88068 ], [ -77.1608, 38.88084 ] ], [ [ -77.15704, 38.87165 ], [ -77.15762, 38.87167 ], [ -77.15817, 38.87166 ], [ -77.15747, 38.8713 ], [ -77.15704, 38.87165 ] ], [ [ -77.15511, 38.85768 ], [ -77.15487, 38.8577 ], [ -77.15479, 38.8578 ], [ -77.15511, 38.85768 ] ], [ [ -77.15515, 38.85545 ], [ -77.15494, 38.85521 ], [ -77.15429, 38.85504 ], [ -77.15515, 38.85545 ] ], [ [ -77.15576, 38.85655 ], [ -77.15658, 38.85713 ], [ -77.15716, 38.85618 ], [ -77.15643, 38.85595 ], [ -77.15576, 38.85655 ] ], [ [ -77.15727, 38.87802 ], [ -77.15723, 38.87764 ], [ -77.15706, 38.87765 ], [ -77.15714, 38.87769 ], [ -77.15727, 38.87802 ] ], [ [ -77.15721, 38.8782 ], [ -77.15731, 38.87817 ], [ -77.15729, 38.87809 ], [ -77.15721, 38.8782 ] ], [ [ -77.15803, 38.87989 ], [ -77.15802, 38.88036 ], [ -77.15805, 38.88056 ], [ -77.15803, 38.87989 ] ], [ [ -77.15368, 38.85707 ], [ -77.15431, 38.85631 ], [ -77.15395, 38.85614 ], [ -77.15368, 38.85707 ] ], [ [ -77.15449, 38.85825 ], [ -77.15449, 38.85827 ], [ -77.15451, 38.85828 ], [ -77.15449, 38.85825 ] ], [ [ -77.15398, 38.86656 ], [ -77.15337, 38.86615 ], [ -77.1535, 38.86537 ], [ -77.15235, 38.86631 ], [ -77.15317, 38.86734 ], [ -77.15398, 38.86656 ] ], [ [ -77.15411, 38.86268 ], [ -77.15372, 38.86287 ], [ -77.15365, 38.86327 ], [ -77.15411, 38.86268 ] ], [ [ -77.15572, 38.86057 ], [ -77.155, 38.86076 ], [ -77.15514, 38.86133 ], [ -77.15572, 38.86057 ] ], [ [ -77.15227, 38.86259 ], [ -77.15224, 38.86242 ], [ -77.15195, 38.86262 ], [ -77.15227, 38.86259 ] ], [ [ -77.15146, 38.85288 ], [ -77.15133, 38.8529 ], [ -77.15148, 38.85296 ], [ -77.15146, 38.85288 ] ], [ [ -77.14615, 38.8675 ], [ -77.14586, 38.86726 ], [ -77.14556, 38.86726 ], [ -77.14615, 38.8675 ] ], [ [ -77.14535, 38.86366 ], [ -77.14566, 38.86332 ], [ -77.14514, 38.86341 ], [ -77.14535, 38.86366 ] ], [ [ -77.14463, 38.8628 ], [ -77.14434, 38.86239 ], [ -77.144, 38.86232 ], [ -77.14463, 38.8628 ] ], [ [ -77.14596, 38.86205 ], [ -77.14665, 38.8615 ], [ -77.1463, 38.86106 ], [ -77.14558, 38.86176 ], [ -77.14596, 38.86205 ] ], [ [ -77.14191, 38.85637 ], [ -77.14172, 38.85617 ], [ -77.14167, 38.85624 ], [ -77.14191, 38.85637 ] ], [ [ -77.14266, 38.85539 ], [ -77.14334, 38.85452 ], [ -77.14135, 38.85358 ], [ -77.14073, 38.85449 ], [ -77.14266, 38.85539 ] ], [ [ -77.1516, 38.87933 ], [ -77.1515, 38.87929 ], [ -77.15143, 38.87936 ], [ -77.1516, 38.87933 ] ], [ [ -77.14723, 38.87903 ], [ -77.14752, 38.8779 ], [ -77.14622, 38.87804 ], [ -77.14657, 38.87933 ], [ -77.14723, 38.87903 ] ], [ [ -77.14716, 38.87573 ], [ -77.14912, 38.87468 ], [ -77.14962, 38.87482 ], [ -77.14987, 38.87556 ], [ -77.15167, 38.87609 ], [ -77.15245, 38.87805 ], [ -77.15286, 38.878 ], [ -77.15163, 38.87392 ], [ -77.14782, 38.87394 ], [ -77.14716, 38.87573 ] ], [ [ -77.14869, 38.87097 ], [ -77.14931, 38.87054 ], [ -77.14699, 38.86959 ], [ -77.14691, 38.87017 ], [ -77.14869, 38.87097 ] ], [ [ -77.15064, 38.87708 ], [ -77.15055, 38.87681 ], [ -77.15036, 38.87681 ], [ -77.15064, 38.87708 ] ], [ [ -77.14775, 38.85459 ], [ -77.1483, 38.85412 ], [ -77.14805, 38.8536 ], [ -77.14844, 38.853 ], [ -77.14788, 38.85278 ], [ -77.14736, 38.85328 ], [ -77.14799, 38.85377 ], [ -77.14775, 38.85459 ] ], [ [ -77.14712, 38.86624 ], [ -77.14857, 38.866 ], [ -77.14779, 38.86483 ], [ -77.14881, 38.86452 ], [ -77.14733, 38.86249 ], [ -77.14699, 38.86277 ], [ -77.14746, 38.86339 ], [ -77.14613, 38.86459 ], [ -77.14712, 38.86624 ] ], [ [ -77.14716, 38.85861 ], [ -77.14744, 38.8596 ], [ -77.14791, 38.85941 ], [ -77.14716, 38.85861 ] ], [ [ -77.14423, 38.85545 ], [ -77.14416, 38.85554 ], [ -77.14422, 38.85553 ], [ -77.14423, 38.85545 ] ], [ [ -77.14303, 38.85701 ], [ -77.14398, 38.85641 ], [ -77.14374, 38.85608 ], [ -77.14303, 38.85701 ] ], [ [ -77.14037, 38.86547 ], [ -77.14095, 38.86557 ], [ -77.14038, 38.86525 ], [ -77.14037, 38.86547 ] ], [ [ -77.1392, 38.86138 ], [ -77.14119, 38.86272 ], [ -77.14191, 38.86223 ], [ -77.14317, 38.86219 ], [ -77.14254, 38.86177 ], [ -77.14235, 38.86095 ], [ -77.14145, 38.86189 ], [ -77.14092, 38.86185 ], [ -77.14064, 38.86111 ], [ -77.14116, 38.86039 ], [ -77.14042, 38.86019 ], [ -77.1392, 38.86138 ] ], [ [ -77.14016, 38.85717 ], [ -77.14008, 38.85723 ], [ -77.14045, 38.85733 ], [ -77.14016, 38.85717 ] ], [ [ -77.13979, 38.8553 ], [ -77.13956, 38.85517 ], [ -77.13974, 38.85535 ], [ -77.13979, 38.8553 ] ], [ [ -77.14344, 38.86005 ], [ -77.14303, 38.85958 ], [ -77.14291, 38.85963 ], [ -77.14287, 38.85993 ], [ -77.14344, 38.86005 ] ], [ [ -77.14471, 38.86055 ], [ -77.1447, 38.86054 ], [ -77.14469, 38.86055 ], [ -77.14471, 38.86055 ] ], [ [ -77.14352, 38.86496 ], [ -77.14348, 38.86524 ], [ -77.14369, 38.86507 ], [ -77.14352, 38.86496 ] ], [ [ -77.13899, 38.85494 ], [ -77.13913, 38.85496 ], [ -77.13874, 38.85481 ], [ -77.13899, 38.85494 ] ], [ [ -77.13798, 38.86133 ], [ -77.13892, 38.8614 ], [ -77.13832, 38.86088 ], [ -77.13798, 38.86133 ] ], [ [ -77.13906, 38.85983 ], [ -77.13886, 38.86003 ], [ -77.13882, 38.86011 ], [ -77.13906, 38.85983 ] ], [ [ -77.13905, 38.87839 ], [ -77.13903, 38.87838 ], [ -77.13902, 38.87838 ], [ -77.13905, 38.87839 ] ] ] } }
]
}
