{
"type": "FeatureCollection",
"name": "111",
"crs": { "type": "name", "properties": { "name": "urn:ogc:def:crs:OGC:1.3:CRS84" } },
"xy_coordinate_resolution": 1e-05,
"features": [
{ "type": "Feature", "properties": { "variant": "T0", "miles": 1.0 }, "geometry": { "type": "Polygon", "coordinates": [ [ [ -77.1728, 38.81236 ], [ -77.17121, 38.8139 ], [ -77.17367, 38.8149 ], [ -77.1738, 38.8153 ], [ -77.17301, 38.81575 ], [ -77.1707, 38.81493 ], [ -77.16972, 38.81594 ], [ -77.17136, 38.81648 ], [ -77.17134, 38.81712 ], [ -77.17339, 38.81905 ], [ -77.17266, 38.81956 ], [ -77.17218, 38.81937 ], [ -77.16884, 38.81684 ], [ -77.16782, 38.81887 ], [ -77.16819, 38.82028 ], [ -77.16717, 38.823 ], [ -77.16758, 38.82291 ], [ -77.16763, 38.82227 ], [ -77.16909, 38.82161 ], [ -77.16964, 38.82224 ], [ -77.16922, 38.82351 ], [ -77.17058, 38.82385 ], [ -77.17093, 38.82466 ], [ -77.17008, 38.82499 ], [ -77.16758, 38.82437 ], [ -77.16678, 38.82574 ], [ -77.16543, 38.82554 ], [ -77.16567, 38.82648 ], [ -77.16489, 38.82693 ], [ -77.16417, 38.82634 ], [ -77.16409, 38.82529 ], [ -77.16283, 38.82465 ], [ -77.16355, 38.82338 ], [ -77.15948, 38.82617 ], [ -77.15851, 38.82607 ], [ -77.15837, 38.82567 ], [ -77.15912, 38.825 ], [ -77.15756, 38.82474 ], [ -77.15678, 38.8239 ], [ -77.15798, 38.82218 ], [ -77.15673, 38.8217 ], [ -77.15669, 38.82129 ], [ -77.15718, 38.82069 ], [ -77.15808, 38.82077 ], [ -77.15805, 38.81807 ], [ -77.15645, 38.81717 ], [ -77.15647, 38.8178 ], [ -77.15735, 38.81794 ], [ -77.15756, 38.81831 ], [ -77.15737, 38.8187 ], [ -77.15649, 38.81888 ], [ -77.1563, 38.81976 ], [ -77.15582, 38.81993 ], [ -77.15512, 38.81939 ], [ -77.1551, 38.81804 ], [ -77.15395, 38.8179 ], [ -77.15384, 38.81732 ], [ -77.15236, 38.81731 ], [ -77.15174, 38.81697 ], [ -77.15345, 38.81313 ], [ -77.1536, 38.81141 ], [ -77.15245, 38.81166 ], [ -77.15205, 38.81139 ], [ -77.15242, 38.80969 ], [ -77.15339, 38.80974 ], [ -77.15355, 38.81029 ], [ -77.15475, 38.81033 ], [ -77.15563, 38.80975 ], [ -77.15416, 38.81022 ], [ -77.15374, 38.80997 ], [ -77.15398, 38.80923 ], [ -77.15862, 38.80676 ], [ -77.15915, 38.80566 ], [ -77.16023, 38.8052 ], [ -77.16073, 38.80533 ], [ -77.16079, 38.8061 ], [ -77.16, 38.80671 ], [ -77.16043, 38.80856 ], [ -77.15981, 38.80877 ], [ -77.15966, 38.80954 ], [ -77.16052, 38.80859 ], [ -77.16132, 38.80903 ], [ -77.16064, 38.81093 ], [ -77.16189, 38.8093 ], [ -77.16284, 38.80912 ], [ -77.16306, 38.80986 ], [ -77.16194, 38.8113 ], [ -77.16204, 38.81144 ], [ -77.16293, 38.81009 ], [ -77.16344, 38.80998 ], [ -77.16403, 38.81059 ], [ -77.16264, 38.81326 ], [ -77.16185, 38.8135 ], [ -77.16143, 38.81325 ], [ -77.16143, 38.81242 ], [ -77.16054, 38.81368 ], [ -77.16378, 38.81671 ], [ -77.16553, 38.81281 ], [ -77.16649, 38.81294 ], [ -77.16797, 38.81439 ], [ -77.16677, 38.81666 ], [ -77.16927, 38.81451 ], [ -77.16729, 38.81328 ], [ -77.16694, 38.81256 ], [ -77.16724, 38.81222 ], [ -77.16832, 38.81254 ], [ -77.16908, 38.81147 ], [ -77.16961, 38.81145 ], [ -77.17002, 38.81214 ], [ -77.16931, 38.81329 ], [ -77.16978, 38.8135 ], [ -77.17152, 38.81163 ], [ -77.17237, 38.81151 ], [ -77.1728, 38.81236 ] ], [ [ -77.1636, 38.82011 ], [ -77.1621, 38.81871 ], [ -77.16201, 38.82174 ], [ -77.1629, 38.82196 ], [ -77.1636, 38.82011 ] ], [ [ -77.15946, 38.8202 ], [ -77.15944, 38.81975 ], [ -77.15946, 38.82105 ], [ -77.15946, 38.8202 ] ], [ [ -77.15971, 38.81648 ], [ -77.15882, 38.81565 ], [ -77.15811, 38.81582 ], [ -77.1566, 38.81537 ], [ -77.15787, 38.81687 ], [ -77.1594, 38.81755 ], [ -77.15971, 38.81648 ] ], [ [ -77.16233, 38.81723 ], [ -77.16412, 38.81891 ], [ -77.1607, 38.81551 ], [ -77.16233, 38.81723 ] ], [ [ -77.16605, 38.82166 ], [ -77.16616, 38.82186 ], [ -77.16632, 38.82142 ], [ -77.16605, 38.82166 ] ], [ [ -77.16643, 38.81896 ], [ -77.16577, 38.81882 ], [ -77.16533, 38.81982 ], [ -77.16617, 38.82022 ], [ -77.16648, 38.82101 ], [ -77.1668, 38.8202 ], [ -77.16643, 38.81896 ] ], [ [ -77.16664, 38.8179 ], [ -77.16676, 38.81794 ], [ -77.16679, 38.81787 ], [ -77.16664, 38.8179 ] ], [ [ -77.16647, 38.81462 ], [ -77.16625, 38.81443 ], [ -77.1653, 38.81655 ], [ -77.16647, 38.81462 ] ], [ [ -77.1608, 38.81816 ], [ -77.16122, 38.81787 ], [ -77.16078, 38.81747 ], [ -77.1608, 38.81816 ] ], [ [ -77.16015, 38.81201 ], [ -77.1595, 38.81167 ], [ -77.15925, 38.81248 ], [ -77.15952, 38.81272 ], [ -77.16015, 38.81201 ] ], [ [ -77.16142, 38.82331 ], [ -77.16167, 38.82314 ], [ -77.16104, 38.82297 ], [ -77.16142, 38.82331 ] ], [ [ -77.15924, 38.82262 ], [ -77.1597, 38.82259 ], [ -77.15932, 38.8225 ], [ -77.15924, 38.82262 ] ], [ [ -77.15688, 38.81375 ], [ -77.15656, 38.81419 ], [ -77.15773, 38.81455 ], [ -77.15688, 38.81375 ] ], [ [ -77.15968, 38.81476 ], [ -77.15981, 38.81468 ], [ -77.15766, 38.81267 ], [ -77.15968, 38.81476 ] ], [ [ -77.15854, 38.80807 ], [ -77.15854, 38.80806 ], [ -77.15741, 38.80869 ], [ -77.15674, 38.80911 ], [ -77.15854, 38.80807 ] ], [ [ -77.15504, 38.81204 ], [ -77.15545, 38.81178 ], [ -77.1566, 38.81193 ], [ -77.15518, 38.81153 ], [ -77.15494, 38.81173 ], [ -77.15457, 38.81399 ], [ -77.15516, 38.814 ], [ -77.15583, 38.813 ], [ -77.15504, 38.81204 ] ], [ [ -77.15639, 38.81066 ], [ -77.15662, 38.81073 ], [ -77.15646, 38.81061 ], [ -77.15639, 38.81066 ] ] ] } },
{ "type": "Feature", "properties": { "variant": "T0", "miles": 1.5 }, "geometry": { "type": "Polygon", "coordinates": [ [ [ -77.17857, 38.81049 ], [ -77.17907, 38.81048 ], [ -77.17927, 38.80981 ], [ -77.17976, 38.80966 ], [ -77.18075, 38.80982 ], [ -77.18095, 38.8102 ], [ -77.18015, 38.81132 ], [ -77.18129, 38.8113 ], [ -77.18199, 38.81184 ], [ -77.18177, 38.81233 ], [ -77.18033, 38.81248 ], [ -77.18051, 38.81312 ], [ -77.17989, 38.81371 ], [ -77.17938, 38.81359 ], [ -77.17892, 38.81247 ], [ -77.17509, 38.81248 ], [ -77.1758, 38.81923 ], [ -77.17686, 38.82005 ], [ -77.1768, 38.82047 ], [ -77.17586, 38.82067 ], [ -77.17458, 38.81983 ], [ -77.17433, 38.81837 ], [ -77.17286, 38.81691 ], [ -77.17202, 38.81682 ], [ -77.17143, 38.81628 ], [ -77.17131, 38.81588 ], [ -77.17198, 38.81547 ], [ -77.1707, 38.81493 ], [ -77.16972, 38.81594 ], [ -77.17136, 38.81648 ], [ -77.17134, 38.81712 ], [ -77.17413, 38.81949 ], [ -77.17443, 38.82194 ], [ -77.17564, 38.8215 ], [ -77.17635, 38.82202 ], [ -77.17393, 38.82467 ], [ -77.17555, 38.82492 ], [ -77.17708, 38.82286 ], [ -77.17805, 38.82294 ], [ -77.1782, 38.82359 ], [ -77.17763, 38.82434 ], [ -77.17815, 38.82471 ], [ -77.17834, 38.82681 ], [ -77.17798, 38.82711 ], [ -77.17711, 38.82703 ], [ -77.17621, 38.82819 ], [ -77.17492, 38.82854 ], [ -77.17295, 38.82792 ], [ -77.17248, 38.82727 ], [ -77.17162, 38.82788 ], [ -77.17065, 38.82785 ], [ -77.17068, 38.82677 ], [ -77.16876, 38.82759 ], [ -77.16748, 38.82876 ], [ -77.16539, 38.82835 ], [ -77.16177, 38.82629 ], [ -77.16169, 38.82588 ], [ -77.1626, 38.82513 ], [ -77.16261, 38.82432 ], [ -77.16355, 38.82338 ], [ -77.16013, 38.82575 ], [ -77.16444, 38.82872 ], [ -77.16593, 38.83025 ], [ -77.16696, 38.83027 ], [ -77.16688, 38.83103 ], [ -77.16499, 38.83203 ], [ -77.16452, 38.83184 ], [ -77.16484, 38.83091 ], [ -77.16415, 38.83015 ], [ -77.16388, 38.83068 ], [ -77.16336, 38.83075 ], [ -77.16271, 38.83024 ], [ -77.1629, 38.83156 ], [ -77.16242, 38.83208 ], [ -77.16189, 38.83209 ], [ -77.15484, 38.83005 ], [ -77.15321, 38.8301 ], [ -77.15288, 38.83145 ], [ -77.15177, 38.83144 ], [ -77.15056, 38.82925 ], [ -77.15047, 38.82663 ], [ -77.14945, 38.82649 ], [ -77.14924, 38.82611 ], [ -77.14943, 38.82572 ], [ -77.15045, 38.82555 ], [ -77.15038, 38.82173 ], [ -77.14949, 38.82097 ], [ -77.14938, 38.8201 ], [ -77.14862, 38.81999 ], [ -77.14801, 38.82122 ], [ -77.1464, 38.82068 ], [ -77.14653, 38.81992 ], [ -77.14726, 38.81978 ], [ -77.14581, 38.81957 ], [ -77.14526, 38.81894 ], [ -77.14754, 38.81723 ], [ -77.14867, 38.8178 ], [ -77.14855, 38.81696 ], [ -77.1492, 38.81639 ], [ -77.15004, 38.81678 ], [ -77.15028, 38.81832 ], [ -77.15097, 38.81845 ], [ -77.15345, 38.81313 ], [ -77.1536, 38.81141 ], [ -77.15245, 38.81166 ], [ -77.15205, 38.81139 ], [ -77.15242, 38.80969 ], [ -77.15339, 38.80974 ], [ -77.15355, 38.81029 ], [ -77.15475, 38.81033 ], [ -77.15563, 38.80975 ], [ -77.15416, 38.81022 ], [ -77.15374, 38.80997 ], [ -77.15398, 38.80923 ], [ -77.15862, 38.80676 ], [ -77.15893, 38.80583 ], [ -77.16067, 38.8047 ], [ -77.16488, 38.80339 ], [ -77.16712, 38.80444 ], [ -77.16784, 38.8039 ], [ -77.16835, 38.804 ], [ -77.16938, 38.80481 ], [ -77.16926, 38.80521 ], [ -77.1681, 38.80521 ], [ -77.16736, 38.80573 ], [ -77.1659, 38.80507 ], [ -77.16507, 38.80574 ], [ -77.16507, 38.80677 ], [ -77.16454, 38.80734 ], [ -77.16225, 38.80778 ], [ -77.16096, 38.80593 ], [ -77.16, 38.80671 ], [ -77.16, 38.8077 ], [ -77.16052, 38.80815 ], [ -77.15981, 38.80877 ], [ -77.15966, 38.80954 ], [ -77.16052, 38.80859 ], [ -77.16132, 38.80903 ], [ -77.16055, 38.81089 ], [ -77.16231, 38.80906 ], [ -77.16315, 38.80946 ], [ -77.16188, 38.8114 ], [ -77.16293, 38.81009 ], [ -77.16344, 38.80998 ], [ -77.16403, 38.81059 ], [ -77.16264, 38.81326 ], [ -77.16185, 38.8135 ], [ -77.16143, 38.81325 ], [ -77.16143, 38.81242 ], [ -77.16054, 38.81368 ], [ -77.16378, 38.81671 ], [ -77.16525, 38.81316 ], [ -77.16605, 38.81271 ], [ -77.168, 38.81455 ], [ -77.16677, 38.81666 ], [ -77.16927, 38.81451 ], [ -77.16751, 38.81351 ], [ -77.16532, 38.81085 ], [ -77.16611, 38.8104 ], [ -77.16712, 38.80779 ], [ -77.16896, 38.80787 ], [ -77.17029, 38.8048 ], [ -77.17113, 38.80466 ], [ -77.17401, 38.80561 ], [ -77.174, 38.81133 ], [ -77.17441, 38.8091 ], [ -77.17601, 38.80846 ], [ -77.17697, 38.80882 ], [ -77.17857, 38.81049 ] ], [ [ -77.1636, 38.82011 ], [ -77.1621, 38.81871 ], [ -77.16201, 38.82174 ], [ -77.1629, 38.82196 ], [ -77.1636, 38.82011 ] ], [ [ -77.16412, 38.81891 ], [ -77.1607, 38.81551 ], [ -77.16056, 38.8156 ], [ -77.16412, 38.81891 ] ], [ [ -77.17399, 38.82617 ], [ -77.17298, 38.82692 ], [ -77.17334, 38.82689 ], [ -77.17399, 38.82617 ] ], [ [ -77.16996, 38.82331 ], [ -77.16928, 38.82337 ], [ -77.16922, 38.82351 ], [ -77.16987, 38.82361 ], [ -77.16996, 38.82331 ] ], [ [ -77.17005, 38.82193 ], [ -77.17022, 38.8225 ], [ -77.17053, 38.82194 ], [ -77.16943, 38.82155 ], [ -77.16968, 38.82081 ], [ -77.17276, 38.82127 ], [ -77.1699, 38.82055 ], [ -77.1694, 38.8199 ], [ -77.16971, 38.81957 ], [ -77.17289, 38.81999 ], [ -77.16965, 38.81904 ], [ -77.16993, 38.81831 ], [ -77.171, 38.81839 ], [ -77.16884, 38.81684 ], [ -77.16782, 38.81887 ], [ -77.16819, 38.82028 ], [ -77.16717, 38.823 ], [ -77.16858, 38.82169 ], [ -77.17005, 38.82193 ] ], [ [ -77.17002, 38.81214 ], [ -77.16931, 38.81329 ], [ -77.16978, 38.8135 ], [ -77.17117, 38.81185 ], [ -77.17064, 38.81097 ], [ -77.17088, 38.80681 ], [ -77.17, 38.80859 ], [ -77.16838, 38.80903 ], [ -77.16926, 38.81009 ], [ -77.16875, 38.81174 ], [ -77.16961, 38.81145 ], [ -77.17002, 38.81214 ] ], [ [ -77.17405, 38.81589 ], [ -77.17384, 38.81587 ], [ -77.17389, 38.81618 ], [ -77.17412, 38.81641 ], [ -77.17405, 38.81589 ] ], [ [ -77.17394, 38.81478 ], [ -77.17136, 38.8136 ], [ -77.17121, 38.8139 ], [ -77.17394, 38.81478 ] ], [ [ -77.17371, 38.8125 ], [ -77.1722, 38.81273 ], [ -77.17311, 38.81339 ], [ -77.1738, 38.81349 ], [ -77.17371, 38.8125 ] ], [ [ -77.17282, 38.80721 ], [ -77.17224, 38.80711 ], [ -77.17202, 38.81093 ], [ -77.17246, 38.8114 ], [ -77.17282, 38.80721 ] ], [ [ -77.17314, 38.8237 ], [ -77.17325, 38.82357 ], [ -77.17236, 38.82428 ], [ -77.17314, 38.8237 ] ], [ [ -77.1738, 38.82298 ], [ -77.17354, 38.82278 ], [ -77.17351, 38.82329 ], [ -77.1738, 38.82298 ] ], [ [ -77.17176, 38.82246 ], [ -77.172, 38.82224 ], [ -77.17187, 38.82221 ], [ -77.17176, 38.82246 ] ], [ [ -77.17145, 38.82337 ], [ -77.17143, 38.82317 ], [ -77.17143, 38.82324 ], [ -77.17145, 38.82337 ] ], [ [ -77.16787, 38.81026 ], [ -77.16773, 38.81012 ], [ -77.16718, 38.81123 ], [ -77.16741, 38.81146 ], [ -77.16787, 38.81026 ] ], [ [ -77.16643, 38.81896 ], [ -77.16577, 38.81882 ], [ -77.16533, 38.81982 ], [ -77.16617, 38.82022 ], [ -77.16648, 38.82101 ], [ -77.16678, 38.82026 ], [ -77.16643, 38.81896 ] ], [ [ -77.16647, 38.81462 ], [ -77.16625, 38.81443 ], [ -77.1661, 38.81469 ], [ -77.16535, 38.81643 ], [ -77.16647, 38.81462 ] ], [ [ -77.16664, 38.8179 ], [ -77.16676, 38.81794 ], [ -77.16679, 38.81787 ], [ -77.16664, 38.8179 ] ], [ [ -77.16616, 38.82186 ], [ -77.16632, 38.82142 ], [ -77.16612, 38.82157 ], [ -77.16616, 38.82186 ] ], [ [ -77.1663, 38.82577 ], [ -77.16631, 38.82583 ], [ -77.16668, 38.82585 ], [ -77.1663, 38.82577 ] ], [ [ -77.15908, 38.82984 ], [ -77.15773, 38.8289 ], [ -77.15769, 38.82972 ], [ -77.15908, 38.82984 ] ], [ [ -77.15778, 38.82722 ], [ -77.15765, 38.8273 ], [ -77.15916, 38.82845 ], [ -77.15778, 38.82722 ] ], [ [ -77.15514, 38.82887 ], [ -77.15498, 38.82897 ], [ -77.15636, 38.82933 ], [ -77.15657, 38.82798 ], [ -77.15514, 38.82887 ] ], [ [ -77.15725, 38.82502 ], [ -77.15625, 38.82502 ], [ -77.15628, 38.82564 ], [ -77.15558, 38.82585 ], [ -77.15567, 38.8263 ], [ -77.15652, 38.82661 ], [ -77.15725, 38.82502 ] ], [ [ -77.15749, 38.82297 ], [ -77.15798, 38.82218 ], [ -77.15594, 38.82167 ], [ -77.1553, 38.82288 ], [ -77.15478, 38.82298 ], [ -77.15306, 38.8222 ], [ -77.15287, 38.82083 ], [ -77.15074, 38.82035 ], [ -77.15174, 38.82147 ], [ -77.15183, 38.82572 ], [ -77.15263, 38.82578 ], [ -77.15279, 38.82494 ], [ -77.15213, 38.82437 ], [ -77.15235, 38.82399 ], [ -77.15385, 38.82343 ], [ -77.15444, 38.82419 ], [ -77.15511, 38.82316 ], [ -77.15601, 38.82261 ], [ -77.15749, 38.82297 ] ], [ [ -77.15737, 38.81961 ], [ -77.1565, 38.81981 ], [ -77.15652, 38.82039 ], [ -77.15704, 38.82051 ], [ -77.15737, 38.81961 ] ], [ [ -77.15805, 38.81807 ], [ -77.15645, 38.81717 ], [ -77.15647, 38.8178 ], [ -77.15735, 38.81794 ], [ -77.1575, 38.81845 ], [ -77.15804, 38.81853 ], [ -77.15805, 38.81807 ] ], [ [ -77.15688, 38.81375 ], [ -77.15656, 38.81419 ], [ -77.15773, 38.81455 ], [ -77.15688, 38.81375 ] ], [ [ -77.15518, 38.81153 ], [ -77.15494, 38.81173 ], [ -77.15457, 38.81399 ], [ -77.15516, 38.814 ], [ -77.15583, 38.813 ], [ -77.15499, 38.81246 ], [ -77.15504, 38.81204 ], [ -77.15545, 38.81178 ], [ -77.1566, 38.81193 ], [ -77.15518, 38.81153 ] ], [ [ -77.15639, 38.81066 ], [ -77.15662, 38.81073 ], [ -77.15655, 38.81067 ], [ -77.15639, 38.81066 ] ], [ [ -77.15854, 38.80807 ], [ -77.15854, 38.80806 ], [ -77.15741, 38.80869 ], [ -77.15674, 38.80911 ], [ -77.15854, 38.80807 ] ], [ [ -77.16035, 38.83049 ], [ -77.16152, 38.83083 ], [ -77.16077, 38.82928 ], [ -77.16044, 38.82906 ], [ -77.16035, 38.83049 ] ], [ [ -77.16118, 38.82791 ], [ -77.15888, 38.82654 ], [ -77.16061, 38.82773 ], [ -77.16118, 38.82791 ] ], [ [ -77.15872, 38.82495 ], [ -77.15857, 38.82535 ], [ -77.15873, 38.82526 ], [ -77.15909, 38.82503 ], [ -77.15872, 38.82495 ] ], [ [ -77.1597, 38.82259 ], [ -77.15932, 38.8225 ], [ -77.15924, 38.82262 ], [ -77.1597, 38.82259 ] ], [ [ -77.15946, 38.8202 ], [ -77.15944, 38.81975 ], [ -77.15946, 38.82104 ], [ -77.15946, 38.8202 ] ], [ [ -77.15971, 38.81648 ], [ -77.15933, 38.81612 ], [ -77.1594, 38.81707 ], [ -77.15971, 38.81648 ] ], [ [ -77.15852, 38.81349 ], [ -77.15766, 38.81267 ], [ -77.15968, 38.81476 ], [ -77.15852, 38.81349 ] ], [ [ -77.16015, 38.81201 ], [ -77.1595, 38.81167 ], [ -77.15925, 38.81248 ], [ -77.15945, 38.81267 ], [ -77.16015, 38.81201 ] ], [ [ -77.16122, 38.81787 ], [ -77.16078, 38.81747 ], [ -77.1608, 38.81816 ], [ -77.16122, 38.81787 ] ], [ [ -77.16142, 38.82331 ], [ -77.16167, 38.82314 ], [ -77.16104, 38.82297 ], [ -77.16142, 38.82331 ] ], [ [ -77.15875, 38.81572 ], [ -77.15896, 38.81578 ], [ -77.15882, 38.81565 ], [ -77.15875, 38.81572 ] ], [ [ -77.1577, 38.8167 ], [ -77.15797, 38.81691 ], [ -77.15785, 38.81621 ], [ -77.15834, 38.81581 ], [ -77.1566, 38.81537 ], [ -77.1577, 38.8167 ] ], [ [ -77.15379, 38.827 ], [ -77.15349, 38.82851 ], [ -77.15535, 38.82736 ], [ -77.15379, 38.827 ] ], [ [ -77.15483, 38.82568 ], [ -77.15416, 38.82509 ], [ -77.154, 38.82593 ], [ -77.15483, 38.82568 ] ], [ [ -77.15585, 38.8248 ], [ -77.15584, 38.82482 ], [ -77.15588, 38.82483 ], [ -77.15585, 38.8248 ] ], [ [ -77.15578, 38.8248 ], [ -77.15584, 38.82479 ], [ -77.15572, 38.82471 ], [ -77.15578, 38.8248 ] ], [ [ -77.15425, 38.82138 ], [ -77.15423, 38.8215 ], [ -77.15426, 38.8215 ], [ -77.15425, 38.82138 ] ], [ [ -77.15272, 38.81955 ], [ -77.15293, 38.8196 ], [ -77.15292, 38.81955 ], [ -77.15272, 38.81955 ] ], [ [ -77.15242, 38.82684 ], [ -77.15185, 38.82681 ], [ -77.15197, 38.82914 ], [ -77.15242, 38.82684 ] ] ] } },
{ "type": "Feature", "properties": { "variant": "T0", "miles": 2.0 }, "geometry": { "type": "Polygon", "coordinates": [ [ [ -77.18067, 38.80445 ], [ -77.18088, 38.80489 ], [ -77.18043, 38.80534 ], [ -77.18113, 38.80637 ], [ -77.18509, 38.80657 ], [ -77.18604, 38.80861 ], [ -77.18808, 38.80857 ], [ -77.18861, 38.80921 ], [ -77.18825, 38.80981 ], [ -77.18989, 38.80978 ], [ -77.19015, 38.81187 ], [ -77.18951, 38.81242 ], [ -77.18715, 38.81245 ], [ -77.18771, 38.81577 ], [ -77.18688, 38.81618 ], [ -77.18607, 38.81533 ], [ -77.18582, 38.81372 ], [ -77.18377, 38.81357 ], [ -77.18353, 38.81249 ], [ -77.18258, 38.81249 ], [ -77.18324, 38.81298 ], [ -77.18271, 38.81351 ], [ -77.18341, 38.81906 ], [ -77.18259, 38.81948 ], [ -77.18216, 38.81925 ], [ -77.18215, 38.81837 ], [ -77.18165, 38.81846 ], [ -77.1816, 38.82088 ], [ -77.1807, 38.82145 ], [ -77.18028, 38.8212 ], [ -77.18026, 38.81935 ], [ -77.17954, 38.81877 ], [ -77.18011, 38.81827 ], [ -77.17928, 38.81791 ], [ -77.17956, 38.82129 ], [ -77.17906, 38.82173 ], [ -77.17773, 38.82192 ], [ -77.17743, 38.82264 ], [ -77.17882, 38.82284 ], [ -77.17993, 38.82345 ], [ -77.18103, 38.8253 ], [ -77.18317, 38.82664 ], [ -77.18325, 38.82745 ], [ -77.18485, 38.82781 ], [ -77.1848, 38.82635 ], [ -77.18512, 38.82602 ], [ -77.18606, 38.82622 ], [ -77.18642, 38.82691 ], [ -77.18623, 38.82812 ], [ -77.18826, 38.82851 ], [ -77.1882, 38.82941 ], [ -77.18735, 38.82976 ], [ -77.18601, 38.82934 ], [ -77.18614, 38.83077 ], [ -77.18522, 38.83103 ], [ -77.18462, 38.83016 ], [ -77.18121, 38.82886 ], [ -77.18097, 38.82811 ], [ -77.18035, 38.82791 ], [ -77.1768, 38.83291 ], [ -77.17641, 38.83319 ], [ -77.17518, 38.83302 ], [ -77.17467, 38.83237 ], [ -77.17518, 38.83192 ], [ -77.17386, 38.83163 ], [ -77.17337, 38.83289 ], [ -77.17425, 38.83413 ], [ -77.17411, 38.83453 ], [ -77.17314, 38.83462 ], [ -77.17223, 38.8335 ], [ -77.17118, 38.83342 ], [ -77.17108, 38.83475 ], [ -77.1718, 38.83496 ], [ -77.1719, 38.83572 ], [ -77.17077, 38.836 ], [ -77.17016, 38.8357 ], [ -77.17019, 38.83637 ], [ -77.16972, 38.83656 ], [ -77.16833, 38.83655 ], [ -77.16779, 38.83615 ], [ -77.16729, 38.83704 ], [ -77.16763, 38.83796 ], [ -77.16698, 38.83853 ], [ -77.16625, 38.83802 ], [ -77.166, 38.83664 ], [ -77.16428, 38.8364 ], [ -77.16404, 38.8371 ], [ -77.16306, 38.83707 ], [ -77.16315, 38.83334 ], [ -77.16198, 38.83765 ], [ -77.16155, 38.83804 ], [ -77.15678, 38.83667 ], [ -77.15589, 38.83533 ], [ -77.15446, 38.83581 ], [ -77.1542, 38.83683 ], [ -77.15371, 38.83699 ], [ -77.15307, 38.83656 ], [ -77.15032, 38.83636 ], [ -77.14925, 38.83701 ], [ -77.14827, 38.83694 ], [ -77.14812, 38.83655 ], [ -77.14904, 38.83574 ], [ -77.14851, 38.83523 ], [ -77.14864, 38.83483 ], [ -77.1491, 38.83462 ], [ -77.14995, 38.8349 ], [ -77.15123, 38.83418 ], [ -77.14553, 38.83281 ], [ -77.14512, 38.83255 ], [ -77.14531, 38.83151 ], [ -77.14405, 38.83074 ], [ -77.14457, 38.83009 ], [ -77.14641, 38.83066 ], [ -77.148, 38.82963 ], [ -77.14675, 38.82966 ], [ -77.14632, 38.82898 ], [ -77.14793, 38.82814 ], [ -77.15121, 38.83058 ], [ -77.15053, 38.82912 ], [ -77.15047, 38.82663 ], [ -77.14945, 38.82649 ], [ -77.14924, 38.82611 ], [ -77.14943, 38.82572 ], [ -77.15045, 38.82555 ], [ -77.15038, 38.82173 ], [ -77.14952, 38.82102 ], [ -77.14866, 38.82364 ], [ -77.14671, 38.82419 ], [ -77.14488, 38.82309 ], [ -77.14495, 38.82143 ], [ -77.14355, 38.82105 ], [ -77.14341, 38.82175 ], [ -77.14392, 38.82265 ], [ -77.14129, 38.82366 ], [ -77.14098, 38.82293 ], [ -77.14186, 38.82209 ], [ -77.13986, 38.82059 ], [ -77.13825, 38.82033 ], [ -77.13921, 38.81914 ], [ -77.14046, 38.81951 ], [ -77.14087, 38.81818 ], [ -77.13713, 38.8159 ], [ -77.13702, 38.81514 ], [ -77.13815, 38.81497 ], [ -77.14064, 38.81654 ], [ -77.14053, 38.816 ], [ -77.14181, 38.81423 ], [ -77.14269, 38.81459 ], [ -77.14345, 38.81362 ], [ -77.14532, 38.81339 ], [ -77.14567, 38.8127 ], [ -77.14781, 38.81281 ], [ -77.14819, 38.81238 ], [ -77.14922, 38.81249 ], [ -77.14958, 38.81172 ], [ -77.15088, 38.81156 ], [ -77.15122, 38.81244 ], [ -77.15076, 38.81334 ], [ -77.15108, 38.81373 ], [ -77.15239, 38.814 ], [ -77.15254, 38.8144 ], [ -77.15057, 38.81601 ], [ -77.1508, 38.8167 ], [ -77.15002, 38.81693 ], [ -77.15028, 38.81832 ], [ -77.15097, 38.81845 ], [ -77.15345, 38.81313 ], [ -77.1536, 38.81141 ], [ -77.15245, 38.81166 ], [ -77.15205, 38.81139 ], [ -77.15242, 38.80969 ], [ -77.15339, 38.80974 ], [ -77.15355, 38.81029 ], [ -77.15475, 38.81033 ], [ -77.15563, 38.80975 ], [ -77.15416, 38.81022 ], [ -77.15374, 38.80997 ], [ -77.15398, 38.80923 ], [ -77.15862, 38.80676 ], [ -77.15888, 38.80588 ], [ -77.16039, 38.80482 ], [ -77.16471, 38.80341 ], [ -77.16249, 38.80253 ], [ -77.16082, 38.80297 ], [ -77.1595, 38.80389 ], [ -77.15852, 38.8038 ], [ -77.15834, 38.80318 ], [ -77.15935, 38.80223 ], [ -77.15888, 38.80132 ], [ -77.16122, 38.80063 ], [ -77.16135, 38.79979 ], [ -77.1623, 38.79995 ], [ -77.16281, 38.80062 ], [ -77.16386, 38.80044 ], [ -77.16427, 38.80113 ], [ -77.16377, 38.80149 ], [ -77.1687, 38.80421 ], [ -77.16933, 38.80395 ], [ -77.17011, 38.8045 ], [ -77.17035, 38.80387 ], [ -77.17132, 38.8039 ], [ -77.17173, 38.80506 ], [ -77.17235, 38.80286 ], [ -77.17286, 38.80275 ], [ -77.17356, 38.80321 ], [ -77.17371, 38.80211 ], [ -77.17446, 38.80162 ], [ -77.17504, 38.80209 ], [ -77.17836, 38.80236 ], [ -77.17906, 38.802 ], [ -77.17961, 38.80247 ], [ -77.18188, 38.80265 ], [ -77.18252, 38.80318 ], [ -77.18233, 38.80428 ], [ -77.18067, 38.80445 ] ], [ [ -77.16451, 38.83493 ], [ -77.16453, 38.83431 ], [ -77.16442, 38.83487 ], [ -77.16455, 38.83518 ], [ -77.16451, 38.83493 ] ], [ [ -77.16491, 38.83225 ], [ -77.16424, 38.83267 ], [ -77.16426, 38.8327 ], [ -77.16491, 38.83225 ] ], [ [ -77.17093, 38.82683 ], [ -77.17013, 38.8268 ], [ -77.16748, 38.82876 ], [ -77.1639, 38.82768 ], [ -77.16354, 38.82702 ], [ -77.16177, 38.82629 ], [ -77.16169, 38.82588 ], [ -77.1626, 38.82513 ], [ -77.16261, 38.82432 ], [ -77.16355, 38.82338 ], [ -77.16013, 38.82575 ], [ -77.16444, 38.82872 ], [ -77.16594, 38.83024 ], [ -77.17093, 38.82683 ] ], [ [ -77.16348, 38.81814 ], [ -77.1607, 38.81551 ], [ -77.16412, 38.81891 ], [ -77.16348, 38.81814 ] ], [ [ -77.16553, 38.81281 ], [ -77.16649, 38.81294 ], [ -77.16797, 38.81439 ], [ -77.16677, 38.81666 ], [ -77.16927, 38.81451 ], [ -77.16758, 38.81357 ], [ -77.16545, 38.81125 ], [ -77.16532, 38.81085 ], [ -77.16611, 38.8104 ], [ -77.16675, 38.80913 ], [ -77.16655, 38.80856 ], [ -77.16558, 38.81009 ], [ -77.16467, 38.80983 ], [ -77.16613, 38.80626 ], [ -77.16636, 38.80535 ], [ -77.1659, 38.80507 ], [ -77.16507, 38.80574 ], [ -77.16494, 38.80704 ], [ -77.16414, 38.80747 ], [ -77.16225, 38.80778 ], [ -77.16096, 38.80593 ], [ -77.16003, 38.8065 ], [ -77.16, 38.8077 ], [ -77.16052, 38.80815 ], [ -77.15981, 38.80877 ], [ -77.15966, 38.80954 ], [ -77.16052, 38.80859 ], [ -77.16132, 38.80903 ], [ -77.16055, 38.81089 ], [ -77.16231, 38.80906 ], [ -77.16315, 38.80946 ], [ -77.16188, 38.8114 ], [ -77.16293, 38.81009 ], [ -77.16344, 38.80998 ], [ -77.16403, 38.81059 ], [ -77.16264, 38.81326 ], [ -77.16185, 38.8135 ], [ -77.16143, 38.81325 ], [ -77.16143, 38.81242 ], [ -77.16054, 38.81368 ], [ -77.16378, 38.81671 ], [ -77.16553, 38.81281 ] ], [ [ -77.17782, 38.82923 ], [ -77.17311, 38.82796 ], [ -77.17487, 38.8288 ], [ -77.17516, 38.82946 ], [ -77.17715, 38.83016 ], [ -77.17782, 38.82923 ] ], [ [ -77.17202, 38.8276 ], [ -77.17205, 38.82781 ], [ -77.17268, 38.82776 ], [ -77.17248, 38.82727 ], [ -77.17202, 38.8276 ] ], [ [ -77.17314, 38.8237 ], [ -77.17325, 38.82357 ], [ -77.17236, 38.82428 ], [ -77.17314, 38.8237 ] ], [ [ -77.17137, 38.82334 ], [ -77.17145, 38.82337 ], [ -77.17143, 38.82324 ], [ -77.17137, 38.82334 ] ], [ [ -77.172, 38.82224 ], [ -77.17187, 38.82221 ], [ -77.17181, 38.82239 ], [ -77.172, 38.82224 ] ], [ [ -77.17276, 38.82127 ], [ -77.16948, 38.82031 ], [ -77.16971, 38.81957 ], [ -77.17024, 38.81951 ], [ -77.17289, 38.81999 ], [ -77.16965, 38.81904 ], [ -77.16993, 38.81831 ], [ -77.171, 38.81839 ], [ -77.16884, 38.81684 ], [ -77.16782, 38.81887 ], [ -77.16819, 38.82028 ], [ -77.16717, 38.823 ], [ -77.16858, 38.82169 ], [ -77.17005, 38.82193 ], [ -77.17022, 38.8225 ], [ -77.17053, 38.82194 ], [ -77.16943, 38.82155 ], [ -77.16968, 38.82081 ], [ -77.17276, 38.82127 ] ], [ [ -77.17442, 38.82193 ], [ -77.17463, 38.8221 ], [ -77.17564, 38.8215 ], [ -77.17631, 38.82195 ], [ -77.17635, 38.82072 ], [ -77.17458, 38.81983 ], [ -77.17433, 38.81837 ], [ -77.17286, 38.81691 ], [ -77.17167, 38.81659 ], [ -77.17131, 38.81588 ], [ -77.17198, 38.81547 ], [ -77.1707, 38.81493 ], [ -77.16972, 38.81594 ], [ -77.17136, 38.81648 ], [ -77.17134, 38.81712 ], [ -77.17396, 38.81931 ], [ -77.17442, 38.82193 ] ], [ [ -77.17394, 38.81478 ], [ -77.17136, 38.8136 ], [ -77.17121, 38.8139 ], [ -77.17394, 38.81478 ] ], [ [ -77.17282, 38.80721 ], [ -77.17224, 38.80711 ], [ -77.17202, 38.81093 ], [ -77.17258, 38.81138 ], [ -77.17282, 38.80721 ] ], [ [ -77.17998, 38.81584 ], [ -77.17936, 38.81502 ], [ -77.1787, 38.81247 ], [ -77.17918, 38.81695 ], [ -77.17963, 38.8169 ], [ -77.17941, 38.81609 ], [ -77.17998, 38.81584 ] ], [ [ -77.18077, 38.81482 ], [ -77.18131, 38.81553 ], [ -77.18153, 38.81736 ], [ -77.18203, 38.81724 ], [ -77.18177, 38.81484 ], [ -77.18134, 38.81363 ], [ -77.18056, 38.81368 ], [ -77.1813, 38.81426 ], [ -77.18077, 38.81482 ] ], [ [ -77.18213, 38.81249 ], [ -77.18033, 38.81248 ], [ -77.18037, 38.81261 ], [ -77.18213, 38.81249 ] ], [ [ -77.17775, 38.82082 ], [ -77.1782, 38.82077 ], [ -77.17732, 38.81247 ], [ -77.17684, 38.81247 ], [ -77.17775, 38.82082 ] ], [ [ -77.17603, 38.80342 ], [ -77.17587, 38.80403 ], [ -77.17621, 38.80371 ], [ -77.17603, 38.80342 ] ], [ [ -77.18044, 38.81106 ], [ -77.18041, 38.81095 ], [ -77.18015, 38.81132 ], [ -77.18044, 38.81106 ] ], [ [ -77.18103, 38.80912 ], [ -77.18045, 38.80882 ], [ -77.18045, 38.80968 ], [ -77.18103, 38.80912 ] ], [ [ -77.18398, 38.81081 ], [ -77.18332, 38.81129 ], [ -77.1856, 38.81128 ], [ -77.18516, 38.80998 ], [ -77.18404, 38.8099 ], [ -77.18398, 38.81081 ] ], [ [ -77.18403, 38.80748 ], [ -77.18092, 38.80747 ], [ -77.18222, 38.80844 ], [ -77.18319, 38.8085 ], [ -77.18327, 38.80907 ], [ -77.18474, 38.80895 ], [ -77.18403, 38.80748 ] ], [ [ -77.18184, 38.81008 ], [ -77.18178, 38.81031 ], [ -77.18269, 38.81031 ], [ -77.18184, 38.81008 ] ], [ [ -77.18491, 38.81248 ], [ -77.18492, 38.81264 ], [ -77.18578, 38.81263 ], [ -77.18491, 38.81248 ] ], [ [ -77.17885, 38.80555 ], [ -77.17893, 38.80555 ], [ -77.17889, 38.80551 ], [ -77.17885, 38.80555 ] ], [ [ -77.17749, 38.80554 ], [ -77.17777, 38.80554 ], [ -77.17766, 38.80538 ], [ -77.17749, 38.80554 ] ], [ [ -77.1778, 38.8034 ], [ -77.17788, 38.80346 ], [ -77.17793, 38.80341 ], [ -77.1778, 38.8034 ] ], [ [ -77.18468, 38.82904 ], [ -77.18462, 38.82903 ], [ -77.18462, 38.82905 ], [ -77.18468, 38.82904 ] ], [ [ -77.17546, 38.81248 ], [ -77.17509, 38.81248 ], [ -77.1758, 38.81923 ], [ -77.17622, 38.81952 ], [ -77.17546, 38.81248 ] ], [ [ -77.17575, 38.82451 ], [ -77.1754, 38.82488 ], [ -77.17555, 38.82492 ], [ -77.17657, 38.82363 ], [ -77.17575, 38.82451 ] ], [ [ -77.17841, 38.82581 ], [ -77.17914, 38.82605 ], [ -77.17956, 38.82528 ], [ -77.1789, 38.82487 ], [ -77.17841, 38.82581 ] ], [ [ -77.1776, 38.82799 ], [ -77.1785, 38.82828 ], [ -77.17899, 38.8276 ], [ -77.17803, 38.8273 ], [ -77.1776, 38.82799 ] ], [ [ -77.17452, 38.80744 ], [ -77.17419, 38.80739 ], [ -77.174, 38.81133 ], [ -77.17423, 38.81134 ], [ -77.17452, 38.80744 ] ], [ [ -77.1738, 38.81349 ], [ -77.17371, 38.8125 ], [ -77.1722, 38.81273 ], [ -77.1738, 38.81349 ] ], [ [ -77.17412, 38.81641 ], [ -77.17384, 38.81587 ], [ -77.17387, 38.81608 ], [ -77.17412, 38.81641 ] ], [ [ -77.17356, 38.82312 ], [ -77.17351, 38.82329 ], [ -77.1738, 38.82298 ], [ -77.17354, 38.82279 ], [ -77.17356, 38.82312 ] ], [ [ -77.17383, 38.82653 ], [ -77.17399, 38.82617 ], [ -77.17298, 38.82692 ], [ -77.17383, 38.82653 ] ], [ [ -77.17164, 38.82852 ], [ -77.1709, 38.82902 ], [ -77.16983, 38.82909 ], [ -77.17008, 38.82954 ], [ -77.16971, 38.82996 ], [ -77.16869, 38.82983 ], [ -77.16738, 38.83067 ], [ -77.16816, 38.83132 ], [ -77.17086, 38.83215 ], [ -77.17089, 38.83141 ], [ -77.17178, 38.83101 ], [ -77.17164, 38.82852 ] ], [ [ -77.16637, 38.82579 ], [ -77.16668, 38.82585 ], [ -77.1666, 38.82575 ], [ -77.16637, 38.82579 ] ], [ [ -77.16846, 38.83522 ], [ -77.16754, 38.83482 ], [ -77.16784, 38.83578 ], [ -77.16846, 38.83522 ] ], [ [ -77.1685, 38.83382 ], [ -77.16833, 38.83393 ], [ -77.16855, 38.83402 ], [ -77.1685, 38.83382 ] ], [ [ -77.16846, 38.83269 ], [ -77.16869, 38.83255 ], [ -77.1683, 38.83249 ], [ -77.16846, 38.83269 ] ], [ [ -77.17318, 38.83044 ], [ -77.17533, 38.83083 ], [ -77.17392, 38.8303 ], [ -77.17318, 38.83044 ] ], [ [ -77.17318, 38.82931 ], [ -77.17326, 38.82928 ], [ -77.17316, 38.82923 ], [ -77.17318, 38.82931 ] ], [ [ -77.16996, 38.82331 ], [ -77.16922, 38.82351 ], [ -77.16985, 38.82367 ], [ -77.16996, 38.82331 ] ], [ [ -77.17001, 38.83559 ], [ -77.17008, 38.8356 ], [ -77.17006, 38.83558 ], [ -77.17001, 38.83559 ] ], [ [ -77.16787, 38.81026 ], [ -77.16773, 38.81012 ], [ -77.16741, 38.81146 ], [ -77.16787, 38.81026 ] ], [ [ -77.16837, 38.80553 ], [ -77.16801, 38.80531 ], [ -77.16673, 38.80819 ], [ -77.16837, 38.80553 ] ], [ [ -77.17064, 38.81082 ], [ -77.17088, 38.80681 ], [ -77.17, 38.80859 ], [ -77.16838, 38.80903 ], [ -77.16926, 38.81009 ], [ -77.16875, 38.81174 ], [ -77.16961, 38.81145 ], [ -77.17, 38.81172 ], [ -77.16931, 38.81329 ], [ -77.16978, 38.8135 ], [ -77.17117, 38.81185 ], [ -77.17064, 38.81082 ] ], [ [ -77.16897, 38.80785 ], [ -77.16954, 38.80618 ], [ -77.16879, 38.80774 ], [ -77.16897, 38.80785 ] ], [ [ -77.16664, 38.8179 ], [ -77.16676, 38.81794 ], [ -77.16679, 38.81787 ], [ -77.16664, 38.8179 ] ], [ [ -77.16647, 38.81462 ], [ -77.16625, 38.81443 ], [ -77.1661, 38.81469 ], [ -77.1653, 38.81655 ], [ -77.16647, 38.81462 ] ], [ [ -77.16616, 38.82186 ], [ -77.16632, 38.82142 ], [ -77.16612, 38.82157 ], [ -77.16616, 38.82186 ] ], [ [ -77.16577, 38.81882 ], [ -77.16533, 38.81982 ], [ -77.16617, 38.82022 ], [ -77.16648, 38.82101 ], [ -77.1668, 38.8202 ], [ -77.16643, 38.81896 ], [ -77.16577, 38.81882 ] ], [ [ -77.16653, 38.83216 ], [ -77.16667, 38.8323 ], [ -77.16673, 38.83176 ], [ -77.16631, 38.83136 ], [ -77.16598, 38.83156 ], [ -77.16653, 38.83216 ] ], [ [ -77.16593, 38.83505 ], [ -77.16635, 38.83558 ], [ -77.16595, 38.83331 ], [ -77.16593, 38.83505 ] ], [ [ -77.15694, 38.83345 ], [ -77.15819, 38.83429 ], [ -77.15838, 38.83468 ], [ -77.15782, 38.83535 ], [ -77.1597, 38.83414 ], [ -77.15786, 38.83265 ], [ -77.15765, 38.83126 ], [ -77.15801, 38.83095 ], [ -77.15597, 38.83037 ], [ -77.15616, 38.83084 ], [ -77.15552, 38.83175 ], [ -77.15636, 38.83241 ], [ -77.15563, 38.8334 ], [ -77.15694, 38.83345 ] ], [ [ -77.15657, 38.82798 ], [ -77.15498, 38.82897 ], [ -77.15636, 38.82933 ], [ -77.15657, 38.82798 ] ], [ [ -77.15725, 38.82502 ], [ -77.15625, 38.82502 ], [ -77.15628, 38.82564 ], [ -77.15558, 38.82585 ], [ -77.15567, 38.8263 ], [ -77.15652, 38.82661 ], [ -77.15725, 38.82502 ] ], [ [ -77.15588, 38.82483 ], [ -77.15585, 38.8248 ], [ -77.15584, 38.82482 ], [ -77.15588, 38.82483 ] ], [ [ -77.15567, 38.82476 ], [ -77.15584, 38.82479 ], [ -77.15581, 38.82477 ], [ -77.15567, 38.82476 ] ], [ [ -77.1563, 38.82255 ], [ -77.15749, 38.82297 ], [ -77.15798, 38.82218 ], [ -77.15594, 38.82167 ], [ -77.1553, 38.82288 ], [ -77.15478, 38.82298 ], [ -77.15306, 38.8222 ], [ -77.15287, 38.82083 ], [ -77.15074, 38.82035 ], [ -77.15174, 38.82147 ], [ -77.15183, 38.82572 ], [ -77.15263, 38.82578 ], [ -77.15279, 38.82494 ], [ -77.15213, 38.82437 ], [ -77.15235, 38.82399 ], [ -77.15385, 38.82343 ], [ -77.15444, 38.82419 ], [ -77.1563, 38.82255 ] ], [ [ -77.15725, 38.81988 ], [ -77.15737, 38.81961 ], [ -77.1565, 38.81981 ], [ -77.15652, 38.82039 ], [ -77.15705, 38.8205 ], [ -77.15725, 38.81988 ] ], [ [ -77.16179, 38.83206 ], [ -77.15906, 38.83126 ], [ -77.16242, 38.83241 ], [ -77.16179, 38.83206 ] ], [ [ -77.16393, 38.83148 ], [ -77.16309, 38.83121 ], [ -77.16314, 38.83133 ], [ -77.16393, 38.83148 ] ], [ [ -77.1631, 38.8306 ], [ -77.16271, 38.83024 ], [ -77.16309, 38.83121 ], [ -77.1631, 38.8306 ] ], [ [ -77.16035, 38.83049 ], [ -77.16152, 38.83083 ], [ -77.16077, 38.82928 ], [ -77.16044, 38.82906 ], [ -77.16035, 38.83049 ] ], [ [ -77.15765, 38.8273 ], [ -77.15916, 38.82845 ], [ -77.15926, 38.82824 ], [ -77.15765, 38.8273 ] ], [ [ -77.15873, 38.82526 ], [ -77.15912, 38.825 ], [ -77.15872, 38.82495 ], [ -77.15873, 38.82526 ] ], [ [ -77.1597, 38.82259 ], [ -77.15932, 38.8225 ], [ -77.15924, 38.82262 ], [ -77.1597, 38.82259 ] ], [ [ -77.1571, 38.81777 ], [ -77.15645, 38.81717 ], [ -77.15647, 38.8178 ], [ -77.15735, 38.81794 ], [ -77.1575, 38.81845 ], [ -77.15804, 38.81853 ], [ -77.15789, 38.81802 ], [ -77.1571, 38.81777 ] ], [ [ -77.15834, 38.81581 ], [ -77.1566, 38.81537 ], [ -77.15797, 38.81691 ], [ -77.15834, 38.81581 ] ], [ [ -77.15896, 38.81578 ], [ -77.15882, 38.81565 ], [ -77.15875, 38.81572 ], [ -77.15896, 38.81578 ] ], [ [ -77.15656, 38.81419 ], [ -77.15773, 38.81455 ], [ -77.15763, 38.81445 ], [ -77.15694, 38.81381 ], [ -77.15656, 38.81419 ] ], [ [ -77.15968, 38.81476 ], [ -77.15981, 38.81468 ], [ -77.15766, 38.81267 ], [ -77.15968, 38.81476 ] ], [ [ -77.15741, 38.80869 ], [ -77.15674, 38.80911 ], [ -77.15854, 38.80806 ], [ -77.15741, 38.80869 ] ], [ [ -77.16142, 38.82331 ], [ -77.16167, 38.82314 ], [ -77.16104, 38.82297 ], [ -77.1609, 38.82329 ], [ -77.16142, 38.82331 ] ], [ [ -77.1636, 38.82011 ], [ -77.1621, 38.81871 ], [ -77.16201, 38.82174 ], [ -77.1629, 38.82196 ], [ -77.1636, 38.82011 ] ], [ [ -77.16415, 38.83038 ], [ -77.16441, 38.83044 ], [ -77.16428, 38.8303 ], [ -77.16415, 38.83038 ] ], [ [ -77.15925, 38.81248 ], [ -77.15951, 38.81273 ], [ -77.16015, 38.81201 ], [ -77.1595, 38.81167 ], [ -77.15925, 38.81248 ] ], [ [ -77.16122, 38.81787 ], [ -77.16078, 38.81747 ], [ -77.16079, 38.81783 ], [ -77.1608, 38.81816 ], [ -77.16122, 38.81787 ] ], [ [ -77.1594, 38.82109 ], [ -77.15947, 38.82111 ], [ -77.15946, 38.8202 ], [ -77.15944, 38.81975 ], [ -77.1594, 38.82109 ] ], [ [ -77.1594, 38.81707 ], [ -77.15971, 38.81648 ], [ -77.15933, 38.81612 ], [ -77.1594, 38.81707 ] ], [ [ -77.15888, 38.82654 ], [ -77.1611, 38.82807 ], [ -77.16118, 38.82791 ], [ -77.15888, 38.82654 ] ], [ [ -77.15769, 38.82972 ], [ -77.15906, 38.8301 ], [ -77.15908, 38.82984 ], [ -77.15773, 38.8289 ], [ -77.15769, 38.82972 ] ], [ [ -77.1596, 38.83559 ], [ -77.15898, 38.83599 ], [ -77.1593, 38.83611 ], [ -77.1596, 38.83559 ] ], [ [ -77.16077, 38.83346 ], [ -77.16124, 38.83316 ], [ -77.16005, 38.83281 ], [ -77.16077, 38.83346 ] ], [ [ -77.16057, 38.83655 ], [ -77.16087, 38.83666 ], [ -77.16116, 38.83553 ], [ -77.16057, 38.83655 ] ], [ [ -77.15583, 38.813 ], [ -77.15499, 38.81246 ], [ -77.15504, 38.81204 ], [ -77.15545, 38.81178 ], [ -77.1566, 38.81193 ], [ -77.15518, 38.81153 ], [ -77.15489, 38.8118 ], [ -77.15457, 38.81399 ], [ -77.15525, 38.8138 ], [ -77.15583, 38.813 ] ], [ [ -77.15646, 38.81061 ], [ -77.15639, 38.81066 ], [ -77.15651, 38.81069 ], [ -77.15646, 38.81061 ] ], [ [ -77.15292, 38.81955 ], [ -77.15272, 38.81955 ], [ -77.15286, 38.81959 ], [ -77.15292, 38.81955 ] ], [ [ -77.15426, 38.82123 ], [ -77.15423, 38.8215 ], [ -77.15426, 38.8215 ], [ -77.15426, 38.82123 ] ], [ [ -77.14954, 38.81497 ], [ -77.14949, 38.81494 ], [ -77.14947, 38.81497 ], [ -77.14954, 38.81497 ] ], [ [ -77.15323, 38.83475 ], [ -77.15464, 38.83415 ], [ -77.1528, 38.83296 ], [ -77.15274, 38.83452 ], [ -77.15323, 38.83475 ] ], [ [ -77.15242, 38.82684 ], [ -77.15185, 38.82681 ], [ -77.15197, 38.82914 ], [ -77.15242, 38.82684 ] ], [ [ -77.15379, 38.827 ], [ -77.15349, 38.82851 ], [ -77.15535, 38.82736 ], [ -77.15379, 38.827 ] ], [ [ -77.15416, 38.82509 ], [ -77.154, 38.82593 ], [ -77.15461, 38.82559 ], [ -77.15416, 38.82509 ] ], [ [ -77.15546, 38.83022 ], [ -77.15321, 38.8301 ], [ -77.15301, 38.83175 ], [ -77.15378, 38.8322 ], [ -77.15465, 38.8306 ], [ -77.15546, 38.83022 ] ], [ [ -77.15054, 38.83302 ], [ -77.15138, 38.83311 ], [ -77.14662, 38.83184 ], [ -77.15054, 38.83302 ] ], [ [ -77.14938, 38.8201 ], [ -77.14881, 38.8201 ], [ -77.1488, 38.82014 ], [ -77.14938, 38.8201 ] ], [ [ -77.14414, 38.81789 ], [ -77.14446, 38.81798 ], [ -77.14537, 38.81672 ], [ -77.14504, 38.81656 ], [ -77.14414, 38.81789 ] ], [ [ -77.14604, 38.81577 ], [ -77.14627, 38.81545 ], [ -77.14609, 38.81537 ], [ -77.14604, 38.81577 ] ], [ [ -77.14448, 38.81507 ], [ -77.1449, 38.81444 ], [ -77.14436, 38.81444 ], [ -77.14406, 38.81488 ], [ -77.14448, 38.81507 ] ], [ [ -77.14291, 38.8174 ], [ -77.14384, 38.81602 ], [ -77.1435, 38.81588 ], [ -77.14304, 38.81653 ], [ -77.14233, 38.81641 ], [ -77.14291, 38.8174 ] ], [ [ -77.14613, 38.81961 ], [ -77.14638, 38.81968 ], [ -77.1464, 38.81965 ], [ -77.14613, 38.81961 ] ], [ [ -77.14383, 38.81939 ], [ -77.1446, 38.81948 ], [ -77.14461, 38.81938 ], [ -77.14383, 38.81939 ] ], [ [ -77.14243, 38.81871 ], [ -77.14212, 38.81864 ], [ -77.14183, 38.8191 ], [ -77.14232, 38.81946 ], [ -77.14243, 38.81871 ] ], [ [ -77.14617, 38.82249 ], [ -77.14636, 38.82253 ], [ -77.14642, 38.82175 ], [ -77.14617, 38.82249 ] ] ] } },
{ "type": "Feature", "properties": { "variant": "T2s", "miles": 1.0 }, "geometry": { "type": "Polygon", "coordinates": [ [ [ -77.16961, 38.81145 ], [ -77.17002, 38.81214 ], [ -77.16931, 38.81329 ], [ -77.1709, 38.81406 ], [ -77.17094, 38.81447 ], [ -77.16972, 38.81594 ], [ -77.17136, 38.81648 ], [ -77.17151, 38.81687 ], [ -77.17045, 38.81764 ], [ -77.16884, 38.81684 ], [ -77.16849, 38.81722 ], [ -77.16781, 38.81895 ], [ -77.16816, 38.82041 ], [ -77.16717, 38.823 ], [ -77.16758, 38.82291 ], [ -77.16763, 38.82227 ], [ -77.16871, 38.82221 ], [ -77.16901, 38.82282 ], [ -77.16852, 38.8239 ], [ -77.16756, 38.82423 ], [ -77.16729, 38.82489 ], [ -77.16625, 38.82482 ], [ -77.16519, 38.82538 ], [ -77.16375, 38.82469 ], [ -77.16407, 38.82351 ], [ -77.16355, 38.82338 ], [ -77.15948, 38.82617 ], [ -77.15851, 38.82607 ], [ -77.15837, 38.82567 ], [ -77.15912, 38.825 ], [ -77.15756, 38.82474 ], [ -77.15742, 38.82398 ], [ -77.15853, 38.82377 ], [ -77.15885, 38.82294 ], [ -77.1597, 38.82259 ], [ -77.15713, 38.82197 ], [ -77.15669, 38.82129 ], [ -77.15718, 38.82069 ], [ -77.15808, 38.82077 ], [ -77.15805, 38.81807 ], [ -77.15645, 38.81717 ], [ -77.15647, 38.8178 ], [ -77.15735, 38.81794 ], [ -77.15756, 38.81831 ], [ -77.15737, 38.8187 ], [ -77.15649, 38.81888 ], [ -77.1563, 38.81976 ], [ -77.15582, 38.81993 ], [ -77.15512, 38.81939 ], [ -77.1551, 38.81804 ], [ -77.15395, 38.8179 ], [ -77.15384, 38.81732 ], [ -77.15236, 38.81731 ], [ -77.15174, 38.81697 ], [ -77.15345, 38.81313 ], [ -77.1536, 38.81141 ], [ -77.15245, 38.81166 ], [ -77.15205, 38.81139 ], [ -77.15242, 38.80969 ], [ -77.15339, 38.80974 ], [ -77.15355, 38.81029 ], [ -77.15475, 38.81033 ], [ -77.15563, 38.80975 ], [ -77.15416, 38.81022 ], [ -77.15374, 38.80997 ], [ -77.15398, 38.80923 ], [ -77.15862, 38.80676 ], [ -77.15915, 38.80566 ], [ -77.16023, 38.8052 ], [ -77.16073, 38.80533 ], [ -77.16079, 38.8061 ], [ -77.16, 38.80671 ], [ -77.16043, 38.80856 ], [ -77.15981, 38.80877 ], [ -77.15966, 38.80954 ], [ -77.16052, 38.80859 ], [ -77.16132, 38.80903 ], [ -77.16064, 38.81093 ], [ -77.16189, 38.8093 ], [ -77.16284, 38.80912 ], [ -77.16306, 38.80986 ], [ -77.16194, 38.8113 ], [ -77.16204, 38.81144 ], [ -77.16293, 38.81009 ], [ -77.16344, 38.80998 ], [ -77.16403, 38.81059 ], [ -77.16264, 38.81326 ], [ -77.16185, 38.8135 ], [ -77.16143, 38.81325 ], [ -77.16143, 38.81242 ], [ -77.16054, 38.81368 ], [ -77.16378, 38.81671 ], [ -77.16525, 38.81316 ], [ -77.16605, 38.81271 ], [ -77.16797, 38.81439 ], [ -77.16677, 38.81666 ], [ -77.16725, 38.8165 ], [ -77.16927, 38.81451 ], [ -77.16761, 38.8136 ], [ -77.16694, 38.81256 ], [ -77.16776, 38.81215 ], [ -77.16832, 38.81254 ], [ -77.16908, 38.81147 ], [ -77.16961, 38.81145 ] ], [ [ -77.1629, 38.82196 ], [ -77.1636, 38.82011 ], [ -77.1621, 38.81871 ], [ -77.16201, 38.82174 ], [ -77.1629, 38.82196 ] ], [ [ -77.15946, 38.82105 ], [ -77.15946, 38.8202 ], [ -77.15944, 38.81975 ], [ -77.15946, 38.82105 ] ], [ [ -77.15943, 38.81859 ], [ -77.15942, 38.81854 ], [ -77.15944, 38.81928 ], [ -77.15943, 38.81859 ] ], [ [ -77.1594, 38.81755 ], [ -77.15971, 38.81648 ], [ -77.15882, 38.81565 ], [ -77.15811, 38.81582 ], [ -77.1566, 38.81537 ], [ -77.15787, 38.81687 ], [ -77.1594, 38.81755 ] ], [ [ -77.15968, 38.81476 ], [ -77.15838, 38.81335 ], [ -77.15766, 38.81267 ], [ -77.15968, 38.81476 ] ], [ [ -77.15952, 38.81272 ], [ -77.16015, 38.81201 ], [ -77.1595, 38.81167 ], [ -77.15925, 38.81248 ], [ -77.15952, 38.81272 ] ], [ [ -77.16632, 38.82142 ], [ -77.16605, 38.82166 ], [ -77.16605, 38.82184 ], [ -77.16616, 38.82186 ], [ -77.16632, 38.82142 ] ], [ [ -77.16648, 38.82101 ], [ -77.1668, 38.8202 ], [ -77.16643, 38.81896 ], [ -77.16577, 38.81882 ], [ -77.16533, 38.81982 ], [ -77.16617, 38.82022 ], [ -77.16648, 38.82101 ] ], [ [ -77.16056, 38.8156 ], [ -77.16412, 38.81891 ], [ -77.1607, 38.81551 ], [ -77.16056, 38.8156 ] ], [ [ -77.1653, 38.81655 ], [ -77.16647, 38.81462 ], [ -77.16625, 38.81443 ], [ -77.1653, 38.81655 ] ], [ [ -77.16679, 38.81787 ], [ -77.16664, 38.8179 ], [ -77.16676, 38.81794 ], [ -77.16679, 38.81787 ] ], [ [ -77.16078, 38.81747 ], [ -77.1608, 38.81816 ], [ -77.16122, 38.81787 ], [ -77.16078, 38.81747 ] ], [ [ -77.15973, 38.8226 ], [ -77.15974, 38.82261 ], [ -77.15974, 38.8226 ], [ -77.15973, 38.8226 ] ], [ [ -77.1609, 38.82329 ], [ -77.16142, 38.82331 ], [ -77.16167, 38.82314 ], [ -77.16104, 38.82297 ], [ -77.1609, 38.82329 ] ], [ [ -77.15674, 38.80911 ], [ -77.15854, 38.80807 ], [ -77.15854, 38.80806 ], [ -77.15741, 38.80869 ], [ -77.15674, 38.80911 ] ], [ [ -77.15773, 38.81455 ], [ -77.15688, 38.81375 ], [ -77.15656, 38.81419 ], [ -77.15773, 38.81455 ] ], [ [ -77.15651, 38.81206 ], [ -77.15518, 38.81153 ], [ -77.1549, 38.81178 ], [ -77.15457, 38.81399 ], [ -77.15516, 38.814 ], [ -77.15583, 38.813 ], [ -77.15499, 38.81246 ], [ -77.15504, 38.81204 ], [ -77.15545, 38.81178 ], [ -77.15651, 38.81206 ] ], [ [ -77.15646, 38.81061 ], [ -77.15639, 38.81066 ], [ -77.15662, 38.81073 ], [ -77.15646, 38.81061 ] ] ] } },
{ "type": "Feature", "properties": { "variant": "T2s", "miles": 1.5 }, "geometry": { "type": "Polygon", "coordinates": [ [ [ -77.17857, 38.81049 ], [ -77.17907, 38.81048 ], [ -77.17927, 38.80981 ], [ -77.17976, 38.80966 ], [ -77.18075, 38.80982 ], [ -77.18095, 38.8102 ], [ -77.18015, 38.81132 ], [ -77.18129, 38.8113 ], [ -77.18199, 38.81184 ], [ -77.1813, 38.81238 ], [ -77.17509, 38.81248 ], [ -77.17552, 38.81857 ], [ -77.17455, 38.81863 ], [ -77.17286, 38.81691 ], [ -77.1717, 38.81661 ], [ -77.17131, 38.81588 ], [ -77.17198, 38.81547 ], [ -77.17115, 38.81501 ], [ -77.1707, 38.81493 ], [ -77.16972, 38.81594 ], [ -77.17136, 38.81648 ], [ -77.17134, 38.81712 ], [ -77.17413, 38.81949 ], [ -77.17443, 38.82194 ], [ -77.17564, 38.8215 ], [ -77.17635, 38.82202 ], [ -77.17393, 38.82467 ], [ -77.17555, 38.82492 ], [ -77.17678, 38.82336 ], [ -77.17772, 38.82317 ], [ -77.17834, 38.82681 ], [ -77.17745, 38.82713 ], [ -77.17532, 38.82647 ], [ -77.17499, 38.82715 ], [ -77.17361, 38.82803 ], [ -77.17254, 38.82766 ], [ -77.17248, 38.82727 ], [ -77.17113, 38.82803 ], [ -77.17046, 38.82747 ], [ -77.17093, 38.82683 ], [ -77.17013, 38.8268 ], [ -77.16748, 38.82876 ], [ -77.16539, 38.82835 ], [ -77.16177, 38.82629 ], [ -77.16169, 38.82588 ], [ -77.1626, 38.82513 ], [ -77.16261, 38.82432 ], [ -77.16355, 38.82338 ], [ -77.16013, 38.82575 ], [ -77.16478, 38.829 ], [ -77.16632, 38.83067 ], [ -77.16618, 38.83143 ], [ -77.16522, 38.83133 ], [ -77.16415, 38.83015 ], [ -77.16388, 38.83068 ], [ -77.16336, 38.83075 ], [ -77.16271, 38.83024 ], [ -77.1629, 38.83156 ], [ -77.16242, 38.83208 ], [ -77.16189, 38.83209 ], [ -77.16077, 38.82928 ], [ -77.16044, 38.82906 ], [ -77.16024, 38.82987 ], [ -77.15975, 38.83003 ], [ -77.15906, 38.82949 ], [ -77.15953, 38.82772 ], [ -77.16026, 38.82755 ], [ -77.16118, 38.82791 ], [ -77.15837, 38.8258 ], [ -77.15785, 38.82639 ], [ -77.15732, 38.8264 ], [ -77.15694, 38.82611 ], [ -77.15725, 38.82502 ], [ -77.15625, 38.82502 ], [ -77.15628, 38.82564 ], [ -77.15584, 38.82585 ], [ -77.15436, 38.82542 ], [ -77.15404, 38.8246 ], [ -77.15511, 38.82316 ], [ -77.1563, 38.82255 ], [ -77.15749, 38.82297 ], [ -77.15798, 38.82218 ], [ -77.15594, 38.82167 ], [ -77.1553, 38.82288 ], [ -77.15478, 38.82298 ], [ -77.15306, 38.8222 ], [ -77.15287, 38.82083 ], [ -77.14533, 38.81913 ], [ -77.14565, 38.81835 ], [ -77.1464, 38.8183 ], [ -77.14754, 38.81723 ], [ -77.14867, 38.8178 ], [ -77.14855, 38.81696 ], [ -77.1492, 38.81639 ], [ -77.15004, 38.81678 ], [ -77.15028, 38.81832 ], [ -77.15097, 38.81845 ], [ -77.15345, 38.81313 ], [ -77.1536, 38.81141 ], [ -77.15245, 38.81166 ], [ -77.15205, 38.81139 ], [ -77.15242, 38.80969 ], [ -77.15339, 38.80974 ], [ -77.15355, 38.81029 ], [ -77.15475, 38.81033 ], [ -77.15563, 38.80975 ], [ -77.15416, 38.81022 ], [ -77.15374, 38.80997 ], [ -77.15398, 38.80923 ], [ -77.15862, 38.80676 ], [ -77.15888, 38.80588 ], [ -77.16039, 38.80482 ], [ -77.16322, 38.80379 ], [ -77.16535, 38.80344 ], [ -77.16794, 38.8051 ], [ -77.16737, 38.80572 ], [ -77.1659, 38.80507 ], [ -77.16507, 38.80574 ], [ -77.16483, 38.80717 ], [ -77.16276, 38.80777 ], [ -77.16192, 38.80761 ], [ -77.16096, 38.80593 ], [ -77.16003, 38.80649 ], [ -77.16, 38.8077 ], [ -77.16052, 38.80815 ], [ -77.15981, 38.80877 ], [ -77.15966, 38.80954 ], [ -77.16052, 38.80859 ], [ -77.16132, 38.80903 ], [ -77.16055, 38.81089 ], [ -77.16231, 38.80906 ], [ -77.16315, 38.80946 ], [ -77.16188, 38.8114 ], [ -77.16293, 38.81009 ], [ -77.16389, 38.81019 ], [ -77.16397, 38.81082 ], [ -77.16267, 38.81323 ], [ -77.16185, 38.8135 ], [ -77.16143, 38.81325 ], [ -77.16143, 38.81242 ], [ -77.16054, 38.81368 ], [ -77.16378, 38.81671 ], [ -77.16553, 38.81281 ], [ -77.16649, 38.81294 ], [ -77.16797, 38.81439 ], [ -77.16677, 38.81666 ], [ -77.16927, 38.81451 ], [ -77.16751, 38.81351 ], [ -77.16532, 38.81085 ], [ -77.16611, 38.8104 ], [ -77.16712, 38.80779 ], [ -77.16809, 38.80772 ], [ -77.16801, 38.80864 ], [ -77.16922, 38.80995 ], [ -77.16875, 38.81174 ], [ -77.16961, 38.81145 ], [ -77.17, 38.81172 ], [ -77.16931, 38.81329 ], [ -77.16978, 38.8135 ], [ -77.17152, 38.81163 ], [ -77.17423, 38.81134 ], [ -77.17411, 38.80962 ], [ -77.17447, 38.80905 ], [ -77.17601, 38.80846 ], [ -77.17697, 38.80882 ], [ -77.17857, 38.81049 ] ], [ [ -77.1636, 38.82011 ], [ -77.1621, 38.81871 ], [ -77.16201, 38.82174 ], [ -77.1629, 38.82196 ], [ -77.1636, 38.82011 ] ], [ [ -77.16412, 38.81891 ], [ -77.1607, 38.81551 ], [ -77.16056, 38.8156 ], [ -77.16412, 38.81891 ] ], [ [ -77.17399, 38.82617 ], [ -77.17298, 38.82692 ], [ -77.17334, 38.82689 ], [ -77.17399, 38.82617 ] ], [ [ -77.16631, 38.82583 ], [ -77.16668, 38.82585 ], [ -77.1666, 38.82575 ], [ -77.16631, 38.82583 ] ], [ [ -77.17005, 38.82193 ], [ -77.17022, 38.8225 ], [ -77.17053, 38.82194 ], [ -77.16943, 38.82155 ], [ -77.16968, 38.82081 ], [ -77.17276, 38.82127 ], [ -77.1699, 38.82055 ], [ -77.1694, 38.8199 ], [ -77.16971, 38.81957 ], [ -77.17289, 38.81999 ], [ -77.16965, 38.81904 ], [ -77.16993, 38.81831 ], [ -77.171, 38.81839 ], [ -77.16884, 38.81684 ], [ -77.16782, 38.81887 ], [ -77.16819, 38.82028 ], [ -77.16717, 38.823 ], [ -77.16858, 38.82169 ], [ -77.17005, 38.82193 ] ], [ [ -77.16787, 38.81026 ], [ -77.16773, 38.81012 ], [ -77.16718, 38.81123 ], [ -77.16742, 38.81145 ], [ -77.16787, 38.81026 ] ], [ [ -77.17394, 38.81478 ], [ -77.17136, 38.8136 ], [ -77.17121, 38.8139 ], [ -77.17394, 38.81478 ] ], [ [ -77.17371, 38.8125 ], [ -77.1722, 38.81273 ], [ -77.17311, 38.81339 ], [ -77.1738, 38.81349 ], [ -77.17371, 38.8125 ] ], [ [ -77.17392, 38.81621 ], [ -77.17412, 38.81641 ], [ -77.17405, 38.81589 ], [ -77.17392, 38.81621 ] ], [ [ -77.17314, 38.8237 ], [ -77.17325, 38.82357 ], [ -77.17236, 38.82428 ], [ -77.17314, 38.8237 ] ], [ [ -77.1738, 38.82298 ], [ -77.17354, 38.82278 ], [ -77.17351, 38.82329 ], [ -77.1738, 38.82298 ] ], [ [ -77.16922, 38.82351 ], [ -77.16985, 38.82367 ], [ -77.16996, 38.82331 ], [ -77.16922, 38.82351 ] ], [ [ -77.17145, 38.82337 ], [ -77.17143, 38.82317 ], [ -77.17137, 38.82334 ], [ -77.17145, 38.82337 ] ], [ [ -77.16617, 38.82022 ], [ -77.16648, 38.82101 ], [ -77.1668, 38.8202 ], [ -77.16643, 38.81896 ], [ -77.16577, 38.81882 ], [ -77.16555, 38.81999 ], [ -77.16617, 38.82022 ] ], [ [ -77.16679, 38.81787 ], [ -77.16664, 38.8179 ], [ -77.16676, 38.81794 ], [ -77.16679, 38.81787 ] ], [ [ -77.1653, 38.81655 ], [ -77.16647, 38.81462 ], [ -77.16625, 38.81443 ], [ -77.1653, 38.81655 ] ], [ [ -77.16616, 38.82186 ], [ -77.16632, 38.82142 ], [ -77.16612, 38.82157 ], [ -77.16616, 38.82186 ] ], [ [ -77.15873, 38.82526 ], [ -77.15912, 38.825 ], [ -77.15872, 38.82495 ], [ -77.15873, 38.82526 ] ], [ [ -77.15737, 38.81961 ], [ -77.1565, 38.81981 ], [ -77.15652, 38.82039 ], [ -77.15704, 38.82051 ], [ -77.15737, 38.81961 ] ], [ [ -77.1571, 38.81777 ], [ -77.15645, 38.81717 ], [ -77.15647, 38.8178 ], [ -77.15735, 38.81794 ], [ -77.1575, 38.81845 ], [ -77.15804, 38.81853 ], [ -77.15803, 38.81806 ], [ -77.1571, 38.81777 ] ], [ [ -77.15688, 38.81375 ], [ -77.15656, 38.81419 ], [ -77.15773, 38.81455 ], [ -77.15688, 38.81375 ] ], [ [ -77.15518, 38.81153 ], [ -77.15494, 38.81173 ], [ -77.15457, 38.81399 ], [ -77.15516, 38.814 ], [ -77.15583, 38.813 ], [ -77.15499, 38.81246 ], [ -77.15504, 38.81204 ], [ -77.15545, 38.81178 ], [ -77.1566, 38.81193 ], [ -77.15518, 38.81153 ] ], [ [ -77.15639, 38.81066 ], [ -77.15662, 38.81073 ], [ -77.15655, 38.81067 ], [ -77.15639, 38.81066 ] ], [ [ -77.15854, 38.80807 ], [ -77.15854, 38.80806 ], [ -77.15741, 38.80869 ], [ -77.15674, 38.80911 ], [ -77.15854, 38.80807 ] ], [ [ -77.15932, 38.8225 ], [ -77.15924, 38.82262 ], [ -77.1597, 38.82259 ], [ -77.15932, 38.8225 ] ], [ [ -77.15946, 38.8202 ], [ -77.15944, 38.81975 ], [ -77.1594, 38.82109 ], [ -77.15946, 38.8202 ] ], [ [ -77.15971, 38.81648 ], [ -77.15933, 38.81612 ], [ -77.1594, 38.81707 ], [ -77.15971, 38.81648 ] ], [ [ -77.15852, 38.81349 ], [ -77.15766, 38.81267 ], [ -77.15968, 38.81476 ], [ -77.15852, 38.81349 ] ], [ [ -77.16015, 38.81201 ], [ -77.1595, 38.81167 ], [ -77.15925, 38.81248 ], [ -77.15958, 38.81262 ], [ -77.16015, 38.81201 ] ], [ [ -77.16122, 38.81787 ], [ -77.16078, 38.81747 ], [ -77.16079, 38.81783 ], [ -77.1608, 38.81816 ], [ -77.16122, 38.81787 ] ], [ [ -77.16142, 38.82331 ], [ -77.16167, 38.82314 ], [ -77.16104, 38.82297 ], [ -77.16142, 38.82331 ] ], [ [ -77.1566, 38.81537 ], [ -77.15797, 38.81691 ], [ -77.15785, 38.81621 ], [ -77.15834, 38.81581 ], [ -77.1566, 38.81537 ] ], [ [ -77.15896, 38.81578 ], [ -77.15882, 38.81565 ], [ -77.15875, 38.81572 ], [ -77.15896, 38.81578 ] ], [ [ -77.15585, 38.8248 ], [ -77.15584, 38.82482 ], [ -77.15588, 38.82483 ], [ -77.15585, 38.8248 ] ], [ [ -77.15567, 38.82476 ], [ -77.15584, 38.82479 ], [ -77.15572, 38.82471 ], [ -77.15567, 38.82476 ] ], [ [ -77.15425, 38.82138 ], [ -77.15423, 38.8215 ], [ -77.15426, 38.8215 ], [ -77.15425, 38.82138 ] ], [ [ -77.15272, 38.81955 ], [ -77.15293, 38.8196 ], [ -77.15292, 38.81955 ], [ -77.15272, 38.81955 ] ] ] } },
{ "type": "Feature", "properties": { "variant": "T2s", "miles": 2.0 }, "geometry": { "type": "MultiPolygon", "coordinates": [ [ [ [ -77.18041, 38.80642 ], [ -77.18509, 38.80657 ], [ -77.18604, 38.80861 ], [ -77.18755, 38.80873 ], [ -77.18737, 38.80977 ], [ -77.18988, 38.80998 ], [ -77.19015, 38.81187 ], [ -77.18951, 38.81242 ], [ -77.18715, 38.81245 ], [ -77.18699, 38.81354 ], [ -77.18651, 38.81371 ], [ -77.18377, 38.81357 ], [ -77.18353, 38.81249 ], [ -77.18258, 38.81249 ], [ -77.18324, 38.81298 ], [ -77.18307, 38.81337 ], [ -77.18056, 38.81368 ], [ -77.1813, 38.81426 ], [ -77.18077, 38.81482 ], [ -77.18131, 38.81553 ], [ -77.18156, 38.81766 ], [ -77.18093, 38.81824 ], [ -77.18043, 38.81811 ], [ -77.18011, 38.81698 ], [ -77.17924, 38.81648 ], [ -77.17999, 38.8159 ], [ -77.1787, 38.81247 ], [ -77.1796, 38.82113 ], [ -77.17909, 38.82171 ], [ -77.17773, 38.82192 ], [ -77.17743, 38.82264 ], [ -77.17882, 38.82284 ], [ -77.17993, 38.82345 ], [ -77.18103, 38.8253 ], [ -77.18317, 38.82664 ], [ -77.18325, 38.82745 ], [ -77.18604, 38.82817 ], [ -77.18591, 38.82983 ], [ -77.18521, 38.83025 ], [ -77.1828, 38.82964 ], [ -77.18121, 38.82886 ], [ -77.18097, 38.82811 ], [ -77.18035, 38.82791 ], [ -77.17729, 38.83243 ], [ -77.17641, 38.83319 ], [ -77.17589, 38.83318 ], [ -77.17553, 38.83287 ], [ -77.17583, 38.83203 ], [ -77.17379, 38.83145 ], [ -77.17403, 38.83071 ], [ -77.17538, 38.83066 ], [ -77.17375, 38.8303 ], [ -77.17222, 38.83084 ], [ -77.17184, 38.83055 ], [ -77.17164, 38.82852 ], [ -77.1709, 38.82902 ], [ -77.16999, 38.82899 ], [ -77.16982, 38.8299 ], [ -77.16869, 38.82983 ], [ -77.16738, 38.83067 ], [ -77.16823, 38.83135 ], [ -77.17269, 38.83244 ], [ -77.17325, 38.83288 ], [ -77.17277, 38.83355 ], [ -77.17118, 38.83342 ], [ -77.17127, 38.83587 ], [ -77.16981, 38.83558 ], [ -77.16956, 38.83646 ], [ -77.16906, 38.83659 ], [ -77.16859, 38.83641 ], [ -77.16846, 38.83522 ], [ -77.16754, 38.83482 ], [ -77.16782, 38.83601 ], [ -77.16717, 38.83687 ], [ -77.16428, 38.8364 ], [ -77.16404, 38.8371 ], [ -77.16306, 38.83707 ], [ -77.16315, 38.83334 ], [ -77.16169, 38.8379 ], [ -77.159, 38.837 ], [ -77.1596, 38.83559 ], [ -77.15812, 38.83655 ], [ -77.15742, 38.83661 ], [ -77.15705, 38.8359 ], [ -77.1597, 38.83414 ], [ -77.15786, 38.83265 ], [ -77.15765, 38.83126 ], [ -77.15801, 38.83095 ], [ -77.15488, 38.83005 ], [ -77.15321, 38.8301 ], [ -77.15241, 38.82937 ], [ -77.15632, 38.82675 ], [ -77.15726, 38.82682 ], [ -77.15693, 38.8257 ], [ -77.15725, 38.82502 ], [ -77.15625, 38.82502 ], [ -77.15628, 38.82564 ], [ -77.15555, 38.82585 ], [ -77.15436, 38.82542 ], [ -77.15404, 38.82461 ], [ -77.1559, 38.82266 ], [ -77.15749, 38.82297 ], [ -77.15798, 38.82218 ], [ -77.15594, 38.82167 ], [ -77.1553, 38.82288 ], [ -77.15478, 38.82298 ], [ -77.15306, 38.8222 ], [ -77.15287, 38.82083 ], [ -77.14385, 38.81922 ], [ -77.14357, 38.82094 ], [ -77.14269, 38.82127 ], [ -77.14034, 38.81939 ], [ -77.14087, 38.81818 ], [ -77.13703, 38.81545 ], [ -77.13717, 38.81505 ], [ -77.13815, 38.81497 ], [ -77.14064, 38.81654 ], [ -77.14053, 38.816 ], [ -77.14181, 38.81423 ], [ -77.14269, 38.81459 ], [ -77.14345, 38.81362 ], [ -77.14532, 38.81339 ], [ -77.14567, 38.8127 ], [ -77.14781, 38.81281 ], [ -77.14819, 38.81238 ], [ -77.14922, 38.81249 ], [ -77.14958, 38.81172 ], [ -77.15088, 38.81156 ], [ -77.15122, 38.81244 ], [ -77.15076, 38.81334 ], [ -77.15108, 38.81373 ], [ -77.15239, 38.814 ], [ -77.15254, 38.8144 ], [ -77.15057, 38.81601 ], [ -77.1508, 38.8167 ], [ -77.15002, 38.81693 ], [ -77.15028, 38.81832 ], [ -77.15097, 38.81845 ], [ -77.15345, 38.81313 ], [ -77.1536, 38.81141 ], [ -77.15245, 38.81166 ], [ -77.15205, 38.81139 ], [ -77.15242, 38.80969 ], [ -77.15339, 38.80974 ], [ -77.15355, 38.81029 ], [ -77.15475, 38.81033 ], [ -77.15563, 38.80975 ], [ -77.15416, 38.81022 ], [ -77.15374, 38.80997 ], [ -77.15398, 38.80923 ], [ -77.15862, 38.80676 ], [ -77.15888, 38.80588 ], [ -77.16039, 38.80482 ], [ -77.16457, 38.80343 ], [ -77.1656, 38.80354 ], [ -77.16793, 38.80506 ], [ -77.16673, 38.80819 ], [ -77.16759, 38.8076 ], [ -77.16833, 38.80809 ], [ -77.16801, 38.80864 ], [ -77.16927, 38.81014 ], [ -77.16875, 38.81174 ], [ -77.16961, 38.81145 ], [ -77.17, 38.81172 ], [ -77.16931, 38.81329 ], [ -77.16978, 38.8135 ], [ -77.17152, 38.81163 ], [ -77.17423, 38.81134 ], [ -77.17443, 38.80747 ], [ -77.18001, 38.80734 ], [ -77.17994, 38.80662 ], [ -77.18041, 38.80642 ] ], [ [ -77.16635, 38.83558 ], [ -77.16626, 38.83368 ], [ -77.16595, 38.83331 ], [ -77.1659, 38.83496 ], [ -77.16635, 38.83558 ] ], [ [ -77.16491, 38.83225 ], [ -77.16424, 38.83267 ], [ -77.16481, 38.83247 ], [ -77.16491, 38.83225 ] ], [ [ -77.16389, 38.83145 ], [ -77.16309, 38.83121 ], [ -77.1631, 38.8306 ], [ -77.16271, 38.83024 ], [ -77.16298, 38.83127 ], [ -77.16368, 38.83164 ], [ -77.16389, 38.83145 ] ], [ [ -77.16415, 38.83038 ], [ -77.16441, 38.83044 ], [ -77.16415, 38.83015 ], [ -77.16415, 38.83038 ] ], [ [ -77.16013, 38.82575 ], [ -77.16593, 38.83025 ], [ -77.17093, 38.82683 ], [ -77.17013, 38.8268 ], [ -77.16748, 38.82876 ], [ -77.1639, 38.82768 ], [ -77.16354, 38.82702 ], [ -77.16177, 38.82629 ], [ -77.16169, 38.82588 ], [ -77.1626, 38.82513 ], [ -77.16261, 38.82432 ], [ -77.16355, 38.82338 ], [ -77.16013, 38.82575 ] ], [ [ -77.1629, 38.82196 ], [ -77.1636, 38.82011 ], [ -77.1621, 38.81871 ], [ -77.16201, 38.82174 ], [ -77.1629, 38.82196 ] ], [ [ -77.16412, 38.81891 ], [ -77.16348, 38.81814 ], [ -77.1607, 38.81551 ], [ -77.16412, 38.81891 ] ], [ [ -77.16378, 38.81671 ], [ -77.16553, 38.81281 ], [ -77.16649, 38.81294 ], [ -77.16797, 38.81439 ], [ -77.16677, 38.81666 ], [ -77.16927, 38.81451 ], [ -77.16758, 38.81357 ], [ -77.16545, 38.81125 ], [ -77.16532, 38.81085 ], [ -77.16611, 38.8104 ], [ -77.16675, 38.80913 ], [ -77.16655, 38.80856 ], [ -77.16558, 38.81009 ], [ -77.16467, 38.80983 ], [ -77.16613, 38.80626 ], [ -77.16636, 38.80535 ], [ -77.1659, 38.80507 ], [ -77.16507, 38.80574 ], [ -77.16494, 38.80704 ], [ -77.16414, 38.80747 ], [ -77.16225, 38.80778 ], [ -77.16096, 38.80593 ], [ -77.16003, 38.8065 ], [ -77.16, 38.8077 ], [ -77.16052, 38.80815 ], [ -77.15981, 38.80877 ], [ -77.15966, 38.80954 ], [ -77.16052, 38.80859 ], [ -77.16132, 38.80903 ], [ -77.16055, 38.81089 ], [ -77.16231, 38.80906 ], [ -77.16315, 38.80946 ], [ -77.16188, 38.8114 ], [ -77.16293, 38.81009 ], [ -77.16344, 38.80998 ], [ -77.16403, 38.81059 ], [ -77.16264, 38.81326 ], [ -77.16185, 38.8135 ], [ -77.16143, 38.81325 ], [ -77.16143, 38.81242 ], [ -77.16054, 38.81368 ], [ -77.16378, 38.81671 ] ], [ [ -77.17638, 38.82101 ], [ -77.17458, 38.81983 ], [ -77.17433, 38.81837 ], [ -77.17286, 38.81691 ], [ -77.17159, 38.81651 ], [ -77.17131, 38.81588 ], [ -77.17198, 38.81547 ], [ -77.1707, 38.81493 ], [ -77.16972, 38.81594 ], [ -77.17136, 38.81648 ], [ -77.17134, 38.81712 ], [ -77.17413, 38.81949 ], [ -77.17443, 38.82194 ], [ -77.17564, 38.8215 ], [ -77.17631, 38.82195 ], [ -77.17638, 38.82101 ] ], [ [ -77.17684, 38.81247 ], [ -77.17775, 38.82082 ], [ -77.1782, 38.82077 ], [ -77.17732, 38.81247 ], [ -77.17684, 38.81247 ] ], [ [ -77.17622, 38.81952 ], [ -77.17546, 38.81248 ], [ -77.17509, 38.81248 ], [ -77.1758, 38.81923 ], [ -77.17622, 38.81952 ] ], [ [ -77.18491, 38.81248 ], [ -77.18578, 38.81263 ], [ -77.18577, 38.81247 ], [ -77.18491, 38.81248 ] ], [ [ -77.1804, 38.81249 ], [ -77.18037, 38.81261 ], [ -77.18213, 38.81249 ], [ -77.1804, 38.81249 ] ], [ [ -77.18015, 38.81132 ], [ -77.18044, 38.81106 ], [ -77.18041, 38.81095 ], [ -77.18015, 38.81132 ] ], [ [ -77.18404, 38.8099 ], [ -77.18398, 38.81081 ], [ -77.18332, 38.81129 ], [ -77.1856, 38.81128 ], [ -77.18516, 38.80998 ], [ -77.18404, 38.8099 ] ], [ [ -77.18269, 38.81031 ], [ -77.18253, 38.81005 ], [ -77.18178, 38.81031 ], [ -77.18229, 38.81034 ], [ -77.18269, 38.81031 ] ], [ [ -77.18103, 38.80912 ], [ -77.18045, 38.80882 ], [ -77.18049, 38.80969 ], [ -77.18103, 38.80912 ] ], [ [ -77.18403, 38.80748 ], [ -77.18185, 38.80744 ], [ -77.18092, 38.80747 ], [ -77.18222, 38.80844 ], [ -77.18319, 38.8085 ], [ -77.18327, 38.80907 ], [ -77.18394, 38.80921 ], [ -77.18474, 38.80895 ], [ -77.18403, 38.80748 ] ], [ [ -77.17701, 38.81049 ], [ -77.17677, 38.8103 ], [ -77.17677, 38.81049 ], [ -77.17701, 38.81049 ] ], [ [ -77.17229, 38.81266 ], [ -77.1731, 38.81338 ], [ -77.1738, 38.81349 ], [ -77.17371, 38.8125 ], [ -77.17229, 38.81266 ] ], [ [ -77.17394, 38.81478 ], [ -77.17136, 38.8136 ], [ -77.17121, 38.8139 ], [ -77.17285, 38.81461 ], [ -77.17394, 38.81478 ] ], [ [ -77.17387, 38.81608 ], [ -77.17412, 38.81641 ], [ -77.17384, 38.81587 ], [ -77.17387, 38.81608 ] ], [ [ -77.17715, 38.83016 ], [ -77.17782, 38.82923 ], [ -77.17311, 38.82796 ], [ -77.17487, 38.8288 ], [ -77.17516, 38.82946 ], [ -77.17715, 38.83016 ] ], [ [ -77.17657, 38.82363 ], [ -77.17607, 38.82417 ], [ -77.1754, 38.82488 ], [ -77.17555, 38.82492 ], [ -77.17657, 38.82363 ] ], [ [ -77.1789, 38.82487 ], [ -77.17841, 38.82581 ], [ -77.17914, 38.82605 ], [ -77.17956, 38.82528 ], [ -77.1789, 38.82487 ] ], [ [ -77.18468, 38.82904 ], [ -77.18462, 38.82903 ], [ -77.18462, 38.82905 ], [ -77.18468, 38.82904 ] ], [ [ -77.17803, 38.8273 ], [ -77.1776, 38.82799 ], [ -77.1785, 38.82828 ], [ -77.17899, 38.8276 ], [ -77.17803, 38.8273 ] ], [ [ -77.1738, 38.82298 ], [ -77.17354, 38.82278 ], [ -77.17351, 38.82329 ], [ -77.1738, 38.82298 ] ], [ [ -77.17325, 38.82357 ], [ -77.17279, 38.82383 ], [ -77.17236, 38.82428 ], [ -77.17325, 38.82357 ] ], [ [ -77.17143, 38.82324 ], [ -77.17137, 38.82334 ], [ -77.17145, 38.82337 ], [ -77.17143, 38.82324 ] ], [ [ -77.16985, 38.82367 ], [ -77.16996, 38.82331 ], [ -77.16922, 38.82351 ], [ -77.16985, 38.82367 ] ], [ [ -77.17025, 38.82246 ], [ -77.17053, 38.82194 ], [ -77.16943, 38.82155 ], [ -77.16968, 38.82081 ], [ -77.17276, 38.82127 ], [ -77.1699, 38.82055 ], [ -77.1694, 38.8199 ], [ -77.16971, 38.81957 ], [ -77.17289, 38.81999 ], [ -77.16965, 38.81904 ], [ -77.16993, 38.81831 ], [ -77.171, 38.81839 ], [ -77.16884, 38.81684 ], [ -77.16782, 38.81887 ], [ -77.16819, 38.82028 ], [ -77.16717, 38.823 ], [ -77.16858, 38.82169 ], [ -77.17005, 38.82193 ], [ -77.17025, 38.82246 ] ], [ [ -77.17187, 38.82221 ], [ -77.17181, 38.82239 ], [ -77.172, 38.82224 ], [ -77.17187, 38.82221 ] ], [ [ -77.17168, 38.82258 ], [ -77.17161, 38.8227 ], [ -77.1716, 38.82272 ], [ -77.17168, 38.82258 ] ], [ [ -77.1666, 38.82575 ], [ -77.16637, 38.82579 ], [ -77.16668, 38.82585 ], [ -77.1666, 38.82575 ] ], [ [ -77.16632, 38.82142 ], [ -77.16605, 38.82166 ], [ -77.16616, 38.82186 ], [ -77.16632, 38.82142 ] ], [ [ -77.16678, 38.82026 ], [ -77.16643, 38.81896 ], [ -77.16577, 38.81882 ], [ -77.16533, 38.81982 ], [ -77.16617, 38.82022 ], [ -77.16648, 38.82101 ], [ -77.16678, 38.82026 ] ], [ [ -77.1653, 38.81655 ], [ -77.16647, 38.81462 ], [ -77.16625, 38.81443 ], [ -77.1653, 38.81655 ] ], [ [ -77.17399, 38.82617 ], [ -77.17298, 38.82692 ], [ -77.17334, 38.82689 ], [ -77.17399, 38.82617 ] ], [ [ -77.17202, 38.8276 ], [ -77.17268, 38.82776 ], [ -77.17248, 38.82727 ], [ -77.17202, 38.8276 ] ], [ [ -77.17316, 38.82923 ], [ -77.17318, 38.82931 ], [ -77.17326, 38.82928 ], [ -77.17316, 38.82923 ] ], [ [ -77.16742, 38.81145 ], [ -77.16787, 38.81026 ], [ -77.16773, 38.81012 ], [ -77.16718, 38.81123 ], [ -77.16742, 38.81145 ] ], [ [ -77.16676, 38.81794 ], [ -77.16679, 38.81787 ], [ -77.16664, 38.8179 ], [ -77.16676, 38.81794 ] ], [ [ -77.16666, 38.83223 ], [ -77.16673, 38.83176 ], [ -77.16631, 38.83136 ], [ -77.16598, 38.83156 ], [ -77.16666, 38.83223 ] ], [ [ -77.16979, 38.83316 ], [ -77.1694, 38.83271 ], [ -77.1683, 38.83249 ], [ -77.16874, 38.83329 ], [ -77.16833, 38.83393 ], [ -77.16967, 38.83443 ], [ -77.16979, 38.83316 ] ], [ [ -77.15636, 38.82933 ], [ -77.15657, 38.82798 ], [ -77.15498, 38.82897 ], [ -77.15636, 38.82933 ] ], [ [ -77.15744, 38.82714 ], [ -77.15916, 38.82845 ], [ -77.15731, 38.82688 ], [ -77.15744, 38.82714 ] ], [ [ -77.15426, 38.8215 ], [ -77.15425, 38.82134 ], [ -77.15423, 38.8215 ], [ -77.15426, 38.8215 ] ], [ [ -77.15457, 38.81399 ], [ -77.15583, 38.813 ], [ -77.15499, 38.81246 ], [ -77.15504, 38.81204 ], [ -77.15545, 38.81178 ], [ -77.1566, 38.81193 ], [ -77.15518, 38.81153 ], [ -77.15489, 38.8118 ], [ -77.15457, 38.81399 ] ], [ [ -77.16116, 38.83553 ], [ -77.16057, 38.83655 ], [ -77.16087, 38.83666 ], [ -77.16116, 38.83553 ] ], [ [ -77.16124, 38.83316 ], [ -77.16061, 38.83298 ], [ -77.16005, 38.83281 ], [ -77.16077, 38.83346 ], [ -77.16124, 38.83316 ] ], [ [ -77.15906, 38.83126 ], [ -77.16242, 38.83241 ], [ -77.16257, 38.83232 ], [ -77.15906, 38.83126 ] ], [ [ -77.16035, 38.83049 ], [ -77.16152, 38.83083 ], [ -77.16044, 38.82906 ], [ -77.16035, 38.83049 ] ], [ [ -77.16061, 38.82773 ], [ -77.16118, 38.82791 ], [ -77.15888, 38.82654 ], [ -77.16061, 38.82773 ] ], [ [ -77.16455, 38.8352 ], [ -77.16451, 38.8349 ], [ -77.16453, 38.83431 ], [ -77.16455, 38.8352 ] ], [ [ -77.15974, 38.82261 ], [ -77.15974, 38.8226 ], [ -77.15973, 38.8226 ], [ -77.15974, 38.82261 ] ], [ [ -77.1594, 38.82109 ], [ -77.15946, 38.8202 ], [ -77.15944, 38.81975 ], [ -77.1594, 38.82109 ] ], [ [ -77.15942, 38.81854 ], [ -77.15943, 38.81903 ], [ -77.15944, 38.81928 ], [ -77.15942, 38.81854 ] ], [ [ -77.1594, 38.81707 ], [ -77.15971, 38.81648 ], [ -77.15933, 38.81612 ], [ -77.1594, 38.81707 ] ], [ [ -77.15968, 38.81476 ], [ -77.15852, 38.81349 ], [ -77.15766, 38.81267 ], [ -77.15968, 38.81476 ] ], [ [ -77.15958, 38.81262 ], [ -77.16015, 38.81201 ], [ -77.1595, 38.81167 ], [ -77.15925, 38.81248 ], [ -77.15958, 38.81262 ] ], [ [ -77.15655, 38.81067 ], [ -77.15639, 38.81066 ], [ -77.15662, 38.81073 ], [ -77.15655, 38.81067 ] ], [ [ -77.15674, 38.80911 ], [ -77.15854, 38.80807 ], [ -77.15854, 38.80806 ], [ -77.15741, 38.80869 ], [ -77.15674, 38.80911 ] ], [ [ -77.16099, 38.82331 ], [ -77.16142, 38.82331 ], [ -77.16167, 38.82314 ], [ -77.16104, 38.82297 ], [ -77.16099, 38.82331 ] ], [ [ -77.1608, 38.81816 ], [ -77.16122, 38.81787 ], [ -77.16078, 38.81747 ], [ -77.1608, 38.81816 ] ], [ [ -77.15912, 38.825 ], [ -77.15872, 38.82495 ], [ -77.15857, 38.82535 ], [ -77.15912, 38.825 ] ], [ [ -77.15704, 38.82051 ], [ -77.15737, 38.81961 ], [ -77.1565, 38.81981 ], [ -77.15652, 38.82039 ], [ -77.15704, 38.82051 ] ], [ [ -77.15767, 38.81797 ], [ -77.15704, 38.81774 ], [ -77.15645, 38.81717 ], [ -77.15647, 38.8178 ], [ -77.15735, 38.81794 ], [ -77.1575, 38.81845 ], [ -77.15804, 38.81853 ], [ -77.15767, 38.81797 ] ], [ [ -77.15773, 38.81455 ], [ -77.15688, 38.81375 ], [ -77.15656, 38.81419 ], [ -77.15773, 38.81455 ] ], [ [ -77.15882, 38.81565 ], [ -77.15875, 38.81572 ], [ -77.15896, 38.81578 ], [ -77.15882, 38.81565 ] ], [ [ -77.1566, 38.81537 ], [ -77.1577, 38.8167 ], [ -77.15797, 38.81691 ], [ -77.15785, 38.81621 ], [ -77.15834, 38.81581 ], [ -77.1566, 38.81537 ] ], [ [ -77.1597, 38.82259 ], [ -77.15932, 38.8225 ], [ -77.15924, 38.82262 ], [ -77.1597, 38.82259 ] ], [ [ -77.15773, 38.8289 ], [ -77.15769, 38.82972 ], [ -77.15906, 38.8301 ], [ -77.15773, 38.8289 ] ], [ [ -77.14947, 38.81497 ], [ -77.14954, 38.81497 ], [ -77.14949, 38.81494 ], [ -77.14947, 38.81497 ] ], [ [ -77.15292, 38.81955 ], [ -77.15286, 38.81959 ], [ -77.15293, 38.8196 ], [ -77.15292, 38.81955 ] ], [ [ -77.14587, 38.8157 ], [ -77.14627, 38.81545 ], [ -77.14609, 38.81537 ], [ -77.14587, 38.8157 ] ], [ [ -77.14251, 38.81648 ], [ -77.14291, 38.8174 ], [ -77.14384, 38.81602 ], [ -77.1435, 38.81588 ], [ -77.14304, 38.81653 ], [ -77.14251, 38.81648 ] ], [ [ -77.1449, 38.81444 ], [ -77.14406, 38.81488 ], [ -77.14448, 38.81507 ], [ -77.1449, 38.81444 ] ], [ [ -77.14504, 38.81656 ], [ -77.14414, 38.81789 ], [ -77.14446, 38.81798 ], [ -77.14537, 38.81672 ], [ -77.14504, 38.81656 ] ], [ [ -77.14243, 38.81871 ], [ -77.14183, 38.8191 ], [ -77.14232, 38.81946 ], [ -77.14243, 38.81871 ] ], [ [ -77.15588, 38.82483 ], [ -77.15585, 38.8248 ], [ -77.15584, 38.82482 ], [ -77.15588, 38.82483 ] ], [ [ -77.15572, 38.82471 ], [ -77.15578, 38.8248 ], [ -77.15584, 38.82479 ], [ -77.15572, 38.82471 ] ] ], [ [ [ -77.16219, 38.80236 ], [ -77.1595, 38.80389 ], [ -77.15852, 38.8038 ], [ -77.15863, 38.80304 ], [ -77.15996, 38.80212 ], [ -77.16187, 38.80164 ], [ -77.16219, 38.80236 ] ] ] ] } }
]
}
