{
"type": "FeatureCollection",
"name": "114",
"crs": { "type": "name", "properties": { "name": "urn:ogc:def:crs:OGC:1.3:CRS84" } },
"xy_coordinate_resolution": 1e-05,
"features": [
{ "type": "Feature", "properties": { "variant": "T0", "miles": 0.5 }, "geometry": { "type": "Polygon", "coordinates": [ [ [ -77.15987, 38.79935 ], [ -77.16181, 38.79934 ], [ -77.16281, 38.80062 ], [ -77.16386, 38.80044 ], [ -77.16425, 38.80072 ], [ -77.16377, 38.80149 ], [ -77.16459, 38.80182 ], [ -77.16484, 38.80256 ], [ -77.16422, 38.80291 ], [ -77.16259, 38.80253 ], [ -77.16082, 38.80297 ], [ -77.16002, 38.80354 ], [ -77.16014, 38.80446 ], [ -77.15908, 38.80522 ], [ -77.15818, 38.80525 ], [ -77.15711, 38.80455 ], [ -77.15359, 38.80507 ], [ -77.15348, 38.80388 ], [ -77.1513, 38.80268 ], [ -77.15171, 38.80199 ], [ -77.15267, 38.80217 ], [ -77.15353, 38.80166 ], [ -77.15217, 38.80038 ], [ -77.15136, 38.79876 ], [ -77.15263, 38.79739 ], [ -77.1534, 38.79765 ], [ -77.15635, 38.7963 ], [ -77.15813, 38.79625 ], [ -77.16102, 38.79764 ], [ -77.16053, 38.79869 ], [ -77.16003, 38.79881 ], [ -77.15948, 38.79841 ], [ -77.15864, 38.80057 ], [ -77.15909, 38.80055 ], [ -77.15987, 38.79935 ] ], [ [ -77.1612, 38.80061 ], [ -77.16119, 38.80063 ], [ -77.16122, 38.80063 ], [ -77.1612, 38.80061 ] ], [ [ -77.15809, 38.79827 ], [ -77.15801, 38.7983 ], [ -77.15802, 38.79844 ], [ -77.15809, 38.79827 ] ], [ [ -77.15607, 38.80352 ], [ -77.15741, 38.80323 ], [ -77.15781, 38.80214 ], [ -77.1566, 38.80183 ], [ -77.15533, 38.80277 ], [ -77.156, 38.80304 ], [ -77.15607, 38.80352 ] ], [ [ -77.15512, 38.80018 ], [ -77.15522, 38.80024 ], [ -77.1552, 38.80017 ], [ -77.15512, 38.80018 ] ], [ [ -77.15661, 38.79846 ], [ -77.15664, 38.79846 ], [ -77.15664, 38.79843 ], [ -77.15661, 38.79846 ] ], [ [ -77.15634, 38.79753 ], [ -77.1565, 38.79759 ], [ -77.15648, 38.79746 ], [ -77.15634, 38.79753 ] ], [ [ -77.15439, 38.79945 ], [ -77.15429, 38.79941 ], [ -77.15437, 38.79952 ], [ -77.15439, 38.79945 ] ] ] } },
{ "type": "Feature", "properties": { "variant": "T0", "miles": 1.0 }, "geometry": { "type": "Polygon", "coordinates": [ [ [ -77.16739, 38.79664 ], [ -77.16843, 38.79765 ], [ -77.16825, 38.79804 ], [ -77.16715, 38.79874 ], [ -77.16643, 38.79823 ], [ -77.16675, 38.79772 ], [ -77.16626, 38.79738 ], [ -77.16583, 38.7977 ], [ -77.16357, 38.79977 ], [ -77.16394, 38.80016 ], [ -77.16529, 38.7991 ], [ -77.16581, 38.79917 ], [ -77.16603, 38.79991 ], [ -77.16377, 38.80149 ], [ -77.1687, 38.80421 ], [ -77.16933, 38.80395 ], [ -77.17035, 38.80478 ], [ -77.17161, 38.80483 ], [ -77.17233, 38.80533 ], [ -77.17225, 38.80599 ], [ -77.17264, 38.80625 ], [ -77.17235, 38.80698 ], [ -77.17051, 38.80664 ], [ -77.16801, 38.80531 ], [ -77.16686, 38.80563 ], [ -77.1644, 38.80423 ], [ -77.16478, 38.80345 ], [ -77.16339, 38.80267 ], [ -77.16229, 38.80255 ], [ -77.16002, 38.80354 ], [ -77.16036, 38.80411 ], [ -77.15908, 38.80522 ], [ -77.15818, 38.80525 ], [ -77.15711, 38.80455 ], [ -77.15477, 38.80505 ], [ -77.1547, 38.80564 ], [ -77.15602, 38.80626 ], [ -77.15609, 38.80667 ], [ -77.15296, 38.80867 ], [ -77.15194, 38.80811 ], [ -77.15191, 38.80754 ], [ -77.15063, 38.80712 ], [ -77.15069, 38.80649 ], [ -77.1489, 38.8067 ], [ -77.14767, 38.80743 ], [ -77.14682, 38.80725 ], [ -77.14647, 38.80654 ], [ -77.14788, 38.80598 ], [ -77.14749, 38.80546 ], [ -77.14668, 38.80542 ], [ -77.14681, 38.80446 ], [ -77.14638, 38.80372 ], [ -77.14476, 38.80457 ], [ -77.14392, 38.80399 ], [ -77.14462, 38.80315 ], [ -77.14392, 38.80171 ], [ -77.14564, 38.80126 ], [ -77.14631, 38.80231 ], [ -77.14808, 38.80216 ], [ -77.1472, 38.80132 ], [ -77.14803, 38.80013 ], [ -77.14751, 38.79939 ], [ -77.1522, 38.79797 ], [ -77.15263, 38.79739 ], [ -77.15355, 38.79761 ], [ -77.1583, 38.79578 ], [ -77.16124, 38.79689 ], [ -77.16272, 38.7989 ], [ -77.16439, 38.79733 ], [ -77.16321, 38.79666 ], [ -77.16137, 38.79635 ], [ -77.16137, 38.79558 ], [ -77.16344, 38.79558 ], [ -77.16536, 38.79656 ], [ -77.16711, 38.79562 ], [ -77.16774, 38.7962 ], [ -77.16739, 38.79664 ] ], [ [ -77.15619, 38.80349 ], [ -77.15741, 38.80323 ], [ -77.15781, 38.80214 ], [ -77.1566, 38.80183 ], [ -77.15533, 38.80277 ], [ -77.15619, 38.80349 ] ], [ [ -77.1552, 38.80017 ], [ -77.15512, 38.80018 ], [ -77.15522, 38.80024 ], [ -77.1552, 38.80017 ] ], [ [ -77.15661, 38.79846 ], [ -77.15664, 38.79846 ], [ -77.15664, 38.79843 ], [ -77.15661, 38.79846 ] ], [ [ -77.15648, 38.79746 ], [ -77.15634, 38.79753 ], [ -77.1565, 38.79759 ], [ -77.15648, 38.79746 ] ], [ [ -77.1612, 38.80061 ], [ -77.16119, 38.80063 ], [ -77.16122, 38.80063 ], [ -77.1612, 38.80061 ] ], [ [ -77.15809, 38.79827 ], [ -77.15802, 38.79838 ], [ -77.15802, 38.79844 ], [ -77.15809, 38.79827 ] ], [ [ -77.15207, 38.80498 ], [ -77.15323, 38.80516 ], [ -77.15204, 38.80492 ], [ -77.15207, 38.80498 ] ], [ [ -77.15042, 38.80421 ], [ -77.1506, 38.8044 ], [ -77.15074, 38.80436 ], [ -77.15042, 38.80421 ] ], [ [ -77.1491, 38.80362 ], [ -77.14773, 38.80344 ], [ -77.14897, 38.80531 ], [ -77.14993, 38.80547 ], [ -77.14886, 38.8044 ], [ -77.1491, 38.80362 ] ], [ [ -77.14934, 38.80169 ], [ -77.14932, 38.80146 ], [ -77.14924, 38.80145 ], [ -77.14934, 38.80169 ] ], [ [ -77.15348, 38.80166 ], [ -77.15353, 38.80166 ], [ -77.15346, 38.8016 ], [ -77.15348, 38.80166 ] ], [ [ -77.15281, 38.8011 ], [ -77.15283, 38.80111 ], [ -77.1528, 38.80109 ], [ -77.15281, 38.8011 ] ], [ [ -77.15219, 38.80044 ], [ -77.15222, 38.80044 ], [ -77.1522, 38.80043 ], [ -77.15219, 38.80044 ] ], [ [ -77.15182, 38.7998 ], [ -77.15181, 38.79978 ], [ -77.15181, 38.79979 ], [ -77.15182, 38.7998 ] ], [ [ -77.15439, 38.79945 ], [ -77.1543, 38.79943 ], [ -77.15437, 38.79952 ], [ -77.15439, 38.79945 ] ] ] } },
{ "type": "Feature", "properties": { "variant": "T0", "miles": 1.5 }, "geometry": { "type": "Polygon", "coordinates": [ [ [ -77.17949, 38.80468 ], [ -77.17934, 38.80508 ], [ -77.17887, 38.80528 ], [ -77.17808, 38.80498 ], [ -77.17749, 38.80554 ], [ -77.18026, 38.80536 ], [ -77.18107, 38.80619 ], [ -77.18101, 38.8073 ], [ -77.18026, 38.80752 ], [ -77.18025, 38.80826 ], [ -77.17976, 38.80842 ], [ -77.17678, 38.80841 ], [ -77.17693, 38.80915 ], [ -77.17657, 38.80945 ], [ -77.17502, 38.80982 ], [ -77.17462, 38.80912 ], [ -77.17544, 38.80866 ], [ -77.17535, 38.8075 ], [ -77.17419, 38.80739 ], [ -77.174, 38.81133 ], [ -77.17486, 38.81151 ], [ -77.17506, 38.81195 ], [ -77.17485, 38.81233 ], [ -77.17229, 38.81266 ], [ -77.1713, 38.81332 ], [ -77.17045, 38.81277 ], [ -77.17117, 38.81185 ], [ -77.17064, 38.81097 ], [ -77.17088, 38.80681 ], [ -77.17, 38.80859 ], [ -77.16838, 38.80903 ], [ -77.16927, 38.8102 ], [ -77.16837, 38.8126 ], [ -77.169, 38.81336 ], [ -77.16834, 38.81392 ], [ -77.16741, 38.81342 ], [ -77.16532, 38.81085 ], [ -77.16611, 38.8104 ], [ -77.16675, 38.80913 ], [ -77.16655, 38.80856 ], [ -77.16558, 38.81009 ], [ -77.16467, 38.80983 ], [ -77.16613, 38.80626 ], [ -77.16636, 38.80535 ], [ -77.1659, 38.80507 ], [ -77.16507, 38.80574 ], [ -77.16507, 38.80677 ], [ -77.16454, 38.80734 ], [ -77.16225, 38.80778 ], [ -77.16096, 38.80593 ], [ -77.16003, 38.80649 ], [ -77.16043, 38.80856 ], [ -77.15917, 38.80892 ], [ -77.15849, 38.80837 ], [ -77.15902, 38.80574 ], [ -77.16053, 38.80475 ], [ -77.16471, 38.80341 ], [ -77.16325, 38.80263 ], [ -77.16082, 38.80297 ], [ -77.16002, 38.80354 ], [ -77.16014, 38.80446 ], [ -77.15864, 38.80537 ], [ -77.15711, 38.80455 ], [ -77.15477, 38.80505 ], [ -77.1547, 38.80564 ], [ -77.15602, 38.80626 ], [ -77.15609, 38.80667 ], [ -77.15348, 38.80858 ], [ -77.15296, 38.80867 ], [ -77.15194, 38.80811 ], [ -77.15191, 38.80754 ], [ -77.15063, 38.80712 ], [ -77.15069, 38.80649 ], [ -77.14972, 38.8066 ], [ -77.14991, 38.80744 ], [ -77.15142, 38.80928 ], [ -77.15062, 38.80972 ], [ -77.14804, 38.80763 ], [ -77.14761, 38.80824 ], [ -77.14872, 38.80965 ], [ -77.14841, 38.81025 ], [ -77.1479, 38.81035 ], [ -77.14654, 38.80928 ], [ -77.14531, 38.80948 ], [ -77.14523, 38.81004 ], [ -77.14427, 38.81018 ], [ -77.14364, 38.80786 ], [ -77.14521, 38.80675 ], [ -77.14379, 38.80565 ], [ -77.14092, 38.80798 ], [ -77.1416, 38.80907 ], [ -77.14142, 38.80946 ], [ -77.14094, 38.80963 ], [ -77.13995, 38.80913 ], [ -77.13934, 38.80987 ], [ -77.13846, 38.80939 ], [ -77.138, 38.80788 ], [ -77.13835, 38.80729 ], [ -77.13708, 38.8066 ], [ -77.13744, 38.80589 ], [ -77.13797, 38.80588 ], [ -77.13978, 38.80706 ], [ -77.14016, 38.80695 ], [ -77.1413, 38.8061 ], [ -77.14091, 38.80504 ], [ -77.14241, 38.80406 ], [ -77.14374, 38.80391 ], [ -77.14462, 38.80315 ], [ -77.14339, 38.80057 ], [ -77.14432, 38.80033 ], [ -77.14502, 38.80069 ], [ -77.1447, 38.79995 ], [ -77.14512, 38.79927 ], [ -77.14674, 38.79969 ], [ -77.14785, 38.80066 ], [ -77.14803, 38.80013 ], [ -77.14751, 38.79939 ], [ -77.14788, 38.79909 ], [ -77.14867, 38.79917 ], [ -77.1522, 38.79797 ], [ -77.15263, 38.79739 ], [ -77.15355, 38.79761 ], [ -77.1583, 38.79578 ], [ -77.16124, 38.79689 ], [ -77.16272, 38.7989 ], [ -77.16439, 38.79733 ], [ -77.16321, 38.79666 ], [ -77.16137, 38.79635 ], [ -77.16117, 38.79596 ], [ -77.16186, 38.79542 ], [ -77.16291, 38.79548 ], [ -77.16536, 38.79656 ], [ -77.16612, 38.79606 ], [ -77.1648, 38.79472 ], [ -77.1652, 38.79402 ], [ -77.16614, 38.79424 ], [ -77.16719, 38.79537 ], [ -77.16916, 38.79444 ], [ -77.16974, 38.79506 ], [ -77.16733, 38.79668 ], [ -77.16843, 38.79765 ], [ -77.16763, 38.79857 ], [ -77.16665, 38.7986 ], [ -77.16675, 38.79772 ], [ -77.16626, 38.79738 ], [ -77.16357, 38.79977 ], [ -77.16394, 38.80016 ], [ -77.16529, 38.7991 ], [ -77.16612, 38.79951 ], [ -77.16571, 38.80028 ], [ -77.16377, 38.80149 ], [ -77.16568, 38.80245 ], [ -77.17083, 38.79784 ], [ -77.17134, 38.79795 ], [ -77.17145, 38.79871 ], [ -77.16706, 38.80255 ], [ -77.16736, 38.80286 ], [ -77.16896, 38.8034 ], [ -77.17011, 38.8045 ], [ -77.17035, 38.80387 ], [ -77.17132, 38.8039 ], [ -77.17177, 38.80506 ], [ -77.17209, 38.80322 ], [ -77.17286, 38.80275 ], [ -77.17356, 38.80321 ], [ -77.17396, 38.80174 ], [ -77.17671, 38.80223 ], [ -77.17949, 38.80468 ] ], [ [ -77.1566, 38.80183 ], [ -77.15533, 38.80277 ], [ -77.156, 38.80304 ], [ -77.15591, 38.80355 ], [ -77.15741, 38.80323 ], [ -77.15781, 38.80214 ], [ -77.1566, 38.80183 ] ], [ [ -77.15512, 38.80018 ], [ -77.15522, 38.80024 ], [ -77.1552, 38.80017 ], [ -77.15512, 38.80018 ] ], [ [ -77.15429, 38.79941 ], [ -77.15437, 38.79952 ], [ -77.15439, 38.79945 ], [ -77.15429, 38.79941 ] ], [ [ -77.16879, 38.80774 ], [ -77.16867, 38.80794 ], [ -77.16896, 38.80787 ], [ -77.16967, 38.80624 ], [ -77.16879, 38.80774 ] ], [ [ -77.16763, 38.80578 ], [ -77.16673, 38.80819 ], [ -77.16834, 38.8056 ], [ -77.16801, 38.80531 ], [ -77.16763, 38.80578 ] ], [ [ -77.17585, 38.80402 ], [ -77.17587, 38.80403 ], [ -77.17621, 38.80371 ], [ -77.17603, 38.80342 ], [ -77.17585, 38.80402 ] ], [ [ -77.17202, 38.81093 ], [ -77.17246, 38.8114 ], [ -77.17282, 38.80721 ], [ -77.17224, 38.80711 ], [ -77.17202, 38.81093 ] ], [ [ -77.16773, 38.81012 ], [ -77.16741, 38.81146 ], [ -77.16762, 38.81102 ], [ -77.16773, 38.81012 ] ], [ [ -77.16122, 38.80063 ], [ -77.1612, 38.80061 ], [ -77.16119, 38.80063 ], [ -77.16122, 38.80063 ] ], [ [ -77.15801, 38.7983 ], [ -77.15802, 38.79844 ], [ -77.15809, 38.79827 ], [ -77.15801, 38.7983 ] ], [ [ -77.15648, 38.79746 ], [ -77.15634, 38.79753 ], [ -77.1565, 38.79759 ], [ -77.15648, 38.79746 ] ], [ [ -77.15664, 38.79843 ], [ -77.15661, 38.79846 ], [ -77.15664, 38.79848 ], [ -77.15664, 38.79843 ] ], [ [ -77.1506, 38.8044 ], [ -77.15074, 38.80436 ], [ -77.15042, 38.80421 ], [ -77.1506, 38.8044 ] ], [ [ -77.14773, 38.80344 ], [ -77.14897, 38.80531 ], [ -77.14993, 38.80547 ], [ -77.14886, 38.8044 ], [ -77.1491, 38.80362 ], [ -77.14773, 38.80344 ] ], [ [ -77.14932, 38.80146 ], [ -77.14924, 38.80145 ], [ -77.14934, 38.80169 ], [ -77.14932, 38.80146 ] ], [ [ -77.15243, 38.80503 ], [ -77.15204, 38.80492 ], [ -77.15321, 38.80528 ], [ -77.15243, 38.80503 ] ], [ [ -77.15219, 38.80044 ], [ -77.15222, 38.80044 ], [ -77.1522, 38.80043 ], [ -77.15219, 38.80044 ] ], [ [ -77.15347, 38.80168 ], [ -77.15353, 38.80166 ], [ -77.15346, 38.8016 ], [ -77.15347, 38.80168 ] ], [ [ -77.15279, 38.80111 ], [ -77.15283, 38.80111 ], [ -77.1528, 38.80109 ], [ -77.15279, 38.80111 ] ], [ [ -77.14681, 38.80446 ], [ -77.14638, 38.80372 ], [ -77.14556, 38.8041 ], [ -77.14647, 38.80496 ], [ -77.14681, 38.80446 ] ] ] } },
{ "type": "Feature", "properties": { "variant": "T2s", "miles": 0.5 }, "geometry": { "type": "Polygon", "coordinates": [ [ [ -77.15956, 38.79862 ], [ -77.15864, 38.80057 ], [ -77.15909, 38.80055 ], [ -77.16029, 38.79911 ], [ -77.16153, 38.79918 ], [ -77.16281, 38.80062 ], [ -77.16386, 38.80044 ], [ -77.16425, 38.80072 ], [ -77.16377, 38.80149 ], [ -77.16459, 38.80182 ], [ -77.16484, 38.80256 ], [ -77.16422, 38.80291 ], [ -77.16203, 38.80245 ], [ -77.15895, 38.80391 ], [ -77.15653, 38.80454 ], [ -77.15569, 38.80415 ], [ -77.15577, 38.80374 ], [ -77.15741, 38.80323 ], [ -77.15781, 38.80214 ], [ -77.1566, 38.80183 ], [ -77.15533, 38.80277 ], [ -77.156, 38.80304 ], [ -77.15603, 38.80345 ], [ -77.15557, 38.80386 ], [ -77.15556, 38.80445 ], [ -77.1551, 38.80465 ], [ -77.1513, 38.80268 ], [ -77.15171, 38.80199 ], [ -77.15267, 38.80217 ], [ -77.15353, 38.80166 ], [ -77.15217, 38.80038 ], [ -77.15136, 38.79876 ], [ -77.15263, 38.79739 ], [ -77.1534, 38.79765 ], [ -77.15626, 38.79632 ], [ -77.15786, 38.7962 ], [ -77.16087, 38.79735 ], [ -77.16053, 38.79869 ], [ -77.15956, 38.79862 ] ], [ [ -77.15664, 38.79848 ], [ -77.15664, 38.79843 ], [ -77.15661, 38.79846 ], [ -77.15664, 38.79848 ] ], [ [ -77.15648, 38.79746 ], [ -77.15634, 38.79753 ], [ -77.1565, 38.79759 ], [ -77.15648, 38.79746 ] ], [ [ -77.15802, 38.79844 ], [ -77.15809, 38.79827 ], [ -77.15801, 38.7983 ], [ -77.15802, 38.79844 ] ], [ [ -77.1612, 38.80061 ], [ -77.16119, 38.80063 ], [ -77.16122, 38.80063 ], [ -77.1612, 38.80061 ] ], [ [ -77.15439, 38.79945 ], [ -77.15429, 38.79941 ], [ -77.15437, 38.79952 ], [ -77.15439, 38.79945 ] ], [ [ -77.15522, 38.80024 ], [ -77.1552, 38.80017 ], [ -77.15512, 38.80018 ], [ -77.15522, 38.80024 ] ] ] } },
{ "type": "Feature", "properties": { "variant": "T2s", "miles": 1.0 }, "geometry": { "type": "MultiPolygon", "coordinates": [ [ [ [ -77.1675, 38.79657 ], [ -77.16843, 38.79765 ], [ -77.16825, 38.79804 ], [ -77.16715, 38.79874 ], [ -77.16643, 38.79823 ], [ -77.16675, 38.79772 ], [ -77.16626, 38.79738 ], [ -77.16583, 38.7977 ], [ -77.16357, 38.79977 ], [ -77.16394, 38.80016 ], [ -77.16529, 38.7991 ], [ -77.16581, 38.79917 ], [ -77.16603, 38.79991 ], [ -77.16377, 38.80149 ], [ -77.1687, 38.80421 ], [ -77.16933, 38.80395 ], [ -77.17035, 38.80478 ], [ -77.17161, 38.80483 ], [ -77.17233, 38.80533 ], [ -77.17225, 38.80599 ], [ -77.17264, 38.80625 ], [ -77.17235, 38.80698 ], [ -77.17044, 38.80661 ], [ -77.1625, 38.8024 ], [ -77.16064, 38.80286 ], [ -77.15838, 38.80413 ], [ -77.15373, 38.80507 ], [ -77.15198, 38.80476 ], [ -77.14764, 38.80274 ], [ -77.14811, 38.80221 ], [ -77.1472, 38.80132 ], [ -77.14803, 38.80013 ], [ -77.14751, 38.79939 ], [ -77.1522, 38.79797 ], [ -77.15263, 38.79739 ], [ -77.15355, 38.79761 ], [ -77.1583, 38.79578 ], [ -77.16124, 38.79689 ], [ -77.16272, 38.7989 ], [ -77.16439, 38.79733 ], [ -77.16321, 38.79666 ], [ -77.16137, 38.79635 ], [ -77.16137, 38.79558 ], [ -77.16344, 38.79558 ], [ -77.16536, 38.79656 ], [ -77.16711, 38.79562 ], [ -77.16758, 38.79581 ], [ -77.1675, 38.79657 ] ], [ [ -77.15664, 38.79848 ], [ -77.15664, 38.79843 ], [ -77.15661, 38.79846 ], [ -77.15664, 38.79848 ] ], [ [ -77.15648, 38.79746 ], [ -77.15634, 38.79753 ], [ -77.1565, 38.79759 ], [ -77.15648, 38.79746 ] ], [ [ -77.1612, 38.80061 ], [ -77.16119, 38.80063 ], [ -77.16122, 38.80063 ], [ -77.1612, 38.80061 ] ], [ [ -77.15802, 38.79844 ], [ -77.15809, 38.79827 ], [ -77.15801, 38.7983 ], [ -77.15802, 38.79844 ] ], [ [ -77.15591, 38.80355 ], [ -77.15741, 38.80323 ], [ -77.1578, 38.80213 ], [ -77.1566, 38.80183 ], [ -77.15533, 38.80277 ], [ -77.156, 38.80304 ], [ -77.15591, 38.80355 ] ], [ [ -77.15281, 38.8011 ], [ -77.1528, 38.80109 ], [ -77.15279, 38.80111 ], [ -77.15281, 38.8011 ] ], [ [ -77.15219, 38.80044 ], [ -77.15222, 38.80044 ], [ -77.1522, 38.80043 ], [ -77.15219, 38.80044 ] ], [ [ -77.15181, 38.79979 ], [ -77.15182, 38.7998 ], [ -77.15181, 38.79978 ], [ -77.15181, 38.79979 ] ], [ [ -77.15512, 38.80018 ], [ -77.15522, 38.80024 ], [ -77.1552, 38.80017 ], [ -77.15512, 38.80018 ] ], [ [ -77.15439, 38.79945 ], [ -77.1543, 38.79943 ], [ -77.15437, 38.79952 ], [ -77.15439, 38.79945 ] ], [ [ -77.15346, 38.8016 ], [ -77.15347, 38.80168 ], [ -77.15353, 38.80166 ], [ -77.15346, 38.8016 ] ], [ [ -77.14928, 38.80157 ], [ -77.14932, 38.80146 ], [ -77.14924, 38.80145 ], [ -77.14928, 38.80157 ] ] ], [ [ [ -77.14392, 38.80171 ], [ -77.14564, 38.80126 ], [ -77.14687, 38.80252 ], [ -77.14646, 38.80338 ], [ -77.14528, 38.80356 ], [ -77.14402, 38.8024 ], [ -77.14392, 38.80171 ] ] ] ] } },
{ "type": "Feature", "properties": { "variant": "T2s", "miles": 1.5 }, "geometry": { "type": "Polygon", "coordinates": [ [ [ -77.16961, 38.79465 ], [ -77.16946, 38.79541 ], [ -77.16733, 38.79668 ], [ -77.1682, 38.79727 ], [ -77.16825, 38.79804 ], [ -77.16715, 38.79874 ], [ -77.16643, 38.79823 ], [ -77.16675, 38.79772 ], [ -77.16626, 38.79738 ], [ -77.16583, 38.7977 ], [ -77.16357, 38.79977 ], [ -77.16394, 38.80016 ], [ -77.16529, 38.7991 ], [ -77.16581, 38.79917 ], [ -77.16603, 38.79991 ], [ -77.16377, 38.80149 ], [ -77.16568, 38.80245 ], [ -77.17037, 38.79804 ], [ -77.17134, 38.79795 ], [ -77.17145, 38.79871 ], [ -77.16706, 38.80255 ], [ -77.16725, 38.80277 ], [ -77.16896, 38.8034 ], [ -77.17011, 38.8045 ], [ -77.17035, 38.80387 ], [ -77.17132, 38.8039 ], [ -77.17177, 38.80506 ], [ -77.17209, 38.80322 ], [ -77.17286, 38.80275 ], [ -77.17356, 38.80321 ], [ -77.17396, 38.80174 ], [ -77.17671, 38.80223 ], [ -77.17949, 38.80468 ], [ -77.17934, 38.80508 ], [ -77.17887, 38.80528 ], [ -77.17808, 38.80498 ], [ -77.17749, 38.80554 ], [ -77.18026, 38.80536 ], [ -77.18068, 38.80561 ], [ -77.18043, 38.80635 ], [ -77.17844, 38.80663 ], [ -77.17841, 38.80735 ], [ -77.17793, 38.80751 ], [ -77.1722, 38.8071 ], [ -77.17031, 38.80655 ], [ -77.1625, 38.8024 ], [ -77.16064, 38.80286 ], [ -77.15838, 38.80413 ], [ -77.15382, 38.80506 ], [ -77.15203, 38.80477 ], [ -77.1483, 38.80323 ], [ -77.14704, 38.80344 ], [ -77.14556, 38.80394 ], [ -77.14179, 38.80725 ], [ -77.14069, 38.80706 ], [ -77.14063, 38.8064 ], [ -77.1413, 38.8061 ], [ -77.14091, 38.80504 ], [ -77.14241, 38.80406 ], [ -77.14374, 38.80391 ], [ -77.14462, 38.80315 ], [ -77.14339, 38.80057 ], [ -77.14432, 38.80033 ], [ -77.14502, 38.80069 ], [ -77.1447, 38.79995 ], [ -77.14512, 38.79927 ], [ -77.14674, 38.79969 ], [ -77.14785, 38.80066 ], [ -77.14803, 38.80013 ], [ -77.14751, 38.79939 ], [ -77.14788, 38.79909 ], [ -77.14867, 38.79917 ], [ -77.1522, 38.79797 ], [ -77.15263, 38.79739 ], [ -77.15355, 38.79761 ], [ -77.1583, 38.79578 ], [ -77.16124, 38.79689 ], [ -77.16272, 38.7989 ], [ -77.16439, 38.79733 ], [ -77.16321, 38.79666 ], [ -77.16137, 38.79635 ], [ -77.16137, 38.79558 ], [ -77.16344, 38.79558 ], [ -77.16536, 38.79656 ], [ -77.16612, 38.79606 ], [ -77.1648, 38.79472 ], [ -77.1652, 38.79402 ], [ -77.16614, 38.79424 ], [ -77.16719, 38.79537 ], [ -77.16916, 38.79444 ], [ -77.16961, 38.79465 ] ], [ [ -77.1612, 38.80061 ], [ -77.16119, 38.80063 ], [ -77.16122, 38.80063 ], [ -77.1612, 38.80061 ] ], [ [ -77.15512, 38.80018 ], [ -77.15522, 38.80024 ], [ -77.1552, 38.80017 ], [ -77.15512, 38.80018 ] ], [ [ -77.15664, 38.79843 ], [ -77.15661, 38.79846 ], [ -77.15664, 38.79848 ], [ -77.15664, 38.79843 ] ], [ [ -77.15634, 38.79753 ], [ -77.1565, 38.79759 ], [ -77.15648, 38.79746 ], [ -77.15634, 38.79753 ] ], [ [ -77.17585, 38.80402 ], [ -77.17587, 38.80403 ], [ -77.17621, 38.80371 ], [ -77.17604, 38.80344 ], [ -77.17585, 38.80402 ] ], [ [ -77.15801, 38.7983 ], [ -77.15802, 38.79844 ], [ -77.15809, 38.79827 ], [ -77.15801, 38.7983 ] ], [ [ -77.15741, 38.80323 ], [ -77.1578, 38.80213 ], [ -77.1566, 38.80183 ], [ -77.15533, 38.80277 ], [ -77.156, 38.80304 ], [ -77.15591, 38.80355 ], [ -77.15741, 38.80323 ] ], [ [ -77.14932, 38.80146 ], [ -77.14924, 38.80145 ], [ -77.14934, 38.80169 ], [ -77.14932, 38.80146 ] ], [ [ -77.1543, 38.79943 ], [ -77.15437, 38.79952 ], [ -77.15439, 38.79945 ], [ -77.1543, 38.79943 ] ], [ [ -77.15347, 38.80168 ], [ -77.15353, 38.80166 ], [ -77.15346, 38.8016 ], [ -77.15347, 38.80168 ] ], [ [ -77.15279, 38.80111 ], [ -77.15283, 38.80111 ], [ -77.1528, 38.80109 ], [ -77.15279, 38.80111 ] ], [ [ -77.15219, 38.80044 ], [ -77.15222, 38.80044 ], [ -77.1522, 38.80043 ], [ -77.15219, 38.80044 ] ] ] } }
]
}
