{
"type": "FeatureCollection",
"name": "141",
"crs": { "type": "name", "properties": { "name": "urn:ogc:def:crs:OGC:1.3:CRS84" } },
"xy_coordinate_resolution": 1e-05,
"features": [
{ "type": "Feature", "properties": { "variant": "T0", "miles": 1.0 }, "geometry": { "type": "Polygon", "coordinates": [ [ [ -77.1978, 38.82273 ], [ -77.1965, 38.82317 ], [ -77.19618, 38.82363 ], [ -77.19752, 38.82432 ], [ -77.19771, 38.82518 ], [ -77.19926, 38.82539 ], [ -77.19954, 38.82612 ], [ -77.19724, 38.82648 ], [ -77.19732, 38.827 ], [ -77.19659, 38.82725 ], [ -77.19587, 38.82858 ], [ -77.19521, 38.82869 ], [ -77.19482, 38.8312 ], [ -77.19384, 38.83117 ], [ -77.19373, 38.82908 ], [ -77.19128, 38.8289 ], [ -77.19055, 38.83089 ], [ -77.18982, 38.83117 ], [ -77.18917, 38.83075 ], [ -77.18929, 38.82999 ], [ -77.18601, 38.82934 ], [ -77.18667, 38.83135 ], [ -77.18773, 38.83111 ], [ -77.18809, 38.83199 ], [ -77.18706, 38.8329 ], [ -77.18618, 38.83278 ], [ -77.18514, 38.83121 ], [ -77.18434, 38.83109 ], [ -77.18211, 38.82914 ], [ -77.18121, 38.82886 ], [ -77.18097, 38.82811 ], [ -77.17877, 38.82724 ], [ -77.17924, 38.82625 ], [ -77.18097, 38.82681 ], [ -77.18152, 38.82594 ], [ -77.18317, 38.82664 ], [ -77.18325, 38.82745 ], [ -77.18485, 38.82781 ], [ -77.18503, 38.82701 ], [ -77.1839, 38.82663 ], [ -77.18273, 38.82506 ], [ -77.18078, 38.82388 ], [ -77.18131, 38.82324 ], [ -77.1838, 38.82434 ], [ -77.1849, 38.82587 ], [ -77.18589, 38.82514 ], [ -77.18313, 38.82351 ], [ -77.1837, 38.82289 ], [ -77.18503, 38.82336 ], [ -77.18514, 38.82315 ], [ -77.18394, 38.82281 ], [ -77.18036, 38.82308 ], [ -77.17942, 38.82283 ], [ -77.17927, 38.82243 ], [ -77.18005, 38.82195 ], [ -77.1801, 38.82117 ], [ -77.17931, 38.82043 ], [ -77.17948, 38.82004 ], [ -77.1803, 38.81995 ], [ -77.18026, 38.81935 ], [ -77.17954, 38.81877 ], [ -77.18011, 38.81827 ], [ -77.17891, 38.81769 ], [ -77.17884, 38.81728 ], [ -77.17963, 38.8169 ], [ -77.17924, 38.81648 ], [ -77.17999, 38.8159 ], [ -77.17932, 38.8149 ], [ -77.17942, 38.81401 ], [ -77.18039, 38.81395 ], [ -77.1818, 38.81732 ], [ -77.18128, 38.8131 ], [ -77.1819, 38.81251 ], [ -77.18265, 38.813 ], [ -77.18351, 38.81979 ], [ -77.18372, 38.82029 ], [ -77.1843, 38.81927 ], [ -77.18482, 38.81922 ], [ -77.1853, 38.81988 ], [ -77.18479, 38.82109 ], [ -77.18381, 38.82173 ], [ -77.1856, 38.82213 ], [ -77.18671, 38.82116 ], [ -77.18866, 38.82174 ], [ -77.18841, 38.82051 ], [ -77.189, 38.819 ], [ -77.18853, 38.81834 ], [ -77.18702, 38.81875 ], [ -77.18626, 38.81827 ], [ -77.18687, 38.81767 ], [ -77.189, 38.81713 ], [ -77.19137, 38.82034 ], [ -77.19199, 38.81941 ], [ -77.19156, 38.81853 ], [ -77.19201, 38.81785 ], [ -77.19254, 38.81789 ], [ -77.19343, 38.81904 ], [ -77.19286, 38.82084 ], [ -77.19193, 38.82133 ], [ -77.19298, 38.82318 ], [ -77.19725, 38.82174 ], [ -77.19816, 38.82202 ], [ -77.1978, 38.82273 ] ], [ [ -77.18978, 38.8286 ], [ -77.19053, 38.828 ], [ -77.18863, 38.82745 ], [ -77.1885, 38.82845 ], [ -77.18978, 38.8286 ] ], [ [ -77.1908, 38.822 ], [ -77.19069, 38.82272 ], [ -77.19125, 38.8228 ], [ -77.1908, 38.822 ] ], [ [ -77.18928, 38.8229 ], [ -77.18896, 38.82268 ], [ -77.18879, 38.8226 ], [ -77.18928, 38.8229 ] ], [ [ -77.19516, 38.82603 ], [ -77.19512, 38.82597 ], [ -77.19506, 38.82606 ], [ -77.19516, 38.82603 ] ], [ [ -77.18243, 38.82178 ], [ -77.18178, 38.82157 ], [ -77.1814, 38.82164 ], [ -77.18143, 38.82194 ], [ -77.18243, 38.82178 ] ], [ [ -77.18237, 38.82053 ], [ -77.18203, 38.81934 ], [ -77.18215, 38.81837 ], [ -77.18165, 38.81846 ], [ -77.18171, 38.82049 ], [ -77.18237, 38.82053 ] ], [ [ -77.18713, 38.82831 ], [ -77.18749, 38.82558 ], [ -77.18819, 38.82513 ], [ -77.1879, 38.82476 ], [ -77.18627, 38.82652 ], [ -77.18623, 38.82812 ], [ -77.18713, 38.82831 ] ], [ [ -77.18797, 38.8245 ], [ -77.18914, 38.82399 ], [ -77.18808, 38.82359 ], [ -77.18797, 38.8245 ] ], [ [ -77.18897, 38.82529 ], [ -77.18859, 38.82526 ], [ -77.18876, 38.82637 ], [ -77.18882, 38.82637 ], [ -77.18897, 38.82529 ] ], [ [ -77.18718, 38.82251 ], [ -77.1862, 38.82396 ], [ -77.18662, 38.82421 ], [ -77.18718, 38.82251 ] ], [ [ -77.18468, 38.82904 ], [ -77.18462, 38.82905 ], [ -77.18467, 38.82906 ], [ -77.18468, 38.82904 ] ], [ [ -77.18011, 38.81698 ], [ -77.18004, 38.81701 ], [ -77.18011, 38.81705 ], [ -77.18011, 38.81698 ] ] ] } },
{ "type": "Feature", "properties": { "variant": "T0", "miles": 1.5 }, "geometry": { "type": "Polygon", "coordinates": [ [ [ -77.2063, 38.81833 ], [ -77.20491, 38.82028 ], [ -77.20597, 38.82035 ], [ -77.20698, 38.82003 ], [ -77.20726, 38.82076 ], [ -77.20646, 38.8216 ], [ -77.20549, 38.82136 ], [ -77.20449, 38.82281 ], [ -77.20553, 38.82209 ], [ -77.20685, 38.82267 ], [ -77.2072, 38.82231 ], [ -77.20813, 38.82253 ], [ -77.20737, 38.82459 ], [ -77.20798, 38.82517 ], [ -77.20751, 38.82566 ], [ -77.2065, 38.82585 ], [ -77.20607, 38.82548 ], [ -77.20513, 38.82548 ], [ -77.2047, 38.82483 ], [ -77.20448, 38.82489 ], [ -77.20436, 38.82632 ], [ -77.20257, 38.82814 ], [ -77.20214, 38.83004 ], [ -77.20249, 38.83078 ], [ -77.20444, 38.83113 ], [ -77.20455, 38.83198 ], [ -77.20367, 38.83246 ], [ -77.20011, 38.83188 ], [ -77.19961, 38.83215 ], [ -77.19946, 38.83318 ], [ -77.20059, 38.8337 ], [ -77.20055, 38.83472 ], [ -77.19978, 38.83578 ], [ -77.19853, 38.83548 ], [ -77.19889, 38.83661 ], [ -77.19839, 38.83727 ], [ -77.19752, 38.83678 ], [ -77.19453, 38.8373 ], [ -77.19346, 38.83717 ], [ -77.19259, 38.83647 ], [ -77.1932, 38.83526 ], [ -77.19183, 38.83662 ], [ -77.1926, 38.83726 ], [ -77.19247, 38.83767 ], [ -77.19201, 38.83788 ], [ -77.19074, 38.83733 ], [ -77.1902, 38.83814 ], [ -77.18935, 38.83797 ], [ -77.18885, 38.83866 ], [ -77.18833, 38.83869 ], [ -77.18568, 38.83757 ], [ -77.18545, 38.83815 ], [ -77.18448, 38.8381 ], [ -77.18376, 38.83658 ], [ -77.18303, 38.83648 ], [ -77.18262, 38.83731 ], [ -77.1821, 38.83738 ], [ -77.18167, 38.83713 ], [ -77.18164, 38.83641 ], [ -77.17915, 38.83637 ], [ -77.17828, 38.83231 ], [ -77.17914, 38.83083 ], [ -77.18008, 38.83062 ], [ -77.18037, 38.83123 ], [ -77.18115, 38.83114 ], [ -77.18228, 38.832 ], [ -77.18236, 38.83273 ], [ -77.1828, 38.83177 ], [ -77.18026, 38.82986 ], [ -77.18027, 38.82945 ], [ -77.18065, 38.82916 ], [ -77.18164, 38.82932 ], [ -77.18403, 38.83123 ], [ -77.18518, 38.8313 ], [ -77.18399, 38.83088 ], [ -77.18035, 38.82791 ], [ -77.1762, 38.83369 ], [ -77.17521, 38.83386 ], [ -77.17383, 38.83287 ], [ -77.17401, 38.83217 ], [ -77.17518, 38.83192 ], [ -77.17377, 38.83149 ], [ -77.17365, 38.83109 ], [ -77.17392, 38.83073 ], [ -77.17538, 38.83066 ], [ -77.17385, 38.83025 ], [ -77.17372, 38.82945 ], [ -77.17469, 38.82934 ], [ -77.17715, 38.83016 ], [ -77.17782, 38.82923 ], [ -77.17441, 38.82849 ], [ -77.17254, 38.82766 ], [ -77.17248, 38.82725 ], [ -77.17402, 38.82611 ], [ -77.17217, 38.82534 ], [ -77.17253, 38.82449 ], [ -77.17555, 38.82492 ], [ -77.17695, 38.82276 ], [ -77.17867, 38.8228 ], [ -77.17928, 38.82304 ], [ -77.17939, 38.82384 ], [ -77.18076, 38.82465 ], [ -77.18103, 38.8253 ], [ -77.18317, 38.82664 ], [ -77.18325, 38.82745 ], [ -77.18485, 38.82781 ], [ -77.18503, 38.82701 ], [ -77.18384, 38.82658 ], [ -77.18273, 38.82506 ], [ -77.18109, 38.82422 ], [ -77.18087, 38.82348 ], [ -77.18183, 38.82331 ], [ -77.18366, 38.82425 ], [ -77.18494, 38.82589 ], [ -77.18589, 38.82514 ], [ -77.18313, 38.82351 ], [ -77.1837, 38.82289 ], [ -77.18503, 38.82336 ], [ -77.18514, 38.82315 ], [ -77.18394, 38.82281 ], [ -77.18036, 38.82308 ], [ -77.17942, 38.82283 ], [ -77.17927, 38.82243 ], [ -77.18005, 38.82195 ], [ -77.1801, 38.82117 ], [ -77.17931, 38.82043 ], [ -77.17948, 38.82004 ], [ -77.1803, 38.81995 ], [ -77.18026, 38.81935 ], [ -77.17954, 38.81877 ], [ -77.18011, 38.81827 ], [ -77.17891, 38.81769 ], [ -77.17884, 38.81728 ], [ -77.17963, 38.8169 ], [ -77.17924, 38.81648 ], [ -77.17999, 38.8159 ], [ -77.17932, 38.8149 ], [ -77.17892, 38.81247 ], [ -77.17436, 38.81248 ], [ -77.17368, 38.81194 ], [ -77.1743, 38.81136 ], [ -77.17424, 38.81067 ], [ -77.17539, 38.8105 ], [ -77.17533, 38.80996 ], [ -77.17599, 38.80963 ], [ -77.17564, 38.80877 ], [ -77.176, 38.80847 ], [ -77.17692, 38.80873 ], [ -77.17857, 38.81049 ], [ -77.17907, 38.81048 ], [ -77.17927, 38.80981 ], [ -77.17976, 38.80966 ], [ -77.18075, 38.80982 ], [ -77.18095, 38.8102 ], [ -77.18015, 38.81132 ], [ -77.1856, 38.81128 ], [ -77.18498, 38.80903 ], [ -77.18539, 38.80876 ], [ -77.18715, 38.80905 ], [ -77.1873, 38.81054 ], [ -77.18812, 38.81069 ], [ -77.18834, 38.8111 ], [ -77.18989, 38.81121 ], [ -77.19015, 38.81184 ], [ -77.18951, 38.81242 ], [ -77.18715, 38.81245 ], [ -77.18753, 38.81525 ], [ -77.18808, 38.8139 ], [ -77.1916, 38.81323 ], [ -77.19242, 38.81364 ], [ -77.1929, 38.81538 ], [ -77.19249, 38.816 ], [ -77.19014, 38.81674 ], [ -77.18934, 38.81663 ], [ -77.1886, 38.81597 ], [ -77.18836, 38.81611 ], [ -77.18943, 38.81739 ], [ -77.1978, 38.81483 ], [ -77.19818, 38.81513 ], [ -77.19781, 38.81583 ], [ -77.19012, 38.81834 ], [ -77.19137, 38.82034 ], [ -77.19199, 38.81941 ], [ -77.19156, 38.81853 ], [ -77.19201, 38.81785 ], [ -77.19278, 38.81812 ], [ -77.19871, 38.81611 ], [ -77.19956, 38.81639 ], [ -77.20027, 38.81734 ], [ -77.20137, 38.81715 ], [ -77.20174, 38.81744 ], [ -77.20158, 38.81799 ], [ -77.20224, 38.81825 ], [ -77.20228, 38.81866 ], [ -77.20176, 38.82063 ], [ -77.20264, 38.82124 ], [ -77.20507, 38.81782 ], [ -77.20601, 38.8176 ], [ -77.2063, 38.81833 ] ], [ [ -77.19113, 38.83557 ], [ -77.19204, 38.83447 ], [ -77.19111, 38.83499 ], [ -77.19113, 38.83557 ] ], [ [ -77.19234, 38.83121 ], [ -77.19366, 38.83064 ], [ -77.19075, 38.83022 ], [ -77.1907, 38.8304 ], [ -77.19234, 38.83121 ] ], [ [ -77.18924, 38.83016 ], [ -77.18601, 38.82934 ], [ -77.18667, 38.83135 ], [ -77.18722, 38.83101 ], [ -77.188, 38.83146 ], [ -77.18795, 38.83239 ], [ -77.18739, 38.83261 ], [ -77.18772, 38.83317 ], [ -77.18858, 38.8327 ], [ -77.18841, 38.83164 ], [ -77.18924, 38.83016 ] ], [ [ -77.18973, 38.82867 ], [ -77.19053, 38.828 ], [ -77.18863, 38.82745 ], [ -77.1885, 38.82845 ], [ -77.18973, 38.82867 ] ], [ [ -77.18882, 38.82637 ], [ -77.18897, 38.82529 ], [ -77.18859, 38.82526 ], [ -77.18886, 38.82571 ], [ -77.18882, 38.82637 ] ], [ [ -77.18749, 38.82558 ], [ -77.1879, 38.82476 ], [ -77.18627, 38.82652 ], [ -77.18623, 38.82812 ], [ -77.18713, 38.82831 ], [ -77.18749, 38.82558 ] ], [ [ -77.18797, 38.8245 ], [ -77.18911, 38.82421 ], [ -77.18914, 38.82399 ], [ -77.18808, 38.82359 ], [ -77.18797, 38.8245 ] ], [ [ -77.18869, 38.82171 ], [ -77.18841, 38.82051 ], [ -77.18901, 38.81905 ], [ -77.18832, 38.81884 ], [ -77.18712, 38.81924 ], [ -77.18556, 38.81867 ], [ -77.18444, 38.81666 ], [ -77.18347, 38.81631 ], [ -77.18364, 38.81556 ], [ -77.18606, 38.81531 ], [ -77.18582, 38.81372 ], [ -77.18377, 38.81357 ], [ -77.18353, 38.81249 ], [ -77.18258, 38.81249 ], [ -77.18324, 38.81298 ], [ -77.18271, 38.81351 ], [ -77.18351, 38.81979 ], [ -77.18372, 38.82029 ], [ -77.1843, 38.81927 ], [ -77.18482, 38.81922 ], [ -77.1853, 38.81988 ], [ -77.18479, 38.82109 ], [ -77.18381, 38.82173 ], [ -77.1856, 38.82213 ], [ -77.18671, 38.82116 ], [ -77.18869, 38.82171 ] ], [ [ -77.19718, 38.83573 ], [ -77.19667, 38.83576 ], [ -77.19651, 38.83585 ], [ -77.19718, 38.83573 ] ], [ [ -77.19801, 38.83381 ], [ -77.19885, 38.83434 ], [ -77.1992, 38.83445 ], [ -77.19801, 38.83381 ] ], [ [ -77.19765, 38.83277 ], [ -77.19842, 38.8316 ], [ -77.19716, 38.83123 ], [ -77.19765, 38.83277 ] ], [ [ -77.19779, 38.82783 ], [ -77.19704, 38.82719 ], [ -77.19659, 38.82725 ], [ -77.19623, 38.82803 ], [ -77.19779, 38.82783 ] ], [ [ -77.19298, 38.82318 ], [ -77.1985, 38.8215 ], [ -77.20158, 38.82283 ], [ -77.20198, 38.82223 ], [ -77.20082, 38.82142 ], [ -77.2001, 38.8214 ], [ -77.19952, 38.82031 ], [ -77.20099, 38.81828 ], [ -77.19791, 38.82112 ], [ -77.1928, 38.82287 ], [ -77.19298, 38.82318 ] ], [ [ -77.19224, 38.82188 ], [ -77.19708, 38.82025 ], [ -77.19811, 38.81924 ], [ -77.19193, 38.82133 ], [ -77.19224, 38.82188 ] ], [ [ -77.19354, 38.8196 ], [ -77.19795, 38.81811 ], [ -77.199, 38.81777 ], [ -77.19861, 38.81724 ], [ -77.19379, 38.81887 ], [ -77.19354, 38.8196 ] ], [ [ -77.20113, 38.83059 ], [ -77.20084, 38.83051 ], [ -77.20083, 38.83054 ], [ -77.20113, 38.83059 ] ], [ [ -77.20136, 38.82769 ], [ -77.20138, 38.82794 ], [ -77.20155, 38.82779 ], [ -77.20136, 38.82769 ] ], [ [ -77.19985, 38.82534 ], [ -77.20092, 38.82379 ], [ -77.19823, 38.82257 ], [ -77.1965, 38.82317 ], [ -77.19618, 38.82363 ], [ -77.19985, 38.82534 ] ], [ [ -77.20387, 38.82395 ], [ -77.20281, 38.82334 ], [ -77.20203, 38.82445 ], [ -77.20384, 38.82469 ], [ -77.20387, 38.82395 ] ], [ [ -77.19982, 38.8296 ], [ -77.19856, 38.82928 ], [ -77.19792, 38.83016 ], [ -77.1994, 38.83042 ], [ -77.19982, 38.8296 ] ], [ [ -77.19577, 38.83596 ], [ -77.19512, 38.83551 ], [ -77.19521, 38.8351 ], [ -77.1968, 38.83455 ], [ -77.19666, 38.83404 ], [ -77.19433, 38.83315 ], [ -77.19522, 38.83405 ], [ -77.19442, 38.83464 ], [ -77.1953, 38.83606 ], [ -77.19577, 38.83596 ] ], [ [ -77.1908, 38.822 ], [ -77.19069, 38.82272 ], [ -77.19125, 38.8228 ], [ -77.1908, 38.822 ] ], [ [ -77.19578, 38.83139 ], [ -77.19576, 38.83126 ], [ -77.19561, 38.83131 ], [ -77.19578, 38.83139 ] ], [ [ -77.19516, 38.82603 ], [ -77.19512, 38.82597 ], [ -77.19506, 38.82606 ], [ -77.19516, 38.82603 ] ], [ [ -77.19518, 38.82917 ], [ -77.19516, 38.82968 ], [ -77.19638, 38.82989 ], [ -77.19697, 38.82907 ], [ -77.19518, 38.82917 ] ], [ [ -77.19346, 38.83218 ], [ -77.19348, 38.83216 ], [ -77.19345, 38.83217 ], [ -77.19346, 38.83218 ] ], [ [ -77.19373, 38.82908 ], [ -77.19124, 38.82893 ], [ -77.19372, 38.82926 ], [ -77.19373, 38.82908 ] ], [ [ -77.18879, 38.8226 ], [ -77.18905, 38.82282 ], [ -77.18928, 38.8229 ], [ -77.18879, 38.8226 ] ], [ [ -77.19077, 38.81448 ], [ -77.19134, 38.8152 ], [ -77.19143, 38.81517 ], [ -77.19121, 38.8144 ], [ -77.19077, 38.81448 ] ], [ [ -77.19001, 38.81563 ], [ -77.18934, 38.81473 ], [ -77.18915, 38.81476 ], [ -77.19001, 38.81563 ] ], [ [ -77.18243, 38.82179 ], [ -77.18178, 38.82157 ], [ -77.1814, 38.82164 ], [ -77.18143, 38.82194 ], [ -77.18243, 38.82179 ] ], [ [ -77.18011, 38.81698 ], [ -77.18004, 38.81701 ], [ -77.18011, 38.81705 ], [ -77.18011, 38.81698 ] ], [ [ -77.18077, 38.81482 ], [ -77.18153, 38.81736 ], [ -77.18203, 38.81724 ], [ -77.18134, 38.81363 ], [ -77.18056, 38.81368 ], [ -77.1813, 38.81426 ], [ -77.18077, 38.81482 ] ], [ [ -77.18037, 38.81261 ], [ -77.18213, 38.81249 ], [ -77.18033, 38.81248 ], [ -77.18037, 38.81261 ] ], [ [ -77.18218, 38.83505 ], [ -77.18651, 38.8337 ], [ -77.18574, 38.83242 ], [ -77.18401, 38.83231 ], [ -77.18366, 38.83334 ], [ -77.18416, 38.83394 ], [ -77.18336, 38.83437 ], [ -77.1822, 38.83391 ], [ -77.18218, 38.83505 ] ], [ [ -77.18081, 38.83427 ], [ -77.18087, 38.8333 ], [ -77.17988, 38.83307 ], [ -77.18002, 38.83466 ], [ -77.18081, 38.83427 ] ], [ [ -77.18462, 38.82903 ], [ -77.18467, 38.82906 ], [ -77.18468, 38.82904 ], [ -77.18462, 38.82903 ] ], [ [ -77.18925, 38.83392 ], [ -77.18889, 38.83397 ], [ -77.18762, 38.83456 ], [ -77.18817, 38.8348 ], [ -77.18819, 38.83445 ], [ -77.18925, 38.83392 ] ], [ [ -77.1895, 38.83379 ], [ -77.18957, 38.83378 ], [ -77.18954, 38.83373 ], [ -77.1895, 38.83379 ] ], [ [ -77.19075, 38.83321 ], [ -77.1909, 38.83338 ], [ -77.19089, 38.83315 ], [ -77.19075, 38.83321 ] ], [ [ -77.19024, 38.83148 ], [ -77.1901, 38.83219 ], [ -77.19091, 38.83188 ], [ -77.19024, 38.83148 ] ], [ [ -77.18718, 38.82251 ], [ -77.1862, 38.82396 ], [ -77.18662, 38.82421 ], [ -77.18718, 38.82251 ] ], [ [ -77.18578, 38.81263 ], [ -77.18491, 38.81248 ], [ -77.18492, 38.81264 ], [ -77.18578, 38.81263 ] ], [ [ -77.18684, 38.81635 ], [ -77.1858, 38.81646 ], [ -77.18628, 38.81768 ], [ -77.18783, 38.8174 ], [ -77.18684, 38.81635 ] ], [ [ -77.1865, 38.83664 ], [ -77.18663, 38.8366 ], [ -77.1869, 38.83643 ], [ -77.1865, 38.83664 ] ], [ [ -77.18214, 38.81852 ], [ -77.18165, 38.81846 ], [ -77.18171, 38.82049 ], [ -77.18238, 38.82059 ], [ -77.18214, 38.81852 ] ], [ [ -77.17677, 38.8103 ], [ -77.17677, 38.81049 ], [ -77.17701, 38.81049 ], [ -77.17677, 38.8103 ] ], [ [ -77.17864, 38.82809 ], [ -77.17899, 38.8276 ], [ -77.17803, 38.8273 ], [ -77.1776, 38.82799 ], [ -77.17864, 38.82809 ] ], [ [ -77.1789, 38.82487 ], [ -77.17841, 38.82581 ], [ -77.17914, 38.82605 ], [ -77.17956, 38.82528 ], [ -77.1789, 38.82487 ] ] ] } },
{ "type": "Feature", "properties": { "variant": "T0", "miles": 2.0 }, "geometry": { "type": "Polygon", "coordinates": [ [ [ -77.21044, 38.8124 ], [ -77.21124, 38.81276 ], [ -77.21049, 38.81416 ], [ -77.21228, 38.81471 ], [ -77.21175, 38.81579 ], [ -77.21255, 38.81631 ], [ -77.21249, 38.81672 ], [ -77.2119, 38.81696 ], [ -77.21328, 38.81793 ], [ -77.21242, 38.81899 ], [ -77.21085, 38.81953 ], [ -77.21142, 38.82094 ], [ -77.21384, 38.82206 ], [ -77.21379, 38.82421 ], [ -77.21502, 38.82424 ], [ -77.21548, 38.82504 ], [ -77.21484, 38.82563 ], [ -77.21431, 38.82545 ], [ -77.21384, 38.82649 ], [ -77.21295, 38.82675 ], [ -77.21201, 38.82627 ], [ -77.21239, 38.82464 ], [ -77.21025, 38.82452 ], [ -77.21032, 38.82584 ], [ -77.20966, 38.82705 ], [ -77.20869, 38.827 ], [ -77.20863, 38.82624 ], [ -77.20798, 38.8263 ], [ -77.20811, 38.82676 ], [ -77.2073, 38.82712 ], [ -77.20706, 38.82779 ], [ -77.20855, 38.82776 ], [ -77.20951, 38.82872 ], [ -77.21025, 38.82826 ], [ -77.21185, 38.82833 ], [ -77.21215, 38.82906 ], [ -77.21106, 38.8305 ], [ -77.21149, 38.83174 ], [ -77.2136, 38.83201 ], [ -77.21399, 38.83282 ], [ -77.21239, 38.83384 ], [ -77.20806, 38.83321 ], [ -77.20693, 38.83615 ], [ -77.20607, 38.83652 ], [ -77.2056, 38.83585 ], [ -77.20671, 38.83298 ], [ -77.2053, 38.83273 ], [ -77.20393, 38.83639 ], [ -77.2029, 38.83652 ], [ -77.20171, 38.83769 ], [ -77.2009, 38.83749 ], [ -77.20139, 38.83847 ], [ -77.20292, 38.83866 ], [ -77.20389, 38.83969 ], [ -77.20378, 38.84056 ], [ -77.20296, 38.84145 ], [ -77.20062, 38.84207 ], [ -77.20084, 38.84257 ], [ -77.2018, 38.84274 ], [ -77.20188, 38.84315 ], [ -77.20096, 38.84377 ], [ -77.20044, 38.84384 ], [ -77.19965, 38.84313 ], [ -77.19872, 38.84328 ], [ -77.19834, 38.84299 ], [ -77.19833, 38.84257 ], [ -77.19908, 38.84215 ], [ -77.19827, 38.84127 ], [ -77.19753, 38.84113 ], [ -77.1956, 38.84206 ], [ -77.19514, 38.84185 ], [ -77.19528, 38.8411 ], [ -77.19614, 38.84059 ], [ -77.1945, 38.83958 ], [ -77.19446, 38.84011 ], [ -77.19355, 38.84022 ], [ -77.19244, 38.84136 ], [ -77.19314, 38.84181 ], [ -77.193, 38.84221 ], [ -77.19142, 38.84411 ], [ -77.19031, 38.84398 ], [ -77.18849, 38.84292 ], [ -77.18792, 38.84454 ], [ -77.18744, 38.84471 ], [ -77.18672, 38.84413 ], [ -77.18565, 38.84484 ], [ -77.18467, 38.84479 ], [ -77.18441, 38.84408 ], [ -77.18362, 38.84368 ], [ -77.18297, 38.84468 ], [ -77.17943, 38.84383 ], [ -77.17901, 38.84314 ], [ -77.17952, 38.84187 ], [ -77.17623, 38.84192 ], [ -77.17563, 38.83914 ], [ -77.17433, 38.83844 ], [ -77.17526, 38.83768 ], [ -77.17668, 38.83757 ], [ -77.17758, 38.83807 ], [ -77.1769, 38.83707 ], [ -77.17435, 38.83723 ], [ -77.17434, 38.83777 ], [ -77.17366, 38.83835 ], [ -77.17203, 38.83792 ], [ -77.17087, 38.83807 ], [ -77.17058, 38.83709 ], [ -77.17243, 38.83614 ], [ -77.1719, 38.83572 ], [ -77.1705, 38.83594 ], [ -77.16867, 38.83514 ], [ -77.16896, 38.83443 ], [ -77.16838, 38.83311 ], [ -77.16869, 38.83255 ], [ -77.16735, 38.8322 ], [ -77.16631, 38.83136 ], [ -77.16536, 38.83199 ], [ -77.16438, 38.83194 ], [ -77.16445, 38.83117 ], [ -77.17092, 38.82692 ], [ -77.17013, 38.8268 ], [ -77.16748, 38.82876 ], [ -77.16512, 38.82825 ], [ -77.16353, 38.82738 ], [ -77.16382, 38.82634 ], [ -77.16312, 38.82609 ], [ -77.16308, 38.82567 ], [ -77.16383, 38.82519 ], [ -77.16311, 38.82539 ], [ -77.16245, 38.82482 ], [ -77.16287, 38.82396 ], [ -77.16382, 38.82345 ], [ -77.16154, 38.82285 ], [ -77.16201, 38.82204 ], [ -77.16285, 38.82208 ], [ -77.16359, 38.82065 ], [ -77.16494, 38.82082 ], [ -77.16582, 38.82051 ], [ -77.16648, 38.82101 ], [ -77.1669, 38.8169 ], [ -77.16927, 38.81451 ], [ -77.16761, 38.8136 ], [ -77.16694, 38.81256 ], [ -77.16776, 38.81215 ], [ -77.16832, 38.81254 ], [ -77.16908, 38.81147 ], [ -77.16961, 38.81145 ], [ -77.17002, 38.81214 ], [ -77.16931, 38.81329 ], [ -77.16978, 38.8135 ], [ -77.17117, 38.81185 ], [ -77.17064, 38.81097 ], [ -77.17088, 38.80677 ], [ -77.16986, 38.80613 ], [ -77.17029, 38.8048 ], [ -77.17078, 38.80465 ], [ -77.1714, 38.80508 ], [ -77.17285, 38.80523 ], [ -77.17371, 38.80339 ], [ -77.17587, 38.80403 ], [ -77.17621, 38.80234 ], [ -77.17836, 38.80236 ], [ -77.17906, 38.802 ], [ -77.17966, 38.8026 ], [ -77.17895, 38.80414 ], [ -77.18113, 38.80637 ], [ -77.18342, 38.80637 ], [ -77.18322, 38.80392 ], [ -77.18384, 38.80334 ], [ -77.18459, 38.80383 ], [ -77.18562, 38.80754 ], [ -77.189, 38.80746 ], [ -77.18979, 38.80791 ], [ -77.19039, 38.80789 ], [ -77.18999, 38.80747 ], [ -77.19016, 38.80708 ], [ -77.19118, 38.80688 ], [ -77.19098, 38.80598 ], [ -77.19196, 38.80597 ], [ -77.19262, 38.80666 ], [ -77.19269, 38.80856 ], [ -77.1937, 38.80937 ], [ -77.19323, 38.81013 ], [ -77.19376, 38.81116 ], [ -77.19557, 38.81113 ], [ -77.19561, 38.8099 ], [ -77.19631, 38.80937 ], [ -77.19699, 38.80992 ], [ -77.19675, 38.81213 ], [ -77.18715, 38.81245 ], [ -77.18747, 38.81515 ], [ -77.18825, 38.81383 ], [ -77.19548, 38.8126 ], [ -77.1966, 38.81325 ], [ -77.19624, 38.81437 ], [ -77.19447, 38.81535 ], [ -77.19021, 38.81673 ], [ -77.18934, 38.81663 ], [ -77.1886, 38.81597 ], [ -77.18836, 38.81611 ], [ -77.18943, 38.81739 ], [ -77.19728, 38.81483 ], [ -77.1978, 38.81483 ], [ -77.19818, 38.81554 ], [ -77.19012, 38.81834 ], [ -77.19137, 38.82034 ], [ -77.19199, 38.81941 ], [ -77.19156, 38.81853 ], [ -77.19201, 38.81785 ], [ -77.19278, 38.81812 ], [ -77.19885, 38.81611 ], [ -77.19956, 38.81639 ], [ -77.20027, 38.81734 ], [ -77.20137, 38.81715 ], [ -77.20174, 38.81744 ], [ -77.20158, 38.81799 ], [ -77.20224, 38.81825 ], [ -77.20228, 38.81866 ], [ -77.20176, 38.82063 ], [ -77.20264, 38.82124 ], [ -77.20431, 38.81891 ], [ -77.20324, 38.81823 ], [ -77.20337, 38.81723 ], [ -77.20393, 38.81671 ], [ -77.20516, 38.81652 ], [ -77.20361, 38.81607 ], [ -77.20357, 38.81525 ], [ -77.20286, 38.81568 ], [ -77.20235, 38.81556 ], [ -77.20226, 38.8148 ], [ -77.20319, 38.81404 ], [ -77.20455, 38.81439 ], [ -77.20468, 38.81373 ], [ -77.20515, 38.81354 ], [ -77.2059, 38.81404 ], [ -77.20603, 38.81558 ], [ -77.20657, 38.81568 ], [ -77.20956, 38.81117 ], [ -77.21052, 38.81104 ], [ -77.21081, 38.81176 ], [ -77.21044, 38.8124 ] ], [ [ -77.18661, 38.83676 ], [ -77.1869, 38.83643 ], [ -77.18663, 38.8366 ], [ -77.18661, 38.83676 ] ], [ [ -77.18858, 38.8327 ], [ -77.18841, 38.83164 ], [ -77.18929, 38.82999 ], [ -77.18601, 38.82934 ], [ -77.18667, 38.83135 ], [ -77.18722, 38.83101 ], [ -77.188, 38.83146 ], [ -77.18795, 38.83239 ], [ -77.18739, 38.83261 ], [ -77.18772, 38.83317 ], [ -77.18858, 38.8327 ] ], [ [ -77.18749, 38.82558 ], [ -77.18819, 38.82513 ], [ -77.1879, 38.82476 ], [ -77.18627, 38.82652 ], [ -77.18623, 38.82812 ], [ -77.18713, 38.82826 ], [ -77.18749, 38.82558 ] ], [ [ -77.18718, 38.82251 ], [ -77.18694, 38.82239 ], [ -77.1862, 38.82396 ], [ -77.18662, 38.82418 ], [ -77.18718, 38.82251 ] ], [ [ -77.18866, 38.82174 ], [ -77.18841, 38.82051 ], [ -77.18901, 38.81905 ], [ -77.18832, 38.81884 ], [ -77.18686, 38.81921 ], [ -77.1853, 38.81848 ], [ -77.18444, 38.81666 ], [ -77.18347, 38.81631 ], [ -77.18336, 38.81591 ], [ -77.18364, 38.81556 ], [ -77.18606, 38.81531 ], [ -77.18582, 38.81372 ], [ -77.18377, 38.81357 ], [ -77.18353, 38.81249 ], [ -77.18258, 38.81249 ], [ -77.18324, 38.81298 ], [ -77.18271, 38.81351 ], [ -77.18351, 38.81979 ], [ -77.18372, 38.82029 ], [ -77.1843, 38.81927 ], [ -77.18482, 38.81922 ], [ -77.1853, 38.81988 ], [ -77.18479, 38.82109 ], [ -77.18381, 38.82173 ], [ -77.1856, 38.82213 ], [ -77.18652, 38.82118 ], [ -77.18866, 38.82174 ] ], [ [ -77.18783, 38.8174 ], [ -77.18678, 38.81629 ], [ -77.1858, 38.81646 ], [ -77.18628, 38.81768 ], [ -77.18783, 38.8174 ] ], [ [ -77.19849, 38.8398 ], [ -77.19804, 38.84011 ], [ -77.19826, 38.84016 ], [ -77.19862, 38.84023 ], [ -77.19849, 38.8398 ] ], [ [ -77.19748, 38.83875 ], [ -77.19829, 38.83918 ], [ -77.19812, 38.83865 ], [ -77.19748, 38.83875 ] ], [ [ -77.195, 38.83722 ], [ -77.19467, 38.83728 ], [ -77.19496, 38.83745 ], [ -77.19752, 38.83678 ], [ -77.195, 38.83722 ] ], [ [ -77.19863, 38.83551 ], [ -77.19853, 38.83548 ], [ -77.19872, 38.83609 ], [ -77.19967, 38.83591 ], [ -77.19863, 38.83551 ] ], [ [ -77.19842, 38.8316 ], [ -77.19716, 38.83123 ], [ -77.19765, 38.83277 ], [ -77.19842, 38.8316 ] ], [ [ -77.1994, 38.83042 ], [ -77.19982, 38.8296 ], [ -77.19856, 38.82928 ], [ -77.19796, 38.83017 ], [ -77.1994, 38.83042 ] ], [ [ -77.19704, 38.82719 ], [ -77.19659, 38.82725 ], [ -77.19623, 38.82803 ], [ -77.19779, 38.82783 ], [ -77.19704, 38.82719 ] ], [ [ -77.19985, 38.82534 ], [ -77.20092, 38.82379 ], [ -77.19823, 38.82257 ], [ -77.1965, 38.82317 ], [ -77.19618, 38.82363 ], [ -77.19985, 38.82534 ] ], [ [ -77.19871, 38.82155 ], [ -77.20158, 38.82283 ], [ -77.20198, 38.82223 ], [ -77.20082, 38.82142 ], [ -77.2001, 38.8214 ], [ -77.19952, 38.82031 ], [ -77.20099, 38.81828 ], [ -77.19791, 38.82112 ], [ -77.1928, 38.82287 ], [ -77.19298, 38.82318 ], [ -77.19785, 38.82152 ], [ -77.19871, 38.82155 ] ], [ [ -77.21002, 38.83206 ], [ -77.20953, 38.83069 ], [ -77.20755, 38.83051 ], [ -77.20701, 38.83149 ], [ -77.21002, 38.83206 ] ], [ [ -77.20257, 38.82814 ], [ -77.20258, 38.82835 ], [ -77.20285, 38.82821 ], [ -77.20257, 38.82814 ] ], [ [ -77.20155, 38.82779 ], [ -77.20139, 38.82766 ], [ -77.20136, 38.82769 ], [ -77.20155, 38.82779 ] ], [ [ -77.20782, 38.82189 ], [ -77.20827, 38.82249 ], [ -77.21084, 38.82352 ], [ -77.21123, 38.82354 ], [ -77.21125, 38.82254 ], [ -77.21171, 38.82229 ], [ -77.2082, 38.8208 ], [ -77.20782, 38.8203 ], [ -77.20799, 38.81963 ], [ -77.20695, 38.81923 ], [ -77.20642, 38.82001 ], [ -77.20731, 38.82035 ], [ -77.20671, 38.82155 ], [ -77.20703, 38.82197 ], [ -77.20782, 38.82189 ] ], [ [ -77.21137, 38.818 ], [ -77.21131, 38.81828 ], [ -77.21143, 38.81822 ], [ -77.21137, 38.818 ] ], [ [ -77.20761, 38.81828 ], [ -77.20773, 38.81833 ], [ -77.20772, 38.8182 ], [ -77.20761, 38.81828 ] ], [ [ -77.20795, 38.82521 ], [ -77.20896, 38.82533 ], [ -77.209, 38.82507 ], [ -77.20743, 38.82449 ], [ -77.20795, 38.82521 ] ], [ [ -77.20523, 38.8176 ], [ -77.20456, 38.8178 ], [ -77.20498, 38.81796 ], [ -77.20523, 38.8176 ] ], [ [ -77.20281, 38.82334 ], [ -77.20203, 38.82445 ], [ -77.20384, 38.82469 ], [ -77.20387, 38.82394 ], [ -77.20281, 38.82334 ] ], [ [ -77.20449, 38.82281 ], [ -77.20471, 38.8229 ], [ -77.20549, 38.82209 ], [ -77.20532, 38.82169 ], [ -77.20449, 38.82281 ] ], [ [ -77.20526, 38.82604 ], [ -77.20528, 38.82605 ], [ -77.20527, 38.82603 ], [ -77.20526, 38.82604 ] ], [ [ -77.20267, 38.83623 ], [ -77.20279, 38.83572 ], [ -77.20163, 38.83623 ], [ -77.20267, 38.83623 ] ], [ [ -77.20125, 38.8334 ], [ -77.19946, 38.83318 ], [ -77.20201, 38.834 ], [ -77.20217, 38.83358 ], [ -77.20125, 38.8334 ] ], [ [ -77.20011, 38.83188 ], [ -77.19972, 38.83211 ], [ -77.20252, 38.83253 ], [ -77.20263, 38.83229 ], [ -77.20011, 38.83188 ] ], [ [ -77.20083, 38.83054 ], [ -77.20113, 38.83059 ], [ -77.20113, 38.83057 ], [ -77.20083, 38.83054 ] ], [ [ -77.20243, 38.829 ], [ -77.20243, 38.82911 ], [ -77.2025, 38.8291 ], [ -77.20243, 38.829 ] ], [ [ -77.20498, 38.83112 ], [ -77.20565, 38.83123 ], [ -77.20612, 38.83038 ], [ -77.20543, 38.83012 ], [ -77.20498, 38.83112 ] ], [ [ -77.20363, 38.83084 ], [ -77.20385, 38.83046 ], [ -77.20383, 38.82998 ], [ -77.20363, 38.83084 ] ], [ [ -77.20236, 38.84067 ], [ -77.20249, 38.84068 ], [ -77.20246, 38.84061 ], [ -77.20236, 38.84067 ] ], [ [ -77.2017, 38.83953 ], [ -77.19993, 38.83987 ], [ -77.20238, 38.83972 ], [ -77.2017, 38.83953 ] ], [ [ -77.20053, 38.83481 ], [ -77.20131, 38.83493 ], [ -77.20077, 38.83466 ], [ -77.20053, 38.83481 ] ], [ [ -77.1996, 38.83882 ], [ -77.20005, 38.83873 ], [ -77.19987, 38.83769 ], [ -77.19929, 38.83786 ], [ -77.1996, 38.83882 ] ], [ [ -77.19001, 38.81563 ], [ -77.19004, 38.81562 ], [ -77.18934, 38.81473 ], [ -77.19001, 38.81563 ] ], [ [ -77.19392, 38.81435 ], [ -77.195, 38.81375 ], [ -77.19256, 38.81417 ], [ -77.19273, 38.81475 ], [ -77.19392, 38.81435 ] ], [ [ -77.19121, 38.8144 ], [ -77.19077, 38.81448 ], [ -77.19134, 38.8152 ], [ -77.19121, 38.8144 ] ], [ [ -77.19512, 38.83551 ], [ -77.19548, 38.83495 ], [ -77.19443, 38.83464 ], [ -77.1953, 38.83606 ], [ -77.19577, 38.83596 ], [ -77.19512, 38.83551 ] ], [ [ -77.19643, 38.834 ], [ -77.19433, 38.83315 ], [ -77.19425, 38.8334 ], [ -77.19643, 38.834 ] ], [ [ -77.19345, 38.83217 ], [ -77.19346, 38.83218 ], [ -77.19348, 38.83216 ], [ -77.19345, 38.83217 ] ], [ [ -77.19024, 38.83148 ], [ -77.1901, 38.83219 ], [ -77.19091, 38.83188 ], [ -77.19024, 38.83148 ] ], [ [ -77.19228, 38.83131 ], [ -77.19366, 38.83064 ], [ -77.19075, 38.83022 ], [ -77.19228, 38.83131 ] ], [ [ -77.19053, 38.828 ], [ -77.18863, 38.82745 ], [ -77.1885, 38.82845 ], [ -77.18985, 38.82851 ], [ -77.19053, 38.828 ] ], [ [ -77.19125, 38.8228 ], [ -77.19059, 38.82203 ], [ -77.19069, 38.82272 ], [ -77.19125, 38.8228 ] ], [ [ -77.19333, 38.81967 ], [ -77.199, 38.81777 ], [ -77.19862, 38.81723 ], [ -77.19415, 38.81874 ], [ -77.19333, 38.81967 ] ], [ [ -77.19711, 38.82024 ], [ -77.19811, 38.81924 ], [ -77.19193, 38.82133 ], [ -77.19224, 38.82188 ], [ -77.19711, 38.82024 ] ], [ [ -77.19576, 38.83126 ], [ -77.19561, 38.83131 ], [ -77.19578, 38.83139 ], [ -77.19576, 38.83126 ] ], [ [ -77.19189, 38.82877 ], [ -77.19124, 38.82893 ], [ -77.19372, 38.82926 ], [ -77.19189, 38.82877 ] ], [ [ -77.19516, 38.82603 ], [ -77.19515, 38.82598 ], [ -77.19512, 38.82597 ], [ -77.19516, 38.82603 ] ], [ [ -77.19516, 38.82968 ], [ -77.19638, 38.82989 ], [ -77.19697, 38.82907 ], [ -77.19518, 38.82917 ], [ -77.19516, 38.82968 ] ], [ [ -77.19651, 38.83585 ], [ -77.19718, 38.83573 ], [ -77.19718, 38.8357 ], [ -77.19651, 38.83585 ] ], [ [ -77.19678, 38.83818 ], [ -77.19638, 38.83826 ], [ -77.19694, 38.83851 ], [ -77.19678, 38.83818 ] ], [ [ -77.19018, 38.84146 ], [ -77.19046, 38.84162 ], [ -77.19054, 38.84153 ], [ -77.19018, 38.84146 ] ], [ [ -77.19006, 38.84139 ], [ -77.18992, 38.8412 ], [ -77.18994, 38.84131 ], [ -77.19006, 38.84139 ] ], [ [ -77.19085, 38.83985 ], [ -77.19067, 38.83966 ], [ -77.19057, 38.84008 ], [ -77.19085, 38.83985 ] ], [ [ -77.19094, 38.83745 ], [ -77.19074, 38.83733 ], [ -77.1902, 38.83814 ], [ -77.18935, 38.83797 ], [ -77.18909, 38.8386 ], [ -77.19053, 38.83941 ], [ -77.191, 38.83888 ], [ -77.19024, 38.83842 ], [ -77.19094, 38.83745 ] ], [ [ -77.19111, 38.83499 ], [ -77.19113, 38.83557 ], [ -77.19215, 38.83456 ], [ -77.19111, 38.83499 ] ], [ [ -77.19075, 38.83321 ], [ -77.19089, 38.83339 ], [ -77.19089, 38.83315 ], [ -77.19075, 38.83321 ] ], [ [ -77.19258, 38.83587 ], [ -77.19341, 38.83539 ], [ -77.19297, 38.83549 ], [ -77.19258, 38.83587 ] ], [ [ -77.19142, 38.8389 ], [ -77.19131, 38.83876 ], [ -77.19111, 38.83884 ], [ -77.19142, 38.8389 ] ], [ [ -77.19204, 38.8381 ], [ -77.19203, 38.83811 ], [ -77.1921, 38.83813 ], [ -77.19204, 38.8381 ] ], [ [ -77.18886, 38.82571 ], [ -77.18882, 38.82637 ], [ -77.18897, 38.82529 ], [ -77.18859, 38.82526 ], [ -77.18886, 38.82571 ] ], [ [ -77.18905, 38.82282 ], [ -77.18928, 38.8229 ], [ -77.18879, 38.8226 ], [ -77.18905, 38.82282 ] ], [ [ -77.18808, 38.82359 ], [ -77.18797, 38.8245 ], [ -77.18911, 38.82421 ], [ -77.18808, 38.82359 ] ], [ [ -77.18954, 38.83373 ], [ -77.1895, 38.83379 ], [ -77.18957, 38.83378 ], [ -77.18954, 38.83373 ] ], [ [ -77.18819, 38.83445 ], [ -77.18925, 38.83392 ], [ -77.18762, 38.83456 ], [ -77.18817, 38.8348 ], [ -77.18819, 38.83445 ] ], [ [ -77.19095, 38.81012 ], [ -77.19008, 38.81013 ], [ -77.19012, 38.81122 ], [ -77.19139, 38.8112 ], [ -77.19095, 38.81012 ] ], [ [ -77.19091, 38.80904 ], [ -77.19133, 38.80907 ], [ -77.19101, 38.80897 ], [ -77.1893, 38.809 ], [ -77.19091, 38.80904 ] ], [ [ -77.18857, 38.80854 ], [ -77.18709, 38.80858 ], [ -77.1875, 38.80871 ], [ -77.18857, 38.80854 ] ], [ [ -77.18136, 38.84236 ], [ -77.18139, 38.84222 ], [ -77.18079, 38.84241 ], [ -77.18054, 38.84299 ], [ -77.18112, 38.84289 ], [ -77.18136, 38.84236 ] ], [ [ -77.17839, 38.84007 ], [ -77.17886, 38.83906 ], [ -77.17702, 38.8391 ], [ -77.17711, 38.83971 ], [ -77.1776, 38.83943 ], [ -77.17839, 38.84007 ] ], [ [ -77.17616, 38.83538 ], [ -77.1761, 38.83565 ], [ -77.17694, 38.83574 ], [ -77.17616, 38.83538 ] ], [ [ -77.17782, 38.82923 ], [ -77.17311, 38.82796 ], [ -77.17487, 38.8288 ], [ -77.17516, 38.82946 ], [ -77.17715, 38.83016 ], [ -77.17782, 38.82923 ] ], [ [ -77.17607, 38.82417 ], [ -77.1754, 38.82488 ], [ -77.17555, 38.82492 ], [ -77.17657, 38.82363 ], [ -77.17607, 38.82417 ] ], [ [ -77.17974, 38.8233 ], [ -77.18103, 38.8253 ], [ -77.18317, 38.82664 ], [ -77.18325, 38.82745 ], [ -77.18485, 38.82781 ], [ -77.18503, 38.82701 ], [ -77.1839, 38.82663 ], [ -77.18273, 38.82506 ], [ -77.18078, 38.82388 ], [ -77.18131, 38.82324 ], [ -77.18183, 38.82331 ], [ -77.1838, 38.82434 ], [ -77.18511, 38.82593 ], [ -77.18589, 38.82514 ], [ -77.18313, 38.82351 ], [ -77.1837, 38.82289 ], [ -77.18503, 38.82336 ], [ -77.18514, 38.82315 ], [ -77.18394, 38.82281 ], [ -77.17981, 38.82301 ], [ -77.17927, 38.82243 ], [ -77.18005, 38.82195 ], [ -77.1801, 38.82117 ], [ -77.17959, 38.82084 ], [ -77.17921, 38.82165 ], [ -77.17773, 38.82192 ], [ -77.17768, 38.82272 ], [ -77.17974, 38.8233 ] ], [ [ -77.17546, 38.81248 ], [ -77.17509, 38.81248 ], [ -77.17563, 38.81844 ], [ -77.17472, 38.81871 ], [ -77.17286, 38.81691 ], [ -77.17175, 38.81665 ], [ -77.17131, 38.81588 ], [ -77.17198, 38.81547 ], [ -77.1707, 38.81493 ], [ -77.16849, 38.81722 ], [ -77.16781, 38.81895 ], [ -77.16816, 38.82041 ], [ -77.16717, 38.823 ], [ -77.16858, 38.82169 ], [ -77.17005, 38.82193 ], [ -77.17022, 38.8225 ], [ -77.17053, 38.82194 ], [ -77.16943, 38.82155 ], [ -77.16968, 38.82081 ], [ -77.17276, 38.82127 ], [ -77.16948, 38.82031 ], [ -77.16971, 38.81957 ], [ -77.17024, 38.81951 ], [ -77.17289, 38.81999 ], [ -77.17006, 38.8193 ], [ -77.16959, 38.81863 ], [ -77.16993, 38.81831 ], [ -77.17322, 38.81866 ], [ -77.17425, 38.81971 ], [ -77.17405, 38.82082 ], [ -77.17463, 38.8221 ], [ -77.17564, 38.8215 ], [ -77.17631, 38.82195 ], [ -77.17546, 38.81248 ] ], [ [ -77.18291, 38.83713 ], [ -77.18291, 38.83736 ], [ -77.18293, 38.83709 ], [ -77.18291, 38.83713 ] ], [ [ -77.18651, 38.8337 ], [ -77.18574, 38.83242 ], [ -77.18401, 38.83231 ], [ -77.18366, 38.83334 ], [ -77.18416, 38.83394 ], [ -77.18336, 38.83437 ], [ -77.1822, 38.83391 ], [ -77.18218, 38.83505 ], [ -77.18651, 38.8337 ] ], [ [ -77.18399, 38.83088 ], [ -77.18035, 38.82791 ], [ -77.17868, 38.83024 ], [ -77.17927, 38.83075 ], [ -77.18008, 38.83062 ], [ -77.18037, 38.83123 ], [ -77.18115, 38.83114 ], [ -77.18196, 38.83167 ], [ -77.18236, 38.83273 ], [ -77.1828, 38.83177 ], [ -77.18026, 38.82986 ], [ -77.18065, 38.82916 ], [ -77.18194, 38.82947 ], [ -77.18403, 38.83123 ], [ -77.18514, 38.83121 ], [ -77.18399, 38.83088 ] ], [ [ -77.17954, 38.81877 ], [ -77.18011, 38.81827 ], [ -77.17928, 38.81791 ], [ -77.17951, 38.82003 ], [ -77.18028, 38.81976 ], [ -77.17954, 38.81877 ] ], [ [ -77.17999, 38.8159 ], [ -77.1787, 38.81247 ], [ -77.17918, 38.81695 ], [ -77.17963, 38.8169 ], [ -77.17924, 38.81648 ], [ -77.17999, 38.8159 ] ], [ [ -77.18057, 38.81128 ], [ -77.18041, 38.81095 ], [ -77.18015, 38.81132 ], [ -77.18057, 38.81128 ] ], [ [ -77.17889, 38.80551 ], [ -77.17885, 38.80555 ], [ -77.17893, 38.80555 ], [ -77.17889, 38.80551 ] ], [ [ -77.18037, 38.81261 ], [ -77.18213, 38.81249 ], [ -77.1804, 38.81249 ], [ -77.18037, 38.81261 ] ], [ [ -77.18253, 38.81005 ], [ -77.18178, 38.81031 ], [ -77.18229, 38.81034 ], [ -77.18253, 38.81005 ] ], [ [ -77.18474, 38.80895 ], [ -77.18403, 38.80748 ], [ -77.18092, 38.80747 ], [ -77.18222, 38.80844 ], [ -77.18319, 38.8085 ], [ -77.18327, 38.80902 ], [ -77.18474, 38.80895 ] ], [ [ -77.18402, 38.80991 ], [ -77.18398, 38.81081 ], [ -77.18332, 38.81129 ], [ -77.1856, 38.81128 ], [ -77.18516, 38.80998 ], [ -77.18402, 38.80991 ] ], [ [ -77.18491, 38.81248 ], [ -77.18492, 38.81264 ], [ -77.18578, 38.81263 ], [ -77.18491, 38.81248 ] ], [ [ -77.18202, 38.81923 ], [ -77.18215, 38.81837 ], [ -77.18165, 38.81846 ], [ -77.18171, 38.82049 ], [ -77.18238, 38.82059 ], [ -77.18202, 38.81923 ] ], [ [ -77.18428, 38.83758 ], [ -77.18418, 38.83888 ], [ -77.18421, 38.8388 ], [ -77.18428, 38.83758 ] ], [ [ -77.1814, 38.82164 ], [ -77.18143, 38.82194 ], [ -77.18244, 38.82187 ], [ -77.1814, 38.82164 ] ], [ [ -77.18462, 38.82903 ], [ -77.18462, 38.82905 ], [ -77.18468, 38.82904 ], [ -77.18462, 38.82903 ] ], [ [ -77.18629, 38.84179 ], [ -77.18608, 38.84154 ], [ -77.18605, 38.84171 ], [ -77.18629, 38.84179 ] ], [ [ -77.18566, 38.84025 ], [ -77.18585, 38.84015 ], [ -77.18564, 38.84006 ], [ -77.18566, 38.84025 ] ], [ [ -77.18441, 38.84073 ], [ -77.18433, 38.84077 ], [ -77.18435, 38.84084 ], [ -77.18441, 38.84073 ] ], [ [ -77.18605, 38.84113 ], [ -77.18608, 38.84127 ], [ -77.18611, 38.84115 ], [ -77.18605, 38.84113 ] ], [ [ -77.18045, 38.80882 ], [ -77.18049, 38.80969 ], [ -77.18103, 38.80912 ], [ -77.18045, 38.80882 ] ], [ [ -77.18134, 38.81363 ], [ -77.18056, 38.81368 ], [ -77.1813, 38.81426 ], [ -77.18077, 38.81482 ], [ -77.18131, 38.81553 ], [ -77.18153, 38.81736 ], [ -77.18203, 38.81724 ], [ -77.18134, 38.81363 ] ], [ [ -77.18, 38.81699 ], [ -77.18011, 38.81705 ], [ -77.18011, 38.81698 ], [ -77.18, 38.81699 ] ], [ [ -77.17841, 38.82581 ], [ -77.17914, 38.82605 ], [ -77.17956, 38.82528 ], [ -77.1789, 38.82487 ], [ -77.17841, 38.82581 ] ], [ [ -77.18056, 38.83896 ], [ -77.18031, 38.83927 ], [ -77.18042, 38.83918 ], [ -77.18056, 38.83896 ] ], [ [ -77.18041, 38.83638 ], [ -77.17873, 38.83676 ], [ -77.179, 38.83792 ], [ -77.17998, 38.83764 ], [ -77.18041, 38.83638 ] ], [ [ -77.18049, 38.83435 ], [ -77.18, 38.83433 ], [ -77.18002, 38.83466 ], [ -77.18049, 38.83435 ] ], [ [ -77.18081, 38.83419 ], [ -77.18065, 38.8343 ], [ -77.18073, 38.83428 ], [ -77.18081, 38.83419 ] ], [ [ -77.18025, 38.83301 ], [ -77.17988, 38.83307 ], [ -77.18084, 38.83351 ], [ -77.18025, 38.83301 ] ], [ [ -77.18152, 38.83729 ], [ -77.18139, 38.83728 ], [ -77.18112, 38.83827 ], [ -77.18169, 38.83845 ], [ -77.18152, 38.83729 ] ], [ [ -77.18157, 38.83998 ], [ -77.18158, 38.83987 ], [ -77.18141, 38.83994 ], [ -77.18157, 38.83998 ] ], [ [ -77.17861, 38.83465 ], [ -77.17862, 38.83529 ], [ -77.17867, 38.83528 ], [ -77.17861, 38.83465 ] ], [ [ -77.1776, 38.82799 ], [ -77.1785, 38.82828 ], [ -77.17899, 38.8276 ], [ -77.17803, 38.8273 ], [ -77.1776, 38.82799 ] ], [ [ -77.1778, 38.8034 ], [ -77.17788, 38.80346 ], [ -77.17793, 38.80341 ], [ -77.1778, 38.8034 ] ], [ [ -77.17777, 38.80554 ], [ -77.17766, 38.80538 ], [ -77.17749, 38.80554 ], [ -77.17777, 38.80554 ] ], [ [ -77.17677, 38.81049 ], [ -77.17701, 38.81049 ], [ -77.17677, 38.8103 ], [ -77.17677, 38.81049 ] ], [ [ -77.17775, 38.82082 ], [ -77.1782, 38.82077 ], [ -77.17732, 38.81247 ], [ -77.17684, 38.81247 ], [ -77.17775, 38.82082 ] ], [ [ -77.17405, 38.81589 ], [ -77.17384, 38.81587 ], [ -77.17389, 38.81618 ], [ -77.17412, 38.81637 ], [ -77.17405, 38.81589 ] ], [ [ -77.1724, 38.81431 ], [ -77.17136, 38.8136 ], [ -77.17121, 38.8139 ], [ -77.17285, 38.81461 ], [ -77.17394, 38.81478 ], [ -77.1724, 38.81431 ] ], [ [ -77.17371, 38.8125 ], [ -77.1722, 38.81273 ], [ -77.1738, 38.81349 ], [ -77.17371, 38.8125 ] ], [ [ -77.17282, 38.80721 ], [ -77.17224, 38.80711 ], [ -77.17202, 38.81093 ], [ -77.17246, 38.8114 ], [ -77.17282, 38.80721 ] ], [ [ -77.17452, 38.80744 ], [ -77.17419, 38.80739 ], [ -77.174, 38.81133 ], [ -77.17423, 38.81134 ], [ -77.17452, 38.80744 ] ], [ [ -77.17368, 38.82639 ], [ -77.17298, 38.82692 ], [ -77.17334, 38.82689 ], [ -77.17399, 38.82617 ], [ -77.17368, 38.82639 ] ], [ [ -77.16996, 38.82331 ], [ -77.16928, 38.82337 ], [ -77.16922, 38.82351 ], [ -77.16987, 38.82361 ], [ -77.16996, 38.82331 ] ], [ [ -77.17325, 38.82357 ], [ -77.17236, 38.82428 ], [ -77.17254, 38.82433 ], [ -77.17325, 38.82357 ] ], [ [ -77.1738, 38.82298 ], [ -77.17354, 38.82278 ], [ -77.17351, 38.82329 ], [ -77.1738, 38.82298 ] ], [ [ -77.17181, 38.82239 ], [ -77.172, 38.82224 ], [ -77.17187, 38.82221 ], [ -77.17181, 38.82239 ] ], [ [ -77.17145, 38.82337 ], [ -77.17143, 38.82317 ], [ -77.17137, 38.82334 ], [ -77.17145, 38.82337 ] ], [ [ -77.17508, 38.832 ], [ -77.17518, 38.83192 ], [ -77.17386, 38.83163 ], [ -77.17413, 38.83209 ], [ -77.17508, 38.832 ] ], [ [ -77.17538, 38.83066 ], [ -77.17392, 38.8303 ], [ -77.17318, 38.83043 ], [ -77.17538, 38.83066 ] ], [ [ -77.16778, 38.83042 ], [ -77.16738, 38.83067 ], [ -77.16816, 38.83132 ], [ -77.17094, 38.8321 ], [ -77.16778, 38.83042 ] ], [ [ -77.17031, 38.83048 ], [ -77.17188, 38.82977 ], [ -77.17164, 38.82852 ], [ -77.1709, 38.82902 ], [ -77.16983, 38.82909 ], [ -77.17008, 38.82954 ], [ -77.16922, 38.83007 ], [ -77.17031, 38.83048 ] ], [ [ -77.17223, 38.8335 ], [ -77.17118, 38.83342 ], [ -77.17112, 38.83486 ], [ -77.17165, 38.83493 ], [ -77.1725, 38.83417 ], [ -77.17223, 38.8335 ] ], [ [ -77.17268, 38.82776 ], [ -77.17248, 38.82727 ], [ -77.17202, 38.8276 ], [ -77.17268, 38.82776 ] ], [ [ -77.17326, 38.82928 ], [ -77.17316, 38.82923 ], [ -77.17317, 38.82929 ], [ -77.17326, 38.82928 ] ], [ [ -77.17171, 38.83092 ], [ -77.17178, 38.831 ], [ -77.17178, 38.83098 ], [ -77.17171, 38.83092 ] ], [ [ -77.16616, 38.82186 ], [ -77.16632, 38.82142 ], [ -77.16612, 38.82157 ], [ -77.16616, 38.82186 ] ], [ [ -77.1666, 38.82575 ], [ -77.1663, 38.82577 ], [ -77.16631, 38.82583 ], [ -77.1666, 38.82575 ] ] ] } },
{ "type": "Feature", "properties": { "variant": "T2s", "miles": 1.0 }, "geometry": { "type": "MultiPolygon", "coordinates": [ [ [ [ -77.19653, 38.8228 ], [ -77.19618, 38.82363 ], [ -77.19752, 38.82432 ], [ -77.19771, 38.82518 ], [ -77.19926, 38.82539 ], [ -77.19954, 38.82612 ], [ -77.19724, 38.82648 ], [ -77.19732, 38.827 ], [ -77.19659, 38.82725 ], [ -77.19587, 38.82858 ], [ -77.19521, 38.82869 ], [ -77.19484, 38.83065 ], [ -77.1938, 38.83053 ], [ -77.19373, 38.82908 ], [ -77.19149, 38.82881 ], [ -77.19079, 38.82985 ], [ -77.19007, 38.8301 ], [ -77.17911, 38.82735 ], [ -77.1788, 38.82665 ], [ -77.17924, 38.82625 ], [ -77.18097, 38.82681 ], [ -77.18152, 38.82594 ], [ -77.18317, 38.82664 ], [ -77.18325, 38.82745 ], [ -77.18485, 38.82781 ], [ -77.18503, 38.82701 ], [ -77.1839, 38.82663 ], [ -77.18273, 38.82506 ], [ -77.18078, 38.82388 ], [ -77.18131, 38.82324 ], [ -77.1838, 38.82434 ], [ -77.1849, 38.82587 ], [ -77.18589, 38.82514 ], [ -77.18313, 38.82351 ], [ -77.1837, 38.82289 ], [ -77.18503, 38.82336 ], [ -77.18514, 38.82315 ], [ -77.18394, 38.82281 ], [ -77.18036, 38.82308 ], [ -77.17942, 38.82283 ], [ -77.17927, 38.82243 ], [ -77.18005, 38.82195 ], [ -77.1801, 38.82117 ], [ -77.17931, 38.82043 ], [ -77.17948, 38.82004 ], [ -77.1803, 38.81995 ], [ -77.18026, 38.81935 ], [ -77.17954, 38.81877 ], [ -77.18011, 38.81827 ], [ -77.17891, 38.81769 ], [ -77.17884, 38.81728 ], [ -77.17963, 38.8169 ], [ -77.17924, 38.81648 ], [ -77.17999, 38.8159 ], [ -77.17932, 38.8149 ], [ -77.17942, 38.81401 ], [ -77.18039, 38.81395 ], [ -77.1818, 38.81732 ], [ -77.18128, 38.8131 ], [ -77.1819, 38.81251 ], [ -77.18265, 38.813 ], [ -77.18351, 38.81979 ], [ -77.18372, 38.82029 ], [ -77.1843, 38.81927 ], [ -77.18482, 38.81922 ], [ -77.1853, 38.81988 ], [ -77.18479, 38.82109 ], [ -77.18381, 38.82173 ], [ -77.1856, 38.82213 ], [ -77.18671, 38.82116 ], [ -77.18866, 38.82174 ], [ -77.18849, 38.82012 ], [ -77.189, 38.81898 ], [ -77.18987, 38.81863 ], [ -77.19101, 38.82006 ], [ -77.19069, 38.82078 ], [ -77.18994, 38.82075 ], [ -77.18996, 38.82173 ], [ -77.19073, 38.82221 ], [ -77.19069, 38.82272 ], [ -77.19126, 38.8228 ], [ -77.19161, 38.8221 ], [ -77.19214, 38.82209 ], [ -77.19298, 38.82318 ], [ -77.19563, 38.82229 ], [ -77.19653, 38.8228 ] ], [ [ -77.18978, 38.8286 ], [ -77.19053, 38.828 ], [ -77.18863, 38.82745 ], [ -77.1885, 38.82845 ], [ -77.18978, 38.8286 ] ], [ [ -77.19516, 38.82603 ], [ -77.19512, 38.82597 ], [ -77.19506, 38.82606 ], [ -77.19516, 38.82603 ] ], [ [ -77.18911, 38.82421 ], [ -77.18808, 38.82359 ], [ -77.18797, 38.8245 ], [ -77.18911, 38.82421 ] ], [ [ -77.18785, 38.82486 ], [ -77.18627, 38.82652 ], [ -77.18623, 38.82812 ], [ -77.18713, 38.82831 ], [ -77.18749, 38.82558 ], [ -77.18819, 38.82513 ], [ -77.18785, 38.82486 ] ], [ [ -77.18662, 38.82421 ], [ -77.18718, 38.82251 ], [ -77.18694, 38.82239 ], [ -77.1862, 38.82396 ], [ -77.18662, 38.82421 ] ], [ [ -77.18883, 38.82264 ], [ -77.18905, 38.82282 ], [ -77.18928, 38.8229 ], [ -77.1893, 38.82273 ], [ -77.18883, 38.82264 ] ], [ [ -77.18859, 38.82526 ], [ -77.18886, 38.82571 ], [ -77.18882, 38.82637 ], [ -77.18897, 38.82529 ], [ -77.18859, 38.82526 ] ], [ [ -77.18178, 38.82157 ], [ -77.18143, 38.82194 ], [ -77.18244, 38.82187 ], [ -77.18243, 38.82174 ], [ -77.18178, 38.82157 ] ], [ [ -77.18181, 38.81842 ], [ -77.18171, 38.82049 ], [ -77.18238, 38.82059 ], [ -77.18215, 38.81837 ], [ -77.18181, 38.81842 ] ], [ [ -77.18011, 38.81698 ], [ -77.18, 38.81699 ], [ -77.18011, 38.81705 ], [ -77.18011, 38.81698 ] ] ], [ [ [ -77.18651, 38.81863 ], [ -77.18641, 38.81787 ], [ -77.18748, 38.81751 ], [ -77.18838, 38.81781 ], [ -77.18799, 38.81851 ], [ -77.18651, 38.81863 ] ] ] ] } },
{ "type": "Feature", "properties": { "variant": "T2s", "miles": 1.5 }, "geometry": { "type": "Polygon", "coordinates": [ [ [ -77.20075, 38.8252 ], [ -77.20107, 38.82553 ], [ -77.20093, 38.82604 ], [ -77.20167, 38.82655 ], [ -77.2016, 38.82696 ], [ -77.20038, 38.82718 ], [ -77.20135, 38.8276 ], [ -77.20114, 38.82836 ], [ -77.20242, 38.82895 ], [ -77.20214, 38.83004 ], [ -77.20249, 38.83078 ], [ -77.20453, 38.83141 ], [ -77.20433, 38.83216 ], [ -77.20182, 38.83195 ], [ -77.20116, 38.8322 ], [ -77.20011, 38.83188 ], [ -77.19961, 38.83215 ], [ -77.19924, 38.83343 ], [ -77.19801, 38.83381 ], [ -77.19843, 38.83511 ], [ -77.19791, 38.83576 ], [ -77.19708, 38.83536 ], [ -77.19666, 38.83404 ], [ -77.19433, 38.83315 ], [ -77.19395, 38.83374 ], [ -77.19458, 38.83451 ], [ -77.19422, 38.83481 ], [ -77.19314, 38.83502 ], [ -77.19204, 38.83447 ], [ -77.19111, 38.83499 ], [ -77.19093, 38.83598 ], [ -77.19045, 38.83615 ], [ -77.18979, 38.8357 ], [ -77.18912, 38.83627 ], [ -77.18601, 38.83511 ], [ -77.18506, 38.83544 ], [ -77.18415, 38.83516 ], [ -77.1845, 38.83445 ], [ -77.18651, 38.8337 ], [ -77.18514, 38.83121 ], [ -77.18434, 38.83109 ], [ -77.18211, 38.82914 ], [ -77.18121, 38.82886 ], [ -77.18097, 38.82811 ], [ -77.17264, 38.82549 ], [ -77.17219, 38.82481 ], [ -77.17306, 38.82446 ], [ -77.17555, 38.82492 ], [ -77.17695, 38.82276 ], [ -77.17864, 38.82279 ], [ -77.17928, 38.82304 ], [ -77.17939, 38.82384 ], [ -77.18076, 38.82465 ], [ -77.18103, 38.8253 ], [ -77.18317, 38.82664 ], [ -77.18325, 38.82745 ], [ -77.18485, 38.82781 ], [ -77.18503, 38.82701 ], [ -77.1839, 38.82663 ], [ -77.18273, 38.82506 ], [ -77.18078, 38.82388 ], [ -77.18131, 38.82324 ], [ -77.18183, 38.82331 ], [ -77.1838, 38.82434 ], [ -77.18511, 38.82593 ], [ -77.18589, 38.82514 ], [ -77.18313, 38.82351 ], [ -77.1837, 38.82289 ], [ -77.18503, 38.82336 ], [ -77.18514, 38.82315 ], [ -77.18394, 38.82281 ], [ -77.18036, 38.82308 ], [ -77.17942, 38.82283 ], [ -77.17927, 38.82243 ], [ -77.18005, 38.82195 ], [ -77.1801, 38.82117 ], [ -77.17931, 38.82043 ], [ -77.17948, 38.82004 ], [ -77.1803, 38.81995 ], [ -77.18026, 38.81935 ], [ -77.17954, 38.81877 ], [ -77.18011, 38.81827 ], [ -77.17891, 38.81769 ], [ -77.17884, 38.81728 ], [ -77.17963, 38.8169 ], [ -77.17924, 38.81648 ], [ -77.17999, 38.8159 ], [ -77.17935, 38.81497 ], [ -77.17913, 38.81318 ], [ -77.17979, 38.81263 ], [ -77.1825, 38.81247 ], [ -77.18324, 38.81298 ], [ -77.18271, 38.81351 ], [ -77.18348, 38.81973 ], [ -77.18372, 38.82029 ], [ -77.1843, 38.81927 ], [ -77.18482, 38.81922 ], [ -77.1853, 38.81988 ], [ -77.18479, 38.82109 ], [ -77.18381, 38.82173 ], [ -77.1856, 38.82213 ], [ -77.18671, 38.82116 ], [ -77.18866, 38.82174 ], [ -77.18841, 38.82051 ], [ -77.18901, 38.81905 ], [ -77.18832, 38.81884 ], [ -77.18686, 38.81921 ], [ -77.18547, 38.81862 ], [ -77.18444, 38.81666 ], [ -77.18347, 38.81631 ], [ -77.18336, 38.81591 ], [ -77.18364, 38.81556 ], [ -77.18606, 38.81531 ], [ -77.18582, 38.81372 ], [ -77.18377, 38.81357 ], [ -77.1835, 38.81183 ], [ -77.18417, 38.81129 ], [ -77.1856, 38.81128 ], [ -77.18547, 38.81022 ], [ -77.1865, 38.80982 ], [ -77.18735, 38.81019 ], [ -77.18703, 38.81137 ], [ -77.18945, 38.81134 ], [ -77.19015, 38.81187 ], [ -77.18948, 38.81242 ], [ -77.18715, 38.81245 ], [ -77.18731, 38.81471 ], [ -77.19137, 38.82034 ], [ -77.19199, 38.81941 ], [ -77.19156, 38.81853 ], [ -77.19201, 38.81785 ], [ -77.19278, 38.81812 ], [ -77.19845, 38.81614 ], [ -77.19967, 38.81649 ], [ -77.20063, 38.81833 ], [ -77.19823, 38.82089 ], [ -77.1928, 38.82287 ], [ -77.19298, 38.82318 ], [ -77.19778, 38.82173 ], [ -77.19817, 38.82244 ], [ -77.19618, 38.82363 ], [ -77.19985, 38.82533 ], [ -77.20075, 38.8252 ] ], [ [ -77.19234, 38.83307 ], [ -77.19222, 38.83285 ], [ -77.192, 38.833 ], [ -77.19234, 38.83307 ] ], [ [ -77.19366, 38.83064 ], [ -77.19075, 38.83022 ], [ -77.1907, 38.8304 ], [ -77.19234, 38.83121 ], [ -77.19366, 38.83064 ] ], [ [ -77.19189, 38.82877 ], [ -77.19124, 38.82893 ], [ -77.19341, 38.82926 ], [ -77.19373, 38.82908 ], [ -77.19189, 38.82877 ] ], [ [ -77.19053, 38.828 ], [ -77.18863, 38.82745 ], [ -77.1885, 38.82845 ], [ -77.18973, 38.82867 ], [ -77.19053, 38.828 ] ], [ [ -77.18897, 38.82529 ], [ -77.18859, 38.82526 ], [ -77.18876, 38.82637 ], [ -77.18897, 38.82529 ] ], [ [ -77.18808, 38.82359 ], [ -77.18797, 38.8245 ], [ -77.18911, 38.82421 ], [ -77.18808, 38.82359 ] ], [ [ -77.18896, 38.82268 ], [ -77.18879, 38.8226 ], [ -77.18928, 38.8229 ], [ -77.18896, 38.82268 ] ], [ [ -77.19842, 38.8316 ], [ -77.19716, 38.83123 ], [ -77.19765, 38.83277 ], [ -77.19842, 38.8316 ] ], [ [ -77.19697, 38.82907 ], [ -77.19518, 38.82917 ], [ -77.19516, 38.82968 ], [ -77.19634, 38.82988 ], [ -77.19697, 38.82907 ] ], [ [ -77.19512, 38.82597 ], [ -77.19506, 38.82606 ], [ -77.19516, 38.82603 ], [ -77.19512, 38.82597 ] ], [ [ -77.1994, 38.83042 ], [ -77.19982, 38.8296 ], [ -77.19856, 38.82928 ], [ -77.19792, 38.83016 ], [ -77.1994, 38.83042 ] ], [ [ -77.19704, 38.82719 ], [ -77.19659, 38.82725 ], [ -77.19623, 38.82803 ], [ -77.1978, 38.82799 ], [ -77.19704, 38.82719 ] ], [ [ -77.20113, 38.83059 ], [ -77.20113, 38.83057 ], [ -77.20084, 38.83051 ], [ -77.20113, 38.83059 ] ], [ [ -77.19375, 38.81889 ], [ -77.19333, 38.81967 ], [ -77.199, 38.81777 ], [ -77.19862, 38.81723 ], [ -77.19375, 38.81889 ] ], [ [ -77.19708, 38.82025 ], [ -77.19811, 38.81924 ], [ -77.19193, 38.82133 ], [ -77.19224, 38.82188 ], [ -77.19708, 38.82025 ] ], [ [ -77.19578, 38.83139 ], [ -77.19576, 38.83126 ], [ -77.19561, 38.83131 ], [ -77.19578, 38.83139 ] ], [ [ -77.19348, 38.83216 ], [ -77.19345, 38.83217 ], [ -77.19346, 38.83218 ], [ -77.19348, 38.83216 ] ], [ [ -77.19069, 38.82272 ], [ -77.19125, 38.8228 ], [ -77.19059, 38.82203 ], [ -77.19069, 38.82272 ] ], [ [ -77.18772, 38.83317 ], [ -77.18858, 38.8327 ], [ -77.18841, 38.83164 ], [ -77.18929, 38.82999 ], [ -77.18601, 38.82934 ], [ -77.18772, 38.83317 ] ], [ [ -77.18749, 38.82558 ], [ -77.18819, 38.82513 ], [ -77.1879, 38.82476 ], [ -77.18627, 38.82652 ], [ -77.18623, 38.82812 ], [ -77.18713, 38.82826 ], [ -77.18749, 38.82558 ] ], [ [ -77.18718, 38.82251 ], [ -77.18694, 38.82239 ], [ -77.1862, 38.82396 ], [ -77.18662, 38.82421 ], [ -77.18718, 38.82251 ] ], [ [ -77.18889, 38.83397 ], [ -77.18762, 38.83456 ], [ -77.18817, 38.8348 ], [ -77.18819, 38.83445 ], [ -77.18925, 38.83392 ], [ -77.18889, 38.83397 ] ], [ [ -77.18957, 38.83378 ], [ -77.18954, 38.83373 ], [ -77.1895, 38.83379 ], [ -77.18957, 38.83378 ] ], [ [ -77.19024, 38.83148 ], [ -77.1901, 38.83219 ], [ -77.19091, 38.83188 ], [ -77.19024, 38.83148 ] ], [ [ -77.19089, 38.83339 ], [ -77.19089, 38.83315 ], [ -77.19075, 38.83321 ], [ -77.19089, 38.83339 ] ], [ [ -77.18165, 38.81846 ], [ -77.18171, 38.82049 ], [ -77.18238, 38.82059 ], [ -77.18206, 38.81839 ], [ -77.18165, 38.81846 ] ], [ [ -77.18203, 38.81724 ], [ -77.18177, 38.81484 ], [ -77.18134, 38.81363 ], [ -77.18056, 38.81368 ], [ -77.1813, 38.81426 ], [ -77.18077, 38.81482 ], [ -77.18131, 38.81553 ], [ -77.1816, 38.81735 ], [ -77.18203, 38.81724 ] ], [ [ -77.18178, 38.82157 ], [ -77.1814, 38.82164 ], [ -77.18143, 38.82194 ], [ -77.18243, 38.82178 ], [ -77.18178, 38.82157 ] ], [ [ -77.18467, 38.82906 ], [ -77.18468, 38.82904 ], [ -77.18462, 38.82903 ], [ -77.18467, 38.82906 ] ], [ [ -77.17841, 38.82581 ], [ -77.17914, 38.82605 ], [ -77.17956, 38.82528 ], [ -77.1789, 38.82487 ], [ -77.17841, 38.82581 ] ], [ [ -77.18783, 38.8174 ], [ -77.18678, 38.81629 ], [ -77.1858, 38.81646 ], [ -77.18628, 38.81768 ], [ -77.18783, 38.8174 ] ], [ [ -77.18491, 38.81248 ], [ -77.18492, 38.81264 ], [ -77.18578, 38.81263 ], [ -77.18491, 38.81248 ] ] ] } },
{ "type": "Feature", "properties": { "variant": "T2s", "miles": 2.0 }, "geometry": { "type": "Polygon", "coordinates": [ [ [ -77.20411, 38.82142 ], [ -77.20341, 38.82236 ], [ -77.20703, 38.82388 ], [ -77.20736, 38.8246 ], [ -77.20696, 38.82488 ], [ -77.20592, 38.82465 ], [ -77.20659, 38.82569 ], [ -77.20738, 38.82549 ], [ -77.20806, 38.82635 ], [ -77.20627, 38.82918 ], [ -77.20679, 38.82943 ], [ -77.20987, 38.82889 ], [ -77.21087, 38.82915 ], [ -77.21123, 38.82945 ], [ -77.21091, 38.83066 ], [ -77.21149, 38.83174 ], [ -77.21236, 38.832 ], [ -77.21246, 38.8326 ], [ -77.21088, 38.83353 ], [ -77.20806, 38.83321 ], [ -77.20693, 38.83615 ], [ -77.20607, 38.83652 ], [ -77.2056, 38.83585 ], [ -77.20671, 38.83298 ], [ -77.2053, 38.83273 ], [ -77.20393, 38.83639 ], [ -77.2029, 38.83652 ], [ -77.20171, 38.83769 ], [ -77.2009, 38.83749 ], [ -77.20148, 38.8394 ], [ -77.19999, 38.84005 ], [ -77.20224, 38.83964 ], [ -77.20276, 38.84029 ], [ -77.20224, 38.84071 ], [ -77.20033, 38.8411 ], [ -77.20068, 38.84225 ], [ -77.20024, 38.84293 ], [ -77.19971, 38.8429 ], [ -77.1983, 38.84128 ], [ -77.19656, 38.84082 ], [ -77.19204, 38.8381 ], [ -77.19102, 38.83889 ], [ -77.19051, 38.83878 ], [ -77.19024, 38.83842 ], [ -77.19094, 38.83745 ], [ -77.19074, 38.83733 ], [ -77.1902, 38.83814 ], [ -77.18935, 38.83797 ], [ -77.18808, 38.84112 ], [ -77.18711, 38.84125 ], [ -77.18643, 38.8406 ], [ -77.18766, 38.83852 ], [ -77.18612, 38.83786 ], [ -77.18558, 38.83895 ], [ -77.18638, 38.83925 ], [ -77.18646, 38.83965 ], [ -77.18614, 38.83999 ], [ -77.18439, 38.83997 ], [ -77.18416, 38.84175 ], [ -77.18296, 38.8417 ], [ -77.18287, 38.84059 ], [ -77.18218, 38.84104 ], [ -77.1817, 38.84086 ], [ -77.18158, 38.83986 ], [ -77.18104, 38.83979 ], [ -77.18055, 38.8389 ], [ -77.1797, 38.839 ], [ -77.1794, 38.83866 ], [ -77.18041, 38.83638 ], [ -77.17567, 38.83691 ], [ -77.17493, 38.83641 ], [ -77.17557, 38.83583 ], [ -77.17723, 38.83571 ], [ -77.17743, 38.83372 ], [ -77.17858, 38.83357 ], [ -77.17848, 38.83236 ], [ -77.17968, 38.832 ], [ -77.18062, 38.83108 ], [ -77.18196, 38.83167 ], [ -77.18236, 38.83273 ], [ -77.1828, 38.83177 ], [ -77.18026, 38.82986 ], [ -77.18065, 38.82916 ], [ -77.18194, 38.82947 ], [ -77.18403, 38.83123 ], [ -77.18514, 38.83121 ], [ -77.18399, 38.83088 ], [ -77.18035, 38.82791 ], [ -77.17717, 38.83257 ], [ -77.17641, 38.83319 ], [ -77.17518, 38.83302 ], [ -77.17467, 38.83237 ], [ -77.17518, 38.83192 ], [ -77.17379, 38.83145 ], [ -77.17372, 38.83104 ], [ -77.17403, 38.83071 ], [ -77.17538, 38.83066 ], [ -77.17385, 38.83025 ], [ -77.17372, 38.82945 ], [ -77.17418, 38.82924 ], [ -77.17595, 38.82967 ], [ -77.17669, 38.82999 ], [ -77.17688, 38.83052 ], [ -77.17782, 38.82923 ], [ -77.17441, 38.82849 ], [ -77.17254, 38.82766 ], [ -77.17248, 38.82725 ], [ -77.17402, 38.82611 ], [ -77.17225, 38.82539 ], [ -77.16213, 38.82303 ], [ -77.16167, 38.82235 ], [ -77.16201, 38.82204 ], [ -77.16298, 38.82211 ], [ -77.16378, 38.82066 ], [ -77.16494, 38.82082 ], [ -77.16582, 38.82051 ], [ -77.16648, 38.82101 ], [ -77.1668, 38.8202 ], [ -77.16645, 38.81872 ], [ -77.167, 38.81699 ], [ -77.17159, 38.81173 ], [ -77.17539, 38.81134 ], [ -77.17559, 38.81066 ], [ -77.17607, 38.81049 ], [ -77.17907, 38.81048 ], [ -77.17927, 38.80981 ], [ -77.17976, 38.80966 ], [ -77.18045, 38.8102 ], [ -77.18015, 38.81132 ], [ -77.1856, 38.81128 ], [ -77.18516, 38.80998 ], [ -77.18388, 38.80982 ], [ -77.18406, 38.80907 ], [ -77.18474, 38.80895 ], [ -77.18403, 38.80748 ], [ -77.18004, 38.80738 ], [ -77.1794, 38.80579 ], [ -77.1802, 38.80535 ], [ -77.18113, 38.80637 ], [ -77.18342, 38.80637 ], [ -77.18322, 38.80392 ], [ -77.18384, 38.80334 ], [ -77.18459, 38.80383 ], [ -77.18562, 38.80754 ], [ -77.18889, 38.80746 ], [ -77.18979, 38.80791 ], [ -77.1913, 38.80791 ], [ -77.1915, 38.807 ], [ -77.19199, 38.80685 ], [ -77.19267, 38.80739 ], [ -77.19269, 38.80856 ], [ -77.1937, 38.80937 ], [ -77.19323, 38.81013 ], [ -77.19376, 38.81116 ], [ -77.19557, 38.81113 ], [ -77.19582, 38.80952 ], [ -77.19631, 38.80937 ], [ -77.19699, 38.80992 ], [ -77.19692, 38.81176 ], [ -77.19627, 38.81231 ], [ -77.18715, 38.81245 ], [ -77.18753, 38.81525 ], [ -77.18765, 38.81433 ], [ -77.18825, 38.81383 ], [ -77.1916, 38.81323 ], [ -77.19242, 38.81364 ], [ -77.19281, 38.81579 ], [ -77.19001, 38.81675 ], [ -77.1886, 38.81597 ], [ -77.18836, 38.81611 ], [ -77.18943, 38.81739 ], [ -77.19728, 38.81483 ], [ -77.19818, 38.81513 ], [ -77.19781, 38.81583 ], [ -77.19012, 38.81834 ], [ -77.19137, 38.82034 ], [ -77.19199, 38.81941 ], [ -77.19156, 38.81853 ], [ -77.19201, 38.81785 ], [ -77.19278, 38.81812 ], [ -77.19885, 38.81611 ], [ -77.19956, 38.81639 ], [ -77.20027, 38.81734 ], [ -77.20137, 38.81715 ], [ -77.20174, 38.81744 ], [ -77.20158, 38.81799 ], [ -77.20224, 38.81825 ], [ -77.20228, 38.81866 ], [ -77.20176, 38.82063 ], [ -77.20264, 38.82124 ], [ -77.20365, 38.82019 ], [ -77.20543, 38.82032 ], [ -77.20571, 38.82105 ], [ -77.20507, 38.82164 ], [ -77.20411, 38.82142 ] ], [ [ -77.19091, 38.83188 ], [ -77.19024, 38.83148 ], [ -77.19008, 38.83191 ], [ -77.1902, 38.83215 ], [ -77.19091, 38.83188 ] ], [ [ -77.19228, 38.83131 ], [ -77.19366, 38.83064 ], [ -77.19075, 38.83022 ], [ -77.19228, 38.83131 ] ], [ [ -77.19053, 38.828 ], [ -77.18863, 38.82745 ], [ -77.1885, 38.82845 ], [ -77.18978, 38.8286 ], [ -77.19053, 38.828 ] ], [ [ -77.18896, 38.82268 ], [ -77.18879, 38.8226 ], [ -77.18928, 38.8229 ], [ -77.18896, 38.82268 ] ], [ [ -77.19125, 38.8228 ], [ -77.1908, 38.822 ], [ -77.19059, 38.82203 ], [ -77.19074, 38.82272 ], [ -77.19125, 38.8228 ] ], [ [ -77.18901, 38.81905 ], [ -77.18832, 38.81884 ], [ -77.18686, 38.81921 ], [ -77.1853, 38.81848 ], [ -77.18444, 38.81666 ], [ -77.18347, 38.81631 ], [ -77.18336, 38.81591 ], [ -77.18364, 38.81556 ], [ -77.18606, 38.81531 ], [ -77.18582, 38.81372 ], [ -77.18377, 38.81357 ], [ -77.18353, 38.81249 ], [ -77.18258, 38.81249 ], [ -77.18324, 38.81298 ], [ -77.18271, 38.81351 ], [ -77.18351, 38.81979 ], [ -77.18372, 38.82029 ], [ -77.1843, 38.81927 ], [ -77.18482, 38.81922 ], [ -77.1853, 38.81988 ], [ -77.18479, 38.82109 ], [ -77.18381, 38.82173 ], [ -77.1856, 38.82213 ], [ -77.18671, 38.82116 ], [ -77.18866, 38.82174 ], [ -77.18841, 38.82051 ], [ -77.18901, 38.81905 ] ], [ [ -77.20005, 38.83873 ], [ -77.19987, 38.83769 ], [ -77.19927, 38.83781 ], [ -77.19963, 38.83881 ], [ -77.20005, 38.83873 ] ], [ [ -77.20267, 38.83623 ], [ -77.20279, 38.83572 ], [ -77.20163, 38.83623 ], [ -77.20267, 38.83623 ] ], [ [ -77.19863, 38.83551 ], [ -77.19853, 38.83548 ], [ -77.19872, 38.83609 ], [ -77.19967, 38.83591 ], [ -77.19863, 38.83551 ] ], [ [ -77.20103, 38.83495 ], [ -77.20131, 38.83493 ], [ -77.20057, 38.83459 ], [ -77.20103, 38.83495 ] ], [ [ -77.20201, 38.834 ], [ -77.20217, 38.83357 ], [ -77.19946, 38.83318 ], [ -77.20201, 38.834 ] ], [ [ -77.20252, 38.83253 ], [ -77.20263, 38.83229 ], [ -77.20011, 38.83188 ], [ -77.19972, 38.83211 ], [ -77.20252, 38.83253 ] ], [ [ -77.19856, 38.82928 ], [ -77.19792, 38.83016 ], [ -77.1994, 38.83042 ], [ -77.1998, 38.82963 ], [ -77.19856, 38.82928 ] ], [ [ -77.19518, 38.82917 ], [ -77.19516, 38.82968 ], [ -77.19638, 38.82989 ], [ -77.19692, 38.82908 ], [ -77.19518, 38.82917 ] ], [ [ -77.1978, 38.82799 ], [ -77.19779, 38.82783 ], [ -77.19704, 38.82719 ], [ -77.19659, 38.82725 ], [ -77.19635, 38.82802 ], [ -77.1978, 38.82799 ] ], [ [ -77.19985, 38.82534 ], [ -77.20092, 38.82379 ], [ -77.19823, 38.82257 ], [ -77.1965, 38.82317 ], [ -77.19618, 38.82363 ], [ -77.19985, 38.82534 ] ], [ [ -77.1985, 38.8215 ], [ -77.20158, 38.82283 ], [ -77.20198, 38.82223 ], [ -77.20082, 38.82142 ], [ -77.2001, 38.8214 ], [ -77.19952, 38.82031 ], [ -77.20099, 38.81828 ], [ -77.19791, 38.82112 ], [ -77.1928, 38.82287 ], [ -77.19298, 38.82318 ], [ -77.1985, 38.8215 ] ], [ [ -77.19708, 38.82025 ], [ -77.19811, 38.81924 ], [ -77.19193, 38.82133 ], [ -77.19224, 38.82188 ], [ -77.19708, 38.82025 ] ], [ [ -77.19795, 38.81811 ], [ -77.199, 38.81777 ], [ -77.19861, 38.81724 ], [ -77.19379, 38.81887 ], [ -77.19354, 38.8196 ], [ -77.19795, 38.81811 ] ], [ [ -77.20383, 38.82998 ], [ -77.20363, 38.83084 ], [ -77.20385, 38.83046 ], [ -77.20383, 38.82998 ] ], [ [ -77.20243, 38.829 ], [ -77.20243, 38.82911 ], [ -77.2025, 38.8291 ], [ -77.20243, 38.829 ] ], [ [ -77.20257, 38.82814 ], [ -77.20258, 38.82835 ], [ -77.2029, 38.82821 ], [ -77.20257, 38.82814 ] ], [ [ -77.20953, 38.83069 ], [ -77.20836, 38.8304 ], [ -77.20755, 38.83051 ], [ -77.20701, 38.83149 ], [ -77.21002, 38.83206 ], [ -77.20953, 38.83069 ] ], [ [ -77.20396, 38.82381 ], [ -77.20281, 38.82334 ], [ -77.20203, 38.82445 ], [ -77.20374, 38.82468 ], [ -77.20396, 38.82381 ] ], [ [ -77.20527, 38.82603 ], [ -77.20526, 38.82604 ], [ -77.20528, 38.82605 ], [ -77.20527, 38.82603 ] ], [ [ -77.20527, 38.82449 ], [ -77.20561, 38.82452 ], [ -77.20517, 38.82433 ], [ -77.20527, 38.82449 ] ], [ [ -77.20498, 38.83112 ], [ -77.20565, 38.83123 ], [ -77.20612, 38.83038 ], [ -77.20543, 38.83012 ], [ -77.20498, 38.83112 ] ], [ [ -77.20113, 38.83059 ], [ -77.20113, 38.83057 ], [ -77.20084, 38.83051 ], [ -77.20113, 38.83059 ] ], [ [ -77.20138, 38.82794 ], [ -77.20155, 38.82779 ], [ -77.20136, 38.82769 ], [ -77.20138, 38.82794 ] ], [ [ -77.19756, 38.83691 ], [ -77.19752, 38.83678 ], [ -77.19467, 38.83728 ], [ -77.19756, 38.83691 ] ], [ [ -77.19651, 38.83585 ], [ -77.19718, 38.83573 ], [ -77.19718, 38.8357 ], [ -77.19651, 38.83585 ] ], [ [ -77.19512, 38.83551 ], [ -77.19548, 38.83495 ], [ -77.19443, 38.83464 ], [ -77.1953, 38.83606 ], [ -77.19569, 38.83594 ], [ -77.19512, 38.83551 ] ], [ [ -77.19643, 38.834 ], [ -77.19433, 38.83315 ], [ -77.19425, 38.8334 ], [ -77.19643, 38.834 ] ], [ [ -77.19561, 38.83131 ], [ -77.19578, 38.83139 ], [ -77.19577, 38.83132 ], [ -77.19561, 38.83131 ] ], [ [ -77.19189, 38.82877 ], [ -77.19124, 38.82893 ], [ -77.19372, 38.82926 ], [ -77.19189, 38.82877 ] ], [ [ -77.19765, 38.83277 ], [ -77.19794, 38.83268 ], [ -77.19842, 38.8316 ], [ -77.19716, 38.83123 ], [ -77.19765, 38.83277 ] ], [ [ -77.1982, 38.84009 ], [ -77.19804, 38.84011 ], [ -77.19862, 38.84023 ], [ -77.19849, 38.8398 ], [ -77.1982, 38.84009 ] ], [ [ -77.19638, 38.83826 ], [ -77.19694, 38.83851 ], [ -77.19678, 38.83822 ], [ -77.19638, 38.83826 ] ], [ [ -77.19805, 38.83902 ], [ -77.19829, 38.83918 ], [ -77.19812, 38.83865 ], [ -77.19748, 38.83875 ], [ -77.19805, 38.83902 ] ], [ [ -77.19512, 38.82597 ], [ -77.19506, 38.82606 ], [ -77.19516, 38.82603 ], [ -77.19512, 38.82597 ] ], [ [ -77.19292, 38.83589 ], [ -77.19341, 38.83539 ], [ -77.1932, 38.83526 ], [ -77.19258, 38.83587 ], [ -77.19292, 38.83589 ] ], [ [ -77.19345, 38.83217 ], [ -77.19346, 38.83218 ], [ -77.19348, 38.83216 ], [ -77.19345, 38.83217 ] ], [ [ -77.19113, 38.83557 ], [ -77.19215, 38.83456 ], [ -77.19204, 38.83447 ], [ -77.19111, 38.83499 ], [ -77.19113, 38.83557 ] ], [ [ -77.19137, 38.8104 ], [ -77.19008, 38.81013 ], [ -77.19012, 38.81122 ], [ -77.19139, 38.8112 ], [ -77.19137, 38.8104 ] ], [ [ -77.19087, 38.80904 ], [ -77.19133, 38.80907 ], [ -77.19101, 38.80897 ], [ -77.1893, 38.809 ], [ -77.19087, 38.80904 ] ], [ [ -77.18934, 38.81473 ], [ -77.18915, 38.81476 ], [ -77.18927, 38.81489 ], [ -77.18996, 38.81558 ], [ -77.18934, 38.81473 ] ], [ [ -77.19121, 38.8144 ], [ -77.19077, 38.81448 ], [ -77.19134, 38.8152 ], [ -77.19121, 38.8144 ] ], [ [ -77.18651, 38.8337 ], [ -77.18574, 38.83242 ], [ -77.18401, 38.83231 ], [ -77.18366, 38.83334 ], [ -77.18416, 38.83394 ], [ -77.18336, 38.83437 ], [ -77.1822, 38.83391 ], [ -77.18218, 38.83505 ], [ -77.18651, 38.8337 ] ], [ [ -77.17841, 38.82581 ], [ -77.17914, 38.82605 ], [ -77.17956, 38.82528 ], [ -77.1791, 38.82499 ], [ -77.17841, 38.82581 ] ], [ [ -77.18103, 38.8253 ], [ -77.18317, 38.82664 ], [ -77.18325, 38.82745 ], [ -77.18485, 38.82781 ], [ -77.18503, 38.82701 ], [ -77.1839, 38.82663 ], [ -77.18273, 38.82506 ], [ -77.18078, 38.82388 ], [ -77.18131, 38.82324 ], [ -77.18183, 38.82331 ], [ -77.1838, 38.82434 ], [ -77.18511, 38.82593 ], [ -77.18589, 38.82514 ], [ -77.18313, 38.82351 ], [ -77.1837, 38.82289 ], [ -77.18503, 38.82336 ], [ -77.18514, 38.82315 ], [ -77.18394, 38.82281 ], [ -77.17981, 38.82301 ], [ -77.17927, 38.82243 ], [ -77.18005, 38.82195 ], [ -77.1801, 38.82117 ], [ -77.17959, 38.82084 ], [ -77.17935, 38.82157 ], [ -77.17773, 38.82192 ], [ -77.17743, 38.82264 ], [ -77.17959, 38.8232 ], [ -77.18103, 38.8253 ] ], [ [ -77.18026, 38.81935 ], [ -77.17954, 38.81877 ], [ -77.18011, 38.81827 ], [ -77.17928, 38.81791 ], [ -77.17951, 38.82003 ], [ -77.1803, 38.81995 ], [ -77.18026, 38.81935 ] ], [ [ -77.17941, 38.81609 ], [ -77.17998, 38.81584 ], [ -77.17936, 38.81502 ], [ -77.1787, 38.81247 ], [ -77.17918, 38.81695 ], [ -77.17941, 38.81609 ] ], [ [ -77.18492, 38.81264 ], [ -77.18578, 38.81263 ], [ -77.18577, 38.81247 ], [ -77.18492, 38.81264 ] ], [ [ -77.18037, 38.81261 ], [ -77.18213, 38.81249 ], [ -77.1804, 38.81249 ], [ -77.18037, 38.81261 ] ], [ [ -77.18857, 38.80854 ], [ -77.18709, 38.80858 ], [ -77.1875, 38.80871 ], [ -77.18857, 38.80854 ] ], [ [ -77.1865, 38.83664 ], [ -77.18661, 38.83676 ], [ -77.18689, 38.83643 ], [ -77.1865, 38.83664 ] ], [ [ -77.18841, 38.83164 ], [ -77.18929, 38.82999 ], [ -77.18601, 38.82934 ], [ -77.18667, 38.83135 ], [ -77.18722, 38.83101 ], [ -77.188, 38.83146 ], [ -77.18795, 38.83239 ], [ -77.18739, 38.83261 ], [ -77.18772, 38.83317 ], [ -77.18858, 38.8327 ], [ -77.18841, 38.83164 ] ], [ [ -77.18749, 38.82558 ], [ -77.18819, 38.82513 ], [ -77.1879, 38.82476 ], [ -77.18627, 38.82652 ], [ -77.18623, 38.82812 ], [ -77.18713, 38.82831 ], [ -77.18749, 38.82558 ] ], [ [ -77.18718, 38.82251 ], [ -77.18694, 38.82239 ], [ -77.1862, 38.82396 ], [ -77.18662, 38.82421 ], [ -77.18718, 38.82251 ] ], [ [ -77.18783, 38.8174 ], [ -77.18678, 38.81629 ], [ -77.1858, 38.81646 ], [ -77.18628, 38.81768 ], [ -77.18783, 38.8174 ] ], [ [ -77.18859, 38.82526 ], [ -77.18876, 38.82637 ], [ -77.18882, 38.82637 ], [ -77.18897, 38.82529 ], [ -77.18859, 38.82526 ] ], [ [ -77.18808, 38.82359 ], [ -77.18797, 38.8245 ], [ -77.18911, 38.82421 ], [ -77.18808, 38.82359 ] ], [ [ -77.18957, 38.83378 ], [ -77.18954, 38.83373 ], [ -77.1895, 38.83379 ], [ -77.18957, 38.83378 ] ], [ [ -77.18817, 38.8348 ], [ -77.18819, 38.83445 ], [ -77.18925, 38.83392 ], [ -77.18782, 38.83446 ], [ -77.18817, 38.8348 ] ], [ [ -77.1814, 38.82164 ], [ -77.18143, 38.82194 ], [ -77.18244, 38.82187 ], [ -77.1814, 38.82164 ] ], [ [ -77.18468, 38.82904 ], [ -77.18462, 38.82903 ], [ -77.18462, 38.82905 ], [ -77.18468, 38.82904 ] ], [ [ -77.18431, 38.83767 ], [ -77.18428, 38.83758 ], [ -77.18418, 38.83888 ], [ -77.18431, 38.83767 ] ], [ [ -77.18134, 38.81363 ], [ -77.18056, 38.81368 ], [ -77.1813, 38.81426 ], [ -77.18077, 38.81482 ], [ -77.18131, 38.81553 ], [ -77.18153, 38.81736 ], [ -77.18203, 38.81724 ], [ -77.18134, 38.81363 ] ], [ [ -77.18011, 38.81698 ], [ -77.18, 38.81699 ], [ -77.18004, 38.81701 ], [ -77.18011, 38.81698 ] ], [ [ -77.18215, 38.81837 ], [ -77.18165, 38.81846 ], [ -77.18171, 38.82049 ], [ -77.18238, 38.82059 ], [ -77.18215, 38.81837 ] ], [ [ -77.17546, 38.81248 ], [ -77.17509, 38.81248 ], [ -77.17563, 38.81844 ], [ -77.17472, 38.81871 ], [ -77.17286, 38.81691 ], [ -77.17175, 38.81665 ], [ -77.17131, 38.81588 ], [ -77.17198, 38.81547 ], [ -77.1707, 38.81493 ], [ -77.16849, 38.81722 ], [ -77.16781, 38.81895 ], [ -77.16816, 38.82041 ], [ -77.16717, 38.823 ], [ -77.16858, 38.82169 ], [ -77.17005, 38.82193 ], [ -77.17022, 38.8225 ], [ -77.17053, 38.82194 ], [ -77.16943, 38.82155 ], [ -77.16968, 38.82081 ], [ -77.17276, 38.82127 ], [ -77.16948, 38.82031 ], [ -77.16971, 38.81957 ], [ -77.17024, 38.81951 ], [ -77.17289, 38.81999 ], [ -77.17006, 38.8193 ], [ -77.16959, 38.81863 ], [ -77.16993, 38.81831 ], [ -77.17322, 38.81866 ], [ -77.17425, 38.81971 ], [ -77.17404, 38.82074 ], [ -77.17443, 38.82194 ], [ -77.17564, 38.8215 ], [ -77.17637, 38.82174 ], [ -77.17546, 38.81248 ] ], [ [ -77.1754, 38.82488 ], [ -77.17555, 38.82492 ], [ -77.17657, 38.82363 ], [ -77.1754, 38.82488 ] ], [ [ -77.17775, 38.82082 ], [ -77.1782, 38.82077 ], [ -77.17732, 38.81247 ], [ -77.17684, 38.81247 ], [ -77.17775, 38.82082 ] ], [ [ -77.1776, 38.82799 ], [ -77.1785, 38.82828 ], [ -77.17899, 38.8276 ], [ -77.17803, 38.8273 ], [ -77.1776, 38.82799 ] ], [ [ -77.16605, 38.82184 ], [ -77.16616, 38.82186 ], [ -77.16632, 38.82142 ], [ -77.16605, 38.82184 ] ], [ [ -77.1731, 38.81338 ], [ -77.1738, 38.81349 ], [ -77.17371, 38.8125 ], [ -77.17229, 38.81266 ], [ -77.1731, 38.81338 ] ], [ [ -77.17392, 38.81621 ], [ -77.17412, 38.81641 ], [ -77.17405, 38.81589 ], [ -77.17392, 38.81621 ] ], [ [ -77.17136, 38.8136 ], [ -77.17121, 38.8139 ], [ -77.17285, 38.81461 ], [ -77.17394, 38.81478 ], [ -77.17136, 38.8136 ] ], [ [ -77.17356, 38.82312 ], [ -77.17351, 38.82329 ], [ -77.1738, 38.82298 ], [ -77.17355, 38.82278 ], [ -77.17356, 38.82312 ] ], [ [ -77.17279, 38.82383 ], [ -77.17236, 38.82428 ], [ -77.17325, 38.82357 ], [ -77.17279, 38.82383 ] ], [ [ -77.17145, 38.82337 ], [ -77.17143, 38.82317 ], [ -77.17137, 38.82334 ], [ -77.17145, 38.82337 ] ], [ [ -77.16985, 38.82367 ], [ -77.16996, 38.82331 ], [ -77.16949, 38.82344 ], [ -77.16985, 38.82367 ] ], [ [ -77.18036, 38.83441 ], [ -77.18049, 38.83435 ], [ -77.18, 38.83433 ], [ -77.18036, 38.83441 ] ], [ [ -77.18067, 38.83336 ], [ -77.18084, 38.83351 ], [ -77.18078, 38.83326 ], [ -77.17988, 38.83307 ], [ -77.18067, 38.83336 ] ], [ [ -77.18081, 38.83427 ], [ -77.18081, 38.83419 ], [ -77.18065, 38.8343 ], [ -77.18081, 38.83427 ] ], [ [ -77.18112, 38.83827 ], [ -77.18169, 38.83845 ], [ -77.18152, 38.83729 ], [ -77.18112, 38.83827 ] ], [ [ -77.17863, 38.83465 ], [ -77.17861, 38.83465 ], [ -77.17862, 38.83529 ], [ -77.17863, 38.83465 ] ] ] } }
]
}
