{
"type": "FeatureCollection",
"name": "142",
"crs": { "type": "name", "properties": { "name": "urn:ogc:def:crs:OGC:1.3:CRS84" } },
"xy_coordinate_resolution": 1e-05,
"features": [
{ "type": "Feature", "properties": { "variant": "T0", "miles": 0.5 }, "geometry": { "type": "Polygon", "coordinates": [ [ [ -77.20525, 38.79889 ], [ -77.20596, 38.79765 ], [ -77.20683, 38.79799 ], [ -77.20677, 38.79844 ], [ -77.20896, 38.798 ], [ -77.20999, 38.79897 ], [ -77.20941, 38.79959 ], [ -77.20842, 38.79918 ], [ -77.20718, 38.79953 ], [ -77.20694, 38.80018 ], [ -77.20837, 38.801 ], [ -77.2077, 38.80155 ], [ -77.20646, 38.80163 ], [ -77.20615, 38.80253 ], [ -77.20715, 38.8032 ], [ -77.20663, 38.80485 ], [ -77.2075, 38.80492 ], [ -77.20806, 38.80554 ], [ -77.20726, 38.80598 ], [ -77.20504, 38.80585 ], [ -77.20455, 38.80731 ], [ -77.20371, 38.8077 ], [ -77.20321, 38.80704 ], [ -77.20389, 38.80503 ], [ -77.202, 38.80505 ], [ -77.20173, 38.80445 ], [ -77.2021, 38.8033 ], [ -77.20081, 38.80305 ], [ -77.20102, 38.80235 ], [ -77.20005, 38.80228 ], [ -77.19989, 38.80188 ], [ -77.20079, 38.80117 ], [ -77.20044, 38.79963 ], [ -77.20092, 38.79877 ], [ -77.20465, 38.79943 ], [ -77.2056, 38.79991 ], [ -77.20577, 38.79941 ], [ -77.20525, 38.79889 ] ], [ [ -77.20491, 38.80199 ], [ -77.20495, 38.80187 ], [ -77.20476, 38.8019 ], [ -77.20491, 38.80199 ] ], [ [ -77.20165, 38.80213 ], [ -77.20109, 38.8023 ], [ -77.20216, 38.8022 ], [ -77.20165, 38.80213 ] ], [ [ -77.2034, 38.80027 ], [ -77.20323, 38.80024 ], [ -77.20325, 38.80035 ], [ -77.2034, 38.80027 ] ] ] } },
{ "type": "Feature", "properties": { "variant": "T0", "miles": 1.0 }, "geometry": { "type": "Polygon", "coordinates": [ [ [ -77.21504, 38.79311 ], [ -77.2146, 38.79383 ], [ -77.21345, 38.7946 ], [ -77.21265, 38.7939 ], [ -77.21228, 38.79513 ], [ -77.21327, 38.79591 ], [ -77.2126, 38.7965 ], [ -77.2124, 38.79745 ], [ -77.21366, 38.7986 ], [ -77.21387, 38.79973 ], [ -77.21445, 38.79985 ], [ -77.21437, 38.79817 ], [ -77.21476, 38.79789 ], [ -77.21565, 38.79821 ], [ -77.21581, 38.79894 ], [ -77.21751, 38.79907 ], [ -77.21757, 38.80169 ], [ -77.21663, 38.80171 ], [ -77.21635, 38.80242 ], [ -77.21583, 38.80247 ], [ -77.21451, 38.80093 ], [ -77.2134, 38.80075 ], [ -77.21267, 38.80186 ], [ -77.21132, 38.80219 ], [ -77.21028, 38.8011 ], [ -77.20784, 38.8001 ], [ -77.2073, 38.79944 ], [ -77.20694, 38.80018 ], [ -77.20837, 38.801 ], [ -77.2077, 38.80155 ], [ -77.20646, 38.80163 ], [ -77.20615, 38.80253 ], [ -77.20765, 38.80326 ], [ -77.20883, 38.80217 ], [ -77.20955, 38.802 ], [ -77.21079, 38.80283 ], [ -77.21121, 38.80367 ], [ -77.21111, 38.80524 ], [ -77.21004, 38.80623 ], [ -77.21108, 38.80673 ], [ -77.21209, 38.80805 ], [ -77.21125, 38.80844 ], [ -77.21064, 38.80799 ], [ -77.20999, 38.80843 ], [ -77.21009, 38.80973 ], [ -77.20919, 38.81016 ], [ -77.20855, 38.81006 ], [ -77.20838, 38.81095 ], [ -77.20745, 38.81112 ], [ -77.20736, 38.81189 ], [ -77.20688, 38.81205 ], [ -77.1995, 38.81201 ], [ -77.19933, 38.80954 ], [ -77.19585, 38.80944 ], [ -77.19566, 38.80806 ], [ -77.19476, 38.80782 ], [ -77.19465, 38.80405 ], [ -77.19312, 38.80355 ], [ -77.19406, 38.80205 ], [ -77.19282, 38.80205 ], [ -77.19213, 38.80151 ], [ -77.19259, 38.79966 ], [ -77.19484, 38.80002 ], [ -77.19552, 38.79945 ], [ -77.19633, 38.79998 ], [ -77.19875, 38.79882 ], [ -77.20042, 38.79856 ], [ -77.20469, 38.79943 ], [ -77.2056, 38.79991 ], [ -77.20562, 38.79936 ], [ -77.19924, 38.79784 ], [ -77.19911, 38.79709 ], [ -77.2, 38.79683 ], [ -77.20173, 38.79522 ], [ -77.20358, 38.79453 ], [ -77.20844, 38.7941 ], [ -77.20928, 38.79434 ], [ -77.21034, 38.79401 ], [ -77.21086, 38.79466 ], [ -77.20996, 38.79528 ], [ -77.20913, 38.79719 ], [ -77.20689, 38.7984 ], [ -77.20814, 38.79811 ], [ -77.21003, 38.79676 ], [ -77.21101, 38.79471 ], [ -77.21128, 38.79328 ], [ -77.21419, 38.79257 ], [ -77.21504, 38.79311 ] ], [ [ -77.20473, 38.80752 ], [ -77.20453, 38.80734 ], [ -77.20459, 38.80746 ], [ -77.20473, 38.80752 ] ], [ [ -77.20323, 38.80024 ], [ -77.20325, 38.80035 ], [ -77.2034, 38.80027 ], [ -77.20323, 38.80024 ] ], [ [ -77.21174, 38.79616 ], [ -77.21166, 38.79639 ], [ -77.21186, 38.79626 ], [ -77.21174, 38.79616 ] ], [ [ -77.21246, 38.79913 ], [ -77.21231, 38.79894 ], [ -77.21212, 38.79928 ], [ -77.21246, 38.79913 ] ], [ [ -77.21084, 38.79915 ], [ -77.21081, 38.79913 ], [ -77.2108, 38.79914 ], [ -77.21084, 38.79915 ] ], [ [ -77.21648, 38.80149 ], [ -77.21637, 38.80091 ], [ -77.21604, 38.80091 ], [ -77.21648, 38.80149 ] ], [ [ -77.20618, 38.79741 ], [ -77.20575, 38.7974 ], [ -77.20609, 38.79751 ], [ -77.20618, 38.79741 ] ], [ [ -77.2086, 38.80508 ], [ -77.20904, 38.80515 ], [ -77.20886, 38.80491 ], [ -77.2086, 38.80508 ] ], [ [ -77.20735, 38.80747 ], [ -77.2096, 38.80727 ], [ -77.20744, 38.80694 ], [ -77.20735, 38.80747 ] ], [ [ -77.20495, 38.80187 ], [ -77.20476, 38.8019 ], [ -77.20491, 38.80199 ], [ -77.20495, 38.80187 ] ], [ [ -77.20663, 38.80483 ], [ -77.20663, 38.80485 ], [ -77.20665, 38.80485 ], [ -77.20663, 38.80483 ] ], [ [ -77.20685, 38.80418 ], [ -77.20688, 38.80416 ], [ -77.20686, 38.80415 ], [ -77.20685, 38.80418 ] ], [ [ -77.2044, 38.79617 ], [ -77.2044, 38.79606 ], [ -77.20419, 38.79612 ], [ -77.2044, 38.79617 ] ], [ [ -77.20309, 38.79587 ], [ -77.20326, 38.79591 ], [ -77.20319, 38.79585 ], [ -77.20309, 38.79587 ] ], [ [ -77.19773, 38.80772 ], [ -77.19928, 38.80766 ], [ -77.19926, 38.8072 ], [ -77.19735, 38.80739 ], [ -77.19773, 38.80772 ] ], [ [ -77.19827, 38.80206 ], [ -77.19829, 38.80198 ], [ -77.1982, 38.80206 ], [ -77.19827, 38.80206 ] ], [ [ -77.20109, 38.8023 ], [ -77.20216, 38.8022 ], [ -77.20165, 38.80213 ], [ -77.20109, 38.8023 ] ], [ [ -77.20121, 38.80328 ], [ -77.20081, 38.80305 ], [ -77.20101, 38.80235 ], [ -77.20064, 38.8026 ], [ -77.20083, 38.80318 ], [ -77.20121, 38.80328 ] ], [ [ -77.19974, 38.80162 ], [ -77.19971, 38.80181 ], [ -77.19977, 38.80176 ], [ -77.19974, 38.80162 ] ], [ [ -77.19955, 38.80344 ], [ -77.19976, 38.80342 ], [ -77.19956, 38.8033 ], [ -77.19955, 38.80344 ] ], [ [ -77.19722, 38.80204 ], [ -77.1975, 38.80205 ], [ -77.19727, 38.80189 ], [ -77.19722, 38.80204 ] ], [ [ -77.19597, 38.80141 ], [ -77.19629, 38.80108 ], [ -77.196, 38.8011 ], [ -77.19597, 38.80141 ] ], [ [ -77.19527, 38.80256 ], [ -77.19581, 38.80281 ], [ -77.19582, 38.80249 ], [ -77.19527, 38.80256 ] ], [ [ -77.1958, 38.8034 ], [ -77.19578, 38.80342 ], [ -77.19579, 38.80344 ], [ -77.1958, 38.8034 ] ] ] } },
{ "type": "Feature", "properties": { "variant": "T0", "miles": 1.5 }, "geometry": { "type": "Polygon", "coordinates": [ [ [ -77.21574, 38.79185 ], [ -77.2168, 38.79098 ], [ -77.21844, 38.79224 ], [ -77.2187, 38.79343 ], [ -77.21802, 38.79398 ], [ -77.21643, 38.79388 ], [ -77.21727, 38.79452 ], [ -77.2175, 38.79597 ], [ -77.21955, 38.79762 ], [ -77.21941, 38.79841 ], [ -77.22023, 38.79809 ], [ -77.22108, 38.79847 ], [ -77.221, 38.80027 ], [ -77.22133, 38.80045 ], [ -77.22254, 38.79944 ], [ -77.22449, 38.7988 ], [ -77.22528, 38.79979 ], [ -77.22503, 38.80104 ], [ -77.22594, 38.80128 ], [ -77.22587, 38.80203 ], [ -77.22514, 38.80247 ], [ -77.22162, 38.80239 ], [ -77.22155, 38.80368 ], [ -77.22269, 38.80398 ], [ -77.22249, 38.80473 ], [ -77.22036, 38.80457 ], [ -77.21932, 38.80501 ], [ -77.21899, 38.8045 ], [ -77.2161, 38.80432 ], [ -77.21581, 38.80311 ], [ -77.21642, 38.80236 ], [ -77.21541, 38.80221 ], [ -77.21451, 38.80093 ], [ -77.2134, 38.80075 ], [ -77.21267, 38.80186 ], [ -77.21132, 38.80219 ], [ -77.21028, 38.8011 ], [ -77.20784, 38.8001 ], [ -77.2073, 38.79944 ], [ -77.20694, 38.80018 ], [ -77.20837, 38.801 ], [ -77.2077, 38.80155 ], [ -77.20646, 38.80163 ], [ -77.20615, 38.80253 ], [ -77.20765, 38.80326 ], [ -77.20895, 38.8021 ], [ -77.21005, 38.80218 ], [ -77.21122, 38.80378 ], [ -77.21104, 38.80547 ], [ -77.21004, 38.80623 ], [ -77.21074, 38.80649 ], [ -77.21229, 38.80586 ], [ -77.21336, 38.80617 ], [ -77.21536, 38.80939 ], [ -77.2148, 38.81071 ], [ -77.21693, 38.81069 ], [ -77.2177, 38.8114 ], [ -77.21702, 38.81195 ], [ -77.2107, 38.81202 ], [ -77.21044, 38.8124 ], [ -77.21124, 38.81276 ], [ -77.21107, 38.81333 ], [ -77.21407, 38.81352 ], [ -77.21476, 38.81407 ], [ -77.21455, 38.81445 ], [ -77.2131, 38.81459 ], [ -77.21304, 38.81526 ], [ -77.21255, 38.81541 ], [ -77.20982, 38.81512 ], [ -77.20937, 38.81575 ], [ -77.21002, 38.81623 ], [ -77.20996, 38.81664 ], [ -77.20954, 38.81689 ], [ -77.20871, 38.8167 ], [ -77.20686, 38.81902 ], [ -77.20596, 38.81881 ], [ -77.20492, 38.81917 ], [ -77.20337, 38.8184 ], [ -77.20316, 38.81771 ], [ -77.20357, 38.81695 ], [ -77.20516, 38.81652 ], [ -77.20361, 38.81607 ], [ -77.20357, 38.81525 ], [ -77.20228, 38.81821 ], [ -77.20132, 38.81834 ], [ -77.201, 38.81763 ], [ -77.20189, 38.81533 ], [ -77.20092, 38.81565 ], [ -77.20028, 38.81508 ], [ -77.20063, 38.81463 ], [ -77.20027, 38.81446 ], [ -77.1994, 38.8149 ], [ -77.19892, 38.81424 ], [ -77.19782, 38.81375 ], [ -77.19821, 38.81305 ], [ -77.19926, 38.81319 ], [ -77.1993, 38.81217 ], [ -77.19155, 38.81219 ], [ -77.19137, 38.8105 ], [ -77.19202, 38.80993 ], [ -77.19275, 38.81043 ], [ -77.19277, 38.81118 ], [ -77.19557, 38.81113 ], [ -77.19559, 38.8106 ], [ -77.19473, 38.8107 ], [ -77.19444, 38.81036 ], [ -77.19457, 38.80669 ], [ -77.19345, 38.80595 ], [ -77.19266, 38.80433 ], [ -77.19284, 38.80361 ], [ -77.19182, 38.80383 ], [ -77.19123, 38.80293 ], [ -77.18933, 38.80295 ], [ -77.18896, 38.80238 ], [ -77.18803, 38.80256 ], [ -77.18764, 38.80203 ], [ -77.18639, 38.80289 ], [ -77.18466, 38.80273 ], [ -77.18379, 38.8024 ], [ -77.18364, 38.80185 ], [ -77.18406, 38.80151 ], [ -77.18567, 38.80158 ], [ -77.1873, 38.8009 ], [ -77.18789, 38.79894 ], [ -77.18882, 38.79917 ], [ -77.18899, 38.80003 ], [ -77.19236, 38.80002 ], [ -77.19309, 38.79953 ], [ -77.1937, 38.80002 ], [ -77.19484, 38.80002 ], [ -77.19552, 38.79945 ], [ -77.19633, 38.79998 ], [ -77.19892, 38.79877 ], [ -77.20047, 38.79856 ], [ -77.2056, 38.79991 ], [ -77.20562, 38.79936 ], [ -77.19924, 38.79784 ], [ -77.19911, 38.79709 ], [ -77.2, 38.79683 ], [ -77.2005, 38.79608 ], [ -77.19974, 38.79575 ], [ -77.19969, 38.79499 ], [ -77.20465, 38.79334 ], [ -77.2105, 38.79291 ], [ -77.21144, 38.79313 ], [ -77.21475, 38.79249 ], [ -77.21683, 38.79271 ], [ -77.21574, 38.79185 ] ], [ [ -77.20631, 38.79741 ], [ -77.20575, 38.7974 ], [ -77.20609, 38.79751 ], [ -77.20631, 38.79741 ] ], [ [ -77.21637, 38.80091 ], [ -77.21604, 38.80091 ], [ -77.21639, 38.80137 ], [ -77.21637, 38.80091 ] ], [ [ -77.21636, 38.79843 ], [ -77.21581, 38.79894 ], [ -77.21632, 38.79905 ], [ -77.21636, 38.79843 ] ], [ [ -77.2167, 38.79784 ], [ -77.21616, 38.79766 ], [ -77.21648, 38.79812 ], [ -77.2167, 38.79784 ] ], [ [ -77.21542, 38.79768 ], [ -77.21536, 38.79768 ], [ -77.21537, 38.79769 ], [ -77.21542, 38.79768 ] ], [ [ -77.21417, 38.79702 ], [ -77.21607, 38.79583 ], [ -77.21599, 38.79492 ], [ -77.21546, 38.7947 ], [ -77.21475, 38.79481 ], [ -77.21493, 38.79542 ], [ -77.21418, 38.79609 ], [ -77.2128, 38.79543 ], [ -77.21327, 38.79591 ], [ -77.2126, 38.7965 ], [ -77.2124, 38.79745 ], [ -77.21366, 38.7986 ], [ -77.21387, 38.79973 ], [ -77.21445, 38.79985 ], [ -77.21417, 38.79702 ] ], [ [ -77.21974, 38.7998 ], [ -77.21976, 38.79961 ], [ -77.21964, 38.79972 ], [ -77.21974, 38.7998 ] ], [ [ -77.21769, 38.7989 ], [ -77.21799, 38.7989 ], [ -77.2177, 38.79866 ], [ -77.21769, 38.7989 ] ], [ [ -77.22344, 38.80027 ], [ -77.22309, 38.80046 ], [ -77.22381, 38.80047 ], [ -77.22393, 38.80007 ], [ -77.22344, 38.80027 ] ], [ [ -77.21003, 38.79676 ], [ -77.21101, 38.79471 ], [ -77.21098, 38.7943 ], [ -77.21058, 38.794 ], [ -77.21086, 38.79466 ], [ -77.20996, 38.79528 ], [ -77.20904, 38.7973 ], [ -77.20689, 38.7984 ], [ -77.20901, 38.79771 ], [ -77.21003, 38.79676 ] ], [ [ -77.21192, 38.79627 ], [ -77.21174, 38.79616 ], [ -77.21166, 38.79639 ], [ -77.21192, 38.79627 ] ], [ [ -77.21242, 38.79906 ], [ -77.21231, 38.79894 ], [ -77.21212, 38.79928 ], [ -77.21242, 38.79906 ] ], [ [ -77.2108, 38.79914 ], [ -77.21084, 38.79915 ], [ -77.21081, 38.79913 ], [ -77.2108, 38.79914 ] ], [ [ -77.20928, 38.79434 ], [ -77.20958, 38.79419 ], [ -77.20904, 38.79421 ], [ -77.20928, 38.79434 ] ], [ [ -77.20744, 38.80694 ], [ -77.20735, 38.80747 ], [ -77.20929, 38.80747 ], [ -77.2096, 38.80727 ], [ -77.20744, 38.80694 ] ], [ [ -77.2117, 38.80997 ], [ -77.21154, 38.80979 ], [ -77.2116, 38.80992 ], [ -77.2117, 38.80997 ] ], [ [ -77.21215, 38.80697 ], [ -77.21248, 38.80702 ], [ -77.2124, 38.80695 ], [ -77.21215, 38.80697 ] ], [ [ -77.2086, 38.80508 ], [ -77.20904, 38.80515 ], [ -77.20886, 38.80491 ], [ -77.2086, 38.80508 ] ], [ [ -77.20663, 38.80485 ], [ -77.20665, 38.80485 ], [ -77.20663, 38.80483 ], [ -77.20663, 38.80485 ] ], [ [ -77.20685, 38.80418 ], [ -77.20688, 38.80416 ], [ -77.20686, 38.80415 ], [ -77.20685, 38.80418 ] ], [ [ -77.20235, 38.81212 ], [ -77.20184, 38.81213 ], [ -77.20191, 38.81291 ], [ -77.20151, 38.81319 ], [ -77.2007, 38.81291 ], [ -77.20061, 38.81341 ], [ -77.2021, 38.81336 ], [ -77.20221, 38.81418 ], [ -77.20267, 38.81439 ], [ -77.20235, 38.81212 ] ], [ [ -77.20101, 38.80235 ], [ -77.20064, 38.8026 ], [ -77.20067, 38.80333 ], [ -77.20121, 38.80328 ], [ -77.20074, 38.80264 ], [ -77.20101, 38.80235 ] ], [ [ -77.20216, 38.8022 ], [ -77.20154, 38.80212 ], [ -77.20109, 38.8023 ], [ -77.20216, 38.8022 ] ], [ [ -77.19977, 38.80176 ], [ -77.19974, 38.80162 ], [ -77.19971, 38.80181 ], [ -77.19977, 38.80176 ] ], [ [ -77.19829, 38.80198 ], [ -77.1982, 38.80206 ], [ -77.19827, 38.80206 ], [ -77.19829, 38.80198 ] ], [ [ -77.19722, 38.80204 ], [ -77.1975, 38.80205 ], [ -77.19727, 38.80189 ], [ -77.19722, 38.80204 ] ], [ [ -77.20523, 38.8176 ], [ -77.20456, 38.8178 ], [ -77.20498, 38.81796 ], [ -77.20523, 38.8176 ] ], [ [ -77.20912, 38.81203 ], [ -77.20764, 38.81205 ], [ -77.20746, 38.81379 ], [ -77.20691, 38.81437 ], [ -77.20595, 38.81453 ], [ -77.20603, 38.81558 ], [ -77.20657, 38.81568 ], [ -77.20912, 38.81203 ] ], [ [ -77.20625, 38.81206 ], [ -77.20571, 38.81206 ], [ -77.20585, 38.81345 ], [ -77.20616, 38.81342 ], [ -77.20625, 38.81206 ] ], [ [ -77.20473, 38.80752 ], [ -77.20453, 38.80734 ], [ -77.20447, 38.80752 ], [ -77.20473, 38.80752 ] ], [ [ -77.20323, 38.80024 ], [ -77.20325, 38.80035 ], [ -77.2034, 38.80027 ], [ -77.20323, 38.80024 ] ], [ [ -77.20495, 38.80187 ], [ -77.20476, 38.8019 ], [ -77.20491, 38.80199 ], [ -77.20495, 38.80187 ] ], [ [ -77.20432, 38.81208 ], [ -77.20375, 38.81209 ], [ -77.20412, 38.81425 ], [ -77.20455, 38.81439 ], [ -77.20432, 38.81208 ] ], [ [ -77.19544, 38.80248 ], [ -77.19527, 38.80256 ], [ -77.19581, 38.80281 ], [ -77.19544, 38.80248 ] ], [ [ -77.19976, 38.80342 ], [ -77.19956, 38.8033 ], [ -77.19955, 38.80344 ], [ -77.19976, 38.80342 ] ], [ [ -77.19572, 38.8011 ], [ -77.19594, 38.80141 ], [ -77.19629, 38.80108 ], [ -77.19572, 38.8011 ] ], [ [ -77.19359, 38.80264 ], [ -77.19406, 38.80205 ], [ -77.19351, 38.80205 ], [ -77.19359, 38.80264 ] ], [ [ -77.19579, 38.80344 ], [ -77.1958, 38.8034 ], [ -77.19578, 38.80342 ], [ -77.19579, 38.80344 ] ], [ [ -77.2044, 38.79606 ], [ -77.20419, 38.79612 ], [ -77.20426, 38.79614 ], [ -77.2044, 38.79606 ] ], [ [ -77.20326, 38.79591 ], [ -77.20318, 38.79583 ], [ -77.20309, 38.79587 ], [ -77.20326, 38.79591 ] ] ] } },
{ "type": "Feature", "properties": { "variant": "T2s", "miles": 0.5 }, "geometry": { "type": "Polygon", "coordinates": [ [ [ -77.20525, 38.79889 ], [ -77.20596, 38.79765 ], [ -77.20683, 38.79799 ], [ -77.20677, 38.79844 ], [ -77.20896, 38.798 ], [ -77.20999, 38.79897 ], [ -77.20941, 38.79959 ], [ -77.20842, 38.79918 ], [ -77.20718, 38.79953 ], [ -77.20694, 38.80018 ], [ -77.20837, 38.801 ], [ -77.2077, 38.80155 ], [ -77.20646, 38.80163 ], [ -77.20615, 38.80253 ], [ -77.20715, 38.8032 ], [ -77.20663, 38.80485 ], [ -77.2075, 38.80492 ], [ -77.20806, 38.80554 ], [ -77.20726, 38.80598 ], [ -77.20504, 38.80585 ], [ -77.20455, 38.80731 ], [ -77.20371, 38.8077 ], [ -77.20321, 38.80704 ], [ -77.20389, 38.80503 ], [ -77.202, 38.80505 ], [ -77.20173, 38.80445 ], [ -77.2021, 38.8033 ], [ -77.20081, 38.80305 ], [ -77.20102, 38.80235 ], [ -77.20005, 38.80228 ], [ -77.19989, 38.80188 ], [ -77.20079, 38.80117 ], [ -77.20044, 38.79963 ], [ -77.20092, 38.79877 ], [ -77.20465, 38.79943 ], [ -77.2056, 38.79991 ], [ -77.20577, 38.79941 ], [ -77.20525, 38.79889 ] ], [ [ -77.20491, 38.80199 ], [ -77.20495, 38.80187 ], [ -77.20476, 38.8019 ], [ -77.20491, 38.80199 ] ], [ [ -77.20165, 38.80213 ], [ -77.20109, 38.8023 ], [ -77.20216, 38.8022 ], [ -77.20165, 38.80213 ] ], [ [ -77.2034, 38.80027 ], [ -77.20323, 38.80024 ], [ -77.20325, 38.80035 ], [ -77.2034, 38.80027 ] ] ] } },
{ "type": "Feature", "properties": { "variant": "T2s", "miles": 1.0 }, "geometry": { "type": "Polygon", "coordinates": [ [ [ -77.21484, 38.79273 ], [ -77.21504, 38.79311 ], [ -77.21345, 38.7946 ], [ -77.21265, 38.7939 ], [ -77.21228, 38.79513 ], [ -77.21327, 38.79591 ], [ -77.2126, 38.7965 ], [ -77.2124, 38.79745 ], [ -77.21366, 38.7986 ], [ -77.21387, 38.79973 ], [ -77.21445, 38.79985 ], [ -77.21437, 38.79817 ], [ -77.21476, 38.79789 ], [ -77.21565, 38.79821 ], [ -77.21581, 38.79894 ], [ -77.21751, 38.79907 ], [ -77.21757, 38.80169 ], [ -77.21663, 38.80171 ], [ -77.21635, 38.80242 ], [ -77.21583, 38.80247 ], [ -77.21451, 38.80093 ], [ -77.2134, 38.80075 ], [ -77.21267, 38.80186 ], [ -77.21132, 38.80219 ], [ -77.21028, 38.8011 ], [ -77.20784, 38.8001 ], [ -77.20751, 38.79939 ], [ -77.20694, 38.80018 ], [ -77.20837, 38.801 ], [ -77.2077, 38.80155 ], [ -77.20646, 38.80163 ], [ -77.20615, 38.80253 ], [ -77.20765, 38.80326 ], [ -77.20883, 38.80217 ], [ -77.20955, 38.802 ], [ -77.21081, 38.80286 ], [ -77.21121, 38.80367 ], [ -77.2111, 38.8053 ], [ -77.21004, 38.80623 ], [ -77.21197, 38.80758 ], [ -77.21177, 38.80839 ], [ -77.21064, 38.80799 ], [ -77.20999, 38.80843 ], [ -77.21009, 38.80973 ], [ -77.20919, 38.81016 ], [ -77.20855, 38.81006 ], [ -77.20838, 38.81095 ], [ -77.2079, 38.81112 ], [ -77.20006, 38.81125 ], [ -77.19936, 38.81072 ], [ -77.19933, 38.80954 ], [ -77.19585, 38.80944 ], [ -77.19566, 38.80806 ], [ -77.19478, 38.80784 ], [ -77.19459, 38.80746 ], [ -77.19465, 38.80405 ], [ -77.19312, 38.80355 ], [ -77.19406, 38.80205 ], [ -77.19282, 38.80205 ], [ -77.19213, 38.80151 ], [ -77.19259, 38.79966 ], [ -77.19484, 38.80002 ], [ -77.19552, 38.79945 ], [ -77.19633, 38.79998 ], [ -77.19875, 38.79882 ], [ -77.20042, 38.79856 ], [ -77.20469, 38.79943 ], [ -77.2056, 38.79991 ], [ -77.20562, 38.79936 ], [ -77.19924, 38.79784 ], [ -77.19911, 38.79709 ], [ -77.2, 38.79683 ], [ -77.20173, 38.79522 ], [ -77.20358, 38.79453 ], [ -77.20844, 38.7941 ], [ -77.20928, 38.79434 ], [ -77.21034, 38.79401 ], [ -77.21086, 38.79466 ], [ -77.20996, 38.79528 ], [ -77.20913, 38.79719 ], [ -77.20689, 38.7984 ], [ -77.20814, 38.79811 ], [ -77.21003, 38.79676 ], [ -77.21101, 38.79471 ], [ -77.21128, 38.79328 ], [ -77.21383, 38.79261 ], [ -77.21484, 38.79273 ] ], [ [ -77.20476, 38.8019 ], [ -77.20491, 38.80199 ], [ -77.20495, 38.80187 ], [ -77.20476, 38.8019 ] ], [ [ -77.20323, 38.80024 ], [ -77.20325, 38.80035 ], [ -77.2034, 38.80027 ], [ -77.20323, 38.80024 ] ], [ [ -77.21231, 38.79894 ], [ -77.21212, 38.79928 ], [ -77.21252, 38.79935 ], [ -77.21231, 38.79894 ] ], [ [ -77.21081, 38.79913 ], [ -77.2108, 38.79914 ], [ -77.21084, 38.79915 ], [ -77.21081, 38.79913 ] ], [ [ -77.21192, 38.79627 ], [ -77.21174, 38.79616 ], [ -77.21166, 38.79639 ], [ -77.21192, 38.79627 ] ], [ [ -77.21648, 38.80149 ], [ -77.21637, 38.80091 ], [ -77.21604, 38.80091 ], [ -77.21648, 38.80149 ] ], [ [ -77.20618, 38.79741 ], [ -77.20575, 38.7974 ], [ -77.20609, 38.79751 ], [ -77.20618, 38.79741 ] ], [ [ -77.2086, 38.80508 ], [ -77.20904, 38.80515 ], [ -77.20886, 38.80491 ], [ -77.2086, 38.80508 ] ], [ [ -77.20735, 38.80747 ], [ -77.2096, 38.80727 ], [ -77.20744, 38.80694 ], [ -77.20735, 38.80747 ] ], [ [ -77.20685, 38.80418 ], [ -77.20688, 38.80416 ], [ -77.20686, 38.80415 ], [ -77.20685, 38.80418 ] ], [ [ -77.20663, 38.80483 ], [ -77.20663, 38.80485 ], [ -77.20665, 38.80485 ], [ -77.20663, 38.80483 ] ], [ [ -77.2044, 38.79606 ], [ -77.20419, 38.79612 ], [ -77.20426, 38.79614 ], [ -77.2044, 38.79606 ] ], [ [ -77.20318, 38.79583 ], [ -77.20309, 38.79587 ], [ -77.20326, 38.79591 ], [ -77.20318, 38.79583 ] ], [ [ -77.19827, 38.80206 ], [ -77.19829, 38.80198 ], [ -77.1982, 38.80206 ], [ -77.19827, 38.80206 ] ], [ [ -77.20447, 38.80752 ], [ -77.20473, 38.80752 ], [ -77.20459, 38.80746 ], [ -77.20447, 38.80752 ] ], [ [ -77.20109, 38.8023 ], [ -77.20216, 38.8022 ], [ -77.20165, 38.80213 ], [ -77.20109, 38.8023 ] ], [ [ -77.19971, 38.80181 ], [ -77.19977, 38.80176 ], [ -77.19974, 38.80162 ], [ -77.19971, 38.80181 ] ], [ [ -77.20067, 38.80333 ], [ -77.20121, 38.80328 ], [ -77.20081, 38.80305 ], [ -77.20101, 38.80235 ], [ -77.20067, 38.80333 ] ], [ [ -77.19955, 38.80344 ], [ -77.19976, 38.80342 ], [ -77.19956, 38.8033 ], [ -77.19955, 38.80344 ] ], [ [ -77.19773, 38.80772 ], [ -77.19928, 38.80766 ], [ -77.19926, 38.8072 ], [ -77.19735, 38.80739 ], [ -77.19773, 38.80772 ] ], [ [ -77.19722, 38.80204 ], [ -77.1975, 38.80205 ], [ -77.19727, 38.80189 ], [ -77.19722, 38.80204 ] ], [ [ -77.19527, 38.80256 ], [ -77.19581, 38.80281 ], [ -77.19582, 38.80249 ], [ -77.19527, 38.80256 ] ], [ [ -77.19597, 38.80141 ], [ -77.19629, 38.80108 ], [ -77.196, 38.8011 ], [ -77.19597, 38.80141 ] ], [ [ -77.1958, 38.8034 ], [ -77.19578, 38.80342 ], [ -77.19579, 38.80344 ], [ -77.1958, 38.8034 ] ] ] } },
{ "type": "Feature", "properties": { "variant": "T2s", "miles": 1.5 }, "geometry": { "type": "MultiPolygon", "coordinates": [ [ [ [ -77.21574, 38.79185 ], [ -77.2168, 38.79098 ], [ -77.21844, 38.79224 ], [ -77.2187, 38.79343 ], [ -77.21802, 38.79398 ], [ -77.21643, 38.79388 ], [ -77.21727, 38.79452 ], [ -77.2175, 38.79597 ], [ -77.21955, 38.79762 ], [ -77.21941, 38.79841 ], [ -77.22023, 38.79809 ], [ -77.22108, 38.79847 ], [ -77.221, 38.80027 ], [ -77.22133, 38.80045 ], [ -77.22254, 38.79944 ], [ -77.22449, 38.7988 ], [ -77.22528, 38.79979 ], [ -77.22503, 38.80104 ], [ -77.22594, 38.80128 ], [ -77.22597, 38.80169 ], [ -77.22514, 38.80247 ], [ -77.22162, 38.80239 ], [ -77.22155, 38.80368 ], [ -77.22269, 38.80398 ], [ -77.22249, 38.80473 ], [ -77.22036, 38.80457 ], [ -77.21932, 38.80501 ], [ -77.21899, 38.8045 ], [ -77.2161, 38.80432 ], [ -77.21581, 38.80311 ], [ -77.21642, 38.80236 ], [ -77.21541, 38.80221 ], [ -77.21451, 38.80093 ], [ -77.2134, 38.80075 ], [ -77.21267, 38.80186 ], [ -77.21132, 38.80219 ], [ -77.21028, 38.8011 ], [ -77.20784, 38.8001 ], [ -77.2073, 38.79944 ], [ -77.20694, 38.80018 ], [ -77.20837, 38.801 ], [ -77.2077, 38.80155 ], [ -77.20646, 38.80163 ], [ -77.20615, 38.80253 ], [ -77.20765, 38.80326 ], [ -77.20883, 38.80217 ], [ -77.20955, 38.802 ], [ -77.21081, 38.80286 ], [ -77.21121, 38.80367 ], [ -77.2111, 38.8053 ], [ -77.21004, 38.80623 ], [ -77.21074, 38.80649 ], [ -77.21238, 38.80586 ], [ -77.21358, 38.80636 ], [ -77.2154, 38.80953 ], [ -77.21515, 38.8104 ], [ -77.21433, 38.81093 ], [ -77.19626, 38.81131 ], [ -77.19559, 38.8106 ], [ -77.19473, 38.8107 ], [ -77.19444, 38.81036 ], [ -77.19457, 38.80669 ], [ -77.19345, 38.80595 ], [ -77.19266, 38.80433 ], [ -77.19284, 38.80361 ], [ -77.19182, 38.80383 ], [ -77.19123, 38.80293 ], [ -77.18933, 38.80295 ], [ -77.18896, 38.80238 ], [ -77.18803, 38.80256 ], [ -77.18764, 38.80203 ], [ -77.18622, 38.80292 ], [ -77.18368, 38.80227 ], [ -77.18406, 38.80151 ], [ -77.18555, 38.80161 ], [ -77.1873, 38.8009 ], [ -77.18789, 38.79894 ], [ -77.18882, 38.79917 ], [ -77.18899, 38.80003 ], [ -77.19236, 38.80002 ], [ -77.19309, 38.79953 ], [ -77.1937, 38.80002 ], [ -77.19484, 38.80002 ], [ -77.19552, 38.79945 ], [ -77.19633, 38.79998 ], [ -77.19892, 38.79877 ], [ -77.20047, 38.79856 ], [ -77.2056, 38.79991 ], [ -77.20562, 38.79936 ], [ -77.19924, 38.79784 ], [ -77.19911, 38.79709 ], [ -77.2, 38.79683 ], [ -77.2005, 38.79608 ], [ -77.19974, 38.79575 ], [ -77.19969, 38.79499 ], [ -77.20465, 38.79334 ], [ -77.2105, 38.79291 ], [ -77.21144, 38.79313 ], [ -77.21475, 38.79249 ], [ -77.21683, 38.79271 ], [ -77.21574, 38.79185 ] ], [ [ -77.20631, 38.79741 ], [ -77.20575, 38.7974 ], [ -77.20609, 38.79751 ], [ -77.20631, 38.79741 ] ], [ [ -77.20928, 38.79434 ], [ -77.20958, 38.79419 ], [ -77.20904, 38.79421 ], [ -77.20928, 38.79434 ] ], [ [ -77.21086, 38.79466 ], [ -77.20996, 38.79528 ], [ -77.20904, 38.7973 ], [ -77.20689, 38.7984 ], [ -77.2084, 38.79802 ], [ -77.20967, 38.7972 ], [ -77.21102, 38.79467 ], [ -77.21087, 38.79417 ], [ -77.21041, 38.79405 ], [ -77.21086, 38.79466 ] ], [ [ -77.21637, 38.80091 ], [ -77.21604, 38.80091 ], [ -77.21639, 38.80137 ], [ -77.21637, 38.80091 ] ], [ [ -77.21636, 38.79843 ], [ -77.21581, 38.79894 ], [ -77.21632, 38.79905 ], [ -77.21636, 38.79843 ] ], [ [ -77.2167, 38.79784 ], [ -77.21616, 38.79766 ], [ -77.21648, 38.79812 ], [ -77.2167, 38.79784 ] ], [ [ -77.21542, 38.79768 ], [ -77.21536, 38.79768 ], [ -77.21537, 38.79769 ], [ -77.21542, 38.79768 ] ], [ [ -77.21417, 38.79702 ], [ -77.21607, 38.79583 ], [ -77.21599, 38.79492 ], [ -77.21546, 38.7947 ], [ -77.21475, 38.79481 ], [ -77.21493, 38.79542 ], [ -77.21418, 38.79609 ], [ -77.2128, 38.79543 ], [ -77.21327, 38.79591 ], [ -77.2126, 38.7965 ], [ -77.2124, 38.79745 ], [ -77.21366, 38.7986 ], [ -77.21387, 38.79973 ], [ -77.21445, 38.79985 ], [ -77.21417, 38.79702 ] ], [ [ -77.21974, 38.7998 ], [ -77.21976, 38.79961 ], [ -77.21954, 38.79979 ], [ -77.21974, 38.7998 ] ], [ [ -77.21769, 38.7989 ], [ -77.21799, 38.7989 ], [ -77.2177, 38.79866 ], [ -77.21769, 38.7989 ] ], [ [ -77.22344, 38.80027 ], [ -77.22309, 38.80046 ], [ -77.22381, 38.80047 ], [ -77.22393, 38.80007 ], [ -77.22344, 38.80027 ] ], [ [ -77.21174, 38.79616 ], [ -77.21166, 38.79639 ], [ -77.21186, 38.79626 ], [ -77.21174, 38.79616 ] ], [ [ -77.21231, 38.79894 ], [ -77.21212, 38.79928 ], [ -77.21252, 38.79935 ], [ -77.21231, 38.79894 ] ], [ [ -77.21084, 38.79915 ], [ -77.21081, 38.79913 ], [ -77.2108, 38.79914 ], [ -77.21084, 38.79915 ] ], [ [ -77.21215, 38.80697 ], [ -77.21248, 38.80702 ], [ -77.2124, 38.80695 ], [ -77.21215, 38.80697 ] ], [ [ -77.19977, 38.80176 ], [ -77.19974, 38.80162 ], [ -77.19971, 38.80181 ], [ -77.19977, 38.80176 ] ], [ [ -77.19829, 38.80198 ], [ -77.1982, 38.80206 ], [ -77.19827, 38.80206 ], [ -77.19829, 38.80198 ] ], [ [ -77.19722, 38.80204 ], [ -77.1975, 38.80205 ], [ -77.19727, 38.80189 ], [ -77.19722, 38.80204 ] ], [ [ -77.20663, 38.80483 ], [ -77.20663, 38.80485 ], [ -77.20665, 38.80485 ], [ -77.20663, 38.80483 ] ], [ [ -77.20688, 38.80416 ], [ -77.20686, 38.80415 ], [ -77.20685, 38.80418 ], [ -77.20688, 38.80416 ] ], [ [ -77.21163, 38.80997 ], [ -77.2117, 38.80997 ], [ -77.21169, 38.80994 ], [ -77.21163, 38.80997 ] ], [ [ -77.20929, 38.80747 ], [ -77.2096, 38.80727 ], [ -77.20744, 38.80694 ], [ -77.20735, 38.80747 ], [ -77.20929, 38.80747 ] ], [ [ -77.2086, 38.80508 ], [ -77.20904, 38.80515 ], [ -77.20886, 38.80491 ], [ -77.2086, 38.80508 ] ], [ [ -77.20323, 38.80024 ], [ -77.20325, 38.80035 ], [ -77.2034, 38.80027 ], [ -77.20323, 38.80024 ] ], [ [ -77.20419, 38.79612 ], [ -77.2044, 38.79617 ], [ -77.2044, 38.79606 ], [ -77.20419, 38.79612 ] ], [ [ -77.20326, 38.79591 ], [ -77.20318, 38.79583 ], [ -77.20309, 38.79587 ], [ -77.20326, 38.79591 ] ], [ [ -77.20459, 38.80746 ], [ -77.20453, 38.80734 ], [ -77.20447, 38.80752 ], [ -77.20459, 38.80746 ] ], [ [ -77.20476, 38.8019 ], [ -77.20491, 38.80199 ], [ -77.20495, 38.80187 ], [ -77.20476, 38.8019 ] ], [ [ -77.19629, 38.80108 ], [ -77.19572, 38.8011 ], [ -77.19594, 38.80141 ], [ -77.19629, 38.80108 ] ], [ [ -77.19544, 38.80248 ], [ -77.19527, 38.80256 ], [ -77.19581, 38.80281 ], [ -77.19544, 38.80248 ] ], [ [ -77.20067, 38.80333 ], [ -77.20121, 38.80328 ], [ -77.20081, 38.80305 ], [ -77.20101, 38.80235 ], [ -77.20067, 38.80333 ] ], [ [ -77.19955, 38.80344 ], [ -77.19976, 38.80342 ], [ -77.19956, 38.8033 ], [ -77.19955, 38.80344 ] ], [ [ -77.20109, 38.8023 ], [ -77.20216, 38.8022 ], [ -77.20154, 38.80212 ], [ -77.20109, 38.8023 ] ], [ [ -77.19359, 38.80264 ], [ -77.19406, 38.80205 ], [ -77.19351, 38.80205 ], [ -77.19359, 38.80264 ] ], [ [ -77.1958, 38.8034 ], [ -77.19578, 38.80342 ], [ -77.19579, 38.80344 ], [ -77.1958, 38.8034 ] ] ], [ [ [ -77.1916, 38.81212 ], [ -77.19138, 38.81144 ], [ -77.19137, 38.8105 ], [ -77.19202, 38.80993 ], [ -77.19276, 38.8106 ], [ -77.19277, 38.81171 ], [ -77.1921, 38.81227 ], [ -77.1916, 38.81212 ] ] ] ] } }
]
}
