{
"type": "FeatureCollection",
"name": "143",
"crs": { "type": "name", "properties": { "name": "urn:ogc:def:crs:OGC:1.3:CRS84" } },
"xy_coordinate_resolution": 1e-05,
"features": [
{ "type": "Feature", "properties": { "variant": "T0", "miles": 0.5 }, "geometry": { "type": "Polygon", "coordinates": [ [ [ -77.22184, 38.79982 ], [ -77.22614, 38.79796 ], [ -77.22715, 38.79853 ], [ -77.22823, 38.80058 ], [ -77.22741, 38.80099 ], [ -77.227, 38.8026 ], [ -77.22722, 38.80292 ], [ -77.22758, 38.80193 ], [ -77.22851, 38.80171 ], [ -77.22885, 38.80203 ], [ -77.2286, 38.8028 ], [ -77.22951, 38.80402 ], [ -77.22859, 38.80444 ], [ -77.23009, 38.80557 ], [ -77.2295, 38.80618 ], [ -77.22789, 38.80541 ], [ -77.22741, 38.80568 ], [ -77.22762, 38.80818 ], [ -77.22322, 38.80875 ], [ -77.22073, 38.80692 ], [ -77.22024, 38.80477 ], [ -77.21932, 38.80501 ], [ -77.21898, 38.80469 ], [ -77.21924, 38.80358 ], [ -77.22018, 38.80342 ], [ -77.22027, 38.80139 ], [ -77.21954, 38.80019 ], [ -77.22048, 38.79998 ], [ -77.22133, 38.80045 ], [ -77.22184, 38.79982 ] ], [ [ -77.22619, 38.80495 ], [ -77.22634, 38.80496 ], [ -77.22641, 38.80491 ], [ -77.22619, 38.80495 ] ], [ [ -77.22357, 38.80401 ], [ -77.22341, 38.80243 ], [ -77.22162, 38.80239 ], [ -77.22155, 38.80368 ], [ -77.22357, 38.80401 ] ], [ [ -77.22381, 38.80047 ], [ -77.22393, 38.80007 ], [ -77.22309, 38.80046 ], [ -77.22381, 38.80047 ] ], [ [ -77.22601, 38.80345 ], [ -77.22606, 38.80387 ], [ -77.22634, 38.80382 ], [ -77.22601, 38.80345 ] ], [ [ -77.22296, 38.80708 ], [ -77.22292, 38.80709 ], [ -77.22299, 38.80714 ], [ -77.22296, 38.80708 ] ] ] } },
{ "type": "Feature", "properties": { "variant": "T0", "miles": 1.0 }, "geometry": { "type": "Polygon", "coordinates": [ [ [ -77.22968, 38.80022 ], [ -77.22966, 38.80116 ], [ -77.22859, 38.80278 ], [ -77.22904, 38.80333 ], [ -77.23174, 38.80527 ], [ -77.23227, 38.8062 ], [ -77.23303, 38.80621 ], [ -77.23324, 38.80564 ], [ -77.23416, 38.80534 ], [ -77.23514, 38.80575 ], [ -77.23398, 38.80716 ], [ -77.23237, 38.80744 ], [ -77.23077, 38.81012 ], [ -77.23096, 38.81144 ], [ -77.22991, 38.81208 ], [ -77.22809, 38.81178 ], [ -77.21961, 38.81191 ], [ -77.21891, 38.81138 ], [ -77.21913, 38.81083 ], [ -77.22093, 38.81065 ], [ -77.22141, 38.80991 ], [ -77.22194, 38.80998 ], [ -77.22232, 38.81063 ], [ -77.22391, 38.81063 ], [ -77.22273, 38.80853 ], [ -77.22066, 38.80682 ], [ -77.22024, 38.80477 ], [ -77.21932, 38.80501 ], [ -77.21899, 38.8045 ], [ -77.21612, 38.80433 ], [ -77.21581, 38.80311 ], [ -77.21642, 38.80236 ], [ -77.21541, 38.80221 ], [ -77.21451, 38.80093 ], [ -77.2134, 38.80075 ], [ -77.21267, 38.80186 ], [ -77.21132, 38.80219 ], [ -77.21105, 38.80167 ], [ -77.21041, 38.8015 ], [ -77.21061, 38.80022 ], [ -77.20908, 38.7994 ], [ -77.20964, 38.79877 ], [ -77.21445, 38.79985 ], [ -77.21406, 38.79717 ], [ -77.21483, 38.79664 ], [ -77.21645, 38.79658 ], [ -77.21735, 38.79682 ], [ -77.21932, 38.7984 ], [ -77.22075, 38.79814 ], [ -77.22122, 38.80046 ], [ -77.22187, 38.7998 ], [ -77.22586, 38.79794 ], [ -77.22805, 38.79859 ], [ -77.22968, 38.80022 ] ], [ [ -77.22722, 38.80292 ], [ -77.22837, 38.80078 ], [ -77.22818, 38.80038 ], [ -77.22792, 38.80092 ], [ -77.22741, 38.80099 ], [ -77.22695, 38.80231 ], [ -77.22722, 38.80292 ] ], [ [ -77.22923, 38.8105 ], [ -77.22939, 38.81005 ], [ -77.22941, 38.80988 ], [ -77.22916, 38.81018 ], [ -77.22923, 38.8105 ] ], [ [ -77.22877, 38.80704 ], [ -77.22872, 38.80723 ], [ -77.22903, 38.80722 ], [ -77.22877, 38.80704 ] ], [ [ -77.22971, 38.80726 ], [ -77.22987, 38.8073 ], [ -77.22988, 38.80711 ], [ -77.22971, 38.80726 ] ], [ [ -77.22634, 38.80382 ], [ -77.22601, 38.80345 ], [ -77.22606, 38.80387 ], [ -77.22634, 38.80382 ] ], [ [ -77.22765, 38.79992 ], [ -77.2277, 38.79993 ], [ -77.22765, 38.79989 ], [ -77.22765, 38.79992 ] ], [ [ -77.22626, 38.80503 ], [ -77.22619, 38.80495 ], [ -77.22621, 38.80508 ], [ -77.22626, 38.80503 ] ], [ [ -77.22381, 38.80047 ], [ -77.22393, 38.80007 ], [ -77.22309, 38.80046 ], [ -77.22381, 38.80047 ] ], [ [ -77.22162, 38.80368 ], [ -77.22357, 38.80401 ], [ -77.22341, 38.80243 ], [ -77.22162, 38.80239 ], [ -77.22162, 38.80368 ] ], [ [ -77.22296, 38.80708 ], [ -77.22292, 38.80709 ], [ -77.22299, 38.80714 ], [ -77.22296, 38.80708 ] ], [ [ -77.21974, 38.7998 ], [ -77.21964, 38.79972 ], [ -77.21954, 38.79979 ], [ -77.21974, 38.7998 ] ], [ [ -77.21639, 38.80137 ], [ -77.21637, 38.80091 ], [ -77.21604, 38.80091 ], [ -77.21639, 38.80137 ] ], [ [ -77.21769, 38.79877 ], [ -77.21799, 38.7989 ], [ -77.2177, 38.79866 ], [ -77.21769, 38.79877 ] ], [ [ -77.21634, 38.79847 ], [ -77.2158, 38.79872 ], [ -77.21581, 38.79894 ], [ -77.21632, 38.79905 ], [ -77.21634, 38.79847 ] ], [ [ -77.21616, 38.79766 ], [ -77.21648, 38.79812 ], [ -77.2167, 38.79784 ], [ -77.21616, 38.79766 ] ], [ [ -77.21537, 38.79769 ], [ -77.21542, 38.79768 ], [ -77.21536, 38.79768 ], [ -77.21537, 38.79769 ] ] ] } },
{ "type": "Feature", "properties": { "variant": "T0", "miles": 1.5 }, "geometry": { "type": "Polygon", "coordinates": [ [ [ -77.23706, 38.80192 ], [ -77.23566, 38.80199 ], [ -77.23594, 38.80278 ], [ -77.2362, 38.80227 ], [ -77.23727, 38.80218 ], [ -77.23802, 38.8012 ], [ -77.23897, 38.80072 ], [ -77.23963, 38.80129 ], [ -77.23866, 38.80238 ], [ -77.2401, 38.80254 ], [ -77.24085, 38.80195 ], [ -77.24137, 38.80203 ], [ -77.24274, 38.80258 ], [ -77.2427, 38.80323 ], [ -77.24342, 38.80376 ], [ -77.24274, 38.80431 ], [ -77.24051, 38.8045 ], [ -77.24022, 38.80513 ], [ -77.23879, 38.80512 ], [ -77.23827, 38.8057 ], [ -77.2369, 38.80499 ], [ -77.23796, 38.80347 ], [ -77.23718, 38.80362 ], [ -77.23457, 38.80672 ], [ -77.23408, 38.8087 ], [ -77.23676, 38.81033 ], [ -77.24077, 38.81054 ], [ -77.24073, 38.81143 ], [ -77.23559, 38.81161 ], [ -77.23597, 38.81517 ], [ -77.23545, 38.81567 ], [ -77.23185, 38.81478 ], [ -77.23096, 38.81514 ], [ -77.23003, 38.81491 ], [ -77.23102, 38.81277 ], [ -77.23047, 38.81178 ], [ -77.22762, 38.81393 ], [ -77.22791, 38.81649 ], [ -77.2273, 38.81761 ], [ -77.22559, 38.81739 ], [ -77.22568, 38.81663 ], [ -77.22646, 38.81649 ], [ -77.22627, 38.81512 ], [ -77.22563, 38.81537 ], [ -77.22503, 38.81665 ], [ -77.22332, 38.81612 ], [ -77.22274, 38.81654 ], [ -77.22348, 38.81878 ], [ -77.22439, 38.81842 ], [ -77.22484, 38.81863 ], [ -77.22487, 38.81948 ], [ -77.22397, 38.81992 ], [ -77.22509, 38.82113 ], [ -77.22472, 38.82158 ], [ -77.22357, 38.8217 ], [ -77.22285, 38.82242 ], [ -77.2222, 38.82191 ], [ -77.22208, 38.81854 ], [ -77.22136, 38.81642 ], [ -77.22318, 38.81464 ], [ -77.22276, 38.81398 ], [ -77.22328, 38.81334 ], [ -77.22385, 38.81334 ], [ -77.22397, 38.81185 ], [ -77.21012, 38.81202 ], [ -77.20943, 38.81154 ], [ -77.21002, 38.81079 ], [ -77.21953, 38.81068 ], [ -77.2197, 38.80979 ], [ -77.21783, 38.80906 ], [ -77.21618, 38.80695 ], [ -77.21642, 38.80621 ], [ -77.21695, 38.80616 ], [ -77.21901, 38.80843 ], [ -77.22014, 38.80736 ], [ -77.22111, 38.80735 ], [ -77.22112, 38.80812 ], [ -77.22032, 38.80882 ], [ -77.22172, 38.80949 ], [ -77.22232, 38.81063 ], [ -77.22391, 38.81063 ], [ -77.22273, 38.80853 ], [ -77.22066, 38.80682 ], [ -77.22024, 38.80477 ], [ -77.21932, 38.80501 ], [ -77.21899, 38.8045 ], [ -77.21612, 38.80433 ], [ -77.21581, 38.80311 ], [ -77.21642, 38.80236 ], [ -77.21541, 38.80221 ], [ -77.21451, 38.80093 ], [ -77.2134, 38.80075 ], [ -77.21267, 38.80186 ], [ -77.21132, 38.80219 ], [ -77.21028, 38.8011 ], [ -77.20784, 38.8001 ], [ -77.20751, 38.79939 ], [ -77.20694, 38.80018 ], [ -77.20816, 38.80062 ], [ -77.20818, 38.80138 ], [ -77.20646, 38.80163 ], [ -77.20599, 38.803 ], [ -77.20515, 38.80338 ], [ -77.20466, 38.80272 ], [ -77.20495, 38.80187 ], [ -77.20393, 38.80177 ], [ -77.20302, 38.80082 ], [ -77.20356, 38.80018 ], [ -77.20416, 38.80036 ], [ -77.20471, 38.79991 ], [ -77.20559, 38.79995 ], [ -77.20577, 38.79941 ], [ -77.20128, 38.79838 ], [ -77.20086, 38.79772 ], [ -77.20156, 38.7967 ], [ -77.20328, 38.79683 ], [ -77.20374, 38.79618 ], [ -77.20467, 38.7964 ], [ -77.20461, 38.79713 ], [ -77.20609, 38.79751 ], [ -77.20849, 38.79609 ], [ -77.20901, 38.7961 ], [ -77.20938, 38.7964 ], [ -77.20904, 38.7973 ], [ -77.20689, 38.7984 ], [ -77.2084, 38.79802 ], [ -77.20984, 38.79702 ], [ -77.21112, 38.79403 ], [ -77.21177, 38.79377 ], [ -77.21259, 38.79419 ], [ -77.21228, 38.79513 ], [ -77.21327, 38.79591 ], [ -77.2126, 38.7965 ], [ -77.2124, 38.79745 ], [ -77.21363, 38.79854 ], [ -77.21416, 38.79982 ], [ -77.21445, 38.79985 ], [ -77.21442, 38.79881 ], [ -77.21395, 38.79747 ], [ -77.21483, 38.79664 ], [ -77.21699, 38.79666 ], [ -77.21848, 38.79773 ], [ -77.22133, 38.79731 ], [ -77.22211, 38.79868 ], [ -77.2241, 38.79798 ], [ -77.22616, 38.79664 ], [ -77.22691, 38.7966 ], [ -77.22808, 38.79732 ], [ -77.22809, 38.79862 ], [ -77.2297, 38.80027 ], [ -77.22966, 38.80116 ], [ -77.2286, 38.8028 ], [ -77.23174, 38.80527 ], [ -77.23227, 38.8062 ], [ -77.23303, 38.80621 ], [ -77.23331, 38.8056 ], [ -77.23264, 38.80428 ], [ -77.23275, 38.80303 ], [ -77.23335, 38.80232 ], [ -77.23434, 38.80231 ], [ -77.23365, 38.80213 ], [ -77.23265, 38.80222 ], [ -77.23194, 38.80273 ], [ -77.23146, 38.80255 ], [ -77.23042, 38.8016 ], [ -77.23065, 38.80013 ], [ -77.23149, 38.79961 ], [ -77.23199, 38.79973 ], [ -77.23206, 38.8005 ], [ -77.23471, 38.80115 ], [ -77.23881, 38.79932 ], [ -77.23976, 38.79951 ], [ -77.23952, 38.80025 ], [ -77.23745, 38.80121 ], [ -77.23706, 38.80192 ] ], [ [ -77.2276, 38.81236 ], [ -77.22855, 38.81189 ], [ -77.22535, 38.81199 ], [ -77.22539, 38.8124 ], [ -77.2276, 38.81236 ] ], [ [ -77.23321, 38.81372 ], [ -77.23351, 38.81336 ], [ -77.23421, 38.81167 ], [ -77.23221, 38.81172 ], [ -77.23321, 38.81372 ] ], [ [ -77.23292, 38.80937 ], [ -77.23296, 38.80729 ], [ -77.23251, 38.80728 ], [ -77.23065, 38.81052 ], [ -77.23439, 38.81037 ], [ -77.23292, 38.80937 ] ], [ [ -77.22939, 38.81005 ], [ -77.22941, 38.80988 ], [ -77.22916, 38.81018 ], [ -77.22924, 38.81049 ], [ -77.22939, 38.81005 ] ], [ [ -77.22872, 38.80723 ], [ -77.22903, 38.80722 ], [ -77.22877, 38.80704 ], [ -77.22872, 38.80723 ] ], [ [ -77.23394, 38.80375 ], [ -77.23441, 38.80493 ], [ -77.23502, 38.80421 ], [ -77.23454, 38.8033 ], [ -77.23394, 38.80375 ] ], [ [ -77.2392, 38.80396 ], [ -77.23907, 38.80411 ], [ -77.23918, 38.80412 ], [ -77.2392, 38.80396 ] ], [ [ -77.22971, 38.80726 ], [ -77.22987, 38.8073 ], [ -77.22988, 38.80711 ], [ -77.22971, 38.80726 ] ], [ [ -77.22837, 38.80078 ], [ -77.22818, 38.80038 ], [ -77.22792, 38.80092 ], [ -77.22741, 38.80099 ], [ -77.22695, 38.80231 ], [ -77.22722, 38.80292 ], [ -77.22837, 38.80078 ] ], [ [ -77.22601, 38.80345 ], [ -77.22606, 38.80387 ], [ -77.22634, 38.80382 ], [ -77.22601, 38.80345 ] ], [ [ -77.22668, 38.79775 ], [ -77.2261, 38.79795 ], [ -77.22677, 38.79817 ], [ -77.22668, 38.79775 ] ], [ [ -77.22765, 38.79992 ], [ -77.2277, 38.79993 ], [ -77.22765, 38.79989 ], [ -77.22765, 38.79992 ] ], [ [ -77.22619, 38.80495 ], [ -77.22621, 38.80508 ], [ -77.22626, 38.80503 ], [ -77.22619, 38.80495 ] ], [ [ -77.22582, 38.81419 ], [ -77.2261, 38.81436 ], [ -77.22633, 38.81338 ], [ -77.22582, 38.81419 ] ], [ [ -77.22296, 38.80708 ], [ -77.22294, 38.80705 ], [ -77.22292, 38.80709 ], [ -77.22296, 38.80708 ] ], [ [ -77.22341, 38.80243 ], [ -77.22162, 38.80239 ], [ -77.22155, 38.80368 ], [ -77.22352, 38.804 ], [ -77.22341, 38.80243 ] ], [ [ -77.21637, 38.80091 ], [ -77.21604, 38.80091 ], [ -77.21639, 38.80137 ], [ -77.21637, 38.80091 ] ], [ [ -77.21636, 38.79843 ], [ -77.21581, 38.79894 ], [ -77.21632, 38.79905 ], [ -77.21636, 38.79843 ] ], [ [ -77.2167, 38.79784 ], [ -77.21616, 38.79766 ], [ -77.21648, 38.79812 ], [ -77.2167, 38.79784 ] ], [ [ -77.22363, 38.80019 ], [ -77.22309, 38.80046 ], [ -77.22381, 38.80047 ], [ -77.22393, 38.80011 ], [ -77.22363, 38.80019 ] ], [ [ -77.21799, 38.7989 ], [ -77.2177, 38.79866 ], [ -77.21769, 38.79877 ], [ -77.21799, 38.7989 ] ], [ [ -77.21974, 38.7998 ], [ -77.21976, 38.79961 ], [ -77.21964, 38.79972 ], [ -77.21974, 38.7998 ] ], [ [ -77.21192, 38.79627 ], [ -77.21174, 38.79616 ], [ -77.21166, 38.79639 ], [ -77.21192, 38.79627 ] ], [ [ -77.21537, 38.79769 ], [ -77.21542, 38.79768 ], [ -77.21536, 38.79768 ], [ -77.21537, 38.79769 ] ], [ [ -77.21212, 38.79928 ], [ -77.21252, 38.79935 ], [ -77.21246, 38.79913 ], [ -77.21212, 38.79928 ] ], [ [ -77.21084, 38.79915 ], [ -77.21081, 38.79913 ], [ -77.2108, 38.79914 ], [ -77.21084, 38.79915 ] ] ] } },
{ "type": "Feature", "properties": { "variant": "T2s", "miles": 0.5 }, "geometry": { "type": "Polygon", "coordinates": [ [ [ -77.22184, 38.79982 ], [ -77.22614, 38.79796 ], [ -77.22715, 38.79853 ], [ -77.22823, 38.80058 ], [ -77.22741, 38.80099 ], [ -77.227, 38.8026 ], [ -77.22722, 38.80292 ], [ -77.22758, 38.80193 ], [ -77.22851, 38.80171 ], [ -77.22885, 38.80203 ], [ -77.2286, 38.8028 ], [ -77.22951, 38.80402 ], [ -77.22859, 38.80444 ], [ -77.23009, 38.80557 ], [ -77.2295, 38.80618 ], [ -77.22789, 38.80541 ], [ -77.22741, 38.80568 ], [ -77.22762, 38.80818 ], [ -77.22322, 38.80875 ], [ -77.22073, 38.80692 ], [ -77.22024, 38.80477 ], [ -77.21932, 38.80501 ], [ -77.21898, 38.80469 ], [ -77.21924, 38.80358 ], [ -77.22018, 38.80342 ], [ -77.22027, 38.80139 ], [ -77.21954, 38.80019 ], [ -77.22048, 38.79998 ], [ -77.22133, 38.80045 ], [ -77.22184, 38.79982 ] ], [ [ -77.22619, 38.80495 ], [ -77.22634, 38.80496 ], [ -77.22641, 38.80491 ], [ -77.22619, 38.80495 ] ], [ [ -77.22357, 38.80401 ], [ -77.22341, 38.80243 ], [ -77.22162, 38.80239 ], [ -77.22155, 38.80368 ], [ -77.22357, 38.80401 ] ], [ [ -77.22381, 38.80047 ], [ -77.22393, 38.80007 ], [ -77.22309, 38.80046 ], [ -77.22381, 38.80047 ] ], [ [ -77.22601, 38.80345 ], [ -77.22606, 38.80387 ], [ -77.22634, 38.80382 ], [ -77.22601, 38.80345 ] ], [ [ -77.22296, 38.80708 ], [ -77.22292, 38.80709 ], [ -77.22299, 38.80714 ], [ -77.22296, 38.80708 ] ] ] } },
{ "type": "Feature", "properties": { "variant": "T2s", "miles": 1.0 }, "geometry": { "type": "MultiPolygon", "coordinates": [ [ [ [ -77.22965, 38.80014 ], [ -77.22966, 38.80116 ], [ -77.22859, 38.80278 ], [ -77.22904, 38.80333 ], [ -77.23174, 38.80527 ], [ -77.23227, 38.8062 ], [ -77.23303, 38.80621 ], [ -77.23324, 38.80564 ], [ -77.23416, 38.80534 ], [ -77.23514, 38.80575 ], [ -77.23398, 38.80716 ], [ -77.23237, 38.80744 ], [ -77.23034, 38.811 ], [ -77.23053, 38.81166 ], [ -77.22991, 38.81208 ], [ -77.22913, 38.81162 ], [ -77.22954, 38.811 ], [ -77.22941, 38.80988 ], [ -77.22902, 38.81142 ], [ -77.22854, 38.8116 ], [ -77.22781, 38.81097 ], [ -77.22416, 38.81093 ], [ -77.22273, 38.80853 ], [ -77.22066, 38.80682 ], [ -77.22024, 38.80477 ], [ -77.21932, 38.80501 ], [ -77.21899, 38.8045 ], [ -77.21612, 38.80433 ], [ -77.21581, 38.80311 ], [ -77.21642, 38.80236 ], [ -77.21541, 38.80221 ], [ -77.21451, 38.80093 ], [ -77.2134, 38.80075 ], [ -77.21267, 38.80186 ], [ -77.21132, 38.80219 ], [ -77.21105, 38.80167 ], [ -77.21041, 38.8015 ], [ -77.21061, 38.80022 ], [ -77.20908, 38.7994 ], [ -77.20964, 38.79877 ], [ -77.21445, 38.79985 ], [ -77.21406, 38.79717 ], [ -77.21483, 38.79664 ], [ -77.21645, 38.79658 ], [ -77.21735, 38.79682 ], [ -77.21932, 38.7984 ], [ -77.22075, 38.79814 ], [ -77.22122, 38.80046 ], [ -77.22187, 38.7998 ], [ -77.22586, 38.79794 ], [ -77.22805, 38.79859 ], [ -77.22965, 38.80014 ] ], [ [ -77.22722, 38.80292 ], [ -77.22837, 38.80078 ], [ -77.22818, 38.80038 ], [ -77.22792, 38.80092 ], [ -77.22741, 38.80099 ], [ -77.22695, 38.80231 ], [ -77.22722, 38.80292 ] ], [ [ -77.22877, 38.80704 ], [ -77.22872, 38.80723 ], [ -77.22903, 38.80722 ], [ -77.22877, 38.80704 ] ], [ [ -77.22971, 38.80726 ], [ -77.22987, 38.8073 ], [ -77.22988, 38.80711 ], [ -77.22971, 38.80726 ] ], [ [ -77.22634, 38.80382 ], [ -77.22601, 38.80345 ], [ -77.22606, 38.80387 ], [ -77.22634, 38.80382 ] ], [ [ -77.22765, 38.79992 ], [ -77.2277, 38.79993 ], [ -77.22765, 38.79989 ], [ -77.22765, 38.79992 ] ], [ [ -77.22626, 38.80503 ], [ -77.22619, 38.80495 ], [ -77.22621, 38.80508 ], [ -77.22626, 38.80503 ] ], [ [ -77.21974, 38.7998 ], [ -77.21964, 38.79972 ], [ -77.21954, 38.79979 ], [ -77.21974, 38.7998 ] ], [ [ -77.22155, 38.80368 ], [ -77.22357, 38.80401 ], [ -77.22341, 38.80243 ], [ -77.22162, 38.80239 ], [ -77.22155, 38.80368 ] ], [ [ -77.22393, 38.80011 ], [ -77.22363, 38.80019 ], [ -77.22309, 38.80046 ], [ -77.22381, 38.80047 ], [ -77.22393, 38.80011 ] ], [ [ -77.22294, 38.80705 ], [ -77.22294, 38.8071 ], [ -77.22299, 38.80714 ], [ -77.22294, 38.80705 ] ], [ [ -77.21769, 38.79877 ], [ -77.21799, 38.7989 ], [ -77.2177, 38.79866 ], [ -77.21769, 38.79877 ] ], [ [ -77.21634, 38.79847 ], [ -77.2158, 38.79872 ], [ -77.21581, 38.79894 ], [ -77.21632, 38.79905 ], [ -77.21634, 38.79847 ] ], [ [ -77.21616, 38.79766 ], [ -77.21648, 38.79812 ], [ -77.2167, 38.79784 ], [ -77.21616, 38.79766 ] ], [ [ -77.21536, 38.79768 ], [ -77.21537, 38.79769 ], [ -77.21542, 38.79768 ], [ -77.21536, 38.79768 ] ], [ [ -77.21639, 38.80137 ], [ -77.21637, 38.80091 ], [ -77.21604, 38.80091 ], [ -77.21639, 38.80137 ] ] ], [ [ [ -77.22099, 38.81015 ], [ -77.22194, 38.80998 ], [ -77.22232, 38.81062 ], [ -77.22214, 38.81156 ], [ -77.22165, 38.81172 ], [ -77.22096, 38.81118 ], [ -77.22099, 38.81015 ] ] ] ] } },
{ "type": "Feature", "properties": { "variant": "T2s", "miles": 1.5 }, "geometry": { "type": "MultiPolygon", "coordinates": [ [ [ [ -77.23706, 38.80192 ], [ -77.23566, 38.80199 ], [ -77.23594, 38.80278 ], [ -77.2362, 38.80227 ], [ -77.23727, 38.80218 ], [ -77.23802, 38.8012 ], [ -77.23897, 38.80072 ], [ -77.23963, 38.80129 ], [ -77.23866, 38.80238 ], [ -77.2401, 38.80254 ], [ -77.24085, 38.80195 ], [ -77.24229, 38.80238 ], [ -77.24342, 38.80376 ], [ -77.24322, 38.80415 ], [ -77.24051, 38.8045 ], [ -77.24022, 38.80513 ], [ -77.23879, 38.80512 ], [ -77.23827, 38.8057 ], [ -77.2369, 38.80499 ], [ -77.23796, 38.80347 ], [ -77.23718, 38.80362 ], [ -77.23457, 38.80672 ], [ -77.23405, 38.80848 ], [ -77.23443, 38.80917 ], [ -77.23652, 38.81005 ], [ -77.23693, 38.81127 ], [ -77.23636, 38.81157 ], [ -77.23221, 38.81172 ], [ -77.2329, 38.81388 ], [ -77.23179, 38.81464 ], [ -77.23131, 38.81447 ], [ -77.23135, 38.81369 ], [ -77.23083, 38.81323 ], [ -77.23096, 38.81084 ], [ -77.23465, 38.81044 ], [ -77.23299, 38.80947 ], [ -77.23267, 38.80853 ], [ -77.23296, 38.80729 ], [ -77.23251, 38.80728 ], [ -77.23077, 38.81012 ], [ -77.23048, 38.81173 ], [ -77.22762, 38.81393 ], [ -77.2279, 38.81653 ], [ -77.22764, 38.81729 ], [ -77.22678, 38.81765 ], [ -77.22637, 38.81739 ], [ -77.22627, 38.81512 ], [ -77.22346, 38.8159 ], [ -77.22304, 38.81542 ], [ -77.22351, 38.8147 ], [ -77.22322, 38.81411 ], [ -77.22396, 38.81337 ], [ -77.2247, 38.81334 ], [ -77.22543, 38.81238 ], [ -77.2276, 38.81236 ], [ -77.22874, 38.81153 ], [ -77.22804, 38.81146 ], [ -77.22781, 38.81097 ], [ -77.22413, 38.81091 ], [ -77.22273, 38.80853 ], [ -77.22066, 38.80682 ], [ -77.22024, 38.80477 ], [ -77.21932, 38.80501 ], [ -77.21899, 38.8045 ], [ -77.21612, 38.80433 ], [ -77.21581, 38.80311 ], [ -77.21642, 38.80236 ], [ -77.21541, 38.80221 ], [ -77.21451, 38.80093 ], [ -77.2134, 38.80075 ], [ -77.21267, 38.80186 ], [ -77.21132, 38.80219 ], [ -77.21028, 38.8011 ], [ -77.20784, 38.8001 ], [ -77.20751, 38.79939 ], [ -77.20694, 38.80018 ], [ -77.20816, 38.80062 ], [ -77.20818, 38.80138 ], [ -77.20646, 38.80163 ], [ -77.20599, 38.803 ], [ -77.20515, 38.80338 ], [ -77.20466, 38.80272 ], [ -77.20495, 38.80187 ], [ -77.20393, 38.80177 ], [ -77.20302, 38.80082 ], [ -77.20356, 38.80018 ], [ -77.20416, 38.80036 ], [ -77.20471, 38.79991 ], [ -77.20559, 38.79995 ], [ -77.20577, 38.79941 ], [ -77.20128, 38.79838 ], [ -77.20086, 38.79772 ], [ -77.20156, 38.7967 ], [ -77.20328, 38.79683 ], [ -77.20374, 38.79618 ], [ -77.20467, 38.7964 ], [ -77.20461, 38.79713 ], [ -77.20609, 38.79751 ], [ -77.20849, 38.79609 ], [ -77.20901, 38.7961 ], [ -77.20938, 38.7964 ], [ -77.20904, 38.7973 ], [ -77.20689, 38.7984 ], [ -77.2084, 38.79802 ], [ -77.20984, 38.79702 ], [ -77.21112, 38.79403 ], [ -77.21177, 38.79377 ], [ -77.21259, 38.79419 ], [ -77.21228, 38.79513 ], [ -77.21327, 38.79591 ], [ -77.2126, 38.7965 ], [ -77.2124, 38.79745 ], [ -77.21363, 38.79854 ], [ -77.21416, 38.79982 ], [ -77.21445, 38.79985 ], [ -77.21442, 38.79881 ], [ -77.21395, 38.79747 ], [ -77.21483, 38.79664 ], [ -77.21699, 38.79666 ], [ -77.21848, 38.79773 ], [ -77.22133, 38.79731 ], [ -77.22211, 38.79868 ], [ -77.2241, 38.79798 ], [ -77.22616, 38.79664 ], [ -77.22691, 38.7966 ], [ -77.22808, 38.79732 ], [ -77.22809, 38.79862 ], [ -77.2297, 38.80027 ], [ -77.22966, 38.80116 ], [ -77.2286, 38.8028 ], [ -77.23174, 38.80527 ], [ -77.23227, 38.8062 ], [ -77.23303, 38.80621 ], [ -77.23331, 38.8056 ], [ -77.23264, 38.80428 ], [ -77.23275, 38.80303 ], [ -77.23335, 38.80232 ], [ -77.23434, 38.80231 ], [ -77.23365, 38.80213 ], [ -77.23265, 38.80222 ], [ -77.23194, 38.80273 ], [ -77.23146, 38.80255 ], [ -77.23042, 38.8016 ], [ -77.23067, 38.8001 ], [ -77.23149, 38.79961 ], [ -77.23199, 38.79973 ], [ -77.23206, 38.8005 ], [ -77.23471, 38.80115 ], [ -77.23881, 38.79932 ], [ -77.23976, 38.79951 ], [ -77.23952, 38.80025 ], [ -77.23769, 38.8011 ], [ -77.23706, 38.80192 ] ], [ [ -77.22292, 38.80709 ], [ -77.22299, 38.80714 ], [ -77.22296, 38.80708 ], [ -77.22292, 38.80709 ] ], [ [ -77.22341, 38.80243 ], [ -77.22162, 38.80239 ], [ -77.22155, 38.80368 ], [ -77.22357, 38.80401 ], [ -77.22341, 38.80243 ] ], [ [ -77.23394, 38.80375 ], [ -77.23441, 38.80493 ], [ -77.23502, 38.80421 ], [ -77.23454, 38.8033 ], [ -77.23394, 38.80375 ] ], [ [ -77.2392, 38.80396 ], [ -77.23907, 38.80411 ], [ -77.23918, 38.80412 ], [ -77.2392, 38.80396 ] ], [ [ -77.22837, 38.80078 ], [ -77.22818, 38.80038 ], [ -77.22792, 38.80092 ], [ -77.22741, 38.80099 ], [ -77.22695, 38.80231 ], [ -77.22721, 38.8028 ], [ -77.22837, 38.80078 ] ], [ [ -77.22765, 38.79992 ], [ -77.2277, 38.79993 ], [ -77.22765, 38.79989 ], [ -77.22765, 38.79992 ] ], [ [ -77.22619, 38.80495 ], [ -77.22621, 38.80508 ], [ -77.22626, 38.80503 ], [ -77.22619, 38.80495 ] ], [ [ -77.22601, 38.80345 ], [ -77.22606, 38.80387 ], [ -77.22634, 38.80382 ], [ -77.22601, 38.80345 ] ], [ [ -77.22987, 38.8073 ], [ -77.22988, 38.80711 ], [ -77.22971, 38.80726 ], [ -77.22987, 38.8073 ] ], [ [ -77.22903, 38.80722 ], [ -77.22869, 38.80699 ], [ -77.22872, 38.80723 ], [ -77.22903, 38.80722 ] ], [ [ -77.22915, 38.81025 ], [ -77.22918, 38.81086 ], [ -77.22941, 38.80988 ], [ -77.22915, 38.81025 ] ], [ [ -77.22649, 38.79784 ], [ -77.2261, 38.79795 ], [ -77.22677, 38.79817 ], [ -77.22649, 38.79784 ] ], [ [ -77.22624, 38.81357 ], [ -77.22633, 38.81338 ], [ -77.22585, 38.81395 ], [ -77.22611, 38.81423 ], [ -77.22624, 38.81357 ] ], [ [ -77.21604, 38.80091 ], [ -77.21639, 38.80137 ], [ -77.21638, 38.80133 ], [ -77.21604, 38.80091 ] ], [ [ -77.21636, 38.79843 ], [ -77.21581, 38.79894 ], [ -77.21632, 38.79905 ], [ -77.21636, 38.79843 ] ], [ [ -77.2167, 38.79784 ], [ -77.21616, 38.79766 ], [ -77.21648, 38.79812 ], [ -77.2167, 38.79784 ] ], [ [ -77.21769, 38.7989 ], [ -77.21799, 38.7989 ], [ -77.2177, 38.79866 ], [ -77.21769, 38.7989 ] ], [ [ -77.21974, 38.7998 ], [ -77.21976, 38.79961 ], [ -77.21954, 38.79979 ], [ -77.21974, 38.7998 ] ], [ [ -77.22344, 38.80027 ], [ -77.22309, 38.80046 ], [ -77.22381, 38.80047 ], [ -77.22393, 38.80007 ], [ -77.22344, 38.80027 ] ], [ [ -77.21252, 38.79935 ], [ -77.21231, 38.79894 ], [ -77.21212, 38.79928 ], [ -77.21252, 38.79935 ] ], [ [ -77.21081, 38.79913 ], [ -77.2108, 38.79914 ], [ -77.21084, 38.79915 ], [ -77.21081, 38.79913 ] ], [ [ -77.21192, 38.79627 ], [ -77.21174, 38.79616 ], [ -77.21166, 38.79639 ], [ -77.21192, 38.79627 ] ], [ [ -77.21536, 38.79768 ], [ -77.21537, 38.79769 ], [ -77.21542, 38.79768 ], [ -77.21536, 38.79768 ] ] ], [ [ [ -77.21618, 38.80695 ], [ -77.21642, 38.80621 ], [ -77.21737, 38.80641 ], [ -77.21901, 38.80843 ], [ -77.22014, 38.80736 ], [ -77.22111, 38.80735 ], [ -77.22112, 38.80812 ], [ -77.22032, 38.80882 ], [ -77.22202, 38.80984 ], [ -77.22214, 38.81156 ], [ -77.22165, 38.81172 ], [ -77.22098, 38.81122 ], [ -77.22006, 38.81115 ], [ -77.21934, 38.81029 ], [ -77.2197, 38.80979 ], [ -77.21824, 38.80933 ], [ -77.21618, 38.80695 ] ] ] ] } }
]
}
