{
"type": "FeatureCollection",
"name": "144",
"crs": { "type": "name", "properties": { "name": "urn:ogc:def:crs:OGC:1.3:CRS84" } },
"xy_coordinate_resolution": 1e-05,
"features": [
{ "type": "Feature", "properties": { "variant": "T0", "miles": 0.5 }, "geometry": { "type": "Polygon", "coordinates": [ [ [ -77.21049, 38.82721 ], [ -77.21295, 38.82815 ], [ -77.21271, 38.82925 ], [ -77.21197, 38.8295 ], [ -77.21345, 38.83052 ], [ -77.21315, 38.831 ], [ -77.21148, 38.83173 ], [ -77.21164, 38.83249 ], [ -77.21077, 38.83322 ], [ -77.21029, 38.83305 ], [ -77.20953, 38.83069 ], [ -77.20655, 38.83051 ], [ -77.20406, 38.82988 ], [ -77.20377, 38.82838 ], [ -77.20286, 38.82819 ], [ -77.20362, 38.82626 ], [ -77.20341, 38.8257 ], [ -77.20448, 38.82489 ], [ -77.20372, 38.82459 ], [ -77.20373, 38.82417 ], [ -77.20474, 38.82307 ], [ -77.20485, 38.8224 ], [ -77.20603, 38.82155 ], [ -77.20655, 38.8215 ], [ -77.20712, 38.82201 ], [ -77.20782, 38.82189 ], [ -77.20826, 38.82236 ], [ -77.20798, 38.82341 ], [ -77.21037, 38.82473 ], [ -77.20966, 38.82705 ], [ -77.20869, 38.827 ], [ -77.20863, 38.82624 ], [ -77.20798, 38.8263 ], [ -77.20811, 38.82676 ], [ -77.2073, 38.82712 ], [ -77.20706, 38.82779 ], [ -77.20855, 38.82776 ], [ -77.20951, 38.82872 ], [ -77.20974, 38.82839 ], [ -77.21054, 38.82839 ], [ -77.21003, 38.82788 ], [ -77.21049, 38.82721 ] ], [ [ -77.20896, 38.82533 ], [ -77.20737, 38.82459 ], [ -77.20795, 38.82521 ], [ -77.20896, 38.82533 ] ], [ [ -77.20527, 38.82603 ], [ -77.20526, 38.82604 ], [ -77.20528, 38.82605 ], [ -77.20527, 38.82603 ] ] ] } },
{ "type": "Feature", "properties": { "variant": "T0", "miles": 1.0 }, "geometry": { "type": "Polygon", "coordinates": [ [ [ -77.2136, 38.82313 ], [ -77.21379, 38.82421 ], [ -77.21428, 38.82366 ], [ -77.21554, 38.82354 ], [ -77.21654, 38.8221 ], [ -77.21732, 38.82177 ], [ -77.21793, 38.82236 ], [ -77.21685, 38.82404 ], [ -77.21842, 38.82314 ], [ -77.21891, 38.82381 ], [ -77.21868, 38.82497 ], [ -77.22042, 38.8258 ], [ -77.21793, 38.83219 ], [ -77.21672, 38.83324 ], [ -77.21966, 38.83409 ], [ -77.21937, 38.83521 ], [ -77.21584, 38.83445 ], [ -77.21494, 38.83726 ], [ -77.21431, 38.83772 ], [ -77.21213, 38.83631 ], [ -77.21056, 38.83592 ], [ -77.20935, 38.83763 ], [ -77.20913, 38.8387 ], [ -77.20833, 38.83914 ], [ -77.20777, 38.83852 ], [ -77.20791, 38.83766 ], [ -77.20897, 38.83623 ], [ -77.20784, 38.83683 ], [ -77.20732, 38.83619 ], [ -77.20832, 38.83441 ], [ -77.20967, 38.83429 ], [ -77.20996, 38.83345 ], [ -77.20806, 38.83321 ], [ -77.2066, 38.83648 ], [ -77.20607, 38.83652 ], [ -77.2056, 38.83585 ], [ -77.20671, 38.83298 ], [ -77.2053, 38.83273 ], [ -77.20405, 38.83618 ], [ -77.20353, 38.83665 ], [ -77.20266, 38.83629 ], [ -77.20279, 38.83572 ], [ -77.20183, 38.83619 ], [ -77.20066, 38.83623 ], [ -77.19732, 38.83475 ], [ -77.19655, 38.83314 ], [ -77.19798, 38.83265 ], [ -77.19842, 38.8316 ], [ -77.19716, 38.83123 ], [ -77.19712, 38.83176 ], [ -77.19618, 38.83195 ], [ -77.19548, 38.83037 ], [ -77.19632, 38.82997 ], [ -77.19781, 38.82797 ], [ -77.19697, 38.82704 ], [ -77.19774, 38.8263 ], [ -77.19712, 38.82631 ], [ -77.1968, 38.82559 ], [ -77.19761, 38.82449 ], [ -77.19985, 38.82534 ], [ -77.20092, 38.82379 ], [ -77.19823, 38.82257 ], [ -77.19556, 38.82331 ], [ -77.19518, 38.82303 ], [ -77.19555, 38.82232 ], [ -77.19831, 38.82147 ], [ -77.20158, 38.82283 ], [ -77.20198, 38.82223 ], [ -77.20082, 38.82142 ], [ -77.2001, 38.8214 ], [ -77.19952, 38.82031 ], [ -77.20103, 38.81823 ], [ -77.20185, 38.81797 ], [ -77.20224, 38.81825 ], [ -77.20176, 38.82063 ], [ -77.20264, 38.82124 ], [ -77.20431, 38.81891 ], [ -77.20321, 38.81815 ], [ -77.20357, 38.81695 ], [ -77.20599, 38.81651 ], [ -77.2067, 38.81583 ], [ -77.20752, 38.81616 ], [ -77.20824, 38.81545 ], [ -77.2091, 38.81582 ], [ -77.20904, 38.81623 ], [ -77.20761, 38.81828 ], [ -77.21018, 38.81866 ], [ -77.21044, 38.81902 ], [ -77.20928, 38.82004 ], [ -77.21187, 38.82113 ], [ -77.21286, 38.81999 ], [ -77.2152, 38.81998 ], [ -77.21526, 38.82146 ], [ -77.21447, 38.82168 ], [ -77.2136, 38.82313 ] ], [ [ -77.21002, 38.83206 ], [ -77.20953, 38.83069 ], [ -77.20755, 38.83051 ], [ -77.20701, 38.83149 ], [ -77.21002, 38.83206 ] ], [ [ -77.20951, 38.82872 ], [ -77.20974, 38.82839 ], [ -77.21054, 38.82839 ], [ -77.21008, 38.82747 ], [ -77.21118, 38.82731 ], [ -77.21166, 38.8265 ], [ -77.21146, 38.82568 ], [ -77.21222, 38.82555 ], [ -77.21238, 38.82464 ], [ -77.21025, 38.82452 ], [ -77.21032, 38.82584 ], [ -77.20966, 38.82705 ], [ -77.20869, 38.827 ], [ -77.20863, 38.82624 ], [ -77.20798, 38.8263 ], [ -77.20811, 38.82676 ], [ -77.2073, 38.82712 ], [ -77.20706, 38.82779 ], [ -77.20855, 38.82776 ], [ -77.20951, 38.82872 ] ], [ [ -77.20549, 38.82209 ], [ -77.20531, 38.82162 ], [ -77.20449, 38.82281 ], [ -77.20549, 38.82209 ] ], [ [ -77.21356, 38.83599 ], [ -77.21383, 38.83605 ], [ -77.21446, 38.83429 ], [ -77.21356, 38.83599 ] ], [ [ -77.21625, 38.8322 ], [ -77.21665, 38.83179 ], [ -77.21778, 38.82856 ], [ -77.2166, 38.82787 ], [ -77.21679, 38.82894 ], [ -77.2157, 38.82883 ], [ -77.21544, 38.8299 ], [ -77.21338, 38.83027 ], [ -77.2142, 38.83091 ], [ -77.2142, 38.83168 ], [ -77.21371, 38.83184 ], [ -77.21252, 38.83119 ], [ -77.21148, 38.83173 ], [ -77.21625, 38.8322 ] ], [ [ -77.21125, 38.82254 ], [ -77.21171, 38.82229 ], [ -77.2082, 38.8208 ], [ -77.20782, 38.8203 ], [ -77.20799, 38.81963 ], [ -77.20695, 38.81923 ], [ -77.20642, 38.82001 ], [ -77.20731, 38.82035 ], [ -77.20671, 38.82155 ], [ -77.20703, 38.82197 ], [ -77.20782, 38.82189 ], [ -77.20827, 38.82249 ], [ -77.21063, 38.82348 ], [ -77.2113, 38.82336 ], [ -77.21125, 38.82254 ] ], [ [ -77.2144, 38.82801 ], [ -77.21425, 38.82781 ], [ -77.21399, 38.8279 ], [ -77.2144, 38.82801 ] ], [ [ -77.21257, 38.82784 ], [ -77.2126, 38.82786 ], [ -77.2126, 38.82779 ], [ -77.21257, 38.82784 ] ], [ [ -77.21284, 38.83396 ], [ -77.21285, 38.83394 ], [ -77.21278, 38.83393 ], [ -77.21284, 38.83396 ] ], [ [ -77.209, 38.82507 ], [ -77.20747, 38.82442 ], [ -77.20795, 38.82521 ], [ -77.209, 38.82507 ] ], [ [ -77.20523, 38.8176 ], [ -77.20456, 38.8178 ], [ -77.20498, 38.81796 ], [ -77.20523, 38.8176 ] ], [ [ -77.20217, 38.83357 ], [ -77.19946, 38.83318 ], [ -77.20201, 38.834 ], [ -77.20217, 38.83357 ] ], [ [ -77.20011, 38.83188 ], [ -77.19972, 38.83211 ], [ -77.20252, 38.83253 ], [ -77.20011, 38.83188 ] ], [ [ -77.20243, 38.82911 ], [ -77.2025, 38.8291 ], [ -77.20243, 38.829 ], [ -77.20243, 38.82911 ] ], [ [ -77.2001, 38.8274 ], [ -77.19969, 38.82777 ], [ -77.20048, 38.82864 ], [ -77.20131, 38.82836 ], [ -77.20231, 38.82878 ], [ -77.20285, 38.82821 ], [ -77.2001, 38.8274 ] ], [ [ -77.20226, 38.82682 ], [ -77.20238, 38.82668 ], [ -77.20224, 38.82659 ], [ -77.20226, 38.82682 ] ], [ [ -77.20522, 38.83009 ], [ -77.20498, 38.83112 ], [ -77.20565, 38.83123 ], [ -77.20612, 38.83038 ], [ -77.20522, 38.83009 ] ], [ [ -77.20384, 38.82469 ], [ -77.20396, 38.82381 ], [ -77.20281, 38.82334 ], [ -77.20216, 38.82441 ], [ -77.20384, 38.82469 ] ], [ [ -77.20527, 38.82603 ], [ -77.20526, 38.82604 ], [ -77.20528, 38.82605 ], [ -77.20527, 38.82603 ] ], [ [ -77.20379, 38.83044 ], [ -77.20363, 38.83084 ], [ -77.20385, 38.83046 ], [ -77.20383, 38.82998 ], [ -77.20379, 38.83044 ] ], [ [ -77.19856, 38.82928 ], [ -77.19792, 38.83016 ], [ -77.1994, 38.83042 ], [ -77.19982, 38.8296 ], [ -77.19856, 38.82928 ] ], [ [ -77.20084, 38.83051 ], [ -77.20083, 38.83054 ], [ -77.20113, 38.83059 ], [ -77.20084, 38.83051 ] ], [ [ -77.20083, 38.83493 ], [ -77.20131, 38.83493 ], [ -77.2006, 38.8346 ], [ -77.20083, 38.83493 ] ], [ [ -77.19829, 38.83394 ], [ -77.19829, 38.83395 ], [ -77.19922, 38.8343 ], [ -77.19829, 38.83394 ] ] ] } },
{ "type": "Feature", "properties": { "variant": "T0", "miles": 1.5 }, "geometry": { "type": "Polygon", "coordinates": [ [ [ -77.21776, 38.81571 ], [ -77.21812, 38.81584 ], [ -77.21905, 38.81492 ], [ -77.22002, 38.81521 ], [ -77.22015, 38.81587 ], [ -77.21857, 38.81804 ], [ -77.21935, 38.81846 ], [ -77.21912, 38.81991 ], [ -77.21745, 38.82037 ], [ -77.21707, 38.81993 ], [ -77.21673, 38.82039 ], [ -77.21878, 38.82146 ], [ -77.21964, 38.82134 ], [ -77.21947, 38.82002 ], [ -77.2207, 38.81992 ], [ -77.22069, 38.81839 ], [ -77.22165, 38.81824 ], [ -77.22209, 38.8192 ], [ -77.22217, 38.82165 ], [ -77.22149, 38.8243 ], [ -77.21951, 38.82761 ], [ -77.21796, 38.83213 ], [ -77.21672, 38.83324 ], [ -77.2186, 38.83368 ], [ -77.21937, 38.83265 ], [ -77.22076, 38.8327 ], [ -77.22284, 38.83022 ], [ -77.22418, 38.8299 ], [ -77.22465, 38.83011 ], [ -77.22473, 38.83182 ], [ -77.2253, 38.83259 ], [ -77.22472, 38.83486 ], [ -77.22719, 38.83521 ], [ -77.22754, 38.83586 ], [ -77.22701, 38.8363 ], [ -77.2249, 38.83608 ], [ -77.22468, 38.8372 ], [ -77.22246, 38.83734 ], [ -77.22161, 38.83714 ], [ -77.22167, 38.83638 ], [ -77.22333, 38.83602 ], [ -77.2202, 38.83551 ], [ -77.22197, 38.8378 ], [ -77.22255, 38.84081 ], [ -77.22209, 38.84161 ], [ -77.22158, 38.84172 ], [ -77.22098, 38.84112 ], [ -77.2206, 38.83795 ], [ -77.21828, 38.83507 ], [ -77.21649, 38.83461 ], [ -77.21809, 38.83665 ], [ -77.21743, 38.83844 ], [ -77.21813, 38.83897 ], [ -77.2173, 38.83969 ], [ -77.21808, 38.84148 ], [ -77.21799, 38.84189 ], [ -77.21735, 38.8421 ], [ -77.21756, 38.84279 ], [ -77.21722, 38.8431 ], [ -77.21639, 38.84304 ], [ -77.21562, 38.84216 ], [ -77.21418, 38.84156 ], [ -77.21422, 38.84084 ], [ -77.21152, 38.84013 ], [ -77.21103, 38.8414 ], [ -77.21142, 38.84162 ], [ -77.21161, 38.84083 ], [ -77.21208, 38.84064 ], [ -77.21283, 38.84113 ], [ -77.21206, 38.84434 ], [ -77.20783, 38.8458 ], [ -77.20677, 38.84512 ], [ -77.2049, 38.84514 ], [ -77.2039, 38.84443 ], [ -77.20425, 38.84381 ], [ -77.20274, 38.84349 ], [ -77.20216, 38.84288 ], [ -77.20388, 38.84185 ], [ -77.20497, 38.84201 ], [ -77.20556, 38.84251 ], [ -77.20627, 38.84156 ], [ -77.20366, 38.84076 ], [ -77.20304, 38.84106 ], [ -77.20257, 38.84087 ], [ -77.20248, 38.8398 ], [ -77.20197, 38.83951 ], [ -77.19993, 38.83987 ], [ -77.20008, 38.84098 ], [ -77.19913, 38.84117 ], [ -77.19812, 38.83865 ], [ -77.19748, 38.83875 ], [ -77.19678, 38.83818 ], [ -77.19635, 38.83826 ], [ -77.19656, 38.83897 ], [ -77.19561, 38.83915 ], [ -77.19252, 38.83771 ], [ -77.19235, 38.83657 ], [ -77.19341, 38.83539 ], [ -77.19204, 38.83447 ], [ -77.19006, 38.83521 ], [ -77.18942, 38.83463 ], [ -77.18954, 38.83373 ], [ -77.18784, 38.83445 ], [ -77.18683, 38.83422 ], [ -77.18704, 38.83347 ], [ -77.18858, 38.8327 ], [ -77.18841, 38.83164 ], [ -77.18929, 38.82999 ], [ -77.18735, 38.82976 ], [ -77.1869, 38.82954 ], [ -77.18685, 38.82889 ], [ -77.18779, 38.82833 ], [ -77.18973, 38.82867 ], [ -77.19053, 38.828 ], [ -77.18884, 38.82743 ], [ -77.18897, 38.82529 ], [ -77.18801, 38.82505 ], [ -77.18786, 38.82466 ], [ -77.18914, 38.82399 ], [ -77.18775, 38.82331 ], [ -77.18725, 38.82214 ], [ -77.18793, 38.82169 ], [ -77.18963, 38.82168 ], [ -77.18926, 38.8198 ], [ -77.19025, 38.81914 ], [ -77.19137, 38.82034 ], [ -77.19247, 38.82014 ], [ -77.19285, 38.82043 ], [ -77.19286, 38.82084 ], [ -77.19193, 38.82133 ], [ -77.19298, 38.82318 ], [ -77.19818, 38.82147 ], [ -77.20158, 38.82283 ], [ -77.20198, 38.82223 ], [ -77.20082, 38.82142 ], [ -77.2001, 38.8214 ], [ -77.19952, 38.82031 ], [ -77.20116, 38.81814 ], [ -77.20125, 38.81659 ], [ -77.20189, 38.81533 ], [ -77.20092, 38.81565 ], [ -77.20045, 38.81547 ], [ -77.20063, 38.81463 ], [ -77.19921, 38.81414 ], [ -77.19909, 38.81374 ], [ -77.19989, 38.81329 ], [ -77.20107, 38.81357 ], [ -77.2021, 38.81336 ], [ -77.20264, 38.81442 ], [ -77.2025, 38.81119 ], [ -77.20356, 38.81086 ], [ -77.2093, 38.81079 ], [ -77.20882, 38.80969 ], [ -77.20923, 38.809 ], [ -77.20975, 38.80901 ], [ -77.21043, 38.80999 ], [ -77.21152, 38.81013 ], [ -77.21173, 38.81051 ], [ -77.21075, 38.81106 ], [ -77.21044, 38.8124 ], [ -77.21124, 38.81276 ], [ -77.21107, 38.81333 ], [ -77.21718, 38.81343 ], [ -77.21799, 38.81489 ], [ -77.21776, 38.81571 ] ], [ [ -77.20773, 38.84217 ], [ -77.20751, 38.84204 ], [ -77.2057, 38.84413 ], [ -77.20643, 38.84399 ], [ -77.20773, 38.84217 ] ], [ [ -77.20758, 38.83903 ], [ -77.20425, 38.83756 ], [ -77.20448, 38.83679 ], [ -77.20541, 38.83635 ], [ -77.20441, 38.83529 ], [ -77.20393, 38.83639 ], [ -77.2029, 38.83652 ], [ -77.20171, 38.83769 ], [ -77.20102, 38.83746 ], [ -77.19927, 38.83781 ], [ -77.1996, 38.83882 ], [ -77.20248, 38.8385 ], [ -77.20465, 38.83998 ], [ -77.20687, 38.84057 ], [ -77.20758, 38.83903 ] ], [ [ -77.20799, 38.83741 ], [ -77.20893, 38.83628 ], [ -77.20784, 38.83683 ], [ -77.20732, 38.83619 ], [ -77.20832, 38.83441 ], [ -77.20967, 38.83429 ], [ -77.20996, 38.83345 ], [ -77.20806, 38.83321 ], [ -77.20635, 38.83726 ], [ -77.20799, 38.83741 ] ], [ [ -77.20671, 38.83298 ], [ -77.2053, 38.83273 ], [ -77.20448, 38.83507 ], [ -77.20532, 38.83483 ], [ -77.20582, 38.83527 ], [ -77.20671, 38.83298 ] ], [ [ -77.20522, 38.83009 ], [ -77.20498, 38.83112 ], [ -77.20565, 38.83123 ], [ -77.20612, 38.83038 ], [ -77.20522, 38.83009 ] ], [ [ -77.20549, 38.82209 ], [ -77.20531, 38.82162 ], [ -77.20449, 38.82281 ], [ -77.20549, 38.82209 ] ], [ [ -77.20731, 38.82035 ], [ -77.20671, 38.82155 ], [ -77.20703, 38.82197 ], [ -77.20782, 38.82189 ], [ -77.20827, 38.82249 ], [ -77.21123, 38.82354 ], [ -77.21125, 38.82254 ], [ -77.21171, 38.82229 ], [ -77.20813, 38.82075 ], [ -77.20799, 38.81963 ], [ -77.20695, 38.81923 ], [ -77.20645, 38.81999 ], [ -77.20731, 38.82035 ] ], [ [ -77.20523, 38.8176 ], [ -77.20456, 38.8178 ], [ -77.20498, 38.81796 ], [ -77.20523, 38.8176 ] ], [ [ -77.20361, 38.81607 ], [ -77.20357, 38.81525 ], [ -77.20263, 38.81675 ], [ -77.20193, 38.81919 ], [ -77.20176, 38.82063 ], [ -77.20264, 38.82124 ], [ -77.20431, 38.81891 ], [ -77.20324, 38.81823 ], [ -77.20337, 38.81723 ], [ -77.2039, 38.81673 ], [ -77.20507, 38.8165 ], [ -77.20361, 38.81607 ] ], [ [ -77.20657, 38.81568 ], [ -77.20912, 38.81203 ], [ -77.20764, 38.81205 ], [ -77.20736, 38.81396 ], [ -77.20595, 38.81453 ], [ -77.20611, 38.8156 ], [ -77.20657, 38.81568 ] ], [ [ -77.20623, 38.81321 ], [ -77.20625, 38.81206 ], [ -77.20571, 38.81206 ], [ -77.20587, 38.81345 ], [ -77.20623, 38.81321 ] ], [ [ -77.21603, 38.83618 ], [ -77.21542, 38.83562 ], [ -77.21505, 38.83668 ], [ -77.21603, 38.83618 ] ], [ [ -77.21625, 38.8322 ], [ -77.21668, 38.83172 ], [ -77.21692, 38.83098 ], [ -77.21647, 38.83137 ], [ -77.21572, 38.8313 ], [ -77.21533, 38.83102 ], [ -77.21528, 38.82997 ], [ -77.21338, 38.83027 ], [ -77.2142, 38.83091 ], [ -77.2142, 38.83168 ], [ -77.21371, 38.83184 ], [ -77.21252, 38.83119 ], [ -77.21148, 38.83173 ], [ -77.21625, 38.8322 ] ], [ [ -77.2157, 38.82883 ], [ -77.21553, 38.82921 ], [ -77.21584, 38.82907 ], [ -77.2157, 38.82883 ] ], [ [ -77.21257, 38.82784 ], [ -77.2126, 38.82786 ], [ -77.2126, 38.82779 ], [ -77.21257, 38.82784 ] ], [ [ -77.21238, 38.82464 ], [ -77.21025, 38.82452 ], [ -77.21032, 38.82584 ], [ -77.20966, 38.82705 ], [ -77.20869, 38.827 ], [ -77.20863, 38.82624 ], [ -77.20798, 38.8263 ], [ -77.20811, 38.82676 ], [ -77.2073, 38.82712 ], [ -77.20706, 38.82779 ], [ -77.20855, 38.82776 ], [ -77.20951, 38.82872 ], [ -77.20974, 38.82839 ], [ -77.21054, 38.82839 ], [ -77.21008, 38.82747 ], [ -77.21118, 38.82731 ], [ -77.21166, 38.8265 ], [ -77.21146, 38.82568 ], [ -77.2123, 38.8254 ], [ -77.21238, 38.82464 ] ], [ [ -77.21372, 38.81782 ], [ -77.21273, 38.81743 ], [ -77.21351, 38.81786 ], [ -77.21372, 38.81782 ] ], [ [ -77.2166, 38.82787 ], [ -77.217, 38.82856 ], [ -77.21637, 38.82907 ], [ -77.21755, 38.82935 ], [ -77.21778, 38.82856 ], [ -77.2166, 38.82787 ] ], [ [ -77.21359, 38.82319 ], [ -77.21379, 38.82421 ], [ -77.21428, 38.82366 ], [ -77.21554, 38.82354 ], [ -77.21625, 38.82248 ], [ -77.21444, 38.82172 ], [ -77.21359, 38.82319 ] ], [ [ -77.21467, 38.8185 ], [ -77.21466, 38.81848 ], [ -77.2144, 38.81859 ], [ -77.21467, 38.8185 ] ], [ [ -77.22058, 38.82256 ], [ -77.22063, 38.82232 ], [ -77.2206, 38.82225 ], [ -77.22022, 38.8224 ], [ -77.22058, 38.82256 ] ], [ [ -77.21945, 38.82524 ], [ -77.21962, 38.82498 ], [ -77.21926, 38.82491 ], [ -77.21868, 38.82497 ], [ -77.21945, 38.82524 ] ], [ [ -77.21587, 38.81761 ], [ -77.21559, 38.81751 ], [ -77.21555, 38.81762 ], [ -77.21587, 38.81761 ] ], [ [ -77.22252, 38.83251 ], [ -77.22163, 38.83438 ], [ -77.22338, 38.83458 ], [ -77.22392, 38.83271 ], [ -77.22252, 38.83251 ] ], [ [ -77.22027, 38.83417 ], [ -77.22037, 38.83375 ], [ -77.2201, 38.83373 ], [ -77.22027, 38.83417 ] ], [ [ -77.21399, 38.8279 ], [ -77.21408, 38.82815 ], [ -77.2144, 38.82801 ], [ -77.21399, 38.8279 ] ], [ [ -77.21336, 38.81933 ], [ -77.21334, 38.81931 ], [ -77.21334, 38.81932 ], [ -77.21336, 38.81933 ] ], [ [ -77.21309, 38.81636 ], [ -77.21317, 38.81639 ], [ -77.21317, 38.81634 ], [ -77.21309, 38.81636 ] ], [ [ -77.21332, 38.83778 ], [ -77.21167, 38.83796 ], [ -77.21132, 38.83724 ], [ -77.21247, 38.83678 ], [ -77.21213, 38.83631 ], [ -77.21056, 38.83592 ], [ -77.20921, 38.83829 ], [ -77.21144, 38.83914 ], [ -77.21262, 38.83919 ], [ -77.21332, 38.83778 ] ], [ [ -77.21285, 38.83394 ], [ -77.21278, 38.83393 ], [ -77.21284, 38.83396 ], [ -77.21285, 38.83394 ] ], [ [ -77.20953, 38.83069 ], [ -77.20836, 38.8304 ], [ -77.20755, 38.83051 ], [ -77.20701, 38.83149 ], [ -77.21002, 38.83206 ], [ -77.20953, 38.83069 ] ], [ [ -77.21418, 38.83423 ], [ -77.21356, 38.83599 ], [ -77.21383, 38.83605 ], [ -77.21418, 38.83423 ] ], [ [ -77.21137, 38.818 ], [ -77.21131, 38.81828 ], [ -77.21143, 38.81822 ], [ -77.21137, 38.818 ] ], [ [ -77.21014, 38.84223 ], [ -77.20896, 38.84271 ], [ -77.20903, 38.84423 ], [ -77.21094, 38.84364 ], [ -77.21116, 38.84272 ], [ -77.21014, 38.84223 ] ], [ [ -77.21019, 38.83982 ], [ -77.2089, 38.83936 ], [ -77.20812, 38.84104 ], [ -77.2089, 38.84152 ], [ -77.20977, 38.84091 ], [ -77.21019, 38.83982 ] ], [ [ -77.20795, 38.82521 ], [ -77.20896, 38.82533 ], [ -77.20747, 38.82442 ], [ -77.20795, 38.82521 ] ], [ [ -77.20773, 38.81833 ], [ -77.20772, 38.81812 ], [ -77.20761, 38.81828 ], [ -77.20773, 38.81833 ] ], [ [ -77.20267, 38.83623 ], [ -77.20279, 38.83572 ], [ -77.20163, 38.83623 ], [ -77.20267, 38.83623 ] ], [ [ -77.19863, 38.83551 ], [ -77.19853, 38.83548 ], [ -77.19872, 38.83609 ], [ -77.19967, 38.83591 ], [ -77.19863, 38.83551 ] ], [ [ -77.20103, 38.83495 ], [ -77.20131, 38.83493 ], [ -77.20057, 38.83459 ], [ -77.20103, 38.83495 ] ], [ [ -77.20201, 38.834 ], [ -77.20217, 38.83357 ], [ -77.19946, 38.83318 ], [ -77.20201, 38.834 ] ], [ [ -77.20252, 38.83253 ], [ -77.20263, 38.83229 ], [ -77.20011, 38.83188 ], [ -77.19972, 38.83211 ], [ -77.20252, 38.83253 ] ], [ [ -77.19856, 38.82928 ], [ -77.19792, 38.83016 ], [ -77.1994, 38.83042 ], [ -77.19982, 38.8296 ], [ -77.19856, 38.82928 ] ], [ [ -77.19518, 38.82917 ], [ -77.19516, 38.82968 ], [ -77.19638, 38.82989 ], [ -77.19692, 38.82908 ], [ -77.19518, 38.82917 ] ], [ [ -77.1978, 38.82799 ], [ -77.19779, 38.82783 ], [ -77.19704, 38.82719 ], [ -77.19659, 38.82725 ], [ -77.19635, 38.82802 ], [ -77.1978, 38.82799 ] ], [ [ -77.19508, 38.82603 ], [ -77.19506, 38.82606 ], [ -77.19516, 38.82603 ], [ -77.19508, 38.82603 ] ], [ [ -77.19985, 38.82534 ], [ -77.20092, 38.82379 ], [ -77.19823, 38.82257 ], [ -77.1965, 38.82317 ], [ -77.19626, 38.82365 ], [ -77.19985, 38.82534 ] ], [ [ -77.2025, 38.8291 ], [ -77.20243, 38.829 ], [ -77.20243, 38.82911 ], [ -77.2025, 38.8291 ] ], [ [ -77.20257, 38.82814 ], [ -77.20258, 38.82835 ], [ -77.2029, 38.82821 ], [ -77.20257, 38.82814 ] ], [ [ -77.20432, 38.81208 ], [ -77.20375, 38.81209 ], [ -77.20412, 38.81425 ], [ -77.20455, 38.81439 ], [ -77.20432, 38.81208 ] ], [ [ -77.20396, 38.82381 ], [ -77.20281, 38.82334 ], [ -77.20203, 38.82445 ], [ -77.20374, 38.82468 ], [ -77.20396, 38.82381 ] ], [ [ -77.20526, 38.82604 ], [ -77.20528, 38.82605 ], [ -77.20527, 38.82603 ], [ -77.20526, 38.82604 ] ], [ [ -77.20363, 38.83084 ], [ -77.20385, 38.83046 ], [ -77.20383, 38.82998 ], [ -77.20363, 38.83084 ] ], [ [ -77.20155, 38.82779 ], [ -77.20139, 38.82766 ], [ -77.20136, 38.82769 ], [ -77.20155, 38.82779 ] ], [ [ -77.20084, 38.83051 ], [ -77.20083, 38.83054 ], [ -77.20113, 38.83059 ], [ -77.20084, 38.83051 ] ], [ [ -77.19756, 38.83691 ], [ -77.19752, 38.83678 ], [ -77.19467, 38.83728 ], [ -77.19756, 38.83691 ] ], [ [ -77.19651, 38.83585 ], [ -77.19718, 38.83573 ], [ -77.19718, 38.8357 ], [ -77.19651, 38.83585 ] ], [ [ -77.19512, 38.83551 ], [ -77.19548, 38.83495 ], [ -77.19443, 38.83464 ], [ -77.1953, 38.83606 ], [ -77.19569, 38.83594 ], [ -77.19512, 38.83551 ] ], [ [ -77.19643, 38.834 ], [ -77.19433, 38.83315 ], [ -77.19425, 38.8334 ], [ -77.19643, 38.834 ] ], [ [ -77.19345, 38.83217 ], [ -77.19346, 38.83218 ], [ -77.19348, 38.83216 ], [ -77.19345, 38.83217 ] ], [ [ -77.19075, 38.83022 ], [ -77.1907, 38.8304 ], [ -77.19228, 38.83131 ], [ -77.19361, 38.83073 ], [ -77.19075, 38.83022 ] ], [ [ -77.19189, 38.82877 ], [ -77.19124, 38.82893 ], [ -77.19372, 38.82926 ], [ -77.19189, 38.82877 ] ], [ [ -77.19561, 38.83131 ], [ -77.19578, 38.83139 ], [ -77.19577, 38.83132 ], [ -77.19561, 38.83131 ] ], [ [ -77.19765, 38.83277 ], [ -77.19794, 38.83268 ], [ -77.19842, 38.8316 ], [ -77.19716, 38.83123 ], [ -77.19765, 38.83277 ] ], [ [ -77.19125, 38.8228 ], [ -77.1908, 38.822 ], [ -77.19059, 38.82203 ], [ -77.19125, 38.8228 ] ], [ [ -77.18905, 38.82282 ], [ -77.18928, 38.8229 ], [ -77.18879, 38.8226 ], [ -77.18905, 38.82282 ] ], [ [ -77.1901, 38.83219 ], [ -77.19091, 38.83188 ], [ -77.19024, 38.83148 ], [ -77.1901, 38.83219 ] ], [ [ -77.1909, 38.83338 ], [ -77.19089, 38.83315 ], [ -77.19075, 38.83321 ], [ -77.1909, 38.83338 ] ] ] } },
{ "type": "Feature", "properties": { "variant": "T2s", "miles": 0.5 }, "geometry": { "type": "Polygon", "coordinates": [ [ [ -77.21049, 38.82721 ], [ -77.21295, 38.82815 ], [ -77.21271, 38.82925 ], [ -77.21197, 38.8295 ], [ -77.21345, 38.83052 ], [ -77.21315, 38.831 ], [ -77.21148, 38.83173 ], [ -77.21164, 38.83249 ], [ -77.21077, 38.83322 ], [ -77.21029, 38.83305 ], [ -77.20953, 38.83069 ], [ -77.20655, 38.83051 ], [ -77.20406, 38.82988 ], [ -77.20377, 38.82838 ], [ -77.20286, 38.82819 ], [ -77.20362, 38.82626 ], [ -77.20341, 38.8257 ], [ -77.20448, 38.82489 ], [ -77.20372, 38.82459 ], [ -77.20373, 38.82417 ], [ -77.20474, 38.82307 ], [ -77.20485, 38.8224 ], [ -77.20603, 38.82155 ], [ -77.20655, 38.8215 ], [ -77.20712, 38.82201 ], [ -77.20782, 38.82189 ], [ -77.20826, 38.82236 ], [ -77.20798, 38.82341 ], [ -77.21037, 38.82473 ], [ -77.20966, 38.82705 ], [ -77.20869, 38.827 ], [ -77.20863, 38.82624 ], [ -77.20798, 38.8263 ], [ -77.20811, 38.82676 ], [ -77.2073, 38.82712 ], [ -77.20706, 38.82779 ], [ -77.20855, 38.82776 ], [ -77.20951, 38.82872 ], [ -77.20974, 38.82839 ], [ -77.21054, 38.82839 ], [ -77.21003, 38.82788 ], [ -77.21049, 38.82721 ] ], [ [ -77.20896, 38.82533 ], [ -77.20737, 38.82459 ], [ -77.20795, 38.82521 ], [ -77.20896, 38.82533 ] ], [ [ -77.20527, 38.82603 ], [ -77.20526, 38.82604 ], [ -77.20528, 38.82605 ], [ -77.20527, 38.82603 ] ] ] } },
{ "type": "Feature", "properties": { "variant": "T2s", "miles": 1.0 }, "geometry": { "type": "Polygon", "coordinates": [ [ [ -77.21471, 38.81984 ], [ -77.21542, 38.82036 ], [ -77.21526, 38.82146 ], [ -77.21447, 38.82168 ], [ -77.21365, 38.82299 ], [ -77.21379, 38.82421 ], [ -77.21428, 38.82366 ], [ -77.21554, 38.82354 ], [ -77.21654, 38.8221 ], [ -77.21732, 38.82177 ], [ -77.21793, 38.82236 ], [ -77.21685, 38.82404 ], [ -77.21842, 38.82314 ], [ -77.21891, 38.82381 ], [ -77.21868, 38.82497 ], [ -77.22042, 38.8258 ], [ -77.21793, 38.83219 ], [ -77.21672, 38.83324 ], [ -77.21925, 38.83383 ], [ -77.21973, 38.8345 ], [ -77.2194, 38.83483 ], [ -77.21219, 38.83339 ], [ -77.19722, 38.83114 ], [ -77.19659, 38.83162 ], [ -77.19595, 38.83146 ], [ -77.19548, 38.83037 ], [ -77.19646, 38.82999 ], [ -77.20431, 38.81891 ], [ -77.20317, 38.81804 ], [ -77.20375, 38.81681 ], [ -77.20599, 38.81651 ], [ -77.2067, 38.81583 ], [ -77.20752, 38.81616 ], [ -77.20824, 38.81545 ], [ -77.20877, 38.8155 ], [ -77.20904, 38.81623 ], [ -77.20761, 38.81828 ], [ -77.21018, 38.81866 ], [ -77.2103, 38.81942 ], [ -77.20939, 38.81967 ], [ -77.20928, 38.82004 ], [ -77.21187, 38.82113 ], [ -77.21286, 38.81999 ], [ -77.21471, 38.81984 ] ], [ [ -77.21002, 38.83206 ], [ -77.20953, 38.83069 ], [ -77.20755, 38.83051 ], [ -77.20701, 38.83149 ], [ -77.21002, 38.83206 ] ], [ [ -77.20951, 38.82872 ], [ -77.20974, 38.82839 ], [ -77.21054, 38.82839 ], [ -77.21008, 38.82747 ], [ -77.21118, 38.82731 ], [ -77.21166, 38.8265 ], [ -77.21146, 38.82568 ], [ -77.21222, 38.82555 ], [ -77.21238, 38.82464 ], [ -77.21025, 38.82452 ], [ -77.21032, 38.82584 ], [ -77.20966, 38.82705 ], [ -77.20869, 38.827 ], [ -77.20863, 38.82624 ], [ -77.20798, 38.8263 ], [ -77.20811, 38.82676 ], [ -77.2073, 38.82712 ], [ -77.20706, 38.82779 ], [ -77.20855, 38.82776 ], [ -77.20951, 38.82872 ] ], [ [ -77.209, 38.82507 ], [ -77.20747, 38.82442 ], [ -77.20795, 38.82521 ], [ -77.209, 38.82507 ] ], [ [ -77.21123, 38.82354 ], [ -77.21125, 38.82254 ], [ -77.21171, 38.82229 ], [ -77.2082, 38.8208 ], [ -77.20782, 38.8203 ], [ -77.20799, 38.81963 ], [ -77.20695, 38.81923 ], [ -77.20642, 38.82001 ], [ -77.20731, 38.82035 ], [ -77.20671, 38.82155 ], [ -77.20703, 38.82197 ], [ -77.20782, 38.82189 ], [ -77.20827, 38.82249 ], [ -77.21123, 38.82354 ] ], [ [ -77.21625, 38.8322 ], [ -77.21665, 38.83179 ], [ -77.21778, 38.82856 ], [ -77.2166, 38.82787 ], [ -77.21679, 38.82894 ], [ -77.2157, 38.82883 ], [ -77.21544, 38.8299 ], [ -77.21338, 38.83027 ], [ -77.2142, 38.83091 ], [ -77.2142, 38.83168 ], [ -77.21371, 38.83184 ], [ -77.21252, 38.83119 ], [ -77.21148, 38.83173 ], [ -77.21625, 38.8322 ] ], [ [ -77.21425, 38.82781 ], [ -77.21399, 38.8279 ], [ -77.21408, 38.82815 ], [ -77.21425, 38.82781 ] ], [ [ -77.2126, 38.82786 ], [ -77.2126, 38.82779 ], [ -77.21257, 38.82784 ], [ -77.2126, 38.82786 ] ], [ [ -77.20522, 38.83009 ], [ -77.20498, 38.83112 ], [ -77.20565, 38.83123 ], [ -77.20612, 38.83038 ], [ -77.20522, 38.83009 ] ], [ [ -77.20384, 38.82469 ], [ -77.20396, 38.82381 ], [ -77.20281, 38.82334 ], [ -77.20208, 38.82443 ], [ -77.20384, 38.82469 ] ], [ [ -77.20528, 38.82605 ], [ -77.20527, 38.82603 ], [ -77.20526, 38.82604 ], [ -77.20528, 38.82605 ] ], [ [ -77.20549, 38.82209 ], [ -77.20531, 38.82162 ], [ -77.20449, 38.82281 ], [ -77.20549, 38.82209 ] ], [ [ -77.20523, 38.8176 ], [ -77.20456, 38.8178 ], [ -77.20498, 38.81796 ], [ -77.20523, 38.8176 ] ], [ [ -77.20084, 38.83051 ], [ -77.20083, 38.83054 ], [ -77.20113, 38.83059 ], [ -77.20084, 38.83051 ] ], [ [ -77.2025, 38.8291 ], [ -77.20243, 38.829 ], [ -77.20243, 38.82911 ], [ -77.2025, 38.8291 ] ], [ [ -77.2001, 38.8274 ], [ -77.19969, 38.82777 ], [ -77.20048, 38.82864 ], [ -77.20131, 38.82836 ], [ -77.20231, 38.82878 ], [ -77.2029, 38.82821 ], [ -77.2001, 38.8274 ] ], [ [ -77.20379, 38.83044 ], [ -77.20363, 38.83084 ], [ -77.20385, 38.83046 ], [ -77.20383, 38.82999 ], [ -77.20379, 38.83044 ] ], [ [ -77.20211, 38.8267 ], [ -77.20226, 38.82682 ], [ -77.20238, 38.82668 ], [ -77.20211, 38.8267 ] ], [ [ -77.19856, 38.82928 ], [ -77.19792, 38.83016 ], [ -77.1994, 38.83042 ], [ -77.19982, 38.8296 ], [ -77.19856, 38.82928 ] ] ] } },
{ "type": "Feature", "properties": { "variant": "T2s", "miles": 1.5 }, "geometry": { "type": "Polygon", "coordinates": [ [ [ -77.21776, 38.81571 ], [ -77.21812, 38.81584 ], [ -77.21905, 38.81492 ], [ -77.22002, 38.81521 ], [ -77.22015, 38.81587 ], [ -77.21857, 38.81804 ], [ -77.21935, 38.81846 ], [ -77.21912, 38.81991 ], [ -77.21745, 38.82037 ], [ -77.21707, 38.81993 ], [ -77.21673, 38.82039 ], [ -77.21878, 38.82146 ], [ -77.21964, 38.82134 ], [ -77.21947, 38.82002 ], [ -77.2207, 38.81992 ], [ -77.22069, 38.81839 ], [ -77.22165, 38.81824 ], [ -77.22209, 38.8192 ], [ -77.22217, 38.82165 ], [ -77.22149, 38.8243 ], [ -77.21951, 38.82761 ], [ -77.21796, 38.83213 ], [ -77.21672, 38.83324 ], [ -77.2186, 38.83368 ], [ -77.21937, 38.83265 ], [ -77.22076, 38.8327 ], [ -77.22284, 38.83022 ], [ -77.22418, 38.8299 ], [ -77.22479, 38.8305 ], [ -77.22461, 38.83251 ], [ -77.22249, 38.8325 ], [ -77.22162, 38.83358 ], [ -77.2201, 38.83373 ], [ -77.21993, 38.83406 ], [ -77.22178, 38.83468 ], [ -77.22153, 38.83542 ], [ -77.22009, 38.83527 ], [ -77.22194, 38.83767 ], [ -77.22255, 38.84071 ], [ -77.22209, 38.84161 ], [ -77.22112, 38.84152 ], [ -77.2206, 38.83796 ], [ -77.21822, 38.83472 ], [ -77.21742, 38.83452 ], [ -77.21219, 38.83339 ], [ -77.20419, 38.83254 ], [ -77.20322, 38.83524 ], [ -77.20251, 38.83592 ], [ -77.20073, 38.83624 ], [ -77.19853, 38.83548 ], [ -77.19929, 38.83786 ], [ -77.19879, 38.83852 ], [ -77.19795, 38.83813 ], [ -77.19718, 38.8357 ], [ -77.19555, 38.8359 ], [ -77.19512, 38.83551 ], [ -77.19548, 38.83495 ], [ -77.19443, 38.83464 ], [ -77.19492, 38.8356 ], [ -77.19418, 38.83611 ], [ -77.19367, 38.836 ], [ -77.19349, 38.83544 ], [ -77.19204, 38.83447 ], [ -77.19108, 38.83459 ], [ -77.19044, 38.83513 ], [ -77.18994, 38.83499 ], [ -77.18954, 38.83373 ], [ -77.18895, 38.834 ], [ -77.18818, 38.83357 ], [ -77.18805, 38.83304 ], [ -77.18858, 38.8327 ], [ -77.18841, 38.83164 ], [ -77.18929, 38.82999 ], [ -77.18735, 38.82976 ], [ -77.1869, 38.82954 ], [ -77.18685, 38.82889 ], [ -77.18779, 38.82833 ], [ -77.18973, 38.82867 ], [ -77.19142, 38.82772 ], [ -77.1938, 38.82798 ], [ -77.19221, 38.8245 ], [ -77.19256, 38.82379 ], [ -77.19309, 38.82378 ], [ -77.19381, 38.82465 ], [ -77.19494, 38.82432 ], [ -77.19589, 38.82491 ], [ -77.19761, 38.82449 ], [ -77.19985, 38.82534 ], [ -77.20431, 38.81891 ], [ -77.20323, 38.81819 ], [ -77.20344, 38.8171 ], [ -77.2041, 38.81666 ], [ -77.20599, 38.81651 ], [ -77.20956, 38.81099 ], [ -77.21053, 38.8109 ], [ -77.21078, 38.81127 ], [ -77.21044, 38.8124 ], [ -77.21124, 38.81276 ], [ -77.21107, 38.81333 ], [ -77.21718, 38.81343 ], [ -77.21799, 38.81489 ], [ -77.21776, 38.81571 ] ], [ [ -77.20565, 38.83123 ], [ -77.20612, 38.83038 ], [ -77.20522, 38.83009 ], [ -77.20525, 38.83116 ], [ -77.20565, 38.83123 ] ], [ [ -77.20549, 38.82209 ], [ -77.20531, 38.82162 ], [ -77.20449, 38.82281 ], [ -77.20549, 38.82209 ] ], [ [ -77.21625, 38.8322 ], [ -77.21692, 38.83098 ], [ -77.21647, 38.83137 ], [ -77.21572, 38.8313 ], [ -77.21533, 38.83102 ], [ -77.21528, 38.82997 ], [ -77.21423, 38.83006 ], [ -77.21338, 38.83027 ], [ -77.2142, 38.83091 ], [ -77.2142, 38.83168 ], [ -77.21371, 38.83184 ], [ -77.21252, 38.83119 ], [ -77.21148, 38.83173 ], [ -77.21427, 38.83224 ], [ -77.21625, 38.8322 ] ], [ [ -77.2126, 38.82786 ], [ -77.2126, 38.82779 ], [ -77.21257, 38.82784 ], [ -77.2126, 38.82786 ] ], [ [ -77.21372, 38.81782 ], [ -77.21273, 38.81743 ], [ -77.21351, 38.81786 ], [ -77.21372, 38.81782 ] ], [ [ -77.21317, 38.81632 ], [ -77.21309, 38.81636 ], [ -77.21317, 38.81639 ], [ -77.21317, 38.81632 ] ], [ [ -77.2166, 38.82787 ], [ -77.217, 38.82856 ], [ -77.21637, 38.82907 ], [ -77.21755, 38.82935 ], [ -77.21778, 38.82856 ], [ -77.2166, 38.82787 ] ], [ [ -77.21359, 38.82319 ], [ -77.21379, 38.82421 ], [ -77.21428, 38.82366 ], [ -77.21554, 38.82354 ], [ -77.21625, 38.82248 ], [ -77.21444, 38.82172 ], [ -77.21359, 38.82319 ] ], [ [ -77.22022, 38.8224 ], [ -77.22009, 38.82242 ], [ -77.22058, 38.82256 ], [ -77.22022, 38.8224 ] ], [ [ -77.21945, 38.82524 ], [ -77.21962, 38.82498 ], [ -77.21926, 38.82491 ], [ -77.21868, 38.82497 ], [ -77.21945, 38.82524 ] ], [ [ -77.21573, 38.81778 ], [ -77.21587, 38.81761 ], [ -77.21559, 38.81751 ], [ -77.21573, 38.81778 ] ], [ [ -77.21466, 38.81848 ], [ -77.2144, 38.81859 ], [ -77.2144, 38.8186 ], [ -77.21466, 38.81848 ] ], [ [ -77.21408, 38.82815 ], [ -77.2144, 38.82801 ], [ -77.21425, 38.82781 ], [ -77.21408, 38.82815 ] ], [ [ -77.21584, 38.82907 ], [ -77.21617, 38.82905 ], [ -77.2157, 38.82883 ], [ -77.21553, 38.82921 ], [ -77.21584, 38.82907 ] ], [ [ -77.20953, 38.83069 ], [ -77.20836, 38.8304 ], [ -77.20755, 38.83051 ], [ -77.20701, 38.83149 ], [ -77.20992, 38.83186 ], [ -77.20953, 38.83069 ] ], [ [ -77.21049, 38.82721 ], [ -77.21118, 38.82731 ], [ -77.21166, 38.8265 ], [ -77.21146, 38.82568 ], [ -77.21222, 38.82555 ], [ -77.21238, 38.82464 ], [ -77.21025, 38.82452 ], [ -77.21032, 38.82584 ], [ -77.20966, 38.82705 ], [ -77.20869, 38.827 ], [ -77.20863, 38.82624 ], [ -77.20798, 38.8263 ], [ -77.20811, 38.82676 ], [ -77.2073, 38.82712 ], [ -77.20706, 38.82779 ], [ -77.20855, 38.82776 ], [ -77.20951, 38.82872 ], [ -77.20974, 38.82839 ], [ -77.21054, 38.82839 ], [ -77.21003, 38.82788 ], [ -77.21049, 38.82721 ] ], [ [ -77.21123, 38.82354 ], [ -77.21125, 38.82254 ], [ -77.21171, 38.82229 ], [ -77.2082, 38.8208 ], [ -77.20782, 38.8203 ], [ -77.20799, 38.81963 ], [ -77.20695, 38.81923 ], [ -77.20642, 38.82001 ], [ -77.20731, 38.82035 ], [ -77.20671, 38.82155 ], [ -77.20703, 38.82197 ], [ -77.20782, 38.82189 ], [ -77.20827, 38.82249 ], [ -77.21123, 38.82354 ] ], [ [ -77.21137, 38.81817 ], [ -77.21131, 38.81828 ], [ -77.21159, 38.81812 ], [ -77.21137, 38.81817 ] ], [ [ -77.20737, 38.82459 ], [ -77.20795, 38.82521 ], [ -77.20896, 38.82533 ], [ -77.20737, 38.82459 ] ], [ [ -77.20761, 38.81828 ], [ -77.20773, 38.81833 ], [ -77.20772, 38.8182 ], [ -77.20761, 38.81828 ] ], [ [ -77.20508, 38.81781 ], [ -77.20523, 38.8176 ], [ -77.20462, 38.81767 ], [ -77.20508, 38.81781 ] ], [ [ -77.20527, 38.82603 ], [ -77.20526, 38.82604 ], [ -77.20528, 38.82605 ], [ -77.20527, 38.82603 ] ], [ [ -77.19842, 38.8316 ], [ -77.19716, 38.83123 ], [ -77.19765, 38.83277 ], [ -77.19842, 38.8316 ] ], [ [ -77.19704, 38.82719 ], [ -77.19659, 38.82725 ], [ -77.19623, 38.82803 ], [ -77.19779, 38.82783 ], [ -77.19704, 38.82719 ] ], [ [ -77.20053, 38.83481 ], [ -77.20131, 38.83493 ], [ -77.2009, 38.83473 ], [ -77.20053, 38.83481 ] ], [ [ -77.20201, 38.834 ], [ -77.20217, 38.83357 ], [ -77.19946, 38.83318 ], [ -77.20201, 38.834 ] ], [ [ -77.20011, 38.83188 ], [ -77.19972, 38.83211 ], [ -77.20252, 38.83253 ], [ -77.20011, 38.83188 ] ], [ [ -77.20084, 38.83051 ], [ -77.20083, 38.83054 ], [ -77.20113, 38.83059 ], [ -77.20084, 38.83051 ] ], [ [ -77.20138, 38.82794 ], [ -77.20155, 38.82779 ], [ -77.20136, 38.82769 ], [ -77.20138, 38.82794 ] ], [ [ -77.20243, 38.82911 ], [ -77.2025, 38.8291 ], [ -77.20243, 38.829 ], [ -77.20243, 38.82911 ] ], [ [ -77.20281, 38.82334 ], [ -77.20203, 38.82445 ], [ -77.20384, 38.82469 ], [ -77.20387, 38.82395 ], [ -77.20281, 38.82334 ] ], [ [ -77.20258, 38.82835 ], [ -77.2029, 38.82821 ], [ -77.20284, 38.82809 ], [ -77.20258, 38.82835 ] ], [ [ -77.20363, 38.83084 ], [ -77.20385, 38.83046 ], [ -77.20383, 38.82998 ], [ -77.20363, 38.83084 ] ], [ [ -77.19792, 38.83016 ], [ -77.1994, 38.83042 ], [ -77.19982, 38.8296 ], [ -77.19863, 38.8293 ], [ -77.19792, 38.83016 ] ], [ [ -77.19584, 38.83379 ], [ -77.19433, 38.83315 ], [ -77.19514, 38.8338 ], [ -77.19626, 38.83395 ], [ -77.19584, 38.83379 ] ], [ [ -77.19075, 38.83022 ], [ -77.1901, 38.83219 ], [ -77.1937, 38.83087 ], [ -77.19075, 38.83022 ] ], [ [ -77.19185, 38.82877 ], [ -77.19107, 38.82904 ], [ -77.19371, 38.82944 ], [ -77.19373, 38.82908 ], [ -77.19185, 38.82877 ] ], [ [ -77.19514, 38.82594 ], [ -77.19506, 38.82606 ], [ -77.19516, 38.82603 ], [ -77.19514, 38.82594 ] ], [ [ -77.19516, 38.82968 ], [ -77.19638, 38.82989 ], [ -77.19697, 38.82907 ], [ -77.19518, 38.82917 ], [ -77.19516, 38.82968 ] ], [ [ -77.19578, 38.83139 ], [ -77.19576, 38.83126 ], [ -77.19561, 38.83131 ], [ -77.19578, 38.83139 ] ], [ [ -77.19346, 38.83218 ], [ -77.19348, 38.83216 ], [ -77.19345, 38.83217 ], [ -77.19346, 38.83218 ] ], [ [ -77.1909, 38.83338 ], [ -77.19089, 38.83315 ], [ -77.19075, 38.83321 ], [ -77.1909, 38.83338 ] ] ] } }
]
}
