{
"type": "FeatureCollection",
"name": "147",
"crs": { "type": "name", "properties": { "name": "urn:ogc:def:crs:OGC:1.3:CRS84" } },
"xy_coordinate_resolution": 1e-05,
"features": [
{ "type": "Feature", "properties": { "variant": "T0", "miles": 0.5 }, "geometry": { "type": "Polygon", "coordinates": [ [ [ -77.2184, 38.81778 ], [ -77.21935, 38.81846 ], [ -77.21909, 38.81914 ], [ -77.22109, 38.82045 ], [ -77.22091, 38.82193 ], [ -77.22009, 38.82242 ], [ -77.22087, 38.82272 ], [ -77.22075, 38.8238 ], [ -77.22017, 38.8248 ], [ -77.21866, 38.82491 ], [ -77.21873, 38.82577 ], [ -77.21735, 38.82628 ], [ -77.21696, 38.82716 ], [ -77.21508, 38.82733 ], [ -77.21472, 38.82662 ], [ -77.21538, 38.82539 ], [ -77.21484, 38.82563 ], [ -77.21419, 38.82528 ], [ -77.21268, 38.82524 ], [ -77.21212, 38.82419 ], [ -77.2112, 38.82389 ], [ -77.21125, 38.82254 ], [ -77.21171, 38.82229 ], [ -77.2099, 38.82135 ], [ -77.21036, 38.82067 ], [ -77.21187, 38.82113 ], [ -77.21286, 38.81999 ], [ -77.21361, 38.82004 ], [ -77.21303, 38.81897 ], [ -77.21076, 38.81766 ], [ -77.21059, 38.8169 ], [ -77.21155, 38.81677 ], [ -77.21366, 38.81796 ], [ -77.21317, 38.81729 ], [ -77.21376, 38.81668 ], [ -77.21573, 38.81778 ], [ -77.21538, 38.81687 ], [ -77.21625, 38.81657 ], [ -77.21646, 38.81591 ], [ -77.21743, 38.81591 ], [ -77.21763, 38.81655 ], [ -77.21821, 38.81599 ], [ -77.21873, 38.81602 ], [ -77.21905, 38.81674 ], [ -77.2184, 38.81778 ] ], [ [ -77.2144, 38.8186 ], [ -77.21466, 38.81848 ], [ -77.2144, 38.81859 ], [ -77.2144, 38.8186 ] ], [ [ -77.21673, 38.82039 ], [ -77.21878, 38.82146 ], [ -77.21964, 38.82134 ], [ -77.21932, 38.82059 ], [ -77.21818, 38.8202 ], [ -77.21745, 38.82037 ], [ -77.21707, 38.81993 ], [ -77.21673, 38.82039 ] ], [ [ -77.21394, 38.82414 ], [ -77.21428, 38.82366 ], [ -77.21554, 38.82354 ], [ -77.21625, 38.82248 ], [ -77.21444, 38.82172 ], [ -77.21359, 38.82319 ], [ -77.21394, 38.82414 ] ] ] } },
{ "type": "Feature", "properties": { "variant": "T0", "miles": 1.0 }, "geometry": { "type": "Polygon", "coordinates": [ [ [ -77.21556, 38.81267 ], [ -77.21964, 38.81388 ], [ -77.21997, 38.81509 ], [ -77.22115, 38.81616 ], [ -77.22207, 38.81907 ], [ -77.22216, 38.82179 ], [ -77.22148, 38.82431 ], [ -77.21951, 38.82761 ], [ -77.21861, 38.8304 ], [ -77.21598, 38.83137 ], [ -77.21533, 38.83102 ], [ -77.21528, 38.82997 ], [ -77.21334, 38.83026 ], [ -77.21328, 38.83091 ], [ -77.21148, 38.83173 ], [ -77.21164, 38.83249 ], [ -77.21093, 38.83301 ], [ -77.21045, 38.83284 ], [ -77.20953, 38.83069 ], [ -77.20722, 38.83046 ], [ -77.20611, 38.82989 ], [ -77.20582, 38.8292 ], [ -77.20678, 38.82778 ], [ -77.20855, 38.82776 ], [ -77.20951, 38.82872 ], [ -77.20974, 38.82839 ], [ -77.21054, 38.82839 ], [ -77.21008, 38.82747 ], [ -77.21118, 38.82731 ], [ -77.21166, 38.8265 ], [ -77.21146, 38.82568 ], [ -77.21222, 38.82555 ], [ -77.21239, 38.82464 ], [ -77.21025, 38.82452 ], [ -77.21031, 38.82561 ], [ -77.20953, 38.82608 ], [ -77.20908, 38.82587 ], [ -77.209, 38.82507 ], [ -77.20747, 38.82442 ], [ -77.20798, 38.82517 ], [ -77.20765, 38.82559 ], [ -77.20811, 38.82676 ], [ -77.20777, 38.82708 ], [ -77.20675, 38.82695 ], [ -77.20607, 38.82548 ], [ -77.20476, 38.82654 ], [ -77.20386, 38.82623 ], [ -77.20448, 38.82489 ], [ -77.20372, 38.82459 ], [ -77.20373, 38.82417 ], [ -77.20474, 38.82307 ], [ -77.20485, 38.8224 ], [ -77.20549, 38.82209 ], [ -77.20531, 38.82148 ], [ -77.20454, 38.8216 ], [ -77.20421, 38.82128 ], [ -77.20426, 38.82086 ], [ -77.20539, 38.81922 ], [ -77.20324, 38.81823 ], [ -77.20364, 38.81689 ], [ -77.20516, 38.81652 ], [ -77.20405, 38.8163 ], [ -77.20351, 38.81566 ], [ -77.2038, 38.81532 ], [ -77.2047, 38.81531 ], [ -77.20525, 38.81457 ], [ -77.20604, 38.81501 ], [ -77.20603, 38.81558 ], [ -77.20657, 38.81568 ], [ -77.20846, 38.81299 ], [ -77.20887, 38.81273 ], [ -77.20976, 38.81295 ], [ -77.21052, 38.812 ], [ -77.2118, 38.81158 ], [ -77.21461, 38.81156 ], [ -77.21556, 38.81267 ] ], [ [ -77.21553, 38.82921 ], [ -77.21617, 38.82905 ], [ -77.21549, 38.82899 ], [ -77.21553, 38.82921 ] ], [ [ -77.21399, 38.8279 ], [ -77.2144, 38.82801 ], [ -77.21425, 38.82781 ], [ -77.21399, 38.8279 ] ], [ [ -77.21394, 38.82421 ], [ -77.21428, 38.82366 ], [ -77.21554, 38.82354 ], [ -77.21625, 38.82248 ], [ -77.21444, 38.82172 ], [ -77.21359, 38.82319 ], [ -77.21394, 38.82421 ] ], [ [ -77.2144, 38.8186 ], [ -77.21466, 38.81848 ], [ -77.2144, 38.81859 ], [ -77.2144, 38.8186 ] ], [ [ -77.21366, 38.81796 ], [ -77.21337, 38.81761 ], [ -77.21273, 38.81743 ], [ -77.21366, 38.81796 ] ], [ [ -77.21317, 38.81639 ], [ -77.21317, 38.81632 ], [ -77.21309, 38.81636 ], [ -77.21317, 38.81639 ] ], [ [ -77.21866, 38.82491 ], [ -77.21945, 38.82524 ], [ -77.21962, 38.82498 ], [ -77.21866, 38.82491 ] ], [ [ -77.21587, 38.81761 ], [ -77.21559, 38.81751 ], [ -77.21573, 38.81778 ], [ -77.21587, 38.81761 ] ], [ [ -77.22058, 38.82256 ], [ -77.22042, 38.82234 ], [ -77.22009, 38.82242 ], [ -77.22058, 38.82256 ] ], [ [ -77.21969, 38.82089 ], [ -77.21818, 38.8202 ], [ -77.21745, 38.82037 ], [ -77.21707, 38.81993 ], [ -77.21673, 38.82039 ], [ -77.21878, 38.82146 ], [ -77.21964, 38.82134 ], [ -77.21969, 38.82089 ] ], [ [ -77.21857, 38.81804 ], [ -77.21937, 38.81872 ], [ -77.21993, 38.81842 ], [ -77.21857, 38.81804 ] ], [ [ -77.21822, 38.81576 ], [ -77.21781, 38.81423 ], [ -77.21772, 38.81421 ], [ -77.21776, 38.81571 ], [ -77.21822, 38.81576 ] ], [ [ -77.22022, 38.81851 ], [ -77.22033, 38.81841 ], [ -77.22, 38.81843 ], [ -77.22022, 38.81851 ] ], [ [ -77.21926, 38.81898 ], [ -77.21909, 38.81914 ], [ -77.21939, 38.81925 ], [ -77.21926, 38.81898 ] ], [ [ -77.21755, 38.82935 ], [ -77.21778, 38.82856 ], [ -77.2166, 38.82787 ], [ -77.217, 38.82856 ], [ -77.21637, 38.82907 ], [ -77.21755, 38.82935 ] ], [ [ -77.20827, 38.82249 ], [ -77.21123, 38.82354 ], [ -77.21125, 38.82254 ], [ -77.21171, 38.82229 ], [ -77.2082, 38.8208 ], [ -77.20782, 38.8203 ], [ -77.20799, 38.81963 ], [ -77.20695, 38.81923 ], [ -77.20642, 38.82001 ], [ -77.20731, 38.82035 ], [ -77.20671, 38.82155 ], [ -77.20703, 38.82197 ], [ -77.20782, 38.82189 ], [ -77.20827, 38.82249 ] ], [ [ -77.21137, 38.81817 ], [ -77.21159, 38.81812 ], [ -77.21137, 38.818 ], [ -77.21137, 38.81817 ] ], [ [ -77.21211, 38.81264 ], [ -77.21406, 38.81266 ], [ -77.21402, 38.81259 ], [ -77.21211, 38.81264 ] ], [ [ -77.21334, 38.81931 ], [ -77.21335, 38.81932 ], [ -77.21336, 38.81933 ], [ -77.21334, 38.81931 ] ], [ [ -77.21257, 38.82784 ], [ -77.2126, 38.82786 ], [ -77.2126, 38.82779 ], [ -77.21257, 38.82784 ] ], [ [ -77.20772, 38.8183 ], [ -77.20761, 38.81828 ], [ -77.20773, 38.81833 ], [ -77.20772, 38.8183 ] ], [ [ -77.20513, 38.81761 ], [ -77.20462, 38.81767 ], [ -77.20456, 38.8178 ], [ -77.20498, 38.81796 ], [ -77.20513, 38.81761 ] ] ] } },
{ "type": "Feature", "properties": { "variant": "T0", "miles": 1.5 }, "geometry": { "type": "Polygon", "coordinates": [ [ [ -77.21517, 38.81196 ], [ -77.21556, 38.81267 ], [ -77.2172, 38.81321 ], [ -77.21839, 38.81314 ], [ -77.21952, 38.81373 ], [ -77.21966, 38.81462 ], [ -77.22121, 38.81629 ], [ -77.22211, 38.81934 ], [ -77.22216, 38.82179 ], [ -77.22156, 38.82412 ], [ -77.21951, 38.82761 ], [ -77.21792, 38.83221 ], [ -77.21672, 38.83324 ], [ -77.21925, 38.83383 ], [ -77.21973, 38.8349 ], [ -77.21884, 38.83523 ], [ -77.21584, 38.83445 ], [ -77.21494, 38.8371 ], [ -77.21422, 38.83762 ], [ -77.21213, 38.83631 ], [ -77.21056, 38.83592 ], [ -77.20935, 38.83763 ], [ -77.20913, 38.8387 ], [ -77.20833, 38.83914 ], [ -77.20777, 38.83852 ], [ -77.20791, 38.83766 ], [ -77.20897, 38.83623 ], [ -77.20784, 38.83683 ], [ -77.20732, 38.83619 ], [ -77.20832, 38.83441 ], [ -77.20967, 38.83429 ], [ -77.20996, 38.83345 ], [ -77.20806, 38.83321 ], [ -77.20693, 38.83615 ], [ -77.20607, 38.83652 ], [ -77.2056, 38.83585 ], [ -77.20671, 38.83298 ], [ -77.20419, 38.83254 ], [ -77.2036, 38.83364 ], [ -77.20266, 38.83367 ], [ -77.2022, 38.833 ], [ -77.20263, 38.83229 ], [ -77.20116, 38.8322 ], [ -77.19994, 38.83134 ], [ -77.20014, 38.83059 ], [ -77.20113, 38.83059 ], [ -77.20164, 38.83002 ], [ -77.20168, 38.82919 ], [ -77.2025, 38.8291 ], [ -77.20241, 38.82844 ], [ -77.2029, 38.82821 ], [ -77.20332, 38.82682 ], [ -77.20303, 38.826 ], [ -77.2024, 38.82593 ], [ -77.20133, 38.82772 ], [ -77.2001, 38.8274 ], [ -77.19877, 38.82856 ], [ -77.19794, 38.8281 ], [ -77.19825, 38.82661 ], [ -77.19865, 38.82636 ], [ -77.1977, 38.82608 ], [ -77.19766, 38.82532 ], [ -77.19896, 38.82509 ], [ -77.19985, 38.82534 ], [ -77.20092, 38.82379 ], [ -77.19823, 38.82257 ], [ -77.19729, 38.82274 ], [ -77.19688, 38.82205 ], [ -77.19831, 38.82147 ], [ -77.20158, 38.82283 ], [ -77.20198, 38.82223 ], [ -77.20082, 38.82142 ], [ -77.2001, 38.8214 ], [ -77.19952, 38.82031 ], [ -77.20116, 38.81814 ], [ -77.20125, 38.81659 ], [ -77.20189, 38.81533 ], [ -77.20092, 38.81565 ], [ -77.20045, 38.81547 ], [ -77.20063, 38.81463 ], [ -77.20027, 38.81446 ], [ -77.1994, 38.8149 ], [ -77.19892, 38.81424 ], [ -77.19782, 38.81375 ], [ -77.19783, 38.81334 ], [ -77.19821, 38.81305 ], [ -77.19926, 38.81319 ], [ -77.19953, 38.81104 ], [ -77.20286, 38.81087 ], [ -77.20281, 38.80843 ], [ -77.20321, 38.80762 ], [ -77.20595, 38.80749 ], [ -77.20629, 38.80674 ], [ -77.2068, 38.80664 ], [ -77.20735, 38.80747 ], [ -77.20929, 38.80747 ], [ -77.21213, 38.80587 ], [ -77.21341, 38.8062 ], [ -77.21455, 38.80767 ], [ -77.21541, 38.80961 ], [ -77.2148, 38.81071 ], [ -77.21832, 38.81068 ], [ -77.21901, 38.81122 ], [ -77.21833, 38.81176 ], [ -77.21517, 38.81196 ] ], [ [ -77.21421, 38.8323 ], [ -77.21625, 38.8322 ], [ -77.21692, 38.83098 ], [ -77.21647, 38.83137 ], [ -77.21572, 38.8313 ], [ -77.21533, 38.83102 ], [ -77.21528, 38.82997 ], [ -77.21423, 38.83006 ], [ -77.21338, 38.83027 ], [ -77.2142, 38.83091 ], [ -77.2142, 38.83168 ], [ -77.21371, 38.83184 ], [ -77.21252, 38.83119 ], [ -77.2116, 38.83172 ], [ -77.21421, 38.8323 ] ], [ [ -77.21008, 38.82747 ], [ -77.21118, 38.82731 ], [ -77.21166, 38.8265 ], [ -77.21146, 38.82568 ], [ -77.21222, 38.82555 ], [ -77.21238, 38.82464 ], [ -77.21025, 38.82452 ], [ -77.21032, 38.82584 ], [ -77.20966, 38.82705 ], [ -77.20869, 38.827 ], [ -77.20863, 38.82624 ], [ -77.20798, 38.8263 ], [ -77.20811, 38.82676 ], [ -77.2073, 38.82712 ], [ -77.20706, 38.82779 ], [ -77.20855, 38.82776 ], [ -77.20951, 38.82872 ], [ -77.2106, 38.82829 ], [ -77.21008, 38.82747 ] ], [ [ -77.21125, 38.82254 ], [ -77.21171, 38.82229 ], [ -77.2082, 38.8208 ], [ -77.20782, 38.8203 ], [ -77.20799, 38.81963 ], [ -77.20695, 38.81923 ], [ -77.20642, 38.82001 ], [ -77.20731, 38.82035 ], [ -77.20671, 38.82155 ], [ -77.20703, 38.82197 ], [ -77.20782, 38.82189 ], [ -77.20827, 38.82249 ], [ -77.21123, 38.82348 ], [ -77.21125, 38.82254 ] ], [ [ -77.2157, 38.82883 ], [ -77.21553, 38.82921 ], [ -77.21584, 38.82907 ], [ -77.2157, 38.82883 ] ], [ [ -77.21428, 38.82366 ], [ -77.21554, 38.82354 ], [ -77.21625, 38.82248 ], [ -77.21444, 38.82172 ], [ -77.21359, 38.82319 ], [ -77.21394, 38.82414 ], [ -77.21428, 38.82366 ] ], [ [ -77.21467, 38.8185 ], [ -77.21466, 38.81848 ], [ -77.2144, 38.81859 ], [ -77.21467, 38.8185 ] ], [ [ -77.21573, 38.81778 ], [ -77.21587, 38.81761 ], [ -77.21559, 38.81751 ], [ -77.21573, 38.81778 ] ], [ [ -77.2166, 38.82787 ], [ -77.217, 38.82856 ], [ -77.21637, 38.82907 ], [ -77.21755, 38.82935 ], [ -77.21778, 38.82856 ], [ -77.2166, 38.82787 ] ], [ [ -77.21878, 38.82146 ], [ -77.21964, 38.82134 ], [ -77.21932, 38.82059 ], [ -77.21818, 38.8202 ], [ -77.21745, 38.82037 ], [ -77.21707, 38.81993 ], [ -77.21673, 38.82039 ], [ -77.21752, 38.82096 ], [ -77.21811, 38.8209 ], [ -77.21878, 38.82146 ] ], [ [ -77.21937, 38.81872 ], [ -77.21993, 38.81842 ], [ -77.21857, 38.81804 ], [ -77.21937, 38.81872 ] ], [ [ -77.21781, 38.81423 ], [ -77.21772, 38.81421 ], [ -77.21776, 38.81571 ], [ -77.21822, 38.81576 ], [ -77.21781, 38.81423 ] ], [ [ -77.21926, 38.81898 ], [ -77.21909, 38.81914 ], [ -77.21939, 38.81925 ], [ -77.21926, 38.81898 ] ], [ [ -77.22058, 38.82256 ], [ -77.22063, 38.82232 ], [ -77.2206, 38.82225 ], [ -77.22022, 38.8224 ], [ -77.22058, 38.82256 ] ], [ [ -77.21945, 38.82524 ], [ -77.21962, 38.82498 ], [ -77.21926, 38.82491 ], [ -77.21868, 38.82497 ], [ -77.21945, 38.82524 ] ], [ [ -77.21215, 38.80697 ], [ -77.21248, 38.80702 ], [ -77.2124, 38.80695 ], [ -77.21215, 38.80697 ] ], [ [ -77.2126, 38.82786 ], [ -77.2126, 38.82779 ], [ -77.21257, 38.82784 ], [ -77.2126, 38.82786 ] ], [ [ -77.21344, 38.81765 ], [ -77.21273, 38.81743 ], [ -77.21351, 38.81786 ], [ -77.21344, 38.81765 ] ], [ [ -77.21334, 38.81932 ], [ -77.21336, 38.81933 ], [ -77.21334, 38.81931 ], [ -77.21334, 38.81932 ] ], [ [ -77.21309, 38.81636 ], [ -77.21317, 38.81639 ], [ -77.21317, 38.81634 ], [ -77.21309, 38.81636 ] ], [ [ -77.21408, 38.82815 ], [ -77.2144, 38.82801 ], [ -77.21425, 38.82781 ], [ -77.21408, 38.82815 ] ], [ [ -77.2117, 38.80997 ], [ -77.21154, 38.80979 ], [ -77.21162, 38.80996 ], [ -77.2117, 38.80997 ] ], [ [ -77.21137, 38.81817 ], [ -77.21131, 38.81828 ], [ -77.21159, 38.81812 ], [ -77.21137, 38.81817 ] ], [ [ -77.21285, 38.83394 ], [ -77.21278, 38.83393 ], [ -77.21284, 38.83396 ], [ -77.21285, 38.83394 ] ], [ [ -77.21418, 38.83423 ], [ -77.21356, 38.83599 ], [ -77.21383, 38.83605 ], [ -77.21418, 38.83423 ] ], [ [ -77.20522, 38.83009 ], [ -77.20498, 38.83112 ], [ -77.20565, 38.83123 ], [ -77.20612, 38.83038 ], [ -77.20522, 38.83009 ] ], [ [ -77.20526, 38.82604 ], [ -77.20528, 38.82605 ], [ -77.20527, 38.82603 ], [ -77.20526, 38.82604 ] ], [ [ -77.20549, 38.82209 ], [ -77.20531, 38.82162 ], [ -77.20449, 38.82281 ], [ -77.20549, 38.82209 ] ], [ [ -77.20523, 38.8176 ], [ -77.20456, 38.8178 ], [ -77.20498, 38.81796 ], [ -77.20523, 38.8176 ] ], [ [ -77.20361, 38.81607 ], [ -77.20357, 38.81525 ], [ -77.20263, 38.81675 ], [ -77.20193, 38.81919 ], [ -77.20176, 38.82063 ], [ -77.20264, 38.82124 ], [ -77.20431, 38.81891 ], [ -77.20334, 38.81837 ], [ -77.20323, 38.81749 ], [ -77.20375, 38.81681 ], [ -77.20494, 38.81647 ], [ -77.20361, 38.81607 ] ], [ [ -77.20432, 38.81208 ], [ -77.20375, 38.81209 ], [ -77.20412, 38.81425 ], [ -77.20455, 38.81439 ], [ -77.20432, 38.81208 ] ], [ [ -77.21002, 38.83206 ], [ -77.20953, 38.83069 ], [ -77.20755, 38.83051 ], [ -77.20701, 38.83149 ], [ -77.21002, 38.83206 ] ], [ [ -77.20761, 38.81828 ], [ -77.20773, 38.81833 ], [ -77.20772, 38.8183 ], [ -77.20761, 38.81828 ] ], [ [ -77.20912, 38.81203 ], [ -77.20764, 38.81205 ], [ -77.20746, 38.81379 ], [ -77.20691, 38.81437 ], [ -77.20595, 38.81453 ], [ -77.20603, 38.81558 ], [ -77.20657, 38.81568 ], [ -77.20912, 38.81203 ] ], [ [ -77.209, 38.82507 ], [ -77.20747, 38.82442 ], [ -77.20795, 38.82521 ], [ -77.209, 38.82507 ] ], [ [ -77.20615, 38.81344 ], [ -77.20625, 38.81206 ], [ -77.20571, 38.81206 ], [ -77.20615, 38.81344 ] ], [ [ -77.20268, 38.81304 ], [ -77.20235, 38.81212 ], [ -77.20184, 38.81213 ], [ -77.20191, 38.81291 ], [ -77.20151, 38.81319 ], [ -77.2007, 38.81291 ], [ -77.20061, 38.81341 ], [ -77.2021, 38.81336 ], [ -77.20221, 38.81418 ], [ -77.20264, 38.81441 ], [ -77.20268, 38.81304 ] ], [ [ -77.20384, 38.82469 ], [ -77.20396, 38.82381 ], [ -77.20281, 38.82334 ], [ -77.20216, 38.82441 ], [ -77.20384, 38.82469 ] ], [ [ -77.20363, 38.83084 ], [ -77.20385, 38.83046 ], [ -77.20383, 38.82998 ], [ -77.20363, 38.83084 ] ] ] } },
{ "type": "Feature", "properties": { "variant": "T2s", "miles": 0.5 }, "geometry": { "type": "Polygon", "coordinates": [ [ [ -77.2184, 38.81778 ], [ -77.21935, 38.81846 ], [ -77.21909, 38.81914 ], [ -77.22109, 38.82045 ], [ -77.22091, 38.82193 ], [ -77.22009, 38.82242 ], [ -77.22087, 38.82272 ], [ -77.22075, 38.8238 ], [ -77.22017, 38.8248 ], [ -77.21866, 38.82491 ], [ -77.21873, 38.82577 ], [ -77.21735, 38.82628 ], [ -77.21696, 38.82716 ], [ -77.21508, 38.82733 ], [ -77.21472, 38.82662 ], [ -77.21538, 38.82539 ], [ -77.21484, 38.82563 ], [ -77.21419, 38.82528 ], [ -77.21268, 38.82524 ], [ -77.21212, 38.82419 ], [ -77.2112, 38.82389 ], [ -77.21125, 38.82254 ], [ -77.21171, 38.82229 ], [ -77.2099, 38.82135 ], [ -77.21036, 38.82067 ], [ -77.21187, 38.82113 ], [ -77.21286, 38.81999 ], [ -77.21361, 38.82004 ], [ -77.21303, 38.81897 ], [ -77.21076, 38.81766 ], [ -77.21059, 38.8169 ], [ -77.21155, 38.81677 ], [ -77.21366, 38.81796 ], [ -77.21317, 38.81729 ], [ -77.21376, 38.81668 ], [ -77.21573, 38.81778 ], [ -77.21538, 38.81687 ], [ -77.21625, 38.81657 ], [ -77.21646, 38.81591 ], [ -77.21743, 38.81591 ], [ -77.21763, 38.81655 ], [ -77.21821, 38.81599 ], [ -77.21873, 38.81602 ], [ -77.21905, 38.81674 ], [ -77.2184, 38.81778 ] ], [ [ -77.2144, 38.8186 ], [ -77.21466, 38.81848 ], [ -77.2144, 38.81859 ], [ -77.2144, 38.8186 ] ], [ [ -77.21673, 38.82039 ], [ -77.21878, 38.82146 ], [ -77.21964, 38.82134 ], [ -77.21932, 38.82059 ], [ -77.21818, 38.8202 ], [ -77.21745, 38.82037 ], [ -77.21707, 38.81993 ], [ -77.21673, 38.82039 ] ], [ [ -77.21394, 38.82414 ], [ -77.21428, 38.82366 ], [ -77.21554, 38.82354 ], [ -77.21625, 38.82248 ], [ -77.21444, 38.82172 ], [ -77.21359, 38.82319 ], [ -77.21394, 38.82414 ] ] ] } },
{ "type": "Feature", "properties": { "variant": "T2s", "miles": 1.0 }, "geometry": { "type": "Polygon", "coordinates": [ [ [ -77.21556, 38.81267 ], [ -77.21964, 38.81388 ], [ -77.21997, 38.81509 ], [ -77.22115, 38.81616 ], [ -77.22207, 38.81907 ], [ -77.22216, 38.82179 ], [ -77.22148, 38.82431 ], [ -77.21951, 38.82761 ], [ -77.21861, 38.8304 ], [ -77.21598, 38.83137 ], [ -77.21533, 38.83102 ], [ -77.21528, 38.82997 ], [ -77.21334, 38.83026 ], [ -77.21328, 38.83091 ], [ -77.21148, 38.83173 ], [ -77.21164, 38.83249 ], [ -77.21093, 38.83301 ], [ -77.21045, 38.83284 ], [ -77.20953, 38.83069 ], [ -77.20722, 38.83046 ], [ -77.20611, 38.82989 ], [ -77.20582, 38.8292 ], [ -77.20678, 38.82778 ], [ -77.20855, 38.82776 ], [ -77.20951, 38.82872 ], [ -77.20974, 38.82839 ], [ -77.21054, 38.82839 ], [ -77.21008, 38.82747 ], [ -77.21118, 38.82731 ], [ -77.21166, 38.8265 ], [ -77.21146, 38.82568 ], [ -77.21222, 38.82555 ], [ -77.21239, 38.82464 ], [ -77.21025, 38.82452 ], [ -77.21031, 38.82561 ], [ -77.20953, 38.82608 ], [ -77.20908, 38.82587 ], [ -77.209, 38.82507 ], [ -77.20747, 38.82442 ], [ -77.20798, 38.82517 ], [ -77.20765, 38.82559 ], [ -77.20811, 38.82676 ], [ -77.20777, 38.82708 ], [ -77.20675, 38.82695 ], [ -77.20607, 38.82548 ], [ -77.20476, 38.82654 ], [ -77.20423, 38.82653 ], [ -77.20388, 38.82582 ], [ -77.20448, 38.82489 ], [ -77.20372, 38.82459 ], [ -77.20373, 38.82417 ], [ -77.20474, 38.82307 ], [ -77.20485, 38.8224 ], [ -77.20549, 38.82209 ], [ -77.20531, 38.82148 ], [ -77.20454, 38.8216 ], [ -77.20421, 38.82128 ], [ -77.20539, 38.81922 ], [ -77.20349, 38.81852 ], [ -77.20321, 38.81754 ], [ -77.20393, 38.81671 ], [ -77.20599, 38.81651 ], [ -77.20846, 38.81299 ], [ -77.20887, 38.81273 ], [ -77.20976, 38.81295 ], [ -77.21052, 38.812 ], [ -77.21147, 38.81165 ], [ -77.21451, 38.81154 ], [ -77.21556, 38.81267 ] ], [ [ -77.21553, 38.82921 ], [ -77.21617, 38.82905 ], [ -77.21549, 38.82899 ], [ -77.21553, 38.82921 ] ], [ [ -77.21399, 38.8279 ], [ -77.2144, 38.82801 ], [ -77.21425, 38.82781 ], [ -77.21399, 38.8279 ] ], [ [ -77.21394, 38.82421 ], [ -77.21428, 38.82366 ], [ -77.21554, 38.82354 ], [ -77.21625, 38.82248 ], [ -77.21444, 38.82172 ], [ -77.21359, 38.82319 ], [ -77.21394, 38.82421 ] ], [ [ -77.2144, 38.8186 ], [ -77.21466, 38.81848 ], [ -77.2144, 38.81859 ], [ -77.2144, 38.8186 ] ], [ [ -77.21366, 38.81796 ], [ -77.21337, 38.81761 ], [ -77.21273, 38.81743 ], [ -77.21366, 38.81796 ] ], [ [ -77.21317, 38.81639 ], [ -77.21317, 38.81632 ], [ -77.21309, 38.81636 ], [ -77.21317, 38.81639 ] ], [ [ -77.21866, 38.82491 ], [ -77.21945, 38.82524 ], [ -77.21962, 38.82498 ], [ -77.21866, 38.82491 ] ], [ [ -77.21587, 38.81761 ], [ -77.21559, 38.81751 ], [ -77.21573, 38.81778 ], [ -77.21587, 38.81761 ] ], [ [ -77.22058, 38.82256 ], [ -77.22042, 38.82234 ], [ -77.22009, 38.82242 ], [ -77.22058, 38.82256 ] ], [ [ -77.21969, 38.82089 ], [ -77.21818, 38.8202 ], [ -77.21745, 38.82037 ], [ -77.21707, 38.81993 ], [ -77.21673, 38.82039 ], [ -77.21878, 38.82146 ], [ -77.21964, 38.82134 ], [ -77.21969, 38.82089 ] ], [ [ -77.21857, 38.81804 ], [ -77.21937, 38.81872 ], [ -77.21993, 38.81842 ], [ -77.21857, 38.81804 ] ], [ [ -77.21822, 38.81576 ], [ -77.21781, 38.81423 ], [ -77.21772, 38.81421 ], [ -77.21776, 38.81571 ], [ -77.21822, 38.81576 ] ], [ [ -77.22022, 38.81851 ], [ -77.22033, 38.81841 ], [ -77.22, 38.81843 ], [ -77.22022, 38.81851 ] ], [ [ -77.21926, 38.81898 ], [ -77.21909, 38.81914 ], [ -77.21939, 38.81925 ], [ -77.21926, 38.81898 ] ], [ [ -77.21755, 38.82935 ], [ -77.21778, 38.82856 ], [ -77.2166, 38.82787 ], [ -77.217, 38.82856 ], [ -77.21637, 38.82907 ], [ -77.21755, 38.82935 ] ], [ [ -77.2113, 38.82336 ], [ -77.21125, 38.82254 ], [ -77.21171, 38.82229 ], [ -77.2082, 38.8208 ], [ -77.20782, 38.8203 ], [ -77.20799, 38.81963 ], [ -77.20695, 38.81923 ], [ -77.20642, 38.82001 ], [ -77.20731, 38.82035 ], [ -77.20671, 38.82155 ], [ -77.20703, 38.82197 ], [ -77.20782, 38.82189 ], [ -77.20827, 38.82249 ], [ -77.21063, 38.82348 ], [ -77.2113, 38.82336 ] ], [ [ -77.21137, 38.81817 ], [ -77.21159, 38.81812 ], [ -77.21137, 38.818 ], [ -77.21137, 38.81817 ] ], [ [ -77.21406, 38.81266 ], [ -77.21402, 38.81259 ], [ -77.21211, 38.81264 ], [ -77.21406, 38.81266 ] ], [ [ -77.21334, 38.81932 ], [ -77.21336, 38.81933 ], [ -77.21334, 38.81931 ], [ -77.21334, 38.81932 ] ], [ [ -77.21257, 38.82784 ], [ -77.2126, 38.82786 ], [ -77.2126, 38.82779 ], [ -77.21257, 38.82784 ] ], [ [ -77.20772, 38.8183 ], [ -77.20761, 38.81828 ], [ -77.20773, 38.81833 ], [ -77.20772, 38.8183 ] ], [ [ -77.20513, 38.81761 ], [ -77.20462, 38.81767 ], [ -77.20456, 38.8178 ], [ -77.20498, 38.81796 ], [ -77.20513, 38.81761 ] ] ] } },
{ "type": "Feature", "properties": { "variant": "T2s", "miles": 1.5 }, "geometry": { "type": "Polygon", "coordinates": [ [ [ -77.22154, 38.81711 ], [ -77.22218, 38.82149 ], [ -77.22149, 38.8243 ], [ -77.21951, 38.82761 ], [ -77.21796, 38.83213 ], [ -77.21672, 38.83324 ], [ -77.21925, 38.83383 ], [ -77.21973, 38.8345 ], [ -77.2194, 38.83483 ], [ -77.21219, 38.83339 ], [ -77.20088, 38.83179 ], [ -77.19994, 38.83134 ], [ -77.20014, 38.83059 ], [ -77.20113, 38.83059 ], [ -77.20164, 38.83002 ], [ -77.20168, 38.82919 ], [ -77.2025, 38.8291 ], [ -77.20241, 38.82844 ], [ -77.2029, 38.82821 ], [ -77.20332, 38.82682 ], [ -77.20303, 38.826 ], [ -77.2024, 38.82593 ], [ -77.20133, 38.82772 ], [ -77.2001, 38.8274 ], [ -77.19886, 38.82854 ], [ -77.19834, 38.82849 ], [ -77.1981, 38.82774 ], [ -77.20431, 38.81891 ], [ -77.20323, 38.81819 ], [ -77.20344, 38.8171 ], [ -77.2041, 38.81666 ], [ -77.20599, 38.81651 ], [ -77.20956, 38.81099 ], [ -77.217, 38.81087 ], [ -77.21749, 38.81102 ], [ -77.2175, 38.81179 ], [ -77.21517, 38.81196 ], [ -77.21556, 38.81267 ], [ -77.21911, 38.81349 ], [ -77.22154, 38.81711 ] ], [ [ -77.21625, 38.8322 ], [ -77.21692, 38.83098 ], [ -77.21647, 38.83137 ], [ -77.21572, 38.8313 ], [ -77.21533, 38.83102 ], [ -77.21528, 38.82997 ], [ -77.21423, 38.83006 ], [ -77.21338, 38.83027 ], [ -77.2142, 38.83091 ], [ -77.2142, 38.83168 ], [ -77.21371, 38.83184 ], [ -77.21252, 38.83119 ], [ -77.21148, 38.83173 ], [ -77.21421, 38.8323 ], [ -77.21625, 38.8322 ] ], [ [ -77.21257, 38.82784 ], [ -77.2126, 38.82786 ], [ -77.2126, 38.82779 ], [ -77.21257, 38.82784 ] ], [ [ -77.21025, 38.82452 ], [ -77.21032, 38.82584 ], [ -77.20966, 38.82705 ], [ -77.20869, 38.827 ], [ -77.20863, 38.82624 ], [ -77.20798, 38.8263 ], [ -77.20811, 38.82676 ], [ -77.2073, 38.82712 ], [ -77.20706, 38.82779 ], [ -77.20855, 38.82776 ], [ -77.20951, 38.82872 ], [ -77.20974, 38.82839 ], [ -77.21054, 38.82839 ], [ -77.21008, 38.82747 ], [ -77.21118, 38.82731 ], [ -77.21166, 38.8265 ], [ -77.21146, 38.82568 ], [ -77.21222, 38.82555 ], [ -77.21238, 38.82464 ], [ -77.21025, 38.82452 ] ], [ [ -77.21125, 38.82254 ], [ -77.21171, 38.82229 ], [ -77.2082, 38.8208 ], [ -77.20782, 38.8203 ], [ -77.20799, 38.81963 ], [ -77.20695, 38.81923 ], [ -77.20642, 38.82001 ], [ -77.20731, 38.82035 ], [ -77.20671, 38.82155 ], [ -77.20703, 38.82197 ], [ -77.20782, 38.82189 ], [ -77.20827, 38.82249 ], [ -77.21123, 38.82348 ], [ -77.21125, 38.82254 ] ], [ [ -77.21137, 38.81817 ], [ -77.21131, 38.81828 ], [ -77.21159, 38.81812 ], [ -77.21137, 38.81817 ] ], [ [ -77.21778, 38.82856 ], [ -77.21651, 38.82794 ], [ -77.217, 38.82856 ], [ -77.21637, 38.82907 ], [ -77.21755, 38.82935 ], [ -77.21778, 38.82856 ] ], [ [ -77.21625, 38.82248 ], [ -77.21444, 38.82172 ], [ -77.2136, 38.82313 ], [ -77.21379, 38.82421 ], [ -77.21428, 38.82366 ], [ -77.2156, 38.82344 ], [ -77.21625, 38.82248 ] ], [ [ -77.21559, 38.81751 ], [ -77.21573, 38.81778 ], [ -77.21587, 38.81761 ], [ -77.21559, 38.81751 ] ], [ [ -77.21866, 38.82491 ], [ -77.21945, 38.82524 ], [ -77.21962, 38.82498 ], [ -77.21866, 38.82491 ] ], [ [ -77.21964, 38.82134 ], [ -77.21932, 38.82059 ], [ -77.21818, 38.8202 ], [ -77.21745, 38.82037 ], [ -77.21707, 38.81993 ], [ -77.21673, 38.82039 ], [ -77.21752, 38.82096 ], [ -77.21964, 38.82134 ] ], [ [ -77.21937, 38.81872 ], [ -77.21993, 38.81842 ], [ -77.21857, 38.81804 ], [ -77.21937, 38.81872 ] ], [ [ -77.21781, 38.81423 ], [ -77.21772, 38.81421 ], [ -77.21776, 38.81571 ], [ -77.21822, 38.81576 ], [ -77.21781, 38.81423 ] ], [ [ -77.22033, 38.81841 ], [ -77.22, 38.81843 ], [ -77.22022, 38.81851 ], [ -77.22033, 38.81841 ] ], [ [ -77.21909, 38.81914 ], [ -77.21939, 38.81925 ], [ -77.21926, 38.81898 ], [ -77.21909, 38.81914 ] ], [ [ -77.22058, 38.82256 ], [ -77.22063, 38.82232 ], [ -77.2206, 38.82225 ], [ -77.22009, 38.82242 ], [ -77.22058, 38.82256 ] ], [ [ -77.2157, 38.82883 ], [ -77.21549, 38.82899 ], [ -77.21553, 38.82921 ], [ -77.21617, 38.82905 ], [ -77.2157, 38.82883 ] ], [ [ -77.21336, 38.81933 ], [ -77.21334, 38.81931 ], [ -77.21334, 38.81932 ], [ -77.21336, 38.81933 ] ], [ [ -77.21344, 38.81765 ], [ -77.21273, 38.81743 ], [ -77.21351, 38.81786 ], [ -77.21344, 38.81765 ] ], [ [ -77.21309, 38.81636 ], [ -77.21317, 38.81639 ], [ -77.21317, 38.81634 ], [ -77.21309, 38.81636 ] ], [ [ -77.2144, 38.81859 ], [ -77.21467, 38.8185 ], [ -77.21466, 38.81848 ], [ -77.2144, 38.81859 ] ], [ [ -77.21402, 38.81259 ], [ -77.21211, 38.81264 ], [ -77.21406, 38.81266 ], [ -77.21402, 38.81259 ] ], [ [ -77.2144, 38.82801 ], [ -77.21425, 38.82781 ], [ -77.21399, 38.8279 ], [ -77.2144, 38.82801 ] ], [ [ -77.21002, 38.83206 ], [ -77.20953, 38.83069 ], [ -77.20755, 38.83051 ], [ -77.20701, 38.83149 ], [ -77.21002, 38.83206 ] ], [ [ -77.209, 38.82507 ], [ -77.20747, 38.82442 ], [ -77.20795, 38.82521 ], [ -77.209, 38.82507 ] ], [ [ -77.20761, 38.81828 ], [ -77.20773, 38.81833 ], [ -77.20772, 38.8183 ], [ -77.20761, 38.81828 ] ], [ [ -77.20508, 38.81781 ], [ -77.20523, 38.8176 ], [ -77.20462, 38.81767 ], [ -77.20508, 38.81781 ] ], [ [ -77.20612, 38.83038 ], [ -77.20522, 38.83009 ], [ -77.20498, 38.83112 ], [ -77.20565, 38.83123 ], [ -77.20612, 38.83038 ] ], [ [ -77.20396, 38.82381 ], [ -77.20281, 38.82334 ], [ -77.20203, 38.82445 ], [ -77.20367, 38.82473 ], [ -77.20396, 38.82381 ] ], [ [ -77.20549, 38.82209 ], [ -77.20531, 38.82162 ], [ -77.20449, 38.82281 ], [ -77.20549, 38.82209 ] ], [ [ -77.20526, 38.82604 ], [ -77.20528, 38.82605 ], [ -77.20527, 38.82603 ], [ -77.20526, 38.82604 ] ], [ [ -77.20363, 38.83084 ], [ -77.20385, 38.83046 ], [ -77.20383, 38.82998 ], [ -77.20363, 38.83084 ] ] ] } }
]
}
