{
"type": "FeatureCollection",
"name": "150",
"crs": { "type": "name", "properties": { "name": "urn:ogc:def:crs:OGC:1.3:CRS84" } },
"xy_coordinate_resolution": 1e-05,
"features": [
{ "type": "Feature", "properties": { "variant": "T0", "miles": 1.0 }, "geometry": { "type": "Polygon", "coordinates": [ [ [ -77.24902, 38.7811 ], [ -77.24763, 38.78246 ], [ -77.24798, 38.78339 ], [ -77.24721, 38.78415 ], [ -77.24722, 38.78494 ], [ -77.24625, 38.78493 ], [ -77.24556, 38.78437 ], [ -77.24505, 38.78484 ], [ -77.24569, 38.78532 ], [ -77.24562, 38.78608 ], [ -77.24344, 38.78692 ], [ -77.24312, 38.78738 ], [ -77.24418, 38.78734 ], [ -77.24492, 38.78672 ], [ -77.24558, 38.78682 ], [ -77.24587, 38.78634 ], [ -77.24697, 38.78644 ], [ -77.24689, 38.78554 ], [ -77.24789, 38.78542 ], [ -77.24797, 38.78462 ], [ -77.24846, 38.78446 ], [ -77.25025, 38.78447 ], [ -77.25099, 38.78497 ], [ -77.25063, 38.78554 ], [ -77.25124, 38.78634 ], [ -77.2507, 38.78751 ], [ -77.24966, 38.78776 ], [ -77.24904, 38.78703 ], [ -77.24742, 38.78846 ], [ -77.24849, 38.78948 ], [ -77.24836, 38.79024 ], [ -77.24739, 38.79013 ], [ -77.24631, 38.78911 ], [ -77.24566, 38.78934 ], [ -77.24594, 38.79042 ], [ -77.24478, 38.79075 ], [ -77.24529, 38.79107 ], [ -77.24763, 38.79071 ], [ -77.24841, 38.79118 ], [ -77.24836, 38.79155 ], [ -77.24921, 38.79146 ], [ -77.24951, 38.7918 ], [ -77.24867, 38.79307 ], [ -77.2496, 38.79428 ], [ -77.24859, 38.7968 ], [ -77.24765, 38.79699 ], [ -77.2439, 38.79271 ], [ -77.2429, 38.79271 ], [ -77.24113, 38.79122 ], [ -77.23991, 38.79208 ], [ -77.24077, 38.79355 ], [ -77.24028, 38.79435 ], [ -77.23869, 38.79465 ], [ -77.23777, 38.79434 ], [ -77.23672, 38.7949 ], [ -77.23544, 38.7949 ], [ -77.23457, 38.79458 ], [ -77.2337, 38.79479 ], [ -77.23338, 38.79411 ], [ -77.23245, 38.79401 ], [ -77.23236, 38.79345 ], [ -77.23304, 38.79274 ], [ -77.23195, 38.79254 ], [ -77.23212, 38.79181 ], [ -77.23152, 38.79044 ], [ -77.23221, 38.78968 ], [ -77.2335, 38.78947 ], [ -77.23407, 38.7882 ], [ -77.23117, 38.78702 ], [ -77.23108, 38.78839 ], [ -77.23014, 38.78877 ], [ -77.22963, 38.78814 ], [ -77.22967, 38.78606 ], [ -77.22912, 38.78603 ], [ -77.22881, 38.78682 ], [ -77.2283, 38.78694 ], [ -77.22784, 38.78674 ], [ -77.22776, 38.7858 ], [ -77.22681, 38.78527 ], [ -77.22749, 38.78472 ], [ -77.22966, 38.78498 ], [ -77.22962, 38.78308 ], [ -77.2287, 38.78084 ], [ -77.2273, 38.78096 ], [ -77.22706, 38.78022 ], [ -77.23215, 38.77883 ], [ -77.23086, 38.77588 ], [ -77.2309, 38.77505 ], [ -77.23187, 38.77498 ], [ -77.23221, 38.77563 ], [ -77.23267, 38.77542 ], [ -77.23341, 38.77582 ], [ -77.23424, 38.77569 ], [ -77.23471, 38.77643 ], [ -77.23599, 38.77632 ], [ -77.23617, 38.7767 ], [ -77.23555, 38.77733 ], [ -77.23666, 38.77692 ], [ -77.23708, 38.77753 ], [ -77.23907, 38.77738 ], [ -77.23981, 38.77892 ], [ -77.24074, 38.779 ], [ -77.24104, 38.77975 ], [ -77.24174, 38.78 ], [ -77.24182, 38.77884 ], [ -77.24243, 38.7782 ], [ -77.24344, 38.77848 ], [ -77.24312, 38.77966 ], [ -77.24386, 38.77902 ], [ -77.24484, 38.779 ], [ -77.24487, 38.77977 ], [ -77.24379, 38.78071 ], [ -77.24462, 38.78189 ], [ -77.245, 38.78148 ], [ -77.24584, 38.78157 ], [ -77.24565, 38.78077 ], [ -77.24603, 38.78049 ], [ -77.24656, 38.78051 ], [ -77.24719, 38.78115 ], [ -77.24819, 38.78016 ], [ -77.24871, 38.78012 ], [ -77.24912, 38.78038 ], [ -77.24902, 38.7811 ] ], [ [ -77.23668, 38.78806 ], [ -77.23658, 38.78812 ], [ -77.23679, 38.78827 ], [ -77.23668, 38.78806 ] ], [ [ -77.23634, 38.78524 ], [ -77.23631, 38.78529 ], [ -77.23648, 38.78541 ], [ -77.23634, 38.78524 ] ], [ [ -77.23647, 38.7824 ], [ -77.23791, 38.78324 ], [ -77.23825, 38.78425 ], [ -77.23934, 38.78323 ], [ -77.23766, 38.78179 ], [ -77.23647, 38.7824 ] ], [ [ -77.23671, 38.78098 ], [ -77.23627, 38.78013 ], [ -77.23689, 38.77975 ], [ -77.23668, 38.77928 ], [ -77.23433, 38.77964 ], [ -77.23561, 38.78154 ], [ -77.23671, 38.78098 ] ], [ [ -77.24239, 38.78754 ], [ -77.24179, 38.78793 ], [ -77.24184, 38.78806 ], [ -77.24239, 38.78754 ] ], [ [ -77.24035, 38.78759 ], [ -77.24268, 38.7854 ], [ -77.24222, 38.78474 ], [ -77.24247, 38.78437 ], [ -77.24378, 38.78436 ], [ -77.24204, 38.78238 ], [ -77.239, 38.78524 ], [ -77.24035, 38.78759 ] ], [ [ -77.23979, 38.781 ], [ -77.24015, 38.7806 ], [ -77.23975, 38.7808 ], [ -77.23979, 38.781 ] ], [ [ -77.24631, 38.78201 ], [ -77.24601, 38.78184 ], [ -77.24626, 38.78206 ], [ -77.24631, 38.78201 ] ], [ [ -77.2465, 38.78349 ], [ -77.24646, 38.78354 ], [ -77.24651, 38.78358 ], [ -77.2465, 38.78349 ] ], [ [ -77.24291, 38.78155 ], [ -77.24274, 38.78184 ], [ -77.24317, 38.782 ], [ -77.24291, 38.78155 ] ], [ [ -77.23996, 38.78225 ], [ -77.2403, 38.78232 ], [ -77.24004, 38.78218 ], [ -77.23996, 38.78225 ] ], [ [ -77.24816, 38.79172 ], [ -77.24604, 38.79203 ], [ -77.24584, 38.79267 ], [ -77.24664, 38.7935 ], [ -77.24816, 38.79172 ] ], [ [ -77.24786, 38.79402 ], [ -77.2475, 38.79442 ], [ -77.24797, 38.7949 ], [ -77.24817, 38.79432 ], [ -77.24786, 38.79402 ] ], [ [ -77.24317, 38.7903 ], [ -77.24348, 38.79036 ], [ -77.24356, 38.79022 ], [ -77.24317, 38.7903 ] ], [ [ -77.24353, 38.78823 ], [ -77.24306, 38.78857 ], [ -77.24379, 38.78844 ], [ -77.24353, 38.78823 ] ], [ [ -77.23854, 38.78872 ], [ -77.23869, 38.78909 ], [ -77.23905, 38.78933 ], [ -77.23854, 38.78872 ] ], [ [ -77.23849, 38.78007 ], [ -77.23852, 38.77933 ], [ -77.23837, 38.77888 ], [ -77.2376, 38.78005 ], [ -77.23789, 38.78041 ], [ -77.23849, 38.78007 ] ], [ [ -77.23496, 38.7896 ], [ -77.23504, 38.78984 ], [ -77.23525, 38.78978 ], [ -77.23496, 38.7896 ] ], [ [ -77.23252, 38.78652 ], [ -77.23417, 38.78676 ], [ -77.23327, 38.78629 ], [ -77.23252, 38.78652 ] ], [ [ -77.23346, 38.78323 ], [ -77.23496, 38.78287 ], [ -77.23378, 38.78156 ], [ -77.23085, 38.78226 ], [ -77.23114, 38.78314 ], [ -77.23249, 38.78264 ], [ -77.23346, 38.78323 ] ], [ [ -77.23282, 38.77996 ], [ -77.23017, 38.78052 ], [ -77.2304, 38.78124 ], [ -77.23315, 38.78057 ], [ -77.23282, 38.77996 ] ], [ [ -77.2328, 38.77676 ], [ -77.23337, 38.77672 ], [ -77.23325, 38.77635 ], [ -77.2328, 38.77676 ] ], [ [ -77.23472, 38.7777 ], [ -77.23481, 38.77753 ], [ -77.23468, 38.77756 ], [ -77.23472, 38.7777 ] ], [ [ -77.23549, 38.78646 ], [ -77.2354, 38.78611 ], [ -77.23486, 38.78615 ], [ -77.23455, 38.78663 ], [ -77.23549, 38.78646 ] ], [ [ -77.23526, 38.7845 ], [ -77.23511, 38.78396 ], [ -77.23474, 38.78405 ], [ -77.23526, 38.7845 ] ], [ [ -77.23409, 38.7842 ], [ -77.23383, 38.7845 ], [ -77.23391, 38.78465 ], [ -77.23409, 38.7842 ] ] ] } },
{ "type": "Feature", "properties": { "variant": "T0", "miles": 1.5 }, "geometry": { "type": "Polygon", "coordinates": [ [ [ -77.23986, 38.77243 ], [ -77.24087, 38.77217 ], [ -77.24382, 38.77575 ], [ -77.24568, 38.77455 ], [ -77.24675, 38.7748 ], [ -77.24684, 38.77521 ], [ -77.2456, 38.77606 ], [ -77.24695, 38.77673 ], [ -77.24697, 38.77777 ], [ -77.24766, 38.77797 ], [ -77.24902, 38.7796 ], [ -77.25097, 38.78063 ], [ -77.25252, 38.7841 ], [ -77.25233, 38.78462 ], [ -77.25146, 38.78481 ], [ -77.25075, 38.78808 ], [ -77.2497, 38.78812 ], [ -77.24904, 38.78703 ], [ -77.24742, 38.78846 ], [ -77.24849, 38.78948 ], [ -77.24836, 38.79024 ], [ -77.24739, 38.79013 ], [ -77.24631, 38.78911 ], [ -77.24566, 38.78934 ], [ -77.24594, 38.79042 ], [ -77.24483, 38.79065 ], [ -77.24483, 38.79094 ], [ -77.24725, 38.79065 ], [ -77.24862, 38.79118 ], [ -77.25039, 38.78952 ], [ -77.25117, 38.78997 ], [ -77.25075, 38.79069 ], [ -77.25484, 38.79489 ], [ -77.25708, 38.79297 ], [ -77.25754, 38.79276 ], [ -77.2583, 38.79323 ], [ -77.25599, 38.79568 ], [ -77.25246, 38.79615 ], [ -77.25282, 38.79685 ], [ -77.25125, 38.79843 ], [ -77.25214, 38.79835 ], [ -77.25238, 38.79866 ], [ -77.25221, 38.79769 ], [ -77.25262, 38.79743 ], [ -77.25352, 38.79783 ], [ -77.25382, 38.79875 ], [ -77.2555, 38.79819 ], [ -77.25631, 38.79862 ], [ -77.25575, 38.79926 ], [ -77.25106, 38.80098 ], [ -77.25168, 38.80186 ], [ -77.25317, 38.80162 ], [ -77.2536, 38.80186 ], [ -77.25368, 38.80227 ], [ -77.25263, 38.80337 ], [ -77.25159, 38.80303 ], [ -77.25047, 38.80335 ], [ -77.24909, 38.80322 ], [ -77.24658, 38.79874 ], [ -77.24438, 38.79948 ], [ -77.2439, 38.80005 ], [ -77.24439, 38.80078 ], [ -77.24405, 38.8015 ], [ -77.24353, 38.80151 ], [ -77.2423, 38.80026 ], [ -77.2427, 38.7995 ], [ -77.24211, 38.79881 ], [ -77.23937, 38.80007 ], [ -77.23842, 38.79989 ], [ -77.23828, 38.79929 ], [ -77.2402, 38.79756 ], [ -77.24043, 38.79688 ], [ -77.24166, 38.79683 ], [ -77.24238, 38.79741 ], [ -77.24549, 38.79621 ], [ -77.2471, 38.79619 ], [ -77.24642, 38.79527 ], [ -77.2414, 38.79541 ], [ -77.24137, 38.79464 ], [ -77.24185, 38.79447 ], [ -77.24551, 38.79436 ], [ -77.2439, 38.79271 ], [ -77.2429, 38.79271 ], [ -77.24113, 38.79122 ], [ -77.23991, 38.79208 ], [ -77.24077, 38.79355 ], [ -77.24049, 38.79517 ], [ -77.23964, 38.79563 ], [ -77.23741, 38.79591 ], [ -77.23689, 38.79527 ], [ -77.23719, 38.79493 ], [ -77.23772, 38.79474 ], [ -77.23933, 38.79456 ], [ -77.23777, 38.79434 ], [ -77.23666, 38.79491 ], [ -77.23457, 38.79458 ], [ -77.2337, 38.79479 ], [ -77.23338, 38.79411 ], [ -77.23245, 38.79401 ], [ -77.23231, 38.79361 ], [ -77.23301, 38.79271 ], [ -77.23232, 38.79283 ], [ -77.23183, 38.79239 ], [ -77.23092, 38.79276 ], [ -77.22986, 38.79224 ], [ -77.22975, 38.79182 ], [ -77.22929, 38.79229 ], [ -77.22846, 38.79192 ], [ -77.22775, 38.79229 ], [ -77.22681, 38.79156 ], [ -77.2241, 38.79152 ], [ -77.22387, 38.79052 ], [ -77.22293, 38.79053 ], [ -77.22263, 38.79019 ], [ -77.22213, 38.78835 ], [ -77.22133, 38.78867 ], [ -77.22049, 38.78828 ], [ -77.22095, 38.78753 ], [ -77.2226, 38.78715 ], [ -77.22181, 38.78389 ], [ -77.22104, 38.78423 ], [ -77.22019, 38.78385 ], [ -77.22076, 38.78277 ], [ -77.22226, 38.7821 ], [ -77.22275, 38.78225 ], [ -77.22309, 38.78346 ], [ -77.22348, 38.78317 ], [ -77.22611, 38.78303 ], [ -77.22609, 38.78213 ], [ -77.22677, 38.78159 ], [ -77.22744, 38.78206 ], [ -77.22915, 38.78204 ], [ -77.2287, 38.78084 ], [ -77.22551, 38.78116 ], [ -77.22266, 38.78054 ], [ -77.22036, 38.78211 ], [ -77.2194, 38.78223 ], [ -77.21924, 38.78147 ], [ -77.21996, 38.78072 ], [ -77.21933, 38.77989 ], [ -77.21977, 38.77912 ], [ -77.22028, 38.77906 ], [ -77.21968, 38.77831 ], [ -77.21991, 38.77793 ], [ -77.22057, 38.7777 ], [ -77.22125, 38.7781 ], [ -77.22278, 38.77746 ], [ -77.22362, 38.77867 ], [ -77.22654, 38.77995 ], [ -77.23215, 38.77883 ], [ -77.23138, 38.7769 ], [ -77.23052, 38.77683 ], [ -77.22982, 38.77721 ], [ -77.22861, 38.77634 ], [ -77.22841, 38.77512 ], [ -77.2308, 38.77489 ], [ -77.23096, 38.77376 ], [ -77.22782, 38.77295 ], [ -77.22816, 38.77222 ], [ -77.22757, 38.77169 ], [ -77.2277, 38.77129 ], [ -77.22867, 38.77117 ], [ -77.22982, 38.77184 ], [ -77.2306, 38.77157 ], [ -77.22923, 38.77048 ], [ -77.22984, 38.76954 ], [ -77.23031, 38.76934 ], [ -77.23115, 38.76964 ], [ -77.23178, 38.7693 ], [ -77.23289, 38.76978 ], [ -77.23435, 38.76821 ], [ -77.23511, 38.76869 ], [ -77.23498, 38.76978 ], [ -77.23696, 38.76932 ], [ -77.23795, 38.77135 ], [ -77.23928, 38.77167 ], [ -77.23986, 38.77243 ] ], [ [ -77.23846, 38.78872 ], [ -77.23891, 38.78923 ], [ -77.23905, 38.78933 ], [ -77.23846, 38.78872 ] ], [ [ -77.23827, 38.78423 ], [ -77.23934, 38.78323 ], [ -77.23766, 38.78179 ], [ -77.23647, 38.7824 ], [ -77.23721, 38.78314 ], [ -77.23791, 38.78324 ], [ -77.23827, 38.78423 ] ], [ [ -77.23636, 38.78054 ], [ -77.23668, 38.77928 ], [ -77.23433, 38.77964 ], [ -77.23561, 38.78154 ], [ -77.23671, 38.78098 ], [ -77.23636, 38.78054 ] ], [ [ -77.23592, 38.77713 ], [ -77.23679, 38.77701 ], [ -77.23689, 38.77677 ], [ -77.2362, 38.77685 ], [ -77.23592, 38.77713 ] ], [ [ -77.23527, 38.77407 ], [ -77.23603, 38.77342 ], [ -77.23555, 38.77313 ], [ -77.23527, 38.77407 ] ], [ [ -77.23522, 38.77199 ], [ -77.23656, 38.77132 ], [ -77.23625, 38.77052 ], [ -77.23347, 38.77124 ], [ -77.23346, 38.77208 ], [ -77.23522, 38.77199 ] ], [ [ -77.248, 38.78033 ], [ -77.24607, 38.77861 ], [ -77.24532, 38.77909 ], [ -77.24481, 38.77898 ], [ -77.24462, 38.77843 ], [ -77.24376, 38.77826 ], [ -77.24372, 38.77761 ], [ -77.24282, 38.77817 ], [ -77.24344, 38.77848 ], [ -77.24312, 38.77966 ], [ -77.24435, 38.77885 ], [ -77.24505, 38.77938 ], [ -77.24379, 38.78071 ], [ -77.24462, 38.78189 ], [ -77.245, 38.78148 ], [ -77.24584, 38.78157 ], [ -77.24565, 38.78077 ], [ -77.24603, 38.78049 ], [ -77.24656, 38.78051 ], [ -77.24719, 38.78115 ], [ -77.248, 38.78033 ] ], [ [ -77.24469, 38.77735 ], [ -77.24436, 38.77705 ], [ -77.24392, 38.77745 ], [ -77.24428, 38.77734 ], [ -77.24469, 38.77735 ] ], [ [ -77.24053, 38.77648 ], [ -77.24047, 38.77575 ], [ -77.23968, 38.77632 ], [ -77.23898, 38.77591 ], [ -77.23864, 38.77622 ], [ -77.24053, 38.77648 ] ], [ [ -77.2442, 38.7873 ], [ -77.24492, 38.78672 ], [ -77.24558, 38.78682 ], [ -77.24587, 38.78634 ], [ -77.24699, 38.78643 ], [ -77.24665, 38.78591 ], [ -77.2471, 38.78548 ], [ -77.24692, 38.78504 ], [ -77.24556, 38.78437 ], [ -77.24505, 38.78484 ], [ -77.24569, 38.78532 ], [ -77.24562, 38.78608 ], [ -77.24344, 38.78692 ], [ -77.24312, 38.78738 ], [ -77.2442, 38.7873 ] ], [ [ -77.24776, 38.78387 ], [ -77.24726, 38.78422 ], [ -77.24765, 38.78411 ], [ -77.24776, 38.78387 ] ], [ [ -77.24886, 38.78332 ], [ -77.24999, 38.78211 ], [ -77.249, 38.78279 ], [ -77.24803, 38.78268 ], [ -77.2479, 38.78228 ], [ -77.24868, 38.78145 ], [ -77.24763, 38.78246 ], [ -77.24783, 38.78378 ], [ -77.24886, 38.78332 ] ], [ [ -77.2465, 38.78349 ], [ -77.24646, 38.78354 ], [ -77.24651, 38.78358 ], [ -77.2465, 38.78349 ] ], [ [ -77.24601, 38.78184 ], [ -77.24631, 38.78201 ], [ -77.24598, 38.7817 ], [ -77.24601, 38.78184 ] ], [ [ -77.2426, 38.7764 ], [ -77.24177, 38.77701 ], [ -77.24267, 38.77657 ], [ -77.2426, 38.7764 ] ], [ [ -77.24664, 38.7935 ], [ -77.24774, 38.79184 ], [ -77.24604, 38.79203 ], [ -77.24584, 38.79267 ], [ -77.24664, 38.7935 ] ], [ [ -77.24795, 38.7949 ], [ -77.24786, 38.79402 ], [ -77.2475, 38.79442 ], [ -77.24795, 38.7949 ] ], [ [ -77.24953, 38.79346 ], [ -77.24889, 38.79281 ], [ -77.24867, 38.79307 ], [ -77.24923, 38.79363 ], [ -77.24953, 38.79346 ] ], [ [ -77.25138, 38.79308 ], [ -77.24991, 38.79162 ], [ -77.2497, 38.79187 ], [ -77.25109, 38.79327 ], [ -77.25138, 38.79308 ] ], [ [ -77.24988, 38.79703 ], [ -77.24989, 38.79698 ], [ -77.24978, 38.79698 ], [ -77.24988, 38.79703 ] ], [ [ -77.25125, 38.79449 ], [ -77.24947, 38.79469 ], [ -77.24935, 38.79504 ], [ -77.25335, 38.79506 ], [ -77.25223, 38.79393 ], [ -77.25125, 38.79449 ] ], [ [ -77.25153, 38.79607 ], [ -77.25193, 38.79614 ], [ -77.25241, 38.79615 ], [ -77.25153, 38.79607 ] ], [ [ -77.2524, 38.79874 ], [ -77.2523, 38.79905 ], [ -77.25249, 38.79908 ], [ -77.2524, 38.79874 ] ], [ [ -77.24036, 38.78758 ], [ -77.24268, 38.7854 ], [ -77.24222, 38.78474 ], [ -77.24247, 38.78437 ], [ -77.24378, 38.78436 ], [ -77.24204, 38.78238 ], [ -77.239, 38.78524 ], [ -77.24036, 38.78758 ] ], [ [ -77.2403, 38.78232 ], [ -77.23996, 38.78225 ], [ -77.24021, 38.7824 ], [ -77.2403, 38.78232 ] ], [ [ -77.23985, 38.78075 ], [ -77.23979, 38.781 ], [ -77.24015, 38.7806 ], [ -77.23985, 38.78075 ] ], [ [ -77.23993, 38.77891 ], [ -77.23974, 38.7787 ], [ -77.23981, 38.77892 ], [ -77.23993, 38.77891 ] ], [ [ -77.24291, 38.78155 ], [ -77.24274, 38.78184 ], [ -77.24317, 38.782 ], [ -77.24291, 38.78155 ] ], [ [ -77.24187, 38.77871 ], [ -77.24206, 38.77844 ], [ -77.24169, 38.77852 ], [ -77.24187, 38.77871 ] ], [ [ -77.24164, 38.77993 ], [ -77.24174, 38.78 ], [ -77.24174, 38.77988 ], [ -77.24164, 38.77993 ] ], [ [ -77.24348, 38.79036 ], [ -77.24317, 38.7903 ], [ -77.24343, 38.79051 ], [ -77.24348, 38.79036 ] ], [ [ -77.24353, 38.78823 ], [ -77.24306, 38.78857 ], [ -77.24379, 38.78844 ], [ -77.24353, 38.78823 ] ], [ [ -77.24184, 38.78805 ], [ -77.24204, 38.78781 ], [ -77.24239, 38.78754 ], [ -77.24213, 38.78759 ], [ -77.24184, 38.78805 ] ], [ [ -77.23895, 38.77484 ], [ -77.23897, 38.77455 ], [ -77.23759, 38.7742 ], [ -77.23761, 38.77459 ], [ -77.23661, 38.7751 ], [ -77.23659, 38.77572 ], [ -77.23895, 38.77484 ] ], [ [ -77.23852, 38.7801 ], [ -77.23775, 38.78024 ], [ -77.23789, 38.78041 ], [ -77.23852, 38.7801 ] ], [ [ -77.23707, 38.77237 ], [ -77.23727, 38.77233 ], [ -77.23726, 38.77228 ], [ -77.23707, 38.77237 ] ], [ [ -77.23117, 38.78709 ], [ -77.23117, 38.78711 ], [ -77.23121, 38.78711 ], [ -77.23117, 38.78709 ] ], [ [ -77.23125, 38.78304 ], [ -77.23302, 38.78269 ], [ -77.23331, 38.7833 ], [ -77.23496, 38.78287 ], [ -77.23378, 38.78156 ], [ -77.23085, 38.78226 ], [ -77.23125, 38.78304 ] ], [ [ -77.2304, 38.78124 ], [ -77.23315, 38.78057 ], [ -77.23282, 38.77996 ], [ -77.23017, 38.78052 ], [ -77.2304, 38.78124 ] ], [ [ -77.23387, 38.78696 ], [ -77.23307, 38.78624 ], [ -77.23252, 38.78652 ], [ -77.23387, 38.78696 ] ], [ [ -77.23409, 38.7842 ], [ -77.23384, 38.78438 ], [ -77.23391, 38.78465 ], [ -77.23409, 38.7842 ] ], [ [ -77.23325, 38.77635 ], [ -77.23284, 38.77683 ], [ -77.23337, 38.77672 ], [ -77.23325, 38.77635 ] ], [ [ -77.2329, 38.77494 ], [ -77.23304, 38.77479 ], [ -77.23293, 38.77477 ], [ -77.2329, 38.77494 ] ], [ [ -77.23368, 38.77408 ], [ -77.2337, 38.77412 ], [ -77.23373, 38.77409 ], [ -77.23368, 38.77408 ] ], [ [ -77.23665, 38.78818 ], [ -77.23668, 38.78806 ], [ -77.23658, 38.78812 ], [ -77.23665, 38.78818 ] ], [ [ -77.23648, 38.78541 ], [ -77.23634, 38.78524 ], [ -77.23631, 38.78529 ], [ -77.23648, 38.78541 ] ], [ [ -77.23481, 38.77476 ], [ -77.2348, 38.77487 ], [ -77.23491, 38.77487 ], [ -77.23481, 38.77476 ] ], [ [ -77.23526, 38.7845 ], [ -77.23511, 38.78396 ], [ -77.23474, 38.78405 ], [ -77.23526, 38.7845 ] ], [ [ -77.2354, 38.78611 ], [ -77.23455, 38.78663 ], [ -77.23576, 38.78643 ], [ -77.2354, 38.78611 ] ], [ [ -77.231, 38.79086 ], [ -77.23105, 38.79084 ], [ -77.231, 38.79083 ], [ -77.231, 38.79086 ] ], [ [ -77.22967, 38.787 ], [ -77.22967, 38.78606 ], [ -77.22912, 38.78603 ], [ -77.22881, 38.78682 ], [ -77.2283, 38.78694 ], [ -77.22773, 38.78645 ], [ -77.22686, 38.78627 ], [ -77.2266, 38.78654 ], [ -77.22705, 38.78722 ], [ -77.22784, 38.78733 ], [ -77.22967, 38.787 ] ], [ [ -77.22965, 38.78326 ], [ -77.22948, 38.78311 ], [ -77.22898, 38.78312 ], [ -77.22965, 38.78326 ] ], [ [ -77.22944, 38.79066 ], [ -77.22945, 38.79064 ], [ -77.22943, 38.79064 ], [ -77.22944, 38.79066 ] ], [ [ -77.22394, 38.78689 ], [ -77.22573, 38.78692 ], [ -77.22599, 38.78665 ], [ -77.22556, 38.78591 ], [ -77.22423, 38.7861 ], [ -77.22352, 38.78557 ], [ -77.22394, 38.78689 ] ], [ [ -77.22374, 38.78893 ], [ -77.22381, 38.78942 ], [ -77.22392, 38.7894 ], [ -77.22374, 38.78893 ] ], [ [ -77.22466, 38.78787 ], [ -77.22466, 38.78794 ], [ -77.22471, 38.78787 ], [ -77.22466, 38.78787 ] ], [ [ -77.22076, 38.78025 ], [ -77.22067, 38.78024 ], [ -77.22066, 38.78031 ], [ -77.22076, 38.78025 ] ], [ [ -77.23006, 38.77606 ], [ -77.23005, 38.776 ], [ -77.22997, 38.776 ], [ -77.23006, 38.77606 ] ] ] } },
{ "type": "Feature", "properties": { "variant": "T0", "miles": 2.0 }, "geometry": { "type": "Polygon", "coordinates": [ [ [ -77.25652, 38.77381 ], [ -77.2558, 38.77433 ], [ -77.25514, 38.77372 ], [ -77.2503, 38.77454 ], [ -77.25145, 38.77489 ], [ -77.25228, 38.77439 ], [ -77.25282, 38.77522 ], [ -77.25411, 38.77583 ], [ -77.25454, 38.77535 ], [ -77.25552, 38.77536 ], [ -77.25528, 38.77706 ], [ -77.2548, 38.77745 ], [ -77.25389, 38.77712 ], [ -77.25335, 38.77885 ], [ -77.25283, 38.77892 ], [ -77.2516, 38.77816 ], [ -77.25181, 38.77766 ], [ -77.25103, 38.77659 ], [ -77.2513, 38.77602 ], [ -77.24987, 38.77557 ], [ -77.24898, 38.77582 ], [ -77.24855, 38.77559 ], [ -77.2487, 38.77485 ], [ -77.2456, 38.77606 ], [ -77.24695, 38.77673 ], [ -77.24771, 38.77772 ], [ -77.24917, 38.77803 ], [ -77.24946, 38.77841 ], [ -77.24872, 38.77932 ], [ -77.25097, 38.78063 ], [ -77.25252, 38.7841 ], [ -77.25233, 38.78462 ], [ -77.25146, 38.78481 ], [ -77.25075, 38.78808 ], [ -77.2497, 38.78812 ], [ -77.24904, 38.78703 ], [ -77.24742, 38.78846 ], [ -77.24849, 38.78948 ], [ -77.24836, 38.79024 ], [ -77.24739, 38.79013 ], [ -77.24631, 38.78911 ], [ -77.24566, 38.78934 ], [ -77.24594, 38.79042 ], [ -77.24479, 38.79088 ], [ -77.24536, 38.79107 ], [ -77.24729, 38.79065 ], [ -77.24862, 38.79118 ], [ -77.24993, 38.78973 ], [ -77.2509, 38.78962 ], [ -77.25117, 38.78997 ], [ -77.25075, 38.79069 ], [ -77.25484, 38.79489 ], [ -77.25539, 38.79469 ], [ -77.25667, 38.79342 ], [ -77.2561, 38.79316 ], [ -77.25608, 38.79395 ], [ -77.25554, 38.79443 ], [ -77.25457, 38.79446 ], [ -77.25375, 38.79259 ], [ -77.25393, 38.79205 ], [ -77.25224, 38.78942 ], [ -77.25238, 38.78707 ], [ -77.25335, 38.78715 ], [ -77.25351, 38.78882 ], [ -77.25444, 38.78881 ], [ -77.25515, 38.78995 ], [ -77.25574, 38.78978 ], [ -77.25567, 38.78916 ], [ -77.25611, 38.78893 ], [ -77.25751, 38.78954 ], [ -77.25779, 38.78901 ], [ -77.25685, 38.78813 ], [ -77.25739, 38.78749 ], [ -77.25973, 38.78898 ], [ -77.26012, 38.78837 ], [ -77.26089, 38.78823 ], [ -77.26092, 38.78731 ], [ -77.26188, 38.78745 ], [ -77.26257, 38.78825 ], [ -77.26401, 38.78777 ], [ -77.26469, 38.78865 ], [ -77.26407, 38.78912 ], [ -77.26423, 38.78974 ], [ -77.26328, 38.79018 ], [ -77.26245, 38.79148 ], [ -77.26203, 38.79326 ], [ -77.25991, 38.79357 ], [ -77.25931, 38.79426 ], [ -77.25779, 38.79405 ], [ -77.25555, 38.79585 ], [ -77.25246, 38.79615 ], [ -77.25282, 38.79685 ], [ -77.25124, 38.79842 ], [ -77.25214, 38.79835 ], [ -77.25238, 38.79866 ], [ -77.25221, 38.79769 ], [ -77.25262, 38.79743 ], [ -77.25333, 38.79765 ], [ -77.25332, 38.79685 ], [ -77.254, 38.79622 ], [ -77.25548, 38.7962 ], [ -77.25715, 38.79508 ], [ -77.2607, 38.79411 ], [ -77.26136, 38.79468 ], [ -77.26006, 38.79707 ], [ -77.26048, 38.79828 ], [ -77.26344, 38.79741 ], [ -77.2641, 38.79797 ], [ -77.26412, 38.7989 ], [ -77.26337, 38.79939 ], [ -77.26234, 38.79887 ], [ -77.26153, 38.799 ], [ -77.26015, 38.79995 ], [ -77.26028, 38.80071 ], [ -77.2597, 38.80092 ], [ -77.25893, 38.80217 ], [ -77.25671, 38.80373 ], [ -77.25726, 38.80451 ], [ -77.25846, 38.80452 ], [ -77.2581, 38.80537 ], [ -77.25897, 38.80639 ], [ -77.25874, 38.80676 ], [ -77.25776, 38.80672 ], [ -77.25657, 38.80752 ], [ -77.2574, 38.80761 ], [ -77.25757, 38.808 ], [ -77.2569, 38.81026 ], [ -77.25602, 38.81053 ], [ -77.25558, 38.81029 ], [ -77.25463, 38.80883 ], [ -77.25321, 38.80978 ], [ -77.25271, 38.8099 ], [ -77.2519, 38.80939 ], [ -77.25047, 38.81014 ], [ -77.24875, 38.81033 ], [ -77.24826, 38.81019 ], [ -77.248, 38.8093 ], [ -77.246, 38.80937 ], [ -77.2452, 38.80904 ], [ -77.24405, 38.8068 ], [ -77.2431, 38.80665 ], [ -77.24289, 38.80627 ], [ -77.24296, 38.80493 ], [ -77.24049, 38.80467 ], [ -77.24, 38.80736 ], [ -77.23918, 38.80778 ], [ -77.23875, 38.80755 ], [ -77.23875, 38.80678 ], [ -77.23748, 38.80689 ], [ -77.23713, 38.80658 ], [ -77.23754, 38.80589 ], [ -77.23896, 38.8057 ], [ -77.23903, 38.80519 ], [ -77.23827, 38.8057 ], [ -77.2369, 38.80499 ], [ -77.23796, 38.80347 ], [ -77.23718, 38.80362 ], [ -77.23628, 38.80443 ], [ -77.2348, 38.80359 ], [ -77.23486, 38.80318 ], [ -77.23617, 38.80273 ], [ -77.23661, 38.80201 ], [ -77.23727, 38.80218 ], [ -77.23802, 38.8012 ], [ -77.23897, 38.80072 ], [ -77.23963, 38.80129 ], [ -77.23871, 38.80226 ], [ -77.23899, 38.8024 ], [ -77.24187, 38.79892 ], [ -77.23503, 38.80208 ], [ -77.2332, 38.80146 ], [ -77.23226, 38.8001 ], [ -77.23224, 38.79933 ], [ -77.23314, 38.79929 ], [ -77.23396, 38.79796 ], [ -77.23319, 38.79686 ], [ -77.23366, 38.79614 ], [ -77.23473, 38.79595 ], [ -77.23549, 38.79661 ], [ -77.23626, 38.79655 ], [ -77.23656, 38.79602 ], [ -77.23724, 38.79582 ], [ -77.23689, 38.79527 ], [ -77.23719, 38.79493 ], [ -77.23772, 38.79474 ], [ -77.23933, 38.79456 ], [ -77.23777, 38.79434 ], [ -77.23666, 38.79491 ], [ -77.23457, 38.79458 ], [ -77.2337, 38.79479 ], [ -77.23338, 38.79411 ], [ -77.23245, 38.79401 ], [ -77.23231, 38.79361 ], [ -77.23301, 38.79271 ], [ -77.23232, 38.79283 ], [ -77.23183, 38.79239 ], [ -77.23092, 38.79276 ], [ -77.22986, 38.79224 ], [ -77.22975, 38.79182 ], [ -77.22929, 38.79229 ], [ -77.22846, 38.79192 ], [ -77.22775, 38.79229 ], [ -77.22681, 38.79156 ], [ -77.2241, 38.79152 ], [ -77.22387, 38.79052 ], [ -77.22197, 38.79063 ], [ -77.22107, 38.79112 ], [ -77.22038, 38.79058 ], [ -77.22072, 38.7901 ], [ -77.21792, 38.78947 ], [ -77.21392, 38.78652 ], [ -77.21436, 38.78583 ], [ -77.21562, 38.78617 ], [ -77.21636, 38.78542 ], [ -77.21688, 38.78545 ], [ -77.21709, 38.78631 ], [ -77.21806, 38.78664 ], [ -77.21735, 38.78777 ], [ -77.21757, 38.78796 ], [ -77.21898, 38.78684 ], [ -77.21948, 38.78696 ], [ -77.21973, 38.78732 ], [ -77.21919, 38.78809 ], [ -77.22, 38.78815 ], [ -77.22002, 38.78888 ], [ -77.22034, 38.78837 ], [ -77.21993, 38.78709 ], [ -77.22087, 38.78688 ], [ -77.22126, 38.78741 ], [ -77.2226, 38.78715 ], [ -77.22222, 38.78596 ], [ -77.22048, 38.78622 ], [ -77.21838, 38.78559 ], [ -77.21726, 38.78406 ], [ -77.21642, 38.78433 ], [ -77.21599, 38.78409 ], [ -77.21605, 38.78351 ], [ -77.21522, 38.78332 ], [ -77.21511, 38.78194 ], [ -77.2134, 38.7815 ], [ -77.213, 38.78082 ], [ -77.21329, 38.7802 ], [ -77.21259, 38.78009 ], [ -77.2123, 38.77919 ], [ -77.21311, 38.77801 ], [ -77.21493, 38.77782 ], [ -77.21478, 38.77686 ], [ -77.2133, 38.77697 ], [ -77.21167, 38.77656 ], [ -77.21125, 38.77587 ], [ -77.21213, 38.77554 ], [ -77.21346, 38.7759 ], [ -77.21531, 38.77586 ], [ -77.21555, 38.77548 ], [ -77.21288, 38.77441 ], [ -77.2129, 38.774 ], [ -77.21381, 38.77373 ], [ -77.21577, 38.77441 ], [ -77.21907, 38.77465 ], [ -77.21956, 38.77537 ], [ -77.22054, 38.77552 ], [ -77.22253, 38.77688 ], [ -77.22362, 38.77867 ], [ -77.22654, 38.77995 ], [ -77.23215, 38.77883 ], [ -77.23138, 38.7769 ], [ -77.23052, 38.77683 ], [ -77.22982, 38.77721 ], [ -77.22878, 38.77657 ], [ -77.22822, 38.77556 ], [ -77.22889, 38.77495 ], [ -77.2308, 38.77489 ], [ -77.23096, 38.77376 ], [ -77.22822, 38.77322 ], [ -77.2278, 38.77271 ], [ -77.22638, 38.77309 ], [ -77.22454, 38.77241 ], [ -77.22346, 38.77249 ], [ -77.22318, 38.77299 ], [ -77.22208, 38.7726 ], [ -77.22151, 38.77322 ], [ -77.22099, 38.77312 ], [ -77.22061, 38.77201 ], [ -77.22117, 38.77071 ], [ -77.21981, 38.77088 ], [ -77.21938, 38.77183 ], [ -77.21843, 38.77167 ], [ -77.21841, 38.76962 ], [ -77.22101, 38.76964 ], [ -77.21932, 38.76807 ], [ -77.21933, 38.76742 ], [ -77.22016, 38.76702 ], [ -77.22136, 38.76815 ], [ -77.22194, 38.76779 ], [ -77.22062, 38.76625 ], [ -77.2213, 38.7657 ], [ -77.22138, 38.76477 ], [ -77.22256, 38.76438 ], [ -77.22299, 38.76462 ], [ -77.2228, 38.76534 ], [ -77.22322, 38.76566 ], [ -77.22487, 38.7638 ], [ -77.22562, 38.76392 ], [ -77.22725, 38.76272 ], [ -77.22866, 38.76378 ], [ -77.2295, 38.76343 ], [ -77.22991, 38.76368 ], [ -77.22978, 38.76448 ], [ -77.23029, 38.76304 ], [ -77.23077, 38.76288 ], [ -77.23147, 38.76342 ], [ -77.23138, 38.76468 ], [ -77.23246, 38.76427 ], [ -77.23289, 38.7645 ], [ -77.23299, 38.76491 ], [ -77.23188, 38.76582 ], [ -77.23143, 38.76685 ], [ -77.23173, 38.76701 ], [ -77.23253, 38.76655 ], [ -77.23398, 38.76677 ], [ -77.23375, 38.76802 ], [ -77.23312, 38.76828 ], [ -77.23289, 38.76978 ], [ -77.23388, 38.76841 ], [ -77.23477, 38.76831 ], [ -77.23448, 38.76766 ], [ -77.23478, 38.76732 ], [ -77.2353, 38.76725 ], [ -77.23602, 38.76783 ], [ -77.23661, 38.76745 ], [ -77.23668, 38.76588 ], [ -77.2383, 38.76561 ], [ -77.241, 38.76695 ], [ -77.24081, 38.76861 ], [ -77.23951, 38.76951 ], [ -77.24128, 38.77045 ], [ -77.24188, 38.77128 ], [ -77.24341, 38.77113 ], [ -77.24502, 38.77165 ], [ -77.24614, 38.77077 ], [ -77.24709, 38.77076 ], [ -77.24878, 38.76884 ], [ -77.24926, 38.76868 ], [ -77.25007, 38.76909 ], [ -77.25122, 38.76857 ], [ -77.25257, 38.76989 ], [ -77.25077, 38.77171 ], [ -77.25161, 38.77304 ], [ -77.25596, 38.77212 ], [ -77.25658, 38.77291 ], [ -77.25652, 38.77381 ] ], [ [ -77.2392, 38.80396 ], [ -77.23907, 38.80411 ], [ -77.23918, 38.80412 ], [ -77.2392, 38.80396 ] ], [ [ -77.2402, 38.79756 ], [ -77.24057, 38.79684 ], [ -77.24171, 38.79684 ], [ -77.24238, 38.79741 ], [ -77.24549, 38.79621 ], [ -77.2471, 38.79619 ], [ -77.24642, 38.79527 ], [ -77.2414, 38.79541 ], [ -77.24137, 38.79464 ], [ -77.24185, 38.79447 ], [ -77.24551, 38.79436 ], [ -77.2439, 38.79271 ], [ -77.2429, 38.79271 ], [ -77.24113, 38.79122 ], [ -77.23991, 38.79208 ], [ -77.24073, 38.79338 ], [ -77.24065, 38.79491 ], [ -77.24008, 38.79547 ], [ -77.23889, 38.79574 ], [ -77.23951, 38.79631 ], [ -77.23851, 38.79688 ], [ -77.2386, 38.79778 ], [ -77.23917, 38.79811 ], [ -77.2402, 38.79756 ] ], [ [ -77.23891, 38.78923 ], [ -77.23905, 38.78933 ], [ -77.23846, 38.78872 ], [ -77.23891, 38.78923 ] ], [ [ -77.23934, 38.78323 ], [ -77.23766, 38.78179 ], [ -77.23647, 38.7824 ], [ -77.23721, 38.78314 ], [ -77.23791, 38.78324 ], [ -77.23827, 38.78423 ], [ -77.23934, 38.78323 ] ], [ [ -77.23993, 38.78075 ], [ -77.24015, 38.7806 ], [ -77.23975, 38.7808 ], [ -77.23993, 38.78075 ] ], [ [ -77.2384, 38.77992 ], [ -77.23775, 38.78024 ], [ -77.23789, 38.78041 ], [ -77.2384, 38.77992 ] ], [ [ -77.24049, 38.77659 ], [ -77.24047, 38.77575 ], [ -77.23968, 38.77632 ], [ -77.23898, 38.77591 ], [ -77.23864, 38.77622 ], [ -77.24049, 38.77659 ] ], [ [ -77.23897, 38.77455 ], [ -77.23759, 38.7742 ], [ -77.23761, 38.77459 ], [ -77.23661, 38.7751 ], [ -77.23659, 38.77572 ], [ -77.23897, 38.77496 ], [ -77.23897, 38.77455 ] ], [ [ -77.23802, 38.77117 ], [ -77.23794, 38.77113 ], [ -77.23795, 38.77135 ], [ -77.23802, 38.77117 ] ], [ [ -77.2386, 38.76819 ], [ -77.23837, 38.76777 ], [ -77.2378, 38.76849 ], [ -77.23807, 38.76899 ], [ -77.2386, 38.76819 ] ], [ [ -77.24711, 38.77375 ], [ -77.2454, 38.77305 ], [ -77.24417, 38.77296 ], [ -77.24327, 38.77221 ], [ -77.24103, 38.77234 ], [ -77.24382, 38.77575 ], [ -77.24711, 38.77375 ] ], [ [ -77.2484, 38.80678 ], [ -77.24721, 38.80679 ], [ -77.24684, 38.80741 ], [ -77.2482, 38.80727 ], [ -77.2484, 38.80678 ] ], [ [ -77.24817, 38.79432 ], [ -77.24786, 38.79402 ], [ -77.2475, 38.79442 ], [ -77.24799, 38.79486 ], [ -77.24817, 38.79432 ] ], [ [ -77.2479, 38.79202 ], [ -77.24707, 38.79173 ], [ -77.24604, 38.79203 ], [ -77.24584, 38.79267 ], [ -77.24664, 38.7935 ], [ -77.2479, 38.79202 ] ], [ [ -77.25067, 38.79494 ], [ -77.25335, 38.79506 ], [ -77.25223, 38.79393 ], [ -77.25125, 38.79449 ], [ -77.24947, 38.79469 ], [ -77.24935, 38.79504 ], [ -77.25067, 38.79494 ] ], [ [ -77.24991, 38.79162 ], [ -77.2497, 38.79187 ], [ -77.25109, 38.79327 ], [ -77.25138, 38.79308 ], [ -77.24991, 38.79162 ] ], [ [ -77.2573, 38.7914 ], [ -77.25918, 38.78998 ], [ -77.25887, 38.78984 ], [ -77.25731, 38.79102 ], [ -77.25653, 38.79212 ], [ -77.2573, 38.7914 ] ], [ [ -77.26169, 38.79025 ], [ -77.26176, 38.79033 ], [ -77.26182, 38.79023 ], [ -77.26169, 38.79025 ] ], [ [ -77.26065, 38.79114 ], [ -77.26073, 38.79115 ], [ -77.2607, 38.79109 ], [ -77.26065, 38.79114 ] ], [ [ -77.25193, 38.79614 ], [ -77.25241, 38.79615 ], [ -77.25153, 38.79607 ], [ -77.25193, 38.79614 ] ], [ [ -77.25513, 38.80691 ], [ -77.25531, 38.80679 ], [ -77.25508, 38.80684 ], [ -77.25513, 38.80691 ] ], [ [ -77.25443, 38.80581 ], [ -77.25459, 38.80604 ], [ -77.25468, 38.80591 ], [ -77.25443, 38.80581 ] ], [ [ -77.25579, 38.80284 ], [ -77.25573, 38.80286 ], [ -77.25575, 38.8029 ], [ -77.25579, 38.80284 ] ], [ [ -77.25542, 38.80126 ], [ -77.25588, 38.80073 ], [ -77.25566, 38.80015 ], [ -77.25467, 38.80058 ], [ -77.2548, 38.80144 ], [ -77.25303, 38.80281 ], [ -77.25431, 38.80212 ], [ -77.2561, 38.80181 ], [ -77.25542, 38.80126 ] ], [ [ -77.25249, 38.79908 ], [ -77.2524, 38.79874 ], [ -77.2523, 38.79905 ], [ -77.25249, 38.79908 ] ], [ [ -77.25804, 38.79596 ], [ -77.25682, 38.79676 ], [ -77.25862, 38.79799 ], [ -77.25893, 38.79771 ], [ -77.25857, 38.79669 ], [ -77.25804, 38.79596 ] ], [ [ -77.2592, 38.7991 ], [ -77.25917, 38.79904 ], [ -77.25914, 38.79916 ], [ -77.2592, 38.7991 ] ], [ [ -77.25768, 38.79908 ], [ -77.25808, 38.79926 ], [ -77.25741, 38.79853 ], [ -77.25768, 38.79908 ] ], [ [ -77.25831, 38.80075 ], [ -77.25838, 38.80059 ], [ -77.25773, 38.80073 ], [ -77.25811, 38.80109 ], [ -77.25831, 38.80075 ] ], [ [ -77.25733, 38.80048 ], [ -77.25708, 38.80009 ], [ -77.25716, 38.80032 ], [ -77.25733, 38.80048 ] ], [ [ -77.25028, 38.80337 ], [ -77.25141, 38.80395 ], [ -77.25093, 38.80328 ], [ -77.25028, 38.80337 ] ], [ [ -77.25276, 38.80016 ], [ -77.25134, 38.8008 ], [ -77.25208, 38.80102 ], [ -77.25261, 38.80064 ], [ -77.25311, 38.80075 ], [ -77.25337, 38.80009 ], [ -77.25276, 38.80016 ] ], [ [ -77.25357, 38.80713 ], [ -77.25353, 38.80706 ], [ -77.25354, 38.8071 ], [ -77.25357, 38.80713 ] ], [ [ -77.24965, 38.79359 ], [ -77.24889, 38.79281 ], [ -77.24867, 38.79307 ], [ -77.24965, 38.79359 ] ], [ [ -77.24978, 38.79698 ], [ -77.24988, 38.79705 ], [ -77.24989, 38.79698 ], [ -77.24978, 38.79698 ] ], [ [ -77.24999, 38.80463 ], [ -77.25026, 38.8046 ], [ -77.25019, 38.80456 ], [ -77.24999, 38.80463 ] ], [ [ -77.2498, 38.80547 ], [ -77.2498, 38.80557 ], [ -77.24986, 38.80555 ], [ -77.2498, 38.80547 ] ], [ [ -77.24981, 38.80726 ], [ -77.24974, 38.80717 ], [ -77.24973, 38.8072 ], [ -77.24981, 38.80726 ] ], [ [ -77.24692, 38.78504 ], [ -77.24556, 38.78437 ], [ -77.24505, 38.78484 ], [ -77.24569, 38.78532 ], [ -77.24562, 38.78608 ], [ -77.24344, 38.78692 ], [ -77.24312, 38.78738 ], [ -77.24418, 38.78734 ], [ -77.24472, 38.7868 ], [ -77.24681, 38.7863 ], [ -77.24692, 38.78504 ] ], [ [ -77.24721, 38.78415 ], [ -77.24765, 38.78411 ], [ -77.24776, 38.78387 ], [ -77.24721, 38.78415 ] ], [ [ -77.24999, 38.78211 ], [ -77.249, 38.78279 ], [ -77.24803, 38.78268 ], [ -77.2479, 38.78228 ], [ -77.24868, 38.78145 ], [ -77.24763, 38.78246 ], [ -77.24783, 38.78378 ], [ -77.24999, 38.78211 ] ], [ [ -77.248, 38.78033 ], [ -77.24607, 38.77861 ], [ -77.24532, 38.77909 ], [ -77.24481, 38.77898 ], [ -77.24487, 38.77977 ], [ -77.24379, 38.78071 ], [ -77.24462, 38.78189 ], [ -77.245, 38.78148 ], [ -77.24584, 38.78157 ], [ -77.24565, 38.78077 ], [ -77.24603, 38.78049 ], [ -77.24656, 38.78051 ], [ -77.24719, 38.78115 ], [ -77.248, 38.78033 ] ], [ [ -77.24222, 38.78474 ], [ -77.24247, 38.78437 ], [ -77.24378, 38.78436 ], [ -77.24204, 38.78238 ], [ -77.239, 38.78524 ], [ -77.24035, 38.78759 ], [ -77.24268, 38.7854 ], [ -77.24222, 38.78474 ] ], [ [ -77.23996, 38.78225 ], [ -77.24021, 38.7824 ], [ -77.2403, 38.78232 ], [ -77.23996, 38.78225 ] ], [ [ -77.23996, 38.77873 ], [ -77.23974, 38.7787 ], [ -77.23981, 38.77892 ], [ -77.23996, 38.77873 ] ], [ [ -77.24322, 38.7783 ], [ -77.24312, 38.77966 ], [ -77.24383, 38.77905 ], [ -77.24322, 38.7783 ] ], [ [ -77.24436, 38.77705 ], [ -77.24404, 38.77734 ], [ -77.24469, 38.77735 ], [ -77.24436, 38.77705 ] ], [ [ -77.24256, 38.7819 ], [ -77.24317, 38.782 ], [ -77.24307, 38.78177 ], [ -77.24256, 38.7819 ] ], [ [ -77.24631, 38.78201 ], [ -77.24598, 38.7817 ], [ -77.24601, 38.78184 ], [ -77.24631, 38.78201 ] ], [ [ -77.2465, 38.78349 ], [ -77.24646, 38.78354 ], [ -77.24651, 38.78358 ], [ -77.2465, 38.78349 ] ], [ [ -77.24263, 38.77659 ], [ -77.2426, 38.7764 ], [ -77.2419, 38.77665 ], [ -77.24263, 38.77659 ] ], [ [ -77.24166, 38.77994 ], [ -77.24174, 38.78 ], [ -77.24174, 38.77988 ], [ -77.24166, 38.77994 ] ], [ [ -77.24282, 38.77817 ], [ -77.24303, 38.77818 ], [ -77.24294, 38.77812 ], [ -77.24282, 38.77817 ] ], [ [ -77.24206, 38.77844 ], [ -77.24169, 38.77852 ], [ -77.24187, 38.77871 ], [ -77.24206, 38.77844 ] ], [ [ -77.24317, 38.7903 ], [ -77.24343, 38.79051 ], [ -77.24348, 38.79036 ], [ -77.24317, 38.7903 ] ], [ [ -77.24353, 38.78823 ], [ -77.24306, 38.78857 ], [ -77.24379, 38.78844 ], [ -77.24353, 38.78823 ] ], [ [ -77.2455, 38.80705 ], [ -77.24571, 38.80679 ], [ -77.24543, 38.80679 ], [ -77.2455, 38.80705 ] ], [ [ -77.23948, 38.76938 ], [ -77.23947, 38.76945 ], [ -77.23949, 38.76942 ], [ -77.23948, 38.76938 ] ], [ [ -77.24204, 38.78781 ], [ -77.24239, 38.78754 ], [ -77.24213, 38.78759 ], [ -77.24184, 38.78805 ], [ -77.24204, 38.78781 ] ], [ [ -77.23117, 38.78711 ], [ -77.23121, 38.78711 ], [ -77.23117, 38.78709 ], [ -77.23117, 38.78711 ] ], [ [ -77.23417, 38.78676 ], [ -77.23327, 38.78629 ], [ -77.23252, 38.78652 ], [ -77.23417, 38.78676 ] ], [ [ -77.23302, 38.78269 ], [ -77.23331, 38.7833 ], [ -77.23496, 38.78287 ], [ -77.23378, 38.78156 ], [ -77.23085, 38.78226 ], [ -77.23125, 38.78304 ], [ -77.23302, 38.78269 ] ], [ [ -77.23315, 38.78057 ], [ -77.23282, 38.77996 ], [ -77.23017, 38.78052 ], [ -77.2304, 38.78124 ], [ -77.23315, 38.78057 ] ], [ [ -77.23181, 38.76862 ], [ -77.23024, 38.76741 ], [ -77.22931, 38.76872 ], [ -77.23115, 38.76964 ], [ -77.23181, 38.76862 ] ], [ [ -77.23673, 38.78823 ], [ -77.23679, 38.78827 ], [ -77.23668, 38.78806 ], [ -77.23673, 38.78823 ] ], [ [ -77.2354, 38.78611 ], [ -77.23486, 38.78615 ], [ -77.23455, 38.78663 ], [ -77.23549, 38.78646 ], [ -77.2354, 38.78611 ] ], [ [ -77.23511, 38.78396 ], [ -77.23474, 38.78405 ], [ -77.23526, 38.7845 ], [ -77.23511, 38.78396 ] ], [ [ -77.23671, 38.78098 ], [ -77.23627, 38.78013 ], [ -77.23668, 38.77928 ], [ -77.23433, 38.77964 ], [ -77.23561, 38.78154 ], [ -77.23671, 38.78098 ] ], [ [ -77.23481, 38.77476 ], [ -77.23469, 38.77489 ], [ -77.2348, 38.77487 ], [ -77.23481, 38.77476 ] ], [ [ -77.23603, 38.77342 ], [ -77.23555, 38.77313 ], [ -77.23527, 38.77407 ], [ -77.23603, 38.77342 ] ], [ [ -77.23726, 38.77228 ], [ -77.23707, 38.77237 ], [ -77.23727, 38.77233 ], [ -77.23726, 38.77228 ] ], [ [ -77.2362, 38.77685 ], [ -77.2359, 38.77711 ], [ -77.23679, 38.77701 ], [ -77.2362, 38.77685 ] ], [ [ -77.23634, 38.78524 ], [ -77.23631, 38.78529 ], [ -77.23648, 38.78541 ], [ -77.23634, 38.78524 ] ], [ [ -77.2353, 38.76877 ], [ -77.23505, 38.76861 ], [ -77.23511, 38.76869 ], [ -77.2353, 38.76877 ] ], [ [ -77.23451, 38.77129 ], [ -77.23527, 38.77101 ], [ -77.23519, 38.77089 ], [ -77.23451, 38.77129 ] ], [ [ -77.23373, 38.77409 ], [ -77.23367, 38.77408 ], [ -77.2337, 38.77412 ], [ -77.23373, 38.77409 ] ], [ [ -77.2329, 38.77494 ], [ -77.23304, 38.77479 ], [ -77.23293, 38.77477 ], [ -77.2329, 38.77494 ] ], [ [ -77.23337, 38.77672 ], [ -77.23325, 38.77635 ], [ -77.2328, 38.77676 ], [ -77.23337, 38.77672 ] ], [ [ -77.23384, 38.78453 ], [ -77.23391, 38.78465 ], [ -77.23409, 38.7842 ], [ -77.23384, 38.78453 ] ], [ [ -77.22256, 38.77077 ], [ -77.22255, 38.77085 ], [ -77.22264, 38.77071 ], [ -77.22256, 38.77077 ] ], [ [ -77.22361, 38.76928 ], [ -77.22348, 38.76937 ], [ -77.22364, 38.76944 ], [ -77.22361, 38.76928 ] ], [ [ -77.22221, 38.76901 ], [ -77.2224, 38.76952 ], [ -77.2228, 38.76958 ], [ -77.22221, 38.76901 ] ], [ [ -77.22327, 38.76746 ], [ -77.22346, 38.76737 ], [ -77.22325, 38.76727 ], [ -77.22327, 38.76746 ] ], [ [ -77.23006, 38.77606 ], [ -77.23005, 38.776 ], [ -77.22998, 38.776 ], [ -77.23006, 38.77606 ] ], [ [ -77.22506, 38.76635 ], [ -77.22506, 38.76633 ], [ -77.22505, 38.76635 ], [ -77.22506, 38.76635 ] ], [ [ -77.22628, 38.76487 ], [ -77.2263, 38.76491 ], [ -77.22652, 38.76477 ], [ -77.22628, 38.76487 ] ], [ [ -77.2264, 38.7658 ], [ -77.22672, 38.76574 ], [ -77.22644, 38.76571 ], [ -77.2264, 38.7658 ] ], [ [ -77.225, 38.76554 ], [ -77.225, 38.76539 ], [ -77.22485, 38.76545 ], [ -77.225, 38.76554 ] ], [ [ -77.22967, 38.78606 ], [ -77.22912, 38.78603 ], [ -77.22881, 38.78682 ], [ -77.2283, 38.78694 ], [ -77.22773, 38.78645 ], [ -77.22686, 38.78627 ], [ -77.2266, 38.78654 ], [ -77.22705, 38.78722 ], [ -77.22784, 38.78733 ], [ -77.22967, 38.787 ], [ -77.22967, 38.78606 ] ], [ [ -77.22948, 38.78311 ], [ -77.22898, 38.78312 ], [ -77.22965, 38.78326 ], [ -77.22948, 38.78311 ] ], [ [ -77.2287, 38.78084 ], [ -77.22551, 38.78116 ], [ -77.22266, 38.78054 ], [ -77.22032, 38.78216 ], [ -77.22163, 38.78255 ], [ -77.22226, 38.7821 ], [ -77.22275, 38.78225 ], [ -77.22309, 38.78346 ], [ -77.22348, 38.78317 ], [ -77.22611, 38.78303 ], [ -77.22609, 38.78213 ], [ -77.22677, 38.78159 ], [ -77.22744, 38.78206 ], [ -77.22915, 38.78204 ], [ -77.2287, 38.78084 ] ], [ [ -77.22944, 38.79066 ], [ -77.22945, 38.79064 ], [ -77.22943, 38.79064 ], [ -77.22944, 38.79066 ] ], [ [ -77.22363, 38.78873 ], [ -77.22381, 38.78942 ], [ -77.22392, 38.7894 ], [ -77.22363, 38.78873 ] ], [ [ -77.22573, 38.78692 ], [ -77.22599, 38.78665 ], [ -77.22556, 38.78591 ], [ -77.22423, 38.7861 ], [ -77.22352, 38.78557 ], [ -77.22394, 38.78689 ], [ -77.22573, 38.78692 ] ], [ [ -77.22471, 38.78787 ], [ -77.22461, 38.78788 ], [ -77.22466, 38.78794 ], [ -77.22471, 38.78787 ] ], [ [ -77.21699, 38.78238 ], [ -77.21703, 38.78244 ], [ -77.21711, 38.78238 ], [ -77.21699, 38.78238 ] ], [ [ -77.21899, 38.77882 ], [ -77.21861, 38.7785 ], [ -77.21869, 38.77863 ], [ -77.21899, 38.77882 ] ], [ [ -77.21535, 38.77915 ], [ -77.21527, 38.77887 ], [ -77.21511, 38.77894 ], [ -77.21535, 38.77915 ] ], [ [ -77.21633, 38.77774 ], [ -77.21684, 38.77752 ], [ -77.2167, 38.77746 ], [ -77.2162, 38.77734 ], [ -77.21633, 38.77774 ] ], [ [ -77.22076, 38.78025 ], [ -77.22067, 38.78024 ], [ -77.22066, 38.78031 ], [ -77.22076, 38.78025 ] ], [ [ -77.2199, 38.78077 ], [ -77.21996, 38.78072 ], [ -77.21978, 38.78071 ], [ -77.2199, 38.78077 ] ], [ [ -77.21593, 38.78095 ], [ -77.21565, 38.78087 ], [ -77.21577, 38.78099 ], [ -77.21593, 38.78095 ] ], [ [ -77.2173, 38.78113 ], [ -77.21723, 38.78133 ], [ -77.21744, 38.78139 ], [ -77.2173, 38.78113 ] ], [ [ -77.21949, 38.78478 ], [ -77.21955, 38.78446 ], [ -77.21891, 38.78449 ], [ -77.21949, 38.78478 ] ], [ [ -77.22206, 38.78483 ], [ -77.22197, 38.78489 ], [ -77.22202, 38.78489 ], [ -77.22206, 38.78483 ] ], [ [ -77.22089, 38.78474 ], [ -77.22047, 38.78509 ], [ -77.22066, 38.78514 ], [ -77.22122, 38.78503 ], [ -77.22089, 38.78474 ] ], [ [ -77.22213, 38.78835 ], [ -77.22179, 38.78841 ], [ -77.22209, 38.78848 ], [ -77.22213, 38.78835 ] ], [ [ -77.22245, 38.7896 ], [ -77.22237, 38.78933 ], [ -77.222, 38.7895 ], [ -77.22245, 38.7896 ] ], [ [ -77.23833, 38.79578 ], [ -77.2384, 38.79577 ], [ -77.23818, 38.79578 ], [ -77.23833, 38.79578 ] ], [ [ -77.23537, 38.79923 ], [ -77.23569, 38.79851 ], [ -77.23505, 38.79869 ], [ -77.2349, 38.79913 ], [ -77.23537, 38.79923 ] ] ] } },
{ "type": "Feature", "properties": { "variant": "T2s", "miles": 1.0 }, "geometry": { "type": "Polygon", "coordinates": [ [ [ -77.24905, 38.78105 ], [ -77.24763, 38.78246 ], [ -77.24798, 38.78339 ], [ -77.24721, 38.78415 ], [ -77.24722, 38.78494 ], [ -77.24625, 38.78493 ], [ -77.24556, 38.78437 ], [ -77.24505, 38.78484 ], [ -77.24569, 38.78532 ], [ -77.24562, 38.78608 ], [ -77.24344, 38.78692 ], [ -77.24312, 38.78738 ], [ -77.24418, 38.78734 ], [ -77.24492, 38.78672 ], [ -77.24558, 38.78682 ], [ -77.24587, 38.78634 ], [ -77.24697, 38.78644 ], [ -77.24689, 38.78554 ], [ -77.24789, 38.78542 ], [ -77.24797, 38.78462 ], [ -77.24846, 38.78446 ], [ -77.25025, 38.78447 ], [ -77.25099, 38.78497 ], [ -77.25063, 38.78554 ], [ -77.25124, 38.78634 ], [ -77.2507, 38.78751 ], [ -77.24966, 38.78776 ], [ -77.24904, 38.78703 ], [ -77.24742, 38.78846 ], [ -77.24849, 38.78948 ], [ -77.24836, 38.79024 ], [ -77.24739, 38.79013 ], [ -77.24631, 38.78911 ], [ -77.24566, 38.78934 ], [ -77.24594, 38.79042 ], [ -77.24478, 38.79075 ], [ -77.24529, 38.79107 ], [ -77.24763, 38.79071 ], [ -77.24841, 38.79118 ], [ -77.24836, 38.79155 ], [ -77.24921, 38.79146 ], [ -77.24951, 38.7918 ], [ -77.24867, 38.79307 ], [ -77.2496, 38.79428 ], [ -77.24817, 38.79705 ], [ -77.24765, 38.79699 ], [ -77.24431, 38.79308 ], [ -77.23957, 38.78888 ], [ -77.2374, 38.78549 ], [ -77.23419, 38.78208 ], [ -77.23282, 38.77996 ], [ -77.22937, 38.78069 ], [ -77.22847, 38.78016 ], [ -77.22896, 38.77951 ], [ -77.23215, 38.77883 ], [ -77.23075, 38.77553 ], [ -77.23137, 38.77486 ], [ -77.23221, 38.77563 ], [ -77.23267, 38.77542 ], [ -77.23341, 38.77582 ], [ -77.23424, 38.77569 ], [ -77.23471, 38.77643 ], [ -77.23599, 38.77632 ], [ -77.23617, 38.7767 ], [ -77.23555, 38.77733 ], [ -77.23666, 38.77692 ], [ -77.23708, 38.77753 ], [ -77.23907, 38.77738 ], [ -77.23981, 38.77892 ], [ -77.24074, 38.779 ], [ -77.24104, 38.77975 ], [ -77.24174, 38.78 ], [ -77.24182, 38.77884 ], [ -77.24243, 38.7782 ], [ -77.24344, 38.77848 ], [ -77.24312, 38.77966 ], [ -77.24386, 38.77902 ], [ -77.24484, 38.779 ], [ -77.24487, 38.77977 ], [ -77.24379, 38.78071 ], [ -77.24462, 38.78189 ], [ -77.245, 38.78148 ], [ -77.24584, 38.78157 ], [ -77.24565, 38.78077 ], [ -77.24603, 38.78049 ], [ -77.24656, 38.78051 ], [ -77.24719, 38.78115 ], [ -77.24819, 38.78016 ], [ -77.24871, 38.78012 ], [ -77.24912, 38.78038 ], [ -77.24905, 38.78105 ] ], [ [ -77.24268, 38.7854 ], [ -77.24256, 38.78431 ], [ -77.24378, 38.78436 ], [ -77.24204, 38.78238 ], [ -77.239, 38.78524 ], [ -77.24035, 38.78759 ], [ -77.24268, 38.7854 ] ], [ [ -77.23827, 38.78423 ], [ -77.23934, 38.78323 ], [ -77.23766, 38.78179 ], [ -77.23647, 38.7824 ], [ -77.23721, 38.78314 ], [ -77.23791, 38.78324 ], [ -77.23827, 38.78423 ] ], [ [ -77.23975, 38.7808 ], [ -77.23993, 38.78075 ], [ -77.24015, 38.7806 ], [ -77.23975, 38.7808 ] ], [ [ -77.23845, 38.78014 ], [ -77.23852, 38.77933 ], [ -77.23837, 38.77888 ], [ -77.2376, 38.78005 ], [ -77.23789, 38.78041 ], [ -77.23845, 38.78014 ] ], [ [ -77.2465, 38.78349 ], [ -77.24646, 38.78354 ], [ -77.24651, 38.78358 ], [ -77.2465, 38.78349 ] ], [ [ -77.24317, 38.782 ], [ -77.24291, 38.78155 ], [ -77.24256, 38.7819 ], [ -77.24317, 38.782 ] ], [ [ -77.24607, 38.78189 ], [ -77.24626, 38.78206 ], [ -77.24598, 38.7817 ], [ -77.24607, 38.78189 ] ], [ [ -77.24004, 38.78218 ], [ -77.24021, 38.7824 ], [ -77.2403, 38.78232 ], [ -77.24004, 38.78218 ] ], [ [ -77.24317, 38.7903 ], [ -77.24348, 38.79036 ], [ -77.24356, 38.79022 ], [ -77.24317, 38.7903 ] ], [ [ -77.24379, 38.78844 ], [ -77.24353, 38.78823 ], [ -77.24306, 38.78857 ], [ -77.24379, 38.78844 ] ], [ [ -77.24799, 38.79486 ], [ -77.24817, 38.79432 ], [ -77.24786, 38.79402 ], [ -77.2475, 38.79442 ], [ -77.24799, 38.79486 ] ], [ [ -77.24664, 38.7935 ], [ -77.24816, 38.79172 ], [ -77.24604, 38.79203 ], [ -77.24584, 38.79267 ], [ -77.24664, 38.7935 ] ], [ [ -77.24222, 38.78751 ], [ -77.24184, 38.78806 ], [ -77.24239, 38.78754 ], [ -77.24222, 38.78751 ] ], [ [ -77.23627, 38.78013 ], [ -77.23689, 38.77975 ], [ -77.23668, 38.77928 ], [ -77.23433, 38.77964 ], [ -77.23561, 38.78154 ], [ -77.23671, 38.78098 ], [ -77.23627, 38.78013 ] ], [ [ -77.23468, 38.77756 ], [ -77.23472, 38.7777 ], [ -77.23481, 38.77753 ], [ -77.23468, 38.77756 ] ], [ [ -77.23305, 38.77656 ], [ -77.23337, 38.77672 ], [ -77.23325, 38.77635 ], [ -77.23305, 38.77656 ] ] ] } },
{ "type": "Feature", "properties": { "variant": "T2s", "miles": 1.5 }, "geometry": { "type": "Polygon", "coordinates": [ [ [ -77.25097, 38.78063 ], [ -77.25252, 38.7841 ], [ -77.25233, 38.78462 ], [ -77.25146, 38.78481 ], [ -77.25085, 38.78798 ], [ -77.25024, 38.78829 ], [ -77.2497, 38.78812 ], [ -77.24904, 38.78703 ], [ -77.24742, 38.78846 ], [ -77.24849, 38.78948 ], [ -77.24836, 38.79024 ], [ -77.24739, 38.79013 ], [ -77.24631, 38.78911 ], [ -77.24566, 38.78934 ], [ -77.24594, 38.79042 ], [ -77.24477, 38.7908 ], [ -77.24529, 38.79107 ], [ -77.24738, 38.79066 ], [ -77.24862, 38.79118 ], [ -77.25039, 38.78952 ], [ -77.25117, 38.78997 ], [ -77.25075, 38.79069 ], [ -77.25484, 38.79489 ], [ -77.25708, 38.79297 ], [ -77.25754, 38.79276 ], [ -77.2583, 38.79323 ], [ -77.25599, 38.79568 ], [ -77.25246, 38.79615 ], [ -77.25282, 38.79685 ], [ -77.25125, 38.79843 ], [ -77.25214, 38.79835 ], [ -77.25238, 38.79866 ], [ -77.25221, 38.79769 ], [ -77.25262, 38.79743 ], [ -77.25352, 38.79783 ], [ -77.25382, 38.79875 ], [ -77.2555, 38.79819 ], [ -77.25631, 38.79862 ], [ -77.25575, 38.79926 ], [ -77.25106, 38.80098 ], [ -77.25168, 38.80186 ], [ -77.25317, 38.80162 ], [ -77.2536, 38.80186 ], [ -77.25368, 38.80227 ], [ -77.25263, 38.80337 ], [ -77.25062, 38.80285 ], [ -77.24804, 38.79907 ], [ -77.24675, 38.79562 ], [ -77.23924, 38.78849 ], [ -77.23729, 38.78881 ], [ -77.23634, 38.78745 ], [ -77.23395, 38.78815 ], [ -77.23352, 38.78747 ], [ -77.23417, 38.78676 ], [ -77.23191, 38.78616 ], [ -77.2319, 38.7854 ], [ -77.23271, 38.78519 ], [ -77.23246, 38.78466 ], [ -77.23118, 38.78464 ], [ -77.23115, 38.78815 ], [ -77.23077, 38.78872 ], [ -77.23014, 38.78877 ], [ -77.22963, 38.78814 ], [ -77.22967, 38.78606 ], [ -77.22912, 38.78603 ], [ -77.22881, 38.78682 ], [ -77.2283, 38.78694 ], [ -77.22784, 38.78674 ], [ -77.22776, 38.7858 ], [ -77.22596, 38.78544 ], [ -77.22613, 38.78411 ], [ -77.22408, 38.78445 ], [ -77.22319, 38.78412 ], [ -77.22361, 38.78343 ], [ -77.22611, 38.78303 ], [ -77.22629, 38.78175 ], [ -77.22915, 38.78204 ], [ -77.2287, 38.78084 ], [ -77.22551, 38.78116 ], [ -77.22266, 38.78054 ], [ -77.21991, 38.78232 ], [ -77.21912, 38.78188 ], [ -77.21996, 38.78072 ], [ -77.21937, 38.78038 ], [ -77.21946, 38.77946 ], [ -77.22029, 38.77906 ], [ -77.22192, 38.77954 ], [ -77.22224, 38.77895 ], [ -77.22138, 38.77896 ], [ -77.22115, 38.77833 ], [ -77.22225, 38.77749 ], [ -77.22316, 38.77772 ], [ -77.22362, 38.77867 ], [ -77.22452, 38.77926 ], [ -77.22654, 38.77995 ], [ -77.23215, 38.77883 ], [ -77.23138, 38.7769 ], [ -77.23052, 38.77683 ], [ -77.22982, 38.77721 ], [ -77.22878, 38.77657 ], [ -77.22822, 38.77556 ], [ -77.22889, 38.77495 ], [ -77.2308, 38.77489 ], [ -77.23131, 38.77132 ], [ -77.2297, 38.76996 ], [ -77.23028, 38.76934 ], [ -77.23115, 38.76964 ], [ -77.23178, 38.7693 ], [ -77.23289, 38.76978 ], [ -77.23458, 38.76919 ], [ -77.23497, 38.76979 ], [ -77.23579, 38.76968 ], [ -77.23618, 38.77038 ], [ -77.23347, 38.77124 ], [ -77.23346, 38.77208 ], [ -77.24006, 38.77251 ], [ -77.24072, 38.77274 ], [ -77.24072, 38.77352 ], [ -77.24147, 38.77463 ], [ -77.24276, 38.77474 ], [ -77.24383, 38.77578 ], [ -77.24471, 38.77578 ], [ -77.24475, 38.77654 ], [ -77.24379, 38.77737 ], [ -77.24137, 38.77847 ], [ -77.24187, 38.77871 ], [ -77.24307, 38.77818 ], [ -77.24344, 38.77848 ], [ -77.24312, 38.77966 ], [ -77.24386, 38.77902 ], [ -77.24484, 38.779 ], [ -77.24487, 38.77977 ], [ -77.24379, 38.78071 ], [ -77.24462, 38.78189 ], [ -77.245, 38.78148 ], [ -77.24584, 38.78157 ], [ -77.24565, 38.78077 ], [ -77.24603, 38.78049 ], [ -77.24656, 38.78051 ], [ -77.24719, 38.78115 ], [ -77.24774, 38.78063 ], [ -77.248, 38.78033 ], [ -77.24711, 38.7793 ], [ -77.24782, 38.77878 ], [ -77.25097, 38.78063 ] ], [ [ -77.24036, 38.78758 ], [ -77.24268, 38.7854 ], [ -77.24222, 38.78474 ], [ -77.24247, 38.78437 ], [ -77.24378, 38.78436 ], [ -77.24204, 38.78238 ], [ -77.239, 38.78524 ], [ -77.24036, 38.78758 ] ], [ [ -77.24021, 38.7824 ], [ -77.24004, 38.78218 ], [ -77.23996, 38.78225 ], [ -77.24021, 38.7824 ] ], [ [ -77.23979, 38.781 ], [ -77.24015, 38.7806 ], [ -77.23975, 38.7808 ], [ -77.23979, 38.781 ] ], [ [ -77.23981, 38.77892 ], [ -77.23996, 38.77873 ], [ -77.23974, 38.7787 ], [ -77.23981, 38.77892 ] ], [ [ -77.23679, 38.77701 ], [ -77.2362, 38.77685 ], [ -77.2359, 38.77711 ], [ -77.23679, 38.77701 ] ], [ [ -77.23864, 38.77622 ], [ -77.24049, 38.77659 ], [ -77.23995, 38.7745 ], [ -77.23759, 38.7742 ], [ -77.23761, 38.77459 ], [ -77.23661, 38.7751 ], [ -77.23659, 38.77572 ], [ -77.23859, 38.77486 ], [ -77.23931, 38.77537 ], [ -77.23864, 38.77622 ] ], [ [ -77.24587, 38.78634 ], [ -77.24697, 38.78644 ], [ -77.24665, 38.78591 ], [ -77.2471, 38.78548 ], [ -77.24692, 38.78504 ], [ -77.24556, 38.78437 ], [ -77.24505, 38.78484 ], [ -77.24569, 38.78532 ], [ -77.24562, 38.78608 ], [ -77.24344, 38.78692 ], [ -77.24312, 38.78738 ], [ -77.24418, 38.78734 ], [ -77.24492, 38.78672 ], [ -77.24558, 38.78682 ], [ -77.24587, 38.78634 ] ], [ [ -77.24631, 38.78201 ], [ -77.24598, 38.7817 ], [ -77.24602, 38.78184 ], [ -77.24631, 38.78201 ] ], [ [ -77.24938, 38.78283 ], [ -77.24986, 38.782 ], [ -77.249, 38.78279 ], [ -77.24803, 38.78268 ], [ -77.2479, 38.78228 ], [ -77.24868, 38.78145 ], [ -77.24763, 38.78246 ], [ -77.24783, 38.78378 ], [ -77.24938, 38.78283 ] ], [ [ -77.2465, 38.78349 ], [ -77.24646, 38.78354 ], [ -77.24651, 38.78358 ], [ -77.2465, 38.78349 ] ], [ [ -77.24776, 38.78387 ], [ -77.24721, 38.78415 ], [ -77.24765, 38.78411 ], [ -77.24776, 38.78387 ] ], [ [ -77.24989, 38.79698 ], [ -77.24988, 38.79703 ], [ -77.24988, 38.79705 ], [ -77.24989, 38.79698 ] ], [ [ -77.24664, 38.7935 ], [ -77.24774, 38.79184 ], [ -77.24604, 38.79203 ], [ -77.24584, 38.79267 ], [ -77.24664, 38.7935 ] ], [ [ -77.24942, 38.79503 ], [ -77.25067, 38.79494 ], [ -77.25335, 38.79506 ], [ -77.25223, 38.79393 ], [ -77.25125, 38.79449 ], [ -77.24947, 38.79469 ], [ -77.24942, 38.79503 ] ], [ [ -77.24788, 38.79404 ], [ -77.2475, 38.79442 ], [ -77.24797, 38.7949 ], [ -77.24817, 38.79432 ], [ -77.24788, 38.79404 ] ], [ [ -77.24953, 38.79346 ], [ -77.24889, 38.79281 ], [ -77.24867, 38.79307 ], [ -77.24923, 38.79363 ], [ -77.24953, 38.79346 ] ], [ [ -77.25138, 38.79308 ], [ -77.24991, 38.79162 ], [ -77.2497, 38.79187 ], [ -77.25109, 38.79327 ], [ -77.25138, 38.79308 ] ], [ [ -77.25153, 38.79607 ], [ -77.25193, 38.79614 ], [ -77.25241, 38.79615 ], [ -77.25153, 38.79607 ] ], [ [ -77.2523, 38.79905 ], [ -77.25249, 38.79908 ], [ -77.2524, 38.79874 ], [ -77.2523, 38.79905 ] ], [ [ -77.24239, 38.78754 ], [ -77.24179, 38.78793 ], [ -77.24184, 38.78806 ], [ -77.24239, 38.78754 ] ], [ [ -77.2426, 38.7764 ], [ -77.24177, 38.77701 ], [ -77.24267, 38.77657 ], [ -77.2426, 38.7764 ] ], [ [ -77.24291, 38.78155 ], [ -77.24256, 38.7819 ], [ -77.24317, 38.782 ], [ -77.24307, 38.78177 ], [ -77.24291, 38.78155 ] ], [ [ -77.24174, 38.77988 ], [ -77.24164, 38.77993 ], [ -77.24174, 38.78 ], [ -77.24174, 38.77988 ] ], [ [ -77.24353, 38.78823 ], [ -77.24306, 38.78857 ], [ -77.24379, 38.78844 ], [ -77.24353, 38.78823 ] ], [ [ -77.24348, 38.79036 ], [ -77.24317, 38.7903 ], [ -77.24343, 38.79051 ], [ -77.24348, 38.79036 ] ], [ [ -77.23463, 38.78661 ], [ -77.23549, 38.78646 ], [ -77.23576, 38.78643 ], [ -77.23486, 38.78615 ], [ -77.23463, 38.78661 ] ], [ [ -77.23519, 38.78434 ], [ -77.23511, 38.78396 ], [ -77.23474, 38.78405 ], [ -77.23519, 38.78434 ] ], [ [ -77.23493, 38.78284 ], [ -77.23378, 38.78156 ], [ -77.23085, 38.78226 ], [ -77.23114, 38.78314 ], [ -77.23249, 38.78264 ], [ -77.23302, 38.78269 ], [ -77.23331, 38.7833 ], [ -77.23493, 38.78284 ] ], [ [ -77.23561, 38.78154 ], [ -77.23671, 38.78098 ], [ -77.23627, 38.78013 ], [ -77.23668, 38.77928 ], [ -77.23433, 38.77964 ], [ -77.23561, 38.78154 ] ], [ [ -77.23469, 38.77489 ], [ -77.23491, 38.77487 ], [ -77.23481, 38.77476 ], [ -77.23469, 38.77489 ] ], [ [ -77.23527, 38.77407 ], [ -77.23603, 38.77342 ], [ -77.23555, 38.77313 ], [ -77.23527, 38.77407 ] ], [ [ -77.23368, 38.77408 ], [ -77.2337, 38.77412 ], [ -77.23373, 38.77409 ], [ -77.23368, 38.77408 ] ], [ [ -77.2329, 38.77494 ], [ -77.23304, 38.77479 ], [ -77.23293, 38.77477 ], [ -77.2329, 38.77494 ] ], [ [ -77.23836, 38.78414 ], [ -77.23934, 38.78323 ], [ -77.23766, 38.78179 ], [ -77.23647, 38.7824 ], [ -77.23721, 38.78314 ], [ -77.23791, 38.78324 ], [ -77.23836, 38.78414 ] ], [ [ -77.23789, 38.78041 ], [ -77.2384, 38.77992 ], [ -77.23775, 38.78024 ], [ -77.23789, 38.78041 ] ], [ [ -77.23648, 38.78541 ], [ -77.23634, 38.78524 ], [ -77.23631, 38.78529 ], [ -77.23648, 38.78541 ] ], [ [ -77.2304, 38.78124 ], [ -77.23315, 38.78057 ], [ -77.23282, 38.77996 ], [ -77.23017, 38.78052 ], [ -77.2304, 38.78124 ] ], [ [ -77.23302, 38.77659 ], [ -77.23337, 38.77672 ], [ -77.23325, 38.77635 ], [ -77.23302, 38.77659 ] ], [ [ -77.23409, 38.7842 ], [ -77.23383, 38.7845 ], [ -77.23391, 38.78465 ], [ -77.23409, 38.7842 ] ], [ [ -77.23006, 38.77605 ], [ -77.22997, 38.776 ], [ -77.23006, 38.77606 ], [ -77.23006, 38.77605 ] ], [ [ -77.22076, 38.78025 ], [ -77.22067, 38.78024 ], [ -77.22066, 38.78031 ], [ -77.22076, 38.78025 ] ], [ [ -77.22966, 38.78427 ], [ -77.22751, 38.7841 ], [ -77.2275, 38.78472 ], [ -77.22966, 38.78498 ], [ -77.22966, 38.78427 ] ], [ [ -77.22965, 38.78326 ], [ -77.22948, 38.78311 ], [ -77.22898, 38.78312 ], [ -77.22965, 38.78326 ] ] ] } },
{ "type": "Feature", "properties": { "variant": "T2s", "miles": 2.0 }, "geometry": { "type": "Polygon", "coordinates": [ [ [ -77.26469, 38.78865 ], [ -77.26407, 38.78912 ], [ -77.26423, 38.78974 ], [ -77.26328, 38.79018 ], [ -77.26245, 38.79148 ], [ -77.26203, 38.79326 ], [ -77.25991, 38.79357 ], [ -77.25931, 38.79426 ], [ -77.25779, 38.79405 ], [ -77.25555, 38.79585 ], [ -77.25246, 38.79615 ], [ -77.25282, 38.79685 ], [ -77.25124, 38.79842 ], [ -77.25214, 38.79835 ], [ -77.25238, 38.79866 ], [ -77.25221, 38.79769 ], [ -77.25262, 38.79743 ], [ -77.25333, 38.79765 ], [ -77.25332, 38.79685 ], [ -77.254, 38.79622 ], [ -77.25548, 38.7962 ], [ -77.25715, 38.79508 ], [ -77.2607, 38.79411 ], [ -77.26136, 38.79468 ], [ -77.26006, 38.79707 ], [ -77.26048, 38.79828 ], [ -77.26344, 38.79741 ], [ -77.2641, 38.79797 ], [ -77.26387, 38.79927 ], [ -77.26153, 38.799 ], [ -77.26015, 38.79995 ], [ -77.26028, 38.80071 ], [ -77.2597, 38.80092 ], [ -77.25893, 38.80217 ], [ -77.25671, 38.80373 ], [ -77.25726, 38.80451 ], [ -77.25802, 38.8043 ], [ -77.25857, 38.80492 ], [ -77.25683, 38.80645 ], [ -77.25712, 38.80694 ], [ -77.25657, 38.80752 ], [ -77.2574, 38.80761 ], [ -77.2574, 38.8092 ], [ -77.25667, 38.81038 ], [ -77.25602, 38.81053 ], [ -77.25463, 38.80883 ], [ -77.25321, 38.80978 ], [ -77.25215, 38.80963 ], [ -77.25224, 38.80887 ], [ -77.25396, 38.80773 ], [ -77.24816, 38.7993 ], [ -77.24685, 38.79575 ], [ -77.2439, 38.79271 ], [ -77.2429, 38.79271 ], [ -77.24113, 38.79122 ], [ -77.23991, 38.79208 ], [ -77.24035, 38.79302 ], [ -77.24003, 38.79334 ], [ -77.23711, 38.79316 ], [ -77.2364, 38.79402 ], [ -77.23588, 38.79408 ], [ -77.23546, 38.79383 ], [ -77.23567, 38.79291 ], [ -77.23515, 38.79283 ], [ -77.23454, 38.79349 ], [ -77.23401, 38.79347 ], [ -77.23365, 38.79316 ], [ -77.23385, 38.79245 ], [ -77.23337, 38.79227 ], [ -77.23285, 38.79283 ], [ -77.23183, 38.79239 ], [ -77.23092, 38.79276 ], [ -77.22986, 38.79224 ], [ -77.22975, 38.79182 ], [ -77.22929, 38.79229 ], [ -77.22846, 38.79192 ], [ -77.22775, 38.79229 ], [ -77.22681, 38.79156 ], [ -77.2241, 38.79152 ], [ -77.22387, 38.79052 ], [ -77.22293, 38.79053 ], [ -77.22263, 38.79019 ], [ -77.22213, 38.78835 ], [ -77.22125, 38.78924 ], [ -77.22031, 38.78903 ], [ -77.21993, 38.78709 ], [ -77.22087, 38.78688 ], [ -77.22126, 38.78741 ], [ -77.2226, 38.78715 ], [ -77.22222, 38.78596 ], [ -77.22014, 38.78615 ], [ -77.21804, 38.78542 ], [ -77.21726, 38.78406 ], [ -77.21642, 38.78433 ], [ -77.21599, 38.78409 ], [ -77.21605, 38.78351 ], [ -77.21522, 38.78332 ], [ -77.21511, 38.78194 ], [ -77.21382, 38.78175 ], [ -77.21313, 38.78117 ], [ -77.21329, 38.7802 ], [ -77.21259, 38.78009 ], [ -77.21232, 38.77885 ], [ -77.21328, 38.77793 ], [ -77.21493, 38.77782 ], [ -77.21478, 38.77686 ], [ -77.21405, 38.77675 ], [ -77.21388, 38.776 ], [ -77.21544, 38.77591 ], [ -77.21586, 38.77459 ], [ -77.21717, 38.77435 ], [ -77.2192, 38.77471 ], [ -77.21956, 38.77537 ], [ -77.22054, 38.77552 ], [ -77.22253, 38.77688 ], [ -77.22362, 38.77867 ], [ -77.22654, 38.77995 ], [ -77.23215, 38.77883 ], [ -77.23138, 38.7769 ], [ -77.23052, 38.77683 ], [ -77.22982, 38.77721 ], [ -77.22878, 38.77657 ], [ -77.22822, 38.77556 ], [ -77.22889, 38.77495 ], [ -77.2308, 38.77489 ], [ -77.23096, 38.77376 ], [ -77.22782, 38.77295 ], [ -77.22814, 38.77222 ], [ -77.22924, 38.77222 ], [ -77.2306, 38.77157 ], [ -77.22923, 38.77048 ], [ -77.22941, 38.76999 ], [ -77.22587, 38.76882 ], [ -77.22261, 38.76649 ], [ -77.22413, 38.76452 ], [ -77.22562, 38.76412 ], [ -77.2263, 38.76491 ], [ -77.22768, 38.76464 ], [ -77.22814, 38.76508 ], [ -77.2285, 38.76429 ], [ -77.23001, 38.76452 ], [ -77.23009, 38.76343 ], [ -77.23077, 38.76288 ], [ -77.23147, 38.76342 ], [ -77.23138, 38.76468 ], [ -77.23246, 38.76427 ], [ -77.23299, 38.76491 ], [ -77.23188, 38.76582 ], [ -77.23144, 38.76687 ], [ -77.23253, 38.76655 ], [ -77.23398, 38.76677 ], [ -77.23375, 38.76802 ], [ -77.23312, 38.76828 ], [ -77.23289, 38.76978 ], [ -77.23388, 38.76841 ], [ -77.23477, 38.76831 ], [ -77.23448, 38.76766 ], [ -77.23478, 38.76732 ], [ -77.2353, 38.76725 ], [ -77.23602, 38.76783 ], [ -77.23661, 38.76745 ], [ -77.23676, 38.76628 ], [ -77.23737, 38.76576 ], [ -77.23849, 38.76626 ], [ -77.23925, 38.76604 ], [ -77.24087, 38.76681 ], [ -77.24093, 38.76835 ], [ -77.23951, 38.76951 ], [ -77.23972, 38.7698 ], [ -77.24125, 38.77043 ], [ -77.24188, 38.77128 ], [ -77.24457, 38.77136 ], [ -77.24586, 38.77217 ], [ -77.24533, 38.77309 ], [ -77.24417, 38.77296 ], [ -77.24322, 38.7722 ], [ -77.24103, 38.77234 ], [ -77.24118, 38.77269 ], [ -77.24383, 38.77578 ], [ -77.24597, 38.7762 ], [ -77.24771, 38.77772 ], [ -77.24917, 38.77803 ], [ -77.24946, 38.77841 ], [ -77.24872, 38.77932 ], [ -77.25097, 38.78063 ], [ -77.25099, 38.78137 ], [ -77.25196, 38.78244 ], [ -77.25252, 38.7841 ], [ -77.25233, 38.78462 ], [ -77.25146, 38.78481 ], [ -77.25085, 38.78798 ], [ -77.25024, 38.78829 ], [ -77.2497, 38.78812 ], [ -77.24904, 38.78703 ], [ -77.24742, 38.78846 ], [ -77.24849, 38.78948 ], [ -77.24836, 38.79024 ], [ -77.24739, 38.79013 ], [ -77.24631, 38.78911 ], [ -77.24566, 38.78934 ], [ -77.24594, 38.79042 ], [ -77.24483, 38.79065 ], [ -77.24487, 38.79098 ], [ -77.24725, 38.79065 ], [ -77.24862, 38.79118 ], [ -77.24993, 38.78973 ], [ -77.2509, 38.78962 ], [ -77.25117, 38.78997 ], [ -77.25075, 38.79069 ], [ -77.25484, 38.79489 ], [ -77.25539, 38.79469 ], [ -77.25667, 38.79342 ], [ -77.2561, 38.79316 ], [ -77.25608, 38.79395 ], [ -77.25554, 38.79443 ], [ -77.25457, 38.79446 ], [ -77.25375, 38.79259 ], [ -77.25393, 38.79205 ], [ -77.25224, 38.78942 ], [ -77.25238, 38.78707 ], [ -77.25335, 38.78715 ], [ -77.25351, 38.78882 ], [ -77.25444, 38.78881 ], [ -77.25515, 38.78995 ], [ -77.25574, 38.78978 ], [ -77.25567, 38.78916 ], [ -77.25611, 38.78893 ], [ -77.25751, 38.78954 ], [ -77.25779, 38.78901 ], [ -77.25685, 38.78813 ], [ -77.25739, 38.78749 ], [ -77.25973, 38.78898 ], [ -77.26012, 38.78837 ], [ -77.26089, 38.78823 ], [ -77.26092, 38.78731 ], [ -77.26188, 38.78745 ], [ -77.26257, 38.78825 ], [ -77.26396, 38.78777 ], [ -77.26469, 38.78865 ] ], [ [ -77.23891, 38.78923 ], [ -77.23905, 38.78933 ], [ -77.23846, 38.78872 ], [ -77.23891, 38.78923 ] ], [ [ -77.23934, 38.78323 ], [ -77.23766, 38.78179 ], [ -77.23647, 38.7824 ], [ -77.23721, 38.78314 ], [ -77.23791, 38.78324 ], [ -77.23827, 38.78423 ], [ -77.23934, 38.78323 ] ], [ [ -77.2384, 38.77992 ], [ -77.23775, 38.78024 ], [ -77.23789, 38.78041 ], [ -77.2384, 38.77992 ] ], [ [ -77.24049, 38.77659 ], [ -77.24047, 38.77575 ], [ -77.23968, 38.77632 ], [ -77.23898, 38.77591 ], [ -77.23864, 38.77622 ], [ -77.24049, 38.77659 ] ], [ [ -77.23897, 38.77455 ], [ -77.23759, 38.7742 ], [ -77.23761, 38.77459 ], [ -77.23661, 38.7751 ], [ -77.23659, 38.77572 ], [ -77.23897, 38.77496 ], [ -77.23897, 38.77455 ] ], [ [ -77.23802, 38.77117 ], [ -77.23794, 38.77113 ], [ -77.23795, 38.77135 ], [ -77.23802, 38.77117 ] ], [ [ -77.2386, 38.76819 ], [ -77.23837, 38.76777 ], [ -77.2378, 38.76849 ], [ -77.23807, 38.76899 ], [ -77.2386, 38.76819 ] ], [ [ -77.25067, 38.79494 ], [ -77.25335, 38.79506 ], [ -77.25223, 38.79393 ], [ -77.25125, 38.79449 ], [ -77.24947, 38.79469 ], [ -77.24942, 38.79503 ], [ -77.25067, 38.79494 ] ], [ [ -77.24953, 38.79346 ], [ -77.24889, 38.79281 ], [ -77.24867, 38.79307 ], [ -77.24923, 38.79363 ], [ -77.24953, 38.79346 ] ], [ [ -77.25138, 38.79308 ], [ -77.24991, 38.79162 ], [ -77.2497, 38.79187 ], [ -77.25109, 38.79327 ], [ -77.25138, 38.79308 ] ], [ [ -77.26073, 38.79115 ], [ -77.2607, 38.79109 ], [ -77.26065, 38.79114 ], [ -77.26073, 38.79115 ] ], [ [ -77.25925, 38.79005 ], [ -77.25887, 38.78984 ], [ -77.25653, 38.79212 ], [ -77.25925, 38.79005 ] ], [ [ -77.26169, 38.79025 ], [ -77.26176, 38.79033 ], [ -77.26182, 38.79023 ], [ -77.26169, 38.79025 ] ], [ [ -77.25513, 38.80691 ], [ -77.25531, 38.80679 ], [ -77.25508, 38.80684 ], [ -77.25513, 38.80691 ] ], [ [ -77.25443, 38.80581 ], [ -77.25459, 38.80604 ], [ -77.25468, 38.80591 ], [ -77.25443, 38.80581 ] ], [ [ -77.25579, 38.80284 ], [ -77.25573, 38.80286 ], [ -77.25575, 38.8029 ], [ -77.25579, 38.80284 ] ], [ [ -77.25542, 38.80126 ], [ -77.25588, 38.80073 ], [ -77.25566, 38.80015 ], [ -77.25467, 38.80058 ], [ -77.2548, 38.80144 ], [ -77.25303, 38.80281 ], [ -77.25431, 38.80212 ], [ -77.2561, 38.80181 ], [ -77.25542, 38.80126 ] ], [ [ -77.25804, 38.79596 ], [ -77.25682, 38.79676 ], [ -77.25862, 38.79799 ], [ -77.25804, 38.79596 ] ], [ [ -77.25768, 38.79908 ], [ -77.25808, 38.79926 ], [ -77.25741, 38.79853 ], [ -77.25768, 38.79908 ] ], [ [ -77.25733, 38.80048 ], [ -77.25708, 38.80009 ], [ -77.25716, 38.80032 ], [ -77.25733, 38.80048 ] ], [ [ -77.25917, 38.79904 ], [ -77.25914, 38.79916 ], [ -77.25922, 38.79913 ], [ -77.25917, 38.79904 ] ], [ [ -77.25831, 38.80075 ], [ -77.25838, 38.80059 ], [ -77.25773, 38.80073 ], [ -77.25811, 38.80109 ], [ -77.25831, 38.80075 ] ], [ [ -77.2523, 38.79905 ], [ -77.25249, 38.79908 ], [ -77.2524, 38.79874 ], [ -77.2523, 38.79905 ] ], [ [ -77.25193, 38.79614 ], [ -77.25241, 38.79615 ], [ -77.25153, 38.79607 ], [ -77.25193, 38.79614 ] ], [ [ -77.25276, 38.80016 ], [ -77.25134, 38.8008 ], [ -77.25208, 38.80102 ], [ -77.25261, 38.80064 ], [ -77.25311, 38.80075 ], [ -77.25337, 38.80009 ], [ -77.25276, 38.80016 ] ], [ [ -77.24692, 38.78504 ], [ -77.24556, 38.78437 ], [ -77.24505, 38.78484 ], [ -77.24569, 38.78532 ], [ -77.24562, 38.78608 ], [ -77.24344, 38.78692 ], [ -77.24312, 38.78738 ], [ -77.24418, 38.78734 ], [ -77.24472, 38.7868 ], [ -77.24681, 38.7863 ], [ -77.24692, 38.78504 ] ], [ [ -77.24584, 38.78157 ], [ -77.24565, 38.78077 ], [ -77.24603, 38.78049 ], [ -77.24656, 38.78051 ], [ -77.24719, 38.78115 ], [ -77.248, 38.78033 ], [ -77.24607, 38.77861 ], [ -77.24532, 38.77909 ], [ -77.24481, 38.77898 ], [ -77.24487, 38.77977 ], [ -77.24379, 38.78071 ], [ -77.24462, 38.78189 ], [ -77.24491, 38.78153 ], [ -77.24584, 38.78157 ] ], [ [ -77.24436, 38.77705 ], [ -77.24404, 38.77734 ], [ -77.24469, 38.77735 ], [ -77.24436, 38.77705 ] ], [ [ -77.24986, 38.782 ], [ -77.249, 38.78279 ], [ -77.24803, 38.78268 ], [ -77.2479, 38.78228 ], [ -77.24868, 38.78145 ], [ -77.24763, 38.78246 ], [ -77.24783, 38.78378 ], [ -77.24938, 38.78283 ], [ -77.24986, 38.782 ] ], [ [ -77.24776, 38.78387 ], [ -77.24721, 38.78415 ], [ -77.24746, 38.78414 ], [ -77.24776, 38.78387 ] ], [ [ -77.24651, 38.78358 ], [ -77.2465, 38.78349 ], [ -77.24646, 38.78354 ], [ -77.24651, 38.78358 ] ], [ [ -77.24598, 38.7817 ], [ -77.24602, 38.78184 ], [ -77.24631, 38.78201 ], [ -77.24598, 38.7817 ] ], [ [ -77.24774, 38.79184 ], [ -77.24604, 38.79203 ], [ -77.24584, 38.79267 ], [ -77.24664, 38.7935 ], [ -77.24774, 38.79184 ] ], [ [ -77.2475, 38.79442 ], [ -77.24797, 38.7949 ], [ -77.24817, 38.79432 ], [ -77.24786, 38.79402 ], [ -77.2475, 38.79442 ] ], [ [ -77.23949, 38.76942 ], [ -77.2395, 38.76938 ], [ -77.23947, 38.76943 ], [ -77.23949, 38.76942 ] ], [ [ -77.24179, 38.78793 ], [ -77.24184, 38.78806 ], [ -77.24239, 38.78754 ], [ -77.24179, 38.78793 ] ], [ [ -77.24268, 38.7854 ], [ -77.24222, 38.78474 ], [ -77.24247, 38.78437 ], [ -77.24378, 38.78436 ], [ -77.24204, 38.78238 ], [ -77.239, 38.78524 ], [ -77.24035, 38.78759 ], [ -77.24268, 38.7854 ] ], [ [ -77.23975, 38.7808 ], [ -77.23979, 38.781 ], [ -77.2399, 38.78098 ], [ -77.24015, 38.7806 ], [ -77.23975, 38.7808 ] ], [ [ -77.23996, 38.77873 ], [ -77.23974, 38.7787 ], [ -77.23981, 38.77892 ], [ -77.23996, 38.77873 ] ], [ [ -77.24177, 38.77701 ], [ -77.24267, 38.77657 ], [ -77.2426, 38.7764 ], [ -77.24177, 38.77701 ] ], [ [ -77.24164, 38.77993 ], [ -77.24174, 38.78 ], [ -77.24174, 38.77988 ], [ -77.24164, 38.77993 ] ], [ [ -77.24312, 38.77966 ], [ -77.24383, 38.77905 ], [ -77.24359, 38.77841 ], [ -77.24322, 38.7783 ], [ -77.24312, 38.77966 ] ], [ [ -77.24294, 38.77812 ], [ -77.24282, 38.77817 ], [ -77.24303, 38.77818 ], [ -77.24294, 38.77812 ] ], [ [ -77.24206, 38.77844 ], [ -77.24169, 38.77852 ], [ -77.24187, 38.77871 ], [ -77.24206, 38.77844 ] ], [ [ -77.24291, 38.78155 ], [ -77.24256, 38.7819 ], [ -77.24274, 38.78184 ], [ -77.24317, 38.782 ], [ -77.24291, 38.78155 ] ], [ [ -77.2403, 38.78232 ], [ -77.24004, 38.78218 ], [ -77.23996, 38.78225 ], [ -77.2403, 38.78232 ] ], [ [ -77.24317, 38.7903 ], [ -77.24343, 38.79051 ], [ -77.24348, 38.79036 ], [ -77.24317, 38.7903 ] ], [ [ -77.24306, 38.78857 ], [ -77.24379, 38.78844 ], [ -77.24353, 38.78823 ], [ -77.24306, 38.78857 ] ], [ [ -77.23417, 38.78676 ], [ -77.23307, 38.78624 ], [ -77.23252, 38.78652 ], [ -77.23417, 38.78676 ] ], [ [ -77.23315, 38.78057 ], [ -77.23282, 38.77996 ], [ -77.23017, 38.78052 ], [ -77.2304, 38.78124 ], [ -77.23315, 38.78057 ] ], [ [ -77.22997, 38.776 ], [ -77.23006, 38.77606 ], [ -77.23006, 38.77605 ], [ -77.22997, 38.776 ] ], [ [ -77.23183, 38.76866 ], [ -77.23024, 38.76741 ], [ -77.22931, 38.76872 ], [ -77.23115, 38.76964 ], [ -77.23183, 38.76866 ] ], [ [ -77.23679, 38.78827 ], [ -77.23668, 38.78806 ], [ -77.23658, 38.78812 ], [ -77.23679, 38.78827 ] ], [ [ -77.23648, 38.78541 ], [ -77.23634, 38.78524 ], [ -77.23634, 38.78531 ], [ -77.23648, 38.78541 ] ], [ [ -77.23671, 38.78098 ], [ -77.23627, 38.78013 ], [ -77.23668, 38.77928 ], [ -77.23433, 38.77964 ], [ -77.23561, 38.78154 ], [ -77.23671, 38.78098 ] ], [ [ -77.23325, 38.77635 ], [ -77.2328, 38.77676 ], [ -77.23284, 38.77683 ], [ -77.23337, 38.77672 ], [ -77.23325, 38.77635 ] ], [ [ -77.23304, 38.77479 ], [ -77.23293, 38.77477 ], [ -77.2329, 38.77494 ], [ -77.23304, 38.77479 ] ], [ [ -77.2337, 38.77412 ], [ -77.23373, 38.77409 ], [ -77.23368, 38.77408 ], [ -77.2337, 38.77412 ] ], [ [ -77.2362, 38.77685 ], [ -77.2359, 38.77711 ], [ -77.23679, 38.77701 ], [ -77.2362, 38.77685 ] ], [ [ -77.23603, 38.77342 ], [ -77.23555, 38.77313 ], [ -77.23527, 38.77407 ], [ -77.23603, 38.77342 ] ], [ [ -77.23527, 38.77101 ], [ -77.23519, 38.77089 ], [ -77.23455, 38.77111 ], [ -77.23527, 38.77101 ] ], [ [ -77.23511, 38.76869 ], [ -77.23504, 38.76886 ], [ -77.2353, 38.76877 ], [ -77.23511, 38.76869 ] ], [ [ -77.23726, 38.77228 ], [ -77.23707, 38.77237 ], [ -77.23717, 38.77235 ], [ -77.23726, 38.77228 ] ], [ [ -77.23469, 38.77489 ], [ -77.23491, 38.77487 ], [ -77.23481, 38.77476 ], [ -77.23469, 38.77489 ] ], [ [ -77.23496, 38.78287 ], [ -77.23378, 38.78156 ], [ -77.23085, 38.78226 ], [ -77.23114, 38.78314 ], [ -77.23249, 38.78264 ], [ -77.23302, 38.78269 ], [ -77.23331, 38.7833 ], [ -77.23496, 38.78287 ] ], [ [ -77.23476, 38.78621 ], [ -77.23455, 38.78663 ], [ -77.23576, 38.78643 ], [ -77.23476, 38.78621 ] ], [ [ -77.23511, 38.78396 ], [ -77.23474, 38.78405 ], [ -77.23519, 38.78434 ], [ -77.23511, 38.78396 ] ], [ [ -77.23383, 38.7845 ], [ -77.23391, 38.78465 ], [ -77.23409, 38.7842 ], [ -77.23383, 38.7845 ] ], [ [ -77.22556, 38.78591 ], [ -77.22423, 38.7861 ], [ -77.22352, 38.78557 ], [ -77.22394, 38.78689 ], [ -77.22573, 38.78692 ], [ -77.22599, 38.78665 ], [ -77.22556, 38.78591 ] ], [ [ -77.22915, 38.78204 ], [ -77.2287, 38.78084 ], [ -77.22551, 38.78116 ], [ -77.22266, 38.78054 ], [ -77.22032, 38.78216 ], [ -77.22163, 38.78255 ], [ -77.22226, 38.7821 ], [ -77.22275, 38.78225 ], [ -77.22309, 38.78346 ], [ -77.22348, 38.78317 ], [ -77.22611, 38.78303 ], [ -77.22629, 38.78175 ], [ -77.22915, 38.78204 ] ], [ [ -77.23121, 38.78711 ], [ -77.23117, 38.78702 ], [ -77.23117, 38.78709 ], [ -77.23121, 38.78711 ] ], [ [ -77.22965, 38.78326 ], [ -77.22962, 38.78311 ], [ -77.22898, 38.78312 ], [ -77.22965, 38.78326 ] ], [ [ -77.22773, 38.78645 ], [ -77.22686, 38.78627 ], [ -77.2266, 38.78654 ], [ -77.22705, 38.78722 ], [ -77.22824, 38.78729 ], [ -77.22967, 38.787 ], [ -77.22967, 38.78606 ], [ -77.22912, 38.78603 ], [ -77.22881, 38.78682 ], [ -77.2283, 38.78694 ], [ -77.22773, 38.78645 ] ], [ [ -77.22944, 38.79066 ], [ -77.22945, 38.79064 ], [ -77.22943, 38.79064 ], [ -77.22944, 38.79066 ] ], [ [ -77.21499, 38.77901 ], [ -77.21482, 38.77919 ], [ -77.21535, 38.77915 ], [ -77.21499, 38.77901 ] ], [ [ -77.2216, 38.77772 ], [ -77.2216, 38.77777 ], [ -77.22163, 38.77776 ], [ -77.2216, 38.77772 ] ], [ [ -77.21899, 38.77882 ], [ -77.21861, 38.7785 ], [ -77.21869, 38.77863 ], [ -77.21899, 38.77882 ] ], [ [ -77.21684, 38.77752 ], [ -77.2162, 38.77734 ], [ -77.21633, 38.77774 ], [ -77.21684, 38.77752 ] ], [ [ -77.21935, 38.78456 ], [ -77.21891, 38.78449 ], [ -77.21949, 38.78478 ], [ -77.21935, 38.78456 ] ], [ [ -77.2173, 38.78113 ], [ -77.21723, 38.78133 ], [ -77.21744, 38.78139 ], [ -77.2173, 38.78113 ] ], [ [ -77.22076, 38.78025 ], [ -77.22067, 38.78024 ], [ -77.22066, 38.78031 ], [ -77.22076, 38.78025 ] ], [ [ -77.2199, 38.78077 ], [ -77.21996, 38.78072 ], [ -77.21978, 38.78071 ], [ -77.2199, 38.78077 ] ], [ [ -77.21593, 38.78095 ], [ -77.21565, 38.78087 ], [ -77.21571, 38.78093 ], [ -77.21593, 38.78095 ] ], [ [ -77.21704, 38.78243 ], [ -77.21711, 38.78238 ], [ -77.21699, 38.78238 ], [ -77.21704, 38.78243 ] ], [ [ -77.22466, 38.78794 ], [ -77.22471, 38.78787 ], [ -77.22466, 38.78787 ], [ -77.22466, 38.78794 ] ], [ [ -77.22206, 38.78488 ], [ -77.22206, 38.78483 ], [ -77.22197, 38.78489 ], [ -77.22206, 38.78488 ] ], [ [ -77.22089, 38.78474 ], [ -77.22047, 38.78509 ], [ -77.22066, 38.78514 ], [ -77.22122, 38.78503 ], [ -77.22089, 38.78474 ] ], [ [ -77.22392, 38.7894 ], [ -77.22363, 38.78873 ], [ -77.22375, 38.78921 ], [ -77.22392, 38.7894 ] ], [ [ -77.22503, 38.76613 ], [ -77.225, 38.76539 ], [ -77.2243, 38.7664 ], [ -77.22503, 38.76613 ] ], [ [ -77.2264, 38.7658 ], [ -77.22672, 38.76574 ], [ -77.22644, 38.76571 ], [ -77.2264, 38.7658 ] ] ] } }
]
}
