{
"type": "FeatureCollection",
"name": "151",
"crs": { "type": "name", "properties": { "name": "urn:ogc:def:crs:OGC:1.3:CRS84" } },
"xy_coordinate_resolution": 1e-05,
"features": [
{ "type": "Feature", "properties": { "variant": "T0", "miles": 1.0 }, "geometry": { "type": "Polygon", "coordinates": [ [ [ -77.23526, 38.77482 ], [ -77.23579, 38.77432 ], [ -77.23667, 38.77466 ], [ -77.23655, 38.77628 ], [ -77.23592, 38.77713 ], [ -77.23679, 38.77701 ], [ -77.23735, 38.77648 ], [ -77.23906, 38.77625 ], [ -77.23989, 38.77728 ], [ -77.24126, 38.77753 ], [ -77.24138, 38.77836 ], [ -77.24062, 38.77884 ], [ -77.23923, 38.77852 ], [ -77.23942, 38.7792 ], [ -77.23747, 38.78029 ], [ -77.23664, 38.7799 ], [ -77.23668, 38.77928 ], [ -77.23433, 38.77964 ], [ -77.23561, 38.78154 ], [ -77.23751, 38.78059 ], [ -77.23846, 38.78077 ], [ -77.23824, 38.78151 ], [ -77.23647, 38.7824 ], [ -77.23811, 38.78362 ], [ -77.23567, 38.78599 ], [ -77.23353, 38.78574 ], [ -77.23246, 38.78466 ], [ -77.23118, 38.78464 ], [ -77.23103, 38.7886 ], [ -77.23023, 38.78971 ], [ -77.22941, 38.79002 ], [ -77.22887, 38.78971 ], [ -77.22872, 38.7883 ], [ -77.22967, 38.7876 ], [ -77.22967, 38.78606 ], [ -77.22912, 38.78603 ], [ -77.22881, 38.78682 ], [ -77.2283, 38.78694 ], [ -77.22686, 38.78627 ], [ -77.226, 38.78665 ], [ -77.22556, 38.78591 ], [ -77.22423, 38.7861 ], [ -77.22352, 38.78557 ], [ -77.22412, 38.78773 ], [ -77.22322, 38.78804 ], [ -77.22222, 38.78596 ], [ -77.22048, 38.78622 ], [ -77.21817, 38.7855 ], [ -77.21726, 38.78406 ], [ -77.21642, 38.78433 ], [ -77.21599, 38.78409 ], [ -77.21605, 38.78351 ], [ -77.21522, 38.78332 ], [ -77.21511, 38.78194 ], [ -77.21334, 38.78144 ], [ -77.21299, 38.78077 ], [ -77.21329, 38.7802 ], [ -77.21112, 38.77986 ], [ -77.21129, 38.7791 ], [ -77.21229, 38.77908 ], [ -77.21309, 38.77802 ], [ -77.21078, 38.77889 ], [ -77.21011, 38.77855 ], [ -77.20956, 38.77753 ], [ -77.20978, 38.77688 ], [ -77.21098, 38.77643 ], [ -77.21161, 38.77556 ], [ -77.21531, 38.77586 ], [ -77.21555, 38.77548 ], [ -77.21288, 38.77441 ], [ -77.2129, 38.774 ], [ -77.21381, 38.77373 ], [ -77.21577, 38.77441 ], [ -77.21907, 38.77465 ], [ -77.21956, 38.77537 ], [ -77.22054, 38.77552 ], [ -77.22253, 38.77688 ], [ -77.22362, 38.77867 ], [ -77.22656, 38.77995 ], [ -77.23215, 38.77883 ], [ -77.23138, 38.7769 ], [ -77.23038, 38.77674 ], [ -77.23005, 38.776 ], [ -77.22844, 38.77588 ], [ -77.22841, 38.77512 ], [ -77.23151, 38.77489 ], [ -77.23195, 38.77368 ], [ -77.23313, 38.77369 ], [ -77.2337, 38.77412 ], [ -77.23434, 38.77325 ], [ -77.23487, 38.77321 ], [ -77.23528, 38.77346 ], [ -77.23521, 38.77425 ], [ -77.23393, 38.77566 ], [ -77.23521, 38.77582 ], [ -77.23526, 38.77482 ] ], [ [ -77.22915, 38.78204 ], [ -77.2287, 38.78084 ], [ -77.22551, 38.78116 ], [ -77.22266, 38.78054 ], [ -77.22032, 38.78216 ], [ -77.22163, 38.78255 ], [ -77.22226, 38.7821 ], [ -77.22275, 38.78225 ], [ -77.22309, 38.78346 ], [ -77.22348, 38.78317 ], [ -77.22611, 38.78303 ], [ -77.22609, 38.78213 ], [ -77.22677, 38.78159 ], [ -77.22744, 38.78206 ], [ -77.22915, 38.78204 ] ], [ [ -77.23325, 38.77635 ], [ -77.2328, 38.77676 ], [ -77.23284, 38.77683 ], [ -77.23337, 38.77672 ], [ -77.23325, 38.77635 ] ], [ [ -77.23293, 38.77477 ], [ -77.2329, 38.77494 ], [ -77.23304, 38.77479 ], [ -77.23293, 38.77477 ] ], [ [ -77.23519, 38.78434 ], [ -77.23511, 38.78396 ], [ -77.23474, 38.78405 ], [ -77.23519, 38.78434 ] ], [ [ -77.23493, 38.78284 ], [ -77.23378, 38.78156 ], [ -77.23085, 38.78226 ], [ -77.23114, 38.78314 ], [ -77.23249, 38.78264 ], [ -77.23302, 38.78269 ], [ -77.23331, 38.7833 ], [ -77.23493, 38.78284 ] ], [ [ -77.2304, 38.78124 ], [ -77.23315, 38.78057 ], [ -77.23282, 38.77996 ], [ -77.23017, 38.78052 ], [ -77.2304, 38.78124 ] ], [ [ -77.23409, 38.7842 ], [ -77.23382, 38.78447 ], [ -77.23391, 38.78465 ], [ -77.23409, 38.7842 ] ], [ [ -77.22965, 38.78326 ], [ -77.22962, 38.78311 ], [ -77.22898, 38.78312 ], [ -77.22965, 38.78326 ] ], [ [ -77.21955, 38.78446 ], [ -77.21899, 38.78462 ], [ -77.21949, 38.78478 ], [ -77.21955, 38.78446 ] ], [ [ -77.21984, 38.78083 ], [ -77.21996, 38.78072 ], [ -77.21978, 38.78071 ], [ -77.21984, 38.78083 ] ], [ [ -77.2216, 38.77777 ], [ -77.22163, 38.77776 ], [ -77.2216, 38.77772 ], [ -77.2216, 38.77777 ] ], [ [ -77.22076, 38.78025 ], [ -77.22067, 38.78024 ], [ -77.22066, 38.78031 ], [ -77.22076, 38.78025 ] ], [ [ -77.22197, 38.78489 ], [ -77.22206, 38.78488 ], [ -77.22206, 38.78483 ], [ -77.22197, 38.78489 ] ], [ [ -77.22071, 38.78514 ], [ -77.22123, 38.78503 ], [ -77.22089, 38.78474 ], [ -77.22071, 38.78514 ] ], [ [ -77.21633, 38.77774 ], [ -77.2167, 38.77746 ], [ -77.2162, 38.77734 ], [ -77.21633, 38.77774 ] ], [ [ -77.21493, 38.77782 ], [ -77.21463, 38.77784 ], [ -77.21444, 38.77793 ], [ -77.21493, 38.77782 ] ], [ [ -77.21847, 38.77562 ], [ -77.21846, 38.77562 ], [ -77.21854, 38.77566 ], [ -77.21847, 38.77562 ] ], [ [ -77.2114, 38.7775 ], [ -77.21105, 38.77759 ], [ -77.2111, 38.77767 ], [ -77.2114, 38.7775 ] ], [ [ -77.21593, 38.78095 ], [ -77.21577, 38.78099 ], [ -77.21589, 38.78104 ], [ -77.21593, 38.78095 ] ], [ [ -77.21861, 38.7785 ], [ -77.21878, 38.77879 ], [ -77.21899, 38.77882 ], [ -77.21861, 38.7785 ] ], [ [ -77.21527, 38.77887 ], [ -77.21482, 38.77919 ], [ -77.21535, 38.77915 ], [ -77.21527, 38.77887 ] ], [ [ -77.21711, 38.78238 ], [ -77.21699, 38.78238 ], [ -77.21703, 38.78244 ], [ -77.21711, 38.78238 ] ], [ [ -77.2173, 38.78113 ], [ -77.21723, 38.78133 ], [ -77.21744, 38.78139 ], [ -77.2173, 38.78113 ] ] ] } },
{ "type": "Feature", "properties": { "variant": "T0", "miles": 1.5 }, "geometry": { "type": "Polygon", "coordinates": [ [ [ -77.24018, 38.7722 ], [ -77.24087, 38.77217 ], [ -77.24167, 38.77291 ], [ -77.24382, 38.77575 ], [ -77.24568, 38.77455 ], [ -77.24675, 38.7748 ], [ -77.24684, 38.77521 ], [ -77.2456, 38.77606 ], [ -77.24823, 38.77784 ], [ -77.24849, 38.77935 ], [ -77.24776, 38.77986 ], [ -77.24607, 38.77861 ], [ -77.2443, 38.77919 ], [ -77.24295, 38.77811 ], [ -77.24169, 38.77852 ], [ -77.24208, 38.77926 ], [ -77.24164, 38.77993 ], [ -77.24226, 38.78046 ], [ -77.24337, 38.78034 ], [ -77.24358, 38.78072 ], [ -77.239, 38.78524 ], [ -77.24035, 38.78759 ], [ -77.24197, 38.78629 ], [ -77.24325, 38.78651 ], [ -77.24326, 38.78727 ], [ -77.24222, 38.78751 ], [ -77.24115, 38.78853 ], [ -77.24254, 38.79002 ], [ -77.24004, 38.79201 ], [ -77.23921, 38.79226 ], [ -77.2386, 38.79154 ], [ -77.23926, 38.79096 ], [ -77.23802, 38.79005 ], [ -77.2381, 38.79092 ], [ -77.23767, 38.79119 ], [ -77.23734, 38.79268 ], [ -77.23602, 38.79322 ], [ -77.23506, 38.79299 ], [ -77.23454, 38.79349 ], [ -77.23183, 38.79239 ], [ -77.23145, 38.79277 ], [ -77.23023, 38.79253 ], [ -77.22975, 38.79182 ], [ -77.22929, 38.79229 ], [ -77.22846, 38.79192 ], [ -77.22775, 38.79229 ], [ -77.22681, 38.79156 ], [ -77.2241, 38.79152 ], [ -77.22387, 38.79052 ], [ -77.22058, 38.79097 ], [ -77.22072, 38.7901 ], [ -77.2188, 38.78982 ], [ -77.21734, 38.78916 ], [ -77.21618, 38.78835 ], [ -77.21577, 38.78744 ], [ -77.21665, 38.7871 ], [ -77.21757, 38.78796 ], [ -77.21851, 38.78703 ], [ -77.21948, 38.78696 ], [ -77.21973, 38.78732 ], [ -77.21919, 38.78809 ], [ -77.22, 38.78815 ], [ -77.22015, 38.78888 ], [ -77.21993, 38.78709 ], [ -77.22087, 38.78688 ], [ -77.22126, 38.78741 ], [ -77.2226, 38.78715 ], [ -77.22222, 38.78596 ], [ -77.22048, 38.78622 ], [ -77.21817, 38.7855 ], [ -77.21726, 38.78406 ], [ -77.21642, 38.78433 ], [ -77.21599, 38.78409 ], [ -77.21605, 38.78351 ], [ -77.21522, 38.78332 ], [ -77.21511, 38.78194 ], [ -77.21334, 38.78144 ], [ -77.21299, 38.78077 ], [ -77.21329, 38.7802 ], [ -77.21112, 38.77986 ], [ -77.21129, 38.7791 ], [ -77.21229, 38.77908 ], [ -77.21309, 38.77802 ], [ -77.21135, 38.77883 ], [ -77.21049, 38.77881 ], [ -77.20955, 38.77728 ], [ -77.20996, 38.77675 ], [ -77.21096, 38.77644 ], [ -77.209, 38.77689 ], [ -77.20785, 38.77648 ], [ -77.20661, 38.77667 ], [ -77.20589, 38.77614 ], [ -77.20585, 38.77514 ], [ -77.20407, 38.77566 ], [ -77.20454, 38.77679 ], [ -77.20386, 38.77733 ], [ -77.20337, 38.77718 ], [ -77.20285, 38.77618 ], [ -77.20169, 38.77654 ], [ -77.20105, 38.77581 ], [ -77.20235, 38.77499 ], [ -77.20267, 38.77375 ], [ -77.20364, 38.77386 ], [ -77.20373, 38.77442 ], [ -77.20566, 38.77389 ], [ -77.20577, 38.77311 ], [ -77.20645, 38.77262 ], [ -77.20724, 38.77308 ], [ -77.20717, 38.77366 ], [ -77.20882, 38.77358 ], [ -77.21002, 38.77146 ], [ -77.21413, 38.77301 ], [ -77.2146, 38.77189 ], [ -77.21387, 38.77106 ], [ -77.21435, 38.77018 ], [ -77.21481, 38.76996 ], [ -77.21656, 38.7703 ], [ -77.2183, 38.76997 ], [ -77.21886, 38.76941 ], [ -77.21961, 38.76981 ], [ -77.22101, 38.76964 ], [ -77.22034, 38.76889 ], [ -77.21947, 38.76891 ], [ -77.2191, 38.76855 ], [ -77.21946, 38.76701 ], [ -77.22028, 38.7666 ], [ -77.22071, 38.76684 ], [ -77.22075, 38.7678 ], [ -77.2224, 38.76952 ], [ -77.22387, 38.76956 ], [ -77.22407, 38.77091 ], [ -77.22362, 38.77112 ], [ -77.22219, 38.77059 ], [ -77.21981, 38.77088 ], [ -77.22006, 38.77256 ], [ -77.21923, 38.77343 ], [ -77.21629, 38.7732 ], [ -77.21586, 38.77296 ], [ -77.21594, 38.77238 ], [ -77.21555, 38.77316 ], [ -77.21693, 38.77436 ], [ -77.21901, 38.77463 ], [ -77.21956, 38.77537 ], [ -77.2206, 38.77555 ], [ -77.22262, 38.77697 ], [ -77.22362, 38.77867 ], [ -77.22654, 38.77995 ], [ -77.23215, 38.77883 ], [ -77.23138, 38.7769 ], [ -77.23052, 38.77683 ], [ -77.22982, 38.77721 ], [ -77.22878, 38.77657 ], [ -77.22822, 38.77556 ], [ -77.22889, 38.77495 ], [ -77.2308, 38.77489 ], [ -77.23096, 38.77376 ], [ -77.22822, 38.77322 ], [ -77.2278, 38.77271 ], [ -77.226, 38.773 ], [ -77.22531, 38.77221 ], [ -77.22545, 38.77166 ], [ -77.22464, 38.77111 ], [ -77.22464, 38.77024 ], [ -77.2251, 38.77003 ], [ -77.22744, 38.76986 ], [ -77.22923, 38.77044 ], [ -77.22936, 38.76997 ], [ -77.22612, 38.76905 ], [ -77.22581, 38.76871 ], [ -77.22629, 38.76799 ], [ -77.22889, 38.76858 ], [ -77.23115, 38.76964 ], [ -77.23184, 38.76887 ], [ -77.2313, 38.76784 ], [ -77.23172, 38.76699 ], [ -77.23201, 38.76664 ], [ -77.23353, 38.76655 ], [ -77.23409, 38.76718 ], [ -77.23375, 38.76802 ], [ -77.23312, 38.76828 ], [ -77.23282, 38.76975 ], [ -77.23435, 38.76821 ], [ -77.23486, 38.76833 ], [ -77.23504, 38.76886 ], [ -77.23662, 38.76854 ], [ -77.23795, 38.77135 ], [ -77.23812, 38.77055 ], [ -77.23935, 38.77027 ], [ -77.24047, 38.77098 ], [ -77.24018, 38.7722 ] ], [ [ -77.23417, 38.78676 ], [ -77.23327, 38.78629 ], [ -77.23252, 38.78652 ], [ -77.23417, 38.78676 ] ], [ [ -77.23249, 38.78264 ], [ -77.23302, 38.78269 ], [ -77.23331, 38.7833 ], [ -77.23496, 38.78287 ], [ -77.23378, 38.78156 ], [ -77.23085, 38.78226 ], [ -77.23117, 38.78311 ], [ -77.23249, 38.78264 ] ], [ [ -77.23315, 38.78057 ], [ -77.23282, 38.77996 ], [ -77.23017, 38.78052 ], [ -77.2304, 38.78124 ], [ -77.23315, 38.78057 ] ], [ [ -77.23934, 38.78323 ], [ -77.23766, 38.78179 ], [ -77.23647, 38.7824 ], [ -77.23721, 38.78314 ], [ -77.23791, 38.78324 ], [ -77.23832, 38.78418 ], [ -77.23934, 38.78323 ] ], [ [ -77.2384, 38.77992 ], [ -77.23775, 38.78024 ], [ -77.23789, 38.78041 ], [ -77.2384, 38.77992 ] ], [ [ -77.2362, 38.77685 ], [ -77.2359, 38.77711 ], [ -77.23679, 38.77701 ], [ -77.2362, 38.77685 ] ], [ [ -77.2348, 38.77487 ], [ -77.23491, 38.77487 ], [ -77.23481, 38.77476 ], [ -77.2348, 38.77487 ] ], [ [ -77.23603, 38.77342 ], [ -77.23555, 38.77313 ], [ -77.23527, 38.77407 ], [ -77.23603, 38.77342 ] ], [ [ -77.23451, 38.77129 ], [ -77.23527, 38.77101 ], [ -77.23519, 38.77089 ], [ -77.23451, 38.77129 ] ], [ [ -77.23975, 38.7808 ], [ -77.23979, 38.781 ], [ -77.2399, 38.78098 ], [ -77.24015, 38.7806 ], [ -77.23975, 38.7808 ] ], [ [ -77.23996, 38.77873 ], [ -77.23974, 38.7787 ], [ -77.23981, 38.77892 ], [ -77.23996, 38.77873 ] ], [ [ -77.24047, 38.77575 ], [ -77.23968, 38.77632 ], [ -77.23898, 38.77591 ], [ -77.23864, 38.77622 ], [ -77.24045, 38.77654 ], [ -77.24047, 38.77575 ] ], [ [ -77.23897, 38.77455 ], [ -77.23759, 38.7742 ], [ -77.23761, 38.77459 ], [ -77.23661, 38.7751 ], [ -77.23659, 38.77572 ], [ -77.23895, 38.77484 ], [ -77.23897, 38.77455 ] ], [ [ -77.2419, 38.77665 ], [ -77.24177, 38.77701 ], [ -77.24266, 38.77657 ], [ -77.2426, 38.7764 ], [ -77.2419, 38.77665 ] ], [ [ -77.24469, 38.77735 ], [ -77.24436, 38.77705 ], [ -77.24428, 38.77734 ], [ -77.24469, 38.77735 ] ], [ [ -77.2403, 38.78232 ], [ -77.24004, 38.78218 ], [ -77.23996, 38.78225 ], [ -77.2403, 38.78232 ] ], [ [ -77.23905, 38.78933 ], [ -77.23846, 38.78872 ], [ -77.23846, 38.78896 ], [ -77.23905, 38.78933 ] ], [ [ -77.23486, 38.78615 ], [ -77.23455, 38.78663 ], [ -77.23576, 38.78643 ], [ -77.23486, 38.78615 ] ], [ [ -77.23511, 38.78396 ], [ -77.23474, 38.78405 ], [ -77.23526, 38.7845 ], [ -77.23511, 38.78396 ] ], [ [ -77.23671, 38.78098 ], [ -77.23627, 38.78013 ], [ -77.23668, 38.77928 ], [ -77.23433, 38.77964 ], [ -77.23561, 38.78154 ], [ -77.23671, 38.78098 ] ], [ [ -77.23325, 38.77635 ], [ -77.2328, 38.77676 ], [ -77.23284, 38.77683 ], [ -77.23337, 38.77672 ], [ -77.23325, 38.77635 ] ], [ [ -77.23304, 38.77479 ], [ -77.23293, 38.77477 ], [ -77.2329, 38.77494 ], [ -77.23304, 38.77479 ] ], [ [ -77.2337, 38.77412 ], [ -77.23373, 38.77409 ], [ -77.23368, 38.77408 ], [ -77.2337, 38.77412 ] ], [ [ -77.23631, 38.78529 ], [ -77.23648, 38.78541 ], [ -77.23634, 38.78524 ], [ -77.23631, 38.78529 ] ], [ [ -77.23673, 38.78823 ], [ -77.23679, 38.78827 ], [ -77.23668, 38.78806 ], [ -77.23673, 38.78823 ] ], [ [ -77.23383, 38.7845 ], [ -77.23391, 38.78465 ], [ -77.23409, 38.7842 ], [ -77.23383, 38.7845 ] ], [ [ -77.22374, 38.78893 ], [ -77.22363, 38.78873 ], [ -77.22381, 38.78942 ], [ -77.22374, 38.78893 ] ], [ [ -77.22237, 38.78933 ], [ -77.222, 38.7895 ], [ -77.22245, 38.7896 ], [ -77.22237, 38.78933 ] ], [ [ -77.22179, 38.78841 ], [ -77.22218, 38.78854 ], [ -77.22213, 38.78835 ], [ -77.22179, 38.78841 ] ], [ [ -77.22206, 38.78488 ], [ -77.22206, 38.78483 ], [ -77.22197, 38.78489 ], [ -77.22206, 38.78488 ] ], [ [ -77.22611, 38.78303 ], [ -77.22609, 38.78213 ], [ -77.22677, 38.78159 ], [ -77.22744, 38.78206 ], [ -77.22915, 38.78204 ], [ -77.2287, 38.78084 ], [ -77.22551, 38.78116 ], [ -77.22266, 38.78054 ], [ -77.22032, 38.78216 ], [ -77.22163, 38.78255 ], [ -77.22226, 38.7821 ], [ -77.22275, 38.78225 ], [ -77.22309, 38.78346 ], [ -77.22348, 38.78317 ], [ -77.22611, 38.78303 ] ], [ [ -77.22967, 38.78606 ], [ -77.22912, 38.78603 ], [ -77.22881, 38.78682 ], [ -77.2283, 38.78694 ], [ -77.22773, 38.78645 ], [ -77.22686, 38.78627 ], [ -77.2266, 38.78654 ], [ -77.22705, 38.78722 ], [ -77.22784, 38.78733 ], [ -77.22967, 38.787 ], [ -77.22967, 38.78606 ] ], [ [ -77.22948, 38.78311 ], [ -77.22898, 38.78312 ], [ -77.22965, 38.78326 ], [ -77.22948, 38.78311 ] ], [ [ -77.23121, 38.78711 ], [ -77.23117, 38.78702 ], [ -77.23117, 38.78711 ], [ -77.23121, 38.78711 ] ], [ [ -77.22945, 38.79064 ], [ -77.22943, 38.79064 ], [ -77.22944, 38.79066 ], [ -77.22945, 38.79064 ] ], [ [ -77.22573, 38.78692 ], [ -77.22599, 38.78665 ], [ -77.22556, 38.78591 ], [ -77.22423, 38.7861 ], [ -77.22352, 38.78557 ], [ -77.22394, 38.78689 ], [ -77.22573, 38.78692 ] ], [ [ -77.22461, 38.78788 ], [ -77.22466, 38.78794 ], [ -77.22471, 38.78787 ], [ -77.22461, 38.78788 ] ], [ [ -77.21621, 38.7722 ], [ -77.21633, 38.77218 ], [ -77.21634, 38.77211 ], [ -77.21621, 38.7722 ] ], [ [ -77.21699, 38.78238 ], [ -77.21703, 38.78244 ], [ -77.21711, 38.78238 ], [ -77.21699, 38.78238 ] ], [ [ -77.2173, 38.78113 ], [ -77.21723, 38.78133 ], [ -77.21744, 38.78139 ], [ -77.2173, 38.78113 ] ], [ [ -77.2167, 38.77746 ], [ -77.2162, 38.77734 ], [ -77.21633, 38.77774 ], [ -77.2167, 38.77746 ] ], [ [ -77.2216, 38.77772 ], [ -77.2216, 38.77777 ], [ -77.22163, 38.77776 ], [ -77.2216, 38.77772 ] ], [ [ -77.21899, 38.77882 ], [ -77.21861, 38.7785 ], [ -77.21878, 38.77879 ], [ -77.21899, 38.77882 ] ], [ [ -77.22076, 38.78025 ], [ -77.22067, 38.78024 ], [ -77.22066, 38.78031 ], [ -77.22076, 38.78025 ] ], [ [ -77.2199, 38.78077 ], [ -77.21996, 38.78072 ], [ -77.21978, 38.78071 ], [ -77.2199, 38.78077 ] ], [ [ -77.21949, 38.78478 ], [ -77.21955, 38.78446 ], [ -77.21891, 38.78449 ], [ -77.21949, 38.78478 ] ], [ [ -77.22089, 38.78474 ], [ -77.22047, 38.78509 ], [ -77.22066, 38.78514 ], [ -77.22122, 38.78503 ], [ -77.22089, 38.78474 ] ], [ [ -77.21437, 38.77393 ], [ -77.2146, 38.77402 ], [ -77.21439, 38.77377 ], [ -77.21437, 38.77393 ] ], [ [ -77.21077, 38.77247 ], [ -77.21065, 38.77273 ], [ -77.21073, 38.77263 ], [ -77.21077, 38.77247 ] ], [ [ -77.21535, 38.77915 ], [ -77.21527, 38.77887 ], [ -77.21511, 38.77894 ], [ -77.21535, 38.77915 ] ], [ [ -77.21488, 38.77765 ], [ -77.21444, 38.77793 ], [ -77.21477, 38.77775 ], [ -77.21488, 38.77765 ] ], [ [ -77.2111, 38.77767 ], [ -77.2114, 38.7775 ], [ -77.2113, 38.77753 ], [ -77.2111, 38.77767 ] ], [ [ -77.21589, 38.78104 ], [ -77.21593, 38.78095 ], [ -77.21565, 38.78087 ], [ -77.21589, 38.78104 ] ] ] } },
{ "type": "Feature", "properties": { "variant": "T0", "miles": 2.0 }, "geometry": { "type": "Polygon", "coordinates": [ [ [ -77.25007, 38.76909 ], [ -77.25117, 38.76856 ], [ -77.25198, 38.76907 ], [ -77.25291, 38.7687 ], [ -77.25337, 38.7689 ], [ -77.25351, 38.7693 ], [ -77.25284, 38.76992 ], [ -77.25317, 38.77093 ], [ -77.25225, 38.77118 ], [ -77.25176, 38.7706 ], [ -77.25082, 38.77156 ], [ -77.25161, 38.77304 ], [ -77.25596, 38.77212 ], [ -77.25643, 38.77231 ], [ -77.25655, 38.77317 ], [ -77.25749, 38.77327 ], [ -77.25763, 38.77367 ], [ -77.25654, 38.77429 ], [ -77.25581, 38.77777 ], [ -77.25433, 38.77769 ], [ -77.25428, 38.77841 ], [ -77.25378, 38.77875 ], [ -77.25425, 38.77936 ], [ -77.2536, 38.77992 ], [ -77.25222, 38.7794 ], [ -77.25197, 38.7785 ], [ -77.25121, 38.77796 ], [ -77.25128, 38.77601 ], [ -77.24987, 38.77557 ], [ -77.24898, 38.77582 ], [ -77.24855, 38.77559 ], [ -77.2487, 38.77485 ], [ -77.2456, 38.77606 ], [ -77.24695, 38.77673 ], [ -77.24771, 38.77772 ], [ -77.24917, 38.77803 ], [ -77.24946, 38.77841 ], [ -77.24872, 38.77932 ], [ -77.25097, 38.78063 ], [ -77.25252, 38.7841 ], [ -77.25233, 38.78462 ], [ -77.25145, 38.7848 ], [ -77.24995, 38.78622 ], [ -77.25062, 38.78691 ], [ -77.25042, 38.78729 ], [ -77.24992, 38.78744 ], [ -77.24904, 38.78703 ], [ -77.24742, 38.78846 ], [ -77.24849, 38.78948 ], [ -77.24836, 38.79024 ], [ -77.24739, 38.79013 ], [ -77.24631, 38.78911 ], [ -77.24566, 38.78934 ], [ -77.24594, 38.79042 ], [ -77.24478, 38.79073 ], [ -77.24529, 38.79107 ], [ -77.24738, 38.79066 ], [ -77.24841, 38.79118 ], [ -77.24795, 38.79185 ], [ -77.24604, 38.79203 ], [ -77.24584, 38.79267 ], [ -77.24664, 38.7935 ], [ -77.24772, 38.79258 ], [ -77.2485, 38.79304 ], [ -77.2475, 38.79442 ], [ -77.24903, 38.79538 ], [ -77.24817, 38.79705 ], [ -77.24765, 38.79699 ], [ -77.2439, 38.79271 ], [ -77.2429, 38.79271 ], [ -77.24113, 38.79122 ], [ -77.23991, 38.79208 ], [ -77.24072, 38.79334 ], [ -77.24058, 38.79421 ], [ -77.23884, 38.79464 ], [ -77.23777, 38.79434 ], [ -77.23666, 38.79491 ], [ -77.23457, 38.79458 ], [ -77.2337, 38.79479 ], [ -77.23338, 38.79411 ], [ -77.23245, 38.79401 ], [ -77.23231, 38.79361 ], [ -77.23301, 38.79271 ], [ -77.23232, 38.79283 ], [ -77.23183, 38.79239 ], [ -77.23092, 38.79276 ], [ -77.22986, 38.79224 ], [ -77.22975, 38.79182 ], [ -77.22929, 38.79229 ], [ -77.22846, 38.79192 ], [ -77.22775, 38.79229 ], [ -77.22681, 38.79156 ], [ -77.2241, 38.79152 ], [ -77.22387, 38.79052 ], [ -77.22197, 38.79063 ], [ -77.22107, 38.79112 ], [ -77.22038, 38.79058 ], [ -77.22072, 38.7901 ], [ -77.21792, 38.78947 ], [ -77.21472, 38.78701 ], [ -77.21129, 38.78606 ], [ -77.20985, 38.7862 ], [ -77.20942, 38.78551 ], [ -77.21055, 38.78511 ], [ -77.21026, 38.78357 ], [ -77.21083, 38.78288 ], [ -77.21136, 38.78287 ], [ -77.21174, 38.78316 ], [ -77.21178, 38.78456 ], [ -77.21277, 38.78409 ], [ -77.21325, 38.78427 ], [ -77.21344, 38.78465 ], [ -77.21269, 38.78539 ], [ -77.21418, 38.78565 ], [ -77.21462, 38.78478 ], [ -77.21539, 38.78451 ], [ -77.21595, 38.78514 ], [ -77.21546, 38.78609 ], [ -77.21636, 38.78542 ], [ -77.21688, 38.78545 ], [ -77.21709, 38.78631 ], [ -77.21806, 38.78664 ], [ -77.21757, 38.78796 ], [ -77.21851, 38.78703 ], [ -77.21948, 38.78696 ], [ -77.21973, 38.78732 ], [ -77.21919, 38.78809 ], [ -77.22, 38.78815 ], [ -77.22015, 38.78888 ], [ -77.21993, 38.78709 ], [ -77.22087, 38.78688 ], [ -77.22126, 38.78741 ], [ -77.2226, 38.78715 ], [ -77.22222, 38.78596 ], [ -77.22048, 38.78622 ], [ -77.21809, 38.78545 ], [ -77.21726, 38.78406 ], [ -77.21642, 38.78433 ], [ -77.21599, 38.78409 ], [ -77.21605, 38.78351 ], [ -77.21522, 38.78332 ], [ -77.21511, 38.78194 ], [ -77.21334, 38.78144 ], [ -77.21299, 38.78077 ], [ -77.21329, 38.7802 ], [ -77.21112, 38.77986 ], [ -77.21129, 38.7791 ], [ -77.21229, 38.77908 ], [ -77.21309, 38.77802 ], [ -77.21125, 38.77886 ], [ -77.21025, 38.77867 ], [ -77.20957, 38.77723 ], [ -77.21096, 38.77644 ], [ -77.209, 38.77689 ], [ -77.20785, 38.77648 ], [ -77.20669, 38.77668 ], [ -77.20592, 38.7762 ], [ -77.20585, 38.77514 ], [ -77.20407, 38.77566 ], [ -77.20498, 38.77738 ], [ -77.20417, 38.7793 ], [ -77.20773, 38.77846 ], [ -77.2089, 38.77889 ], [ -77.20851, 38.77959 ], [ -77.2044, 38.78042 ], [ -77.20212, 38.77965 ], [ -77.20177, 38.77923 ], [ -77.20234, 38.77748 ], [ -77.2016, 38.77674 ], [ -77.19969, 38.77752 ], [ -77.20075, 38.77801 ], [ -77.20161, 38.77899 ], [ -77.20141, 38.77973 ], [ -77.20089, 38.77981 ], [ -77.20022, 38.77929 ], [ -77.19945, 38.77993 ], [ -77.19639, 38.77905 ], [ -77.19489, 38.7794 ], [ -77.1944, 38.77926 ], [ -77.19415, 38.77837 ], [ -77.19348, 38.77836 ], [ -77.19312, 38.77796 ], [ -77.19324, 38.77742 ], [ -77.1941, 38.77714 ], [ -77.1947, 38.77637 ], [ -77.19771, 38.77535 ], [ -77.20043, 38.77546 ], [ -77.20233, 38.77441 ], [ -77.20284, 38.77347 ], [ -77.20536, 38.77321 ], [ -77.20874, 38.76893 ], [ -77.20891, 38.76788 ], [ -77.20777, 38.76723 ], [ -77.20818, 38.76643 ], [ -77.20771, 38.76591 ], [ -77.20778, 38.76463 ], [ -77.20969, 38.76476 ], [ -77.20986, 38.76539 ], [ -77.21109, 38.76606 ], [ -77.2106, 38.7644 ], [ -77.21101, 38.76371 ], [ -77.21154, 38.76373 ], [ -77.21278, 38.76483 ], [ -77.21193, 38.76706 ], [ -77.21264, 38.76872 ], [ -77.2118, 38.7691 ], [ -77.2113, 38.76876 ], [ -77.21045, 38.76959 ], [ -77.20992, 38.76953 ], [ -77.20717, 38.77366 ], [ -77.20882, 38.77358 ], [ -77.21002, 38.77146 ], [ -77.21413, 38.77301 ], [ -77.2146, 38.77189 ], [ -77.2142, 38.77181 ], [ -77.21388, 38.77097 ], [ -77.21481, 38.76996 ], [ -77.21656, 38.7703 ], [ -77.2183, 38.76997 ], [ -77.21886, 38.76941 ], [ -77.21961, 38.76981 ], [ -77.22101, 38.76964 ], [ -77.22034, 38.76889 ], [ -77.21947, 38.76891 ], [ -77.2191, 38.76817 ], [ -77.21581, 38.76756 ], [ -77.2158, 38.7668 ], [ -77.21675, 38.76663 ], [ -77.21943, 38.7671 ], [ -77.21988, 38.76633 ], [ -77.21919, 38.76594 ], [ -77.2195, 38.76541 ], [ -77.21893, 38.76464 ], [ -77.21984, 38.76435 ], [ -77.22088, 38.76485 ], [ -77.22153, 38.7647 ], [ -77.22127, 38.76319 ], [ -77.22161, 38.7626 ], [ -77.22257, 38.76276 ], [ -77.22281, 38.76414 ], [ -77.22388, 38.7639 ], [ -77.22431, 38.76445 ], [ -77.22487, 38.7638 ], [ -77.22562, 38.76392 ], [ -77.22636, 38.7633 ], [ -77.22599, 38.76221 ], [ -77.22679, 38.76177 ], [ -77.22746, 38.76233 ], [ -77.2288, 38.76173 ], [ -77.2293, 38.76185 ], [ -77.22938, 38.76262 ], [ -77.22826, 38.76322 ], [ -77.22866, 38.76378 ], [ -77.2295, 38.76343 ], [ -77.22991, 38.76368 ], [ -77.22978, 38.76448 ], [ -77.23029, 38.76304 ], [ -77.23077, 38.76288 ], [ -77.23147, 38.76342 ], [ -77.23138, 38.76468 ], [ -77.23246, 38.76427 ], [ -77.23289, 38.7645 ], [ -77.23299, 38.76491 ], [ -77.23188, 38.76582 ], [ -77.23143, 38.76685 ], [ -77.23173, 38.76701 ], [ -77.23253, 38.76655 ], [ -77.23398, 38.76677 ], [ -77.23375, 38.76802 ], [ -77.23312, 38.76828 ], [ -77.23289, 38.76978 ], [ -77.23388, 38.76841 ], [ -77.23477, 38.76831 ], [ -77.23448, 38.76766 ], [ -77.23478, 38.76732 ], [ -77.2353, 38.76725 ], [ -77.23602, 38.76783 ], [ -77.23661, 38.76745 ], [ -77.23629, 38.76615 ], [ -77.23704, 38.76555 ], [ -77.23882, 38.76575 ], [ -77.24097, 38.76691 ], [ -77.24081, 38.76861 ], [ -77.23951, 38.76951 ], [ -77.24128, 38.77045 ], [ -77.24188, 38.77128 ], [ -77.24341, 38.77113 ], [ -77.24502, 38.77165 ], [ -77.24614, 38.77077 ], [ -77.24709, 38.77076 ], [ -77.24832, 38.76924 ], [ -77.2476, 38.76831 ], [ -77.24784, 38.76795 ], [ -77.24835, 38.76782 ], [ -77.25007, 38.76909 ] ], [ [ -77.23417, 38.78676 ], [ -77.23327, 38.78629 ], [ -77.23252, 38.78652 ], [ -77.23417, 38.78676 ] ], [ [ -77.23549, 38.78646 ], [ -77.23576, 38.78643 ], [ -77.23486, 38.78615 ], [ -77.23458, 38.78663 ], [ -77.23549, 38.78646 ] ], [ [ -77.23511, 38.78396 ], [ -77.23474, 38.78405 ], [ -77.23519, 38.78434 ], [ -77.23511, 38.78396 ] ], [ [ -77.23384, 38.78438 ], [ -77.23391, 38.78465 ], [ -77.23409, 38.7842 ], [ -77.23384, 38.78438 ] ], [ [ -77.23249, 38.78264 ], [ -77.23302, 38.78269 ], [ -77.23331, 38.7833 ], [ -77.23496, 38.78287 ], [ -77.23378, 38.78156 ], [ -77.23085, 38.78226 ], [ -77.23117, 38.78311 ], [ -77.23249, 38.78264 ] ], [ [ -77.23315, 38.78057 ], [ -77.23282, 38.77996 ], [ -77.23017, 38.78052 ], [ -77.2304, 38.78124 ], [ -77.23315, 38.78057 ] ], [ [ -77.23215, 38.77883 ], [ -77.23138, 38.7769 ], [ -77.23052, 38.77683 ], [ -77.22982, 38.77721 ], [ -77.22936, 38.77702 ], [ -77.22823, 38.77548 ], [ -77.22889, 38.77495 ], [ -77.2308, 38.77489 ], [ -77.23096, 38.77376 ], [ -77.22822, 38.77322 ], [ -77.2278, 38.77271 ], [ -77.22638, 38.77309 ], [ -77.22454, 38.77241 ], [ -77.22346, 38.77249 ], [ -77.22318, 38.77299 ], [ -77.22208, 38.7726 ], [ -77.22151, 38.77322 ], [ -77.22099, 38.77312 ], [ -77.22061, 38.77201 ], [ -77.22117, 38.77071 ], [ -77.21981, 38.77088 ], [ -77.22007, 38.77253 ], [ -77.21933, 38.7734 ], [ -77.21629, 38.7732 ], [ -77.21586, 38.77296 ], [ -77.21594, 38.77238 ], [ -77.21562, 38.77264 ], [ -77.21563, 38.77329 ], [ -77.21693, 38.77436 ], [ -77.21907, 38.77465 ], [ -77.21956, 38.77537 ], [ -77.22047, 38.77548 ], [ -77.22231, 38.77671 ], [ -77.22362, 38.77867 ], [ -77.22453, 38.77926 ], [ -77.22656, 38.77995 ], [ -77.23215, 38.77883 ] ], [ [ -77.23181, 38.76862 ], [ -77.23024, 38.76741 ], [ -77.22931, 38.76872 ], [ -77.23115, 38.76964 ], [ -77.23181, 38.76862 ] ], [ [ -77.24204, 38.78781 ], [ -77.24239, 38.78754 ], [ -77.24213, 38.78759 ], [ -77.24184, 38.78805 ], [ -77.24204, 38.78781 ] ], [ [ -77.24268, 38.7854 ], [ -77.24222, 38.78474 ], [ -77.24247, 38.78437 ], [ -77.24378, 38.78436 ], [ -77.24204, 38.78238 ], [ -77.239, 38.78524 ], [ -77.24035, 38.78759 ], [ -77.24268, 38.7854 ] ], [ [ -77.24166, 38.77994 ], [ -77.24174, 38.78 ], [ -77.24174, 38.77988 ], [ -77.24166, 38.77994 ] ], [ [ -77.2399, 38.78098 ], [ -77.24015, 38.7806 ], [ -77.23985, 38.78075 ], [ -77.2399, 38.78098 ] ], [ [ -77.2384, 38.77992 ], [ -77.23775, 38.78024 ], [ -77.23789, 38.78041 ], [ -77.2384, 38.77992 ] ], [ [ -77.23996, 38.77873 ], [ -77.23974, 38.7787 ], [ -77.23981, 38.77892 ], [ -77.23996, 38.77873 ] ], [ [ -77.24049, 38.77659 ], [ -77.24047, 38.77575 ], [ -77.23968, 38.77632 ], [ -77.23898, 38.77591 ], [ -77.23864, 38.77622 ], [ -77.24049, 38.77659 ] ], [ [ -77.23897, 38.77455 ], [ -77.23759, 38.7742 ], [ -77.23761, 38.77459 ], [ -77.23661, 38.7751 ], [ -77.23659, 38.77572 ], [ -77.23896, 38.7749 ], [ -77.23897, 38.77455 ] ], [ [ -77.2386, 38.76819 ], [ -77.23837, 38.76777 ], [ -77.2378, 38.76849 ], [ -77.23812, 38.76888 ], [ -77.2386, 38.76819 ] ], [ [ -77.24689, 38.78554 ], [ -77.24954, 38.78487 ], [ -77.2507, 38.78369 ], [ -77.25067, 38.78282 ], [ -77.24986, 38.782 ], [ -77.249, 38.78279 ], [ -77.24803, 38.78268 ], [ -77.2479, 38.78228 ], [ -77.24868, 38.78145 ], [ -77.24763, 38.78246 ], [ -77.24798, 38.78339 ], [ -77.24721, 38.78415 ], [ -77.24722, 38.78494 ], [ -77.24625, 38.78493 ], [ -77.24556, 38.78437 ], [ -77.24505, 38.78484 ], [ -77.24569, 38.78532 ], [ -77.24562, 38.78608 ], [ -77.24344, 38.78692 ], [ -77.24312, 38.78738 ], [ -77.24418, 38.78734 ], [ -77.24492, 38.78672 ], [ -77.24558, 38.78682 ], [ -77.24587, 38.78634 ], [ -77.24697, 38.78644 ], [ -77.24689, 38.78554 ] ], [ [ -77.248, 38.78033 ], [ -77.24607, 38.77861 ], [ -77.24532, 38.77909 ], [ -77.24481, 38.77898 ], [ -77.24487, 38.77977 ], [ -77.24379, 38.78071 ], [ -77.24462, 38.78189 ], [ -77.245, 38.78148 ], [ -77.24584, 38.78157 ], [ -77.24565, 38.78077 ], [ -77.24603, 38.78049 ], [ -77.24656, 38.78051 ], [ -77.24719, 38.78115 ], [ -77.248, 38.78033 ] ], [ [ -77.24322, 38.7783 ], [ -77.24312, 38.77966 ], [ -77.24383, 38.77905 ], [ -77.24322, 38.7783 ] ], [ [ -77.24282, 38.77817 ], [ -77.24303, 38.77818 ], [ -77.24294, 38.77812 ], [ -77.24282, 38.77817 ] ], [ [ -77.24187, 38.77871 ], [ -77.24206, 38.77844 ], [ -77.24186, 38.77849 ], [ -77.24187, 38.77871 ] ], [ [ -77.24267, 38.77657 ], [ -77.2426, 38.7764 ], [ -77.24177, 38.77701 ], [ -77.24267, 38.77657 ] ], [ [ -77.24382, 38.77575 ], [ -77.24543, 38.77468 ], [ -77.24466, 38.77427 ], [ -77.2443, 38.773 ], [ -77.2433, 38.77222 ], [ -77.24103, 38.77234 ], [ -77.24382, 38.77575 ] ], [ [ -77.24711, 38.77375 ], [ -77.24576, 38.77323 ], [ -77.24592, 38.77443 ], [ -77.24711, 38.77375 ] ], [ [ -77.25174, 38.77425 ], [ -77.2503, 38.77454 ], [ -77.25145, 38.77489 ], [ -77.25228, 38.77439 ], [ -77.25282, 38.77522 ], [ -77.25363, 38.77541 ], [ -77.25429, 38.77477 ], [ -77.25496, 38.77511 ], [ -77.2555, 38.77494 ], [ -77.25514, 38.77372 ], [ -77.25174, 38.77425 ] ], [ [ -77.24436, 38.77705 ], [ -77.24404, 38.77734 ], [ -77.24428, 38.77734 ], [ -77.24469, 38.77735 ], [ -77.24436, 38.77705 ] ], [ [ -77.24317, 38.782 ], [ -77.24291, 38.78155 ], [ -77.24274, 38.78184 ], [ -77.24317, 38.782 ] ], [ [ -77.24631, 38.78201 ], [ -77.24598, 38.7817 ], [ -77.24601, 38.78184 ], [ -77.24631, 38.78201 ] ], [ [ -77.24646, 38.78354 ], [ -77.24651, 38.78358 ], [ -77.2465, 38.78349 ], [ -77.24646, 38.78354 ] ], [ [ -77.24348, 38.79036 ], [ -77.24356, 38.79022 ], [ -77.24317, 38.7903 ], [ -77.24348, 38.79036 ] ], [ [ -77.24306, 38.78857 ], [ -77.24379, 38.78844 ], [ -77.24353, 38.78823 ], [ -77.24306, 38.78857 ] ], [ [ -77.23949, 38.76942 ], [ -77.2395, 38.76938 ], [ -77.23947, 38.76943 ], [ -77.23949, 38.76942 ] ], [ [ -77.23934, 38.78323 ], [ -77.23766, 38.78179 ], [ -77.23647, 38.7824 ], [ -77.23721, 38.78314 ], [ -77.23791, 38.78324 ], [ -77.23825, 38.78425 ], [ -77.23934, 38.78323 ] ], [ [ -77.2403, 38.78232 ], [ -77.24004, 38.78218 ], [ -77.23996, 38.78225 ], [ -77.2403, 38.78232 ] ], [ [ -77.23846, 38.78896 ], [ -77.23905, 38.78933 ], [ -77.23854, 38.78872 ], [ -77.23846, 38.78896 ] ], [ [ -77.23527, 38.77101 ], [ -77.23519, 38.77089 ], [ -77.23455, 38.77111 ], [ -77.23527, 38.77101 ] ], [ [ -77.23505, 38.76861 ], [ -77.23504, 38.76886 ], [ -77.2353, 38.76877 ], [ -77.23505, 38.76861 ] ], [ [ -77.23802, 38.77117 ], [ -77.23794, 38.77113 ], [ -77.23795, 38.77135 ], [ -77.23802, 38.77117 ] ], [ [ -77.23433, 38.77964 ], [ -77.23561, 38.78154 ], [ -77.23671, 38.78098 ], [ -77.23627, 38.78013 ], [ -77.23668, 38.77928 ], [ -77.23433, 38.77964 ] ], [ [ -77.2362, 38.77685 ], [ -77.2359, 38.77711 ], [ -77.23679, 38.77701 ], [ -77.23689, 38.77677 ], [ -77.2362, 38.77685 ] ], [ [ -77.23481, 38.77476 ], [ -77.23469, 38.77489 ], [ -77.2348, 38.77487 ], [ -77.23481, 38.77476 ] ], [ [ -77.23603, 38.77342 ], [ -77.23555, 38.77313 ], [ -77.23527, 38.77407 ], [ -77.23603, 38.77342 ] ], [ [ -77.23668, 38.78806 ], [ -77.23658, 38.78812 ], [ -77.23665, 38.78818 ], [ -77.23668, 38.78806 ] ], [ [ -77.23631, 38.78529 ], [ -77.23648, 38.78541 ], [ -77.23634, 38.78524 ], [ -77.23631, 38.78529 ] ], [ [ -77.23337, 38.77672 ], [ -77.23325, 38.77635 ], [ -77.23302, 38.77659 ], [ -77.2328, 38.77676 ], [ -77.23337, 38.77672 ] ], [ [ -77.23368, 38.77408 ], [ -77.23367, 38.77408 ], [ -77.2337, 38.77412 ], [ -77.23368, 38.77408 ] ], [ [ -77.23304, 38.77479 ], [ -77.23293, 38.77477 ], [ -77.2329, 38.77494 ], [ -77.23304, 38.77479 ] ], [ [ -77.22461, 38.78788 ], [ -77.22466, 38.78794 ], [ -77.22471, 38.78787 ], [ -77.22461, 38.78788 ] ], [ [ -77.22573, 38.78692 ], [ -77.22599, 38.78665 ], [ -77.22556, 38.78591 ], [ -77.22423, 38.7861 ], [ -77.22352, 38.78557 ], [ -77.22394, 38.78689 ], [ -77.22573, 38.78692 ] ], [ [ -77.22611, 38.78303 ], [ -77.22609, 38.78213 ], [ -77.22677, 38.78159 ], [ -77.22744, 38.78206 ], [ -77.22915, 38.78204 ], [ -77.2287, 38.78084 ], [ -77.22551, 38.78116 ], [ -77.22266, 38.78054 ], [ -77.22032, 38.78216 ], [ -77.22163, 38.78255 ], [ -77.22226, 38.7821 ], [ -77.22275, 38.78225 ], [ -77.22309, 38.78346 ], [ -77.22611, 38.78303 ] ], [ [ -77.22967, 38.78606 ], [ -77.22912, 38.78603 ], [ -77.22881, 38.78682 ], [ -77.2283, 38.78694 ], [ -77.22773, 38.78645 ], [ -77.22686, 38.78627 ], [ -77.2266, 38.78654 ], [ -77.22705, 38.78722 ], [ -77.22784, 38.78733 ], [ -77.22967, 38.787 ], [ -77.22967, 38.78606 ] ], [ [ -77.22948, 38.78311 ], [ -77.22898, 38.78312 ], [ -77.22965, 38.78326 ], [ -77.22948, 38.78311 ] ], [ [ -77.22945, 38.79064 ], [ -77.22943, 38.79064 ], [ -77.22944, 38.79066 ], [ -77.22945, 38.79064 ] ], [ [ -77.231, 38.79089 ], [ -77.23105, 38.79084 ], [ -77.231, 38.79083 ], [ -77.231, 38.79089 ] ], [ [ -77.22364, 38.76944 ], [ -77.22361, 38.76928 ], [ -77.22348, 38.76937 ], [ -77.22364, 38.76944 ] ], [ [ -77.22327, 38.76746 ], [ -77.22346, 38.76737 ], [ -77.22325, 38.76727 ], [ -77.22327, 38.76746 ] ], [ [ -77.22116, 38.76785 ], [ -77.2207, 38.76772 ], [ -77.22136, 38.76815 ], [ -77.22163, 38.76789 ], [ -77.22116, 38.76785 ] ], [ [ -77.22341, 38.76512 ], [ -77.22281, 38.76535 ], [ -77.22322, 38.76566 ], [ -77.22341, 38.76512 ] ], [ [ -77.22644, 38.76571 ], [ -77.22639, 38.76566 ], [ -77.2264, 38.7658 ], [ -77.22644, 38.76571 ] ], [ [ -77.22652, 38.76477 ], [ -77.22651, 38.76475 ], [ -77.22628, 38.76487 ], [ -77.22652, 38.76477 ] ], [ [ -77.225, 38.76554 ], [ -77.225, 38.76539 ], [ -77.22485, 38.76545 ], [ -77.225, 38.76554 ] ], [ [ -77.22506, 38.76635 ], [ -77.22506, 38.76633 ], [ -77.22505, 38.76635 ], [ -77.22506, 38.76635 ] ], [ [ -77.22068, 38.76613 ], [ -77.22078, 38.76593 ], [ -77.22074, 38.76593 ], [ -77.22068, 38.76613 ] ], [ [ -77.21867, 38.77855 ], [ -77.21861, 38.7785 ], [ -77.21878, 38.77879 ], [ -77.21867, 38.77855 ] ], [ [ -77.21463, 38.77784 ], [ -77.21444, 38.77793 ], [ -77.21493, 38.77782 ], [ -77.21463, 38.77784 ] ], [ [ -77.2228, 38.76958 ], [ -77.2224, 38.76888 ], [ -77.22221, 38.76901 ], [ -77.2228, 38.76958 ] ], [ [ -77.22258, 38.77068 ], [ -77.22255, 38.77085 ], [ -77.2226, 38.77076 ], [ -77.22258, 38.77068 ] ], [ [ -77.22381, 38.78942 ], [ -77.22392, 38.7894 ], [ -77.22382, 38.7891 ], [ -77.22365, 38.78876 ], [ -77.22381, 38.78942 ] ], [ [ -77.22213, 38.78835 ], [ -77.22179, 38.78841 ], [ -77.22218, 38.78854 ], [ -77.22213, 38.78835 ] ], [ [ -77.22163, 38.77776 ], [ -77.2216, 38.77772 ], [ -77.2216, 38.77777 ], [ -77.22163, 38.77776 ] ], [ [ -77.22076, 38.78025 ], [ -77.22067, 38.78024 ], [ -77.22066, 38.78031 ], [ -77.22076, 38.78025 ] ], [ [ -77.2199, 38.78077 ], [ -77.21996, 38.78072 ], [ -77.21978, 38.78071 ], [ -77.2199, 38.78077 ] ], [ [ -77.21949, 38.78478 ], [ -77.21955, 38.78446 ], [ -77.21891, 38.78449 ], [ -77.21949, 38.78478 ] ], [ [ -77.22206, 38.78483 ], [ -77.22197, 38.78489 ], [ -77.22202, 38.78489 ], [ -77.22206, 38.78483 ] ], [ [ -77.22089, 38.78474 ], [ -77.22047, 38.78509 ], [ -77.22066, 38.78514 ], [ -77.22122, 38.78503 ], [ -77.22089, 38.78474 ] ], [ [ -77.22245, 38.7896 ], [ -77.22237, 38.78933 ], [ -77.222, 38.7895 ], [ -77.22245, 38.7896 ] ], [ [ -77.21437, 38.77393 ], [ -77.2146, 38.77402 ], [ -77.21439, 38.77377 ], [ -77.21437, 38.77393 ] ], [ [ -77.21621, 38.7722 ], [ -77.21633, 38.77218 ], [ -77.21634, 38.77211 ], [ -77.21621, 38.7722 ] ], [ [ -77.21076, 38.77257 ], [ -77.21077, 38.77247 ], [ -77.21065, 38.77273 ], [ -77.21076, 38.77257 ] ], [ [ -77.21589, 38.78104 ], [ -77.21593, 38.78095 ], [ -77.21565, 38.78087 ], [ -77.21589, 38.78104 ] ], [ [ -77.21535, 38.77915 ], [ -77.21527, 38.77887 ], [ -77.21499, 38.77901 ], [ -77.21535, 38.77915 ] ], [ [ -77.21664, 38.77751 ], [ -77.21684, 38.77752 ], [ -77.2162, 38.77734 ], [ -77.21633, 38.77774 ], [ -77.21664, 38.77751 ] ], [ [ -77.21703, 38.78244 ], [ -77.21711, 38.78238 ], [ -77.21699, 38.78238 ], [ -77.21703, 38.78244 ] ], [ [ -77.21744, 38.78139 ], [ -77.2173, 38.78113 ], [ -77.21723, 38.78133 ], [ -77.21744, 38.78139 ] ], [ [ -77.2111, 38.77767 ], [ -77.2114, 38.7775 ], [ -77.2113, 38.77753 ], [ -77.2111, 38.77767 ] ], [ [ -77.20285, 38.77618 ], [ -77.2028, 38.7762 ], [ -77.20302, 38.77643 ], [ -77.20285, 38.77618 ] ], [ [ -77.19697, 38.77796 ], [ -77.19669, 38.77799 ], [ -77.19694, 38.77801 ], [ -77.19697, 38.77796 ] ] ] } },
{ "type": "Feature", "properties": { "variant": "T2s", "miles": 1.0 }, "geometry": { "type": "Polygon", "coordinates": [ [ [ -77.23528, 38.77505 ], [ -77.23625, 38.77497 ], [ -77.23651, 38.77533 ], [ -77.23652, 38.77636 ], [ -77.23592, 38.77713 ], [ -77.23679, 38.77701 ], [ -77.23735, 38.77648 ], [ -77.23906, 38.77625 ], [ -77.23993, 38.77744 ], [ -77.24125, 38.77766 ], [ -77.24142, 38.77805 ], [ -77.24069, 38.77856 ], [ -77.23923, 38.77852 ], [ -77.23942, 38.7792 ], [ -77.23838, 38.77952 ], [ -77.23774, 38.78024 ], [ -77.23695, 38.78023 ], [ -77.23668, 38.77928 ], [ -77.23629, 38.77921 ], [ -77.23433, 38.77964 ], [ -77.23561, 38.78154 ], [ -77.23751, 38.78059 ], [ -77.23846, 38.78077 ], [ -77.23824, 38.78151 ], [ -77.23647, 38.7824 ], [ -77.23811, 38.78362 ], [ -77.23567, 38.78599 ], [ -77.23353, 38.78574 ], [ -77.23246, 38.78466 ], [ -77.23118, 38.78464 ], [ -77.23103, 38.7886 ], [ -77.23023, 38.78971 ], [ -77.22941, 38.79002 ], [ -77.22887, 38.78971 ], [ -77.22872, 38.7883 ], [ -77.22967, 38.7876 ], [ -77.22967, 38.78606 ], [ -77.22912, 38.78603 ], [ -77.22881, 38.78682 ], [ -77.2283, 38.78694 ], [ -77.22686, 38.78627 ], [ -77.226, 38.78665 ], [ -77.22556, 38.78591 ], [ -77.22423, 38.7861 ], [ -77.22352, 38.78557 ], [ -77.22412, 38.78773 ], [ -77.22322, 38.78804 ], [ -77.22222, 38.78596 ], [ -77.22048, 38.78622 ], [ -77.21817, 38.7855 ], [ -77.21726, 38.78406 ], [ -77.21642, 38.78433 ], [ -77.21599, 38.78409 ], [ -77.21605, 38.78351 ], [ -77.21522, 38.78332 ], [ -77.21511, 38.78194 ], [ -77.21334, 38.78144 ], [ -77.21299, 38.78077 ], [ -77.21329, 38.7802 ], [ -77.21112, 38.77986 ], [ -77.21129, 38.7791 ], [ -77.21229, 38.77908 ], [ -77.21309, 38.77802 ], [ -77.21078, 38.77889 ], [ -77.21011, 38.77855 ], [ -77.20956, 38.77753 ], [ -77.20978, 38.77688 ], [ -77.21098, 38.77643 ], [ -77.21161, 38.77556 ], [ -77.21346, 38.7759 ], [ -77.21493, 38.77575 ], [ -77.21894, 38.77728 ], [ -77.22087, 38.77916 ], [ -77.22557, 38.78008 ], [ -77.23215, 38.77883 ], [ -77.23138, 38.7769 ], [ -77.23038, 38.77674 ], [ -77.23005, 38.776 ], [ -77.22844, 38.77588 ], [ -77.22841, 38.77512 ], [ -77.23151, 38.77489 ], [ -77.23167, 38.77404 ], [ -77.23246, 38.77359 ], [ -77.23291, 38.7738 ], [ -77.23283, 38.7753 ], [ -77.23341, 38.77582 ], [ -77.23521, 38.77582 ], [ -77.23528, 38.77505 ] ], [ [ -77.22965, 38.78326 ], [ -77.22962, 38.78311 ], [ -77.22898, 38.78312 ], [ -77.22965, 38.78326 ] ], [ [ -77.22915, 38.78204 ], [ -77.2287, 38.78084 ], [ -77.22551, 38.78116 ], [ -77.22266, 38.78054 ], [ -77.22032, 38.78216 ], [ -77.22163, 38.78255 ], [ -77.22226, 38.7821 ], [ -77.22275, 38.78225 ], [ -77.22309, 38.78346 ], [ -77.22348, 38.78317 ], [ -77.22611, 38.78303 ], [ -77.22609, 38.78213 ], [ -77.22677, 38.78159 ], [ -77.22744, 38.78206 ], [ -77.22915, 38.78204 ] ], [ [ -77.23302, 38.77659 ], [ -77.23337, 38.77672 ], [ -77.23325, 38.77635 ], [ -77.23302, 38.77659 ] ], [ [ -77.23519, 38.78434 ], [ -77.23511, 38.78396 ], [ -77.23474, 38.78405 ], [ -77.23519, 38.78434 ] ], [ [ -77.23496, 38.78287 ], [ -77.23378, 38.78156 ], [ -77.23085, 38.78226 ], [ -77.23114, 38.78314 ], [ -77.23249, 38.78264 ], [ -77.23302, 38.78269 ], [ -77.23331, 38.7833 ], [ -77.23496, 38.78287 ] ], [ [ -77.23282, 38.77996 ], [ -77.23017, 38.78052 ], [ -77.2304, 38.78124 ], [ -77.23315, 38.78057 ], [ -77.23282, 38.77996 ] ], [ [ -77.23409, 38.7842 ], [ -77.23382, 38.78447 ], [ -77.23391, 38.78465 ], [ -77.23409, 38.7842 ] ], [ [ -77.22197, 38.78489 ], [ -77.22206, 38.78488 ], [ -77.22206, 38.78483 ], [ -77.22197, 38.78489 ] ], [ [ -77.22123, 38.78503 ], [ -77.22075, 38.78492 ], [ -77.22047, 38.78509 ], [ -77.22123, 38.78503 ] ], [ [ -77.21935, 38.78456 ], [ -77.21891, 38.78449 ], [ -77.21949, 38.78478 ], [ -77.21935, 38.78456 ] ], [ [ -77.21984, 38.78083 ], [ -77.21996, 38.78072 ], [ -77.21978, 38.78071 ], [ -77.21984, 38.78083 ] ], [ [ -77.22076, 38.78025 ], [ -77.22067, 38.78024 ], [ -77.22066, 38.78031 ], [ -77.22076, 38.78025 ] ], [ [ -77.21861, 38.7785 ], [ -77.21878, 38.77879 ], [ -77.21899, 38.77882 ], [ -77.21861, 38.7785 ] ], [ [ -77.21535, 38.77915 ], [ -77.21499, 38.77901 ], [ -77.21482, 38.77919 ], [ -77.21535, 38.77915 ] ], [ [ -77.21633, 38.77774 ], [ -77.21664, 38.77751 ], [ -77.21684, 38.77752 ], [ -77.2162, 38.77734 ], [ -77.21633, 38.77774 ] ], [ [ -77.21488, 38.77765 ], [ -77.21463, 38.77784 ], [ -77.21444, 38.77793 ], [ -77.21488, 38.77765 ] ], [ [ -77.2114, 38.7775 ], [ -77.21105, 38.77759 ], [ -77.2111, 38.77767 ], [ -77.2114, 38.7775 ] ], [ [ -77.2173, 38.78113 ], [ -77.21723, 38.78133 ], [ -77.21744, 38.78139 ], [ -77.2173, 38.78113 ] ], [ [ -77.21593, 38.78095 ], [ -77.21577, 38.78099 ], [ -77.21589, 38.78104 ], [ -77.21593, 38.78095 ] ], [ [ -77.21711, 38.78238 ], [ -77.21699, 38.78238 ], [ -77.21703, 38.78244 ], [ -77.21711, 38.78238 ] ] ] } },
{ "type": "Feature", "properties": { "variant": "T2s", "miles": 1.5 }, "geometry": { "type": "Polygon", "coordinates": [ [ [ -77.24167, 38.77291 ], [ -77.24383, 38.77578 ], [ -77.24471, 38.77578 ], [ -77.24493, 38.77616 ], [ -77.24325, 38.77778 ], [ -77.24137, 38.77843 ], [ -77.242, 38.77884 ], [ -77.24201, 38.77958 ], [ -77.24036, 38.78048 ], [ -77.24152, 38.78118 ], [ -77.24288, 38.78019 ], [ -77.24358, 38.78072 ], [ -77.239, 38.78524 ], [ -77.24035, 38.78759 ], [ -77.24153, 38.78647 ], [ -77.24251, 38.78641 ], [ -77.24259, 38.78717 ], [ -77.24115, 38.78853 ], [ -77.24254, 38.79002 ], [ -77.24004, 38.79201 ], [ -77.23921, 38.79226 ], [ -77.2386, 38.79154 ], [ -77.23926, 38.79096 ], [ -77.23802, 38.79005 ], [ -77.2381, 38.79092 ], [ -77.23767, 38.79119 ], [ -77.23734, 38.79268 ], [ -77.23602, 38.79322 ], [ -77.23506, 38.79299 ], [ -77.23454, 38.79349 ], [ -77.23183, 38.79239 ], [ -77.23145, 38.79277 ], [ -77.23023, 38.79253 ], [ -77.22975, 38.79182 ], [ -77.22929, 38.79229 ], [ -77.22846, 38.79192 ], [ -77.22775, 38.79229 ], [ -77.22681, 38.79156 ], [ -77.2241, 38.79152 ], [ -77.22387, 38.79052 ], [ -77.22197, 38.79063 ], [ -77.22107, 38.79112 ], [ -77.22038, 38.79058 ], [ -77.22072, 38.7901 ], [ -77.21861, 38.78976 ], [ -77.21683, 38.78888 ], [ -77.21581, 38.78785 ], [ -77.21612, 38.78713 ], [ -77.21665, 38.7871 ], [ -77.21757, 38.78796 ], [ -77.21851, 38.78703 ], [ -77.21948, 38.78696 ], [ -77.21973, 38.78732 ], [ -77.21919, 38.78809 ], [ -77.22, 38.78815 ], [ -77.22015, 38.78888 ], [ -77.21993, 38.78709 ], [ -77.22087, 38.78688 ], [ -77.22126, 38.78741 ], [ -77.2226, 38.78715 ], [ -77.22222, 38.78596 ], [ -77.22014, 38.78615 ], [ -77.21804, 38.78542 ], [ -77.21726, 38.78406 ], [ -77.21642, 38.78433 ], [ -77.21599, 38.78409 ], [ -77.21605, 38.78351 ], [ -77.21522, 38.78332 ], [ -77.21511, 38.78194 ], [ -77.21382, 38.78175 ], [ -77.21313, 38.78117 ], [ -77.21329, 38.7802 ], [ -77.21112, 38.77986 ], [ -77.21129, 38.7791 ], [ -77.21229, 38.77908 ], [ -77.21309, 38.77802 ], [ -77.21107, 38.77889 ], [ -77.21002, 38.77844 ], [ -77.2096, 38.77713 ], [ -77.21096, 38.77644 ], [ -77.21036, 38.77637 ], [ -77.20961, 38.77686 ], [ -77.20798, 38.77644 ], [ -77.20661, 38.77667 ], [ -77.20589, 38.77614 ], [ -77.20585, 38.77514 ], [ -77.20353, 38.7759 ], [ -77.20258, 38.7757 ], [ -77.20284, 38.77496 ], [ -77.20637, 38.77393 ], [ -77.20719, 38.77433 ], [ -77.20721, 38.7755 ], [ -77.20852, 38.77532 ], [ -77.20907, 38.77577 ], [ -77.20947, 38.77453 ], [ -77.21188, 38.77456 ], [ -77.21745, 38.77654 ], [ -77.21993, 38.77802 ], [ -77.21904, 38.77696 ], [ -77.21922, 38.77657 ], [ -77.22178, 38.77643 ], [ -77.22271, 38.77707 ], [ -77.22362, 38.77867 ], [ -77.22656, 38.77995 ], [ -77.23215, 38.77883 ], [ -77.23138, 38.7769 ], [ -77.23052, 38.77683 ], [ -77.22982, 38.77721 ], [ -77.22835, 38.77587 ], [ -77.22844, 38.7751 ], [ -77.2308, 38.77489 ], [ -77.23131, 38.77132 ], [ -77.22759, 38.76921 ], [ -77.22788, 38.76848 ], [ -77.22924, 38.7687 ], [ -77.23115, 38.76964 ], [ -77.23185, 38.76882 ], [ -77.2313, 38.76783 ], [ -77.23208, 38.76736 ], [ -77.23317, 38.76839 ], [ -77.23289, 38.76978 ], [ -77.23435, 38.76821 ], [ -77.23486, 38.76833 ], [ -77.23504, 38.76886 ], [ -77.23662, 38.76854 ], [ -77.23795, 38.77135 ], [ -77.23877, 38.77055 ], [ -77.23928, 38.77066 ], [ -77.23937, 38.77153 ], [ -77.24167, 38.77291 ] ], [ [ -77.23417, 38.78676 ], [ -77.23327, 38.78629 ], [ -77.23252, 38.78652 ], [ -77.23417, 38.78676 ] ], [ [ -77.23496, 38.78287 ], [ -77.23378, 38.78156 ], [ -77.23085, 38.78226 ], [ -77.23114, 38.78314 ], [ -77.23249, 38.78264 ], [ -77.23302, 38.78269 ], [ -77.23337, 38.78327 ], [ -77.23496, 38.78287 ] ], [ [ -77.23017, 38.78052 ], [ -77.2304, 38.78124 ], [ -77.23315, 38.78057 ], [ -77.23282, 38.77996 ], [ -77.23017, 38.78052 ] ], [ [ -77.23337, 38.77672 ], [ -77.23325, 38.77635 ], [ -77.2328, 38.77676 ], [ -77.23337, 38.77672 ] ], [ [ -77.23293, 38.77477 ], [ -77.2329, 38.77494 ], [ -77.23304, 38.77479 ], [ -77.23293, 38.77477 ] ], [ [ -77.23368, 38.77408 ], [ -77.23367, 38.77408 ], [ -77.2337, 38.77412 ], [ -77.23368, 38.77408 ] ], [ [ -77.23846, 38.78872 ], [ -77.23905, 38.78933 ], [ -77.23874, 38.78898 ], [ -77.23846, 38.78872 ] ], [ [ -77.23634, 38.78531 ], [ -77.23648, 38.78541 ], [ -77.23634, 38.78524 ], [ -77.23634, 38.78531 ] ], [ [ -77.23825, 38.78425 ], [ -77.23934, 38.78323 ], [ -77.23766, 38.78179 ], [ -77.23647, 38.7824 ], [ -77.23721, 38.78314 ], [ -77.23791, 38.78324 ], [ -77.23825, 38.78425 ] ], [ [ -77.23668, 38.77928 ], [ -77.23433, 38.77964 ], [ -77.23561, 38.78154 ], [ -77.23671, 38.78098 ], [ -77.23627, 38.78013 ], [ -77.23668, 38.77928 ] ], [ [ -77.2362, 38.77685 ], [ -77.2359, 38.77711 ], [ -77.23679, 38.77701 ], [ -77.2362, 38.77685 ] ], [ [ -77.23811, 38.77504 ], [ -77.23897, 38.77497 ], [ -77.23897, 38.77455 ], [ -77.23759, 38.7742 ], [ -77.23761, 38.77459 ], [ -77.23651, 38.77538 ], [ -77.23659, 38.77572 ], [ -77.23811, 38.77504 ] ], [ [ -77.23727, 38.77233 ], [ -77.23726, 38.77228 ], [ -77.23707, 38.77237 ], [ -77.23727, 38.77233 ] ], [ [ -77.23975, 38.7808 ], [ -77.23979, 38.781 ], [ -77.2399, 38.78098 ], [ -77.24015, 38.7806 ], [ -77.23975, 38.7808 ] ], [ [ -77.23775, 38.78024 ], [ -77.23789, 38.78041 ], [ -77.23852, 38.7801 ], [ -77.23775, 38.78024 ] ], [ [ -77.23996, 38.77873 ], [ -77.23974, 38.7787 ], [ -77.23981, 38.77892 ], [ -77.23996, 38.77873 ] ], [ [ -77.24047, 38.77575 ], [ -77.23968, 38.77632 ], [ -77.23898, 38.77591 ], [ -77.23864, 38.77622 ], [ -77.24045, 38.77654 ], [ -77.24047, 38.77575 ] ], [ [ -77.24177, 38.77701 ], [ -77.24267, 38.77657 ], [ -77.2426, 38.7764 ], [ -77.24177, 38.77701 ] ], [ [ -77.23996, 38.78225 ], [ -77.24021, 38.7824 ], [ -77.2403, 38.78232 ], [ -77.23996, 38.78225 ] ], [ [ -77.2354, 38.78611 ], [ -77.23486, 38.78615 ], [ -77.23455, 38.78663 ], [ -77.23549, 38.78646 ], [ -77.2354, 38.78611 ] ], [ [ -77.23511, 38.78396 ], [ -77.23474, 38.78405 ], [ -77.23526, 38.7845 ], [ -77.23511, 38.78396 ] ], [ [ -77.23658, 38.78812 ], [ -77.23679, 38.78827 ], [ -77.23668, 38.78806 ], [ -77.23658, 38.78812 ] ], [ [ -77.23481, 38.77476 ], [ -77.23469, 38.77489 ], [ -77.2348, 38.77487 ], [ -77.23481, 38.77476 ] ], [ [ -77.23603, 38.77342 ], [ -77.23555, 38.77313 ], [ -77.23527, 38.77407 ], [ -77.23603, 38.77342 ] ], [ [ -77.23527, 38.77101 ], [ -77.23519, 38.77089 ], [ -77.23455, 38.77111 ], [ -77.23527, 38.77101 ] ], [ [ -77.23383, 38.7845 ], [ -77.23391, 38.78465 ], [ -77.23409, 38.7842 ], [ -77.23383, 38.7845 ] ], [ [ -77.22944, 38.79066 ], [ -77.22945, 38.79064 ], [ -77.22943, 38.79064 ], [ -77.22944, 38.79066 ] ], [ [ -77.22967, 38.787 ], [ -77.22967, 38.78606 ], [ -77.22912, 38.78603 ], [ -77.22881, 38.78682 ], [ -77.2283, 38.78694 ], [ -77.22686, 38.78627 ], [ -77.2266, 38.78654 ], [ -77.22705, 38.78722 ], [ -77.22967, 38.787 ] ], [ [ -77.2287, 38.78084 ], [ -77.22551, 38.78116 ], [ -77.22266, 38.78054 ], [ -77.22032, 38.78216 ], [ -77.22163, 38.78255 ], [ -77.22226, 38.7821 ], [ -77.22275, 38.78225 ], [ -77.22309, 38.78346 ], [ -77.22348, 38.78317 ], [ -77.22611, 38.78303 ], [ -77.22609, 38.78213 ], [ -77.22677, 38.78159 ], [ -77.22744, 38.78206 ], [ -77.22915, 38.78204 ], [ -77.2287, 38.78084 ] ], [ [ -77.23117, 38.78711 ], [ -77.23121, 38.78711 ], [ -77.23117, 38.78709 ], [ -77.23117, 38.78711 ] ], [ [ -77.22998, 38.776 ], [ -77.23006, 38.77606 ], [ -77.23005, 38.776 ], [ -77.22998, 38.776 ] ], [ [ -77.22898, 38.78312 ], [ -77.22965, 38.78326 ], [ -77.22948, 38.78311 ], [ -77.22898, 38.78312 ] ], [ [ -77.22206, 38.78488 ], [ -77.22206, 38.78483 ], [ -77.22197, 38.78489 ], [ -77.22206, 38.78488 ] ], [ [ -77.22047, 38.78509 ], [ -77.22123, 38.78503 ], [ -77.22089, 38.78474 ], [ -77.22047, 38.78509 ] ], [ [ -77.22573, 38.78692 ], [ -77.22599, 38.78665 ], [ -77.22556, 38.78591 ], [ -77.22423, 38.7861 ], [ -77.22352, 38.78557 ], [ -77.22394, 38.78689 ], [ -77.22573, 38.78692 ] ], [ [ -77.22381, 38.78942 ], [ -77.22392, 38.7894 ], [ -77.22374, 38.78893 ], [ -77.22381, 38.78942 ] ], [ [ -77.22225, 38.78957 ], [ -77.22245, 38.7896 ], [ -77.22237, 38.78933 ], [ -77.22225, 38.78957 ] ], [ [ -77.22466, 38.78794 ], [ -77.22471, 38.78787 ], [ -77.22466, 38.78787 ], [ -77.22466, 38.78794 ] ], [ [ -77.22213, 38.78835 ], [ -77.22179, 38.78841 ], [ -77.22209, 38.78848 ], [ -77.22213, 38.78835 ] ], [ [ -77.22076, 38.78025 ], [ -77.22067, 38.78024 ], [ -77.22066, 38.78031 ], [ -77.22076, 38.78025 ] ], [ [ -77.21499, 38.77901 ], [ -77.21482, 38.77919 ], [ -77.21535, 38.77915 ], [ -77.21499, 38.77901 ] ], [ [ -77.21493, 38.77782 ], [ -77.21488, 38.77765 ], [ -77.21471, 38.77779 ], [ -77.21493, 38.77782 ] ], [ [ -77.21899, 38.77882 ], [ -77.21861, 38.7785 ], [ -77.21869, 38.77863 ], [ -77.21899, 38.77882 ] ], [ [ -77.21664, 38.77751 ], [ -77.21684, 38.77752 ], [ -77.2162, 38.77734 ], [ -77.21633, 38.77774 ], [ -77.21664, 38.77751 ] ], [ [ -77.21105, 38.77759 ], [ -77.2111, 38.77767 ], [ -77.2114, 38.7775 ], [ -77.21105, 38.77759 ] ], [ [ -77.21699, 38.78238 ], [ -77.21703, 38.78244 ], [ -77.21711, 38.78238 ], [ -77.21699, 38.78238 ] ], [ [ -77.21589, 38.78104 ], [ -77.21593, 38.78095 ], [ -77.21565, 38.78087 ], [ -77.21589, 38.78104 ] ], [ [ -77.21984, 38.78083 ], [ -77.21996, 38.78072 ], [ -77.21978, 38.78071 ], [ -77.21984, 38.78083 ] ], [ [ -77.21723, 38.78133 ], [ -77.21744, 38.78139 ], [ -77.2173, 38.78113 ], [ -77.21723, 38.78133 ] ], [ [ -77.21955, 38.78446 ], [ -77.21891, 38.78449 ], [ -77.21899, 38.78462 ], [ -77.21949, 38.78478 ], [ -77.21955, 38.78446 ] ] ] } },
{ "type": "Feature", "properties": { "variant": "T2s", "miles": 2.0 }, "geometry": { "type": "Polygon", "coordinates": [ [ [ -77.24341, 38.77237 ], [ -77.24103, 38.77234 ], [ -77.24383, 38.77578 ], [ -77.24471, 38.77578 ], [ -77.24493, 38.77616 ], [ -77.24325, 38.77778 ], [ -77.24137, 38.77847 ], [ -77.24187, 38.77871 ], [ -77.24307, 38.77818 ], [ -77.24344, 38.77848 ], [ -77.24312, 38.77966 ], [ -77.24386, 38.77902 ], [ -77.24484, 38.779 ], [ -77.24487, 38.77977 ], [ -77.24379, 38.78071 ], [ -77.24462, 38.78189 ], [ -77.245, 38.78148 ], [ -77.24584, 38.78157 ], [ -77.24565, 38.78077 ], [ -77.24603, 38.78049 ], [ -77.24656, 38.78051 ], [ -77.24719, 38.78115 ], [ -77.24819, 38.78016 ], [ -77.24871, 38.78012 ], [ -77.24917, 38.78079 ], [ -77.24763, 38.78246 ], [ -77.24798, 38.78339 ], [ -77.24721, 38.78415 ], [ -77.24722, 38.78494 ], [ -77.24625, 38.78493 ], [ -77.24556, 38.78437 ], [ -77.24505, 38.78484 ], [ -77.24569, 38.78532 ], [ -77.24562, 38.78608 ], [ -77.24344, 38.78692 ], [ -77.24312, 38.78738 ], [ -77.24418, 38.78734 ], [ -77.24492, 38.78672 ], [ -77.24558, 38.78682 ], [ -77.24587, 38.78634 ], [ -77.24697, 38.78644 ], [ -77.24689, 38.78554 ], [ -77.24946, 38.78509 ], [ -77.25017, 38.78528 ], [ -77.24995, 38.78622 ], [ -77.25062, 38.78691 ], [ -77.24992, 38.78744 ], [ -77.24904, 38.78703 ], [ -77.24742, 38.78846 ], [ -77.24849, 38.78948 ], [ -77.24836, 38.79024 ], [ -77.24739, 38.79013 ], [ -77.24631, 38.78911 ], [ -77.24566, 38.78934 ], [ -77.24594, 38.79042 ], [ -77.24478, 38.79073 ], [ -77.24565, 38.79131 ], [ -77.24611, 38.7921 ], [ -77.24584, 38.79267 ], [ -77.24664, 38.7935 ], [ -77.24772, 38.79258 ], [ -77.2485, 38.79304 ], [ -77.2475, 38.79442 ], [ -77.24903, 38.79538 ], [ -77.2491, 38.79579 ], [ -77.24824, 38.79668 ], [ -77.24721, 38.7964 ], [ -77.2439, 38.79271 ], [ -77.2429, 38.79271 ], [ -77.24113, 38.79122 ], [ -77.23991, 38.79208 ], [ -77.24072, 38.79334 ], [ -77.24058, 38.79421 ], [ -77.23884, 38.79464 ], [ -77.23777, 38.79434 ], [ -77.23666, 38.79491 ], [ -77.23457, 38.79458 ], [ -77.2337, 38.79479 ], [ -77.23338, 38.79411 ], [ -77.23245, 38.79401 ], [ -77.23231, 38.79361 ], [ -77.23301, 38.79271 ], [ -77.23232, 38.79283 ], [ -77.23183, 38.79239 ], [ -77.23092, 38.79276 ], [ -77.22986, 38.79224 ], [ -77.22975, 38.79182 ], [ -77.22929, 38.79229 ], [ -77.22846, 38.79192 ], [ -77.22775, 38.79229 ], [ -77.22681, 38.79156 ], [ -77.2241, 38.79152 ], [ -77.22387, 38.79052 ], [ -77.22197, 38.79063 ], [ -77.22107, 38.79112 ], [ -77.22038, 38.79058 ], [ -77.22072, 38.7901 ], [ -77.21792, 38.78947 ], [ -77.21472, 38.78701 ], [ -77.21129, 38.78606 ], [ -77.20985, 38.7862 ], [ -77.20942, 38.78551 ], [ -77.21055, 38.78511 ], [ -77.21026, 38.78357 ], [ -77.21083, 38.78288 ], [ -77.21136, 38.78287 ], [ -77.21174, 38.78316 ], [ -77.21178, 38.78456 ], [ -77.21277, 38.78409 ], [ -77.21325, 38.78427 ], [ -77.21344, 38.78465 ], [ -77.21269, 38.78539 ], [ -77.21418, 38.78565 ], [ -77.21462, 38.78478 ], [ -77.21539, 38.78451 ], [ -77.21595, 38.78514 ], [ -77.21546, 38.78609 ], [ -77.21636, 38.78542 ], [ -77.21688, 38.78545 ], [ -77.21709, 38.78631 ], [ -77.21806, 38.78664 ], [ -77.21757, 38.78796 ], [ -77.21851, 38.78703 ], [ -77.21948, 38.78696 ], [ -77.21973, 38.78732 ], [ -77.21919, 38.78809 ], [ -77.22, 38.78815 ], [ -77.22015, 38.78888 ], [ -77.21993, 38.78709 ], [ -77.22087, 38.78688 ], [ -77.22126, 38.78741 ], [ -77.2226, 38.78715 ], [ -77.22222, 38.78596 ], [ -77.22048, 38.78622 ], [ -77.21809, 38.78545 ], [ -77.21726, 38.78406 ], [ -77.21642, 38.78433 ], [ -77.21599, 38.78409 ], [ -77.21605, 38.78351 ], [ -77.21522, 38.78332 ], [ -77.21511, 38.78194 ], [ -77.21334, 38.78144 ], [ -77.21299, 38.78077 ], [ -77.21329, 38.7802 ], [ -77.21112, 38.77986 ], [ -77.21129, 38.7791 ], [ -77.21229, 38.77908 ], [ -77.21309, 38.77802 ], [ -77.21125, 38.77886 ], [ -77.21025, 38.77867 ], [ -77.20957, 38.77723 ], [ -77.21096, 38.77644 ], [ -77.209, 38.77689 ], [ -77.20785, 38.77648 ], [ -77.20669, 38.77668 ], [ -77.20592, 38.7762 ], [ -77.20585, 38.77514 ], [ -77.20407, 38.77566 ], [ -77.20498, 38.77738 ], [ -77.20417, 38.7793 ], [ -77.20509, 38.77961 ], [ -77.20513, 38.78003 ], [ -77.2044, 38.78042 ], [ -77.20212, 38.77965 ], [ -77.20177, 38.77923 ], [ -77.20256, 38.77783 ], [ -77.20352, 38.77747 ], [ -77.20334, 38.77727 ], [ -77.20259, 38.77761 ], [ -77.2016, 38.77674 ], [ -77.19969, 38.77752 ], [ -77.20047, 38.77803 ], [ -77.19998, 38.7787 ], [ -77.19697, 38.77796 ], [ -77.19493, 38.77826 ], [ -77.1941, 38.77785 ], [ -77.19504, 38.77649 ], [ -77.19771, 38.77535 ], [ -77.20043, 38.77546 ], [ -77.20233, 38.77441 ], [ -77.20284, 38.77347 ], [ -77.20536, 38.77321 ], [ -77.20647, 38.77171 ], [ -77.20719, 38.77145 ], [ -77.20779, 38.77206 ], [ -77.20671, 38.77347 ], [ -77.20711, 38.77424 ], [ -77.20753, 38.77412 ], [ -77.20816, 38.77462 ], [ -77.20875, 38.77441 ], [ -77.20934, 38.77476 ], [ -77.20868, 38.77333 ], [ -77.20888, 38.77294 ], [ -77.20987, 38.77279 ], [ -77.21036, 38.77295 ], [ -77.21056, 38.77366 ], [ -77.21289, 38.77409 ], [ -77.21381, 38.77373 ], [ -77.21577, 38.77441 ], [ -77.21907, 38.77465 ], [ -77.21956, 38.77537 ], [ -77.22054, 38.77552 ], [ -77.22253, 38.77688 ], [ -77.22362, 38.77867 ], [ -77.22654, 38.77995 ], [ -77.23215, 38.77883 ], [ -77.23138, 38.7769 ], [ -77.23052, 38.77683 ], [ -77.22982, 38.77721 ], [ -77.22878, 38.77657 ], [ -77.22822, 38.77556 ], [ -77.22889, 38.77495 ], [ -77.2308, 38.77489 ], [ -77.23096, 38.77376 ], [ -77.22782, 38.77295 ], [ -77.22816, 38.77222 ], [ -77.22757, 38.77169 ], [ -77.2277, 38.77129 ], [ -77.22867, 38.77117 ], [ -77.22982, 38.77184 ], [ -77.23054, 38.77147 ], [ -77.22726, 38.76994 ], [ -77.22507, 38.77021 ], [ -77.22479, 38.77108 ], [ -77.22381, 38.77102 ], [ -77.22357, 38.76885 ], [ -77.224, 38.76813 ], [ -77.22493, 38.76835 ], [ -77.22497, 38.76913 ], [ -77.22623, 38.76897 ], [ -77.22282, 38.76687 ], [ -77.22126, 38.76539 ], [ -77.22156, 38.76468 ], [ -77.22256, 38.76438 ], [ -77.22299, 38.76462 ], [ -77.2228, 38.76534 ], [ -77.22322, 38.76566 ], [ -77.22487, 38.7638 ], [ -77.22562, 38.76392 ], [ -77.22724, 38.76272 ], [ -77.22866, 38.76378 ], [ -77.2295, 38.76343 ], [ -77.22991, 38.76368 ], [ -77.22978, 38.76448 ], [ -77.23029, 38.76304 ], [ -77.23077, 38.76288 ], [ -77.23147, 38.76342 ], [ -77.23138, 38.76468 ], [ -77.23246, 38.76427 ], [ -77.23289, 38.7645 ], [ -77.23299, 38.76491 ], [ -77.23188, 38.76582 ], [ -77.23143, 38.76685 ], [ -77.23173, 38.76701 ], [ -77.23253, 38.76655 ], [ -77.23398, 38.76677 ], [ -77.23375, 38.76802 ], [ -77.23312, 38.76828 ], [ -77.23289, 38.76978 ], [ -77.23388, 38.76841 ], [ -77.23477, 38.76831 ], [ -77.23448, 38.76766 ], [ -77.23478, 38.76732 ], [ -77.2353, 38.76725 ], [ -77.23602, 38.76783 ], [ -77.23661, 38.76745 ], [ -77.23629, 38.76615 ], [ -77.23691, 38.76556 ], [ -77.23862, 38.76569 ], [ -77.24071, 38.76669 ], [ -77.24113, 38.76725 ], [ -77.24097, 38.76824 ], [ -77.24054, 38.76896 ], [ -77.23951, 38.76951 ], [ -77.23972, 38.7698 ], [ -77.24125, 38.77043 ], [ -77.24188, 38.77128 ], [ -77.24341, 38.77113 ], [ -77.24502, 38.77165 ], [ -77.24635, 38.77116 ], [ -77.24726, 38.77144 ], [ -77.24727, 38.77186 ], [ -77.24571, 38.77271 ], [ -77.24602, 38.77405 ], [ -77.24548, 38.77469 ], [ -77.24496, 38.77461 ], [ -77.2443, 38.773 ], [ -77.24341, 38.77237 ] ], [ [ -77.23252, 38.78652 ], [ -77.23417, 38.78676 ], [ -77.23327, 38.78629 ], [ -77.23252, 38.78652 ] ], [ [ -77.23458, 38.78663 ], [ -77.23549, 38.78646 ], [ -77.23576, 38.78643 ], [ -77.23486, 38.78615 ], [ -77.23458, 38.78663 ] ], [ [ -77.23391, 38.78434 ], [ -77.23409, 38.7842 ], [ -77.23391, 38.78465 ], [ -77.23391, 38.78434 ] ], [ [ -77.23337, 38.78327 ], [ -77.23496, 38.78287 ], [ -77.23378, 38.78156 ], [ -77.23085, 38.78226 ], [ -77.23114, 38.78314 ], [ -77.23249, 38.78264 ], [ -77.23302, 38.78269 ], [ -77.23337, 38.78327 ] ], [ [ -77.23433, 38.77964 ], [ -77.23561, 38.78154 ], [ -77.23671, 38.78098 ], [ -77.23627, 38.78013 ], [ -77.23668, 38.77928 ], [ -77.23433, 38.77964 ] ], [ [ -77.23325, 38.77635 ], [ -77.2328, 38.77676 ], [ -77.23284, 38.77683 ], [ -77.23337, 38.77672 ], [ -77.23325, 38.77635 ] ], [ [ -77.23481, 38.77476 ], [ -77.2348, 38.77487 ], [ -77.23491, 38.77487 ], [ -77.23481, 38.77476 ] ], [ [ -77.23527, 38.77407 ], [ -77.23603, 38.77342 ], [ -77.23555, 38.77313 ], [ -77.23527, 38.77407 ] ], [ [ -77.23874, 38.78898 ], [ -77.23846, 38.78872 ], [ -77.23905, 38.78933 ], [ -77.23874, 38.78898 ] ], [ [ -77.24035, 38.78759 ], [ -77.24268, 38.7854 ], [ -77.24222, 38.78474 ], [ -77.24247, 38.78437 ], [ -77.24378, 38.78436 ], [ -77.24204, 38.78238 ], [ -77.239, 38.78524 ], [ -77.24035, 38.78759 ] ], [ [ -77.23926, 38.78318 ], [ -77.23766, 38.78179 ], [ -77.23647, 38.7824 ], [ -77.23721, 38.78314 ], [ -77.23791, 38.78324 ], [ -77.23825, 38.78425 ], [ -77.23926, 38.78318 ] ], [ [ -77.23979, 38.781 ], [ -77.24015, 38.7806 ], [ -77.23975, 38.7808 ], [ -77.23979, 38.781 ] ], [ [ -77.23981, 38.77892 ], [ -77.23996, 38.77873 ], [ -77.23974, 38.7787 ], [ -77.23981, 38.77892 ] ], [ [ -77.23864, 38.77622 ], [ -77.24049, 38.77659 ], [ -77.24047, 38.77575 ], [ -77.23968, 38.77632 ], [ -77.23898, 38.77591 ], [ -77.23864, 38.77622 ] ], [ [ -77.23896, 38.7749 ], [ -77.23897, 38.77455 ], [ -77.23759, 38.7742 ], [ -77.23761, 38.77459 ], [ -77.23661, 38.7751 ], [ -77.23659, 38.77572 ], [ -77.23896, 38.7749 ] ], [ [ -77.23795, 38.77135 ], [ -77.23802, 38.77117 ], [ -77.23794, 38.77113 ], [ -77.23795, 38.77135 ] ], [ [ -77.2381, 38.76892 ], [ -77.2386, 38.76819 ], [ -77.23837, 38.76777 ], [ -77.2378, 38.76849 ], [ -77.2381, 38.76892 ] ], [ [ -77.23947, 38.76943 ], [ -77.23949, 38.76942 ], [ -77.2395, 38.76938 ], [ -77.23947, 38.76943 ] ], [ [ -77.24177, 38.77701 ], [ -77.24267, 38.77657 ], [ -77.2426, 38.7764 ], [ -77.24177, 38.77701 ] ], [ [ -77.24317, 38.782 ], [ -77.24291, 38.78155 ], [ -77.24256, 38.7819 ], [ -77.24317, 38.782 ] ], [ [ -77.24164, 38.77993 ], [ -77.24174, 38.78 ], [ -77.24174, 38.77988 ], [ -77.24164, 38.77993 ] ], [ [ -77.24607, 38.78189 ], [ -77.24626, 38.78206 ], [ -77.24598, 38.7817 ], [ -77.24607, 38.78189 ] ], [ [ -77.24651, 38.78358 ], [ -77.2465, 38.78349 ], [ -77.24646, 38.78354 ], [ -77.24651, 38.78358 ] ], [ [ -77.24306, 38.78857 ], [ -77.24379, 38.78844 ], [ -77.24353, 38.78823 ], [ -77.24306, 38.78857 ] ], [ [ -77.24329, 38.79033 ], [ -77.24343, 38.79051 ], [ -77.24356, 38.79022 ], [ -77.24329, 38.79033 ] ], [ [ -77.2403, 38.78232 ], [ -77.23996, 38.78225 ], [ -77.24021, 38.7824 ], [ -77.2403, 38.78232 ] ], [ [ -77.24184, 38.78806 ], [ -77.24204, 38.78781 ], [ -77.24239, 38.78754 ], [ -77.24213, 38.78759 ], [ -77.24184, 38.78806 ] ], [ [ -77.23717, 38.77235 ], [ -77.23726, 38.77228 ], [ -77.23707, 38.77237 ], [ -77.23717, 38.77235 ] ], [ [ -77.2359, 38.77711 ], [ -77.23689, 38.77677 ], [ -77.2362, 38.77685 ], [ -77.2359, 38.77711 ] ], [ [ -77.23789, 38.78041 ], [ -77.2384, 38.77992 ], [ -77.23775, 38.78024 ], [ -77.23789, 38.78041 ] ], [ [ -77.23665, 38.78818 ], [ -77.23668, 38.78806 ], [ -77.23658, 38.78812 ], [ -77.23665, 38.78818 ] ], [ [ -77.23648, 38.78541 ], [ -77.23634, 38.78524 ], [ -77.23631, 38.78529 ], [ -77.23648, 38.78541 ] ], [ [ -77.23526, 38.7845 ], [ -77.23511, 38.78396 ], [ -77.23474, 38.78405 ], [ -77.23526, 38.7845 ] ], [ [ -77.23451, 38.77129 ], [ -77.23519, 38.77089 ], [ -77.23455, 38.77111 ], [ -77.23451, 38.77129 ] ], [ [ -77.2353, 38.76877 ], [ -77.23505, 38.76861 ], [ -77.23504, 38.76886 ], [ -77.2353, 38.76877 ] ], [ [ -77.22943, 38.79064 ], [ -77.22944, 38.79066 ], [ -77.22945, 38.79064 ], [ -77.22943, 38.79064 ] ], [ [ -77.22967, 38.787 ], [ -77.22967, 38.78606 ], [ -77.22912, 38.78603 ], [ -77.22881, 38.78682 ], [ -77.2283, 38.78694 ], [ -77.22773, 38.78645 ], [ -77.22686, 38.78627 ], [ -77.2266, 38.78654 ], [ -77.22705, 38.78722 ], [ -77.22784, 38.78733 ], [ -77.22967, 38.787 ] ], [ [ -77.22609, 38.78213 ], [ -77.22677, 38.78159 ], [ -77.22744, 38.78206 ], [ -77.22915, 38.78204 ], [ -77.2287, 38.78084 ], [ -77.22551, 38.78116 ], [ -77.22266, 38.78054 ], [ -77.22032, 38.78216 ], [ -77.22163, 38.78255 ], [ -77.22226, 38.7821 ], [ -77.22275, 38.78225 ], [ -77.22309, 38.78346 ], [ -77.22348, 38.78317 ], [ -77.22611, 38.78303 ], [ -77.22609, 38.78213 ] ], [ [ -77.23117, 38.78711 ], [ -77.23121, 38.78711 ], [ -77.23117, 38.78702 ], [ -77.23117, 38.78711 ] ], [ [ -77.2304, 38.78124 ], [ -77.23315, 38.78057 ], [ -77.23282, 38.77996 ], [ -77.23017, 38.78052 ], [ -77.2304, 38.78124 ] ], [ [ -77.23115, 38.76964 ], [ -77.23181, 38.76862 ], [ -77.23024, 38.76741 ], [ -77.22931, 38.76872 ], [ -77.23115, 38.76964 ] ], [ [ -77.23293, 38.77477 ], [ -77.2329, 38.77494 ], [ -77.23304, 38.77479 ], [ -77.23293, 38.77477 ] ], [ [ -77.2337, 38.77412 ], [ -77.23368, 38.77408 ], [ -77.23367, 38.77408 ], [ -77.2337, 38.77412 ] ], [ [ -77.23006, 38.77605 ], [ -77.22997, 38.776 ], [ -77.23006, 38.77606 ], [ -77.23006, 38.77605 ] ], [ [ -77.22948, 38.78311 ], [ -77.22898, 38.78312 ], [ -77.22965, 38.78326 ], [ -77.22948, 38.78311 ] ], [ [ -77.231, 38.79086 ], [ -77.23105, 38.79084 ], [ -77.231, 38.79083 ], [ -77.231, 38.79086 ] ], [ [ -77.2264, 38.7658 ], [ -77.22672, 38.76574 ], [ -77.22639, 38.76566 ], [ -77.2264, 38.7658 ] ], [ [ -77.22505, 38.76635 ], [ -77.22506, 38.76635 ], [ -77.22506, 38.76633 ], [ -77.22505, 38.76635 ] ], [ [ -77.22485, 38.76545 ], [ -77.225, 38.76554 ], [ -77.225, 38.76539 ], [ -77.22485, 38.76545 ] ], [ [ -77.22652, 38.76477 ], [ -77.22628, 38.76487 ], [ -77.2263, 38.76491 ], [ -77.22652, 38.76477 ] ], [ [ -77.22466, 38.78787 ], [ -77.22466, 38.78794 ], [ -77.22471, 38.78787 ], [ -77.22466, 38.78787 ] ], [ [ -77.22394, 38.78689 ], [ -77.22573, 38.78692 ], [ -77.22599, 38.78665 ], [ -77.22556, 38.78591 ], [ -77.22423, 38.7861 ], [ -77.22352, 38.78557 ], [ -77.22394, 38.78689 ] ], [ [ -77.21891, 38.78449 ], [ -77.21949, 38.78478 ], [ -77.21955, 38.78446 ], [ -77.21891, 38.78449 ] ], [ [ -77.21535, 38.77915 ], [ -77.21499, 38.77901 ], [ -77.21482, 38.77919 ], [ -77.21535, 38.77915 ] ], [ [ -77.21452, 38.77796 ], [ -77.21488, 38.77765 ], [ -77.21444, 38.77793 ], [ -77.21452, 38.77796 ] ], [ [ -77.22066, 38.78031 ], [ -77.22076, 38.78025 ], [ -77.22067, 38.78024 ], [ -77.22066, 38.78031 ] ], [ [ -77.21996, 38.78072 ], [ -77.21978, 38.78071 ], [ -77.21984, 38.78083 ], [ -77.21996, 38.78072 ] ], [ [ -77.22163, 38.77776 ], [ -77.2216, 38.77772 ], [ -77.2216, 38.77777 ], [ -77.22163, 38.77776 ] ], [ [ -77.21869, 38.77863 ], [ -77.21899, 38.77882 ], [ -77.21861, 38.7785 ], [ -77.21869, 38.77863 ] ], [ [ -77.21633, 38.77774 ], [ -77.21684, 38.77752 ], [ -77.2162, 38.77734 ], [ -77.21633, 38.77774 ] ], [ [ -77.21854, 38.77566 ], [ -77.21847, 38.77562 ], [ -77.21846, 38.77562 ], [ -77.21854, 38.77566 ] ], [ [ -77.21699, 38.78238 ], [ -77.21703, 38.78244 ], [ -77.21711, 38.78238 ], [ -77.21699, 38.78238 ] ], [ [ -77.2173, 38.78113 ], [ -77.21723, 38.78133 ], [ -77.21744, 38.78139 ], [ -77.2173, 38.78113 ] ], [ [ -77.21571, 38.78093 ], [ -77.21593, 38.78095 ], [ -77.21565, 38.78087 ], [ -77.21571, 38.78093 ] ], [ [ -77.22237, 38.78933 ], [ -77.22225, 38.78957 ], [ -77.22245, 38.7896 ], [ -77.22237, 38.78933 ] ], [ [ -77.22197, 38.78489 ], [ -77.22206, 38.78488 ], [ -77.22206, 38.78483 ], [ -77.22197, 38.78489 ] ], [ [ -77.22122, 38.78503 ], [ -77.22089, 38.78474 ], [ -77.22047, 38.78509 ], [ -77.22066, 38.78514 ], [ -77.22122, 38.78503 ] ], [ [ -77.22375, 38.78921 ], [ -77.22392, 38.7894 ], [ -77.22363, 38.78873 ], [ -77.22375, 38.78921 ] ], [ [ -77.22209, 38.78848 ], [ -77.22213, 38.78835 ], [ -77.22179, 38.78841 ], [ -77.22209, 38.78848 ] ], [ [ -77.20312, 38.77658 ], [ -77.20285, 38.77618 ], [ -77.2028, 38.7762 ], [ -77.20312, 38.77658 ] ], [ [ -77.2114, 38.7775 ], [ -77.21105, 38.77759 ], [ -77.2111, 38.77767 ], [ -77.2114, 38.7775 ] ] ] } }
]
}
