{
"type": "FeatureCollection",
"name": "156",
"crs": { "type": "name", "properties": { "name": "urn:ogc:def:crs:OGC:1.3:CRS84" } },
"xy_coordinate_resolution": 1e-05,
"features": [
{ "type": "Feature", "properties": { "variant": "T0", "miles": 0.5 }, "geometry": { "type": "Polygon", "coordinates": [ [ [ -77.23144, 38.76687 ], [ -77.23353, 38.76655 ], [ -77.23409, 38.76718 ], [ -77.23375, 38.76802 ], [ -77.23312, 38.76828 ], [ -77.23282, 38.76975 ], [ -77.23344, 38.76941 ], [ -77.23388, 38.76841 ], [ -77.23477, 38.76831 ], [ -77.23448, 38.76766 ], [ -77.2353, 38.76725 ], [ -77.23676, 38.7684 ], [ -77.23794, 38.77143 ], [ -77.23741, 38.7722 ], [ -77.23555, 38.77313 ], [ -77.23503, 38.77419 ], [ -77.23367, 38.77408 ], [ -77.23321, 38.77481 ], [ -77.23222, 38.77464 ], [ -77.23212, 38.77545 ], [ -77.23137, 38.77594 ], [ -77.23074, 38.77535 ], [ -77.23096, 38.77376 ], [ -77.22782, 38.77295 ], [ -77.22814, 38.77222 ], [ -77.22924, 38.77222 ], [ -77.2306, 38.77157 ], [ -77.22923, 38.77048 ], [ -77.22941, 38.76999 ], [ -77.22602, 38.769 ], [ -77.22484, 38.76917 ], [ -77.22494, 38.76832 ], [ -77.22448, 38.76772 ], [ -77.22526, 38.76712 ], [ -77.22628, 38.76768 ], [ -77.2273, 38.76726 ], [ -77.2275, 38.76819 ], [ -77.23115, 38.76964 ], [ -77.23178, 38.76858 ], [ -77.23024, 38.76741 ], [ -77.22986, 38.76792 ], [ -77.22891, 38.76773 ], [ -77.22919, 38.76634 ], [ -77.22832, 38.76605 ], [ -77.22821, 38.76564 ], [ -77.2285, 38.7653 ], [ -77.22982, 38.76535 ], [ -77.23004, 38.76435 ], [ -77.2308, 38.76388 ], [ -77.23138, 38.76468 ], [ -77.23246, 38.76427 ], [ -77.23299, 38.76491 ], [ -77.23188, 38.76582 ], [ -77.23144, 38.76687 ] ], [ [ -77.23516, 38.76869 ], [ -77.23504, 38.76886 ], [ -77.2353, 38.76877 ], [ -77.23516, 38.76869 ] ], [ [ -77.23451, 38.77129 ], [ -77.23502, 38.77097 ], [ -77.23527, 38.77101 ], [ -77.23519, 38.77089 ], [ -77.23455, 38.77111 ], [ -77.23451, 38.77129 ] ] ] } },
{ "type": "Feature", "properties": { "variant": "T0", "miles": 1.0 }, "geometry": { "type": "Polygon", "coordinates": [ [ [ -77.23944, 38.76935 ], [ -77.24128, 38.77045 ], [ -77.2424, 38.77172 ], [ -77.24196, 38.7724 ], [ -77.24103, 38.77234 ], [ -77.24118, 38.773 ], [ -77.24072, 38.77352 ], [ -77.24147, 38.77463 ], [ -77.24267, 38.77478 ], [ -77.24286, 38.77517 ], [ -77.24228, 38.77566 ], [ -77.24265, 38.77636 ], [ -77.24134, 38.77665 ], [ -77.24083, 38.77653 ], [ -77.24047, 38.77575 ], [ -77.23968, 38.77632 ], [ -77.23898, 38.77591 ], [ -77.23821, 38.77648 ], [ -77.2362, 38.77685 ], [ -77.2359, 38.77711 ], [ -77.23666, 38.77692 ], [ -77.23705, 38.7772 ], [ -77.23711, 38.77796 ], [ -77.23785, 38.77855 ], [ -77.23738, 38.7792 ], [ -77.23433, 38.77964 ], [ -77.23615, 38.78229 ], [ -77.23541, 38.78279 ], [ -77.23346, 38.78114 ], [ -77.23282, 38.77996 ], [ -77.22937, 38.78069 ], [ -77.22853, 38.78033 ], [ -77.22896, 38.77951 ], [ -77.23215, 38.77883 ], [ -77.23138, 38.7769 ], [ -77.23052, 38.77683 ], [ -77.22982, 38.77721 ], [ -77.22878, 38.77657 ], [ -77.22822, 38.77556 ], [ -77.22889, 38.77495 ], [ -77.2308, 38.77489 ], [ -77.23096, 38.77376 ], [ -77.22822, 38.77322 ], [ -77.2278, 38.77271 ], [ -77.22638, 38.77309 ], [ -77.22454, 38.77241 ], [ -77.22346, 38.77249 ], [ -77.22318, 38.77299 ], [ -77.22208, 38.7726 ], [ -77.22151, 38.77322 ], [ -77.22099, 38.77312 ], [ -77.22061, 38.77201 ], [ -77.22117, 38.77071 ], [ -77.21981, 38.77088 ], [ -77.21938, 38.77183 ], [ -77.21843, 38.77167 ], [ -77.21841, 38.76962 ], [ -77.22101, 38.76961 ], [ -77.22034, 38.76889 ], [ -77.21912, 38.76861 ], [ -77.21931, 38.76747 ], [ -77.21806, 38.76712 ], [ -77.21774, 38.76646 ], [ -77.2185, 38.76598 ], [ -77.21901, 38.76632 ], [ -77.21988, 38.76633 ], [ -77.21919, 38.76594 ], [ -77.2195, 38.76541 ], [ -77.21866, 38.76541 ], [ -77.21823, 38.76473 ], [ -77.21897, 38.76431 ], [ -77.21965, 38.76309 ], [ -77.2205, 38.76347 ], [ -77.22037, 38.76457 ], [ -77.22085, 38.76484 ], [ -77.22061, 38.7637 ], [ -77.22037, 38.76306 ], [ -77.21959, 38.76232 ], [ -77.22056, 38.76134 ], [ -77.2215, 38.76152 ], [ -77.22181, 38.76257 ], [ -77.22261, 38.76295 ], [ -77.22304, 38.76233 ], [ -77.224, 38.76222 ], [ -77.22431, 38.76445 ], [ -77.22487, 38.7638 ], [ -77.22562, 38.76392 ], [ -77.22602, 38.76363 ], [ -77.22636, 38.7633 ], [ -77.22598, 38.76228 ], [ -77.22643, 38.76056 ], [ -77.22584, 38.7589 ], [ -77.22686, 38.75837 ], [ -77.22745, 38.75887 ], [ -77.22784, 38.76041 ], [ -77.22778, 38.76079 ], [ -77.22985, 38.76064 ], [ -77.23051, 38.76002 ], [ -77.23174, 38.76052 ], [ -77.23114, 38.76203 ], [ -77.23138, 38.76468 ], [ -77.23246, 38.76427 ], [ -77.23299, 38.76491 ], [ -77.23188, 38.76582 ], [ -77.23143, 38.76686 ], [ -77.23353, 38.76655 ], [ -77.23409, 38.76718 ], [ -77.23375, 38.76802 ], [ -77.23312, 38.76828 ], [ -77.23282, 38.76975 ], [ -77.23344, 38.76941 ], [ -77.23388, 38.76841 ], [ -77.23477, 38.76831 ], [ -77.23448, 38.76766 ], [ -77.2353, 38.76725 ], [ -77.23675, 38.76838 ], [ -77.23746, 38.76832 ], [ -77.23805, 38.76902 ], [ -77.23872, 38.7683 ], [ -77.23924, 38.76834 ], [ -77.23944, 38.76935 ] ], [ [ -77.2328, 38.77676 ], [ -77.23337, 38.77672 ], [ -77.23325, 38.77635 ], [ -77.2328, 38.77676 ] ], [ [ -77.23304, 38.77479 ], [ -77.23293, 38.77477 ], [ -77.2329, 38.77494 ], [ -77.23304, 38.77479 ] ], [ [ -77.23896, 38.7749 ], [ -77.23897, 38.77455 ], [ -77.23759, 38.7742 ], [ -77.23761, 38.77459 ], [ -77.23661, 38.7751 ], [ -77.23659, 38.77572 ], [ -77.23896, 38.7749 ] ], [ [ -77.23724, 38.77229 ], [ -77.23707, 38.77237 ], [ -77.23726, 38.77228 ], [ -77.23724, 38.77229 ] ], [ [ -77.23795, 38.77121 ], [ -77.23802, 38.77117 ], [ -77.23794, 38.77113 ], [ -77.23795, 38.77121 ] ], [ [ -77.23527, 38.77407 ], [ -77.23603, 38.77342 ], [ -77.23555, 38.77313 ], [ -77.23527, 38.77407 ] ], [ [ -77.23511, 38.76869 ], [ -77.2353, 38.76877 ], [ -77.23505, 38.76861 ], [ -77.23511, 38.76869 ] ], [ [ -77.23527, 38.77101 ], [ -77.23455, 38.77111 ], [ -77.23451, 38.77129 ], [ -77.23527, 38.77101 ] ], [ [ -77.2348, 38.77487 ], [ -77.23481, 38.77476 ], [ -77.23469, 38.77489 ], [ -77.2348, 38.77487 ] ], [ [ -77.2337, 38.77412 ], [ -77.23373, 38.77409 ], [ -77.23367, 38.77408 ], [ -77.2337, 38.77412 ] ], [ [ -77.22325, 38.76727 ], [ -77.22327, 38.76746 ], [ -77.22346, 38.76737 ], [ -77.22325, 38.76727 ] ], [ [ -77.22322, 38.76566 ], [ -77.22341, 38.76512 ], [ -77.22281, 38.76535 ], [ -77.22322, 38.76566 ] ], [ [ -77.2298, 38.76232 ], [ -77.22826, 38.76322 ], [ -77.22866, 38.76378 ], [ -77.2295, 38.76343 ], [ -77.22991, 38.76368 ], [ -77.23001, 38.76452 ], [ -77.2298, 38.76232 ] ], [ [ -77.22829, 38.76195 ], [ -77.22774, 38.76194 ], [ -77.22773, 38.76218 ], [ -77.22829, 38.76195 ] ], [ [ -77.23005, 38.776 ], [ -77.22998, 38.776 ], [ -77.23006, 38.77606 ], [ -77.23005, 38.776 ] ], [ [ -77.23115, 38.76964 ], [ -77.23176, 38.76854 ], [ -77.23024, 38.76741 ], [ -77.22931, 38.76872 ], [ -77.23115, 38.76964 ] ], [ [ -77.22764, 38.75994 ], [ -77.22763, 38.75997 ], [ -77.22764, 38.75997 ], [ -77.22764, 38.75994 ] ], [ [ -77.2264, 38.7658 ], [ -77.22672, 38.76574 ], [ -77.22639, 38.76566 ], [ -77.2264, 38.7658 ] ], [ [ -77.22639, 38.76482 ], [ -77.2263, 38.76491 ], [ -77.22651, 38.76475 ], [ -77.22639, 38.76482 ] ], [ [ -77.225, 38.76554 ], [ -77.225, 38.76539 ], [ -77.22485, 38.76545 ], [ -77.225, 38.76554 ] ], [ [ -77.22506, 38.76635 ], [ -77.22506, 38.76633 ], [ -77.22505, 38.76635 ], [ -77.22506, 38.76635 ] ], [ [ -77.22364, 38.76944 ], [ -77.22361, 38.76928 ], [ -77.22348, 38.76937 ], [ -77.22364, 38.76944 ] ], [ [ -77.22178, 38.76788 ], [ -77.22116, 38.76785 ], [ -77.2207, 38.76772 ], [ -77.22136, 38.76815 ], [ -77.22178, 38.76788 ] ], [ [ -77.22074, 38.76593 ], [ -77.22068, 38.76613 ], [ -77.22078, 38.76593 ], [ -77.22074, 38.76593 ] ], [ [ -77.2224, 38.76888 ], [ -77.2224, 38.76952 ], [ -77.2228, 38.76958 ], [ -77.2224, 38.76888 ] ], [ [ -77.2226, 38.77076 ], [ -77.22258, 38.77068 ], [ -77.22255, 38.77085 ], [ -77.2226, 38.77076 ] ] ] } },
{ "type": "Feature", "properties": { "variant": "T0", "miles": 1.5 }, "geometry": { "type": "Polygon", "coordinates": [ [ [ -77.24689, 38.7709 ], [ -77.24925, 38.76868 ], [ -77.24995, 38.76922 ], [ -77.2489, 38.7705 ], [ -77.24969, 38.77079 ], [ -77.24947, 38.77179 ], [ -77.25048, 38.77196 ], [ -77.25068, 38.77234 ], [ -77.25047, 38.77272 ], [ -77.24955, 38.77288 ], [ -77.25045, 38.77498 ], [ -77.24968, 38.77545 ], [ -77.2487, 38.77485 ], [ -77.24816, 38.77496 ], [ -77.2456, 38.77606 ], [ -77.24695, 38.77673 ], [ -77.24771, 38.77772 ], [ -77.24917, 38.77803 ], [ -77.24928, 38.77883 ], [ -77.24776, 38.77986 ], [ -77.24607, 38.77861 ], [ -77.2443, 38.77919 ], [ -77.24295, 38.77811 ], [ -77.24169, 38.77852 ], [ -77.24207, 38.77906 ], [ -77.24184, 38.7798 ], [ -77.23975, 38.7808 ], [ -77.23893, 38.78208 ], [ -77.23809, 38.78213 ], [ -77.23766, 38.78179 ], [ -77.23647, 38.7824 ], [ -77.23721, 38.78314 ], [ -77.23791, 38.78324 ], [ -77.23825, 38.78425 ], [ -77.23978, 38.78281 ], [ -77.24075, 38.78276 ], [ -77.24099, 38.78313 ], [ -77.239, 38.78524 ], [ -77.24026, 38.78747 ], [ -77.23997, 38.78818 ], [ -77.23864, 38.78856 ], [ -77.23736, 38.7868 ], [ -77.23695, 38.78732 ], [ -77.23643, 38.78729 ], [ -77.2354, 38.78611 ], [ -77.23391, 38.78678 ], [ -77.23327, 38.78629 ], [ -77.23191, 38.78616 ], [ -77.2319, 38.7854 ], [ -77.23271, 38.78519 ], [ -77.23224, 38.78465 ], [ -77.23118, 38.78464 ], [ -77.23117, 38.7875 ], [ -77.23048, 38.78804 ], [ -77.22979, 38.7875 ], [ -77.22967, 38.78606 ], [ -77.22801, 38.78563 ], [ -77.22826, 38.7849 ], [ -77.22966, 38.78498 ], [ -77.22962, 38.78311 ], [ -77.22749, 38.78314 ], [ -77.22732, 38.78479 ], [ -77.22684, 38.78496 ], [ -77.22614, 38.78443 ], [ -77.22629, 38.78175 ], [ -77.22915, 38.78204 ], [ -77.2287, 38.78084 ], [ -77.22596, 38.78118 ], [ -77.22266, 38.78054 ], [ -77.22175, 38.78084 ], [ -77.2212, 38.7802 ], [ -77.22155, 38.77983 ], [ -77.21926, 38.77804 ], [ -77.21536, 38.77615 ], [ -77.21567, 38.77479 ], [ -77.21415, 38.77316 ], [ -77.2146, 38.77189 ], [ -77.21387, 38.77106 ], [ -77.21435, 38.77018 ], [ -77.21481, 38.76996 ], [ -77.21656, 38.7703 ], [ -77.2183, 38.76997 ], [ -77.21886, 38.76941 ], [ -77.21961, 38.76981 ], [ -77.22101, 38.76961 ], [ -77.22034, 38.76889 ], [ -77.21947, 38.76891 ], [ -77.2191, 38.76817 ], [ -77.21581, 38.76756 ], [ -77.2158, 38.7668 ], [ -77.21777, 38.76674 ], [ -77.21782, 38.76633 ], [ -77.21707, 38.76587 ], [ -77.21803, 38.76454 ], [ -77.2173, 38.76362 ], [ -77.21554, 38.7635 ], [ -77.21529, 38.76314 ], [ -77.21582, 38.7626 ], [ -77.21516, 38.7622 ], [ -77.2143, 38.76265 ], [ -77.21385, 38.76244 ], [ -77.21385, 38.76079 ], [ -77.21446, 38.76007 ], [ -77.21498, 38.76003 ], [ -77.21724, 38.76097 ], [ -77.21777, 38.76051 ], [ -77.21695, 38.75986 ], [ -77.21696, 38.7591 ], [ -77.22035, 38.75799 ], [ -77.22027, 38.75697 ], [ -77.2207, 38.75673 ], [ -77.22209, 38.757 ], [ -77.22254, 38.75574 ], [ -77.22346, 38.75601 ], [ -77.22348, 38.75708 ], [ -77.22402, 38.75668 ], [ -77.22483, 38.75723 ], [ -77.22624, 38.7568 ], [ -77.22584, 38.75613 ], [ -77.22651, 38.7557 ], [ -77.22797, 38.75559 ], [ -77.22843, 38.75608 ], [ -77.23018, 38.75615 ], [ -77.23066, 38.75682 ], [ -77.23033, 38.75715 ], [ -77.22949, 38.75714 ], [ -77.2294, 38.75767 ], [ -77.2269, 38.75839 ], [ -77.22745, 38.75887 ], [ -77.22784, 38.76041 ], [ -77.22778, 38.76079 ], [ -77.22985, 38.76064 ], [ -77.23051, 38.76002 ], [ -77.23174, 38.76052 ], [ -77.23114, 38.76203 ], [ -77.23138, 38.76468 ], [ -77.23246, 38.76427 ], [ -77.23299, 38.76491 ], [ -77.23188, 38.76582 ], [ -77.23143, 38.76686 ], [ -77.23353, 38.76655 ], [ -77.23409, 38.76718 ], [ -77.23375, 38.76802 ], [ -77.23312, 38.76828 ], [ -77.23282, 38.76975 ], [ -77.23344, 38.76941 ], [ -77.23388, 38.76841 ], [ -77.23477, 38.76831 ], [ -77.23448, 38.76766 ], [ -77.23478, 38.76732 ], [ -77.2353, 38.76725 ], [ -77.23602, 38.76783 ], [ -77.23661, 38.76745 ], [ -77.23629, 38.76615 ], [ -77.23704, 38.76555 ], [ -77.23882, 38.76575 ], [ -77.24097, 38.76691 ], [ -77.24081, 38.76861 ], [ -77.23951, 38.76951 ], [ -77.24128, 38.77045 ], [ -77.24188, 38.77128 ], [ -77.24341, 38.77113 ], [ -77.24502, 38.77165 ], [ -77.24614, 38.77077 ], [ -77.24689, 38.7709 ] ], [ [ -77.23337, 38.78327 ], [ -77.23496, 38.78287 ], [ -77.23378, 38.78156 ], [ -77.23085, 38.78226 ], [ -77.23114, 38.78314 ], [ -77.23249, 38.78264 ], [ -77.23302, 38.78269 ], [ -77.23337, 38.78327 ] ], [ [ -77.23282, 38.77996 ], [ -77.23017, 38.78052 ], [ -77.2304, 38.78124 ], [ -77.23315, 38.78057 ], [ -77.23282, 38.77996 ] ], [ [ -77.2328, 38.77676 ], [ -77.23337, 38.77672 ], [ -77.23325, 38.77635 ], [ -77.2328, 38.77676 ] ], [ [ -77.23304, 38.77479 ], [ -77.23293, 38.77477 ], [ -77.2329, 38.77494 ], [ -77.23304, 38.77479 ] ], [ [ -77.2337, 38.77412 ], [ -77.23368, 38.77408 ], [ -77.23367, 38.77408 ], [ -77.2337, 38.77412 ] ], [ [ -77.23789, 38.78041 ], [ -77.2384, 38.77992 ], [ -77.23775, 38.78024 ], [ -77.23789, 38.78041 ] ], [ [ -77.23864, 38.77622 ], [ -77.24049, 38.77659 ], [ -77.24047, 38.77575 ], [ -77.23968, 38.77632 ], [ -77.23898, 38.77591 ], [ -77.23864, 38.77622 ] ], [ [ -77.23896, 38.7749 ], [ -77.23897, 38.77455 ], [ -77.23759, 38.7742 ], [ -77.23761, 38.77459 ], [ -77.23661, 38.7751 ], [ -77.23659, 38.77572 ], [ -77.23896, 38.7749 ] ], [ [ -77.23795, 38.77135 ], [ -77.23802, 38.77117 ], [ -77.23794, 38.77113 ], [ -77.23795, 38.77135 ] ], [ [ -77.2381, 38.76892 ], [ -77.2386, 38.76819 ], [ -77.23837, 38.76777 ], [ -77.2378, 38.76849 ], [ -77.2381, 38.76892 ] ], [ [ -77.23993, 38.77891 ], [ -77.23974, 38.7787 ], [ -77.23981, 38.77892 ], [ -77.23993, 38.77891 ] ], [ [ -77.24466, 38.77427 ], [ -77.2433, 38.77222 ], [ -77.24103, 38.77234 ], [ -77.24382, 38.77575 ], [ -77.24543, 38.77468 ], [ -77.24466, 38.77427 ] ], [ [ -77.2472, 38.77394 ], [ -77.24576, 38.77323 ], [ -77.24592, 38.77443 ], [ -77.2472, 38.77394 ] ], [ [ -77.24436, 38.77705 ], [ -77.24428, 38.77734 ], [ -77.24469, 38.77735 ], [ -77.24436, 38.77705 ] ], [ [ -77.2426, 38.7764 ], [ -77.2419, 38.77665 ], [ -77.24177, 38.77701 ], [ -77.24266, 38.77657 ], [ -77.2426, 38.7764 ] ], [ [ -77.23948, 38.76938 ], [ -77.23949, 38.76942 ], [ -77.2395, 38.76938 ], [ -77.23948, 38.76938 ] ], [ [ -77.23717, 38.77235 ], [ -77.23726, 38.77228 ], [ -77.23707, 38.77237 ], [ -77.23717, 38.77235 ] ], [ [ -77.23627, 38.78013 ], [ -77.23668, 38.77928 ], [ -77.23629, 38.77921 ], [ -77.23433, 38.77964 ], [ -77.23561, 38.78154 ], [ -77.23671, 38.78098 ], [ -77.23627, 38.78013 ] ], [ [ -77.23689, 38.77677 ], [ -77.2362, 38.77685 ], [ -77.2359, 38.77711 ], [ -77.23679, 38.77701 ], [ -77.23689, 38.77677 ] ], [ [ -77.23634, 38.78531 ], [ -77.23648, 38.78541 ], [ -77.23634, 38.78524 ], [ -77.23634, 38.78531 ] ], [ [ -77.23603, 38.77342 ], [ -77.23555, 38.77313 ], [ -77.23527, 38.77407 ], [ -77.23603, 38.77342 ] ], [ [ -77.23511, 38.76869 ], [ -77.2353, 38.76877 ], [ -77.23505, 38.76861 ], [ -77.23511, 38.76869 ] ], [ [ -77.23519, 38.77089 ], [ -77.23451, 38.77129 ], [ -77.23527, 38.77101 ], [ -77.23519, 38.77089 ] ], [ [ -77.23481, 38.77476 ], [ -77.2348, 38.77487 ], [ -77.23491, 38.77487 ], [ -77.23481, 38.77476 ] ], [ [ -77.23519, 38.78434 ], [ -77.23511, 38.78396 ], [ -77.23474, 38.78405 ], [ -77.23482, 38.78404 ], [ -77.23519, 38.78434 ] ], [ [ -77.23409, 38.7842 ], [ -77.23382, 38.78447 ], [ -77.23391, 38.78465 ], [ -77.23409, 38.7842 ] ], [ [ -77.22681, 38.77992 ], [ -77.23215, 38.77883 ], [ -77.23138, 38.7769 ], [ -77.23052, 38.77683 ], [ -77.22982, 38.77721 ], [ -77.22878, 38.77657 ], [ -77.22822, 38.77556 ], [ -77.22889, 38.77495 ], [ -77.2308, 38.77489 ], [ -77.23096, 38.77376 ], [ -77.22822, 38.77322 ], [ -77.2278, 38.77271 ], [ -77.22638, 38.77309 ], [ -77.22454, 38.77241 ], [ -77.22346, 38.77249 ], [ -77.22318, 38.77299 ], [ -77.22208, 38.7726 ], [ -77.22151, 38.77322 ], [ -77.22099, 38.77312 ], [ -77.22061, 38.77201 ], [ -77.22117, 38.77071 ], [ -77.21981, 38.77088 ], [ -77.22007, 38.77253 ], [ -77.21933, 38.7734 ], [ -77.21629, 38.7732 ], [ -77.21573, 38.77252 ], [ -77.2157, 38.77336 ], [ -77.21821, 38.77494 ], [ -77.21789, 38.77566 ], [ -77.21701, 38.77559 ], [ -77.21936, 38.77668 ], [ -77.22225, 38.77889 ], [ -77.22189, 38.77781 ], [ -77.22276, 38.77746 ], [ -77.22452, 38.77926 ], [ -77.22681, 38.77992 ] ], [ [ -77.22506, 38.76633 ], [ -77.22505, 38.76635 ], [ -77.22506, 38.76635 ], [ -77.22506, 38.76633 ] ], [ [ -77.22485, 38.76545 ], [ -77.225, 38.76554 ], [ -77.225, 38.76539 ], [ -77.22485, 38.76545 ] ], [ [ -77.22322, 38.76566 ], [ -77.22341, 38.76512 ], [ -77.22281, 38.76535 ], [ -77.22322, 38.76566 ] ], [ [ -77.22496, 38.76279 ], [ -77.22538, 38.76221 ], [ -77.22563, 38.76161 ], [ -77.22475, 38.76203 ], [ -77.22451, 38.76253 ], [ -77.22496, 38.76279 ] ], [ [ -77.22391, 38.7611 ], [ -77.2236, 38.76011 ], [ -77.22403, 38.75987 ], [ -77.22488, 38.76017 ], [ -77.22443, 38.7595 ], [ -77.22345, 38.7597 ], [ -77.22315, 38.75879 ], [ -77.22181, 38.76087 ], [ -77.22202, 38.76166 ], [ -77.22292, 38.76176 ], [ -77.22308, 38.76106 ], [ -77.22391, 38.7611 ] ], [ [ -77.22931, 38.76872 ], [ -77.23115, 38.76964 ], [ -77.23185, 38.76882 ], [ -77.23024, 38.76741 ], [ -77.22931, 38.76872 ] ], [ [ -77.2295, 38.76343 ], [ -77.23001, 38.76452 ], [ -77.2298, 38.76232 ], [ -77.22826, 38.76322 ], [ -77.22866, 38.76378 ], [ -77.2295, 38.76343 ] ], [ [ -77.22998, 38.776 ], [ -77.23006, 38.77606 ], [ -77.23005, 38.776 ], [ -77.22998, 38.776 ] ], [ [ -77.22635, 38.76039 ], [ -77.22617, 38.7596 ], [ -77.22552, 38.76039 ], [ -77.22489, 38.76018 ], [ -77.22514, 38.7606 ], [ -77.22597, 38.7605 ], [ -77.22635, 38.76079 ], [ -77.22624, 38.76129 ], [ -77.22637, 38.76128 ], [ -77.22635, 38.76039 ] ], [ [ -77.22764, 38.75997 ], [ -77.22764, 38.75994 ], [ -77.22763, 38.75997 ], [ -77.22764, 38.75997 ] ], [ [ -77.22843, 38.76182 ], [ -77.22774, 38.76194 ], [ -77.22773, 38.76218 ], [ -77.22843, 38.76182 ] ], [ [ -77.22612, 38.76353 ], [ -77.22636, 38.7633 ], [ -77.22626, 38.76317 ], [ -77.22612, 38.76353 ] ], [ [ -77.22652, 38.76477 ], [ -77.22628, 38.76487 ], [ -77.2263, 38.76491 ], [ -77.22652, 38.76477 ] ], [ [ -77.22644, 38.76571 ], [ -77.2264, 38.7658 ], [ -77.22672, 38.76574 ], [ -77.22644, 38.76571 ] ], [ [ -77.2207, 38.76772 ], [ -77.22136, 38.76815 ], [ -77.22178, 38.76788 ], [ -77.2207, 38.76772 ] ], [ [ -77.21988, 38.76633 ], [ -77.21919, 38.76594 ], [ -77.21927, 38.76537 ], [ -77.21869, 38.76606 ], [ -77.21907, 38.76633 ], [ -77.21988, 38.76633 ] ], [ [ -77.22068, 38.76613 ], [ -77.22074, 38.76593 ], [ -77.22054, 38.76612 ], [ -77.22068, 38.76613 ] ], [ [ -77.21993, 38.76013 ], [ -77.22002, 38.76019 ], [ -77.22014, 38.76012 ], [ -77.21993, 38.76013 ] ], [ [ -77.22058, 38.75999 ], [ -77.22172, 38.75883 ], [ -77.22096, 38.75847 ], [ -77.22052, 38.75898 ], [ -77.22058, 38.75999 ] ], [ [ -77.22243, 38.76251 ], [ -77.22257, 38.76276 ], [ -77.22261, 38.76295 ], [ -77.22268, 38.7628 ], [ -77.22243, 38.76251 ] ], [ [ -77.22364, 38.76944 ], [ -77.22361, 38.76928 ], [ -77.22348, 38.76937 ], [ -77.22364, 38.76944 ] ], [ [ -77.2224, 38.76888 ], [ -77.2224, 38.76952 ], [ -77.2228, 38.76958 ], [ -77.2224, 38.76888 ] ], [ [ -77.22325, 38.76727 ], [ -77.22327, 38.76746 ], [ -77.22346, 38.76737 ], [ -77.22325, 38.76727 ] ], [ [ -77.22256, 38.77077 ], [ -77.22264, 38.77071 ], [ -77.22258, 38.77068 ], [ -77.22256, 38.77077 ] ], [ [ -77.21923, 38.75945 ], [ -77.21928, 38.75947 ], [ -77.21926, 38.75943 ], [ -77.21923, 38.75945 ] ], [ [ -77.21881, 38.76355 ], [ -77.21906, 38.76361 ], [ -77.21915, 38.76347 ], [ -77.21881, 38.76355 ] ], [ [ -77.21633, 38.77218 ], [ -77.21634, 38.77211 ], [ -77.21621, 38.7722 ], [ -77.21633, 38.77218 ] ] ] } },
{ "type": "Feature", "properties": { "variant": "T2s", "miles": 0.5 }, "geometry": { "type": "Polygon", "coordinates": [ [ [ -77.23409, 38.76718 ], [ -77.23375, 38.76802 ], [ -77.23312, 38.76828 ], [ -77.23282, 38.76975 ], [ -77.23344, 38.76941 ], [ -77.23388, 38.76841 ], [ -77.23477, 38.76831 ], [ -77.23448, 38.76766 ], [ -77.2353, 38.76725 ], [ -77.23676, 38.7684 ], [ -77.23795, 38.7713 ], [ -77.23747, 38.77215 ], [ -77.23555, 38.77313 ], [ -77.23503, 38.77419 ], [ -77.23367, 38.77408 ], [ -77.23321, 38.77481 ], [ -77.2318, 38.77444 ], [ -77.23188, 38.77299 ], [ -77.23146, 38.77293 ], [ -77.23162, 38.77344 ], [ -77.23075, 38.77377 ], [ -77.22782, 38.77295 ], [ -77.22814, 38.77222 ], [ -77.22924, 38.77222 ], [ -77.23057, 38.77152 ], [ -77.22923, 38.77048 ], [ -77.22941, 38.76999 ], [ -77.22597, 38.76887 ], [ -77.22458, 38.76766 ], [ -77.22526, 38.76712 ], [ -77.22628, 38.76768 ], [ -77.2273, 38.76726 ], [ -77.2275, 38.76819 ], [ -77.23115, 38.76964 ], [ -77.23178, 38.76858 ], [ -77.23024, 38.76741 ], [ -77.22986, 38.76792 ], [ -77.22891, 38.76773 ], [ -77.22919, 38.76634 ], [ -77.22832, 38.76605 ], [ -77.22821, 38.76564 ], [ -77.2285, 38.7653 ], [ -77.22982, 38.76535 ], [ -77.23004, 38.76435 ], [ -77.2308, 38.76388 ], [ -77.23138, 38.76468 ], [ -77.23246, 38.76427 ], [ -77.23299, 38.76491 ], [ -77.23188, 38.76582 ], [ -77.23144, 38.76687 ], [ -77.23353, 38.76655 ], [ -77.23409, 38.76718 ] ], [ [ -77.23519, 38.77089 ], [ -77.23451, 38.77129 ], [ -77.23527, 38.77101 ], [ -77.23519, 38.77089 ] ], [ [ -77.2353, 38.76877 ], [ -77.23511, 38.76869 ], [ -77.23504, 38.76886 ], [ -77.2353, 38.76877 ] ] ] } },
{ "type": "Feature", "properties": { "variant": "T2s", "miles": 1.0 }, "geometry": { "type": "Polygon", "coordinates": [ [ [ -77.23948, 38.76947 ], [ -77.24128, 38.77045 ], [ -77.2424, 38.77172 ], [ -77.24196, 38.7724 ], [ -77.24103, 38.77234 ], [ -77.24118, 38.773 ], [ -77.24072, 38.77352 ], [ -77.24147, 38.77463 ], [ -77.24267, 38.77478 ], [ -77.24286, 38.77517 ], [ -77.24228, 38.77566 ], [ -77.24265, 38.77636 ], [ -77.24228, 38.77665 ], [ -77.24086, 38.77655 ], [ -77.24047, 38.77575 ], [ -77.23968, 38.77632 ], [ -77.23898, 38.77591 ], [ -77.23814, 38.7765 ], [ -77.2362, 38.77685 ], [ -77.23552, 38.77732 ], [ -77.23622, 38.77795 ], [ -77.23691, 38.77797 ], [ -77.23717, 38.77871 ], [ -77.23426, 38.7795 ], [ -77.23508, 38.78104 ], [ -77.23384, 38.78143 ], [ -77.23282, 38.77996 ], [ -77.23125, 38.78043 ], [ -77.23073, 38.78038 ], [ -77.23027, 38.77978 ], [ -77.23076, 38.77912 ], [ -77.23215, 38.77883 ], [ -77.23075, 38.77553 ], [ -77.23096, 38.77376 ], [ -77.22822, 38.77322 ], [ -77.2278, 38.77271 ], [ -77.22638, 38.77309 ], [ -77.22454, 38.77241 ], [ -77.22346, 38.77249 ], [ -77.22318, 38.77299 ], [ -77.22208, 38.7726 ], [ -77.22151, 38.77322 ], [ -77.22099, 38.77312 ], [ -77.22061, 38.77201 ], [ -77.22117, 38.77071 ], [ -77.21981, 38.77088 ], [ -77.21938, 38.77183 ], [ -77.21843, 38.77167 ], [ -77.21841, 38.76962 ], [ -77.22101, 38.76964 ], [ -77.22034, 38.76889 ], [ -77.21912, 38.76861 ], [ -77.21931, 38.76747 ], [ -77.21782, 38.76686 ], [ -77.21799, 38.76609 ], [ -77.21988, 38.76633 ], [ -77.21919, 38.76594 ], [ -77.2195, 38.76541 ], [ -77.21866, 38.76541 ], [ -77.21823, 38.76473 ], [ -77.21897, 38.76431 ], [ -77.21923, 38.76335 ], [ -77.22017, 38.76314 ], [ -77.22037, 38.76457 ], [ -77.22107, 38.76519 ], [ -77.22054, 38.76612 ], [ -77.2215, 38.76576 ], [ -77.22025, 38.76235 ], [ -77.22056, 38.76134 ], [ -77.2215, 38.76152 ], [ -77.22181, 38.76257 ], [ -77.22261, 38.76295 ], [ -77.22304, 38.76233 ], [ -77.224, 38.76222 ], [ -77.22431, 38.76445 ], [ -77.22487, 38.7638 ], [ -77.22579, 38.76382 ], [ -77.22636, 38.7633 ], [ -77.22598, 38.76228 ], [ -77.22643, 38.76056 ], [ -77.22584, 38.7589 ], [ -77.22686, 38.75837 ], [ -77.22745, 38.75887 ], [ -77.22784, 38.76041 ], [ -77.22778, 38.76079 ], [ -77.22985, 38.76064 ], [ -77.23051, 38.76002 ], [ -77.23174, 38.76052 ], [ -77.23114, 38.76203 ], [ -77.23138, 38.76468 ], [ -77.23246, 38.76427 ], [ -77.23299, 38.76491 ], [ -77.23188, 38.76582 ], [ -77.23143, 38.76686 ], [ -77.23353, 38.76655 ], [ -77.23409, 38.76718 ], [ -77.23375, 38.76802 ], [ -77.23312, 38.76828 ], [ -77.23282, 38.76975 ], [ -77.23344, 38.76941 ], [ -77.23388, 38.76841 ], [ -77.23477, 38.76831 ], [ -77.23448, 38.76766 ], [ -77.2353, 38.76725 ], [ -77.23675, 38.76838 ], [ -77.23746, 38.76832 ], [ -77.23805, 38.76902 ], [ -77.23872, 38.7683 ], [ -77.23924, 38.76834 ], [ -77.23948, 38.76947 ] ], [ [ -77.2328, 38.77676 ], [ -77.23337, 38.77672 ], [ -77.23325, 38.77635 ], [ -77.2328, 38.77676 ] ], [ [ -77.23304, 38.77479 ], [ -77.23293, 38.77477 ], [ -77.2329, 38.77494 ], [ -77.23304, 38.77479 ] ], [ [ -77.2337, 38.77412 ], [ -77.23368, 38.77408 ], [ -77.23367, 38.77408 ], [ -77.2337, 38.77412 ] ], [ [ -77.23896, 38.7749 ], [ -77.23897, 38.77455 ], [ -77.23759, 38.7742 ], [ -77.23761, 38.77459 ], [ -77.23661, 38.7751 ], [ -77.23659, 38.77572 ], [ -77.23896, 38.7749 ] ], [ [ -77.23795, 38.77135 ], [ -77.23802, 38.77117 ], [ -77.23794, 38.77113 ], [ -77.23795, 38.77135 ] ], [ [ -77.23717, 38.77235 ], [ -77.23726, 38.77228 ], [ -77.23707, 38.77237 ], [ -77.23717, 38.77235 ] ], [ [ -77.23455, 38.77111 ], [ -77.23527, 38.77101 ], [ -77.23519, 38.77089 ], [ -77.23455, 38.77111 ] ], [ [ -77.23511, 38.76869 ], [ -77.23504, 38.76886 ], [ -77.2353, 38.76877 ], [ -77.23511, 38.76869 ] ], [ [ -77.23469, 38.77489 ], [ -77.23491, 38.77487 ], [ -77.23481, 38.77476 ], [ -77.23469, 38.77489 ] ], [ [ -77.23555, 38.77313 ], [ -77.23549, 38.77346 ], [ -77.23527, 38.77407 ], [ -77.23603, 38.77342 ], [ -77.23555, 38.77313 ] ], [ [ -77.23472, 38.7777 ], [ -77.23481, 38.77753 ], [ -77.23468, 38.77756 ], [ -77.23472, 38.7777 ] ], [ [ -77.22931, 38.76872 ], [ -77.23115, 38.76964 ], [ -77.23185, 38.76877 ], [ -77.23024, 38.76741 ], [ -77.22931, 38.76872 ] ], [ [ -77.22505, 38.76635 ], [ -77.22506, 38.76635 ], [ -77.22506, 38.76633 ], [ -77.22505, 38.76635 ] ], [ [ -77.22322, 38.76566 ], [ -77.22341, 38.76512 ], [ -77.22281, 38.76535 ], [ -77.22322, 38.76566 ] ], [ [ -77.2295, 38.76343 ], [ -77.23001, 38.76452 ], [ -77.2298, 38.76232 ], [ -77.22826, 38.76322 ], [ -77.22866, 38.76378 ], [ -77.2295, 38.76343 ] ], [ [ -77.22763, 38.75994 ], [ -77.22764, 38.75997 ], [ -77.22764, 38.75994 ], [ -77.22763, 38.75994 ] ], [ [ -77.22628, 38.76487 ], [ -77.22652, 38.76477 ], [ -77.22651, 38.76475 ], [ -77.22628, 38.76487 ] ], [ [ -77.22843, 38.76182 ], [ -77.22774, 38.76194 ], [ -77.22773, 38.76218 ], [ -77.22843, 38.76182 ] ], [ [ -77.225, 38.76539 ], [ -77.22485, 38.76545 ], [ -77.225, 38.76554 ], [ -77.225, 38.76539 ] ], [ [ -77.2264, 38.7658 ], [ -77.22644, 38.76571 ], [ -77.22639, 38.76566 ], [ -77.2264, 38.7658 ] ], [ [ -77.22364, 38.76944 ], [ -77.22361, 38.76928 ], [ -77.22348, 38.76937 ], [ -77.22364, 38.76944 ] ], [ [ -77.22493, 38.76835 ], [ -77.22497, 38.76913 ], [ -77.22623, 38.76897 ], [ -77.22429, 38.76769 ], [ -77.22493, 38.76835 ] ], [ [ -77.223, 38.76698 ], [ -77.22327, 38.76746 ], [ -77.22358, 38.76732 ], [ -77.22329, 38.76717 ], [ -77.223, 38.76698 ] ], [ [ -77.22178, 38.76788 ], [ -77.22116, 38.76785 ], [ -77.2207, 38.76772 ], [ -77.22136, 38.76815 ], [ -77.22178, 38.76788 ] ], [ [ -77.2224, 38.76888 ], [ -77.2224, 38.76952 ], [ -77.2228, 38.76958 ], [ -77.2224, 38.76888 ] ], [ [ -77.2226, 38.77076 ], [ -77.22258, 38.77068 ], [ -77.22255, 38.77085 ], [ -77.2226, 38.77076 ] ] ] } },
{ "type": "Feature", "properties": { "variant": "T2s", "miles": 1.5 }, "geometry": { "type": "Polygon", "coordinates": [ [ [ -77.24087, 38.76681 ], [ -77.24086, 38.76852 ], [ -77.23951, 38.76951 ], [ -77.24128, 38.77045 ], [ -77.24188, 38.77128 ], [ -77.24341, 38.77113 ], [ -77.24502, 38.77165 ], [ -77.24614, 38.77077 ], [ -77.24689, 38.7709 ], [ -77.24925, 38.76868 ], [ -77.24995, 38.76922 ], [ -77.2489, 38.7705 ], [ -77.24969, 38.77079 ], [ -77.24947, 38.77179 ], [ -77.25048, 38.77196 ], [ -77.25047, 38.77272 ], [ -77.24828, 38.77287 ], [ -77.2485, 38.77369 ], [ -77.24793, 38.77431 ], [ -77.24576, 38.77323 ], [ -77.24602, 38.77405 ], [ -77.24548, 38.77469 ], [ -77.24496, 38.77461 ], [ -77.2443, 38.773 ], [ -77.2433, 38.77222 ], [ -77.24103, 38.77234 ], [ -77.24383, 38.77578 ], [ -77.24471, 38.77578 ], [ -77.24493, 38.77616 ], [ -77.24325, 38.77778 ], [ -77.24137, 38.77843 ], [ -77.242, 38.77884 ], [ -77.24201, 38.77958 ], [ -77.23975, 38.7808 ], [ -77.23911, 38.78197 ], [ -77.23859, 38.78219 ], [ -77.23766, 38.78179 ], [ -77.23647, 38.7824 ], [ -77.23721, 38.78314 ], [ -77.23791, 38.78324 ], [ -77.23825, 38.78425 ], [ -77.24025, 38.78263 ], [ -77.24099, 38.78313 ], [ -77.24082, 38.78352 ], [ -77.23834, 38.78569 ], [ -77.23742, 38.78551 ], [ -77.23675, 38.7847 ], [ -77.23576, 38.78596 ], [ -77.2341, 38.78641 ], [ -77.23341, 38.78614 ], [ -77.23246, 38.78466 ], [ -77.23118, 38.78464 ], [ -77.23097, 38.7859 ], [ -77.23034, 38.78606 ], [ -77.22966, 38.78552 ], [ -77.22962, 38.78311 ], [ -77.22749, 38.78314 ], [ -77.22731, 38.78394 ], [ -77.22682, 38.78411 ], [ -77.22612, 38.78357 ], [ -77.22629, 38.78175 ], [ -77.22915, 38.78204 ], [ -77.2287, 38.78084 ], [ -77.22489, 38.78111 ], [ -77.22285, 38.78062 ], [ -77.2218, 38.77994 ], [ -77.2225, 38.77867 ], [ -77.223, 38.77856 ], [ -77.22654, 38.77995 ], [ -77.23215, 38.77883 ], [ -77.23138, 38.7769 ], [ -77.23052, 38.77683 ], [ -77.22982, 38.77721 ], [ -77.22878, 38.77657 ], [ -77.22822, 38.77556 ], [ -77.22889, 38.77495 ], [ -77.2308, 38.77489 ], [ -77.23096, 38.77376 ], [ -77.22822, 38.77322 ], [ -77.2278, 38.77271 ], [ -77.22638, 38.77309 ], [ -77.22454, 38.77241 ], [ -77.22346, 38.77249 ], [ -77.22318, 38.77299 ], [ -77.22208, 38.7726 ], [ -77.22151, 38.77322 ], [ -77.22099, 38.77312 ], [ -77.22061, 38.77201 ], [ -77.22117, 38.77071 ], [ -77.21981, 38.77088 ], [ -77.22008, 38.77248 ], [ -77.21939, 38.77337 ], [ -77.21629, 38.7732 ], [ -77.21586, 38.77296 ], [ -77.21594, 38.77238 ], [ -77.21563, 38.77262 ], [ -77.2157, 38.77336 ], [ -77.21693, 38.77436 ], [ -77.21798, 38.77464 ], [ -77.21824, 38.77535 ], [ -77.21789, 38.77566 ], [ -77.21706, 38.77547 ], [ -77.2167, 38.77609 ], [ -77.21576, 38.77632 ], [ -77.21543, 38.776 ], [ -77.21567, 38.77479 ], [ -77.21419, 38.77334 ], [ -77.2146, 38.77189 ], [ -77.21387, 38.77106 ], [ -77.21435, 38.77018 ], [ -77.21481, 38.76996 ], [ -77.21656, 38.7703 ], [ -77.2183, 38.76997 ], [ -77.21886, 38.76941 ], [ -77.21961, 38.76981 ], [ -77.22101, 38.76961 ], [ -77.22034, 38.76889 ], [ -77.21947, 38.76891 ], [ -77.2191, 38.76817 ], [ -77.21581, 38.76756 ], [ -77.2158, 38.7668 ], [ -77.21777, 38.76674 ], [ -77.21782, 38.76633 ], [ -77.21707, 38.76587 ], [ -77.21803, 38.76454 ], [ -77.2173, 38.76362 ], [ -77.21554, 38.7635 ], [ -77.21529, 38.76314 ], [ -77.21582, 38.7626 ], [ -77.21516, 38.7622 ], [ -77.2143, 38.76265 ], [ -77.21385, 38.76244 ], [ -77.21385, 38.76079 ], [ -77.21446, 38.76007 ], [ -77.21498, 38.76003 ], [ -77.21724, 38.76097 ], [ -77.21807, 38.7603 ], [ -77.2176, 38.75956 ], [ -77.2179, 38.75894 ], [ -77.21908, 38.75823 ], [ -77.22035, 38.75799 ], [ -77.22027, 38.75697 ], [ -77.2207, 38.75673 ], [ -77.22209, 38.757 ], [ -77.22254, 38.75574 ], [ -77.22346, 38.75601 ], [ -77.22348, 38.75708 ], [ -77.22402, 38.75668 ], [ -77.22483, 38.75723 ], [ -77.22624, 38.7568 ], [ -77.22584, 38.75613 ], [ -77.22619, 38.75582 ], [ -77.22797, 38.75559 ], [ -77.22843, 38.75608 ], [ -77.2306, 38.75641 ], [ -77.23066, 38.75682 ], [ -77.22949, 38.75714 ], [ -77.2294, 38.75767 ], [ -77.2269, 38.75839 ], [ -77.22745, 38.75887 ], [ -77.22784, 38.76041 ], [ -77.22778, 38.76079 ], [ -77.22985, 38.76064 ], [ -77.23051, 38.76002 ], [ -77.23174, 38.76052 ], [ -77.23114, 38.76203 ], [ -77.23138, 38.76468 ], [ -77.23246, 38.76427 ], [ -77.23299, 38.76491 ], [ -77.23188, 38.76582 ], [ -77.23143, 38.76686 ], [ -77.23353, 38.76655 ], [ -77.23409, 38.76718 ], [ -77.23375, 38.76802 ], [ -77.23312, 38.76828 ], [ -77.23282, 38.76975 ], [ -77.23344, 38.76941 ], [ -77.23388, 38.76841 ], [ -77.23477, 38.76831 ], [ -77.23448, 38.76766 ], [ -77.23478, 38.76732 ], [ -77.2353, 38.76725 ], [ -77.23602, 38.76783 ], [ -77.23661, 38.76745 ], [ -77.23629, 38.76615 ], [ -77.23691, 38.76556 ], [ -77.23865, 38.7657 ], [ -77.24087, 38.76681 ] ], [ [ -77.23285, 38.7836 ], [ -77.23496, 38.78287 ], [ -77.23378, 38.78156 ], [ -77.23085, 38.78226 ], [ -77.23117, 38.78356 ], [ -77.23285, 38.7836 ] ], [ [ -77.23282, 38.77996 ], [ -77.23017, 38.78052 ], [ -77.2304, 38.78124 ], [ -77.23315, 38.78057 ], [ -77.23282, 38.77996 ] ], [ [ -77.2328, 38.77676 ], [ -77.23337, 38.77672 ], [ -77.23325, 38.77635 ], [ -77.2328, 38.77676 ] ], [ [ -77.23304, 38.77479 ], [ -77.23293, 38.77477 ], [ -77.2329, 38.77494 ], [ -77.23304, 38.77479 ] ], [ [ -77.2337, 38.77412 ], [ -77.23368, 38.77408 ], [ -77.23367, 38.77408 ], [ -77.2337, 38.77412 ] ], [ [ -77.23852, 38.7801 ], [ -77.23837, 38.77966 ], [ -77.23775, 38.78024 ], [ -77.23789, 38.78041 ], [ -77.23852, 38.7801 ] ], [ [ -77.23864, 38.77622 ], [ -77.24049, 38.77659 ], [ -77.24047, 38.77575 ], [ -77.23968, 38.77632 ], [ -77.23898, 38.77591 ], [ -77.23864, 38.77622 ] ], [ [ -77.23896, 38.7749 ], [ -77.23897, 38.77455 ], [ -77.23759, 38.7742 ], [ -77.23761, 38.77459 ], [ -77.23661, 38.7751 ], [ -77.23659, 38.77572 ], [ -77.23896, 38.7749 ] ], [ [ -77.23795, 38.77135 ], [ -77.23802, 38.77117 ], [ -77.23794, 38.77113 ], [ -77.23795, 38.77135 ] ], [ [ -77.2381, 38.76892 ], [ -77.2386, 38.76819 ], [ -77.23837, 38.76777 ], [ -77.2378, 38.76849 ], [ -77.2381, 38.76892 ] ], [ [ -77.23948, 38.76938 ], [ -77.23949, 38.76942 ], [ -77.2395, 38.76938 ], [ -77.23948, 38.76938 ] ], [ [ -77.23981, 38.77892 ], [ -77.23996, 38.77873 ], [ -77.23974, 38.7787 ], [ -77.23981, 38.77892 ] ], [ [ -77.2426, 38.7764 ], [ -77.24177, 38.77701 ], [ -77.24267, 38.77657 ], [ -77.2426, 38.7764 ] ], [ [ -77.23527, 38.77407 ], [ -77.23603, 38.77342 ], [ -77.23555, 38.77313 ], [ -77.23527, 38.77407 ] ], [ [ -77.23707, 38.77237 ], [ -77.23727, 38.77233 ], [ -77.23726, 38.77228 ], [ -77.23707, 38.77237 ] ], [ [ -77.23627, 38.78013 ], [ -77.23668, 38.77928 ], [ -77.23629, 38.77921 ], [ -77.23433, 38.77964 ], [ -77.23561, 38.78154 ], [ -77.23671, 38.78098 ], [ -77.23627, 38.78013 ] ], [ [ -77.23689, 38.77677 ], [ -77.2362, 38.77685 ], [ -77.2359, 38.77711 ], [ -77.23679, 38.77701 ], [ -77.23689, 38.77677 ] ], [ [ -77.23511, 38.76869 ], [ -77.2353, 38.76877 ], [ -77.23505, 38.76861 ], [ -77.23511, 38.76869 ] ], [ [ -77.23519, 38.77089 ], [ -77.23451, 38.77129 ], [ -77.23527, 38.77101 ], [ -77.23519, 38.77089 ] ], [ [ -77.23481, 38.77476 ], [ -77.23469, 38.77489 ], [ -77.23491, 38.77487 ], [ -77.23481, 38.77476 ] ], [ [ -77.23519, 38.78434 ], [ -77.23511, 38.78396 ], [ -77.23474, 38.78405 ], [ -77.23519, 38.78434 ] ], [ [ -77.23409, 38.7842 ], [ -77.23383, 38.7845 ], [ -77.23391, 38.78465 ], [ -77.23409, 38.7842 ] ], [ [ -77.22623, 38.76897 ], [ -77.22552, 38.76861 ], [ -77.22429, 38.76769 ], [ -77.22494, 38.76835 ], [ -77.22497, 38.76913 ], [ -77.22623, 38.76897 ] ], [ [ -77.22506, 38.76633 ], [ -77.22505, 38.76635 ], [ -77.22506, 38.76635 ], [ -77.22506, 38.76633 ] ], [ [ -77.22485, 38.76545 ], [ -77.225, 38.76554 ], [ -77.225, 38.76539 ], [ -77.22485, 38.76545 ] ], [ [ -77.22322, 38.76566 ], [ -77.22341, 38.76512 ], [ -77.22281, 38.76535 ], [ -77.22322, 38.76566 ] ], [ [ -77.22496, 38.76279 ], [ -77.22538, 38.76221 ], [ -77.22563, 38.76161 ], [ -77.22475, 38.76203 ], [ -77.22451, 38.76253 ], [ -77.22496, 38.76279 ] ], [ [ -77.22489, 38.76018 ], [ -77.22635, 38.76079 ], [ -77.22624, 38.76129 ], [ -77.22637, 38.76128 ], [ -77.22643, 38.76056 ], [ -77.22617, 38.7596 ], [ -77.22552, 38.76039 ], [ -77.22489, 38.76018 ] ], [ [ -77.22488, 38.76017 ], [ -77.22443, 38.7595 ], [ -77.22345, 38.7597 ], [ -77.22315, 38.75879 ], [ -77.22181, 38.76087 ], [ -77.22202, 38.76166 ], [ -77.22255, 38.76191 ], [ -77.22308, 38.76106 ], [ -77.22391, 38.7611 ], [ -77.2236, 38.76011 ], [ -77.22403, 38.75987 ], [ -77.22488, 38.76017 ] ], [ [ -77.22931, 38.76872 ], [ -77.23115, 38.76964 ], [ -77.23185, 38.76882 ], [ -77.23024, 38.76741 ], [ -77.22931, 38.76872 ] ], [ [ -77.2295, 38.76343 ], [ -77.23001, 38.76452 ], [ -77.2298, 38.76232 ], [ -77.22826, 38.76322 ], [ -77.22866, 38.76378 ], [ -77.2295, 38.76343 ] ], [ [ -77.23006, 38.77605 ], [ -77.22997, 38.776 ], [ -77.23006, 38.77606 ], [ -77.23006, 38.77605 ] ], [ [ -77.22639, 38.76482 ], [ -77.2263, 38.76491 ], [ -77.22651, 38.76475 ], [ -77.22639, 38.76482 ] ], [ [ -77.22843, 38.76182 ], [ -77.22774, 38.76194 ], [ -77.22773, 38.76218 ], [ -77.22843, 38.76182 ] ], [ [ -77.22763, 38.75994 ], [ -77.22764, 38.75997 ], [ -77.22764, 38.75994 ], [ -77.22763, 38.75994 ] ], [ [ -77.22612, 38.76353 ], [ -77.22636, 38.7633 ], [ -77.22626, 38.76317 ], [ -77.22612, 38.76353 ] ], [ [ -77.22644, 38.76571 ], [ -77.2264, 38.7658 ], [ -77.22672, 38.76574 ], [ -77.22644, 38.76571 ] ], [ [ -77.2207, 38.76772 ], [ -77.22136, 38.76815 ], [ -77.22178, 38.76788 ], [ -77.2207, 38.76772 ] ], [ [ -77.21988, 38.76633 ], [ -77.21919, 38.76594 ], [ -77.21927, 38.76537 ], [ -77.21869, 38.76606 ], [ -77.21907, 38.76633 ], [ -77.21988, 38.76633 ] ], [ [ -77.21993, 38.76013 ], [ -77.22002, 38.76019 ], [ -77.22014, 38.76012 ], [ -77.21993, 38.76013 ] ], [ [ -77.22058, 38.75999 ], [ -77.22172, 38.75883 ], [ -77.22096, 38.75847 ], [ -77.22052, 38.75898 ], [ -77.22058, 38.75999 ] ], [ [ -77.22108, 38.76503 ], [ -77.22098, 38.76555 ], [ -77.22054, 38.76612 ], [ -77.2215, 38.76576 ], [ -77.22108, 38.76503 ] ], [ [ -77.22261, 38.76295 ], [ -77.22243, 38.76251 ], [ -77.22229, 38.76261 ], [ -77.22261, 38.76295 ] ], [ [ -77.22364, 38.76944 ], [ -77.22361, 38.76928 ], [ -77.22348, 38.76937 ], [ -77.22364, 38.76944 ] ], [ [ -77.2224, 38.76888 ], [ -77.2224, 38.76952 ], [ -77.2228, 38.76958 ], [ -77.2224, 38.76888 ] ], [ [ -77.223, 38.76698 ], [ -77.22327, 38.76746 ], [ -77.22358, 38.76732 ], [ -77.223, 38.76698 ] ], [ [ -77.22256, 38.77077 ], [ -77.22264, 38.77071 ], [ -77.22258, 38.77068 ], [ -77.22256, 38.77077 ] ], [ [ -77.21928, 38.75947 ], [ -77.21926, 38.75943 ], [ -77.21923, 38.75945 ], [ -77.21928, 38.75947 ] ], [ [ -77.21881, 38.76355 ], [ -77.21906, 38.76361 ], [ -77.21915, 38.76347 ], [ -77.21881, 38.76355 ] ], [ [ -77.21621, 38.7722 ], [ -77.21633, 38.77218 ], [ -77.21634, 38.77211 ], [ -77.21621, 38.7722 ] ] ] } }
]
}
