{
"type": "FeatureCollection",
"name": "157",
"crs": { "type": "name", "properties": { "name": "urn:ogc:def:crs:OGC:1.3:CRS84" } },
"xy_coordinate_resolution": 1e-05,
"features": [
{ "type": "Feature", "properties": { "variant": "T0", "miles": 0.5 }, "geometry": { "type": "Polygon", "coordinates": [ [ [ -77.22248, 38.77684 ], [ -77.22459, 38.77928 ], [ -77.22654, 38.77995 ], [ -77.22964, 38.77954 ], [ -77.22995, 38.78038 ], [ -77.22632, 38.78118 ], [ -77.22266, 38.78054 ], [ -77.22098, 38.78145 ], [ -77.22032, 38.78216 ], [ -77.22163, 38.78255 ], [ -77.22226, 38.7821 ], [ -77.22296, 38.78263 ], [ -77.22344, 38.78489 ], [ -77.22275, 38.78543 ], [ -77.22206, 38.78483 ], [ -77.22122, 38.78503 ], [ -77.22089, 38.78474 ], [ -77.21981, 38.78511 ], [ -77.21955, 38.78446 ], [ -77.21883, 38.78447 ], [ -77.21854, 38.78413 ], [ -77.21933, 38.78326 ], [ -77.21838, 38.78296 ], [ -77.21694, 38.78426 ], [ -77.21599, 38.78409 ], [ -77.21605, 38.78351 ], [ -77.21522, 38.78332 ], [ -77.21488, 38.78219 ], [ -77.21567, 38.78161 ], [ -77.21626, 38.78014 ], [ -77.21545, 38.77942 ], [ -77.21518, 38.77793 ], [ -77.21717, 38.77753 ], [ -77.21878, 38.77879 ], [ -77.22027, 38.77905 ], [ -77.21968, 38.77831 ], [ -77.22005, 38.77783 ], [ -77.21904, 38.77696 ], [ -77.2197, 38.7764 ], [ -77.22033, 38.77664 ], [ -77.2212, 38.77634 ], [ -77.22248, 38.77684 ] ], [ [ -77.22163, 38.77776 ], [ -77.2216, 38.77772 ], [ -77.2216, 38.77777 ], [ -77.22163, 38.77776 ] ], [ [ -77.21984, 38.78083 ], [ -77.21996, 38.78072 ], [ -77.21978, 38.78071 ], [ -77.21984, 38.78083 ] ], [ [ -77.22066, 38.78031 ], [ -77.22076, 38.78025 ], [ -77.22067, 38.78024 ], [ -77.22066, 38.78031 ] ], [ [ -77.2173, 38.78113 ], [ -77.21703, 38.78244 ], [ -77.21774, 38.78197 ], [ -77.2173, 38.78113 ] ] ] } },
{ "type": "Feature", "properties": { "variant": "T0", "miles": 1.0 }, "geometry": { "type": "Polygon", "coordinates": [ [ [ -77.23318, 38.77552 ], [ -77.23345, 38.77588 ], [ -77.23284, 38.77683 ], [ -77.23456, 38.77663 ], [ -77.23479, 38.77791 ], [ -77.23666, 38.77692 ], [ -77.23708, 38.77753 ], [ -77.23862, 38.77767 ], [ -77.23895, 38.77839 ], [ -77.23814, 38.77902 ], [ -77.23433, 38.77964 ], [ -77.23607, 38.782 ], [ -77.23578, 38.78273 ], [ -77.23476, 38.78266 ], [ -77.23378, 38.78156 ], [ -77.23085, 38.78226 ], [ -77.23114, 38.78314 ], [ -77.23302, 38.78269 ], [ -77.23335, 38.78301 ], [ -77.23296, 38.78363 ], [ -77.23377, 38.78396 ], [ -77.23384, 38.78437 ], [ -77.233, 38.78476 ], [ -77.23118, 38.78464 ], [ -77.23097, 38.78684 ], [ -77.22987, 38.78685 ], [ -77.22967, 38.78606 ], [ -77.22912, 38.78603 ], [ -77.22881, 38.78682 ], [ -77.2283, 38.78694 ], [ -77.22686, 38.78627 ], [ -77.2266, 38.78654 ], [ -77.22706, 38.7872 ], [ -77.22655, 38.78806 ], [ -77.22461, 38.78788 ], [ -77.22527, 38.78917 ], [ -77.2264, 38.78916 ], [ -77.22697, 38.78975 ], [ -77.22658, 38.79062 ], [ -77.2253, 38.79077 ], [ -77.22462, 38.79158 ], [ -77.22378, 38.79119 ], [ -77.22387, 38.79052 ], [ -77.22208, 38.79065 ], [ -77.21855, 38.78962 ], [ -77.21878, 38.78887 ], [ -77.22015, 38.78888 ], [ -77.22034, 38.78837 ], [ -77.21986, 38.7875 ], [ -77.22034, 38.78683 ], [ -77.22126, 38.78741 ], [ -77.2226, 38.78715 ], [ -77.22222, 38.78596 ], [ -77.22014, 38.78615 ], [ -77.21804, 38.78542 ], [ -77.21726, 38.78406 ], [ -77.21642, 38.78433 ], [ -77.21599, 38.78409 ], [ -77.21605, 38.78351 ], [ -77.21522, 38.78332 ], [ -77.21511, 38.78194 ], [ -77.21382, 38.78175 ], [ -77.21313, 38.78117 ], [ -77.21329, 38.7802 ], [ -77.21112, 38.77986 ], [ -77.21129, 38.7791 ], [ -77.21229, 38.77908 ], [ -77.21309, 38.77802 ], [ -77.21135, 38.77883 ], [ -77.21049, 38.77881 ], [ -77.20955, 38.77728 ], [ -77.20996, 38.77675 ], [ -77.21096, 38.77644 ], [ -77.20885, 38.77685 ], [ -77.2078, 38.77624 ], [ -77.20818, 38.77553 ], [ -77.20927, 38.77571 ], [ -77.20888, 38.77294 ], [ -77.21036, 38.77294 ], [ -77.21056, 38.77366 ], [ -77.2146, 38.77402 ], [ -77.21428, 38.77233 ], [ -77.2165, 38.77044 ], [ -77.21702, 38.7705 ], [ -77.21726, 38.77124 ], [ -77.21563, 38.77262 ], [ -77.2157, 38.77336 ], [ -77.21693, 38.77436 ], [ -77.21901, 38.77463 ], [ -77.21956, 38.77537 ], [ -77.2206, 38.77555 ], [ -77.22262, 38.77697 ], [ -77.22362, 38.77867 ], [ -77.22654, 38.77995 ], [ -77.23215, 38.77883 ], [ -77.23074, 38.77545 ], [ -77.23137, 38.77486 ], [ -77.23221, 38.77563 ], [ -77.23318, 38.77552 ] ], [ [ -77.22206, 38.78483 ], [ -77.22197, 38.78489 ], [ -77.22206, 38.78488 ], [ -77.22206, 38.78483 ] ], [ [ -77.22178, 38.78226 ], [ -77.22275, 38.78225 ], [ -77.22309, 38.78346 ], [ -77.22348, 38.78317 ], [ -77.22611, 38.78303 ], [ -77.22609, 38.78213 ], [ -77.22677, 38.78159 ], [ -77.22744, 38.78206 ], [ -77.22915, 38.78204 ], [ -77.2287, 38.78084 ], [ -77.22551, 38.78116 ], [ -77.22266, 38.78054 ], [ -77.22032, 38.78216 ], [ -77.22163, 38.78255 ], [ -77.22178, 38.78226 ] ], [ [ -77.2216, 38.77777 ], [ -77.22162, 38.77775 ], [ -77.2216, 38.77772 ], [ -77.2216, 38.77777 ] ], [ [ -77.23282, 38.77996 ], [ -77.23017, 38.78052 ], [ -77.2304, 38.78124 ], [ -77.23315, 38.78057 ], [ -77.23282, 38.77996 ] ], [ [ -77.22965, 38.78326 ], [ -77.22948, 38.78311 ], [ -77.22898, 38.78312 ], [ -77.22965, 38.78326 ] ], [ [ -77.222, 38.7895 ], [ -77.22245, 38.7896 ], [ -77.22237, 38.78933 ], [ -77.222, 38.7895 ] ], [ [ -77.22213, 38.78835 ], [ -77.22179, 38.78841 ], [ -77.22218, 38.78854 ], [ -77.22213, 38.78835 ] ], [ [ -77.22365, 38.78876 ], [ -77.22381, 38.78942 ], [ -77.22392, 38.7894 ], [ -77.22382, 38.7891 ], [ -77.22365, 38.78876 ] ], [ [ -77.22548, 38.78593 ], [ -77.22423, 38.7861 ], [ -77.22352, 38.78557 ], [ -77.22394, 38.78689 ], [ -77.22573, 38.78692 ], [ -77.22599, 38.78665 ], [ -77.22548, 38.78593 ] ], [ [ -77.21711, 38.78238 ], [ -77.21699, 38.78238 ], [ -77.21703, 38.78244 ], [ -77.21711, 38.78238 ] ], [ [ -77.21723, 38.78133 ], [ -77.21744, 38.78139 ], [ -77.2173, 38.78113 ], [ -77.21723, 38.78133 ] ], [ [ -77.21633, 38.77774 ], [ -77.2167, 38.77746 ], [ -77.2162, 38.77734 ], [ -77.21633, 38.77774 ] ], [ [ -77.21846, 38.77562 ], [ -77.21854, 38.77566 ], [ -77.21847, 38.77562 ], [ -77.21846, 38.77562 ] ], [ [ -77.21861, 38.7785 ], [ -77.21878, 38.77879 ], [ -77.21899, 38.77882 ], [ -77.21861, 38.7785 ] ], [ [ -77.21978, 38.78071 ], [ -77.21984, 38.78083 ], [ -77.21996, 38.78072 ], [ -77.21978, 38.78071 ] ], [ [ -77.22067, 38.78024 ], [ -77.22066, 38.78031 ], [ -77.22076, 38.78025 ], [ -77.22067, 38.78024 ] ], [ [ -77.21955, 38.78446 ], [ -77.21899, 38.78462 ], [ -77.21949, 38.78478 ], [ -77.21955, 38.78446 ] ], [ [ -77.22089, 38.78474 ], [ -77.22071, 38.78514 ], [ -77.22123, 38.78503 ], [ -77.22089, 38.78474 ] ], [ [ -77.21535, 38.77915 ], [ -77.21499, 38.77901 ], [ -77.21482, 38.77919 ], [ -77.21535, 38.77915 ] ], [ [ -77.21477, 38.77775 ], [ -77.21444, 38.77793 ], [ -77.21488, 38.77765 ], [ -77.21477, 38.77775 ] ], [ [ -77.2114, 38.7775 ], [ -77.21105, 38.77759 ], [ -77.2111, 38.77767 ], [ -77.2114, 38.7775 ] ], [ [ -77.21593, 38.78095 ], [ -77.21577, 38.78099 ], [ -77.21589, 38.78104 ], [ -77.21593, 38.78095 ] ] ] } },
{ "type": "Feature", "properties": { "variant": "T0", "miles": 1.5 }, "geometry": { "type": "Polygon", "coordinates": [ [ [ -77.23938, 38.77284 ], [ -77.24039, 38.77265 ], [ -77.2408, 38.77292 ], [ -77.24068, 38.77349 ], [ -77.24147, 38.77463 ], [ -77.24298, 38.77483 ], [ -77.24382, 38.77575 ], [ -77.24568, 38.77455 ], [ -77.24663, 38.7747 ], [ -77.24684, 38.77521 ], [ -77.2456, 38.77606 ], [ -77.24633, 38.77651 ], [ -77.24642, 38.77747 ], [ -77.24567, 38.77796 ], [ -77.24436, 38.77705 ], [ -77.24311, 38.77803 ], [ -77.24169, 38.77852 ], [ -77.24207, 38.77906 ], [ -77.24184, 38.7798 ], [ -77.23975, 38.7808 ], [ -77.23911, 38.78197 ], [ -77.23859, 38.78219 ], [ -77.23766, 38.78179 ], [ -77.23647, 38.7824 ], [ -77.23721, 38.78314 ], [ -77.23791, 38.78324 ], [ -77.23825, 38.78425 ], [ -77.24101, 38.78166 ], [ -77.24198, 38.7816 ], [ -77.24222, 38.78196 ], [ -77.239, 38.78524 ], [ -77.24094, 38.78857 ], [ -77.24005, 38.7891 ], [ -77.23924, 38.78849 ], [ -77.23846, 38.78872 ], [ -77.23784, 38.78971 ], [ -77.23668, 38.78945 ], [ -77.23579, 38.78999 ], [ -77.23492, 38.78962 ], [ -77.23474, 38.78998 ], [ -77.2356, 38.79015 ], [ -77.2357, 38.79055 ], [ -77.2352, 38.79109 ], [ -77.2357, 38.79184 ], [ -77.23504, 38.79268 ], [ -77.23337, 38.79227 ], [ -77.23285, 38.79283 ], [ -77.23183, 38.79239 ], [ -77.23092, 38.79276 ], [ -77.22986, 38.79224 ], [ -77.22975, 38.79182 ], [ -77.22929, 38.79229 ], [ -77.22846, 38.79192 ], [ -77.22775, 38.79229 ], [ -77.22681, 38.79156 ], [ -77.2241, 38.79152 ], [ -77.22387, 38.79052 ], [ -77.22197, 38.79063 ], [ -77.22107, 38.79112 ], [ -77.22038, 38.79058 ], [ -77.22072, 38.7901 ], [ -77.21858, 38.78975 ], [ -77.21663, 38.78875 ], [ -77.2154, 38.7874 ], [ -77.21392, 38.78652 ], [ -77.21487, 38.78461 ], [ -77.21583, 38.78474 ], [ -77.21546, 38.78609 ], [ -77.21636, 38.78542 ], [ -77.21688, 38.78545 ], [ -77.21709, 38.78631 ], [ -77.21806, 38.78664 ], [ -77.21757, 38.78796 ], [ -77.21851, 38.78703 ], [ -77.21948, 38.78696 ], [ -77.21973, 38.78732 ], [ -77.21919, 38.78809 ], [ -77.22, 38.78815 ], [ -77.22002, 38.78888 ], [ -77.22034, 38.78837 ], [ -77.21993, 38.78709 ], [ -77.22087, 38.78688 ], [ -77.22126, 38.78741 ], [ -77.2226, 38.78715 ], [ -77.22222, 38.78596 ], [ -77.22014, 38.78615 ], [ -77.21804, 38.78542 ], [ -77.21726, 38.78406 ], [ -77.21642, 38.78433 ], [ -77.21599, 38.78409 ], [ -77.21605, 38.78351 ], [ -77.21522, 38.78332 ], [ -77.21511, 38.78194 ], [ -77.21382, 38.78175 ], [ -77.21313, 38.78117 ], [ -77.21329, 38.7802 ], [ -77.21112, 38.77986 ], [ -77.21129, 38.7791 ], [ -77.21229, 38.77908 ], [ -77.21309, 38.77802 ], [ -77.21107, 38.77889 ], [ -77.21002, 38.77844 ], [ -77.2096, 38.77713 ], [ -77.21096, 38.77644 ], [ -77.209, 38.77689 ], [ -77.20785, 38.77648 ], [ -77.20661, 38.77667 ], [ -77.20589, 38.77614 ], [ -77.20585, 38.77514 ], [ -77.20407, 38.77566 ], [ -77.20452, 38.7765 ], [ -77.20435, 38.77717 ], [ -77.20259, 38.77761 ], [ -77.20127, 38.77632 ], [ -77.20004, 38.77666 ], [ -77.19927, 38.77619 ], [ -77.1994, 38.77579 ], [ -77.20233, 38.77441 ], [ -77.20302, 38.7734 ], [ -77.20463, 38.77346 ], [ -77.20495, 38.77405 ], [ -77.20566, 38.77389 ], [ -77.20577, 38.77311 ], [ -77.20651, 38.77261 ], [ -77.20724, 38.77308 ], [ -77.20717, 38.77366 ], [ -77.20882, 38.77358 ], [ -77.21002, 38.77146 ], [ -77.21413, 38.77301 ], [ -77.2146, 38.77189 ], [ -77.21387, 38.77106 ], [ -77.21435, 38.77018 ], [ -77.21481, 38.76996 ], [ -77.21656, 38.7703 ], [ -77.2183, 38.76997 ], [ -77.21886, 38.76941 ], [ -77.21961, 38.76981 ], [ -77.22101, 38.76964 ], [ -77.22034, 38.76889 ], [ -77.21947, 38.76891 ], [ -77.2191, 38.76855 ], [ -77.21946, 38.76701 ], [ -77.22028, 38.7666 ], [ -77.22071, 38.76684 ], [ -77.22075, 38.7678 ], [ -77.2224, 38.76952 ], [ -77.22731, 38.76886 ], [ -77.22975, 38.76963 ], [ -77.23031, 38.76934 ], [ -77.23115, 38.76964 ], [ -77.23178, 38.7693 ], [ -77.23289, 38.76978 ], [ -77.23458, 38.76919 ], [ -77.23497, 38.76989 ], [ -77.23425, 38.77031 ], [ -77.23438, 38.77113 ], [ -77.23347, 38.77124 ], [ -77.23346, 38.77208 ], [ -77.23886, 38.77245 ], [ -77.23938, 38.77284 ] ], [ [ -77.23105, 38.79084 ], [ -77.231, 38.79083 ], [ -77.231, 38.79086 ], [ -77.23105, 38.79084 ] ], [ [ -77.22967, 38.78606 ], [ -77.22912, 38.78603 ], [ -77.22881, 38.78682 ], [ -77.2283, 38.78694 ], [ -77.22773, 38.78645 ], [ -77.22686, 38.78627 ], [ -77.2266, 38.78654 ], [ -77.22705, 38.78722 ], [ -77.22784, 38.78733 ], [ -77.22967, 38.787 ], [ -77.22967, 38.78606 ] ], [ [ -77.22962, 38.78311 ], [ -77.22898, 38.78312 ], [ -77.22965, 38.78326 ], [ -77.22962, 38.78311 ] ], [ [ -77.23315, 38.78057 ], [ -77.23282, 38.77996 ], [ -77.23017, 38.78052 ], [ -77.2304, 38.78124 ], [ -77.23315, 38.78057 ] ], [ [ -77.23215, 38.77883 ], [ -77.23138, 38.7769 ], [ -77.23052, 38.77683 ], [ -77.22982, 38.77721 ], [ -77.22936, 38.77702 ], [ -77.22823, 38.77548 ], [ -77.22889, 38.77495 ], [ -77.2308, 38.77489 ], [ -77.23096, 38.77376 ], [ -77.22822, 38.77322 ], [ -77.22779, 38.77253 ], [ -77.22816, 38.77222 ], [ -77.22757, 38.77169 ], [ -77.22815, 38.77107 ], [ -77.22982, 38.77184 ], [ -77.2306, 38.77157 ], [ -77.22862, 38.77035 ], [ -77.22726, 38.76994 ], [ -77.22562, 38.77014 ], [ -77.22576, 38.77088 ], [ -77.22498, 38.77113 ], [ -77.22477, 38.77212 ], [ -77.22424, 38.77215 ], [ -77.2236, 38.77119 ], [ -77.22258, 38.77068 ], [ -77.22196, 38.773 ], [ -77.22151, 38.77322 ], [ -77.22099, 38.77312 ], [ -77.22062, 38.77231 ], [ -77.22117, 38.77071 ], [ -77.21981, 38.77088 ], [ -77.22007, 38.77253 ], [ -77.21933, 38.7734 ], [ -77.21629, 38.7732 ], [ -77.21586, 38.77296 ], [ -77.21594, 38.77238 ], [ -77.21562, 38.77264 ], [ -77.21563, 38.77329 ], [ -77.21693, 38.77436 ], [ -77.21907, 38.77465 ], [ -77.21956, 38.77537 ], [ -77.22047, 38.77548 ], [ -77.22231, 38.77671 ], [ -77.22362, 38.77867 ], [ -77.22453, 38.77926 ], [ -77.22656, 38.77995 ], [ -77.23215, 38.77883 ] ], [ [ -77.23005, 38.776 ], [ -77.22997, 38.776 ], [ -77.23006, 38.77606 ], [ -77.23005, 38.776 ] ], [ [ -77.23417, 38.78676 ], [ -77.23191, 38.78616 ], [ -77.2319, 38.7854 ], [ -77.23271, 38.78519 ], [ -77.23246, 38.78466 ], [ -77.23118, 38.78464 ], [ -77.23117, 38.78711 ], [ -77.23385, 38.7881 ], [ -77.23355, 38.78785 ], [ -77.23417, 38.78676 ] ], [ [ -77.23549, 38.78646 ], [ -77.23576, 38.78643 ], [ -77.23486, 38.78615 ], [ -77.23463, 38.78661 ], [ -77.23549, 38.78646 ] ], [ [ -77.23511, 38.78396 ], [ -77.23474, 38.78405 ], [ -77.23519, 38.78434 ], [ -77.23511, 38.78396 ] ], [ [ -77.23378, 38.78156 ], [ -77.23085, 38.78226 ], [ -77.23114, 38.78314 ], [ -77.23249, 38.78264 ], [ -77.23302, 38.78269 ], [ -77.23331, 38.7833 ], [ -77.23493, 38.78284 ], [ -77.23378, 38.78156 ] ], [ [ -77.23671, 38.78098 ], [ -77.23627, 38.78013 ], [ -77.23668, 38.77928 ], [ -77.23433, 38.77964 ], [ -77.23561, 38.78154 ], [ -77.23671, 38.78098 ] ], [ [ -77.23491, 38.77487 ], [ -77.23481, 38.77476 ], [ -77.23469, 38.77489 ], [ -77.23491, 38.77487 ] ], [ [ -77.23603, 38.77342 ], [ -77.23555, 38.77313 ], [ -77.23527, 38.77407 ], [ -77.23603, 38.77342 ] ], [ [ -77.2384, 38.77992 ], [ -77.23775, 38.78024 ], [ -77.23789, 38.78041 ], [ -77.2384, 38.77992 ] ], [ [ -77.24049, 38.77659 ], [ -77.24058, 38.77626 ], [ -77.23984, 38.77437 ], [ -77.23906, 38.77456 ], [ -77.23759, 38.7742 ], [ -77.23761, 38.77459 ], [ -77.23661, 38.7751 ], [ -77.23659, 38.77572 ], [ -77.23859, 38.77486 ], [ -77.23909, 38.775 ], [ -77.23931, 38.77537 ], [ -77.23864, 38.77622 ], [ -77.24049, 38.77659 ] ], [ [ -77.24177, 38.77701 ], [ -77.24267, 38.77657 ], [ -77.2426, 38.7764 ], [ -77.24177, 38.77701 ] ], [ [ -77.23996, 38.77873 ], [ -77.23974, 38.7787 ], [ -77.23981, 38.77892 ], [ -77.23996, 38.77873 ] ], [ [ -77.2362, 38.77685 ], [ -77.2359, 38.77711 ], [ -77.23689, 38.77677 ], [ -77.2362, 38.77685 ] ], [ [ -77.23648, 38.78541 ], [ -77.23634, 38.78524 ], [ -77.23634, 38.78531 ], [ -77.23648, 38.78541 ] ], [ [ -77.23658, 38.78812 ], [ -77.23679, 38.78827 ], [ -77.23668, 38.78806 ], [ -77.23658, 38.78812 ] ], [ [ -77.23325, 38.77635 ], [ -77.2328, 38.77676 ], [ -77.23284, 38.77683 ], [ -77.23337, 38.77672 ], [ -77.23325, 38.77635 ] ], [ [ -77.23382, 38.78447 ], [ -77.23391, 38.78465 ], [ -77.23409, 38.7842 ], [ -77.23382, 38.78447 ] ], [ [ -77.2337, 38.77412 ], [ -77.23373, 38.77409 ], [ -77.23368, 38.77408 ], [ -77.2337, 38.77412 ] ], [ [ -77.23304, 38.77479 ], [ -77.23293, 38.77477 ], [ -77.2329, 38.77494 ], [ -77.23304, 38.77479 ] ], [ [ -77.22206, 38.78488 ], [ -77.22206, 38.78483 ], [ -77.22197, 38.78489 ], [ -77.22206, 38.78488 ] ], [ [ -77.22075, 38.78492 ], [ -77.22047, 38.78509 ], [ -77.22123, 38.78503 ], [ -77.22075, 38.78492 ] ], [ [ -77.22275, 38.78225 ], [ -77.22309, 38.78346 ], [ -77.22348, 38.78317 ], [ -77.22611, 38.78303 ], [ -77.22609, 38.78213 ], [ -77.22677, 38.78159 ], [ -77.22744, 38.78206 ], [ -77.22915, 38.78204 ], [ -77.2287, 38.78084 ], [ -77.22551, 38.78116 ], [ -77.22266, 38.78054 ], [ -77.22032, 38.78216 ], [ -77.22163, 38.78255 ], [ -77.22226, 38.7821 ], [ -77.22275, 38.78225 ] ], [ [ -77.21996, 38.78072 ], [ -77.21978, 38.78071 ], [ -77.21984, 38.78083 ], [ -77.21996, 38.78072 ] ], [ [ -77.22067, 38.78024 ], [ -77.22066, 38.78031 ], [ -77.22076, 38.78025 ], [ -77.22067, 38.78024 ] ], [ [ -77.22945, 38.79064 ], [ -77.22943, 38.79064 ], [ -77.22944, 38.79066 ], [ -77.22945, 38.79064 ] ], [ [ -77.2216, 38.77772 ], [ -77.2216, 38.77777 ], [ -77.22163, 38.77776 ], [ -77.2216, 38.77772 ] ], [ [ -77.22381, 38.78942 ], [ -77.22392, 38.7894 ], [ -77.22374, 38.78893 ], [ -77.22381, 38.78942 ] ], [ [ -77.22225, 38.78957 ], [ -77.22245, 38.7896 ], [ -77.22237, 38.78933 ], [ -77.22225, 38.78957 ] ], [ [ -77.22423, 38.7861 ], [ -77.22352, 38.78557 ], [ -77.22394, 38.78689 ], [ -77.22573, 38.78692 ], [ -77.22599, 38.78665 ], [ -77.22537, 38.78595 ], [ -77.22423, 38.7861 ] ], [ [ -77.22471, 38.78787 ], [ -77.22461, 38.78788 ], [ -77.22466, 38.78794 ], [ -77.22471, 38.78787 ] ], [ [ -77.22213, 38.78835 ], [ -77.22179, 38.78841 ], [ -77.22209, 38.78848 ], [ -77.22213, 38.78835 ] ], [ [ -77.21499, 38.77901 ], [ -77.21482, 38.77919 ], [ -77.21535, 38.77915 ], [ -77.21499, 38.77901 ] ], [ [ -77.2167, 38.77746 ], [ -77.2162, 38.77734 ], [ -77.21633, 38.77774 ], [ -77.2167, 38.77746 ] ], [ [ -77.21437, 38.77393 ], [ -77.2146, 38.77402 ], [ -77.21448, 38.77388 ], [ -77.21437, 38.77393 ] ], [ [ -77.21878, 38.77879 ], [ -77.21899, 38.77882 ], [ -77.21861, 38.7785 ], [ -77.21878, 38.77879 ] ], [ [ -77.21634, 38.77211 ], [ -77.21621, 38.7722 ], [ -77.21633, 38.77218 ], [ -77.21634, 38.77211 ] ], [ [ -77.21699, 38.78238 ], [ -77.21703, 38.78244 ], [ -77.21711, 38.78238 ], [ -77.21699, 38.78238 ] ], [ [ -77.21744, 38.78139 ], [ -77.2173, 38.78113 ], [ -77.21723, 38.78133 ], [ -77.21744, 38.78139 ] ], [ [ -77.21949, 38.78478 ], [ -77.21955, 38.78446 ], [ -77.21891, 38.78449 ], [ -77.21949, 38.78478 ] ], [ [ -77.21076, 38.77257 ], [ -77.21077, 38.77247 ], [ -77.21065, 38.77273 ], [ -77.21076, 38.77257 ] ], [ [ -77.21493, 38.77782 ], [ -77.21488, 38.77765 ], [ -77.21471, 38.77779 ], [ -77.21493, 38.77782 ] ], [ [ -77.21105, 38.77759 ], [ -77.2111, 38.77767 ], [ -77.2114, 38.7775 ], [ -77.21105, 38.77759 ] ], [ [ -77.20285, 38.77618 ], [ -77.2028, 38.7762 ], [ -77.20312, 38.77658 ], [ -77.20285, 38.77618 ] ] ] } },
{ "type": "Feature", "properties": { "variant": "T2s", "miles": 0.5 }, "geometry": { "type": "Polygon", "coordinates": [ [ [ -77.21878, 38.77879 ], [ -77.22596, 38.7801 ], [ -77.22964, 38.77954 ], [ -77.22995, 38.78038 ], [ -77.22632, 38.78118 ], [ -77.22266, 38.78054 ], [ -77.22098, 38.78145 ], [ -77.22032, 38.78216 ], [ -77.22163, 38.78255 ], [ -77.22226, 38.7821 ], [ -77.22296, 38.78263 ], [ -77.22344, 38.78489 ], [ -77.22275, 38.78543 ], [ -77.22206, 38.78483 ], [ -77.22122, 38.78503 ], [ -77.22089, 38.78474 ], [ -77.21981, 38.78511 ], [ -77.21955, 38.78446 ], [ -77.21883, 38.78447 ], [ -77.21854, 38.78413 ], [ -77.21933, 38.78326 ], [ -77.21838, 38.78296 ], [ -77.21694, 38.78426 ], [ -77.21599, 38.78409 ], [ -77.21605, 38.78351 ], [ -77.21522, 38.78332 ], [ -77.21488, 38.78219 ], [ -77.21567, 38.78161 ], [ -77.21626, 38.78014 ], [ -77.21545, 38.77942 ], [ -77.21518, 38.77793 ], [ -77.21717, 38.77753 ], [ -77.21878, 38.77879 ] ], [ [ -77.21978, 38.78071 ], [ -77.2199, 38.78077 ], [ -77.21996, 38.78072 ], [ -77.21978, 38.78071 ] ], [ [ -77.22067, 38.78024 ], [ -77.22066, 38.78031 ], [ -77.22076, 38.78025 ], [ -77.22067, 38.78024 ] ], [ [ -77.2173, 38.78113 ], [ -77.21703, 38.78244 ], [ -77.21774, 38.78197 ], [ -77.2173, 38.78113 ] ] ] } },
{ "type": "Feature", "properties": { "variant": "T2s", "miles": 1.0 }, "geometry": { "type": "Polygon", "coordinates": [ [ [ -77.23312, 38.77677 ], [ -77.23456, 38.77663 ], [ -77.23489, 38.77695 ], [ -77.2347, 38.77828 ], [ -77.23566, 38.77807 ], [ -77.2357, 38.77752 ], [ -77.23617, 38.77733 ], [ -77.23709, 38.7779 ], [ -77.23822, 38.77782 ], [ -77.23848, 38.77856 ], [ -77.23738, 38.7792 ], [ -77.23433, 38.77964 ], [ -77.23607, 38.782 ], [ -77.23578, 38.78273 ], [ -77.23476, 38.78266 ], [ -77.23378, 38.78156 ], [ -77.23085, 38.78226 ], [ -77.23114, 38.78314 ], [ -77.23302, 38.78269 ], [ -77.23335, 38.78301 ], [ -77.23296, 38.78363 ], [ -77.23377, 38.78396 ], [ -77.23384, 38.78437 ], [ -77.233, 38.78476 ], [ -77.23118, 38.78464 ], [ -77.23097, 38.78684 ], [ -77.22987, 38.78685 ], [ -77.22967, 38.78606 ], [ -77.22912, 38.78603 ], [ -77.22881, 38.78682 ], [ -77.2283, 38.78694 ], [ -77.22686, 38.78627 ], [ -77.2266, 38.78654 ], [ -77.22706, 38.7872 ], [ -77.22655, 38.78806 ], [ -77.22461, 38.78788 ], [ -77.22527, 38.78917 ], [ -77.2264, 38.78916 ], [ -77.22697, 38.78975 ], [ -77.22658, 38.79062 ], [ -77.2253, 38.79077 ], [ -77.22462, 38.79158 ], [ -77.22378, 38.79119 ], [ -77.22387, 38.79052 ], [ -77.22208, 38.79065 ], [ -77.21855, 38.78962 ], [ -77.21878, 38.78887 ], [ -77.22015, 38.78888 ], [ -77.22034, 38.78837 ], [ -77.21986, 38.7875 ], [ -77.22034, 38.78683 ], [ -77.22126, 38.78741 ], [ -77.2226, 38.78715 ], [ -77.22222, 38.78596 ], [ -77.22014, 38.78615 ], [ -77.21804, 38.78542 ], [ -77.21726, 38.78406 ], [ -77.21642, 38.78433 ], [ -77.21599, 38.78409 ], [ -77.21605, 38.78351 ], [ -77.21522, 38.78332 ], [ -77.21511, 38.78194 ], [ -77.21382, 38.78175 ], [ -77.21313, 38.78117 ], [ -77.21329, 38.7802 ], [ -77.21112, 38.77986 ], [ -77.21129, 38.7791 ], [ -77.21229, 38.77908 ], [ -77.21309, 38.77802 ], [ -77.21135, 38.77883 ], [ -77.21049, 38.77881 ], [ -77.20955, 38.77728 ], [ -77.20996, 38.77675 ], [ -77.21096, 38.77644 ], [ -77.20885, 38.77685 ], [ -77.20783, 38.7763 ], [ -77.2078, 38.77583 ], [ -77.20818, 38.77553 ], [ -77.20921, 38.77577 ], [ -77.20947, 38.77453 ], [ -77.21206, 38.7746 ], [ -77.21873, 38.77716 ], [ -77.22087, 38.77916 ], [ -77.22596, 38.7801 ], [ -77.23215, 38.77883 ], [ -77.23131, 38.77631 ], [ -77.23223, 38.77604 ], [ -77.23312, 38.77677 ] ], [ [ -77.22553, 38.78591 ], [ -77.22423, 38.7861 ], [ -77.22352, 38.78557 ], [ -77.22394, 38.78689 ], [ -77.22573, 38.78692 ], [ -77.22599, 38.78665 ], [ -77.22553, 38.78591 ] ], [ [ -77.22309, 38.78345 ], [ -77.22611, 38.78303 ], [ -77.22609, 38.78213 ], [ -77.22677, 38.78159 ], [ -77.22744, 38.78206 ], [ -77.22915, 38.78204 ], [ -77.2287, 38.78084 ], [ -77.22551, 38.78116 ], [ -77.22266, 38.78054 ], [ -77.22032, 38.78216 ], [ -77.22163, 38.78255 ], [ -77.22226, 38.7821 ], [ -77.22275, 38.78225 ], [ -77.22309, 38.78345 ] ], [ [ -77.23282, 38.77996 ], [ -77.23017, 38.78052 ], [ -77.2304, 38.78124 ], [ -77.23315, 38.78057 ], [ -77.23282, 38.77996 ] ], [ [ -77.22965, 38.78326 ], [ -77.22948, 38.78311 ], [ -77.22898, 38.78312 ], [ -77.22965, 38.78326 ] ], [ [ -77.22245, 38.7896 ], [ -77.22237, 38.78933 ], [ -77.222, 38.7895 ], [ -77.22245, 38.7896 ] ], [ [ -77.22213, 38.78835 ], [ -77.22179, 38.78841 ], [ -77.22218, 38.78854 ], [ -77.22213, 38.78835 ] ], [ [ -77.21711, 38.78238 ], [ -77.21699, 38.78238 ], [ -77.21703, 38.78244 ], [ -77.21711, 38.78238 ] ], [ [ -77.21723, 38.78133 ], [ -77.21744, 38.78139 ], [ -77.2173, 38.78113 ], [ -77.21723, 38.78133 ] ], [ [ -77.21633, 38.77774 ], [ -77.2167, 38.77746 ], [ -77.2162, 38.77734 ], [ -77.21633, 38.77774 ] ], [ [ -77.22365, 38.78876 ], [ -77.22381, 38.78942 ], [ -77.22392, 38.7894 ], [ -77.22382, 38.7891 ], [ -77.22365, 38.78876 ] ], [ [ -77.21861, 38.7785 ], [ -77.21878, 38.77879 ], [ -77.21899, 38.77882 ], [ -77.21861, 38.7785 ] ], [ [ -77.22076, 38.78025 ], [ -77.22067, 38.78024 ], [ -77.22066, 38.78031 ], [ -77.22076, 38.78025 ] ], [ [ -77.21996, 38.78072 ], [ -77.21978, 38.78071 ], [ -77.21984, 38.78083 ], [ -77.21996, 38.78072 ] ], [ [ -77.21935, 38.78456 ], [ -77.21891, 38.78449 ], [ -77.21949, 38.78478 ], [ -77.21935, 38.78456 ] ], [ [ -77.22197, 38.78489 ], [ -77.22206, 38.78488 ], [ -77.22206, 38.78483 ], [ -77.22197, 38.78489 ] ], [ [ -77.22089, 38.78474 ], [ -77.22071, 38.78514 ], [ -77.22123, 38.78503 ], [ -77.22089, 38.78474 ] ], [ [ -77.21493, 38.77782 ], [ -77.21463, 38.77784 ], [ -77.21444, 38.77793 ], [ -77.21493, 38.77782 ] ], [ [ -77.2114, 38.7775 ], [ -77.21105, 38.77759 ], [ -77.2111, 38.77767 ], [ -77.2114, 38.7775 ] ], [ [ -77.21593, 38.78095 ], [ -77.21577, 38.78099 ], [ -77.21589, 38.78104 ], [ -77.21593, 38.78095 ] ], [ [ -77.21527, 38.77887 ], [ -77.21482, 38.77919 ], [ -77.21535, 38.77915 ], [ -77.21527, 38.77887 ] ] ] } },
{ "type": "Feature", "properties": { "variant": "T2s", "miles": 1.5 }, "geometry": { "type": "Polygon", "coordinates": [ [ [ -77.23933, 38.7733 ], [ -77.23986, 38.77313 ], [ -77.24082, 38.77361 ], [ -77.24147, 38.77463 ], [ -77.24293, 38.7748 ], [ -77.24383, 38.77578 ], [ -77.24471, 38.77578 ], [ -77.24493, 38.77616 ], [ -77.24325, 38.77778 ], [ -77.24137, 38.77843 ], [ -77.242, 38.77884 ], [ -77.24201, 38.77958 ], [ -77.23975, 38.7808 ], [ -77.23911, 38.78197 ], [ -77.23859, 38.78219 ], [ -77.23766, 38.78179 ], [ -77.23647, 38.7824 ], [ -77.23721, 38.78314 ], [ -77.23791, 38.78324 ], [ -77.23825, 38.78425 ], [ -77.23978, 38.78281 ], [ -77.24075, 38.78276 ], [ -77.24082, 38.78352 ], [ -77.239, 38.78524 ], [ -77.24095, 38.78854 ], [ -77.24005, 38.7891 ], [ -77.23924, 38.78849 ], [ -77.23846, 38.78872 ], [ -77.23784, 38.78971 ], [ -77.23668, 38.78945 ], [ -77.23579, 38.78999 ], [ -77.23492, 38.78962 ], [ -77.23474, 38.78998 ], [ -77.2356, 38.79015 ], [ -77.2357, 38.79055 ], [ -77.2352, 38.79109 ], [ -77.2357, 38.79184 ], [ -77.23504, 38.79268 ], [ -77.23337, 38.79227 ], [ -77.23285, 38.79283 ], [ -77.23183, 38.79239 ], [ -77.23092, 38.79276 ], [ -77.22986, 38.79224 ], [ -77.22975, 38.79182 ], [ -77.22929, 38.79229 ], [ -77.22846, 38.79192 ], [ -77.22775, 38.79229 ], [ -77.22681, 38.79156 ], [ -77.2241, 38.79152 ], [ -77.22387, 38.79052 ], [ -77.22058, 38.79097 ], [ -77.22072, 38.7901 ], [ -77.21861, 38.78976 ], [ -77.21683, 38.78888 ], [ -77.2154, 38.7874 ], [ -77.21393, 38.78654 ], [ -77.21395, 38.78613 ], [ -77.21457, 38.78483 ], [ -77.21539, 38.78451 ], [ -77.21595, 38.78514 ], [ -77.21546, 38.78609 ], [ -77.21636, 38.78542 ], [ -77.21688, 38.78545 ], [ -77.21709, 38.78631 ], [ -77.21806, 38.78664 ], [ -77.21757, 38.78796 ], [ -77.21851, 38.78703 ], [ -77.21948, 38.78696 ], [ -77.21973, 38.78732 ], [ -77.21919, 38.78809 ], [ -77.22, 38.78815 ], [ -77.22015, 38.78888 ], [ -77.21993, 38.78709 ], [ -77.22087, 38.78688 ], [ -77.22126, 38.78741 ], [ -77.2226, 38.78715 ], [ -77.22222, 38.78596 ], [ -77.22048, 38.78622 ], [ -77.21817, 38.7855 ], [ -77.21726, 38.78406 ], [ -77.21642, 38.78433 ], [ -77.21599, 38.78409 ], [ -77.21605, 38.78351 ], [ -77.21522, 38.78332 ], [ -77.21511, 38.78194 ], [ -77.21334, 38.78144 ], [ -77.21299, 38.78077 ], [ -77.21329, 38.7802 ], [ -77.21112, 38.77986 ], [ -77.21129, 38.7791 ], [ -77.21229, 38.77908 ], [ -77.21309, 38.77802 ], [ -77.21135, 38.77883 ], [ -77.21049, 38.77881 ], [ -77.20955, 38.77728 ], [ -77.20996, 38.77675 ], [ -77.21096, 38.77644 ], [ -77.209, 38.77689 ], [ -77.20785, 38.77648 ], [ -77.20661, 38.77667 ], [ -77.20589, 38.77614 ], [ -77.20585, 38.77514 ], [ -77.20407, 38.77566 ], [ -77.20452, 38.7765 ], [ -77.20435, 38.77717 ], [ -77.2034, 38.77719 ], [ -77.20311, 38.77753 ], [ -77.20215, 38.77738 ], [ -77.20117, 38.7759 ], [ -77.20243, 38.77513 ], [ -77.20246, 38.77387 ], [ -77.20323, 38.77336 ], [ -77.20463, 38.77346 ], [ -77.20489, 38.77423 ], [ -77.20637, 38.77393 ], [ -77.20934, 38.77476 ], [ -77.20996, 38.77439 ], [ -77.21188, 38.77456 ], [ -77.21873, 38.77716 ], [ -77.22087, 38.77916 ], [ -77.22192, 38.77954 ], [ -77.22224, 38.77895 ], [ -77.22138, 38.77896 ], [ -77.22117, 38.77827 ], [ -77.2217, 38.77772 ], [ -77.22276, 38.77746 ], [ -77.22362, 38.77867 ], [ -77.22656, 38.77995 ], [ -77.23215, 38.77883 ], [ -77.23138, 38.7769 ], [ -77.23052, 38.77683 ], [ -77.22982, 38.77721 ], [ -77.22878, 38.77657 ], [ -77.22822, 38.77556 ], [ -77.22889, 38.77495 ], [ -77.2308, 38.77489 ], [ -77.23131, 38.77132 ], [ -77.23058, 38.77037 ], [ -77.23131, 38.76949 ], [ -77.23178, 38.7693 ], [ -77.23289, 38.76978 ], [ -77.23405, 38.7692 ], [ -77.23496, 38.76948 ], [ -77.23497, 38.76989 ], [ -77.23425, 38.77031 ], [ -77.23438, 38.77113 ], [ -77.23347, 38.77124 ], [ -77.23346, 38.77208 ], [ -77.23886, 38.77245 ], [ -77.23933, 38.7733 ] ], [ [ -77.23385, 38.7881 ], [ -77.23352, 38.78747 ], [ -77.23417, 38.78676 ], [ -77.23191, 38.78616 ], [ -77.2319, 38.7854 ], [ -77.23271, 38.78519 ], [ -77.23246, 38.78466 ], [ -77.23118, 38.78464 ], [ -77.23117, 38.78711 ], [ -77.23385, 38.7881 ] ], [ [ -77.22967, 38.78606 ], [ -77.22912, 38.78603 ], [ -77.22881, 38.78682 ], [ -77.2283, 38.78694 ], [ -77.22773, 38.78645 ], [ -77.22686, 38.78627 ], [ -77.2266, 38.78654 ], [ -77.22705, 38.78722 ], [ -77.22784, 38.78733 ], [ -77.22967, 38.787 ], [ -77.22967, 38.78606 ] ], [ [ -77.22962, 38.78311 ], [ -77.22898, 38.78312 ], [ -77.22965, 38.78326 ], [ -77.22962, 38.78311 ] ], [ [ -77.23315, 38.78057 ], [ -77.23282, 38.77996 ], [ -77.23017, 38.78052 ], [ -77.2304, 38.78124 ], [ -77.23315, 38.78057 ] ], [ [ -77.23005, 38.776 ], [ -77.22997, 38.776 ], [ -77.23006, 38.77606 ], [ -77.23005, 38.776 ] ], [ [ -77.23378, 38.78156 ], [ -77.23085, 38.78226 ], [ -77.23114, 38.78314 ], [ -77.23249, 38.78264 ], [ -77.23302, 38.78269 ], [ -77.23331, 38.7833 ], [ -77.23493, 38.78284 ], [ -77.23378, 38.78156 ] ], [ [ -77.23671, 38.78098 ], [ -77.23627, 38.78013 ], [ -77.23668, 38.77928 ], [ -77.23433, 38.77964 ], [ -77.23549, 38.78142 ], [ -77.23671, 38.78098 ] ], [ [ -77.23491, 38.77487 ], [ -77.23481, 38.77476 ], [ -77.23469, 38.77489 ], [ -77.23491, 38.77487 ] ], [ [ -77.23603, 38.77342 ], [ -77.23555, 38.77313 ], [ -77.23527, 38.77407 ], [ -77.23603, 38.77342 ] ], [ [ -77.2384, 38.77992 ], [ -77.23775, 38.78024 ], [ -77.23789, 38.78041 ], [ -77.2384, 38.77992 ] ], [ [ -77.2362, 38.77685 ], [ -77.2359, 38.77711 ], [ -77.23679, 38.77701 ], [ -77.23689, 38.77677 ], [ -77.2362, 38.77685 ] ], [ [ -77.24049, 38.77659 ], [ -77.24058, 38.77626 ], [ -77.23984, 38.77437 ], [ -77.23906, 38.77456 ], [ -77.23759, 38.7742 ], [ -77.23761, 38.77459 ], [ -77.23661, 38.7751 ], [ -77.23659, 38.77572 ], [ -77.23859, 38.77486 ], [ -77.23909, 38.775 ], [ -77.23931, 38.77537 ], [ -77.23864, 38.77622 ], [ -77.24049, 38.77659 ] ], [ [ -77.24177, 38.77701 ], [ -77.24267, 38.77657 ], [ -77.2426, 38.7764 ], [ -77.24177, 38.77701 ] ], [ [ -77.23981, 38.77892 ], [ -77.23993, 38.77891 ], [ -77.23996, 38.77873 ], [ -77.23981, 38.77892 ] ], [ [ -77.2354, 38.78611 ], [ -77.23486, 38.78615 ], [ -77.23455, 38.78663 ], [ -77.23552, 38.78646 ], [ -77.2354, 38.78611 ] ], [ [ -77.23474, 38.78405 ], [ -77.23526, 38.7845 ], [ -77.23541, 38.78426 ], [ -77.23474, 38.78405 ] ], [ [ -77.23648, 38.78541 ], [ -77.23634, 38.78524 ], [ -77.23634, 38.78531 ], [ -77.23648, 38.78541 ] ], [ [ -77.23665, 38.78818 ], [ -77.23679, 38.78827 ], [ -77.23668, 38.78806 ], [ -77.23665, 38.78818 ] ], [ [ -77.23382, 38.78447 ], [ -77.23391, 38.78465 ], [ -77.23409, 38.7842 ], [ -77.23382, 38.78447 ] ], [ [ -77.23368, 38.77408 ], [ -77.23367, 38.77408 ], [ -77.2337, 38.77412 ], [ -77.23368, 38.77408 ] ], [ [ -77.2329, 38.77494 ], [ -77.23304, 38.77479 ], [ -77.23293, 38.77477 ], [ -77.2329, 38.77494 ] ], [ [ -77.23337, 38.77672 ], [ -77.23325, 38.77635 ], [ -77.2328, 38.77676 ], [ -77.23337, 38.77672 ] ], [ [ -77.22556, 38.78591 ], [ -77.22423, 38.7861 ], [ -77.22352, 38.78557 ], [ -77.22394, 38.78689 ], [ -77.22573, 38.78692 ], [ -77.22599, 38.78665 ], [ -77.22556, 38.78591 ] ], [ [ -77.22677, 38.78159 ], [ -77.22744, 38.78206 ], [ -77.22915, 38.78204 ], [ -77.2287, 38.78084 ], [ -77.22551, 38.78116 ], [ -77.22266, 38.78054 ], [ -77.22032, 38.78216 ], [ -77.22163, 38.78255 ], [ -77.22226, 38.7821 ], [ -77.22275, 38.78225 ], [ -77.22309, 38.78346 ], [ -77.22348, 38.78317 ], [ -77.22611, 38.78303 ], [ -77.22609, 38.78213 ], [ -77.22677, 38.78159 ] ], [ [ -77.22066, 38.78031 ], [ -77.22076, 38.78025 ], [ -77.22067, 38.78024 ], [ -77.22066, 38.78031 ] ], [ [ -77.2199, 38.78077 ], [ -77.21996, 38.78072 ], [ -77.21978, 38.78071 ], [ -77.2199, 38.78077 ] ], [ [ -77.21899, 38.77882 ], [ -77.21861, 38.7785 ], [ -77.21878, 38.77879 ], [ -77.21899, 38.77882 ] ], [ [ -77.22945, 38.79064 ], [ -77.22943, 38.79064 ], [ -77.22944, 38.79066 ], [ -77.22945, 38.79064 ] ], [ [ -77.22461, 38.78788 ], [ -77.22466, 38.78794 ], [ -77.22471, 38.78787 ], [ -77.22461, 38.78788 ] ], [ [ -77.22213, 38.78835 ], [ -77.22179, 38.78841 ], [ -77.22218, 38.78854 ], [ -77.22213, 38.78835 ] ], [ [ -77.22197, 38.78489 ], [ -77.22206, 38.78488 ], [ -77.22206, 38.78483 ], [ -77.22197, 38.78489 ] ], [ [ -77.22071, 38.78514 ], [ -77.22123, 38.78503 ], [ -77.22089, 38.78474 ], [ -77.22071, 38.78514 ] ], [ [ -77.21955, 38.78446 ], [ -77.21891, 38.78449 ], [ -77.21899, 38.78462 ], [ -77.21949, 38.78478 ], [ -77.21955, 38.78446 ] ], [ [ -77.22381, 38.78942 ], [ -77.22392, 38.7894 ], [ -77.22374, 38.78893 ], [ -77.22381, 38.78942 ] ], [ [ -77.22225, 38.78957 ], [ -77.22245, 38.7896 ], [ -77.22237, 38.78933 ], [ -77.22225, 38.78957 ] ], [ [ -77.21482, 38.77919 ], [ -77.21535, 38.77915 ], [ -77.21527, 38.77887 ], [ -77.21482, 38.77919 ] ], [ [ -77.21488, 38.77765 ], [ -77.21444, 38.77793 ], [ -77.21452, 38.77796 ], [ -77.21488, 38.77765 ] ], [ [ -77.20285, 38.77618 ], [ -77.2028, 38.7762 ], [ -77.20312, 38.77658 ], [ -77.20285, 38.77618 ] ], [ [ -77.21105, 38.77759 ], [ -77.2111, 38.77767 ], [ -77.2114, 38.7775 ], [ -77.21105, 38.77759 ] ], [ [ -77.21633, 38.77774 ], [ -77.21684, 38.77752 ], [ -77.2167, 38.77746 ], [ -77.2162, 38.77734 ], [ -77.21633, 38.77774 ] ], [ [ -77.21744, 38.78139 ], [ -77.2173, 38.78113 ], [ -77.21723, 38.78133 ], [ -77.21744, 38.78139 ] ], [ [ -77.21577, 38.78099 ], [ -77.21589, 38.78104 ], [ -77.21593, 38.78095 ], [ -77.21577, 38.78099 ] ], [ [ -77.21703, 38.78244 ], [ -77.21711, 38.78238 ], [ -77.21699, 38.78238 ], [ -77.21703, 38.78244 ] ] ] } }
]
}
