{
"type": "FeatureCollection",
"name": "160",
"crs": { "type": "name", "properties": { "name": "urn:ogc:def:crs:OGC:1.3:CRS84" } },
"xy_coordinate_resolution": 1e-05,
"features": [
{ "type": "Feature", "properties": { "variant": "T0", "miles": 1.0 }, "geometry": { "type": "Polygon", "coordinates": [ [ [ -77.17679, 38.77767 ], [ -77.17923, 38.77831 ], [ -77.17906, 38.77907 ], [ -77.17686, 38.77898 ], [ -77.17685, 38.77936 ], [ -77.17726, 38.77962 ], [ -77.17798, 38.77911 ], [ -77.17851, 38.77929 ], [ -77.17942, 38.78023 ], [ -77.17945, 38.78085 ], [ -77.18127, 38.78166 ], [ -77.18133, 38.78218 ], [ -77.18051, 38.78259 ], [ -77.1788, 38.78198 ], [ -77.17822, 38.78223 ], [ -77.17765, 38.78385 ], [ -77.17785, 38.78442 ], [ -77.17667, 38.78537 ], [ -77.17721, 38.78617 ], [ -77.17686, 38.78648 ], [ -77.17594, 38.78633 ], [ -77.17543, 38.78676 ], [ -77.17465, 38.78634 ], [ -77.17229, 38.78791 ], [ -77.17392, 38.78755 ], [ -77.17436, 38.78824 ], [ -77.17401, 38.78855 ], [ -77.17198, 38.78931 ], [ -77.17112, 38.78895 ], [ -77.17091, 38.78803 ], [ -77.1683, 38.78899 ], [ -77.16781, 38.78883 ], [ -77.16779, 38.78766 ], [ -77.1696, 38.78732 ], [ -77.16913, 38.7868 ], [ -77.1693, 38.78618 ], [ -77.16859, 38.78571 ], [ -77.16839, 38.78501 ], [ -77.16753, 38.78479 ], [ -77.16742, 38.78418 ], [ -77.16483, 38.78381 ], [ -77.16407, 38.78313 ], [ -77.16475, 38.78258 ], [ -77.16736, 38.78308 ], [ -77.16781, 38.78151 ], [ -77.16866, 38.78114 ], [ -77.16913, 38.78181 ], [ -77.16873, 38.78325 ], [ -77.17101, 38.78354 ], [ -77.17105, 38.78199 ], [ -77.17033, 38.78144 ], [ -77.17038, 38.77985 ], [ -77.16915, 38.78042 ], [ -77.16845, 38.77989 ], [ -77.16957, 38.7788 ], [ -77.17113, 38.77863 ], [ -77.16836, 38.77852 ], [ -77.16781, 38.78015 ], [ -77.16692, 38.78027 ], [ -77.16627, 38.7797 ], [ -77.16669, 38.77899 ], [ -77.16461, 38.77905 ], [ -77.16437, 38.77814 ], [ -77.16632, 38.77767 ], [ -77.16577, 38.77697 ], [ -77.16645, 38.77643 ], [ -77.16879, 38.77651 ], [ -77.16944, 38.77711 ], [ -77.17103, 38.77716 ], [ -77.17085, 38.77322 ], [ -77.17153, 38.77267 ], [ -77.17244, 38.7732 ], [ -77.17268, 38.77723 ], [ -77.17335, 38.77726 ], [ -77.17359, 38.7765 ], [ -77.17492, 38.77643 ], [ -77.17591, 38.77522 ], [ -77.17708, 38.77575 ], [ -77.17679, 38.77767 ] ], [ [ -77.17412, 38.78495 ], [ -77.17413, 38.78492 ], [ -77.17409, 38.78493 ], [ -77.17412, 38.78495 ] ], [ [ -77.17699, 38.7809 ], [ -77.17596, 38.78037 ], [ -77.17556, 38.78001 ], [ -77.17554, 38.78099 ], [ -77.17699, 38.7809 ] ], [ [ -77.17648, 38.78312 ], [ -77.17654, 38.78296 ], [ -77.17647, 38.78298 ], [ -77.17648, 38.78312 ] ], [ [ -77.17097, 38.78541 ], [ -77.17063, 38.78545 ], [ -77.17096, 38.78573 ], [ -77.17097, 38.78541 ] ] ] } },
{ "type": "Feature", "properties": { "variant": "T0", "miles": 1.5 }, "geometry": { "type": "Polygon", "coordinates": [ [ [ -77.18255, 38.7779 ], [ -77.1859, 38.77725 ], [ -77.18674, 38.77765 ], [ -77.18732, 38.78193 ], [ -77.18885, 38.78229 ], [ -77.1901, 38.78167 ], [ -77.19093, 38.78222 ], [ -77.18959, 38.78335 ], [ -77.18758, 38.78325 ], [ -77.18749, 38.78395 ], [ -77.18652, 38.78425 ], [ -77.18663, 38.78588 ], [ -77.18598, 38.78645 ], [ -77.18526, 38.78594 ], [ -77.18486, 38.78279 ], [ -77.18274, 38.7828 ], [ -77.1825, 38.78333 ], [ -77.18306, 38.78632 ], [ -77.18369, 38.78578 ], [ -77.18453, 38.78617 ], [ -77.18358, 38.78864 ], [ -77.1831, 38.78882 ], [ -77.1826, 38.78867 ], [ -77.18243, 38.78739 ], [ -77.18175, 38.78665 ], [ -77.17898, 38.78675 ], [ -77.17858, 38.78648 ], [ -77.17889, 38.78547 ], [ -77.18043, 38.78558 ], [ -77.18063, 38.78458 ], [ -77.18133, 38.78448 ], [ -77.18131, 38.78269 ], [ -77.18027, 38.78272 ], [ -77.1788, 38.78198 ], [ -77.17822, 38.78223 ], [ -77.17765, 38.78385 ], [ -77.17785, 38.78442 ], [ -77.17667, 38.78537 ], [ -77.17721, 38.78617 ], [ -77.17686, 38.78648 ], [ -77.17594, 38.78633 ], [ -77.17543, 38.78676 ], [ -77.17432, 38.78647 ], [ -77.17601, 38.78787 ], [ -77.17485, 38.78881 ], [ -77.17422, 38.78848 ], [ -77.17146, 38.78927 ], [ -77.17078, 38.78805 ], [ -77.16895, 38.78857 ], [ -77.16667, 38.79004 ], [ -77.16276, 38.7909 ], [ -77.16127, 38.79021 ], [ -77.16137, 38.78895 ], [ -77.16176, 38.78831 ], [ -77.16244, 38.78827 ], [ -77.16385, 38.78734 ], [ -77.16354, 38.78708 ], [ -77.16259, 38.78687 ], [ -77.16181, 38.78721 ], [ -77.16137, 38.7869 ], [ -77.16048, 38.78727 ], [ -77.15959, 38.78619 ], [ -77.16026, 38.78488 ], [ -77.15976, 38.78488 ], [ -77.15945, 38.78599 ], [ -77.15848, 38.78608 ], [ -77.15767, 38.78683 ], [ -77.15718, 38.78668 ], [ -77.15725, 38.78511 ], [ -77.15639, 38.7845 ], [ -77.15742, 38.78404 ], [ -77.15785, 38.78128 ], [ -77.157, 38.7814 ], [ -77.15683, 38.78059 ], [ -77.15568, 38.7806 ], [ -77.15553, 38.77972 ], [ -77.15662, 38.77937 ], [ -77.15711, 38.77857 ], [ -77.15676, 38.77808 ], [ -77.15783, 38.77706 ], [ -77.15976, 38.77725 ], [ -77.16052, 38.77866 ], [ -77.1601, 38.77667 ], [ -77.16075, 38.7761 ], [ -77.16153, 38.77652 ], [ -77.16183, 38.77811 ], [ -77.16189, 38.77686 ], [ -77.16092, 38.77565 ], [ -77.16114, 38.7737 ], [ -77.16181, 38.77314 ], [ -77.16513, 38.77302 ], [ -77.16569, 38.76925 ], [ -77.17022, 38.76926 ], [ -77.17038, 38.76866 ], [ -77.16932, 38.76872 ], [ -77.16749, 38.76813 ], [ -77.1673, 38.76716 ], [ -77.16785, 38.76658 ], [ -77.17186, 38.76632 ], [ -77.17257, 38.7671 ], [ -77.17225, 38.76823 ], [ -77.17351, 38.76826 ], [ -77.17382, 38.76859 ], [ -77.17332, 38.76935 ], [ -77.17185, 38.76943 ], [ -77.1765, 38.77008 ], [ -77.17692, 38.77034 ], [ -77.17687, 38.77117 ], [ -77.1798, 38.77175 ], [ -77.18146, 38.76995 ], [ -77.18243, 38.76993 ], [ -77.18264, 38.77056 ], [ -77.18223, 38.77141 ], [ -77.17914, 38.77425 ], [ -77.17914, 38.7776 ], [ -77.17929, 38.77791 ], [ -77.18253, 38.7784 ], [ -77.18255, 38.7779 ] ], [ [ -77.17412, 38.78495 ], [ -77.17413, 38.78492 ], [ -77.17409, 38.78493 ], [ -77.17412, 38.78495 ] ], [ [ -77.17078, 38.77608 ], [ -77.17079, 38.77255 ], [ -77.16982, 38.77193 ], [ -77.16944, 38.77711 ], [ -77.17003, 38.77631 ], [ -77.17078, 38.77608 ] ], [ [ -77.16959, 38.76766 ], [ -77.17117, 38.76729 ], [ -77.16893, 38.76752 ], [ -77.16959, 38.76766 ] ], [ [ -77.18192, 38.78114 ], [ -77.18152, 38.7811 ], [ -77.18138, 38.78151 ], [ -77.18188, 38.78156 ], [ -77.18192, 38.78114 ] ], [ [ -77.18052, 38.78025 ], [ -77.18244, 38.7801 ], [ -77.18246, 38.77995 ], [ -77.18158, 38.77949 ], [ -77.17686, 38.77898 ], [ -77.17726, 38.77962 ], [ -77.17798, 38.77911 ], [ -77.17851, 38.77929 ], [ -77.17942, 38.78023 ], [ -77.17945, 38.78085 ], [ -77.18007, 38.78118 ], [ -77.18052, 38.78025 ] ], [ [ -77.17692, 38.78087 ], [ -77.17596, 38.78037 ], [ -77.17556, 38.78001 ], [ -77.17554, 38.78099 ], [ -77.17692, 38.78087 ] ], [ [ -77.17717, 38.77429 ], [ -77.17707, 38.77326 ], [ -77.17508, 38.77244 ], [ -77.17301, 38.77217 ], [ -77.17268, 38.77363 ], [ -77.17339, 38.77452 ], [ -77.17293, 38.77633 ], [ -77.17492, 38.77643 ], [ -77.17551, 38.77542 ], [ -77.17717, 38.77429 ] ], [ [ -77.18326, 38.78175 ], [ -77.18461, 38.78173 ], [ -77.18451, 38.78139 ], [ -77.1835, 38.78129 ], [ -77.18326, 38.78175 ] ], [ [ -77.17777, 38.77758 ], [ -77.1778, 38.77556 ], [ -77.17705, 38.77638 ], [ -77.17695, 38.77753 ], [ -77.17777, 38.77758 ] ], [ [ -77.17839, 38.77272 ], [ -77.17852, 38.77296 ], [ -77.17869, 38.77278 ], [ -77.17839, 38.77272 ] ], [ [ -77.17654, 38.78296 ], [ -77.17648, 38.7831 ], [ -77.17648, 38.78312 ], [ -77.17654, 38.78296 ] ], [ [ -77.16584, 38.78912 ], [ -77.1659, 38.78911 ], [ -77.1658, 38.78905 ], [ -77.16584, 38.78912 ] ], [ [ -77.16579, 38.78902 ], [ -77.1658, 38.78904 ], [ -77.16581, 38.78903 ], [ -77.16579, 38.78902 ] ], [ [ -77.16716, 38.78492 ], [ -77.16739, 38.78537 ], [ -77.16838, 38.78572 ], [ -77.16844, 38.78613 ], [ -77.16746, 38.78648 ], [ -77.16757, 38.78679 ], [ -77.16861, 38.78692 ], [ -77.16859, 38.78749 ], [ -77.1696, 38.78732 ], [ -77.16913, 38.7868 ], [ -77.1693, 38.78618 ], [ -77.16859, 38.78571 ], [ -77.16839, 38.78501 ], [ -77.16753, 38.78479 ], [ -77.16742, 38.78418 ], [ -77.16381, 38.78375 ], [ -77.16539, 38.78474 ], [ -77.16716, 38.78492 ] ], [ [ -77.16644, 38.7826 ], [ -77.16814, 38.78118 ], [ -77.16866, 38.78114 ], [ -77.16913, 38.78181 ], [ -77.16873, 38.78325 ], [ -77.17101, 38.78354 ], [ -77.17105, 38.78199 ], [ -77.17033, 38.78144 ], [ -77.17038, 38.77985 ], [ -77.16915, 38.78042 ], [ -77.16845, 38.77989 ], [ -77.16957, 38.7788 ], [ -77.17113, 38.77863 ], [ -77.16874, 38.77843 ], [ -77.16809, 38.77869 ], [ -77.16803, 38.77977 ], [ -77.1673, 38.78088 ], [ -77.16556, 38.78108 ], [ -77.16644, 38.7826 ] ], [ [ -77.16629, 38.77974 ], [ -77.1655, 38.77982 ], [ -77.16642, 38.78004 ], [ -77.16629, 38.77974 ] ], [ [ -77.16668, 38.77928 ], [ -77.16644, 38.77903 ], [ -77.16655, 38.77932 ], [ -77.16668, 38.77928 ] ], [ [ -77.16537, 38.77782 ], [ -77.16629, 38.77756 ], [ -77.16535, 38.77775 ], [ -77.16537, 38.77782 ] ], [ [ -77.16411, 38.77802 ], [ -77.16427, 38.77688 ], [ -77.16329, 38.77706 ], [ -77.16321, 38.77817 ], [ -77.16411, 38.77802 ] ], [ [ -77.16279, 38.77426 ], [ -77.16303, 38.77511 ], [ -77.16297, 38.776 ], [ -77.16332, 38.77428 ], [ -77.16279, 38.77426 ] ], [ [ -77.17097, 38.78538 ], [ -77.17083, 38.7856 ], [ -77.17096, 38.78573 ], [ -77.17097, 38.78538 ] ], [ [ -77.17264, 38.7878 ], [ -77.17229, 38.78801 ], [ -77.17284, 38.78772 ], [ -77.17264, 38.7878 ] ], [ [ -77.16584, 38.77654 ], [ -77.16689, 38.77509 ], [ -77.16669, 38.77389 ], [ -77.16584, 38.77654 ] ], [ [ -77.16663, 38.77151 ], [ -77.16657, 38.77219 ], [ -77.16653, 38.77281 ], [ -77.16676, 38.77278 ], [ -77.16663, 38.77151 ] ], [ [ -77.16675, 38.77043 ], [ -77.16855, 38.77043 ], [ -77.16851, 38.77017 ], [ -77.16679, 38.77017 ], [ -77.16675, 38.77043 ] ], [ [ -77.16808, 38.77371 ], [ -77.16822, 38.77463 ], [ -77.1683, 38.77372 ], [ -77.16808, 38.77371 ] ], [ [ -77.16847, 38.77151 ], [ -77.16816, 38.77263 ], [ -77.16838, 38.77264 ], [ -77.16847, 38.77151 ] ], [ [ -77.16816, 38.77557 ], [ -77.1677, 38.77622 ], [ -77.16764, 38.77646 ], [ -77.1681, 38.77648 ], [ -77.16816, 38.77557 ] ], [ [ -77.16672, 38.78822 ], [ -77.16716, 38.78849 ], [ -77.16728, 38.78845 ], [ -77.16672, 38.78822 ] ], [ [ -77.1646, 38.77572 ], [ -77.16496, 38.77566 ], [ -77.16506, 38.77414 ], [ -77.16471, 38.77419 ], [ -77.1646, 38.77572 ] ], [ [ -77.16296, 38.78966 ], [ -77.16395, 38.78939 ], [ -77.1639, 38.78884 ], [ -77.16288, 38.78905 ], [ -77.16296, 38.78966 ] ], [ [ -77.16244, 38.78569 ], [ -77.16228, 38.78573 ], [ -77.16247, 38.78584 ], [ -77.16244, 38.78569 ] ], [ [ -77.16241, 38.78372 ], [ -77.16196, 38.78344 ], [ -77.16195, 38.78364 ], [ -77.16241, 38.78372 ] ], [ [ -77.1629, 38.78227 ], [ -77.16224, 38.78167 ], [ -77.16297, 38.7812 ], [ -77.16299, 38.77946 ], [ -77.15953, 38.78013 ], [ -77.15919, 38.78176 ], [ -77.16114, 38.78177 ], [ -77.16177, 38.78243 ], [ -77.1629, 38.78227 ] ], [ [ -77.1644, 38.78561 ], [ -77.16451, 38.78558 ], [ -77.16443, 38.78553 ], [ -77.1644, 38.78561 ] ], [ [ -77.16431, 38.77983 ], [ -77.16485, 38.7795 ], [ -77.16471, 38.77919 ], [ -77.16443, 38.77924 ], [ -77.16431, 38.77983 ] ], [ [ -77.16494, 38.78668 ], [ -77.16494, 38.78656 ], [ -77.16487, 38.78661 ], [ -77.16494, 38.78668 ] ], [ [ -77.16, 38.78373 ], [ -77.16056, 38.7838 ], [ -77.16057, 38.78363 ], [ -77.16, 38.78373 ] ] ] } },
{ "type": "Feature", "properties": { "variant": "T0", "miles": 2.0 }, "geometry": { "type": "Polygon", "coordinates": [ [ [ -77.18965, 38.77281 ], [ -77.19038, 38.77325 ], [ -77.19026, 38.77408 ], [ -77.19171, 38.77405 ], [ -77.19199, 38.7744 ], [ -77.19142, 38.77502 ], [ -77.18995, 38.77521 ], [ -77.18972, 38.77605 ], [ -77.19029, 38.77649 ], [ -77.18967, 38.77716 ], [ -77.18971, 38.77792 ], [ -77.19301, 38.77735 ], [ -77.1929, 38.77662 ], [ -77.19356, 38.77606 ], [ -77.1943, 38.77678 ], [ -77.19509, 38.77623 ], [ -77.19626, 38.77625 ], [ -77.19664, 38.77695 ], [ -77.19548, 38.77783 ], [ -77.19554, 38.78076 ], [ -77.19426, 38.78465 ], [ -77.1949, 38.78472 ], [ -77.19521, 38.78586 ], [ -77.19463, 38.78643 ], [ -77.19325, 38.78661 ], [ -77.19415, 38.7882 ], [ -77.19407, 38.78884 ], [ -77.19019, 38.78948 ], [ -77.19011, 38.79135 ], [ -77.18934, 38.79179 ], [ -77.18761, 38.79166 ], [ -77.18686, 38.79397 ], [ -77.18579, 38.79386 ], [ -77.18592, 38.79154 ], [ -77.1849, 38.79167 ], [ -77.18431, 38.79344 ], [ -77.18363, 38.79399 ], [ -77.17964, 38.79201 ], [ -77.17855, 38.79088 ], [ -77.1776, 38.78902 ], [ -77.17806, 38.78769 ], [ -77.17954, 38.78716 ], [ -77.17944, 38.78673 ], [ -77.17858, 38.78648 ], [ -77.17924, 38.78538 ], [ -77.17907, 38.78417 ], [ -77.17967, 38.78237 ], [ -77.1788, 38.78198 ], [ -77.17822, 38.78223 ], [ -77.17765, 38.78385 ], [ -77.17785, 38.78442 ], [ -77.17667, 38.78537 ], [ -77.17721, 38.78617 ], [ -77.17686, 38.78648 ], [ -77.17594, 38.78633 ], [ -77.17543, 38.78676 ], [ -77.17432, 38.78647 ], [ -77.17587, 38.78747 ], [ -77.17601, 38.78787 ], [ -77.17533, 38.78863 ], [ -77.17485, 38.78881 ], [ -77.17422, 38.78848 ], [ -77.17146, 38.78927 ], [ -77.17078, 38.78805 ], [ -77.16895, 38.78857 ], [ -77.16667, 38.79004 ], [ -77.1632, 38.79091 ], [ -77.16127, 38.7902 ], [ -77.16112, 38.78764 ], [ -77.15959, 38.78619 ], [ -77.16026, 38.78488 ], [ -77.15976, 38.78488 ], [ -77.15945, 38.78599 ], [ -77.15848, 38.78608 ], [ -77.15815, 38.78667 ], [ -77.15746, 38.78677 ], [ -77.15784, 38.78849 ], [ -77.1587, 38.78884 ], [ -77.15869, 38.78933 ], [ -77.1576, 38.78969 ], [ -77.15674, 38.78938 ], [ -77.15603, 38.78717 ], [ -77.15683, 38.78059 ], [ -77.15593, 38.78124 ], [ -77.15522, 38.78616 ], [ -77.15482, 38.78644 ], [ -77.15386, 38.78594 ], [ -77.15401, 38.78398 ], [ -77.15298, 38.78429 ], [ -77.15232, 38.78411 ], [ -77.15244, 38.78485 ], [ -77.15205, 38.78513 ], [ -77.15117, 38.7848 ], [ -77.15034, 38.78194 ], [ -77.14971, 38.78206 ], [ -77.14987, 38.78328 ], [ -77.14923, 38.78386 ], [ -77.14824, 38.78338 ], [ -77.14836, 38.78231 ], [ -77.14689, 38.78262 ], [ -77.14603, 38.78225 ], [ -77.14609, 38.78184 ], [ -77.14767, 38.78119 ], [ -77.1486, 38.77895 ], [ -77.14968, 38.77918 ], [ -77.15007, 38.77894 ], [ -77.14944, 38.77773 ], [ -77.14968, 38.77736 ], [ -77.15038, 38.7773 ], [ -77.15038, 38.77667 ], [ -77.15351, 38.77651 ], [ -77.15441, 38.77679 ], [ -77.15481, 38.7756 ], [ -77.15438, 38.77509 ], [ -77.15461, 38.77437 ], [ -77.1538, 38.77361 ], [ -77.15397, 38.77322 ], [ -77.15494, 38.77318 ], [ -77.15751, 38.77529 ], [ -77.15775, 38.77436 ], [ -77.15894, 38.77442 ], [ -77.1587, 38.77344 ], [ -77.15976, 38.77239 ], [ -77.16052, 38.77281 ], [ -77.16175, 38.77264 ], [ -77.16239, 38.77315 ], [ -77.16341, 38.7732 ], [ -77.16344, 38.76956 ], [ -77.16397, 38.76913 ], [ -77.16556, 38.76902 ], [ -77.16487, 38.76871 ], [ -77.16462, 38.7681 ], [ -77.16154, 38.76707 ], [ -77.16211, 38.76624 ], [ -77.16564, 38.76724 ], [ -77.16821, 38.76639 ], [ -77.17135, 38.76611 ], [ -77.17238, 38.7667 ], [ -77.17266, 38.76786 ], [ -77.17327, 38.76657 ], [ -77.17456, 38.76567 ], [ -77.17748, 38.76802 ], [ -77.18127, 38.77019 ], [ -77.18176, 38.76524 ], [ -77.1809, 38.76505 ], [ -77.18072, 38.76466 ], [ -77.18144, 38.76415 ], [ -77.18299, 38.76436 ], [ -77.1826, 38.77075 ], [ -77.17914, 38.77425 ], [ -77.17929, 38.77791 ], [ -77.18247, 38.77839 ], [ -77.18188, 38.77463 ], [ -77.18225, 38.77294 ], [ -77.18275, 38.77254 ], [ -77.18235, 38.77203 ], [ -77.18251, 38.77102 ], [ -77.18326, 38.77057 ], [ -77.18348, 38.76899 ], [ -77.18465, 38.769 ], [ -77.18482, 38.77017 ], [ -77.1858, 38.77021 ], [ -77.18611, 38.77054 ], [ -77.18561, 38.7712 ], [ -77.1848, 38.77125 ], [ -77.18475, 38.77233 ], [ -77.18848, 38.77194 ], [ -77.18917, 38.77248 ], [ -77.18885, 38.7729 ], [ -77.18965, 38.77281 ] ], [ [ -77.17554, 38.78099 ], [ -77.17699, 38.7809 ], [ -77.17556, 38.78001 ], [ -77.17554, 38.78099 ] ], [ [ -77.17078, 38.77608 ], [ -77.17079, 38.77255 ], [ -77.16982, 38.77193 ], [ -77.16944, 38.77711 ], [ -77.17003, 38.77631 ], [ -77.17078, 38.77608 ] ], [ [ -77.17185, 38.76943 ], [ -77.17268, 38.76947 ], [ -77.1719, 38.76928 ], [ -77.17185, 38.76943 ] ], [ [ -77.17108, 38.76752 ], [ -77.17094, 38.76731 ], [ -77.16893, 38.76752 ], [ -77.17108, 38.76752 ] ], [ [ -77.18522, 38.79053 ], [ -77.18524, 38.79049 ], [ -77.18519, 38.79053 ], [ -77.18522, 38.79053 ] ], [ [ -77.18429, 38.78682 ], [ -77.1843, 38.78683 ], [ -77.1843, 38.7868 ], [ -77.18429, 38.78682 ] ], [ [ -77.18506, 38.78371 ], [ -77.18486, 38.78279 ], [ -77.18274, 38.7828 ], [ -77.1825, 38.7833 ], [ -77.18276, 38.78453 ], [ -77.18323, 38.78416 ], [ -77.18384, 38.78434 ], [ -77.18446, 38.78356 ], [ -77.18506, 38.78371 ] ], [ [ -77.18461, 38.78173 ], [ -77.1835, 38.78129 ], [ -77.18326, 38.78175 ], [ -77.18461, 38.78173 ] ], [ [ -77.18465, 38.77412 ], [ -77.18668, 38.77383 ], [ -77.18712, 38.77368 ], [ -77.18465, 38.77412 ] ], [ [ -77.1879, 38.78522 ], [ -77.18788, 38.7852 ], [ -77.18788, 38.78522 ], [ -77.1879, 38.78522 ] ], [ [ -77.18863, 38.78414 ], [ -77.18893, 38.78372 ], [ -77.1877, 38.7841 ], [ -77.18773, 38.78429 ], [ -77.18863, 38.78414 ] ], [ [ -77.18852, 38.78119 ], [ -77.18903, 38.77975 ], [ -77.18833, 38.7794 ], [ -77.18843, 38.78029 ], [ -77.18785, 38.78113 ], [ -77.18852, 38.78119 ] ], [ [ -77.18833, 38.77813 ], [ -77.18827, 38.77678 ], [ -77.18717, 38.77652 ], [ -77.18703, 38.77487 ], [ -77.18509, 38.77515 ], [ -77.18696, 38.77834 ], [ -77.18833, 38.77813 ] ], [ [ -77.1885, 38.77531 ], [ -77.18841, 38.77507 ], [ -77.18843, 38.77557 ], [ -77.1885, 38.77531 ] ], [ [ -77.19272, 38.78219 ], [ -77.19272, 38.7822 ], [ -77.19273, 38.78217 ], [ -77.19272, 38.78219 ] ], [ [ -77.18838, 38.77302 ], [ -77.18833, 38.77302 ], [ -77.18833, 38.77304 ], [ -77.18838, 38.77302 ] ], [ [ -77.1909, 38.77899 ], [ -77.19019, 38.77912 ], [ -77.18997, 38.78153 ], [ -77.19081, 38.78008 ], [ -77.1909, 38.77899 ] ], [ [ -77.18981, 38.78455 ], [ -77.18971, 38.78461 ], [ -77.18991, 38.78466 ], [ -77.18981, 38.78455 ] ], [ [ -77.19123, 38.78821 ], [ -77.19152, 38.78818 ], [ -77.19129, 38.78791 ], [ -77.19123, 38.78821 ] ], [ [ -77.18688, 38.78012 ], [ -77.18697, 38.7796 ], [ -77.18675, 38.77963 ], [ -77.18688, 38.78012 ] ], [ [ -77.1824, 38.7875 ], [ -77.18175, 38.78665 ], [ -77.18111, 38.78666 ], [ -77.1824, 38.7875 ] ], [ [ -77.18133, 38.78448 ], [ -77.18131, 38.78269 ], [ -77.181, 38.78266 ], [ -77.18052, 38.78479 ], [ -77.18133, 38.78448 ] ], [ [ -77.18188, 38.78156 ], [ -77.18208, 38.78116 ], [ -77.18152, 38.7811 ], [ -77.18138, 38.78151 ], [ -77.18188, 38.78156 ] ], [ [ -77.18086, 38.78007 ], [ -77.18244, 38.7801 ], [ -77.18246, 38.77995 ], [ -77.18158, 38.77949 ], [ -77.17686, 38.77898 ], [ -77.17726, 38.77962 ], [ -77.17798, 38.77911 ], [ -77.17851, 38.77929 ], [ -77.17942, 38.78023 ], [ -77.17945, 38.78085 ], [ -77.18007, 38.78118 ], [ -77.18086, 38.78007 ] ], [ [ -77.17777, 38.77758 ], [ -77.1778, 38.77556 ], [ -77.17705, 38.77638 ], [ -77.17695, 38.77753 ], [ -77.17777, 38.77758 ] ], [ [ -77.17717, 38.77429 ], [ -77.17707, 38.77326 ], [ -77.17508, 38.77244 ], [ -77.17301, 38.77217 ], [ -77.17268, 38.77363 ], [ -77.17339, 38.77452 ], [ -77.17293, 38.77633 ], [ -77.17492, 38.77643 ], [ -77.17551, 38.77542 ], [ -77.17717, 38.77429 ] ], [ [ -77.17381, 38.76867 ], [ -77.17522, 38.76912 ], [ -77.17675, 38.76936 ], [ -77.17518, 38.76816 ], [ -77.17413, 38.76782 ], [ -77.17381, 38.76867 ] ], [ [ -77.18056, 38.77115 ], [ -77.17694, 38.7705 ], [ -77.17667, 38.77105 ], [ -77.1798, 38.77175 ], [ -77.18056, 38.77115 ] ], [ [ -77.17839, 38.77272 ], [ -77.17852, 38.77296 ], [ -77.17869, 38.77278 ], [ -77.17839, 38.77272 ] ], [ [ -77.18079, 38.78775 ], [ -77.18077, 38.78771 ], [ -77.18075, 38.78776 ], [ -77.18079, 38.78775 ] ], [ [ -77.17648, 38.78312 ], [ -77.17654, 38.78296 ], [ -77.17647, 38.78298 ], [ -77.17648, 38.78312 ] ], [ [ -77.18011, 38.79075 ], [ -77.18007, 38.79066 ], [ -77.17999, 38.79062 ], [ -77.18011, 38.79075 ] ], [ [ -77.16584, 38.78912 ], [ -77.1659, 38.78911 ], [ -77.1658, 38.78905 ], [ -77.16584, 38.78912 ] ], [ [ -77.16579, 38.78902 ], [ -77.1658, 38.78904 ], [ -77.16581, 38.78903 ], [ -77.16579, 38.78902 ] ], [ [ -77.16451, 38.78558 ], [ -77.16443, 38.78553 ], [ -77.1644, 38.78561 ], [ -77.16451, 38.78558 ] ], [ [ -77.16196, 38.78344 ], [ -77.16241, 38.78372 ], [ -77.16247, 38.7835 ], [ -77.16196, 38.78344 ] ], [ [ -77.16279, 38.78245 ], [ -77.16224, 38.78167 ], [ -77.16297, 38.7812 ], [ -77.16299, 38.77946 ], [ -77.16033, 38.77996 ], [ -77.16022, 38.78172 ], [ -77.16114, 38.78177 ], [ -77.16177, 38.78243 ], [ -77.16279, 38.78245 ] ], [ [ -77.16183, 38.77809 ], [ -77.16158, 38.77638 ], [ -77.16183, 38.77811 ], [ -77.16183, 38.77809 ] ], [ [ -77.17284, 38.7878 ], [ -77.17229, 38.78791 ], [ -77.17229, 38.78801 ], [ -77.17284, 38.7878 ] ], [ [ -77.17052, 38.78182 ], [ -77.17038, 38.77985 ], [ -77.16915, 38.78042 ], [ -77.16845, 38.77989 ], [ -77.16957, 38.7788 ], [ -77.17113, 38.77863 ], [ -77.16836, 38.77852 ], [ -77.1673, 38.78088 ], [ -77.16556, 38.78108 ], [ -77.16619, 38.78174 ], [ -77.16627, 38.78268 ], [ -77.16814, 38.78118 ], [ -77.16866, 38.78114 ], [ -77.16913, 38.78181 ], [ -77.16873, 38.78325 ], [ -77.17101, 38.78354 ], [ -77.17105, 38.78199 ], [ -77.17052, 38.78182 ] ], [ [ -77.16632, 38.77767 ], [ -77.16535, 38.77775 ], [ -77.16537, 38.77782 ], [ -77.16632, 38.77767 ] ], [ [ -77.16584, 38.77654 ], [ -77.16689, 38.77509 ], [ -77.16669, 38.77389 ], [ -77.16584, 38.77654 ] ], [ [ -77.16525, 38.77149 ], [ -77.16484, 38.77147 ], [ -77.1648, 38.77307 ], [ -77.16513, 38.77302 ], [ -77.16525, 38.77149 ] ], [ [ -77.16477, 38.77017 ], [ -77.16537, 38.77041 ], [ -77.1654, 38.77016 ], [ -77.16477, 38.77017 ] ], [ [ -77.17412, 38.78495 ], [ -77.17413, 38.78492 ], [ -77.17409, 38.78493 ], [ -77.17412, 38.78495 ] ], [ [ -77.16816, 38.77263 ], [ -77.16847, 38.77151 ], [ -77.16823, 38.77151 ], [ -77.16816, 38.77263 ] ], [ [ -77.16676, 38.77278 ], [ -77.16663, 38.77151 ], [ -77.16653, 38.77281 ], [ -77.16676, 38.77278 ] ], [ [ -77.1701, 38.76877 ], [ -77.16683, 38.7682 ], [ -77.16669, 38.76857 ], [ -77.16694, 38.76909 ], [ -77.1695, 38.76932 ], [ -77.17022, 38.76926 ], [ -77.1701, 38.76877 ] ], [ [ -77.16675, 38.77043 ], [ -77.16855, 38.77043 ], [ -77.16851, 38.77017 ], [ -77.16679, 38.77017 ], [ -77.16675, 38.77043 ] ], [ [ -77.16816, 38.77557 ], [ -77.1677, 38.77622 ], [ -77.16764, 38.77646 ], [ -77.1681, 38.77648 ], [ -77.16816, 38.77557 ] ], [ [ -77.16808, 38.77371 ], [ -77.16822, 38.77463 ], [ -77.1683, 38.77372 ], [ -77.16808, 38.77371 ] ], [ [ -77.16558, 38.77997 ], [ -77.16605, 38.78004 ], [ -77.16642, 38.78004 ], [ -77.16629, 38.77974 ], [ -77.16558, 38.77997 ] ], [ [ -77.16644, 38.77903 ], [ -77.16668, 38.77928 ], [ -77.16669, 38.77899 ], [ -77.16644, 38.77903 ] ], [ [ -77.16674, 38.78475 ], [ -77.16838, 38.78572 ], [ -77.16844, 38.78613 ], [ -77.16746, 38.78648 ], [ -77.16757, 38.78679 ], [ -77.16861, 38.78692 ], [ -77.16859, 38.78749 ], [ -77.1696, 38.78732 ], [ -77.16913, 38.7868 ], [ -77.1693, 38.78618 ], [ -77.16859, 38.78571 ], [ -77.16839, 38.78501 ], [ -77.16753, 38.78479 ], [ -77.16742, 38.78418 ], [ -77.16381, 38.78375 ], [ -77.16539, 38.78474 ], [ -77.16674, 38.78475 ] ], [ [ -77.17077, 38.78554 ], [ -77.17097, 38.78538 ], [ -77.17063, 38.78545 ], [ -77.17077, 38.78554 ] ], [ [ -77.16695, 38.78838 ], [ -77.16728, 38.78845 ], [ -77.16672, 38.78822 ], [ -77.16695, 38.78838 ] ], [ [ -77.1646, 38.77572 ], [ -77.16496, 38.77566 ], [ -77.16506, 38.77414 ], [ -77.16471, 38.77419 ], [ -77.1646, 38.77572 ] ], [ [ -77.16274, 38.77435 ], [ -77.16303, 38.77511 ], [ -77.16297, 38.776 ], [ -77.16332, 38.77428 ], [ -77.16274, 38.77435 ] ], [ [ -77.16321, 38.77817 ], [ -77.16411, 38.77802 ], [ -77.16388, 38.77735 ], [ -77.16427, 38.77688 ], [ -77.16329, 38.77706 ], [ -77.16321, 38.77817 ] ], [ [ -77.16485, 38.7795 ], [ -77.16443, 38.77924 ], [ -77.16431, 38.77983 ], [ -77.16444, 38.77962 ], [ -77.16485, 38.7795 ] ], [ [ -77.16251, 38.7876 ], [ -77.16385, 38.78734 ], [ -77.16259, 38.78687 ], [ -77.16251, 38.7876 ] ], [ [ -77.16376, 38.78889 ], [ -77.16283, 38.78915 ], [ -77.16284, 38.78975 ], [ -77.16395, 38.78939 ], [ -77.16376, 38.78889 ] ], [ [ -77.16487, 38.78661 ], [ -77.16494, 38.78668 ], [ -77.16494, 38.78656 ], [ -77.16487, 38.78661 ] ], [ [ -77.16244, 38.78569 ], [ -77.16228, 38.78573 ], [ -77.16247, 38.78584 ], [ -77.16244, 38.78569 ] ], [ [ -77.16036, 38.77728 ], [ -77.15984, 38.77735 ], [ -77.16031, 38.77871 ], [ -77.16052, 38.77866 ], [ -77.16036, 38.77728 ] ], [ [ -77.15708, 38.77861 ], [ -77.15711, 38.77857 ], [ -77.15709, 38.77857 ], [ -77.15708, 38.77861 ] ], [ [ -77.15726, 38.77762 ], [ -77.15725, 38.77767 ], [ -77.15734, 38.77765 ], [ -77.15726, 38.77762 ] ], [ [ -77.16056, 38.7838 ], [ -77.16, 38.78373 ], [ -77.16, 38.78378 ], [ -77.16056, 38.7838 ] ], [ [ -77.15414, 38.78106 ], [ -77.15168, 38.78166 ], [ -77.15219, 38.78297 ], [ -77.15426, 38.7829 ], [ -77.15398, 38.78171 ], [ -77.15444, 38.7813 ], [ -77.15414, 38.78106 ] ], [ [ -77.15098, 38.77975 ], [ -77.15052, 38.78004 ], [ -77.15102, 38.78052 ], [ -77.15156, 38.7804 ], [ -77.15098, 38.77975 ] ], [ [ -77.14955, 38.78082 ], [ -77.14898, 38.78083 ], [ -77.14901, 38.78092 ], [ -77.14955, 38.78082 ] ] ] } },
{ "type": "Feature", "properties": { "variant": "T2s", "miles": 1.0 }, "geometry": { "type": "Polygon", "coordinates": [ [ [ -77.17492, 38.77643 ], [ -77.17591, 38.77522 ], [ -77.17707, 38.77573 ], [ -77.17679, 38.77769 ], [ -77.17754, 38.77848 ], [ -77.17679, 38.77897 ], [ -77.17559, 38.77891 ], [ -77.17554, 38.78099 ], [ -77.17833, 38.78115 ], [ -77.17896, 38.78173 ], [ -77.17822, 38.78223 ], [ -77.17765, 38.78385 ], [ -77.17785, 38.78442 ], [ -77.17667, 38.78537 ], [ -77.17721, 38.78617 ], [ -77.17686, 38.78648 ], [ -77.17594, 38.78633 ], [ -77.17543, 38.78676 ], [ -77.17465, 38.78634 ], [ -77.17404, 38.78658 ], [ -77.17229, 38.78801 ], [ -77.17392, 38.78755 ], [ -77.17436, 38.78824 ], [ -77.17198, 38.78931 ], [ -77.17112, 38.78895 ], [ -77.17091, 38.78803 ], [ -77.1683, 38.78899 ], [ -77.16781, 38.78883 ], [ -77.16779, 38.78766 ], [ -77.1696, 38.78732 ], [ -77.16913, 38.7868 ], [ -77.1693, 38.78618 ], [ -77.16859, 38.78571 ], [ -77.16839, 38.78501 ], [ -77.16753, 38.78479 ], [ -77.16742, 38.78418 ], [ -77.16483, 38.78381 ], [ -77.16407, 38.78313 ], [ -77.16475, 38.78258 ], [ -77.16736, 38.78308 ], [ -77.16781, 38.78151 ], [ -77.16866, 38.78114 ], [ -77.16913, 38.78181 ], [ -77.16873, 38.78325 ], [ -77.17101, 38.78354 ], [ -77.17105, 38.78199 ], [ -77.17033, 38.78144 ], [ -77.17038, 38.77985 ], [ -77.16915, 38.78042 ], [ -77.16845, 38.77989 ], [ -77.16957, 38.7788 ], [ -77.17113, 38.77863 ], [ -77.16836, 38.77852 ], [ -77.16781, 38.78015 ], [ -77.16692, 38.78027 ], [ -77.16627, 38.7797 ], [ -77.16669, 38.77899 ], [ -77.16461, 38.77905 ], [ -77.16441, 38.7783 ], [ -77.16636, 38.77781 ], [ -77.16577, 38.77697 ], [ -77.16645, 38.77643 ], [ -77.16879, 38.77651 ], [ -77.16944, 38.77711 ], [ -77.17103, 38.77716 ], [ -77.17085, 38.77322 ], [ -77.17153, 38.77267 ], [ -77.17244, 38.7732 ], [ -77.17268, 38.77723 ], [ -77.17335, 38.77726 ], [ -77.17352, 38.77654 ], [ -77.17492, 38.77643 ] ], [ [ -77.17654, 38.78296 ], [ -77.17648, 38.7831 ], [ -77.17648, 38.78312 ], [ -77.17654, 38.78296 ] ], [ [ -77.17412, 38.78495 ], [ -77.17414, 38.78492 ], [ -77.17409, 38.78493 ], [ -77.17412, 38.78495 ] ], [ [ -77.17097, 38.78541 ], [ -77.17063, 38.78545 ], [ -77.17096, 38.78573 ], [ -77.17097, 38.78541 ] ], [ [ -77.16767, 38.77755 ], [ -77.16766, 38.77756 ], [ -77.16771, 38.77755 ], [ -77.16767, 38.77755 ] ] ] } },
{ "type": "Feature", "properties": { "variant": "T2s", "miles": 1.5 }, "geometry": { "type": "Polygon", "coordinates": [ [ [ -77.17185, 38.76943 ], [ -77.17692, 38.77034 ], [ -77.17687, 38.77117 ], [ -77.1798, 38.77175 ], [ -77.18139, 38.77057 ], [ -77.1823, 38.77117 ], [ -77.17914, 38.77425 ], [ -77.17914, 38.7776 ], [ -77.17966, 38.77869 ], [ -77.17854, 38.77916 ], [ -77.17686, 38.77898 ], [ -77.17726, 38.77962 ], [ -77.17798, 38.77911 ], [ -77.17851, 38.77929 ], [ -77.17983, 38.7813 ], [ -77.17962, 38.78179 ], [ -77.17822, 38.78223 ], [ -77.17765, 38.78385 ], [ -77.17785, 38.78442 ], [ -77.17667, 38.78537 ], [ -77.17721, 38.78617 ], [ -77.17686, 38.78648 ], [ -77.17594, 38.78633 ], [ -77.17543, 38.78676 ], [ -77.17432, 38.78647 ], [ -77.17587, 38.78747 ], [ -77.17575, 38.78823 ], [ -77.17485, 38.78881 ], [ -77.17422, 38.78848 ], [ -77.17198, 38.78931 ], [ -77.17112, 38.78895 ], [ -77.17078, 38.78805 ], [ -77.16895, 38.78857 ], [ -77.16862, 38.78906 ], [ -77.16634, 38.79014 ], [ -77.1632, 38.79091 ], [ -77.16162, 38.79049 ], [ -77.1612, 38.79 ], [ -77.16158, 38.78844 ], [ -77.16385, 38.78734 ], [ -77.16259, 38.78687 ], [ -77.16181, 38.78721 ], [ -77.16137, 38.7869 ], [ -77.16101, 38.78724 ], [ -77.16008, 38.78699 ], [ -77.15959, 38.78598 ], [ -77.16026, 38.78488 ], [ -77.15976, 38.78488 ], [ -77.15945, 38.78599 ], [ -77.15848, 38.78608 ], [ -77.15767, 38.78683 ], [ -77.15718, 38.78668 ], [ -77.15725, 38.78511 ], [ -77.15639, 38.7845 ], [ -77.15742, 38.78404 ], [ -77.15785, 38.78128 ], [ -77.157, 38.7814 ], [ -77.15683, 38.78059 ], [ -77.15568, 38.7806 ], [ -77.15539, 38.78026 ], [ -77.15594, 38.77962 ], [ -77.15765, 38.77936 ], [ -77.15775, 38.77873 ], [ -77.15689, 38.77848 ], [ -77.15676, 38.77808 ], [ -77.15815, 38.77725 ], [ -77.15976, 38.77725 ], [ -77.16052, 38.77866 ], [ -77.1601, 38.77667 ], [ -77.16075, 38.7761 ], [ -77.16153, 38.77652 ], [ -77.16183, 38.77811 ], [ -77.16189, 38.77686 ], [ -77.16092, 38.77565 ], [ -77.16133, 38.77331 ], [ -77.16513, 38.77302 ], [ -77.16551, 38.77058 ], [ -77.16855, 38.77043 ], [ -77.16843, 38.76931 ], [ -77.17022, 38.76926 ], [ -77.17038, 38.76866 ], [ -77.16932, 38.76872 ], [ -77.16749, 38.76813 ], [ -77.1673, 38.76716 ], [ -77.1678, 38.76659 ], [ -77.17186, 38.76632 ], [ -77.17257, 38.7671 ], [ -77.17225, 38.76823 ], [ -77.17351, 38.76826 ], [ -77.17382, 38.76859 ], [ -77.17332, 38.76935 ], [ -77.17185, 38.76943 ] ], [ [ -77.17097, 38.78541 ], [ -77.17063, 38.78545 ], [ -77.17096, 38.78573 ], [ -77.17097, 38.78541 ] ], [ [ -77.16873, 38.78325 ], [ -77.17101, 38.78354 ], [ -77.17105, 38.78199 ], [ -77.17033, 38.78144 ], [ -77.17038, 38.77985 ], [ -77.16915, 38.78042 ], [ -77.16845, 38.77989 ], [ -77.16957, 38.7788 ], [ -77.17113, 38.77863 ], [ -77.16874, 38.77843 ], [ -77.16809, 38.77869 ], [ -77.16803, 38.77977 ], [ -77.1673, 38.78088 ], [ -77.16556, 38.78114 ], [ -77.16619, 38.78174 ], [ -77.16627, 38.78268 ], [ -77.16814, 38.78118 ], [ -77.16866, 38.78114 ], [ -77.16913, 38.78181 ], [ -77.16873, 38.78325 ] ], [ [ -77.16965, 38.77712 ], [ -77.16998, 38.77635 ], [ -77.17078, 38.77613 ], [ -77.17087, 38.77394 ], [ -77.17073, 38.77237 ], [ -77.16982, 38.77193 ], [ -77.16965, 38.77712 ] ], [ [ -77.16893, 38.76752 ], [ -77.17108, 38.76752 ], [ -77.17117, 38.76729 ], [ -77.16893, 38.76752 ] ], [ [ -77.17699, 38.7809 ], [ -77.17596, 38.78037 ], [ -77.17556, 38.78001 ], [ -77.17554, 38.78099 ], [ -77.17699, 38.7809 ] ], [ [ -77.17717, 38.77429 ], [ -77.17707, 38.77326 ], [ -77.17508, 38.77244 ], [ -77.17301, 38.77217 ], [ -77.17268, 38.77363 ], [ -77.17339, 38.77452 ], [ -77.17293, 38.77633 ], [ -77.17492, 38.77643 ], [ -77.17551, 38.77542 ], [ -77.17717, 38.77429 ] ], [ [ -77.17839, 38.77272 ], [ -77.17852, 38.77296 ], [ -77.17869, 38.77278 ], [ -77.17839, 38.77272 ] ], [ [ -77.1778, 38.77556 ], [ -77.17705, 38.77638 ], [ -77.17695, 38.77753 ], [ -77.17777, 38.77758 ], [ -77.1778, 38.77556 ] ], [ [ -77.17647, 38.78298 ], [ -77.17648, 38.78312 ], [ -77.17654, 38.78296 ], [ -77.17647, 38.78298 ] ], [ [ -77.17284, 38.7878 ], [ -77.17229, 38.78791 ], [ -77.17229, 38.78801 ], [ -77.17284, 38.7878 ] ], [ [ -77.17413, 38.78492 ], [ -77.17412, 38.78495 ], [ -77.17414, 38.78492 ], [ -77.17413, 38.78492 ] ], [ [ -77.16295, 38.78115 ], [ -77.16299, 38.77946 ], [ -77.15953, 38.78013 ], [ -77.15919, 38.78176 ], [ -77.16114, 38.78177 ], [ -77.16167, 38.78239 ], [ -77.16279, 38.78245 ], [ -77.16224, 38.78167 ], [ -77.16295, 38.78115 ] ], [ [ -77.16279, 38.77426 ], [ -77.16303, 38.77511 ], [ -77.16297, 38.776 ], [ -77.16332, 38.77428 ], [ -77.16279, 38.77426 ] ], [ [ -77.1655, 38.77982 ], [ -77.16642, 38.78004 ], [ -77.16629, 38.77974 ], [ -77.1655, 38.77982 ] ], [ [ -77.16669, 38.77899 ], [ -77.16655, 38.77932 ], [ -77.16668, 38.77928 ], [ -77.16669, 38.77899 ] ], [ [ -77.16632, 38.77767 ], [ -77.16535, 38.77775 ], [ -77.16537, 38.77782 ], [ -77.16632, 38.77767 ] ], [ [ -77.16584, 38.77654 ], [ -77.16689, 38.77509 ], [ -77.16669, 38.77389 ], [ -77.16584, 38.77654 ] ], [ [ -77.1683, 38.77372 ], [ -77.16806, 38.77427 ], [ -77.16822, 38.77463 ], [ -77.1683, 38.77372 ] ], [ [ -77.16838, 38.77264 ], [ -77.16823, 38.77151 ], [ -77.16816, 38.77263 ], [ -77.16838, 38.77264 ] ], [ [ -77.16663, 38.77151 ], [ -77.16657, 38.77219 ], [ -77.16653, 38.77281 ], [ -77.16676, 38.77278 ], [ -77.16663, 38.77151 ] ], [ [ -77.16816, 38.77557 ], [ -77.1677, 38.77622 ], [ -77.16764, 38.77646 ], [ -77.1681, 38.77648 ], [ -77.16816, 38.77557 ] ], [ [ -77.16329, 38.77706 ], [ -77.16321, 38.77817 ], [ -77.16411, 38.77802 ], [ -77.16388, 38.77735 ], [ -77.16427, 38.77688 ], [ -77.16329, 38.77706 ] ], [ [ -77.16496, 38.77566 ], [ -77.16471, 38.77419 ], [ -77.1646, 38.77572 ], [ -77.16496, 38.77566 ] ], [ [ -77.16431, 38.77983 ], [ -77.16485, 38.7795 ], [ -77.16471, 38.77919 ], [ -77.16443, 38.77924 ], [ -77.16431, 38.77983 ] ], [ [ -77.16584, 38.78912 ], [ -77.1659, 38.78911 ], [ -77.1658, 38.78905 ], [ -77.16584, 38.78912 ] ], [ [ -77.16579, 38.78902 ], [ -77.1658, 38.78904 ], [ -77.16581, 38.78903 ], [ -77.16579, 38.78902 ] ], [ [ -77.16654, 38.78475 ], [ -77.16838, 38.78572 ], [ -77.16844, 38.78613 ], [ -77.16746, 38.78648 ], [ -77.16757, 38.78679 ], [ -77.16861, 38.78692 ], [ -77.16859, 38.78749 ], [ -77.1696, 38.78732 ], [ -77.16913, 38.7868 ], [ -77.1693, 38.78618 ], [ -77.16859, 38.78571 ], [ -77.16839, 38.78501 ], [ -77.16753, 38.78479 ], [ -77.16742, 38.78418 ], [ -77.16381, 38.78375 ], [ -77.16539, 38.78474 ], [ -77.16654, 38.78475 ] ], [ [ -77.16672, 38.78822 ], [ -77.16716, 38.78849 ], [ -77.16728, 38.78845 ], [ -77.16716, 38.78841 ], [ -77.16672, 38.78822 ] ], [ [ -77.16296, 38.78966 ], [ -77.16395, 38.78939 ], [ -77.1639, 38.78884 ], [ -77.16288, 38.78905 ], [ -77.16296, 38.78966 ] ], [ [ -77.16244, 38.78569 ], [ -77.16228, 38.78573 ], [ -77.16247, 38.78584 ], [ -77.16244, 38.78569 ] ], [ [ -77.16241, 38.78372 ], [ -77.16196, 38.78344 ], [ -77.16195, 38.78364 ], [ -77.16241, 38.78372 ] ], [ [ -77.16451, 38.78558 ], [ -77.16443, 38.78553 ], [ -77.1644, 38.78561 ], [ -77.16451, 38.78558 ] ], [ [ -77.16494, 38.78668 ], [ -77.16494, 38.78656 ], [ -77.16487, 38.78661 ], [ -77.16494, 38.78668 ] ], [ [ -77.16, 38.78373 ], [ -77.16056, 38.7838 ], [ -77.16057, 38.78363 ], [ -77.16, 38.78373 ] ] ] } },
{ "type": "Feature", "properties": { "variant": "T2s", "miles": 2.0 }, "geometry": { "type": "Polygon", "coordinates": [ [ [ -77.18275, 38.76427 ], [ -77.18317, 38.76474 ], [ -77.18256, 38.77087 ], [ -77.17914, 38.77425 ], [ -77.17914, 38.7776 ], [ -77.17974, 38.7785 ], [ -77.17854, 38.77916 ], [ -77.17686, 38.77898 ], [ -77.17726, 38.77962 ], [ -77.17798, 38.77911 ], [ -77.17851, 38.77929 ], [ -77.17983, 38.7813 ], [ -77.17962, 38.78179 ], [ -77.17822, 38.78223 ], [ -77.17765, 38.78385 ], [ -77.17785, 38.78442 ], [ -77.17667, 38.78537 ], [ -77.17721, 38.78617 ], [ -77.17686, 38.78648 ], [ -77.17594, 38.78633 ], [ -77.17543, 38.78676 ], [ -77.17432, 38.78647 ], [ -77.17587, 38.78747 ], [ -77.17601, 38.78787 ], [ -77.17533, 38.78863 ], [ -77.17485, 38.78881 ], [ -77.17422, 38.78848 ], [ -77.17146, 38.78927 ], [ -77.17078, 38.78805 ], [ -77.16895, 38.78857 ], [ -77.16667, 38.79004 ], [ -77.16276, 38.7909 ], [ -77.16127, 38.79021 ], [ -77.16112, 38.78764 ], [ -77.15964, 38.78637 ], [ -77.16026, 38.78488 ], [ -77.15976, 38.78488 ], [ -77.15945, 38.78599 ], [ -77.15848, 38.78608 ], [ -77.15815, 38.78667 ], [ -77.15746, 38.78677 ], [ -77.15784, 38.78849 ], [ -77.1587, 38.78884 ], [ -77.15869, 38.78933 ], [ -77.1576, 38.78969 ], [ -77.15674, 38.78938 ], [ -77.15603, 38.78717 ], [ -77.15683, 38.78059 ], [ -77.15593, 38.78124 ], [ -77.15522, 38.78616 ], [ -77.15482, 38.78644 ], [ -77.15386, 38.78594 ], [ -77.15401, 38.78398 ], [ -77.15298, 38.78429 ], [ -77.15232, 38.78411 ], [ -77.15244, 38.78485 ], [ -77.15205, 38.78513 ], [ -77.15117, 38.7848 ], [ -77.15034, 38.78194 ], [ -77.14971, 38.78206 ], [ -77.14987, 38.78328 ], [ -77.14923, 38.78386 ], [ -77.14824, 38.78338 ], [ -77.14836, 38.78231 ], [ -77.14689, 38.78262 ], [ -77.14603, 38.78225 ], [ -77.1465, 38.78158 ], [ -77.1497, 38.78095 ], [ -77.14937, 38.78064 ], [ -77.14817, 38.78095 ], [ -77.1479, 38.78021 ], [ -77.14852, 38.77977 ], [ -77.1486, 38.77895 ], [ -77.14968, 38.77918 ], [ -77.15007, 38.77894 ], [ -77.14944, 38.77773 ], [ -77.14968, 38.77736 ], [ -77.15038, 38.7773 ], [ -77.15038, 38.77667 ], [ -77.15351, 38.77651 ], [ -77.15441, 38.77679 ], [ -77.15481, 38.7756 ], [ -77.15438, 38.77509 ], [ -77.15461, 38.77437 ], [ -77.1538, 38.77361 ], [ -77.15397, 38.77322 ], [ -77.15494, 38.77318 ], [ -77.15751, 38.77529 ], [ -77.15775, 38.77436 ], [ -77.15894, 38.77442 ], [ -77.1587, 38.77344 ], [ -77.15976, 38.77239 ], [ -77.16052, 38.77281 ], [ -77.16175, 38.77264 ], [ -77.16239, 38.77315 ], [ -77.16341, 38.7732 ], [ -77.16344, 38.76956 ], [ -77.16397, 38.76913 ], [ -77.16556, 38.76902 ], [ -77.16487, 38.76871 ], [ -77.16462, 38.7681 ], [ -77.16154, 38.76707 ], [ -77.16211, 38.76624 ], [ -77.16564, 38.76724 ], [ -77.16821, 38.76639 ], [ -77.17135, 38.76611 ], [ -77.17238, 38.7667 ], [ -77.17266, 38.76786 ], [ -77.17327, 38.76657 ], [ -77.17456, 38.76567 ], [ -77.17748, 38.76802 ], [ -77.18127, 38.77019 ], [ -77.18176, 38.76524 ], [ -77.1809, 38.76505 ], [ -77.18072, 38.76466 ], [ -77.18144, 38.76415 ], [ -77.18275, 38.76427 ] ], [ [ -77.1658, 38.78905 ], [ -77.16584, 38.78912 ], [ -77.1659, 38.78911 ], [ -77.1658, 38.78905 ] ], [ [ -77.16581, 38.78903 ], [ -77.16579, 38.78902 ], [ -77.1658, 38.78904 ], [ -77.16581, 38.78903 ] ], [ [ -77.16647, 38.78474 ], [ -77.16838, 38.78572 ], [ -77.16844, 38.78613 ], [ -77.16746, 38.78648 ], [ -77.16757, 38.78679 ], [ -77.16861, 38.78692 ], [ -77.16859, 38.78749 ], [ -77.1696, 38.78732 ], [ -77.16913, 38.7868 ], [ -77.1693, 38.78618 ], [ -77.16859, 38.78571 ], [ -77.16839, 38.78501 ], [ -77.16753, 38.78479 ], [ -77.16742, 38.78418 ], [ -77.16381, 38.78375 ], [ -77.16539, 38.78474 ], [ -77.16647, 38.78474 ] ], [ [ -77.16629, 38.78266 ], [ -77.16814, 38.78118 ], [ -77.16866, 38.78114 ], [ -77.16913, 38.78181 ], [ -77.16873, 38.78325 ], [ -77.17101, 38.78354 ], [ -77.17105, 38.78199 ], [ -77.17033, 38.78144 ], [ -77.17038, 38.77985 ], [ -77.16915, 38.78042 ], [ -77.16845, 38.77989 ], [ -77.16957, 38.7788 ], [ -77.17113, 38.77863 ], [ -77.16874, 38.77843 ], [ -77.16809, 38.77869 ], [ -77.16803, 38.77977 ], [ -77.1673, 38.78088 ], [ -77.16556, 38.78108 ], [ -77.16619, 38.78174 ], [ -77.16629, 38.78266 ] ], [ [ -77.1655, 38.77982 ], [ -77.16605, 38.78004 ], [ -77.16642, 38.78004 ], [ -77.16629, 38.77974 ], [ -77.1655, 38.77982 ] ], [ [ -77.16485, 38.7795 ], [ -77.16443, 38.77924 ], [ -77.16431, 38.77983 ], [ -77.16485, 38.7795 ] ], [ [ -77.16537, 38.77782 ], [ -77.16629, 38.77756 ], [ -77.16535, 38.77775 ], [ -77.16537, 38.77782 ] ], [ [ -77.16411, 38.77802 ], [ -77.16427, 38.77688 ], [ -77.16329, 38.77706 ], [ -77.16321, 38.77817 ], [ -77.16411, 38.77802 ] ], [ [ -77.16593, 38.77651 ], [ -77.16626, 38.77644 ], [ -77.16687, 38.77519 ], [ -77.16669, 38.77389 ], [ -77.16593, 38.77651 ] ], [ [ -77.16513, 38.77302 ], [ -77.16525, 38.77149 ], [ -77.16484, 38.77147 ], [ -77.1648, 38.77307 ], [ -77.16513, 38.77302 ] ], [ [ -77.1654, 38.77016 ], [ -77.16477, 38.77017 ], [ -77.16476, 38.77039 ], [ -77.16537, 38.77041 ], [ -77.1654, 38.77016 ] ], [ [ -77.17284, 38.7878 ], [ -77.17229, 38.78791 ], [ -77.17229, 38.78801 ], [ -77.17284, 38.7878 ] ], [ [ -77.17413, 38.78492 ], [ -77.17409, 38.78493 ], [ -77.17412, 38.78495 ], [ -77.17413, 38.78492 ] ], [ [ -77.17268, 38.76947 ], [ -77.1719, 38.76928 ], [ -77.17185, 38.76943 ], [ -77.17236, 38.76945 ], [ -77.17268, 38.76947 ] ], [ [ -77.17692, 38.78087 ], [ -77.17596, 38.78037 ], [ -77.17556, 38.78001 ], [ -77.17554, 38.78099 ], [ -77.17692, 38.78087 ] ], [ [ -77.17717, 38.77429 ], [ -77.17707, 38.77326 ], [ -77.17508, 38.77244 ], [ -77.17301, 38.77217 ], [ -77.17268, 38.77363 ], [ -77.17339, 38.77452 ], [ -77.17293, 38.77633 ], [ -77.17492, 38.77643 ], [ -77.17551, 38.77542 ], [ -77.17717, 38.77429 ] ], [ [ -77.17381, 38.76867 ], [ -77.17522, 38.76912 ], [ -77.17675, 38.76936 ], [ -77.17518, 38.76816 ], [ -77.17413, 38.76782 ], [ -77.17381, 38.76867 ] ], [ [ -77.17777, 38.77758 ], [ -77.1778, 38.77556 ], [ -77.17705, 38.77638 ], [ -77.17695, 38.77753 ], [ -77.17777, 38.77758 ] ], [ [ -77.18056, 38.77115 ], [ -77.17694, 38.7705 ], [ -77.17667, 38.77105 ], [ -77.1798, 38.77175 ], [ -77.18056, 38.77115 ] ], [ [ -77.17839, 38.77272 ], [ -77.17852, 38.77296 ], [ -77.17869, 38.77278 ], [ -77.17839, 38.77272 ] ], [ [ -77.17654, 38.78296 ], [ -77.17648, 38.7831 ], [ -77.17648, 38.78312 ], [ -77.17654, 38.78296 ] ], [ [ -77.17097, 38.78538 ], [ -77.17083, 38.7856 ], [ -77.17096, 38.78573 ], [ -77.17097, 38.78538 ] ], [ [ -77.16944, 38.77711 ], [ -77.17003, 38.77631 ], [ -77.17078, 38.77613 ], [ -77.17087, 38.77394 ], [ -77.17073, 38.77237 ], [ -77.16982, 38.77193 ], [ -77.16944, 38.77711 ] ], [ [ -77.1695, 38.76932 ], [ -77.17036, 38.76874 ], [ -77.16683, 38.7682 ], [ -77.16669, 38.76857 ], [ -77.16694, 38.76909 ], [ -77.1695, 38.76932 ] ], [ [ -77.16893, 38.76752 ], [ -77.17108, 38.76752 ], [ -77.17117, 38.76729 ], [ -77.16893, 38.76752 ] ], [ [ -77.16816, 38.77263 ], [ -77.16847, 38.77151 ], [ -77.16823, 38.77151 ], [ -77.16816, 38.77263 ] ], [ [ -77.16676, 38.77278 ], [ -77.16663, 38.77151 ], [ -77.16653, 38.77281 ], [ -77.16676, 38.77278 ] ], [ [ -77.16675, 38.77043 ], [ -77.16855, 38.77043 ], [ -77.16851, 38.77017 ], [ -77.16679, 38.77017 ], [ -77.16675, 38.77043 ] ], [ [ -77.16816, 38.77557 ], [ -77.1677, 38.77622 ], [ -77.16764, 38.77646 ], [ -77.1681, 38.77648 ], [ -77.16816, 38.77557 ] ], [ [ -77.16808, 38.77371 ], [ -77.16822, 38.77463 ], [ -77.1683, 38.77372 ], [ -77.16808, 38.77371 ] ], [ [ -77.16668, 38.77928 ], [ -77.16644, 38.77903 ], [ -77.16655, 38.77932 ], [ -77.16668, 38.77928 ] ], [ [ -77.16672, 38.78822 ], [ -77.16716, 38.78849 ], [ -77.16728, 38.78845 ], [ -77.16672, 38.78822 ] ], [ [ -77.16291, 38.7897 ], [ -77.16395, 38.78939 ], [ -77.1639, 38.78884 ], [ -77.16283, 38.78915 ], [ -77.16291, 38.7897 ] ], [ [ -77.16056, 38.7838 ], [ -77.16, 38.78373 ], [ -77.16, 38.78378 ], [ -77.16056, 38.7838 ] ], [ [ -77.16251, 38.7876 ], [ -77.16385, 38.78734 ], [ -77.16259, 38.78687 ], [ -77.16251, 38.7876 ] ], [ [ -77.16244, 38.78569 ], [ -77.16228, 38.78573 ], [ -77.16247, 38.78584 ], [ -77.16244, 38.78569 ] ], [ [ -77.16241, 38.78372 ], [ -77.16196, 38.78344 ], [ -77.16195, 38.78364 ], [ -77.16241, 38.78372 ] ], [ [ -77.1629, 38.78227 ], [ -77.16224, 38.78167 ], [ -77.16297, 38.7812 ], [ -77.16299, 38.77946 ], [ -77.16033, 38.77996 ], [ -77.16022, 38.78172 ], [ -77.16114, 38.78177 ], [ -77.16177, 38.78243 ], [ -77.1629, 38.78227 ] ], [ [ -77.16191, 38.77698 ], [ -77.16158, 38.77638 ], [ -77.16183, 38.77811 ], [ -77.16191, 38.77698 ] ], [ [ -77.16279, 38.77426 ], [ -77.16303, 38.77511 ], [ -77.16297, 38.776 ], [ -77.16332, 38.77428 ], [ -77.16279, 38.77426 ] ], [ [ -77.16496, 38.77566 ], [ -77.16471, 38.77419 ], [ -77.1646, 38.77572 ], [ -77.16496, 38.77566 ] ], [ [ -77.16451, 38.78558 ], [ -77.16443, 38.78553 ], [ -77.1644, 38.78561 ], [ -77.16451, 38.78558 ] ], [ [ -77.16494, 38.78656 ], [ -77.16487, 38.78661 ], [ -77.16494, 38.78668 ], [ -77.16494, 38.78656 ] ], [ [ -77.16036, 38.77727 ], [ -77.15984, 38.77735 ], [ -77.16031, 38.77871 ], [ -77.16052, 38.77866 ], [ -77.16036, 38.77727 ] ], [ [ -77.15734, 38.77765 ], [ -77.15726, 38.77762 ], [ -77.15725, 38.77767 ], [ -77.15734, 38.77765 ] ], [ [ -77.15709, 38.77857 ], [ -77.15708, 38.77861 ], [ -77.15711, 38.77857 ], [ -77.15709, 38.77857 ] ], [ [ -77.15052, 38.78004 ], [ -77.15102, 38.78052 ], [ -77.15156, 38.7804 ], [ -77.15098, 38.77975 ], [ -77.15052, 38.78004 ] ], [ [ -77.15414, 38.78106 ], [ -77.15168, 38.78166 ], [ -77.15219, 38.78297 ], [ -77.15426, 38.7829 ], [ -77.15398, 38.78171 ], [ -77.15444, 38.7813 ], [ -77.15414, 38.78106 ] ] ] } }
]
}
