{
"type": "FeatureCollection",
"name": "161",
"crs": { "type": "name", "properties": { "name": "urn:ogc:def:crs:OGC:1.3:CRS84" } },
"xy_coordinate_resolution": 1e-05,
"features": [
{ "type": "Feature", "properties": { "variant": "T0", "miles": 1.0 }, "geometry": { "type": "Polygon", "coordinates": [ [ [ -77.16971, 38.77062 ], [ -77.16944, 38.77711 ], [ -77.17003, 38.77631 ], [ -77.17078, 38.77613 ], [ -77.17085, 38.77322 ], [ -77.17173, 38.77268 ], [ -77.17244, 38.7732 ], [ -77.17268, 38.77723 ], [ -77.17335, 38.77726 ], [ -77.17352, 38.77654 ], [ -77.1743, 38.77642 ], [ -77.17478, 38.77661 ], [ -77.1749, 38.77735 ], [ -77.17675, 38.77765 ], [ -77.17754, 38.77848 ], [ -77.1773, 38.77885 ], [ -77.17559, 38.77891 ], [ -77.17535, 38.77937 ], [ -77.17454, 38.77949 ], [ -77.17449, 38.78151 ], [ -77.17428, 38.78189 ], [ -77.17346, 38.78203 ], [ -77.17343, 38.78416 ], [ -77.17237, 38.78443 ], [ -77.17216, 38.78505 ], [ -77.17053, 38.78547 ], [ -77.16899, 38.78542 ], [ -77.16753, 38.78479 ], [ -77.16742, 38.78418 ], [ -77.16381, 38.78375 ], [ -77.16539, 38.78474 ], [ -77.16714, 38.78488 ], [ -77.16739, 38.78537 ], [ -77.16838, 38.78572 ], [ -77.16812, 38.78646 ], [ -77.16746, 38.78648 ], [ -77.16738, 38.78781 ], [ -77.16657, 38.78812 ], [ -77.16663, 38.78897 ], [ -77.16568, 38.78898 ], [ -77.16487, 38.78959 ], [ -77.16392, 38.78938 ], [ -77.16415, 38.7884 ], [ -77.16322, 38.78787 ], [ -77.16385, 38.78733 ], [ -77.16259, 38.78687 ], [ -77.16048, 38.78727 ], [ -77.15959, 38.78619 ], [ -77.16026, 38.78488 ], [ -77.15985, 38.78486 ], [ -77.15945, 38.78599 ], [ -77.15848, 38.78608 ], [ -77.15815, 38.78667 ], [ -77.15746, 38.78677 ], [ -77.15784, 38.78849 ], [ -77.1587, 38.78884 ], [ -77.15869, 38.78933 ], [ -77.1576, 38.78969 ], [ -77.15674, 38.78938 ], [ -77.15603, 38.78717 ], [ -77.15683, 38.78059 ], [ -77.15593, 38.78124 ], [ -77.15522, 38.78616 ], [ -77.15482, 38.78644 ], [ -77.15413, 38.78627 ], [ -77.15356, 38.78658 ], [ -77.1529, 38.78608 ], [ -77.15206, 38.78628 ], [ -77.15082, 38.78342 ], [ -77.14993, 38.78376 ], [ -77.14986, 38.7848 ], [ -77.14939, 38.78499 ], [ -77.14889, 38.78487 ], [ -77.1486, 38.78412 ], [ -77.14704, 38.78389 ], [ -77.14693, 38.78313 ], [ -77.14836, 38.78231 ], [ -77.14527, 38.78295 ], [ -77.14454, 38.78254 ], [ -77.14502, 38.78175 ], [ -77.14767, 38.78119 ], [ -77.14719, 38.78001 ], [ -77.14802, 38.7793 ], [ -77.1466, 38.7784 ], [ -77.14657, 38.77799 ], [ -77.14853, 38.77567 ], [ -77.14905, 38.77573 ], [ -77.15031, 38.77712 ], [ -77.15081, 38.77643 ], [ -77.1516, 38.77678 ], [ -77.15351, 38.77651 ], [ -77.15441, 38.77679 ], [ -77.15446, 38.7764 ], [ -77.15362, 38.7765 ], [ -77.15332, 38.77616 ], [ -77.15328, 38.77516 ], [ -77.1526, 38.77448 ], [ -77.1536, 38.77352 ], [ -77.1534, 38.7726 ], [ -77.1538, 38.77233 ], [ -77.15433, 38.77236 ], [ -77.15751, 38.77529 ], [ -77.15775, 38.77436 ], [ -77.15894, 38.77442 ], [ -77.1587, 38.77344 ], [ -77.15976, 38.77239 ], [ -77.16052, 38.77281 ], [ -77.16175, 38.77264 ], [ -77.16239, 38.77315 ], [ -77.16341, 38.7732 ], [ -77.16372, 38.76922 ], [ -77.16556, 38.76908 ], [ -77.16633, 38.76842 ], [ -77.16695, 38.76901 ], [ -77.16675, 38.77043 ], [ -77.16971, 38.77062 ] ], [ [ -77.16, 38.78378 ], [ -77.16057, 38.78363 ], [ -77.16, 38.78373 ], [ -77.16, 38.78378 ] ], [ [ -77.1603, 38.78173 ], [ -77.16114, 38.78177 ], [ -77.16177, 38.78243 ], [ -77.16279, 38.78245 ], [ -77.16224, 38.78167 ], [ -77.16297, 38.7812 ], [ -77.16299, 38.77946 ], [ -77.16033, 38.77996 ], [ -77.1603, 38.78173 ] ], [ [ -77.16031, 38.77871 ], [ -77.16036, 38.77727 ], [ -77.15985, 38.77734 ], [ -77.16031, 38.77871 ] ], [ [ -77.16873, 38.78325 ], [ -77.17101, 38.78354 ], [ -77.17105, 38.78195 ], [ -77.1705, 38.78144 ], [ -77.17107, 38.78095 ], [ -77.17113, 38.77863 ], [ -77.16874, 38.77843 ], [ -77.16809, 38.77869 ], [ -77.16803, 38.77977 ], [ -77.1673, 38.78088 ], [ -77.16556, 38.78114 ], [ -77.16622, 38.78182 ], [ -77.16626, 38.78294 ], [ -77.16736, 38.78308 ], [ -77.16781, 38.78151 ], [ -77.16866, 38.78114 ], [ -77.16913, 38.78181 ], [ -77.16873, 38.78325 ] ], [ [ -77.16644, 38.77903 ], [ -77.16668, 38.77928 ], [ -77.16669, 38.77899 ], [ -77.16644, 38.77903 ] ], [ [ -77.16407, 38.77798 ], [ -77.16388, 38.77735 ], [ -77.16427, 38.77688 ], [ -77.16329, 38.77706 ], [ -77.16321, 38.77817 ], [ -77.16407, 38.77798 ] ], [ [ -77.16297, 38.776 ], [ -77.16332, 38.77428 ], [ -77.16279, 38.77426 ], [ -77.16297, 38.776 ] ], [ [ -77.16814, 38.77562 ], [ -77.1677, 38.77622 ], [ -77.16764, 38.77646 ], [ -77.1681, 38.77648 ], [ -77.16814, 38.77562 ] ], [ [ -77.16827, 38.77399 ], [ -77.16808, 38.77371 ], [ -77.16822, 38.77463 ], [ -77.16827, 38.77399 ] ], [ [ -77.16816, 38.77263 ], [ -77.16847, 38.77151 ], [ -77.16823, 38.77151 ], [ -77.16816, 38.77263 ] ], [ [ -77.16653, 38.77281 ], [ -77.16685, 38.77151 ], [ -77.16663, 38.77151 ], [ -77.16653, 38.77281 ] ], [ [ -77.16484, 38.77147 ], [ -77.16483, 38.77277 ], [ -77.1648, 38.77307 ], [ -77.16513, 38.77302 ], [ -77.16525, 38.77149 ], [ -77.16484, 38.77147 ] ], [ [ -77.16476, 38.77039 ], [ -77.1654, 38.77016 ], [ -77.16477, 38.77017 ], [ -77.16476, 38.77039 ] ], [ [ -77.16584, 38.77654 ], [ -77.16689, 38.77509 ], [ -77.16669, 38.77389 ], [ -77.16584, 38.77654 ] ], [ [ -77.16506, 38.77414 ], [ -77.16471, 38.77419 ], [ -77.1646, 38.77572 ], [ -77.16496, 38.77566 ], [ -77.16506, 38.77414 ] ], [ [ -77.16632, 38.77767 ], [ -77.16535, 38.77775 ], [ -77.16537, 38.77782 ], [ -77.16632, 38.77767 ] ], [ [ -77.1655, 38.77982 ], [ -77.16642, 38.78004 ], [ -77.16629, 38.77974 ], [ -77.1655, 38.77982 ] ], [ [ -77.16485, 38.7795 ], [ -77.16442, 38.77933 ], [ -77.16431, 38.77983 ], [ -77.16485, 38.7795 ] ], [ [ -77.16451, 38.78558 ], [ -77.16443, 38.78553 ], [ -77.1644, 38.78561 ], [ -77.16451, 38.78558 ] ], [ [ -77.16494, 38.78656 ], [ -77.16487, 38.78661 ], [ -77.16494, 38.78668 ], [ -77.16494, 38.78656 ] ], [ [ -77.16158, 38.77638 ], [ -77.16173, 38.77717 ], [ -77.16183, 38.77811 ], [ -77.16191, 38.77691 ], [ -77.16158, 38.77638 ] ], [ [ -77.16196, 38.78344 ], [ -77.16241, 38.78372 ], [ -77.16247, 38.7835 ], [ -77.16196, 38.78344 ] ], [ [ -77.16244, 38.78571 ], [ -77.16228, 38.78573 ], [ -77.16247, 38.78584 ], [ -77.16244, 38.78571 ] ], [ [ -77.15708, 38.77861 ], [ -77.15711, 38.77857 ], [ -77.15709, 38.77857 ], [ -77.15708, 38.77861 ] ], [ [ -77.15725, 38.77767 ], [ -77.15734, 38.77765 ], [ -77.15726, 38.77762 ], [ -77.15725, 38.77767 ] ], [ [ -77.15464, 38.77564 ], [ -77.15465, 38.7757 ], [ -77.15471, 38.77564 ], [ -77.15464, 38.77564 ] ], [ [ -77.15269, 38.78492 ], [ -77.1529, 38.78537 ], [ -77.1529, 38.78477 ], [ -77.15269, 38.78492 ] ], [ [ -77.15219, 38.78297 ], [ -77.15426, 38.7829 ], [ -77.15414, 38.78106 ], [ -77.15168, 38.78166 ], [ -77.15219, 38.78297 ] ], [ [ -77.15013, 38.77854 ], [ -77.14943, 38.7782 ], [ -77.14871, 38.77748 ], [ -77.14834, 38.77798 ], [ -77.14968, 38.77918 ], [ -77.15013, 38.77854 ] ], [ [ -77.14977, 38.78255 ], [ -77.15053, 38.78257 ], [ -77.1508, 38.78296 ], [ -77.15034, 38.78194 ], [ -77.14971, 38.78206 ], [ -77.14977, 38.78255 ] ], [ [ -77.14955, 38.78082 ], [ -77.14898, 38.78083 ], [ -77.14901, 38.78092 ], [ -77.14955, 38.78082 ] ], [ [ -77.15091, 38.78041 ], [ -77.15157, 38.78034 ], [ -77.15098, 38.77975 ], [ -77.15052, 38.78004 ], [ -77.15091, 38.78041 ] ] ] } },
{ "type": "Feature", "properties": { "variant": "T0", "miles": 1.5 }, "geometry": { "type": "Polygon", "coordinates": [ [ [ -77.17692, 38.77034 ], [ -77.17687, 38.77117 ], [ -77.1798, 38.77175 ], [ -77.18139, 38.77057 ], [ -77.18229, 38.77108 ], [ -77.17914, 38.77425 ], [ -77.17924, 38.77789 ], [ -77.18253, 38.7784 ], [ -77.18299, 38.77767 ], [ -77.18527, 38.7773 ], [ -77.18607, 38.77774 ], [ -77.18514, 38.77858 ], [ -77.18676, 38.77852 ], [ -77.18707, 38.77886 ], [ -77.18626, 38.77969 ], [ -77.18488, 38.77991 ], [ -77.17686, 38.77898 ], [ -77.17726, 38.77962 ], [ -77.17798, 38.77911 ], [ -77.17851, 38.77929 ], [ -77.17942, 38.78023 ], [ -77.17945, 38.78085 ], [ -77.18068, 38.78139 ], [ -77.18188, 38.78156 ], [ -77.18278, 38.78021 ], [ -77.18331, 38.7802 ], [ -77.1837, 38.7809 ], [ -77.18255, 38.78271 ], [ -77.18037, 38.78257 ], [ -77.1788, 38.78198 ], [ -77.17822, 38.78223 ], [ -77.17765, 38.78385 ], [ -77.17785, 38.78442 ], [ -77.17667, 38.78537 ], [ -77.17721, 38.78617 ], [ -77.17686, 38.78648 ], [ -77.17594, 38.78633 ], [ -77.17543, 38.78676 ], [ -77.17432, 38.78647 ], [ -77.17601, 38.78787 ], [ -77.17485, 38.78881 ], [ -77.17422, 38.78848 ], [ -77.17146, 38.78927 ], [ -77.17078, 38.78805 ], [ -77.16895, 38.78857 ], [ -77.16667, 38.79004 ], [ -77.16276, 38.7909 ], [ -77.16127, 38.79021 ], [ -77.16146, 38.78865 ], [ -77.16236, 38.78765 ], [ -77.16385, 38.78734 ], [ -77.16259, 38.78687 ], [ -77.16048, 38.78727 ], [ -77.15964, 38.78637 ], [ -77.16026, 38.78488 ], [ -77.15976, 38.78488 ], [ -77.15945, 38.78599 ], [ -77.15848, 38.78608 ], [ -77.15815, 38.78667 ], [ -77.15746, 38.78677 ], [ -77.15784, 38.78849 ], [ -77.15873, 38.78891 ], [ -77.15838, 38.78953 ], [ -77.1586, 38.79152 ], [ -77.15757, 38.79237 ], [ -77.15598, 38.79249 ], [ -77.15503, 38.79089 ], [ -77.15602, 38.79059 ], [ -77.15667, 38.79148 ], [ -77.15737, 38.79093 ], [ -77.15603, 38.7873 ], [ -77.15667, 38.78062 ], [ -77.15459, 38.79189 ], [ -77.15374, 38.79284 ], [ -77.15278, 38.79255 ], [ -77.14985, 38.79415 ], [ -77.14927, 38.79353 ], [ -77.15047, 38.79262 ], [ -77.15021, 38.79193 ], [ -77.15054, 38.7916 ], [ -77.15157, 38.79193 ], [ -77.15236, 38.7914 ], [ -77.15328, 38.79153 ], [ -77.15389, 38.78941 ], [ -77.15237, 38.79009 ], [ -77.15206, 38.79084 ], [ -77.15111, 38.79068 ], [ -77.15091, 38.79002 ], [ -77.14865, 38.79094 ], [ -77.14812, 38.7903 ], [ -77.14848, 38.78958 ], [ -77.14806, 38.78897 ], [ -77.14727, 38.78872 ], [ -77.14622, 38.78701 ], [ -77.1463, 38.78811 ], [ -77.14566, 38.78868 ], [ -77.14493, 38.78818 ], [ -77.14486, 38.78731 ], [ -77.14399, 38.78716 ], [ -77.14298, 38.78602 ], [ -77.14262, 38.7864 ], [ -77.14152, 38.78653 ], [ -77.14121, 38.78591 ], [ -77.14032, 38.78596 ], [ -77.13882, 38.78529 ], [ -77.13891, 38.7847 ], [ -77.13848, 38.7843 ], [ -77.13633, 38.78468 ], [ -77.13553, 38.78427 ], [ -77.13561, 38.78369 ], [ -77.13746, 38.78324 ], [ -77.13732, 38.78191 ], [ -77.13772, 38.78164 ], [ -77.13891, 38.78184 ], [ -77.13922, 38.78288 ], [ -77.13984, 38.78276 ], [ -77.13975, 38.78204 ], [ -77.13891, 38.78163 ], [ -77.13936, 38.78103 ], [ -77.13878, 38.78049 ], [ -77.13965, 38.77957 ], [ -77.14047, 38.77948 ], [ -77.13877, 38.7788 ], [ -77.13988, 38.77668 ], [ -77.13945, 38.77595 ], [ -77.13971, 38.7756 ], [ -77.14022, 38.77549 ], [ -77.1409, 38.77593 ], [ -77.14159, 38.77561 ], [ -77.14173, 38.7748 ], [ -77.14335, 38.77412 ], [ -77.14523, 38.77436 ], [ -77.14842, 38.77551 ], [ -77.14814, 38.7749 ], [ -77.14567, 38.77346 ], [ -77.14559, 38.77269 ], [ -77.14637, 38.77259 ], [ -77.14684, 38.77197 ], [ -77.14829, 38.7728 ], [ -77.14872, 38.77235 ], [ -77.14796, 38.77183 ], [ -77.14789, 38.77107 ], [ -77.14931, 38.77051 ], [ -77.14975, 38.76961 ], [ -77.15052, 38.76962 ], [ -77.15134, 38.77032 ], [ -77.15257, 38.77032 ], [ -77.15546, 38.76513 ], [ -77.1564, 38.76534 ], [ -77.156, 38.7671 ], [ -77.15698, 38.76782 ], [ -77.15731, 38.7689 ], [ -77.15904, 38.76882 ], [ -77.15951, 38.76922 ], [ -77.15913, 38.76993 ], [ -77.15776, 38.77011 ], [ -77.15903, 38.77031 ], [ -77.15921, 38.77106 ], [ -77.15511, 38.77117 ], [ -77.1545, 38.77213 ], [ -77.15487, 38.77311 ], [ -77.15751, 38.77529 ], [ -77.15775, 38.77436 ], [ -77.15894, 38.77442 ], [ -77.1587, 38.77344 ], [ -77.15976, 38.77239 ], [ -77.16052, 38.77281 ], [ -77.16175, 38.77264 ], [ -77.16239, 38.77315 ], [ -77.16341, 38.7732 ], [ -77.16372, 38.76922 ], [ -77.16556, 38.76908 ], [ -77.16633, 38.76842 ], [ -77.16694, 38.76909 ], [ -77.17022, 38.76926 ], [ -77.17038, 38.76866 ], [ -77.16878, 38.76861 ], [ -77.16828, 38.76796 ], [ -77.16859, 38.76763 ], [ -77.17108, 38.76752 ], [ -77.17094, 38.7668 ], [ -77.17165, 38.76629 ], [ -77.17253, 38.76699 ], [ -77.17225, 38.76823 ], [ -77.17351, 38.76826 ], [ -77.17382, 38.76859 ], [ -77.17332, 38.76935 ], [ -77.17185, 38.76943 ], [ -77.17496, 38.76974 ], [ -77.17692, 38.77034 ] ], [ [ -77.16056, 38.7838 ], [ -77.16, 38.78373 ], [ -77.16, 38.78378 ], [ -77.16056, 38.7838 ] ], [ [ -77.16177, 38.78243 ], [ -77.1629, 38.78227 ], [ -77.16224, 38.78167 ], [ -77.16297, 38.7812 ], [ -77.16299, 38.77946 ], [ -77.16033, 38.77996 ], [ -77.16022, 38.78172 ], [ -77.16114, 38.78177 ], [ -77.16177, 38.78243 ] ], [ [ -77.16031, 38.77871 ], [ -77.16036, 38.77727 ], [ -77.15985, 38.77734 ], [ -77.16031, 38.77871 ] ], [ [ -77.17284, 38.7878 ], [ -77.17229, 38.78791 ], [ -77.17229, 38.78801 ], [ -77.17284, 38.7878 ] ], [ [ -77.17099, 38.78199 ], [ -77.17033, 38.78144 ], [ -77.17038, 38.77985 ], [ -77.16915, 38.78042 ], [ -77.16845, 38.77989 ], [ -77.16957, 38.7788 ], [ -77.17113, 38.77863 ], [ -77.16836, 38.77852 ], [ -77.1673, 38.78088 ], [ -77.16556, 38.78108 ], [ -77.16619, 38.78174 ], [ -77.16627, 38.78268 ], [ -77.16814, 38.78118 ], [ -77.16907, 38.7814 ], [ -77.16873, 38.78325 ], [ -77.17101, 38.78354 ], [ -77.17099, 38.78199 ] ], [ [ -77.17078, 38.77604 ], [ -77.17079, 38.77255 ], [ -77.16982, 38.77193 ], [ -77.16944, 38.77711 ], [ -77.17003, 38.77631 ], [ -77.17078, 38.77604 ] ], [ [ -77.16823, 38.77151 ], [ -77.16838, 38.77264 ], [ -77.16847, 38.77151 ], [ -77.16823, 38.77151 ] ], [ [ -77.16663, 38.77151 ], [ -77.16653, 38.77281 ], [ -77.16685, 38.77151 ], [ -77.16663, 38.77151 ] ], [ [ -77.1654, 38.77016 ], [ -77.16476, 38.77039 ], [ -77.16537, 38.77041 ], [ -77.1654, 38.77016 ] ], [ [ -77.17692, 38.78087 ], [ -77.17596, 38.78037 ], [ -77.17556, 38.78001 ], [ -77.17554, 38.78099 ], [ -77.17692, 38.78087 ] ], [ [ -77.17717, 38.77429 ], [ -77.17707, 38.77326 ], [ -77.17508, 38.77244 ], [ -77.17301, 38.77217 ], [ -77.17268, 38.77363 ], [ -77.17339, 38.77452 ], [ -77.17293, 38.77633 ], [ -77.17492, 38.77643 ], [ -77.17551, 38.77542 ], [ -77.17717, 38.77429 ] ], [ [ -77.17777, 38.77758 ], [ -77.1778, 38.77556 ], [ -77.17705, 38.77638 ], [ -77.17695, 38.77753 ], [ -77.17777, 38.77758 ] ], [ [ -77.17839, 38.77272 ], [ -77.17852, 38.77296 ], [ -77.17869, 38.77278 ], [ -77.17839, 38.77272 ] ], [ [ -77.17647, 38.78298 ], [ -77.17648, 38.78312 ], [ -77.17654, 38.78296 ], [ -77.17647, 38.78298 ] ], [ [ -77.17409, 38.78493 ], [ -77.17412, 38.78495 ], [ -77.17414, 38.78492 ], [ -77.17409, 38.78493 ] ], [ [ -77.16855, 38.77043 ], [ -77.16851, 38.77017 ], [ -77.16679, 38.77017 ], [ -77.16675, 38.77043 ], [ -77.16855, 38.77043 ] ], [ [ -77.1655, 38.77982 ], [ -77.16642, 38.78004 ], [ -77.16629, 38.77974 ], [ -77.1655, 38.77982 ] ], [ [ -77.16485, 38.7795 ], [ -77.16443, 38.77924 ], [ -77.16431, 38.77983 ], [ -77.16485, 38.7795 ] ], [ [ -77.16632, 38.77767 ], [ -77.16535, 38.77775 ], [ -77.16537, 38.77782 ], [ -77.16632, 38.77767 ] ], [ [ -77.16407, 38.77696 ], [ -77.16329, 38.77706 ], [ -77.16321, 38.77817 ], [ -77.16411, 38.77802 ], [ -77.16407, 38.77696 ] ], [ [ -77.16191, 38.77698 ], [ -77.16147, 38.77643 ], [ -77.16183, 38.77811 ], [ -77.16191, 38.77698 ] ], [ [ -77.16584, 38.77654 ], [ -77.16689, 38.77509 ], [ -77.16669, 38.77389 ], [ -77.16584, 38.77654 ] ], [ [ -77.16484, 38.77147 ], [ -77.16486, 38.77203 ], [ -77.1648, 38.77307 ], [ -77.16513, 38.77302 ], [ -77.16525, 38.77149 ], [ -77.16484, 38.77147 ] ], [ [ -77.16808, 38.77371 ], [ -77.16822, 38.77463 ], [ -77.1683, 38.77372 ], [ -77.16808, 38.77371 ] ], [ [ -77.16816, 38.77557 ], [ -77.16764, 38.77646 ], [ -77.1681, 38.77648 ], [ -77.16816, 38.77557 ] ], [ [ -77.16668, 38.77928 ], [ -77.16644, 38.77903 ], [ -77.16655, 38.77932 ], [ -77.16668, 38.77928 ] ], [ [ -77.16506, 38.77414 ], [ -77.16471, 38.77419 ], [ -77.1646, 38.77572 ], [ -77.16496, 38.77566 ], [ -77.16506, 38.77414 ] ], [ [ -77.16332, 38.77428 ], [ -77.16268, 38.77443 ], [ -77.16297, 38.776 ], [ -77.16332, 38.77428 ] ], [ [ -77.16584, 38.78912 ], [ -77.1659, 38.78911 ], [ -77.1658, 38.78905 ], [ -77.16584, 38.78912 ] ], [ [ -77.1658, 38.78904 ], [ -77.16581, 38.78903 ], [ -77.16579, 38.78902 ], [ -77.1658, 38.78904 ] ], [ [ -77.16654, 38.78474 ], [ -77.16838, 38.78572 ], [ -77.16844, 38.78613 ], [ -77.16746, 38.78648 ], [ -77.16757, 38.78679 ], [ -77.16861, 38.78692 ], [ -77.16859, 38.78749 ], [ -77.1696, 38.78732 ], [ -77.16913, 38.7868 ], [ -77.1693, 38.78618 ], [ -77.16859, 38.78571 ], [ -77.16839, 38.78501 ], [ -77.16753, 38.78479 ], [ -77.16742, 38.78418 ], [ -77.16381, 38.78375 ], [ -77.16539, 38.78474 ], [ -77.16654, 38.78474 ] ], [ [ -77.17097, 38.78538 ], [ -77.1709, 38.78566 ], [ -77.17096, 38.78573 ], [ -77.17097, 38.78538 ] ], [ [ -77.16672, 38.78822 ], [ -77.16716, 38.78849 ], [ -77.16728, 38.78845 ], [ -77.16672, 38.78822 ] ], [ [ -77.1639, 38.78884 ], [ -77.16283, 38.78915 ], [ -77.16284, 38.78975 ], [ -77.16395, 38.78939 ], [ -77.1639, 38.78884 ] ], [ [ -77.16451, 38.78558 ], [ -77.16443, 38.78553 ], [ -77.1644, 38.78561 ], [ -77.16451, 38.78558 ] ], [ [ -77.16243, 38.78563 ], [ -77.16232, 38.78574 ], [ -77.16247, 38.78584 ], [ -77.16243, 38.78563 ] ], [ [ -77.16196, 38.78344 ], [ -77.16241, 38.78372 ], [ -77.16247, 38.7835 ], [ -77.16196, 38.78344 ] ], [ [ -77.16487, 38.78661 ], [ -77.16494, 38.78668 ], [ -77.16494, 38.78656 ], [ -77.16487, 38.78661 ] ], [ [ -77.15593, 38.76875 ], [ -77.15583, 38.76844 ], [ -77.15561, 38.76819 ], [ -77.15534, 38.76872 ], [ -77.15593, 38.76875 ] ], [ [ -77.15743, 38.77011 ], [ -77.15467, 38.76986 ], [ -77.15445, 38.77019 ], [ -77.15496, 38.77009 ], [ -77.15743, 38.77011 ] ], [ [ -77.15393, 38.78913 ], [ -77.15445, 38.78642 ], [ -77.15356, 38.78658 ], [ -77.1529, 38.78608 ], [ -77.15206, 38.78628 ], [ -77.15096, 38.78435 ], [ -77.15008, 38.78495 ], [ -77.15021, 38.7862 ], [ -77.15084, 38.78612 ], [ -77.15128, 38.78669 ], [ -77.15225, 38.78676 ], [ -77.1524, 38.78716 ], [ -77.15158, 38.78793 ], [ -77.15256, 38.78802 ], [ -77.15284, 38.78876 ], [ -77.15393, 38.78913 ] ], [ [ -77.15291, 38.78482 ], [ -77.15269, 38.78492 ], [ -77.1529, 38.78537 ], [ -77.15291, 38.78482 ] ], [ [ -77.15219, 38.78297 ], [ -77.15426, 38.7829 ], [ -77.15414, 38.78106 ], [ -77.15168, 38.78166 ], [ -77.15219, 38.78297 ] ], [ [ -77.15157, 38.78034 ], [ -77.15098, 38.77975 ], [ -77.15052, 38.78004 ], [ -77.15102, 38.78052 ], [ -77.15157, 38.78034 ] ], [ [ -77.14937, 38.78064 ], [ -77.14901, 38.78092 ], [ -77.14955, 38.78082 ], [ -77.14937, 38.78064 ] ], [ [ -77.14968, 38.77918 ], [ -77.15013, 38.77854 ], [ -77.14871, 38.77748 ], [ -77.14834, 38.77798 ], [ -77.14968, 38.77918 ] ], [ [ -77.1503, 38.77708 ], [ -77.15008, 38.77695 ], [ -77.15031, 38.77712 ], [ -77.1503, 38.77708 ] ], [ [ -77.15003, 38.77573 ], [ -77.1505, 38.77544 ], [ -77.15033, 38.77534 ], [ -77.15003, 38.77573 ] ], [ [ -77.14945, 38.7742 ], [ -77.15018, 38.77331 ], [ -77.15079, 38.77252 ], [ -77.15042, 38.77243 ], [ -77.14944, 38.7734 ], [ -77.14945, 38.7742 ] ], [ [ -77.15708, 38.77861 ], [ -77.15711, 38.77857 ], [ -77.15709, 38.77857 ], [ -77.15708, 38.77861 ] ], [ [ -77.15224, 38.77382 ], [ -77.1523, 38.77397 ], [ -77.15226, 38.77381 ], [ -77.15224, 38.77382 ] ], [ [ -77.15726, 38.77762 ], [ -77.15725, 38.77767 ], [ -77.15734, 38.77765 ], [ -77.15726, 38.77762 ] ], [ [ -77.15466, 38.77569 ], [ -77.15464, 38.77564 ], [ -77.15465, 38.7757 ], [ -77.15466, 38.77569 ] ], [ [ -77.15211, 38.7751 ], [ -77.15197, 38.77534 ], [ -77.15224, 38.77547 ], [ -77.15211, 38.7751 ] ], [ [ -77.15092, 38.78425 ], [ -77.15082, 38.78342 ], [ -77.14993, 38.78376 ], [ -77.15092, 38.78425 ] ], [ [ -77.1468, 38.78283 ], [ -77.14838, 38.78252 ], [ -77.14836, 38.78231 ], [ -77.14597, 38.78282 ], [ -77.14602, 38.78365 ], [ -77.14684, 38.78379 ], [ -77.1468, 38.78283 ] ], [ [ -77.14465, 38.78333 ], [ -77.14445, 38.78311 ], [ -77.14465, 38.78338 ], [ -77.14465, 38.78333 ] ], [ [ -77.1452, 38.78107 ], [ -77.14213, 38.78162 ], [ -77.14222, 38.78229 ], [ -77.14521, 38.78171 ], [ -77.1452, 38.78107 ] ], [ [ -77.14527, 38.77986 ], [ -77.14188, 38.77965 ], [ -77.14199, 38.78053 ], [ -77.14527, 38.77986 ] ], [ [ -77.14484, 38.77785 ], [ -77.14438, 38.77838 ], [ -77.14418, 38.7787 ], [ -77.14484, 38.77785 ] ], [ [ -77.15069, 38.78279 ], [ -77.15034, 38.78194 ], [ -77.14971, 38.78206 ], [ -77.14977, 38.78255 ], [ -77.15069, 38.78279 ] ], [ [ -77.14535, 38.77684 ], [ -77.14697, 38.77746 ], [ -77.14772, 38.77644 ], [ -77.146, 38.77581 ], [ -77.14535, 38.77684 ] ], [ [ -77.14719, 38.78001 ], [ -77.14802, 38.7793 ], [ -77.14763, 38.77893 ], [ -77.14671, 38.78027 ], [ -77.14701, 38.78069 ], [ -77.14659, 38.78142 ], [ -77.14767, 38.78119 ], [ -77.14719, 38.78001 ] ], [ [ -77.14608, 38.77832 ], [ -77.14589, 38.77886 ], [ -77.14627, 38.77839 ], [ -77.14608, 38.77832 ] ], [ [ -77.14946, 38.78817 ], [ -77.14916, 38.78825 ], [ -77.14933, 38.78853 ], [ -77.14944, 38.78851 ], [ -77.14946, 38.78817 ] ], [ [ -77.15195, 38.78898 ], [ -77.15194, 38.78905 ], [ -77.1521, 38.78899 ], [ -77.15195, 38.78898 ] ], [ [ -77.1449, 38.78581 ], [ -77.14484, 38.78593 ], [ -77.14489, 38.78598 ], [ -77.1449, 38.78581 ] ], [ [ -77.14407, 38.7849 ], [ -77.14472, 38.78507 ], [ -77.14484, 38.78521 ], [ -77.14471, 38.78483 ], [ -77.14407, 38.7849 ] ], [ [ -77.14778, 38.78511 ], [ -77.14735, 38.78501 ], [ -77.1487, 38.78505 ], [ -77.14778, 38.78511 ] ], [ [ -77.14843, 38.78615 ], [ -77.14886, 38.78647 ], [ -77.14881, 38.78613 ], [ -77.14843, 38.78615 ] ], [ [ -77.14345, 38.77741 ], [ -77.14226, 38.77658 ], [ -77.14154, 38.77668 ], [ -77.14345, 38.77741 ] ], [ [ -77.14284, 38.77838 ], [ -77.14223, 38.77815 ], [ -77.14196, 38.77857 ], [ -77.14269, 38.77862 ], [ -77.14284, 38.77838 ] ], [ [ -77.14099, 38.77768 ], [ -77.14077, 38.778 ], [ -77.14076, 38.77804 ], [ -77.14099, 38.77768 ] ], [ [ -77.14148, 38.78371 ], [ -77.14208, 38.78442 ], [ -77.14284, 38.78547 ], [ -77.14222, 38.78357 ], [ -77.14148, 38.78371 ] ] ] } },
{ "type": "Feature", "properties": { "variant": "T0", "miles": 2.0 }, "geometry": { "type": "Polygon", "coordinates": [ [ [ -77.1883, 38.77255 ], [ -77.18674, 38.77372 ], [ -77.18465, 38.77412 ], [ -77.18681, 38.7738 ], [ -77.18972, 38.7728 ], [ -77.19038, 38.77325 ], [ -77.19026, 38.77408 ], [ -77.19171, 38.77405 ], [ -77.19199, 38.7744 ], [ -77.19142, 38.77502 ], [ -77.18995, 38.77521 ], [ -77.18972, 38.77605 ], [ -77.19029, 38.77649 ], [ -77.18967, 38.77716 ], [ -77.18971, 38.77792 ], [ -77.19301, 38.77735 ], [ -77.1929, 38.77662 ], [ -77.19356, 38.77606 ], [ -77.1943, 38.77678 ], [ -77.19549, 38.77618 ], [ -77.19619, 38.77706 ], [ -77.19545, 38.77753 ], [ -77.19538, 38.77923 ], [ -77.19429, 38.77946 ], [ -77.19341, 38.77906 ], [ -77.19244, 38.7792 ], [ -77.19182, 38.78141 ], [ -77.19032, 38.78296 ], [ -77.19121, 38.78303 ], [ -77.19115, 38.78379 ], [ -77.18931, 38.78477 ], [ -77.18857, 38.78427 ], [ -77.18893, 38.78372 ], [ -77.1877, 38.7841 ], [ -77.18788, 38.78522 ], [ -77.18991, 38.78554 ], [ -77.19039, 38.7862 ], [ -77.18954, 38.78658 ], [ -77.1867, 38.78639 ], [ -77.18714, 38.78932 ], [ -77.18648, 38.78984 ], [ -77.18565, 38.78973 ], [ -77.18529, 38.79044 ], [ -77.18454, 38.79081 ], [ -77.18288, 38.7905 ], [ -77.1824, 38.79115 ], [ -77.18187, 38.79118 ], [ -77.18143, 38.7905 ], [ -77.18225, 38.78871 ], [ -77.18147, 38.78853 ], [ -77.18082, 38.78771 ], [ -77.18016, 38.78841 ], [ -77.17927, 38.78811 ], [ -77.17952, 38.78694 ], [ -77.17858, 38.78648 ], [ -77.17855, 38.78607 ], [ -77.17924, 38.78538 ], [ -77.17907, 38.78417 ], [ -77.17967, 38.78237 ], [ -77.1788, 38.78198 ], [ -77.17822, 38.78223 ], [ -77.17765, 38.78385 ], [ -77.17785, 38.78442 ], [ -77.17667, 38.78537 ], [ -77.17721, 38.78617 ], [ -77.17686, 38.78648 ], [ -77.17594, 38.78633 ], [ -77.17543, 38.78676 ], [ -77.17432, 38.78647 ], [ -77.17587, 38.78747 ], [ -77.17601, 38.78787 ], [ -77.17533, 38.78863 ], [ -77.17485, 38.78881 ], [ -77.17422, 38.78848 ], [ -77.17146, 38.78927 ], [ -77.17078, 38.78805 ], [ -77.16895, 38.78857 ], [ -77.16667, 38.79004 ], [ -77.1632, 38.79091 ], [ -77.16127, 38.7902 ], [ -77.16114, 38.78768 ], [ -77.15964, 38.78637 ], [ -77.16026, 38.78488 ], [ -77.15976, 38.78488 ], [ -77.15945, 38.78599 ], [ -77.15848, 38.78608 ], [ -77.15815, 38.78667 ], [ -77.15746, 38.78677 ], [ -77.15784, 38.78849 ], [ -77.15873, 38.78891 ], [ -77.15838, 38.78953 ], [ -77.1586, 38.79152 ], [ -77.15762, 38.79235 ], [ -77.15605, 38.79252 ], [ -77.15503, 38.79089 ], [ -77.15602, 38.79059 ], [ -77.15667, 38.79148 ], [ -77.15737, 38.79093 ], [ -77.15603, 38.7873 ], [ -77.15683, 38.78059 ], [ -77.1546, 38.79186 ], [ -77.15273, 38.79447 ], [ -77.15024, 38.79532 ], [ -77.14973, 38.79522 ], [ -77.14959, 38.79446 ], [ -77.15165, 38.79377 ], [ -77.15264, 38.79264 ], [ -77.14985, 38.79415 ], [ -77.1494, 38.79394 ], [ -77.14952, 38.79321 ], [ -77.14901, 38.79324 ], [ -77.14857, 38.79262 ], [ -77.14777, 38.79356 ], [ -77.14654, 38.7939 ], [ -77.14548, 38.79378 ], [ -77.14472, 38.79312 ], [ -77.1445, 38.79168 ], [ -77.14546, 38.79152 ], [ -77.14576, 38.79187 ], [ -77.14626, 38.79104 ], [ -77.1479, 38.79021 ], [ -77.14766, 38.78898 ], [ -77.14622, 38.78701 ], [ -77.1463, 38.78811 ], [ -77.14566, 38.78868 ], [ -77.14493, 38.78818 ], [ -77.14486, 38.78731 ], [ -77.14399, 38.78716 ], [ -77.14331, 38.78641 ], [ -77.14415, 38.78829 ], [ -77.14372, 38.78897 ], [ -77.14284, 38.78864 ], [ -77.1423, 38.78742 ], [ -77.1413, 38.78786 ], [ -77.14001, 38.78724 ], [ -77.1403, 38.78805 ], [ -77.14116, 38.78833 ], [ -77.14128, 38.78873 ], [ -77.14099, 38.78908 ], [ -77.13976, 38.78912 ], [ -77.13968, 38.79034 ], [ -77.13871, 38.79039 ], [ -77.13818, 38.7889 ], [ -77.13741, 38.78866 ], [ -77.13735, 38.78995 ], [ -77.13583, 38.79078 ], [ -77.13353, 38.78908 ], [ -77.13385, 38.78786 ], [ -77.13177, 38.78784 ], [ -77.13152, 38.78586 ], [ -77.13045, 38.78561 ], [ -77.13032, 38.78469 ], [ -77.12964, 38.78469 ], [ -77.12965, 38.78557 ], [ -77.12896, 38.78611 ], [ -77.12827, 38.78557 ], [ -77.12826, 38.7847 ], [ -77.12697, 38.78457 ], [ -77.12674, 38.78419 ], [ -77.1274, 38.78349 ], [ -77.13033, 38.78348 ], [ -77.13005, 38.78117 ], [ -77.13054, 38.7805 ], [ -77.13144, 38.78093 ], [ -77.13172, 38.78347 ], [ -77.13506, 38.78348 ], [ -77.13473, 38.7799 ], [ -77.132, 38.77971 ], [ -77.13137, 38.77913 ], [ -77.13211, 38.77864 ], [ -77.1347, 38.77881 ], [ -77.13461, 38.77681 ], [ -77.13521, 38.7762 ], [ -77.13598, 38.77667 ], [ -77.13606, 38.7774 ], [ -77.13645, 38.77726 ], [ -77.13732, 38.77772 ], [ -77.13793, 38.77904 ], [ -77.13736, 38.7798 ], [ -77.13862, 38.77993 ], [ -77.13868, 38.78063 ], [ -77.13887, 38.78069 ], [ -77.13973, 38.77954 ], [ -77.13902, 38.7797 ], [ -77.13828, 38.7792 ], [ -77.13986, 38.77675 ], [ -77.13945, 38.77595 ], [ -77.13971, 38.7756 ], [ -77.14022, 38.77549 ], [ -77.1409, 38.77593 ], [ -77.14159, 38.77561 ], [ -77.14173, 38.7748 ], [ -77.14335, 38.77412 ], [ -77.14523, 38.77436 ], [ -77.14842, 38.77551 ], [ -77.14814, 38.7749 ], [ -77.14543, 38.77309 ], [ -77.14684, 38.77197 ], [ -77.14829, 38.7728 ], [ -77.14872, 38.77235 ], [ -77.14721, 38.7715 ], [ -77.1472, 38.7698 ], [ -77.1477, 38.76966 ], [ -77.14855, 38.77017 ], [ -77.15089, 38.76913 ], [ -77.15048, 38.76866 ], [ -77.14783, 38.76822 ], [ -77.14719, 38.76897 ], [ -77.14524, 38.76876 ], [ -77.14384, 38.76829 ], [ -77.14374, 38.76788 ], [ -77.14417, 38.7673 ], [ -77.14511, 38.76718 ], [ -77.14506, 38.7664 ], [ -77.14589, 38.76634 ], [ -77.14758, 38.76412 ], [ -77.15055, 38.7632 ], [ -77.14866, 38.76161 ], [ -77.14907, 38.76092 ], [ -77.14984, 38.76115 ], [ -77.15047, 38.76051 ], [ -77.1514, 38.76074 ], [ -77.15103, 38.76176 ], [ -77.15142, 38.76219 ], [ -77.15339, 38.76091 ], [ -77.15414, 38.76114 ], [ -77.15442, 38.76167 ], [ -77.15352, 38.76272 ], [ -77.15386, 38.76301 ], [ -77.1558, 38.76142 ], [ -77.15483, 38.76056 ], [ -77.15496, 38.76016 ], [ -77.15607, 38.76014 ], [ -77.15713, 38.7609 ], [ -77.1573, 38.76157 ], [ -77.15783, 38.76096 ], [ -77.15682, 38.76017 ], [ -77.15695, 38.75977 ], [ -77.15765, 38.75927 ], [ -77.15817, 38.75935 ], [ -77.15967, 38.7608 ], [ -77.16038, 38.76033 ], [ -77.16179, 38.76117 ], [ -77.16155, 38.7618 ], [ -77.16085, 38.76205 ], [ -77.16074, 38.76282 ], [ -77.15978, 38.76272 ], [ -77.15895, 38.76186 ], [ -77.15775, 38.76329 ], [ -77.15789, 38.76379 ], [ -77.15932, 38.76457 ], [ -77.15963, 38.76585 ], [ -77.16214, 38.76617 ], [ -77.16564, 38.76724 ], [ -77.16821, 38.76639 ], [ -77.17135, 38.76611 ], [ -77.17238, 38.7667 ], [ -77.17266, 38.76786 ], [ -77.17327, 38.76657 ], [ -77.17456, 38.76567 ], [ -77.17748, 38.76802 ], [ -77.18127, 38.77019 ], [ -77.18176, 38.76524 ], [ -77.1809, 38.76505 ], [ -77.18072, 38.76466 ], [ -77.18144, 38.76415 ], [ -77.18299, 38.76436 ], [ -77.1826, 38.77075 ], [ -77.17914, 38.77425 ], [ -77.17929, 38.77791 ], [ -77.18247, 38.77839 ], [ -77.18188, 38.77463 ], [ -77.18225, 38.77294 ], [ -77.18319, 38.77243 ], [ -77.18366, 38.76954 ], [ -77.18415, 38.76938 ], [ -77.18483, 38.76993 ], [ -77.18475, 38.77233 ], [ -77.1876, 38.77202 ], [ -77.1883, 38.77255 ] ], [ [ -77.16285, 38.78974 ], [ -77.16395, 38.78939 ], [ -77.1639, 38.78884 ], [ -77.16283, 38.78915 ], [ -77.16285, 38.78974 ] ], [ [ -77.15767, 38.77522 ], [ -77.15775, 38.77436 ], [ -77.15894, 38.77442 ], [ -77.1587, 38.77344 ], [ -77.15976, 38.77239 ], [ -77.16052, 38.77281 ], [ -77.16175, 38.77264 ], [ -77.16239, 38.77315 ], [ -77.16341, 38.7732 ], [ -77.16344, 38.76956 ], [ -77.16397, 38.76913 ], [ -77.16556, 38.76908 ], [ -77.16462, 38.7681 ], [ -77.16246, 38.76754 ], [ -77.15997, 38.76959 ], [ -77.15776, 38.77011 ], [ -77.15903, 38.77031 ], [ -77.15932, 38.77065 ], [ -77.15876, 38.77128 ], [ -77.15511, 38.77117 ], [ -77.1545, 38.77213 ], [ -77.15487, 38.77311 ], [ -77.15767, 38.77522 ] ], [ [ -77.15796, 38.76893 ], [ -77.15861, 38.76792 ], [ -77.15933, 38.76846 ], [ -77.15965, 38.76822 ], [ -77.15944, 38.76735 ], [ -77.15802, 38.76733 ], [ -77.15724, 38.76833 ], [ -77.15731, 38.7689 ], [ -77.15796, 38.76893 ] ], [ [ -77.17413, 38.78492 ], [ -77.17409, 38.78493 ], [ -77.17412, 38.78495 ], [ -77.17413, 38.78492 ] ], [ [ -77.17492, 38.77643 ], [ -77.17551, 38.77542 ], [ -77.17717, 38.77429 ], [ -77.17707, 38.77326 ], [ -77.17508, 38.77244 ], [ -77.17301, 38.77217 ], [ -77.17268, 38.77363 ], [ -77.17339, 38.77452 ], [ -77.17293, 38.77633 ], [ -77.17492, 38.77643 ] ], [ [ -77.17268, 38.76947 ], [ -77.1719, 38.76928 ], [ -77.17185, 38.76943 ], [ -77.17268, 38.76947 ] ], [ [ -77.17377, 38.76853 ], [ -77.17522, 38.76912 ], [ -77.17675, 38.76936 ], [ -77.17518, 38.76816 ], [ -77.17413, 38.76782 ], [ -77.17377, 38.76853 ] ], [ [ -77.1843, 38.78683 ], [ -77.1843, 38.7868 ], [ -77.18429, 38.78682 ], [ -77.1843, 38.78683 ] ], [ [ -77.18486, 38.78279 ], [ -77.18274, 38.7828 ], [ -77.18276, 38.78453 ], [ -77.18323, 38.78416 ], [ -77.18384, 38.78434 ], [ -77.18446, 38.78356 ], [ -77.1851, 38.7839 ], [ -77.18486, 38.78279 ] ], [ [ -77.18158, 38.77949 ], [ -77.17686, 38.77898 ], [ -77.17683, 38.77928 ], [ -77.17726, 38.77962 ], [ -77.17798, 38.77911 ], [ -77.17851, 38.77929 ], [ -77.17942, 38.78023 ], [ -77.17945, 38.78085 ], [ -77.18007, 38.78118 ], [ -77.18083, 38.78008 ], [ -77.18244, 38.7801 ], [ -77.18158, 38.77949 ] ], [ [ -77.18509, 38.77515 ], [ -77.18696, 38.77834 ], [ -77.18833, 38.77813 ], [ -77.18828, 38.77654 ], [ -77.18727, 38.77661 ], [ -77.18703, 38.77487 ], [ -77.18509, 38.77515 ] ], [ [ -77.19041, 38.77971 ], [ -77.18985, 38.78149 ], [ -77.18997, 38.78153 ], [ -77.19075, 38.78029 ], [ -77.1909, 38.77899 ], [ -77.19019, 38.77912 ], [ -77.19041, 38.77971 ] ], [ [ -77.18841, 38.77507 ], [ -77.18843, 38.77557 ], [ -77.18858, 38.77505 ], [ -77.18841, 38.77507 ] ], [ [ -77.18839, 38.77939 ], [ -77.18833, 38.78053 ], [ -77.18785, 38.78113 ], [ -77.18852, 38.78119 ], [ -77.18899, 38.78003 ], [ -77.18839, 38.77939 ] ], [ [ -77.18688, 38.78012 ], [ -77.18697, 38.7796 ], [ -77.18675, 38.77963 ], [ -77.18688, 38.78012 ] ], [ [ -77.17999, 38.77159 ], [ -77.18056, 38.77115 ], [ -77.1803, 38.77096 ], [ -77.17942, 38.7711 ], [ -77.17694, 38.7705 ], [ -77.17667, 38.77105 ], [ -77.17999, 38.77159 ] ], [ [ -77.18133, 38.78448 ], [ -77.18131, 38.78269 ], [ -77.181, 38.78266 ], [ -77.18052, 38.78479 ], [ -77.18133, 38.78448 ] ], [ [ -77.18119, 38.78667 ], [ -77.18182, 38.78694 ], [ -77.1824, 38.7875 ], [ -77.18175, 38.78665 ], [ -77.18119, 38.78667 ] ], [ [ -77.1815, 38.78152 ], [ -77.18188, 38.78156 ], [ -77.18208, 38.78116 ], [ -77.18152, 38.7811 ], [ -77.1815, 38.78152 ] ], [ [ -77.18326, 38.78175 ], [ -77.18461, 38.78173 ], [ -77.18451, 38.78139 ], [ -77.1835, 38.78129 ], [ -77.18326, 38.78175 ] ], [ [ -77.17699, 38.78107 ], [ -77.17556, 38.78001 ], [ -77.17554, 38.78099 ], [ -77.17699, 38.78107 ] ], [ [ -77.1778, 38.77556 ], [ -77.17705, 38.77638 ], [ -77.17695, 38.77753 ], [ -77.17777, 38.77758 ], [ -77.1778, 38.77556 ] ], [ [ -77.17869, 38.77278 ], [ -77.17846, 38.77279 ], [ -77.17852, 38.77296 ], [ -77.17869, 38.77278 ] ], [ [ -77.17654, 38.78296 ], [ -77.17648, 38.7831 ], [ -77.17648, 38.78312 ], [ -77.17654, 38.78296 ] ], [ [ -77.16728, 38.78845 ], [ -77.16696, 38.78833 ], [ -77.16672, 38.78822 ], [ -77.16728, 38.78845 ] ], [ [ -77.16861, 38.78692 ], [ -77.16859, 38.78749 ], [ -77.1696, 38.78732 ], [ -77.16913, 38.7868 ], [ -77.1693, 38.78618 ], [ -77.16859, 38.78571 ], [ -77.16839, 38.78501 ], [ -77.16753, 38.78479 ], [ -77.16742, 38.78418 ], [ -77.16381, 38.78375 ], [ -77.16539, 38.78474 ], [ -77.16714, 38.78488 ], [ -77.16739, 38.78537 ], [ -77.16838, 38.78572 ], [ -77.16844, 38.78613 ], [ -77.16746, 38.78648 ], [ -77.16757, 38.78679 ], [ -77.16861, 38.78692 ] ], [ [ -77.16814, 38.78118 ], [ -77.16907, 38.7814 ], [ -77.16873, 38.78325 ], [ -77.17101, 38.78354 ], [ -77.17105, 38.78199 ], [ -77.17033, 38.78144 ], [ -77.17038, 38.77985 ], [ -77.16915, 38.78042 ], [ -77.16845, 38.77989 ], [ -77.16957, 38.7788 ], [ -77.17113, 38.77863 ], [ -77.16874, 38.77843 ], [ -77.16809, 38.77869 ], [ -77.16803, 38.77977 ], [ -77.1673, 38.78088 ], [ -77.16556, 38.78108 ], [ -77.16619, 38.78174 ], [ -77.16627, 38.78268 ], [ -77.16814, 38.78118 ] ], [ [ -77.16655, 38.77932 ], [ -77.16669, 38.77899 ], [ -77.16644, 38.77903 ], [ -77.16655, 38.77932 ] ], [ [ -77.16442, 38.77933 ], [ -77.16431, 38.77983 ], [ -77.16485, 38.7795 ], [ -77.16442, 38.77933 ] ], [ [ -77.16191, 38.77698 ], [ -77.16158, 38.77638 ], [ -77.16183, 38.77811 ], [ -77.16191, 38.77698 ] ], [ [ -77.16814, 38.77562 ], [ -77.1677, 38.77622 ], [ -77.16764, 38.77646 ], [ -77.1681, 38.77648 ], [ -77.16814, 38.77562 ] ], [ [ -77.1683, 38.77372 ], [ -77.16805, 38.77407 ], [ -77.16822, 38.77463 ], [ -77.16827, 38.77399 ], [ -77.1683, 38.77372 ] ], [ [ -77.16663, 38.77151 ], [ -77.16676, 38.77278 ], [ -77.16685, 38.77151 ], [ -77.16663, 38.77151 ] ], [ [ -77.16855, 38.77043 ], [ -77.16679, 38.77017 ], [ -77.16675, 38.77043 ], [ -77.16855, 38.77043 ] ], [ [ -77.16694, 38.76909 ], [ -77.17022, 38.76926 ], [ -77.17036, 38.76874 ], [ -77.16683, 38.7682 ], [ -77.16694, 38.76909 ] ], [ [ -77.16982, 38.77193 ], [ -77.16959, 38.77475 ], [ -77.16944, 38.77711 ], [ -77.17081, 38.77573 ], [ -77.17073, 38.77237 ], [ -77.16982, 38.77193 ] ], [ [ -77.16823, 38.77151 ], [ -77.16838, 38.77264 ], [ -77.16847, 38.77151 ], [ -77.16823, 38.77151 ] ], [ [ -77.16893, 38.76752 ], [ -77.17108, 38.76752 ], [ -77.17117, 38.76729 ], [ -77.16893, 38.76752 ] ], [ [ -77.17264, 38.7878 ], [ -77.17229, 38.78801 ], [ -77.17284, 38.78772 ], [ -77.17264, 38.7878 ] ], [ [ -77.17083, 38.7856 ], [ -77.17097, 38.78538 ], [ -77.17063, 38.78545 ], [ -77.17083, 38.7856 ] ], [ [ -77.1654, 38.77016 ], [ -77.16477, 38.77017 ], [ -77.16476, 38.77039 ], [ -77.16537, 38.77041 ], [ -77.1654, 38.77016 ] ], [ [ -77.16669, 38.77389 ], [ -77.16584, 38.77654 ], [ -77.16626, 38.77644 ], [ -77.16687, 38.77519 ], [ -77.16669, 38.77389 ] ], [ [ -77.16321, 38.77817 ], [ -77.16411, 38.77802 ], [ -77.16388, 38.77735 ], [ -77.16427, 38.77688 ], [ -77.16329, 38.77706 ], [ -77.16321, 38.77817 ] ], [ [ -77.16317, 38.77428 ], [ -77.16268, 38.77443 ], [ -77.16297, 38.776 ], [ -77.1632, 38.77595 ], [ -77.16317, 38.77428 ] ], [ [ -77.16496, 38.77566 ], [ -77.16471, 38.77419 ], [ -77.1646, 38.77572 ], [ -77.16496, 38.77566 ] ], [ [ -77.16484, 38.77147 ], [ -77.16483, 38.77277 ], [ -77.1648, 38.77307 ], [ -77.16513, 38.77302 ], [ -77.16525, 38.77149 ], [ -77.16484, 38.77147 ] ], [ [ -77.16632, 38.77767 ], [ -77.16535, 38.77775 ], [ -77.16537, 38.77782 ], [ -77.16632, 38.77767 ] ], [ [ -77.16251, 38.7876 ], [ -77.16385, 38.78734 ], [ -77.16259, 38.78687 ], [ -77.16251, 38.7876 ] ], [ [ -77.16243, 38.78567 ], [ -77.16228, 38.78573 ], [ -77.16247, 38.78584 ], [ -77.16243, 38.78567 ] ], [ [ -77.16247, 38.7835 ], [ -77.16195, 38.78364 ], [ -77.16241, 38.78372 ], [ -77.16247, 38.7835 ] ], [ [ -77.16285, 38.78227 ], [ -77.16224, 38.78167 ], [ -77.16297, 38.7812 ], [ -77.16299, 38.77946 ], [ -77.16033, 38.77996 ], [ -77.16022, 38.78172 ], [ -77.16114, 38.78177 ], [ -77.16177, 38.78243 ], [ -77.16285, 38.78227 ] ], [ [ -77.1655, 38.77982 ], [ -77.16642, 38.78004 ], [ -77.16629, 38.77974 ], [ -77.1655, 38.77982 ] ], [ [ -77.16451, 38.78558 ], [ -77.16443, 38.78553 ], [ -77.1644, 38.78561 ], [ -77.16451, 38.78558 ] ], [ [ -77.16487, 38.78661 ], [ -77.16494, 38.78668 ], [ -77.16494, 38.78656 ], [ -77.16487, 38.78661 ] ], [ [ -77.1658, 38.78905 ], [ -77.16584, 38.78912 ], [ -77.1659, 38.78911 ], [ -77.1658, 38.78905 ] ], [ [ -77.16581, 38.78903 ], [ -77.16579, 38.78902 ], [ -77.1658, 38.78904 ], [ -77.16581, 38.78903 ] ], [ [ -77.16025, 38.77728 ], [ -77.15984, 38.77735 ], [ -77.16031, 38.77871 ], [ -77.16052, 38.77866 ], [ -77.16025, 38.77728 ] ], [ [ -77.16056, 38.7838 ], [ -77.16, 38.78373 ], [ -77.16, 38.78378 ], [ -77.16056, 38.7838 ] ], [ [ -77.1567, 38.76229 ], [ -77.15677, 38.76221 ], [ -77.15668, 38.76228 ], [ -77.1567, 38.76229 ] ], [ [ -77.14917, 38.79087 ], [ -77.14725, 38.7918 ], [ -77.14702, 38.79256 ], [ -77.14776, 38.79164 ], [ -77.14917, 38.79087 ] ], [ [ -77.14944, 38.78851 ], [ -77.14916, 38.78825 ], [ -77.14933, 38.78853 ], [ -77.14944, 38.78851 ] ], [ [ -77.15084, 38.78612 ], [ -77.15128, 38.78669 ], [ -77.15225, 38.78676 ], [ -77.1524, 38.78716 ], [ -77.15158, 38.78793 ], [ -77.15256, 38.78802 ], [ -77.15284, 38.78876 ], [ -77.15396, 38.78897 ], [ -77.15445, 38.78642 ], [ -77.15356, 38.78658 ], [ -77.1529, 38.78608 ], [ -77.15206, 38.78628 ], [ -77.15096, 38.78435 ], [ -77.15008, 38.78495 ], [ -77.15021, 38.7862 ], [ -77.15084, 38.78612 ] ], [ [ -77.14993, 38.78376 ], [ -77.15071, 38.78396 ], [ -77.15092, 38.78425 ], [ -77.15082, 38.78342 ], [ -77.14993, 38.78376 ] ], [ [ -77.15053, 38.78257 ], [ -77.1508, 38.78296 ], [ -77.15034, 38.78194 ], [ -77.14971, 38.78206 ], [ -77.14977, 38.78255 ], [ -77.15053, 38.78257 ] ], [ [ -77.14955, 38.78082 ], [ -77.14898, 38.78083 ], [ -77.14901, 38.78092 ], [ -77.14955, 38.78082 ] ], [ [ -77.14968, 38.77918 ], [ -77.15013, 38.77854 ], [ -77.14871, 38.77748 ], [ -77.14834, 38.77798 ], [ -77.14968, 38.77918 ] ], [ [ -77.14945, 38.7742 ], [ -77.15018, 38.77331 ], [ -77.15079, 38.77252 ], [ -77.15042, 38.77243 ], [ -77.14944, 38.7734 ], [ -77.14945, 38.7742 ] ], [ [ -77.15426, 38.7829 ], [ -77.15398, 38.78171 ], [ -77.15444, 38.7813 ], [ -77.15414, 38.78106 ], [ -77.15168, 38.78166 ], [ -77.15219, 38.78297 ], [ -77.15426, 38.7829 ] ], [ [ -77.15126, 38.77024 ], [ -77.15224, 38.77027 ], [ -77.15147, 38.77015 ], [ -77.15126, 38.77024 ] ], [ [ -77.15449, 38.76689 ], [ -77.15478, 38.76587 ], [ -77.15189, 38.76455 ], [ -77.15279, 38.76559 ], [ -77.1522, 38.76686 ], [ -77.15449, 38.76689 ] ], [ [ -77.15467, 38.76986 ], [ -77.15496, 38.77009 ], [ -77.15755, 38.77011 ], [ -77.15467, 38.76986 ] ], [ [ -77.15365, 38.76879 ], [ -77.15399, 38.76817 ], [ -77.15409, 38.76797 ], [ -77.15337, 38.76797 ], [ -77.15365, 38.76879 ] ], [ [ -77.15541, 38.7631 ], [ -77.15501, 38.76369 ], [ -77.15552, 38.76402 ], [ -77.15595, 38.76323 ], [ -77.15541, 38.7631 ] ], [ [ -77.15561, 38.76819 ], [ -77.15534, 38.76872 ], [ -77.15593, 38.76877 ], [ -77.15583, 38.76844 ], [ -77.15561, 38.76819 ] ], [ [ -77.15654, 38.76739 ], [ -77.15664, 38.76731 ], [ -77.15642, 38.76731 ], [ -77.15654, 38.76739 ] ], [ [ -77.15464, 38.77564 ], [ -77.15465, 38.7757 ], [ -77.15471, 38.77564 ], [ -77.15464, 38.77564 ] ], [ [ -77.15708, 38.77861 ], [ -77.15711, 38.77857 ], [ -77.15709, 38.77857 ], [ -77.15708, 38.77861 ] ], [ [ -77.15734, 38.77765 ], [ -77.15726, 38.77762 ], [ -77.15725, 38.77767 ], [ -77.15734, 38.77765 ] ], [ [ -77.15247, 38.7703 ], [ -77.15262, 38.77027 ], [ -77.15234, 38.77028 ], [ -77.15247, 38.7703 ] ], [ [ -77.15231, 38.77028 ], [ -77.15224, 38.77027 ], [ -77.15228, 38.77028 ], [ -77.15231, 38.77028 ] ], [ [ -77.15099, 38.77976 ], [ -77.15052, 38.78004 ], [ -77.15102, 38.78052 ], [ -77.15156, 38.7804 ], [ -77.15099, 38.77976 ] ], [ [ -77.15223, 38.77548 ], [ -77.15211, 38.7751 ], [ -77.1518, 38.77532 ], [ -77.15223, 38.77548 ] ], [ [ -77.15224, 38.77382 ], [ -77.1523, 38.77397 ], [ -77.15226, 38.77381 ], [ -77.15224, 38.77382 ] ], [ [ -77.15269, 38.78492 ], [ -77.1529, 38.78537 ], [ -77.1529, 38.78477 ], [ -77.15269, 38.78492 ] ], [ [ -77.15027, 38.77581 ], [ -77.15033, 38.77534 ], [ -77.15003, 38.77573 ], [ -77.15027, 38.77581 ] ], [ [ -77.1503, 38.77708 ], [ -77.15008, 38.77695 ], [ -77.15031, 38.77712 ], [ -77.1503, 38.77708 ] ], [ [ -77.15221, 38.79122 ], [ -77.15219, 38.79082 ], [ -77.15154, 38.79125 ], [ -77.15221, 38.79122 ] ], [ [ -77.15195, 38.78898 ], [ -77.15194, 38.78905 ], [ -77.1521, 38.78899 ], [ -77.15195, 38.78898 ] ], [ [ -77.15055, 38.79043 ], [ -77.15091, 38.79002 ], [ -77.15043, 38.79025 ], [ -77.15055, 38.79043 ] ], [ [ -77.15129, 38.79135 ], [ -77.15131, 38.79134 ], [ -77.15132, 38.79133 ], [ -77.15129, 38.79135 ] ], [ [ -77.14629, 38.78364 ], [ -77.14684, 38.78379 ], [ -77.1468, 38.78283 ], [ -77.14836, 38.78231 ], [ -77.14597, 38.78282 ], [ -77.14629, 38.78364 ] ], [ [ -77.1452, 38.78107 ], [ -77.14213, 38.78162 ], [ -77.14222, 38.78229 ], [ -77.14521, 38.78171 ], [ -77.1452, 38.78107 ] ], [ [ -77.13975, 38.78204 ], [ -77.13916, 38.78238 ], [ -77.13922, 38.78288 ], [ -77.13984, 38.78276 ], [ -77.13975, 38.78204 ] ], [ [ -77.13917, 38.7811 ], [ -77.13936, 38.78103 ], [ -77.13906, 38.78092 ], [ -77.13917, 38.7811 ] ], [ [ -77.14527, 38.77986 ], [ -77.14188, 38.77965 ], [ -77.14199, 38.78053 ], [ -77.14527, 38.77986 ] ], [ [ -77.14608, 38.77832 ], [ -77.14589, 38.77886 ], [ -77.14627, 38.77839 ], [ -77.14608, 38.77832 ] ], [ [ -77.14765, 38.77654 ], [ -77.146, 38.77581 ], [ -77.14535, 38.77684 ], [ -77.14697, 38.77746 ], [ -77.14765, 38.77654 ] ], [ [ -77.14676, 38.78016 ], [ -77.14701, 38.78069 ], [ -77.14659, 38.78142 ], [ -77.14767, 38.78119 ], [ -77.14719, 38.78001 ], [ -77.14802, 38.7793 ], [ -77.14763, 38.77893 ], [ -77.14676, 38.78016 ] ], [ [ -77.1487, 38.78505 ], [ -77.14778, 38.78511 ], [ -77.14735, 38.78501 ], [ -77.14737, 38.78515 ], [ -77.1487, 38.78505 ] ], [ [ -77.14864, 38.78653 ], [ -77.14881, 38.78613 ], [ -77.14843, 38.78615 ], [ -77.14864, 38.78653 ] ], [ [ -77.14672, 38.79278 ], [ -77.14685, 38.79275 ], [ -77.14692, 38.7927 ], [ -77.14672, 38.79278 ] ], [ [ -77.14609, 38.7928 ], [ -77.14638, 38.79283 ], [ -77.14601, 38.79272 ], [ -77.14609, 38.7928 ] ], [ [ -77.14474, 38.77781 ], [ -77.14418, 38.7787 ], [ -77.14484, 38.77785 ], [ -77.14474, 38.77781 ] ], [ [ -77.14196, 38.77857 ], [ -77.14284, 38.77838 ], [ -77.14223, 38.77815 ], [ -77.14196, 38.77857 ] ], [ [ -77.14076, 38.77804 ], [ -77.14099, 38.77768 ], [ -77.14092, 38.77765 ], [ -77.14076, 38.77804 ] ], [ [ -77.14345, 38.77741 ], [ -77.14226, 38.77658 ], [ -77.14154, 38.77668 ], [ -77.14345, 38.77741 ] ], [ [ -77.14046, 38.77947 ], [ -77.14047, 38.77948 ], [ -77.14047, 38.77947 ], [ -77.14046, 38.77947 ] ], [ [ -77.13862, 38.78529 ], [ -77.1389, 38.7847 ], [ -77.13848, 38.7843 ], [ -77.13695, 38.78459 ], [ -77.13712, 38.78615 ], [ -77.13736, 38.78552 ], [ -77.13862, 38.78529 ] ], [ [ -77.13746, 38.78324 ], [ -77.13722, 38.78201 ], [ -77.13635, 38.78204 ], [ -77.13664, 38.7834 ], [ -77.13746, 38.78324 ] ], [ [ -77.14412, 38.78499 ], [ -77.14472, 38.78507 ], [ -77.14484, 38.78521 ], [ -77.14471, 38.78483 ], [ -77.14412, 38.78499 ] ], [ [ -77.14465, 38.78338 ], [ -77.14462, 38.78308 ], [ -77.14445, 38.78311 ], [ -77.14465, 38.78338 ] ], [ [ -77.14148, 38.78371 ], [ -77.14208, 38.78442 ], [ -77.14284, 38.78547 ], [ -77.14222, 38.78357 ], [ -77.14148, 38.78371 ] ], [ [ -77.1449, 38.78581 ], [ -77.14478, 38.78588 ], [ -77.14489, 38.78598 ], [ -77.1449, 38.78581 ] ], [ [ -77.13859, 38.78767 ], [ -77.13879, 38.78788 ], [ -77.13885, 38.78791 ], [ -77.13859, 38.78767 ] ], [ [ -77.13319, 38.78491 ], [ -77.13364, 38.78502 ], [ -77.13363, 38.78478 ], [ -77.13319, 38.78491 ] ], [ [ -77.13527, 38.78752 ], [ -77.13524, 38.78851 ], [ -77.13589, 38.78908 ], [ -77.13573, 38.78775 ], [ -77.13527, 38.78752 ] ] ] } },
{ "type": "Feature", "properties": { "variant": "T2s", "miles": 1.0 }, "geometry": { "type": "Polygon", "coordinates": [ [ [ -77.17217, 38.77452 ], [ -77.17268, 38.77723 ], [ -77.17335, 38.77726 ], [ -77.17352, 38.77654 ], [ -77.1743, 38.77642 ], [ -77.17478, 38.77661 ], [ -77.1749, 38.77735 ], [ -77.17675, 38.77765 ], [ -77.17754, 38.77848 ], [ -77.1773, 38.77885 ], [ -77.17559, 38.77891 ], [ -77.17535, 38.77937 ], [ -77.17454, 38.77949 ], [ -77.17449, 38.78151 ], [ -77.17428, 38.78189 ], [ -77.17346, 38.78203 ], [ -77.17343, 38.78416 ], [ -77.17237, 38.78443 ], [ -77.17216, 38.78505 ], [ -77.17053, 38.78547 ], [ -77.16899, 38.78542 ], [ -77.16753, 38.78479 ], [ -77.16742, 38.78418 ], [ -77.16381, 38.78375 ], [ -77.16539, 38.78474 ], [ -77.16714, 38.78488 ], [ -77.16739, 38.78537 ], [ -77.16838, 38.78572 ], [ -77.16812, 38.78646 ], [ -77.16746, 38.78648 ], [ -77.16738, 38.78781 ], [ -77.16657, 38.78812 ], [ -77.16663, 38.78897 ], [ -77.16568, 38.78898 ], [ -77.16496, 38.78957 ], [ -77.16392, 38.78938 ], [ -77.16415, 38.7884 ], [ -77.16322, 38.78787 ], [ -77.16385, 38.78734 ], [ -77.16354, 38.78708 ], [ -77.16259, 38.78687 ], [ -77.16181, 38.78721 ], [ -77.16137, 38.7869 ], [ -77.16048, 38.78727 ], [ -77.16008, 38.78699 ], [ -77.15959, 38.78619 ], [ -77.16026, 38.78488 ], [ -77.15985, 38.78486 ], [ -77.15945, 38.78599 ], [ -77.15848, 38.78608 ], [ -77.15815, 38.78667 ], [ -77.15746, 38.78677 ], [ -77.15784, 38.78849 ], [ -77.1587, 38.78884 ], [ -77.15869, 38.78933 ], [ -77.1576, 38.78969 ], [ -77.15674, 38.78938 ], [ -77.15603, 38.78717 ], [ -77.15683, 38.78059 ], [ -77.15593, 38.78124 ], [ -77.15522, 38.78616 ], [ -77.15482, 38.78644 ], [ -77.15413, 38.78627 ], [ -77.15356, 38.78658 ], [ -77.1529, 38.78608 ], [ -77.15206, 38.78628 ], [ -77.15082, 38.78342 ], [ -77.14993, 38.78376 ], [ -77.14986, 38.7848 ], [ -77.14939, 38.78499 ], [ -77.14889, 38.78487 ], [ -77.1486, 38.78412 ], [ -77.14704, 38.78389 ], [ -77.14693, 38.78313 ], [ -77.14836, 38.78231 ], [ -77.14538, 38.78294 ], [ -77.14454, 38.78254 ], [ -77.14462, 38.78213 ], [ -77.14575, 38.7816 ], [ -77.16411, 38.77802 ], [ -77.16388, 38.77735 ], [ -77.16435, 38.77682 ], [ -77.1681, 38.77648 ], [ -77.1683, 38.77372 ], [ -77.16702, 38.77367 ], [ -77.16674, 38.77332 ], [ -77.16731, 38.7727 ], [ -77.16954, 38.77285 ], [ -77.16944, 38.77711 ], [ -77.17003, 38.77631 ], [ -77.17078, 38.77613 ], [ -77.17095, 38.77459 ], [ -77.17217, 38.77452 ] ], [ [ -77.16247, 38.7835 ], [ -77.16195, 38.78364 ], [ -77.16241, 38.78372 ], [ -77.16247, 38.7835 ] ], [ [ -77.16167, 38.78239 ], [ -77.1629, 38.78227 ], [ -77.16224, 38.78167 ], [ -77.16297, 38.7812 ], [ -77.16299, 38.77946 ], [ -77.16033, 38.77996 ], [ -77.16022, 38.78172 ], [ -77.16114, 38.78177 ], [ -77.16167, 38.78239 ] ], [ [ -77.17069, 38.78182 ], [ -77.17113, 38.77863 ], [ -77.16836, 38.77852 ], [ -77.1673, 38.78088 ], [ -77.16556, 38.78108 ], [ -77.16622, 38.78182 ], [ -77.16626, 38.78294 ], [ -77.16736, 38.78308 ], [ -77.16781, 38.78151 ], [ -77.16866, 38.78114 ], [ -77.16913, 38.78181 ], [ -77.16873, 38.78325 ], [ -77.17101, 38.78354 ], [ -77.17105, 38.78195 ], [ -77.17069, 38.78182 ] ], [ [ -77.16632, 38.77767 ], [ -77.16535, 38.77775 ], [ -77.16537, 38.77782 ], [ -77.16632, 38.77767 ] ], [ [ -77.1655, 38.77982 ], [ -77.16642, 38.78004 ], [ -77.16629, 38.77974 ], [ -77.1655, 38.77982 ] ], [ [ -77.16485, 38.7795 ], [ -77.16443, 38.77924 ], [ -77.16431, 38.77983 ], [ -77.16485, 38.7795 ] ], [ [ -77.16668, 38.77928 ], [ -77.16644, 38.77903 ], [ -77.16655, 38.77932 ], [ -77.16668, 38.77928 ] ], [ [ -77.16494, 38.78656 ], [ -77.16487, 38.78661 ], [ -77.16494, 38.78668 ], [ -77.16494, 38.78656 ] ], [ [ -77.16013, 38.78374 ], [ -77.16056, 38.7838 ], [ -77.16057, 38.78363 ], [ -77.16013, 38.78374 ] ], [ [ -77.15426, 38.7829 ], [ -77.15414, 38.78106 ], [ -77.15168, 38.78166 ], [ -77.15219, 38.78297 ], [ -77.15426, 38.7829 ] ], [ [ -77.1644, 38.78561 ], [ -77.16451, 38.78558 ], [ -77.16443, 38.78553 ], [ -77.1644, 38.78561 ] ], [ [ -77.16244, 38.78571 ], [ -77.16228, 38.78573 ], [ -77.16247, 38.78584 ], [ -77.16244, 38.78571 ] ], [ [ -77.14973, 38.78214 ], [ -77.14977, 38.78255 ], [ -77.15053, 38.78257 ], [ -77.1508, 38.78296 ], [ -77.15034, 38.78194 ], [ -77.14973, 38.78214 ] ], [ [ -77.15291, 38.78482 ], [ -77.15269, 38.78492 ], [ -77.1529, 38.78537 ], [ -77.15291, 38.78482 ] ] ] } },
{ "type": "Feature", "properties": { "variant": "T2s", "miles": 1.5 }, "geometry": { "type": "Polygon", "coordinates": [ [ [ -77.17185, 38.76943 ], [ -77.17692, 38.77034 ], [ -77.17687, 38.77117 ], [ -77.1798, 38.77175 ], [ -77.18139, 38.77057 ], [ -77.18219, 38.77101 ], [ -77.17914, 38.77425 ], [ -77.17914, 38.7776 ], [ -77.17966, 38.77869 ], [ -77.17854, 38.77916 ], [ -77.17686, 38.77898 ], [ -77.17726, 38.77962 ], [ -77.17798, 38.77911 ], [ -77.17851, 38.77929 ], [ -77.17983, 38.7813 ], [ -77.17962, 38.78179 ], [ -77.17822, 38.78223 ], [ -77.17765, 38.78385 ], [ -77.17785, 38.78442 ], [ -77.17667, 38.78537 ], [ -77.17721, 38.78617 ], [ -77.17686, 38.78648 ], [ -77.17594, 38.78633 ], [ -77.17543, 38.78676 ], [ -77.17432, 38.78647 ], [ -77.17601, 38.78787 ], [ -77.17485, 38.78881 ], [ -77.17422, 38.78848 ], [ -77.17146, 38.78927 ], [ -77.17078, 38.78805 ], [ -77.16895, 38.78857 ], [ -77.16667, 38.79004 ], [ -77.16276, 38.7909 ], [ -77.16127, 38.79021 ], [ -77.16146, 38.78865 ], [ -77.16236, 38.78765 ], [ -77.16385, 38.78734 ], [ -77.16259, 38.78687 ], [ -77.16048, 38.78727 ], [ -77.15964, 38.78637 ], [ -77.16026, 38.78488 ], [ -77.15976, 38.78488 ], [ -77.15945, 38.78599 ], [ -77.15848, 38.78608 ], [ -77.15815, 38.78667 ], [ -77.15746, 38.78677 ], [ -77.15784, 38.78849 ], [ -77.15873, 38.78891 ], [ -77.15838, 38.78953 ], [ -77.1586, 38.79152 ], [ -77.15757, 38.79237 ], [ -77.15598, 38.79249 ], [ -77.15503, 38.79089 ], [ -77.15602, 38.79059 ], [ -77.15667, 38.79148 ], [ -77.15737, 38.79093 ], [ -77.15603, 38.7873 ], [ -77.15667, 38.78062 ], [ -77.15459, 38.79189 ], [ -77.15374, 38.79284 ], [ -77.15278, 38.79255 ], [ -77.14985, 38.79415 ], [ -77.14927, 38.79353 ], [ -77.15047, 38.79262 ], [ -77.15021, 38.79193 ], [ -77.15054, 38.7916 ], [ -77.15157, 38.79193 ], [ -77.15236, 38.7914 ], [ -77.15328, 38.79153 ], [ -77.15389, 38.78941 ], [ -77.15237, 38.79009 ], [ -77.15206, 38.79084 ], [ -77.15111, 38.79068 ], [ -77.15091, 38.79002 ], [ -77.14865, 38.79094 ], [ -77.14812, 38.7903 ], [ -77.14848, 38.78958 ], [ -77.14806, 38.78897 ], [ -77.14727, 38.78872 ], [ -77.14622, 38.78701 ], [ -77.1463, 38.78811 ], [ -77.14566, 38.78868 ], [ -77.14493, 38.78818 ], [ -77.14486, 38.78731 ], [ -77.14399, 38.78716 ], [ -77.14298, 38.78602 ], [ -77.14262, 38.7864 ], [ -77.14152, 38.78653 ], [ -77.14121, 38.78591 ], [ -77.14032, 38.78596 ], [ -77.13882, 38.78529 ], [ -77.13891, 38.7847 ], [ -77.13848, 38.7843 ], [ -77.13633, 38.78468 ], [ -77.13552, 38.78425 ], [ -77.13608, 38.78362 ], [ -77.13787, 38.78321 ], [ -77.13777, 38.78229 ], [ -77.13841, 38.78171 ], [ -77.13891, 38.78184 ], [ -77.13922, 38.78288 ], [ -77.13984, 38.78276 ], [ -77.13975, 38.78204 ], [ -77.13891, 38.78163 ], [ -77.13936, 38.78103 ], [ -77.13878, 38.78049 ], [ -77.13965, 38.77957 ], [ -77.14047, 38.77948 ], [ -77.14033, 38.77876 ], [ -77.14069, 38.77846 ], [ -77.14269, 38.77862 ], [ -77.14418, 38.77658 ], [ -77.14697, 38.77746 ], [ -77.14877, 38.77536 ], [ -77.15032, 38.77583 ], [ -77.15071, 38.77633 ], [ -77.15001, 38.77697 ], [ -77.14935, 38.77667 ], [ -77.14834, 38.77798 ], [ -77.14968, 38.77918 ], [ -77.15067, 38.77875 ], [ -77.15126, 38.77796 ], [ -77.15177, 38.77808 ], [ -77.1523, 38.77932 ], [ -77.15361, 38.77842 ], [ -77.15434, 38.77893 ], [ -77.15437, 38.77974 ], [ -77.15522, 38.77959 ], [ -77.15544, 38.77915 ], [ -77.15657, 38.77919 ], [ -77.15711, 38.77857 ], [ -77.15676, 38.77808 ], [ -77.15851, 38.77651 ], [ -77.15943, 38.77676 ], [ -77.16052, 38.77866 ], [ -77.1601, 38.77667 ], [ -77.16075, 38.7761 ], [ -77.16153, 38.77652 ], [ -77.16183, 38.77811 ], [ -77.16189, 38.77686 ], [ -77.16105, 38.77605 ], [ -77.16086, 38.77496 ], [ -77.16133, 38.77331 ], [ -77.16341, 38.7732 ], [ -77.16362, 38.76928 ], [ -77.16556, 38.76908 ], [ -77.16633, 38.76842 ], [ -77.16694, 38.76909 ], [ -77.17022, 38.76926 ], [ -77.17013, 38.76813 ], [ -77.17027, 38.76773 ], [ -77.17108, 38.76752 ], [ -77.17116, 38.76643 ], [ -77.17165, 38.76629 ], [ -77.17244, 38.7668 ], [ -77.17225, 38.76823 ], [ -77.17351, 38.76826 ], [ -77.17382, 38.76859 ], [ -77.17332, 38.76935 ], [ -77.17185, 38.76943 ] ], [ [ -77.16393, 38.78939 ], [ -77.1639, 38.78884 ], [ -77.16298, 38.78907 ], [ -77.16284, 38.78975 ], [ -77.16393, 38.78939 ] ], [ [ -77.16244, 38.78571 ], [ -77.16228, 38.78573 ], [ -77.16247, 38.78584 ], [ -77.16244, 38.78571 ] ], [ [ -77.16382, 38.78381 ], [ -77.16539, 38.78474 ], [ -77.16714, 38.78488 ], [ -77.16739, 38.78537 ], [ -77.16838, 38.78572 ], [ -77.16844, 38.78613 ], [ -77.16746, 38.78648 ], [ -77.16757, 38.78679 ], [ -77.16861, 38.78692 ], [ -77.16859, 38.78749 ], [ -77.1696, 38.78732 ], [ -77.16913, 38.7868 ], [ -77.1693, 38.78618 ], [ -77.16859, 38.78571 ], [ -77.16839, 38.78501 ], [ -77.16753, 38.78479 ], [ -77.16742, 38.78418 ], [ -77.16382, 38.78381 ] ], [ [ -77.1629, 38.78227 ], [ -77.16224, 38.78167 ], [ -77.16297, 38.7812 ], [ -77.16299, 38.77946 ], [ -77.16033, 38.77996 ], [ -77.16022, 38.78172 ], [ -77.16114, 38.78177 ], [ -77.16177, 38.78243 ], [ -77.1629, 38.78227 ] ], [ [ -77.16321, 38.77817 ], [ -77.16411, 38.77802 ], [ -77.16388, 38.77735 ], [ -77.16427, 38.77688 ], [ -77.16329, 38.77706 ], [ -77.16321, 38.77817 ] ], [ [ -77.16294, 38.77591 ], [ -77.16332, 38.77428 ], [ -77.16279, 38.77426 ], [ -77.16294, 38.77591 ] ], [ [ -77.17284, 38.7878 ], [ -77.17229, 38.78791 ], [ -77.17229, 38.78801 ], [ -77.17284, 38.7878 ] ], [ [ -77.17093, 38.77863 ], [ -77.16874, 38.77843 ], [ -77.16809, 38.77869 ], [ -77.16803, 38.77977 ], [ -77.1673, 38.78088 ], [ -77.16556, 38.78108 ], [ -77.16619, 38.78174 ], [ -77.16627, 38.78268 ], [ -77.16814, 38.78118 ], [ -77.16866, 38.78114 ], [ -77.16913, 38.78181 ], [ -77.16873, 38.78325 ], [ -77.17101, 38.78354 ], [ -77.17105, 38.78199 ], [ -77.17033, 38.78144 ], [ -77.17038, 38.77985 ], [ -77.16915, 38.78042 ], [ -77.16845, 38.77989 ], [ -77.16957, 38.7788 ], [ -77.17093, 38.77863 ] ], [ [ -77.17699, 38.7809 ], [ -77.17596, 38.78037 ], [ -77.17556, 38.78001 ], [ -77.17554, 38.78099 ], [ -77.17699, 38.7809 ] ], [ [ -77.17492, 38.77643 ], [ -77.17717, 38.77429 ], [ -77.17707, 38.77326 ], [ -77.17508, 38.77244 ], [ -77.17301, 38.77217 ], [ -77.17268, 38.77363 ], [ -77.17339, 38.77452 ], [ -77.17293, 38.77633 ], [ -77.17492, 38.77643 ] ], [ [ -77.17777, 38.77758 ], [ -77.1778, 38.77556 ], [ -77.17705, 38.77638 ], [ -77.17695, 38.77753 ], [ -77.17777, 38.77758 ] ], [ [ -77.17869, 38.77278 ], [ -77.17846, 38.77279 ], [ -77.17852, 38.77296 ], [ -77.17869, 38.77278 ] ], [ [ -77.17654, 38.78296 ], [ -77.17648, 38.7831 ], [ -77.17648, 38.78312 ], [ -77.17654, 38.78296 ] ], [ [ -77.17409, 38.78493 ], [ -77.17412, 38.78495 ], [ -77.17414, 38.78492 ], [ -77.17409, 38.78493 ] ], [ [ -77.16728, 38.78845 ], [ -77.16696, 38.78833 ], [ -77.16672, 38.78822 ], [ -77.16728, 38.78845 ] ], [ [ -77.16629, 38.77974 ], [ -77.16558, 38.77997 ], [ -77.16642, 38.78004 ], [ -77.16629, 38.77974 ] ], [ [ -77.16669, 38.77899 ], [ -77.16655, 38.77932 ], [ -77.16668, 38.77928 ], [ -77.16669, 38.77899 ] ], [ [ -77.16584, 38.77654 ], [ -77.16689, 38.77509 ], [ -77.16669, 38.77389 ], [ -77.16584, 38.77654 ] ], [ [ -77.16663, 38.77151 ], [ -77.16653, 38.77281 ], [ -77.16685, 38.77151 ], [ -77.16663, 38.77151 ] ], [ [ -77.16675, 38.77043 ], [ -77.16855, 38.77043 ], [ -77.16851, 38.77017 ], [ -77.16679, 38.77017 ], [ -77.16675, 38.77043 ] ], [ [ -77.16982, 38.77193 ], [ -77.16959, 38.77475 ], [ -77.16944, 38.77711 ], [ -77.17081, 38.77573 ], [ -77.17073, 38.77237 ], [ -77.16982, 38.77193 ] ], [ [ -77.16816, 38.77263 ], [ -77.16847, 38.77151 ], [ -77.16823, 38.77151 ], [ -77.16816, 38.77263 ] ], [ [ -77.16808, 38.77371 ], [ -77.16822, 38.77463 ], [ -77.1683, 38.77372 ], [ -77.16808, 38.77371 ] ], [ [ -77.1677, 38.77622 ], [ -77.1681, 38.77648 ], [ -77.16816, 38.77557 ], [ -77.16797, 38.77588 ], [ -77.1677, 38.77622 ] ], [ [ -77.17083, 38.7856 ], [ -77.17097, 38.78538 ], [ -77.17063, 38.78545 ], [ -77.17083, 38.7856 ] ], [ [ -77.16525, 38.77149 ], [ -77.16486, 38.77203 ], [ -77.1648, 38.77307 ], [ -77.16513, 38.77302 ], [ -77.16525, 38.77149 ] ], [ [ -77.16476, 38.77039 ], [ -77.1654, 38.77016 ], [ -77.16477, 38.77017 ], [ -77.16476, 38.77039 ] ], [ [ -77.16496, 38.77566 ], [ -77.16471, 38.77419 ], [ -77.1646, 38.77572 ], [ -77.16496, 38.77566 ] ], [ [ -77.16629, 38.77756 ], [ -77.16537, 38.77782 ], [ -77.16632, 38.77767 ], [ -77.16629, 38.77756 ] ], [ [ -77.16485, 38.7795 ], [ -77.16443, 38.77924 ], [ -77.16431, 38.77983 ], [ -77.16444, 38.77962 ], [ -77.16485, 38.7795 ] ], [ [ -77.16487, 38.78661 ], [ -77.16494, 38.78668 ], [ -77.16494, 38.78656 ], [ -77.16487, 38.78661 ] ], [ [ -77.16451, 38.78558 ], [ -77.16443, 38.78553 ], [ -77.1644, 38.78561 ], [ -77.16451, 38.78558 ] ], [ [ -77.16581, 38.78903 ], [ -77.16579, 38.78902 ], [ -77.1658, 38.78904 ], [ -77.16581, 38.78903 ] ], [ [ -77.1658, 38.78905 ], [ -77.16584, 38.78912 ], [ -77.1659, 38.78911 ], [ -77.1658, 38.78905 ] ], [ [ -77.15225, 38.78676 ], [ -77.1524, 38.78716 ], [ -77.15158, 38.78793 ], [ -77.15256, 38.78802 ], [ -77.15284, 38.78876 ], [ -77.15391, 38.78924 ], [ -77.15445, 38.78642 ], [ -77.15356, 38.78658 ], [ -77.1529, 38.78608 ], [ -77.15206, 38.78628 ], [ -77.15096, 38.78435 ], [ -77.15008, 38.78495 ], [ -77.15021, 38.7862 ], [ -77.15084, 38.78612 ], [ -77.15128, 38.78669 ], [ -77.15225, 38.78676 ] ], [ [ -77.15092, 38.78425 ], [ -77.15082, 38.78342 ], [ -77.14993, 38.78376 ], [ -77.15092, 38.78425 ] ], [ [ -77.15079, 38.78277 ], [ -77.15034, 38.78194 ], [ -77.14971, 38.78206 ], [ -77.14977, 38.78255 ], [ -77.15079, 38.78277 ] ], [ [ -77.15156, 38.7804 ], [ -77.15098, 38.77975 ], [ -77.15052, 38.78004 ], [ -77.15102, 38.78052 ], [ -77.15156, 38.7804 ] ], [ [ -77.16195, 38.78364 ], [ -77.16247, 38.7835 ], [ -77.16196, 38.78344 ], [ -77.16195, 38.78364 ] ], [ [ -77.16, 38.78373 ], [ -77.16056, 38.7838 ], [ -77.16057, 38.78363 ], [ -77.16, 38.78373 ] ], [ [ -77.15414, 38.78106 ], [ -77.15168, 38.78166 ], [ -77.15219, 38.78297 ], [ -77.15426, 38.7829 ], [ -77.15398, 38.78171 ], [ -77.15444, 38.7813 ], [ -77.15414, 38.78106 ] ], [ [ -77.15269, 38.78492 ], [ -77.1529, 38.78537 ], [ -77.1529, 38.78477 ], [ -77.15269, 38.78492 ] ], [ [ -77.15194, 38.78905 ], [ -77.15195, 38.78898 ], [ -77.15191, 38.78899 ], [ -77.15194, 38.78905 ] ], [ [ -77.14778, 38.78511 ], [ -77.14735, 38.78501 ], [ -77.1487, 38.78505 ], [ -77.14778, 38.78511 ] ], [ [ -77.1468, 38.78283 ], [ -77.14838, 38.78252 ], [ -77.14836, 38.78231 ], [ -77.14597, 38.78282 ], [ -77.14602, 38.78365 ], [ -77.14684, 38.78379 ], [ -77.1468, 38.78283 ] ], [ [ -77.14763, 38.7812 ], [ -77.14772, 38.78058 ], [ -77.14719, 38.78001 ], [ -77.14802, 38.7793 ], [ -77.14763, 38.77893 ], [ -77.14671, 38.78027 ], [ -77.14701, 38.78069 ], [ -77.14659, 38.78142 ], [ -77.14763, 38.7812 ] ], [ [ -77.14608, 38.77832 ], [ -77.14577, 38.77883 ], [ -77.14627, 38.77839 ], [ -77.14608, 38.77832 ] ], [ [ -77.14955, 38.78082 ], [ -77.14937, 38.78064 ], [ -77.14898, 38.78083 ], [ -77.14901, 38.78092 ], [ -77.14955, 38.78082 ] ], [ [ -77.14951, 38.78816 ], [ -77.14933, 38.78853 ], [ -77.14944, 38.78851 ], [ -77.14951, 38.78816 ] ], [ [ -77.14881, 38.78613 ], [ -77.14864, 38.78653 ], [ -77.14886, 38.78647 ], [ -77.14881, 38.78613 ] ], [ [ -77.14465, 38.78333 ], [ -77.14445, 38.78311 ], [ -77.14465, 38.78338 ], [ -77.14465, 38.78333 ] ], [ [ -77.14148, 38.78371 ], [ -77.1416, 38.78402 ], [ -77.14284, 38.78547 ], [ -77.14222, 38.78357 ], [ -77.14148, 38.78371 ] ], [ [ -77.1452, 38.78107 ], [ -77.14213, 38.78162 ], [ -77.14222, 38.78229 ], [ -77.14521, 38.78171 ], [ -77.1452, 38.78107 ] ], [ [ -77.14474, 38.77781 ], [ -77.14418, 38.7787 ], [ -77.14484, 38.77785 ], [ -77.14474, 38.77781 ] ], [ [ -77.14188, 38.77965 ], [ -77.14199, 38.78053 ], [ -77.14527, 38.77986 ], [ -77.14473, 38.77981 ], [ -77.14188, 38.77965 ] ], [ [ -77.14421, 38.78498 ], [ -77.14472, 38.78507 ], [ -77.14484, 38.78521 ], [ -77.14471, 38.78483 ], [ -77.14421, 38.78498 ] ], [ [ -77.1449, 38.78581 ], [ -77.14478, 38.78588 ], [ -77.14489, 38.78598 ], [ -77.1449, 38.78581 ] ] ] } },
{ "type": "Feature", "properties": { "variant": "T2s", "miles": 2.0 }, "geometry": { "type": "Polygon", "coordinates": [ [ [ -77.18299, 38.76436 ], [ -77.18256, 38.77087 ], [ -77.17914, 38.77425 ], [ -77.17914, 38.7776 ], [ -77.17974, 38.7785 ], [ -77.17854, 38.77916 ], [ -77.17686, 38.77898 ], [ -77.17726, 38.77962 ], [ -77.17798, 38.77911 ], [ -77.17851, 38.77929 ], [ -77.17983, 38.7813 ], [ -77.17962, 38.78179 ], [ -77.17822, 38.78223 ], [ -77.17765, 38.78385 ], [ -77.17785, 38.78442 ], [ -77.17667, 38.78537 ], [ -77.17721, 38.78617 ], [ -77.17686, 38.78648 ], [ -77.17594, 38.78633 ], [ -77.17543, 38.78676 ], [ -77.17432, 38.78647 ], [ -77.17601, 38.78787 ], [ -77.17485, 38.78881 ], [ -77.17422, 38.78848 ], [ -77.17146, 38.78927 ], [ -77.17078, 38.78805 ], [ -77.16895, 38.78857 ], [ -77.16667, 38.79004 ], [ -77.16276, 38.7909 ], [ -77.16127, 38.7902 ], [ -77.16114, 38.78768 ], [ -77.15964, 38.78637 ], [ -77.16026, 38.78488 ], [ -77.15976, 38.78488 ], [ -77.15945, 38.78599 ], [ -77.15848, 38.78608 ], [ -77.15815, 38.78667 ], [ -77.15746, 38.78677 ], [ -77.15784, 38.78849 ], [ -77.15873, 38.78891 ], [ -77.15838, 38.78953 ], [ -77.1586, 38.79152 ], [ -77.15757, 38.79237 ], [ -77.15598, 38.79249 ], [ -77.15503, 38.79089 ], [ -77.15602, 38.79059 ], [ -77.15667, 38.79148 ], [ -77.15737, 38.79093 ], [ -77.15603, 38.7873 ], [ -77.15667, 38.78062 ], [ -77.15485, 38.7913 ], [ -77.15292, 38.79431 ], [ -77.15024, 38.79532 ], [ -77.14973, 38.79522 ], [ -77.14959, 38.79446 ], [ -77.15165, 38.79377 ], [ -77.15264, 38.79264 ], [ -77.14985, 38.79415 ], [ -77.1494, 38.79394 ], [ -77.14952, 38.79321 ], [ -77.14901, 38.79324 ], [ -77.14857, 38.79262 ], [ -77.14777, 38.79356 ], [ -77.14654, 38.7939 ], [ -77.14548, 38.79378 ], [ -77.14472, 38.79312 ], [ -77.1445, 38.79168 ], [ -77.14546, 38.79152 ], [ -77.14576, 38.79187 ], [ -77.14626, 38.79104 ], [ -77.1479, 38.79021 ], [ -77.14766, 38.78898 ], [ -77.14622, 38.78701 ], [ -77.1463, 38.78811 ], [ -77.14566, 38.78868 ], [ -77.14493, 38.78818 ], [ -77.14486, 38.78731 ], [ -77.14399, 38.78716 ], [ -77.14331, 38.78641 ], [ -77.14415, 38.78829 ], [ -77.14372, 38.78897 ], [ -77.14284, 38.78864 ], [ -77.1423, 38.78742 ], [ -77.1413, 38.78786 ], [ -77.14001, 38.78724 ], [ -77.1403, 38.78805 ], [ -77.14116, 38.78833 ], [ -77.14128, 38.78873 ], [ -77.14099, 38.78908 ], [ -77.13976, 38.78912 ], [ -77.13968, 38.79034 ], [ -77.13871, 38.79039 ], [ -77.13818, 38.7889 ], [ -77.13741, 38.78866 ], [ -77.13735, 38.78995 ], [ -77.13583, 38.79078 ], [ -77.13353, 38.78908 ], [ -77.13402, 38.78665 ], [ -77.13284, 38.78542 ], [ -77.13363, 38.78478 ], [ -77.13274, 38.78477 ], [ -77.13294, 38.78744 ], [ -77.13226, 38.78799 ], [ -77.13156, 38.78746 ], [ -77.13144, 38.78569 ], [ -77.13045, 38.78561 ], [ -77.13032, 38.78469 ], [ -77.12964, 38.78469 ], [ -77.12965, 38.78557 ], [ -77.12896, 38.78611 ], [ -77.12827, 38.78557 ], [ -77.12826, 38.7847 ], [ -77.12695, 38.78455 ], [ -77.12694, 38.78379 ], [ -77.12743, 38.78363 ], [ -77.13506, 38.78348 ], [ -77.13471, 38.77925 ], [ -77.13509, 38.77747 ], [ -77.13645, 38.77726 ], [ -77.1372, 38.77758 ], [ -77.13793, 38.77904 ], [ -77.13736, 38.7798 ], [ -77.13862, 38.77993 ], [ -77.13868, 38.78063 ], [ -77.13887, 38.78069 ], [ -77.13973, 38.77954 ], [ -77.13902, 38.7797 ], [ -77.13828, 38.7792 ], [ -77.13986, 38.77675 ], [ -77.13945, 38.77595 ], [ -77.13971, 38.7756 ], [ -77.14022, 38.77549 ], [ -77.1409, 38.77593 ], [ -77.14159, 38.77561 ], [ -77.14173, 38.7748 ], [ -77.14335, 38.77412 ], [ -77.14523, 38.77436 ], [ -77.14842, 38.77551 ], [ -77.14814, 38.7749 ], [ -77.14543, 38.77309 ], [ -77.14684, 38.77197 ], [ -77.14829, 38.7728 ], [ -77.14872, 38.77235 ], [ -77.14796, 38.77183 ], [ -77.14789, 38.77107 ], [ -77.14931, 38.77051 ], [ -77.14975, 38.76961 ], [ -77.15052, 38.76962 ], [ -77.15134, 38.77032 ], [ -77.15257, 38.77032 ], [ -77.15377, 38.76886 ], [ -77.15469, 38.76859 ], [ -77.15503, 38.76931 ], [ -77.15389, 38.77093 ], [ -77.15487, 38.77311 ], [ -77.15751, 38.77529 ], [ -77.15775, 38.77436 ], [ -77.15894, 38.77442 ], [ -77.1587, 38.77344 ], [ -77.15976, 38.77239 ], [ -77.16052, 38.77281 ], [ -77.16175, 38.77264 ], [ -77.16239, 38.77315 ], [ -77.16341, 38.7732 ], [ -77.16344, 38.76956 ], [ -77.16397, 38.76913 ], [ -77.16556, 38.76902 ], [ -77.16377, 38.7677 ], [ -77.16409, 38.76698 ], [ -77.16564, 38.76724 ], [ -77.16821, 38.76639 ], [ -77.1713, 38.76611 ], [ -77.17238, 38.7667 ], [ -77.17266, 38.76786 ], [ -77.17327, 38.76657 ], [ -77.17456, 38.76567 ], [ -77.17748, 38.76802 ], [ -77.18127, 38.77019 ], [ -77.18176, 38.76524 ], [ -77.1809, 38.76505 ], [ -77.18072, 38.76466 ], [ -77.18144, 38.76415 ], [ -77.18299, 38.76436 ] ], [ [ -77.17097, 38.78541 ], [ -77.17063, 38.78545 ], [ -77.17096, 38.78573 ], [ -77.17097, 38.78541 ] ], [ [ -77.17099, 38.78199 ], [ -77.17033, 38.78144 ], [ -77.17038, 38.77985 ], [ -77.16915, 38.78042 ], [ -77.16845, 38.77989 ], [ -77.16957, 38.7788 ], [ -77.17113, 38.77863 ], [ -77.16836, 38.77852 ], [ -77.1673, 38.78088 ], [ -77.16556, 38.78108 ], [ -77.16619, 38.78174 ], [ -77.16627, 38.78268 ], [ -77.16814, 38.78118 ], [ -77.16907, 38.7814 ], [ -77.16873, 38.78325 ], [ -77.17101, 38.78354 ], [ -77.17099, 38.78199 ] ], [ [ -77.16632, 38.77767 ], [ -77.16535, 38.77775 ], [ -77.16537, 38.77782 ], [ -77.16632, 38.77767 ] ], [ [ -77.16411, 38.77802 ], [ -77.16427, 38.77688 ], [ -77.16329, 38.77706 ], [ -77.16321, 38.77817 ], [ -77.16411, 38.77802 ] ], [ [ -77.16669, 38.77389 ], [ -77.16626, 38.77644 ], [ -77.16688, 38.77513 ], [ -77.16669, 38.77389 ] ], [ [ -77.16513, 38.77302 ], [ -77.16525, 38.77149 ], [ -77.16484, 38.77147 ], [ -77.1648, 38.77307 ], [ -77.16513, 38.77302 ] ], [ [ -77.1654, 38.77016 ], [ -77.16477, 38.77017 ], [ -77.16476, 38.77039 ], [ -77.16537, 38.77041 ], [ -77.1654, 38.77016 ] ], [ [ -77.17492, 38.77643 ], [ -77.17717, 38.77429 ], [ -77.17707, 38.77326 ], [ -77.17508, 38.77244 ], [ -77.17301, 38.77217 ], [ -77.17268, 38.77363 ], [ -77.17339, 38.77452 ], [ -77.17293, 38.77633 ], [ -77.17492, 38.77643 ] ], [ [ -77.17033, 38.76874 ], [ -77.16683, 38.7682 ], [ -77.16669, 38.76857 ], [ -77.16694, 38.76909 ], [ -77.1695, 38.76932 ], [ -77.17022, 38.76926 ], [ -77.17033, 38.76874 ] ], [ [ -77.16959, 38.76766 ], [ -77.17117, 38.76729 ], [ -77.16893, 38.76752 ], [ -77.16959, 38.76766 ] ], [ [ -77.17268, 38.76947 ], [ -77.1719, 38.76928 ], [ -77.17185, 38.76943 ], [ -77.17268, 38.76947 ] ], [ [ -77.17381, 38.76867 ], [ -77.17523, 38.76912 ], [ -77.17675, 38.76936 ], [ -77.17518, 38.76816 ], [ -77.17413, 38.76782 ], [ -77.17381, 38.76867 ] ], [ [ -77.1798, 38.77175 ], [ -77.18056, 38.77115 ], [ -77.1803, 38.77096 ], [ -77.17942, 38.7711 ], [ -77.17694, 38.7705 ], [ -77.17667, 38.77105 ], [ -77.1798, 38.77175 ] ], [ [ -77.17846, 38.77279 ], [ -77.17869, 38.77278 ], [ -77.17839, 38.77272 ], [ -77.17846, 38.77279 ] ], [ [ -77.1778, 38.77556 ], [ -77.17695, 38.77753 ], [ -77.17777, 38.77758 ], [ -77.1778, 38.77556 ] ], [ [ -77.17699, 38.78107 ], [ -77.17556, 38.78001 ], [ -77.17554, 38.78099 ], [ -77.17699, 38.78107 ] ], [ [ -77.17654, 38.78296 ], [ -77.17648, 38.7831 ], [ -77.17648, 38.78312 ], [ -77.17654, 38.78296 ] ], [ [ -77.17078, 38.77613 ], [ -77.17078, 38.77253 ], [ -77.16982, 38.77193 ], [ -77.16944, 38.77711 ], [ -77.17003, 38.77631 ], [ -77.17078, 38.77613 ] ], [ [ -77.17409, 38.78493 ], [ -77.17412, 38.78495 ], [ -77.17414, 38.78492 ], [ -77.17409, 38.78493 ] ], [ [ -77.17264, 38.7878 ], [ -77.17229, 38.78801 ], [ -77.17284, 38.78772 ], [ -77.17264, 38.7878 ] ], [ [ -77.16675, 38.77043 ], [ -77.16855, 38.77043 ], [ -77.16851, 38.77017 ], [ -77.16679, 38.77017 ], [ -77.16675, 38.77043 ] ], [ [ -77.16808, 38.77371 ], [ -77.16822, 38.77463 ], [ -77.1683, 38.77372 ], [ -77.16808, 38.77371 ] ], [ [ -77.16676, 38.77278 ], [ -77.16663, 38.77151 ], [ -77.16653, 38.77281 ], [ -77.16676, 38.77278 ] ], [ [ -77.16823, 38.77151 ], [ -77.16838, 38.77264 ], [ -77.16847, 38.77151 ], [ -77.16823, 38.77151 ] ], [ [ -77.16816, 38.77557 ], [ -77.16764, 38.77646 ], [ -77.1681, 38.77648 ], [ -77.16816, 38.77557 ] ], [ [ -77.16584, 38.78912 ], [ -77.1659, 38.78911 ], [ -77.1658, 38.78905 ], [ -77.16584, 38.78912 ] ], [ [ -77.1658, 38.78904 ], [ -77.16581, 38.78903 ], [ -77.16579, 38.78902 ], [ -77.1658, 38.78904 ] ], [ [ -77.16494, 38.78668 ], [ -77.16494, 38.78656 ], [ -77.16487, 38.78661 ], [ -77.16494, 38.78668 ] ], [ [ -77.16443, 38.78553 ], [ -77.1644, 38.78561 ], [ -77.16451, 38.78558 ], [ -77.16443, 38.78553 ] ], [ [ -77.16013, 38.78374 ], [ -77.16056, 38.7838 ], [ -77.16057, 38.78363 ], [ -77.16013, 38.78374 ] ], [ [ -77.16279, 38.78245 ], [ -77.16224, 38.78167 ], [ -77.16297, 38.7812 ], [ -77.16299, 38.77946 ], [ -77.16033, 38.77996 ], [ -77.16022, 38.78172 ], [ -77.16114, 38.78177 ], [ -77.16177, 38.78243 ], [ -77.16279, 38.78245 ] ], [ [ -77.16031, 38.77871 ], [ -77.16036, 38.77727 ], [ -77.15985, 38.77734 ], [ -77.16031, 38.77871 ] ], [ [ -77.1664, 38.78005 ], [ -77.16629, 38.77974 ], [ -77.1655, 38.77982 ], [ -77.16558, 38.77997 ], [ -77.1664, 38.78005 ] ], [ [ -77.16485, 38.7795 ], [ -77.16443, 38.77924 ], [ -77.16431, 38.77983 ], [ -77.16485, 38.7795 ] ], [ [ -77.16668, 38.77928 ], [ -77.16644, 38.77903 ], [ -77.16655, 38.77932 ], [ -77.16668, 38.77928 ] ], [ [ -77.16674, 38.78475 ], [ -77.16838, 38.78572 ], [ -77.16844, 38.78613 ], [ -77.16746, 38.78648 ], [ -77.16757, 38.78679 ], [ -77.16861, 38.78692 ], [ -77.16859, 38.78749 ], [ -77.1696, 38.78732 ], [ -77.16913, 38.7868 ], [ -77.1693, 38.78618 ], [ -77.16859, 38.78571 ], [ -77.16839, 38.78501 ], [ -77.16753, 38.78479 ], [ -77.16742, 38.78418 ], [ -77.16381, 38.78375 ], [ -77.16539, 38.78474 ], [ -77.16674, 38.78475 ] ], [ [ -77.16672, 38.78822 ], [ -77.16716, 38.78849 ], [ -77.16728, 38.78845 ], [ -77.16716, 38.78841 ], [ -77.16672, 38.78822 ] ], [ [ -77.1646, 38.77572 ], [ -77.16496, 38.77566 ], [ -77.16506, 38.77414 ], [ -77.16471, 38.77419 ], [ -77.1646, 38.77572 ] ], [ [ -77.16317, 38.77428 ], [ -77.16268, 38.77443 ], [ -77.16297, 38.776 ], [ -77.1632, 38.77595 ], [ -77.16317, 38.77428 ] ], [ [ -77.16158, 38.77638 ], [ -77.16173, 38.77717 ], [ -77.16183, 38.77811 ], [ -77.16191, 38.77691 ], [ -77.16158, 38.77638 ] ], [ [ -77.16195, 38.78364 ], [ -77.16247, 38.7835 ], [ -77.16196, 38.78344 ], [ -77.16195, 38.78364 ] ], [ [ -77.16243, 38.78567 ], [ -77.16228, 38.78573 ], [ -77.16247, 38.78584 ], [ -77.16243, 38.78567 ] ], [ [ -77.1639, 38.78884 ], [ -77.16283, 38.78915 ], [ -77.16284, 38.78975 ], [ -77.16395, 38.78939 ], [ -77.1639, 38.78884 ] ], [ [ -77.16259, 38.78687 ], [ -77.16251, 38.7876 ], [ -77.16385, 38.78734 ], [ -77.16354, 38.78708 ], [ -77.16259, 38.78687 ] ], [ [ -77.15726, 38.77762 ], [ -77.15725, 38.77767 ], [ -77.15734, 38.77765 ], [ -77.15726, 38.77762 ] ], [ [ -77.15708, 38.77861 ], [ -77.15711, 38.77857 ], [ -77.15709, 38.77857 ], [ -77.15708, 38.77861 ] ], [ [ -77.14917, 38.79087 ], [ -77.14725, 38.7918 ], [ -77.14702, 38.79256 ], [ -77.14776, 38.79164 ], [ -77.14917, 38.79087 ] ], [ [ -77.14944, 38.78851 ], [ -77.14916, 38.78825 ], [ -77.14933, 38.78853 ], [ -77.14944, 38.78851 ] ], [ [ -77.14843, 38.78615 ], [ -77.14864, 38.78653 ], [ -77.14886, 38.78647 ], [ -77.14881, 38.78613 ], [ -77.14843, 38.78615 ] ], [ [ -77.14778, 38.78511 ], [ -77.14735, 38.78501 ], [ -77.1487, 38.78505 ], [ -77.14778, 38.78511 ] ], [ [ -77.14993, 38.78376 ], [ -77.15071, 38.78396 ], [ -77.15092, 38.78425 ], [ -77.15082, 38.78342 ], [ -77.14993, 38.78376 ] ], [ [ -77.15053, 38.78257 ], [ -77.1508, 38.78296 ], [ -77.15034, 38.78194 ], [ -77.14971, 38.78206 ], [ -77.14977, 38.78255 ], [ -77.15053, 38.78257 ] ], [ [ -77.14767, 38.78119 ], [ -77.14719, 38.78001 ], [ -77.14802, 38.7793 ], [ -77.14763, 38.77893 ], [ -77.14671, 38.78027 ], [ -77.14701, 38.78069 ], [ -77.14659, 38.78142 ], [ -77.14767, 38.78119 ] ], [ [ -77.1452, 38.78107 ], [ -77.14213, 38.78162 ], [ -77.14222, 38.78229 ], [ -77.14521, 38.78171 ], [ -77.1452, 38.78107 ] ], [ [ -77.14527, 38.77986 ], [ -77.14473, 38.77981 ], [ -77.14188, 38.77965 ], [ -77.14199, 38.78053 ], [ -77.14527, 38.77986 ] ], [ [ -77.14432, 38.77871 ], [ -77.14474, 38.77781 ], [ -77.14418, 38.7787 ], [ -77.14432, 38.77871 ] ], [ [ -77.14345, 38.77741 ], [ -77.14229, 38.77658 ], [ -77.14154, 38.77668 ], [ -77.14345, 38.77741 ] ], [ [ -77.15221, 38.79122 ], [ -77.15219, 38.79082 ], [ -77.15154, 38.79125 ], [ -77.15221, 38.79122 ] ], [ [ -77.1531, 38.78875 ], [ -77.15396, 38.78897 ], [ -77.15445, 38.78642 ], [ -77.15356, 38.78658 ], [ -77.1529, 38.78608 ], [ -77.15206, 38.78628 ], [ -77.15096, 38.78435 ], [ -77.15008, 38.78495 ], [ -77.15021, 38.7862 ], [ -77.15084, 38.78612 ], [ -77.15128, 38.78669 ], [ -77.15225, 38.78676 ], [ -77.1524, 38.78716 ], [ -77.15158, 38.78793 ], [ -77.15256, 38.78802 ], [ -77.1531, 38.78875 ] ], [ [ -77.15269, 38.78492 ], [ -77.1529, 38.78537 ], [ -77.1529, 38.78477 ], [ -77.15269, 38.78492 ] ], [ [ -77.15242, 38.783 ], [ -77.15426, 38.7829 ], [ -77.15414, 38.78106 ], [ -77.15168, 38.78166 ], [ -77.15242, 38.783 ] ], [ [ -77.15101, 38.77978 ], [ -77.15052, 38.78004 ], [ -77.15102, 38.78052 ], [ -77.15156, 38.7804 ], [ -77.15101, 38.77978 ] ], [ [ -77.15219, 38.77536 ], [ -77.15211, 38.7751 ], [ -77.1518, 38.77532 ], [ -77.15219, 38.77536 ] ], [ [ -77.15224, 38.77382 ], [ -77.1523, 38.77397 ], [ -77.15226, 38.77381 ], [ -77.15224, 38.77382 ] ], [ [ -77.14933, 38.77434 ], [ -77.15042, 38.77298 ], [ -77.15079, 38.77252 ], [ -77.15042, 38.77243 ], [ -77.14944, 38.7734 ], [ -77.14933, 38.77434 ] ], [ [ -77.15466, 38.77569 ], [ -77.15471, 38.77564 ], [ -77.15464, 38.77564 ], [ -77.15466, 38.77569 ] ], [ [ -77.15091, 38.79002 ], [ -77.15055, 38.79043 ], [ -77.15099, 38.79024 ], [ -77.15091, 38.79002 ] ], [ [ -77.14901, 38.78092 ], [ -77.14955, 38.78082 ], [ -77.14937, 38.78064 ], [ -77.14901, 38.78092 ] ], [ [ -77.14968, 38.77918 ], [ -77.15013, 38.77854 ], [ -77.14871, 38.77748 ], [ -77.14834, 38.77798 ], [ -77.14968, 38.77918 ] ], [ [ -77.1503, 38.77708 ], [ -77.15034, 38.77687 ], [ -77.15008, 38.77695 ], [ -77.1503, 38.77708 ] ], [ [ -77.15027, 38.77581 ], [ -77.15033, 38.77534 ], [ -77.15003, 38.77573 ], [ -77.15027, 38.77581 ] ], [ [ -77.15195, 38.78898 ], [ -77.15194, 38.78905 ], [ -77.1521, 38.78899 ], [ -77.15195, 38.78898 ] ], [ [ -77.15132, 38.79133 ], [ -77.15129, 38.79135 ], [ -77.15131, 38.79134 ], [ -77.15132, 38.79133 ] ], [ [ -77.14697, 38.77746 ], [ -77.14772, 38.77644 ], [ -77.146, 38.77581 ], [ -77.14535, 38.77684 ], [ -77.14697, 38.77746 ] ], [ [ -77.14608, 38.77832 ], [ -77.14577, 38.77883 ], [ -77.14627, 38.77839 ], [ -77.14608, 38.77832 ] ], [ [ -77.14478, 38.78588 ], [ -77.14489, 38.78598 ], [ -77.1449, 38.78581 ], [ -77.14478, 38.78588 ] ], [ [ -77.14471, 38.78483 ], [ -77.14412, 38.78499 ], [ -77.14484, 38.78521 ], [ -77.14471, 38.78483 ] ], [ [ -77.14284, 38.78547 ], [ -77.14222, 38.78357 ], [ -77.14148, 38.78371 ], [ -77.14284, 38.78547 ] ], [ [ -77.13875, 38.78532 ], [ -77.13848, 38.7843 ], [ -77.13695, 38.78459 ], [ -77.13712, 38.78615 ], [ -77.13736, 38.78552 ], [ -77.13875, 38.78532 ] ], [ [ -77.13746, 38.78324 ], [ -77.13722, 38.78201 ], [ -77.13635, 38.78204 ], [ -77.13664, 38.7834 ], [ -77.13746, 38.78324 ] ], [ [ -77.1468, 38.78283 ], [ -77.14836, 38.78231 ], [ -77.14597, 38.78282 ], [ -77.14602, 38.78365 ], [ -77.14684, 38.78379 ], [ -77.1468, 38.78283 ] ], [ [ -77.14465, 38.78333 ], [ -77.14445, 38.78311 ], [ -77.14465, 38.78338 ], [ -77.14465, 38.78333 ] ], [ [ -77.14692, 38.7927 ], [ -77.14672, 38.79278 ], [ -77.14685, 38.79275 ], [ -77.14692, 38.7927 ] ], [ [ -77.14609, 38.7928 ], [ -77.14638, 38.79283 ], [ -77.14601, 38.79272 ], [ -77.14609, 38.7928 ] ], [ [ -77.1393, 38.78222 ], [ -77.13922, 38.78288 ], [ -77.13984, 38.78276 ], [ -77.13975, 38.78204 ], [ -77.1393, 38.78222 ] ], [ [ -77.14047, 38.77948 ], [ -77.14047, 38.77947 ], [ -77.14046, 38.77947 ], [ -77.14047, 38.77948 ] ], [ [ -77.14284, 38.77838 ], [ -77.14223, 38.77815 ], [ -77.14196, 38.77857 ], [ -77.14269, 38.77862 ], [ -77.14284, 38.77838 ] ], [ [ -77.14099, 38.77768 ], [ -77.14077, 38.778 ], [ -77.14076, 38.77804 ], [ -77.14099, 38.77768 ] ], [ [ -77.13917, 38.7811 ], [ -77.13936, 38.78103 ], [ -77.13906, 38.78092 ], [ -77.13917, 38.7811 ] ], [ [ -77.13885, 38.78791 ], [ -77.13872, 38.78776 ], [ -77.13859, 38.78767 ], [ -77.13885, 38.78791 ] ], [ [ -77.13527, 38.78752 ], [ -77.13524, 38.78851 ], [ -77.13589, 38.78908 ], [ -77.13573, 38.78775 ], [ -77.13527, 38.78752 ] ] ] } }
]
}
