{
"type": "FeatureCollection",
"name": "163",
"crs": { "type": "name", "properties": { "name": "urn:ogc:def:crs:OGC:1.3:CRS84" } },
"xy_coordinate_resolution": 1e-05,
"features": [
{ "type": "Feature", "properties": { "variant": "T0", "miles": 0.5 }, "geometry": { "type": "Polygon", "coordinates": [ [ [ -77.166, 38.77894 ], [ -77.16443, 38.77924 ], [ -77.16431, 38.77983 ], [ -77.16493, 38.77947 ], [ -77.16558, 38.77997 ], [ -77.1675, 38.78013 ], [ -77.1676, 38.78054 ], [ -77.16697, 38.78105 ], [ -77.16556, 38.78108 ], [ -77.16622, 38.78182 ], [ -77.16626, 38.78294 ], [ -77.16736, 38.78308 ], [ -77.16781, 38.78151 ], [ -77.16866, 38.78114 ], [ -77.16913, 38.78181 ], [ -77.16873, 38.78325 ], [ -77.17219, 38.78353 ], [ -77.17237, 38.78467 ], [ -77.17216, 38.78505 ], [ -77.17104, 38.78537 ], [ -77.1692, 38.78544 ], [ -77.16753, 38.78479 ], [ -77.16742, 38.78418 ], [ -77.16381, 38.78375 ], [ -77.16539, 38.78474 ], [ -77.16714, 38.78488 ], [ -77.16739, 38.78537 ], [ -77.16838, 38.78572 ], [ -77.16812, 38.78646 ], [ -77.16746, 38.78648 ], [ -77.16757, 38.78679 ], [ -77.16861, 38.78692 ], [ -77.16896, 38.78861 ], [ -77.16837, 38.78921 ], [ -77.16704, 38.78965 ], [ -77.1658, 38.78905 ], [ -77.16598, 38.79001 ], [ -77.16557, 38.79027 ], [ -77.16392, 38.78938 ], [ -77.1639, 38.78884 ], [ -77.16321, 38.78911 ], [ -77.1624, 38.78868 ], [ -77.16256, 38.78807 ], [ -77.16385, 38.78734 ], [ -77.16354, 38.78708 ], [ -77.16259, 38.78687 ], [ -77.16181, 38.78721 ], [ -77.16137, 38.7869 ], [ -77.16048, 38.78727 ], [ -77.16008, 38.78699 ], [ -77.15959, 38.78598 ], [ -77.16026, 38.78488 ], [ -77.15976, 38.78488 ], [ -77.15945, 38.78599 ], [ -77.15848, 38.78608 ], [ -77.15767, 38.78683 ], [ -77.15697, 38.7863 ], [ -77.15725, 38.78511 ], [ -77.15639, 38.7845 ], [ -77.15714, 38.78401 ], [ -77.15865, 38.78401 ], [ -77.15903, 38.7818 ], [ -77.16114, 38.78177 ], [ -77.16167, 38.78239 ], [ -77.16279, 38.78245 ], [ -77.16224, 38.78167 ], [ -77.16297, 38.7812 ], [ -77.16299, 38.77946 ], [ -77.16231, 38.77941 ], [ -77.16208, 38.77851 ], [ -77.16481, 38.77791 ], [ -77.16576, 38.77808 ], [ -77.166, 38.77894 ] ], [ [ -77.16581, 38.78903 ], [ -77.16579, 38.78902 ], [ -77.1658, 38.78904 ], [ -77.16581, 38.78903 ] ], [ [ -77.16494, 38.78656 ], [ -77.16487, 38.78661 ], [ -77.16494, 38.78668 ], [ -77.16494, 38.78656 ] ], [ [ -77.16716, 38.78841 ], [ -77.16672, 38.78822 ], [ -77.16728, 38.78845 ], [ -77.16716, 38.78841 ] ], [ [ -77.16196, 38.78344 ], [ -77.16241, 38.78372 ], [ -77.16247, 38.7835 ], [ -77.16196, 38.78344 ] ], [ [ -77.16243, 38.78567 ], [ -77.16228, 38.78573 ], [ -77.16247, 38.78584 ], [ -77.16243, 38.78567 ] ], [ [ -77.1644, 38.78561 ], [ -77.16451, 38.78558 ], [ -77.16443, 38.78553 ], [ -77.1644, 38.78561 ] ], [ [ -77.16013, 38.78374 ], [ -77.16056, 38.7838 ], [ -77.16057, 38.78363 ], [ -77.16013, 38.78374 ] ] ] } },
{ "type": "Feature", "properties": { "variant": "T0", "miles": 1.0 }, "geometry": { "type": "Polygon", "coordinates": [ [ [ -77.17122, 38.77717 ], [ -77.1747, 38.7775 ], [ -77.17474, 38.7781 ], [ -77.1754, 38.77821 ], [ -77.17554, 38.78099 ], [ -77.17699, 38.78107 ], [ -77.17713, 38.78009 ], [ -77.17761, 38.7799 ], [ -77.17811, 38.78003 ], [ -77.17837, 38.78116 ], [ -77.17896, 38.78173 ], [ -77.17822, 38.78223 ], [ -77.17765, 38.78385 ], [ -77.17785, 38.78442 ], [ -77.17667, 38.78537 ], [ -77.17721, 38.78617 ], [ -77.17686, 38.78648 ], [ -77.17594, 38.78633 ], [ -77.17543, 38.78676 ], [ -77.17432, 38.78647 ], [ -77.17587, 38.78747 ], [ -77.17601, 38.78787 ], [ -77.17533, 38.78863 ], [ -77.17485, 38.78881 ], [ -77.17422, 38.78848 ], [ -77.17146, 38.78927 ], [ -77.17078, 38.78805 ], [ -77.16895, 38.78857 ], [ -77.16667, 38.79004 ], [ -77.16276, 38.7909 ], [ -77.16127, 38.7902 ], [ -77.16112, 38.78764 ], [ -77.15959, 38.78619 ], [ -77.16026, 38.78488 ], [ -77.15985, 38.78486 ], [ -77.15945, 38.78599 ], [ -77.15848, 38.78608 ], [ -77.15815, 38.78667 ], [ -77.15746, 38.78677 ], [ -77.15784, 38.78849 ], [ -77.1587, 38.78884 ], [ -77.15869, 38.78933 ], [ -77.15707, 38.78966 ], [ -77.15603, 38.78717 ], [ -77.15683, 38.78059 ], [ -77.15593, 38.78124 ], [ -77.15557, 38.78223 ], [ -77.15459, 38.78231 ], [ -77.15398, 38.78171 ], [ -77.15444, 38.7813 ], [ -77.15414, 38.78054 ], [ -77.15539, 38.78007 ], [ -77.15338, 38.77996 ], [ -77.15318, 38.77921 ], [ -77.15434, 38.77891 ], [ -77.15466, 38.77814 ], [ -77.15561, 38.77823 ], [ -77.15604, 38.7777 ], [ -77.15734, 38.77765 ], [ -77.15684, 38.77703 ], [ -77.15766, 38.7764 ], [ -77.15772, 38.77585 ], [ -77.15909, 38.77562 ], [ -77.15976, 38.77497 ], [ -77.16083, 38.7754 ], [ -77.16091, 38.77614 ], [ -77.16158, 38.77662 ], [ -77.16183, 38.77811 ], [ -77.16189, 38.77686 ], [ -77.16105, 38.77605 ], [ -77.16086, 38.77496 ], [ -77.16133, 38.77331 ], [ -77.16181, 38.77314 ], [ -77.16618, 38.77302 ], [ -77.16633, 38.7758 ], [ -77.16584, 38.77654 ], [ -77.1681, 38.77648 ], [ -77.16833, 38.77318 ], [ -77.16906, 38.77267 ], [ -77.16971, 38.77324 ], [ -77.16944, 38.77711 ], [ -77.17003, 38.77631 ], [ -77.17076, 38.77612 ], [ -77.17134, 38.77634 ], [ -77.17122, 38.77717 ] ], [ [ -77.16393, 38.78939 ], [ -77.1639, 38.78884 ], [ -77.16298, 38.78907 ], [ -77.16284, 38.78975 ], [ -77.16393, 38.78939 ] ], [ [ -77.16494, 38.78656 ], [ -77.16487, 38.78661 ], [ -77.16494, 38.78668 ], [ -77.16494, 38.78656 ] ], [ [ -77.16647, 38.78474 ], [ -77.16838, 38.78572 ], [ -77.16844, 38.78613 ], [ -77.16746, 38.78648 ], [ -77.16757, 38.78679 ], [ -77.16861, 38.78692 ], [ -77.16859, 38.78749 ], [ -77.1696, 38.78732 ], [ -77.16913, 38.7868 ], [ -77.1693, 38.78618 ], [ -77.16859, 38.78571 ], [ -77.16839, 38.78501 ], [ -77.16753, 38.78479 ], [ -77.16742, 38.78418 ], [ -77.16381, 38.78375 ], [ -77.16539, 38.78474 ], [ -77.16647, 38.78474 ] ], [ [ -77.16432, 38.77983 ], [ -77.16485, 38.7795 ], [ -77.16471, 38.77919 ], [ -77.16443, 38.77924 ], [ -77.16432, 38.77983 ] ], [ [ -77.16411, 38.77802 ], [ -77.16388, 38.77735 ], [ -77.16427, 38.77688 ], [ -77.16329, 38.77706 ], [ -77.16321, 38.77817 ], [ -77.16411, 38.77802 ] ], [ [ -77.16496, 38.77566 ], [ -77.16506, 38.77414 ], [ -77.16471, 38.77419 ], [ -77.1646, 38.77572 ], [ -77.16496, 38.77566 ] ], [ [ -77.17284, 38.7878 ], [ -77.17229, 38.78791 ], [ -77.17229, 38.78801 ], [ -77.17284, 38.7878 ] ], [ [ -77.17052, 38.78182 ], [ -77.17038, 38.77985 ], [ -77.16915, 38.78042 ], [ -77.16845, 38.77989 ], [ -77.16957, 38.7788 ], [ -77.17113, 38.77863 ], [ -77.16836, 38.77852 ], [ -77.1673, 38.78088 ], [ -77.16556, 38.78108 ], [ -77.16619, 38.78174 ], [ -77.16627, 38.78268 ], [ -77.16814, 38.78118 ], [ -77.16866, 38.78114 ], [ -77.16913, 38.78181 ], [ -77.16873, 38.78325 ], [ -77.17101, 38.78354 ], [ -77.17105, 38.78199 ], [ -77.17052, 38.78182 ] ], [ [ -77.17432, 38.77839 ], [ -77.17434, 38.77834 ], [ -77.17419, 38.77839 ], [ -77.17432, 38.77839 ] ], [ [ -77.17654, 38.78296 ], [ -77.17648, 38.7831 ], [ -77.17648, 38.78312 ], [ -77.17654, 38.78296 ] ], [ [ -77.17413, 38.78492 ], [ -77.17409, 38.78493 ], [ -77.17412, 38.78495 ], [ -77.17413, 38.78492 ] ], [ [ -77.17077, 38.78554 ], [ -77.17097, 38.78538 ], [ -77.17063, 38.78545 ], [ -77.17077, 38.78554 ] ], [ [ -77.16655, 38.77932 ], [ -77.16669, 38.77899 ], [ -77.16644, 38.77903 ], [ -77.16655, 38.77932 ] ], [ [ -77.16632, 38.77767 ], [ -77.16535, 38.77775 ], [ -77.16537, 38.77782 ], [ -77.16632, 38.77767 ] ], [ [ -77.1655, 38.77982 ], [ -77.16605, 38.78004 ], [ -77.16642, 38.78004 ], [ -77.16629, 38.77974 ], [ -77.1655, 38.77982 ] ], [ [ -77.16672, 38.78822 ], [ -77.16716, 38.78849 ], [ -77.16728, 38.78845 ], [ -77.16716, 38.78841 ], [ -77.16672, 38.78822 ] ], [ [ -77.1658, 38.78904 ], [ -77.16581, 38.78903 ], [ -77.16579, 38.78902 ], [ -77.1658, 38.78904 ] ], [ [ -77.1659, 38.78911 ], [ -77.1658, 38.78905 ], [ -77.16584, 38.78912 ], [ -77.1659, 38.78911 ] ], [ [ -77.16251, 38.7876 ], [ -77.16385, 38.78734 ], [ -77.16259, 38.78687 ], [ -77.16251, 38.7876 ] ], [ [ -77.16244, 38.78571 ], [ -77.16228, 38.78573 ], [ -77.16247, 38.78584 ], [ -77.16244, 38.78571 ] ], [ [ -77.16195, 38.78364 ], [ -77.16247, 38.7835 ], [ -77.16196, 38.78344 ], [ -77.16195, 38.78364 ] ], [ [ -77.16279, 38.78245 ], [ -77.16224, 38.78167 ], [ -77.16297, 38.7812 ], [ -77.16299, 38.77946 ], [ -77.16033, 38.77996 ], [ -77.16022, 38.78172 ], [ -77.16114, 38.78177 ], [ -77.16177, 38.78243 ], [ -77.16279, 38.78245 ] ], [ [ -77.16443, 38.78553 ], [ -77.1644, 38.78561 ], [ -77.16451, 38.78558 ], [ -77.16443, 38.78553 ] ], [ [ -77.16317, 38.77428 ], [ -77.16268, 38.77443 ], [ -77.16297, 38.776 ], [ -77.1632, 38.77595 ], [ -77.16317, 38.77428 ] ], [ [ -77.15984, 38.77735 ], [ -77.16052, 38.77866 ], [ -77.16036, 38.77727 ], [ -77.15984, 38.77735 ] ], [ [ -77.16013, 38.78374 ], [ -77.16056, 38.7838 ], [ -77.16057, 38.78363 ], [ -77.16013, 38.78374 ] ], [ [ -77.15711, 38.77857 ], [ -77.15709, 38.77857 ], [ -77.15708, 38.77861 ], [ -77.15711, 38.77857 ] ] ] } },
{ "type": "Feature", "properties": { "variant": "T0", "miles": 1.5 }, "geometry": { "type": "Polygon", "coordinates": [ [ [ -77.17885, 38.77453 ], [ -77.17707, 38.77633 ], [ -77.17695, 38.77753 ], [ -77.1837, 38.77857 ], [ -77.18439, 38.77948 ], [ -77.18389, 38.78024 ], [ -77.18564, 38.78056 ], [ -77.18644, 38.78217 ], [ -77.18574, 38.7827 ], [ -77.18355, 38.78285 ], [ -77.1804, 38.78257 ], [ -77.1788, 38.78198 ], [ -77.17822, 38.78223 ], [ -77.17765, 38.78385 ], [ -77.17785, 38.78442 ], [ -77.17667, 38.78537 ], [ -77.17721, 38.78617 ], [ -77.17686, 38.78648 ], [ -77.17594, 38.78633 ], [ -77.17543, 38.78676 ], [ -77.17432, 38.78647 ], [ -77.17601, 38.78787 ], [ -77.17485, 38.78881 ], [ -77.17422, 38.78848 ], [ -77.17146, 38.78927 ], [ -77.17078, 38.78805 ], [ -77.16895, 38.78857 ], [ -77.16667, 38.79004 ], [ -77.16276, 38.7909 ], [ -77.16127, 38.7902 ], [ -77.16114, 38.78768 ], [ -77.15964, 38.78637 ], [ -77.16026, 38.78488 ], [ -77.15976, 38.78488 ], [ -77.15945, 38.78599 ], [ -77.15848, 38.78608 ], [ -77.15815, 38.78667 ], [ -77.15746, 38.78677 ], [ -77.15784, 38.78849 ], [ -77.15873, 38.78891 ], [ -77.15838, 38.78953 ], [ -77.15865, 38.79142 ], [ -77.15774, 38.7923 ], [ -77.15622, 38.79256 ], [ -77.15551, 38.79211 ], [ -77.15503, 38.79089 ], [ -77.15602, 38.79059 ], [ -77.15667, 38.79148 ], [ -77.15737, 38.79097 ], [ -77.15603, 38.7873 ], [ -77.15683, 38.78059 ], [ -77.15593, 38.78124 ], [ -77.15522, 38.78616 ], [ -77.15482, 38.78644 ], [ -77.15413, 38.78627 ], [ -77.15356, 38.78658 ], [ -77.1529, 38.78608 ], [ -77.15206, 38.78628 ], [ -77.15096, 38.78435 ], [ -77.15008, 38.78495 ], [ -77.14996, 38.78589 ], [ -77.14899, 38.78595 ], [ -77.1487, 38.78505 ], [ -77.14728, 38.78499 ], [ -77.14671, 38.78324 ], [ -77.1468, 38.78283 ], [ -77.14836, 38.78231 ], [ -77.14527, 38.78295 ], [ -77.14454, 38.78254 ], [ -77.1446, 38.78201 ], [ -77.14521, 38.78171 ], [ -77.14541, 38.78042 ], [ -77.14639, 38.78042 ], [ -77.14659, 38.78142 ], [ -77.14767, 38.78119 ], [ -77.14719, 38.78001 ], [ -77.14802, 38.7793 ], [ -77.14548, 38.7781 ], [ -77.14515, 38.77738 ], [ -77.14607, 38.77712 ], [ -77.14697, 38.77746 ], [ -77.14877, 38.77536 ], [ -77.14974, 38.77583 ], [ -77.14954, 38.77641 ], [ -77.15031, 38.77712 ], [ -77.15081, 38.77643 ], [ -77.1516, 38.77678 ], [ -77.15251, 38.77661 ], [ -77.15198, 38.77458 ], [ -77.15255, 38.77314 ], [ -77.15161, 38.77277 ], [ -77.15209, 38.77188 ], [ -77.15332, 38.77137 ], [ -77.15406, 38.7714 ], [ -77.15487, 38.77311 ], [ -77.15751, 38.77529 ], [ -77.15775, 38.77436 ], [ -77.15894, 38.77442 ], [ -77.1587, 38.77344 ], [ -77.15976, 38.77239 ], [ -77.16052, 38.77281 ], [ -77.16175, 38.77264 ], [ -77.16239, 38.77315 ], [ -77.16341, 38.7732 ], [ -77.16372, 38.76922 ], [ -77.16556, 38.76908 ], [ -77.16633, 38.76842 ], [ -77.16694, 38.76909 ], [ -77.17022, 38.76926 ], [ -77.17043, 38.76849 ], [ -77.17126, 38.76809 ], [ -77.17202, 38.76848 ], [ -77.17174, 38.77097 ], [ -77.17273, 38.77082 ], [ -77.17338, 38.77016 ], [ -77.17451, 38.77034 ], [ -77.17471, 38.77073 ], [ -77.17447, 38.77227 ], [ -77.17301, 38.77217 ], [ -77.17274, 38.77255 ], [ -77.17268, 38.77363 ], [ -77.17339, 38.77452 ], [ -77.17293, 38.77633 ], [ -77.17492, 38.77643 ], [ -77.17551, 38.77542 ], [ -77.17618, 38.77525 ], [ -77.17796, 38.77366 ], [ -77.1787, 38.77383 ], [ -77.17885, 38.77453 ] ], [ [ -77.16393, 38.78939 ], [ -77.1639, 38.78884 ], [ -77.16298, 38.78907 ], [ -77.16284, 38.78975 ], [ -77.16393, 38.78939 ] ], [ [ -77.16251, 38.7876 ], [ -77.16385, 38.78734 ], [ -77.16259, 38.78687 ], [ -77.16251, 38.7876 ] ], [ [ -77.16244, 38.78571 ], [ -77.16228, 38.78573 ], [ -77.16247, 38.78584 ], [ -77.16244, 38.78571 ] ], [ [ -77.16195, 38.78364 ], [ -77.16247, 38.7835 ], [ -77.16196, 38.78344 ], [ -77.16195, 38.78364 ] ], [ [ -77.1629, 38.78227 ], [ -77.16224, 38.78167 ], [ -77.16297, 38.7812 ], [ -77.16299, 38.77946 ], [ -77.16033, 38.77996 ], [ -77.16022, 38.78172 ], [ -77.16114, 38.78177 ], [ -77.16177, 38.78243 ], [ -77.1629, 38.78227 ] ], [ [ -77.16321, 38.77817 ], [ -77.16411, 38.77802 ], [ -77.16388, 38.77735 ], [ -77.16427, 38.77688 ], [ -77.16329, 38.77706 ], [ -77.16321, 38.77817 ] ], [ [ -77.16294, 38.77591 ], [ -77.16332, 38.77428 ], [ -77.16279, 38.77426 ], [ -77.16294, 38.77591 ] ], [ [ -77.17284, 38.7878 ], [ -77.17229, 38.78791 ], [ -77.17229, 38.78801 ], [ -77.17284, 38.7878 ] ], [ [ -77.17099, 38.78199 ], [ -77.17033, 38.78144 ], [ -77.17038, 38.77985 ], [ -77.16915, 38.78042 ], [ -77.16845, 38.77989 ], [ -77.16957, 38.7788 ], [ -77.17113, 38.77863 ], [ -77.16836, 38.77852 ], [ -77.1673, 38.78088 ], [ -77.16556, 38.78108 ], [ -77.16619, 38.78174 ], [ -77.16627, 38.78268 ], [ -77.16814, 38.78118 ], [ -77.16907, 38.7814 ], [ -77.16873, 38.78325 ], [ -77.17101, 38.78354 ], [ -77.17099, 38.78199 ] ], [ [ -77.17078, 38.77604 ], [ -77.17079, 38.77255 ], [ -77.16982, 38.77193 ], [ -77.16944, 38.77711 ], [ -77.17003, 38.77631 ], [ -77.17078, 38.77604 ] ], [ [ -77.17699, 38.7809 ], [ -77.17596, 38.78037 ], [ -77.17556, 38.78001 ], [ -77.17554, 38.78099 ], [ -77.17699, 38.7809 ] ], [ [ -77.18265, 38.77951 ], [ -77.18204, 38.77956 ], [ -77.17686, 38.77898 ], [ -77.17726, 38.77962 ], [ -77.17798, 38.77911 ], [ -77.17851, 38.77929 ], [ -77.17973, 38.78103 ], [ -77.18188, 38.78156 ], [ -77.18208, 38.78116 ], [ -77.18102, 38.78112 ], [ -77.18041, 38.78052 ], [ -77.18098, 38.78004 ], [ -77.18244, 38.7801 ], [ -77.18265, 38.77951 ] ], [ [ -77.18326, 38.78175 ], [ -77.1842, 38.78176 ], [ -77.18461, 38.78173 ], [ -77.18451, 38.78139 ], [ -77.1835, 38.78129 ], [ -77.18326, 38.78175 ] ], [ [ -77.17654, 38.78296 ], [ -77.17648, 38.7831 ], [ -77.17648, 38.78312 ], [ -77.17654, 38.78296 ] ], [ [ -77.17413, 38.78492 ], [ -77.17412, 38.78495 ], [ -77.17414, 38.78492 ], [ -77.17413, 38.78492 ] ], [ [ -77.16728, 38.78845 ], [ -77.16696, 38.78833 ], [ -77.16672, 38.78822 ], [ -77.16728, 38.78845 ] ], [ [ -77.16674, 38.78475 ], [ -77.16838, 38.78572 ], [ -77.16844, 38.78613 ], [ -77.16746, 38.78648 ], [ -77.16757, 38.78679 ], [ -77.16861, 38.78692 ], [ -77.16859, 38.78749 ], [ -77.1696, 38.78732 ], [ -77.16913, 38.7868 ], [ -77.1693, 38.78618 ], [ -77.16859, 38.78571 ], [ -77.16839, 38.78501 ], [ -77.16753, 38.78479 ], [ -77.16742, 38.78418 ], [ -77.16381, 38.78375 ], [ -77.16539, 38.78474 ], [ -77.16674, 38.78475 ] ], [ [ -77.17077, 38.78554 ], [ -77.17097, 38.78538 ], [ -77.17063, 38.78545 ], [ -77.17077, 38.78554 ] ], [ [ -77.16629, 38.77974 ], [ -77.16558, 38.77997 ], [ -77.16642, 38.78004 ], [ -77.16629, 38.77974 ] ], [ [ -77.16669, 38.77899 ], [ -77.16655, 38.77932 ], [ -77.16668, 38.77928 ], [ -77.16669, 38.77899 ] ], [ [ -77.16632, 38.77767 ], [ -77.16535, 38.77775 ], [ -77.16537, 38.77782 ], [ -77.16632, 38.77767 ] ], [ [ -77.16584, 38.77654 ], [ -77.16689, 38.77509 ], [ -77.16669, 38.77389 ], [ -77.16584, 38.77654 ] ], [ [ -77.16663, 38.77151 ], [ -77.16657, 38.77219 ], [ -77.16653, 38.77281 ], [ -77.16676, 38.77278 ], [ -77.16663, 38.77151 ] ], [ [ -77.16675, 38.77043 ], [ -77.16855, 38.77043 ], [ -77.16851, 38.77017 ], [ -77.16679, 38.77017 ], [ -77.16675, 38.77043 ] ], [ [ -77.16816, 38.77263 ], [ -77.16847, 38.77151 ], [ -77.16823, 38.77151 ], [ -77.16816, 38.77263 ] ], [ [ -77.16808, 38.77371 ], [ -77.16822, 38.77463 ], [ -77.1683, 38.77372 ], [ -77.16808, 38.77371 ] ], [ [ -77.1677, 38.77622 ], [ -77.1681, 38.77648 ], [ -77.16816, 38.77557 ], [ -77.16797, 38.77588 ], [ -77.1677, 38.77622 ] ], [ [ -77.16525, 38.77149 ], [ -77.16486, 38.77203 ], [ -77.1648, 38.77307 ], [ -77.16513, 38.77302 ], [ -77.16525, 38.77149 ] ], [ [ -77.16476, 38.77039 ], [ -77.1654, 38.77016 ], [ -77.16477, 38.77017 ], [ -77.16476, 38.77039 ] ], [ [ -77.16496, 38.77566 ], [ -77.16471, 38.77419 ], [ -77.1646, 38.77572 ], [ -77.16496, 38.77566 ] ], [ [ -77.16431, 38.77983 ], [ -77.16485, 38.7795 ], [ -77.16471, 38.77919 ], [ -77.16443, 38.77924 ], [ -77.16431, 38.77983 ] ], [ [ -77.16494, 38.78668 ], [ -77.16494, 38.78656 ], [ -77.16487, 38.78661 ], [ -77.16494, 38.78668 ] ], [ [ -77.16451, 38.78558 ], [ -77.16443, 38.78553 ], [ -77.1644, 38.78561 ], [ -77.16451, 38.78558 ] ], [ [ -77.16581, 38.78903 ], [ -77.16579, 38.78902 ], [ -77.1658, 38.78904 ], [ -77.16581, 38.78903 ] ], [ [ -77.1658, 38.78905 ], [ -77.16584, 38.78912 ], [ -77.1659, 38.78911 ], [ -77.1658, 38.78905 ] ], [ [ -77.15466, 38.77569 ], [ -77.15464, 38.77564 ], [ -77.15465, 38.7757 ], [ -77.15466, 38.77569 ] ], [ [ -77.16013, 38.78374 ], [ -77.16056, 38.7838 ], [ -77.16057, 38.78363 ], [ -77.16013, 38.78374 ] ], [ [ -77.16031, 38.77871 ], [ -77.16036, 38.77727 ], [ -77.15985, 38.77734 ], [ -77.16031, 38.77871 ] ], [ [ -77.16153, 38.77652 ], [ -77.16171, 38.77702 ], [ -77.16183, 38.77811 ], [ -77.16191, 38.77691 ], [ -77.16153, 38.77652 ] ], [ [ -77.15734, 38.77765 ], [ -77.15726, 38.77762 ], [ -77.15725, 38.77767 ], [ -77.15734, 38.77765 ] ], [ [ -77.15709, 38.77857 ], [ -77.15708, 38.77861 ], [ -77.15711, 38.77857 ], [ -77.15709, 38.77857 ] ], [ [ -77.15291, 38.78482 ], [ -77.15269, 38.78492 ], [ -77.1529, 38.78537 ], [ -77.15291, 38.78482 ] ], [ [ -77.15242, 38.783 ], [ -77.15426, 38.7829 ], [ -77.15414, 38.78106 ], [ -77.15168, 38.78166 ], [ -77.15242, 38.783 ] ], [ [ -77.15101, 38.77978 ], [ -77.15052, 38.78004 ], [ -77.15102, 38.78052 ], [ -77.15156, 38.7804 ], [ -77.15101, 38.77978 ] ], [ [ -77.14977, 38.78255 ], [ -77.15053, 38.78257 ], [ -77.1508, 38.78296 ], [ -77.15034, 38.78194 ], [ -77.14971, 38.78206 ], [ -77.14977, 38.78255 ] ], [ [ -77.15004, 38.77849 ], [ -77.14943, 38.7782 ], [ -77.14871, 38.77748 ], [ -77.14834, 38.77798 ], [ -77.14968, 38.77918 ], [ -77.15004, 38.77849 ] ], [ [ -77.14937, 38.78064 ], [ -77.14901, 38.78092 ], [ -77.14955, 38.78082 ], [ -77.14937, 38.78064 ] ], [ [ -77.15082, 38.78342 ], [ -77.14995, 38.78387 ], [ -77.15092, 38.78425 ], [ -77.15082, 38.78342 ] ] ] } },
{ "type": "Feature", "properties": { "variant": "T2s", "miles": 0.5 }, "geometry": { "type": "Polygon", "coordinates": [ [ [ -77.166, 38.77894 ], [ -77.16443, 38.77924 ], [ -77.16431, 38.77983 ], [ -77.16493, 38.77947 ], [ -77.16558, 38.77997 ], [ -77.1675, 38.78013 ], [ -77.1676, 38.78054 ], [ -77.16697, 38.78105 ], [ -77.16556, 38.78108 ], [ -77.16622, 38.78182 ], [ -77.16626, 38.78294 ], [ -77.16736, 38.78308 ], [ -77.16781, 38.78151 ], [ -77.16866, 38.78114 ], [ -77.16913, 38.78181 ], [ -77.16873, 38.78325 ], [ -77.17219, 38.78353 ], [ -77.17237, 38.78467 ], [ -77.17216, 38.78505 ], [ -77.17104, 38.78537 ], [ -77.1692, 38.78544 ], [ -77.16753, 38.78479 ], [ -77.16742, 38.78418 ], [ -77.16381, 38.78375 ], [ -77.16539, 38.78474 ], [ -77.16714, 38.78488 ], [ -77.16739, 38.78537 ], [ -77.16838, 38.78572 ], [ -77.16812, 38.78646 ], [ -77.16746, 38.78648 ], [ -77.16757, 38.78679 ], [ -77.16861, 38.78692 ], [ -77.16896, 38.78861 ], [ -77.16837, 38.78921 ], [ -77.16704, 38.78965 ], [ -77.1658, 38.78905 ], [ -77.16598, 38.79001 ], [ -77.16557, 38.79027 ], [ -77.16392, 38.78938 ], [ -77.1639, 38.78884 ], [ -77.16321, 38.78911 ], [ -77.1624, 38.78868 ], [ -77.16256, 38.78807 ], [ -77.16385, 38.78734 ], [ -77.16354, 38.78708 ], [ -77.16259, 38.78687 ], [ -77.16181, 38.78721 ], [ -77.16137, 38.7869 ], [ -77.16048, 38.78727 ], [ -77.16008, 38.78699 ], [ -77.15959, 38.78598 ], [ -77.16026, 38.78488 ], [ -77.15976, 38.78488 ], [ -77.15945, 38.78599 ], [ -77.15848, 38.78608 ], [ -77.15767, 38.78683 ], [ -77.15697, 38.7863 ], [ -77.15725, 38.78511 ], [ -77.15639, 38.7845 ], [ -77.15714, 38.78401 ], [ -77.15865, 38.78401 ], [ -77.15903, 38.7818 ], [ -77.16114, 38.78177 ], [ -77.16167, 38.78239 ], [ -77.16279, 38.78245 ], [ -77.16224, 38.78167 ], [ -77.16297, 38.7812 ], [ -77.16299, 38.77946 ], [ -77.16231, 38.77941 ], [ -77.16212, 38.77866 ], [ -77.16524, 38.778 ], [ -77.16606, 38.77842 ], [ -77.166, 38.77894 ] ], [ [ -77.16581, 38.78903 ], [ -77.16579, 38.78902 ], [ -77.1658, 38.78904 ], [ -77.16581, 38.78903 ] ], [ [ -77.16716, 38.78841 ], [ -77.16672, 38.78822 ], [ -77.16728, 38.78845 ], [ -77.16716, 38.78841 ] ], [ [ -77.16243, 38.78567 ], [ -77.16228, 38.78573 ], [ -77.16247, 38.78584 ], [ -77.16243, 38.78567 ] ], [ [ -77.16487, 38.78661 ], [ -77.16494, 38.78668 ], [ -77.16494, 38.78656 ], [ -77.16487, 38.78661 ] ], [ [ -77.16451, 38.78558 ], [ -77.16443, 38.78553 ], [ -77.1644, 38.78561 ], [ -77.16451, 38.78558 ] ], [ [ -77.16196, 38.78344 ], [ -77.16241, 38.78372 ], [ -77.16247, 38.7835 ], [ -77.16196, 38.78344 ] ], [ [ -77.16013, 38.78374 ], [ -77.16056, 38.7838 ], [ -77.16057, 38.78363 ], [ -77.16013, 38.78374 ] ] ] } },
{ "type": "Feature", "properties": { "variant": "T2s", "miles": 1.0 }, "geometry": { "type": "Polygon", "coordinates": [ [ [ -77.17182, 38.77719 ], [ -77.1747, 38.7775 ], [ -77.17474, 38.7781 ], [ -77.1754, 38.77821 ], [ -77.17554, 38.78099 ], [ -77.17833, 38.78115 ], [ -77.17896, 38.78173 ], [ -77.17822, 38.78223 ], [ -77.17765, 38.78385 ], [ -77.17785, 38.78442 ], [ -77.17667, 38.78537 ], [ -77.17721, 38.78617 ], [ -77.17686, 38.78648 ], [ -77.17594, 38.78633 ], [ -77.17543, 38.78676 ], [ -77.17432, 38.78647 ], [ -77.17587, 38.78747 ], [ -77.17601, 38.78787 ], [ -77.17533, 38.78863 ], [ -77.17485, 38.78881 ], [ -77.17422, 38.78848 ], [ -77.17146, 38.78927 ], [ -77.17078, 38.78805 ], [ -77.16895, 38.78857 ], [ -77.16667, 38.79004 ], [ -77.16276, 38.7909 ], [ -77.16127, 38.7902 ], [ -77.16112, 38.78764 ], [ -77.15959, 38.78619 ], [ -77.16026, 38.78488 ], [ -77.15985, 38.78486 ], [ -77.15945, 38.78599 ], [ -77.15848, 38.78608 ], [ -77.15815, 38.78667 ], [ -77.15746, 38.78677 ], [ -77.15784, 38.78849 ], [ -77.1587, 38.78884 ], [ -77.15869, 38.78933 ], [ -77.15707, 38.78966 ], [ -77.15603, 38.78717 ], [ -77.15683, 38.78059 ], [ -77.15593, 38.78124 ], [ -77.15557, 38.78223 ], [ -77.15507, 38.78235 ], [ -77.15413, 38.78211 ], [ -77.15444, 38.7813 ], [ -77.15414, 38.78054 ], [ -77.15536, 38.78018 ], [ -77.15596, 38.77948 ], [ -77.16857, 38.77735 ], [ -77.17119, 38.77755 ], [ -77.17182, 38.77719 ] ], [ [ -77.16716, 38.78849 ], [ -77.16716, 38.78841 ], [ -77.16672, 38.78822 ], [ -77.16716, 38.78849 ] ], [ [ -77.16859, 38.78749 ], [ -77.1696, 38.78732 ], [ -77.16913, 38.7868 ], [ -77.1693, 38.78618 ], [ -77.16859, 38.78571 ], [ -77.16839, 38.78501 ], [ -77.16753, 38.78479 ], [ -77.16742, 38.78418 ], [ -77.16381, 38.78375 ], [ -77.16539, 38.78474 ], [ -77.16714, 38.78488 ], [ -77.16739, 38.78537 ], [ -77.16838, 38.78572 ], [ -77.16812, 38.78646 ], [ -77.16746, 38.78648 ], [ -77.16757, 38.78679 ], [ -77.16821, 38.78666 ], [ -77.16859, 38.78749 ] ], [ [ -77.16432, 38.77983 ], [ -77.16485, 38.7795 ], [ -77.16471, 38.77919 ], [ -77.16443, 38.77924 ], [ -77.16432, 38.77983 ] ], [ [ -77.17284, 38.7878 ], [ -77.17229, 38.78791 ], [ -77.17229, 38.78801 ], [ -77.17284, 38.7878 ] ], [ [ -77.17413, 38.78492 ], [ -77.17409, 38.78493 ], [ -77.17412, 38.78495 ], [ -77.17413, 38.78492 ] ], [ [ -77.17093, 38.77863 ], [ -77.16874, 38.77843 ], [ -77.16809, 38.77869 ], [ -77.16803, 38.77977 ], [ -77.1673, 38.78088 ], [ -77.16556, 38.78108 ], [ -77.16619, 38.78174 ], [ -77.16627, 38.78268 ], [ -77.16814, 38.78118 ], [ -77.16866, 38.78114 ], [ -77.16913, 38.78181 ], [ -77.16873, 38.78325 ], [ -77.17101, 38.78354 ], [ -77.17105, 38.78199 ], [ -77.17033, 38.78144 ], [ -77.17038, 38.77985 ], [ -77.16915, 38.78042 ], [ -77.16845, 38.77989 ], [ -77.16957, 38.7788 ], [ -77.17093, 38.77863 ] ], [ [ -77.17432, 38.77839 ], [ -77.17434, 38.77834 ], [ -77.17419, 38.77839 ], [ -77.17432, 38.77839 ] ], [ [ -77.17648, 38.78312 ], [ -77.17654, 38.78296 ], [ -77.17647, 38.78298 ], [ -77.17648, 38.78312 ] ], [ [ -77.17063, 38.78545 ], [ -77.17096, 38.78573 ], [ -77.17097, 38.78538 ], [ -77.17063, 38.78545 ] ], [ [ -77.16668, 38.77928 ], [ -77.16644, 38.77903 ], [ -77.16655, 38.77932 ], [ -77.16668, 38.77928 ] ], [ [ -77.1655, 38.77982 ], [ -77.16642, 38.78004 ], [ -77.16629, 38.77974 ], [ -77.1655, 38.77982 ] ], [ [ -77.16451, 38.78558 ], [ -77.16443, 38.78553 ], [ -77.1644, 38.78561 ], [ -77.16451, 38.78558 ] ], [ [ -77.16395, 38.78939 ], [ -77.1639, 38.78884 ], [ -77.16298, 38.78907 ], [ -77.16284, 38.78975 ], [ -77.16395, 38.78939 ] ], [ [ -77.16379, 38.78728 ], [ -77.16259, 38.78687 ], [ -77.16235, 38.78713 ], [ -77.16251, 38.7876 ], [ -77.16379, 38.78728 ] ], [ [ -77.16013, 38.78374 ], [ -77.16056, 38.7838 ], [ -77.16057, 38.78363 ], [ -77.16013, 38.78374 ] ], [ [ -77.16167, 38.78239 ], [ -77.1629, 38.78227 ], [ -77.16224, 38.78167 ], [ -77.16297, 38.7812 ], [ -77.16299, 38.77946 ], [ -77.16033, 38.77996 ], [ -77.16022, 38.78172 ], [ -77.16114, 38.78177 ], [ -77.16167, 38.78239 ] ], [ [ -77.16487, 38.78661 ], [ -77.16494, 38.78668 ], [ -77.16494, 38.78656 ], [ -77.16487, 38.78661 ] ], [ [ -77.16584, 38.78912 ], [ -77.1659, 38.78911 ], [ -77.1658, 38.78905 ], [ -77.16584, 38.78912 ] ], [ [ -77.1658, 38.78904 ], [ -77.16581, 38.78903 ], [ -77.16579, 38.78902 ], [ -77.1658, 38.78904 ] ], [ [ -77.16196, 38.78344 ], [ -77.16241, 38.78372 ], [ -77.16247, 38.7835 ], [ -77.16196, 38.78344 ] ], [ [ -77.16244, 38.78571 ], [ -77.16228, 38.78573 ], [ -77.16247, 38.78584 ], [ -77.16244, 38.78571 ] ] ] } },
{ "type": "Feature", "properties": { "variant": "T2s", "miles": 1.5 }, "geometry": { "type": "Polygon", "coordinates": [ [ [ -77.17451, 38.77034 ], [ -77.17447, 38.77227 ], [ -77.17301, 38.77217 ], [ -77.17274, 38.77255 ], [ -77.17268, 38.77363 ], [ -77.17339, 38.77452 ], [ -77.17293, 38.77633 ], [ -77.17492, 38.77643 ], [ -77.17551, 38.77542 ], [ -77.17618, 38.77525 ], [ -77.17757, 38.77387 ], [ -77.1787, 38.77383 ], [ -77.17885, 38.77453 ], [ -77.17707, 38.77633 ], [ -77.17695, 38.77753 ], [ -77.17914, 38.77786 ], [ -77.17974, 38.7785 ], [ -77.17906, 38.77907 ], [ -77.17686, 38.77898 ], [ -77.17683, 38.77928 ], [ -77.1784, 38.77993 ], [ -77.17983, 38.7813 ], [ -77.17962, 38.78179 ], [ -77.17822, 38.78223 ], [ -77.17765, 38.78385 ], [ -77.17785, 38.78442 ], [ -77.17667, 38.78537 ], [ -77.17721, 38.78617 ], [ -77.17686, 38.78648 ], [ -77.17594, 38.78633 ], [ -77.17543, 38.78676 ], [ -77.17432, 38.78647 ], [ -77.17601, 38.78787 ], [ -77.17485, 38.78881 ], [ -77.17422, 38.78848 ], [ -77.17146, 38.78927 ], [ -77.17078, 38.78805 ], [ -77.16895, 38.78857 ], [ -77.16667, 38.79004 ], [ -77.16276, 38.7909 ], [ -77.16127, 38.7902 ], [ -77.16114, 38.78768 ], [ -77.15964, 38.78637 ], [ -77.16026, 38.78488 ], [ -77.15976, 38.78488 ], [ -77.15945, 38.78599 ], [ -77.15848, 38.78608 ], [ -77.15815, 38.78667 ], [ -77.15746, 38.78677 ], [ -77.15784, 38.78849 ], [ -77.15873, 38.78891 ], [ -77.15838, 38.78953 ], [ -77.15865, 38.79142 ], [ -77.15774, 38.7923 ], [ -77.15622, 38.79256 ], [ -77.15551, 38.79211 ], [ -77.15503, 38.79089 ], [ -77.15602, 38.79059 ], [ -77.15667, 38.79148 ], [ -77.15737, 38.79097 ], [ -77.15603, 38.7873 ], [ -77.15683, 38.78059 ], [ -77.15593, 38.78124 ], [ -77.15522, 38.78616 ], [ -77.15482, 38.78644 ], [ -77.15413, 38.78627 ], [ -77.15356, 38.78658 ], [ -77.1529, 38.78608 ], [ -77.15206, 38.78628 ], [ -77.15096, 38.78435 ], [ -77.15008, 38.78495 ], [ -77.14996, 38.78589 ], [ -77.14899, 38.78595 ], [ -77.1487, 38.78505 ], [ -77.14728, 38.78499 ], [ -77.14671, 38.78324 ], [ -77.1468, 38.78283 ], [ -77.14836, 38.78231 ], [ -77.14527, 38.78295 ], [ -77.14454, 38.78254 ], [ -77.14502, 38.78175 ], [ -77.16411, 38.77802 ], [ -77.16407, 38.77696 ], [ -77.16626, 38.77644 ], [ -77.16689, 38.77509 ], [ -77.16673, 38.7732 ], [ -77.16731, 38.7727 ], [ -77.16954, 38.77285 ], [ -77.16965, 38.77712 ], [ -77.16998, 38.77635 ], [ -77.17078, 38.77613 ], [ -77.17084, 38.77295 ], [ -77.17073, 38.77237 ], [ -77.16995, 38.77219 ], [ -77.16916, 38.7697 ], [ -77.17022, 38.76926 ], [ -77.17061, 38.76861 ], [ -77.17156, 38.76879 ], [ -77.17174, 38.77097 ], [ -77.17333, 38.77081 ], [ -77.17403, 38.77018 ], [ -77.17451, 38.77034 ] ], [ [ -77.16716, 38.78849 ], [ -77.16716, 38.78841 ], [ -77.16672, 38.78822 ], [ -77.16716, 38.78849 ] ], [ [ -77.16714, 38.78488 ], [ -77.16739, 38.78537 ], [ -77.16838, 38.78572 ], [ -77.16844, 38.78613 ], [ -77.16746, 38.78648 ], [ -77.16757, 38.78679 ], [ -77.16861, 38.78692 ], [ -77.16859, 38.78749 ], [ -77.1696, 38.78732 ], [ -77.16913, 38.7868 ], [ -77.1693, 38.78618 ], [ -77.16859, 38.78571 ], [ -77.16839, 38.78501 ], [ -77.16753, 38.78479 ], [ -77.16742, 38.78418 ], [ -77.16381, 38.78375 ], [ -77.16539, 38.78474 ], [ -77.16714, 38.78488 ] ], [ [ -77.16629, 38.78266 ], [ -77.16814, 38.78118 ], [ -77.16866, 38.78114 ], [ -77.16913, 38.78181 ], [ -77.16873, 38.78325 ], [ -77.17101, 38.78354 ], [ -77.17105, 38.78199 ], [ -77.17033, 38.78144 ], [ -77.17038, 38.77985 ], [ -77.16915, 38.78042 ], [ -77.16845, 38.77989 ], [ -77.16957, 38.7788 ], [ -77.17113, 38.77863 ], [ -77.16874, 38.77843 ], [ -77.16809, 38.77869 ], [ -77.16803, 38.77977 ], [ -77.1673, 38.78088 ], [ -77.16556, 38.78108 ], [ -77.16619, 38.78174 ], [ -77.16629, 38.78266 ] ], [ [ -77.16629, 38.77974 ], [ -77.16581, 38.77985 ], [ -77.1655, 38.77982 ], [ -77.1664, 38.78005 ], [ -77.16629, 38.77974 ] ], [ [ -77.16655, 38.77932 ], [ -77.16669, 38.77899 ], [ -77.16644, 38.77903 ], [ -77.16655, 38.77932 ] ], [ [ -77.16537, 38.77782 ], [ -77.16629, 38.77756 ], [ -77.16535, 38.77775 ], [ -77.16537, 38.77782 ] ], [ [ -77.17413, 38.78492 ], [ -77.17409, 38.78493 ], [ -77.17412, 38.78495 ], [ -77.17413, 38.78492 ] ], [ [ -77.17654, 38.78296 ], [ -77.17648, 38.7831 ], [ -77.17648, 38.78312 ], [ -77.17654, 38.78296 ] ], [ [ -77.17699, 38.78107 ], [ -77.17556, 38.78001 ], [ -77.17554, 38.78099 ], [ -77.17699, 38.78107 ] ], [ [ -77.17284, 38.7878 ], [ -77.17229, 38.78791 ], [ -77.17229, 38.78801 ], [ -77.17284, 38.7878 ] ], [ [ -77.17097, 38.78538 ], [ -77.17083, 38.7856 ], [ -77.17096, 38.78573 ], [ -77.17097, 38.78538 ] ], [ [ -77.16814, 38.77562 ], [ -77.1677, 38.77622 ], [ -77.16764, 38.77646 ], [ -77.1681, 38.77648 ], [ -77.16814, 38.77562 ] ], [ [ -77.16808, 38.77371 ], [ -77.16822, 38.77463 ], [ -77.1683, 38.77372 ], [ -77.16808, 38.77371 ] ], [ [ -77.16291, 38.7897 ], [ -77.16395, 38.78939 ], [ -77.1639, 38.78884 ], [ -77.16283, 38.78915 ], [ -77.16291, 38.7897 ] ], [ [ -77.16251, 38.7876 ], [ -77.16385, 38.78734 ], [ -77.16259, 38.78687 ], [ -77.16251, 38.7876 ] ], [ [ -77.16244, 38.78571 ], [ -77.16228, 38.78573 ], [ -77.16247, 38.78584 ], [ -77.16244, 38.78571 ] ], [ [ -77.16195, 38.78364 ], [ -77.16247, 38.7835 ], [ -77.16196, 38.78344 ], [ -77.16195, 38.78364 ] ], [ [ -77.16279, 38.78245 ], [ -77.16224, 38.78167 ], [ -77.16297, 38.7812 ], [ -77.16299, 38.77946 ], [ -77.16033, 38.77996 ], [ -77.16022, 38.78172 ], [ -77.16114, 38.78177 ], [ -77.16177, 38.78243 ], [ -77.16279, 38.78245 ] ], [ [ -77.16431, 38.77983 ], [ -77.16485, 38.7795 ], [ -77.16471, 38.77919 ], [ -77.16443, 38.77924 ], [ -77.16431, 38.77983 ] ], [ [ -77.16451, 38.78558 ], [ -77.16443, 38.78553 ], [ -77.1644, 38.78561 ], [ -77.16451, 38.78558 ] ], [ [ -77.16494, 38.78656 ], [ -77.16487, 38.78661 ], [ -77.16494, 38.78668 ], [ -77.16494, 38.78656 ] ], [ [ -77.16584, 38.78912 ], [ -77.1659, 38.78911 ], [ -77.1658, 38.78905 ], [ -77.16584, 38.78912 ] ], [ [ -77.16579, 38.78902 ], [ -77.1658, 38.78904 ], [ -77.16581, 38.78903 ], [ -77.16579, 38.78902 ] ], [ [ -77.16013, 38.78374 ], [ -77.16056, 38.7838 ], [ -77.16057, 38.78363 ], [ -77.16013, 38.78374 ] ], [ [ -77.15409, 38.78106 ], [ -77.15168, 38.78166 ], [ -77.15219, 38.78297 ], [ -77.15426, 38.7829 ], [ -77.15398, 38.78171 ], [ -77.15444, 38.7813 ], [ -77.15409, 38.78106 ] ], [ [ -77.14973, 38.78214 ], [ -77.14977, 38.78255 ], [ -77.15053, 38.78257 ], [ -77.1508, 38.78296 ], [ -77.15034, 38.78194 ], [ -77.14973, 38.78214 ] ], [ [ -77.15082, 38.78342 ], [ -77.14995, 38.78387 ], [ -77.15092, 38.78425 ], [ -77.15082, 38.78342 ] ], [ [ -77.15291, 38.78482 ], [ -77.15269, 38.78492 ], [ -77.1529, 38.78537 ], [ -77.15291, 38.78482 ] ] ] } }
]
}
