{
"type": "FeatureCollection",
"name": "164",
"crs": { "type": "name", "properties": { "name": "urn:ogc:def:crs:OGC:1.3:CRS84" } },
"xy_coordinate_resolution": 1e-05,
"features": [
{ "type": "Feature", "properties": { "variant": "T0", "miles": 0.5 }, "geometry": { "type": "Polygon", "coordinates": [ [ [ -77.18744, 38.78532 ], [ -77.18793, 38.78573 ], [ -77.18806, 38.78874 ], [ -77.19185, 38.78831 ], [ -77.19232, 38.79043 ], [ -77.193, 38.79033 ], [ -77.19345, 38.79101 ], [ -77.19237, 38.79168 ], [ -77.19321, 38.79237 ], [ -77.19232, 38.79349 ], [ -77.19188, 38.79371 ], [ -77.19062, 38.79329 ], [ -77.18995, 38.79375 ], [ -77.18921, 38.79337 ], [ -77.18866, 38.79526 ], [ -77.18795, 38.79557 ], [ -77.18878, 38.79601 ], [ -77.18878, 38.79642 ], [ -77.18788, 38.79672 ], [ -77.18695, 38.79642 ], [ -77.1863, 38.79838 ], [ -77.18549, 38.79878 ], [ -77.18491, 38.7985 ], [ -77.18503, 38.79722 ], [ -77.18337, 38.7971 ], [ -77.18298, 38.7968 ], [ -77.18309, 38.79618 ], [ -77.18245, 38.79575 ], [ -77.18295, 38.7946 ], [ -77.18336, 38.79432 ], [ -77.18438, 38.79443 ], [ -77.18311, 38.7939 ], [ -77.18307, 38.79295 ], [ -77.18035, 38.7916 ], [ -77.18003, 38.79089 ], [ -77.1815, 38.78777 ], [ -77.18302, 38.78771 ], [ -77.18564, 38.78843 ], [ -77.18548, 38.78742 ], [ -77.1847, 38.78727 ], [ -77.18429, 38.78658 ], [ -77.18529, 38.78629 ], [ -77.18541, 38.78557 ], [ -77.18588, 38.78537 ], [ -77.18744, 38.78532 ] ], [ [ -77.18561, 38.79369 ], [ -77.1859, 38.792 ], [ -77.18592, 38.79154 ], [ -77.1849, 38.79167 ], [ -77.18441, 38.79325 ], [ -77.18561, 38.79369 ] ], [ [ -77.18527, 38.79052 ], [ -77.18524, 38.79049 ], [ -77.18519, 38.79053 ], [ -77.18527, 38.79052 ] ], [ [ -77.19116, 38.7911 ], [ -77.19119, 38.79108 ], [ -77.19117, 38.79105 ], [ -77.19116, 38.7911 ] ], [ [ -77.18754, 38.79419 ], [ -77.18714, 38.79419 ], [ -77.18751, 38.79432 ], [ -77.18754, 38.79419 ] ] ] } },
{ "type": "Feature", "properties": { "variant": "T0", "miles": 1.0 }, "geometry": { "type": "Polygon", "coordinates": [ [ [ -77.19678, 38.78419 ], [ -77.19811, 38.78569 ], [ -77.19852, 38.78706 ], [ -77.19976, 38.78637 ], [ -77.20068, 38.78663 ], [ -77.20037, 38.78734 ], [ -77.19884, 38.78824 ], [ -77.19925, 38.78965 ], [ -77.20089, 38.78995 ], [ -77.20117, 38.79068 ], [ -77.20075, 38.79094 ], [ -77.19918, 38.79078 ], [ -77.19939, 38.79148 ], [ -77.19883, 38.79176 ], [ -77.19876, 38.79321 ], [ -77.19996, 38.79327 ], [ -77.20229, 38.7926 ], [ -77.20283, 38.79324 ], [ -77.2013, 38.79448 ], [ -77.19851, 38.79428 ], [ -77.19772, 38.79558 ], [ -77.19678, 38.79536 ], [ -77.19628, 38.79445 ], [ -77.19644, 38.79532 ], [ -77.19381, 38.79688 ], [ -77.18844, 38.79544 ], [ -77.18795, 38.79557 ], [ -77.19192, 38.79681 ], [ -77.19183, 38.79775 ], [ -77.19124, 38.7982 ], [ -77.18994, 38.79826 ], [ -77.18938, 38.79773 ], [ -77.18845, 38.79783 ], [ -77.19042, 38.79918 ], [ -77.19377, 38.79919 ], [ -77.19438, 38.79979 ], [ -77.19363, 38.80033 ], [ -77.19042, 38.80032 ], [ -77.18766, 38.79872 ], [ -77.18619, 38.79876 ], [ -77.18682, 38.79932 ], [ -77.18726, 38.80093 ], [ -77.18855, 38.80018 ], [ -77.18916, 38.80077 ], [ -77.18665, 38.80281 ], [ -77.18473, 38.80275 ], [ -77.18494, 38.80569 ], [ -77.18439, 38.80632 ], [ -77.18387, 38.80623 ], [ -77.18322, 38.80317 ], [ -77.18436, 38.80014 ], [ -77.1827, 38.79977 ], [ -77.18223, 38.7991 ], [ -77.18308, 38.79874 ], [ -77.18461, 38.79907 ], [ -77.18503, 38.79722 ], [ -77.18433, 38.79738 ], [ -77.18298, 38.7968 ], [ -77.18309, 38.79618 ], [ -77.18165, 38.79561 ], [ -77.18174, 38.79461 ], [ -77.1804, 38.79422 ], [ -77.17893, 38.79472 ], [ -77.17727, 38.79362 ], [ -77.17784, 38.793 ], [ -77.17921, 38.79359 ], [ -77.1806, 38.79314 ], [ -77.18275, 38.79379 ], [ -77.18325, 38.7944 ], [ -77.18438, 38.79443 ], [ -77.17954, 38.79195 ], [ -77.17764, 38.78938 ], [ -77.178, 38.78775 ], [ -77.17953, 38.78722 ], [ -77.17855, 38.78607 ], [ -77.17924, 38.78538 ], [ -77.17907, 38.78417 ], [ -77.17977, 38.78206 ], [ -77.18032, 38.7815 ], [ -77.18188, 38.78156 ], [ -77.1825, 38.77973 ], [ -77.18348, 38.77888 ], [ -77.18617, 38.77838 ], [ -77.18683, 38.77907 ], [ -77.18732, 38.78193 ], [ -77.18885, 38.78229 ], [ -77.1901, 38.78167 ], [ -77.1907, 38.78185 ], [ -77.19084, 38.78248 ], [ -77.19165, 38.78184 ], [ -77.19217, 38.78192 ], [ -77.19469, 38.78318 ], [ -77.19464, 38.78382 ], [ -77.19678, 38.78419 ] ], [ [ -77.19369, 38.79526 ], [ -77.19353, 38.7956 ], [ -77.19344, 38.79578 ], [ -77.19392, 38.79559 ], [ -77.19369, 38.79526 ] ], [ [ -77.19401, 38.79474 ], [ -77.19395, 38.79474 ], [ -77.1939, 38.79483 ], [ -77.19401, 38.79474 ] ], [ [ -77.19433, 38.78953 ], [ -77.19432, 38.78907 ], [ -77.1943, 38.78898 ], [ -77.19433, 38.78953 ] ], [ [ -77.19152, 38.78818 ], [ -77.19129, 38.78791 ], [ -77.19123, 38.78821 ], [ -77.19152, 38.78818 ] ], [ [ -77.18981, 38.78455 ], [ -77.18971, 38.78461 ], [ -77.18991, 38.78466 ], [ -77.18981, 38.78455 ] ], [ [ -77.19685, 38.78615 ], [ -77.19431, 38.78647 ], [ -77.19508, 38.7878 ], [ -77.19724, 38.78757 ], [ -77.19685, 38.78615 ] ], [ [ -77.19506, 38.78497 ], [ -77.19515, 38.78528 ], [ -77.19611, 38.78514 ], [ -77.19506, 38.78497 ] ], [ [ -77.19242, 38.79171 ], [ -77.19249, 38.7916 ], [ -77.19237, 38.79168 ], [ -77.19242, 38.79171 ] ], [ [ -77.19119, 38.79108 ], [ -77.19117, 38.79105 ], [ -77.19116, 38.7911 ], [ -77.19119, 38.79108 ] ], [ [ -77.18893, 38.78372 ], [ -77.1877, 38.7841 ], [ -77.18773, 38.78429 ], [ -77.18863, 38.78414 ], [ -77.18893, 38.78372 ] ], [ [ -77.18788, 38.7852 ], [ -77.18788, 38.78522 ], [ -77.1879, 38.78522 ], [ -77.18788, 38.7852 ] ], [ [ -77.18714, 38.79419 ], [ -77.18754, 38.79419 ], [ -77.18712, 38.79413 ], [ -77.18714, 38.79419 ] ], [ [ -77.18694, 38.79703 ], [ -77.18728, 38.79709 ], [ -77.18699, 38.79643 ], [ -77.18694, 38.79703 ] ], [ [ -77.18561, 38.79369 ], [ -77.1859, 38.792 ], [ -77.18592, 38.79154 ], [ -77.1849, 38.79167 ], [ -77.18441, 38.79325 ], [ -77.18561, 38.79369 ] ], [ [ -77.18527, 38.79052 ], [ -77.18524, 38.79049 ], [ -77.18519, 38.79053 ], [ -77.18527, 38.79052 ] ], [ [ -77.18323, 38.78416 ], [ -77.18384, 38.78434 ], [ -77.18446, 38.78356 ], [ -77.1851, 38.7839 ], [ -77.18486, 38.78279 ], [ -77.18274, 38.7828 ], [ -77.18276, 38.78453 ], [ -77.18323, 38.78416 ] ], [ [ -77.18326, 38.78175 ], [ -77.18461, 38.78173 ], [ -77.18451, 38.78139 ], [ -77.1835, 38.78129 ], [ -77.18326, 38.78175 ] ], [ [ -77.1843, 38.7868 ], [ -77.18429, 38.78682 ], [ -77.1843, 38.78683 ], [ -77.1843, 38.7868 ] ], [ [ -77.1805, 38.78469 ], [ -77.18133, 38.78448 ], [ -77.18131, 38.78269 ], [ -77.181, 38.78266 ], [ -77.1805, 38.78469 ] ], [ [ -77.1824, 38.7875 ], [ -77.18175, 38.78665 ], [ -77.18111, 38.78666 ], [ -77.1824, 38.7875 ] ], [ [ -77.18086, 38.78772 ], [ -77.18077, 38.78771 ], [ -77.18075, 38.78776 ], [ -77.18086, 38.78772 ] ], [ [ -77.18011, 38.79075 ], [ -77.18014, 38.79069 ], [ -77.17999, 38.79062 ], [ -77.18011, 38.79075 ] ] ] } },
{ "type": "Feature", "properties": { "variant": "T0", "miles": 1.5 }, "geometry": { "type": "Polygon", "coordinates": [ [ [ -77.19816, 38.78006 ], [ -77.19986, 38.7807 ], [ -77.20192, 38.78007 ], [ -77.20227, 38.78039 ], [ -77.20183, 38.78148 ], [ -77.20424, 38.78205 ], [ -77.20445, 38.78435 ], [ -77.2039, 38.78486 ], [ -77.20443, 38.78522 ], [ -77.20435, 38.78563 ], [ -77.20065, 38.78632 ], [ -77.20205, 38.78743 ], [ -77.2031, 38.78741 ], [ -77.2049, 38.7864 ], [ -77.2045, 38.78599 ], [ -77.20484, 38.78527 ], [ -77.20537, 38.78526 ], [ -77.20616, 38.78589 ], [ -77.20724, 38.78798 ], [ -77.20617, 38.7881 ], [ -77.20385, 38.78928 ], [ -77.20561, 38.79084 ], [ -77.20553, 38.79142 ], [ -77.20664, 38.79186 ], [ -77.20667, 38.79227 ], [ -77.2013, 38.79448 ], [ -77.19851, 38.79428 ], [ -77.19772, 38.79558 ], [ -77.19678, 38.79536 ], [ -77.19628, 38.79445 ], [ -77.19644, 38.79532 ], [ -77.19385, 38.79687 ], [ -77.18844, 38.79544 ], [ -77.18795, 38.79557 ], [ -77.19192, 38.79681 ], [ -77.19183, 38.79775 ], [ -77.19124, 38.7982 ], [ -77.18994, 38.79826 ], [ -77.18938, 38.79773 ], [ -77.18845, 38.79783 ], [ -77.19046, 38.79921 ], [ -77.19469, 38.79922 ], [ -77.19436, 38.7979 ], [ -77.19515, 38.79746 ], [ -77.19598, 38.79808 ], [ -77.19636, 38.79985 ], [ -77.19495, 38.80189 ], [ -77.19351, 38.80205 ], [ -77.19361, 38.80271 ], [ -77.19555, 38.8033 ], [ -77.19527, 38.80403 ], [ -77.19369, 38.80396 ], [ -77.19265, 38.80349 ], [ -77.19182, 38.80383 ], [ -77.19123, 38.80293 ], [ -77.18933, 38.80295 ], [ -77.18896, 38.80238 ], [ -77.18803, 38.80256 ], [ -77.18764, 38.80203 ], [ -77.18644, 38.80288 ], [ -77.18473, 38.80275 ], [ -77.18459, 38.80332 ], [ -77.18648, 38.80292 ], [ -77.18725, 38.80338 ], [ -77.18622, 38.80419 ], [ -77.18465, 38.8044 ], [ -77.18483, 38.80524 ], [ -77.18812, 38.80519 ], [ -77.18827, 38.80467 ], [ -77.18912, 38.80432 ], [ -77.18964, 38.80437 ], [ -77.18993, 38.8049 ], [ -77.19056, 38.80411 ], [ -77.19139, 38.80451 ], [ -77.19117, 38.80539 ], [ -77.19149, 38.80562 ], [ -77.19227, 38.80528 ], [ -77.19294, 38.80583 ], [ -77.19247, 38.80639 ], [ -77.19267, 38.80738 ], [ -77.19198, 38.80793 ], [ -77.19037, 38.80628 ], [ -77.19022, 38.80728 ], [ -77.18971, 38.80744 ], [ -77.18909, 38.80727 ], [ -77.18864, 38.80626 ], [ -77.18512, 38.80632 ], [ -77.18562, 38.80754 ], [ -77.18915, 38.80749 ], [ -77.18996, 38.80839 ], [ -77.18932, 38.80896 ], [ -77.18857, 38.80854 ], [ -77.18709, 38.80858 ], [ -77.18852, 38.8088 ], [ -77.18825, 38.80981 ], [ -77.18939, 38.81024 ], [ -77.18889, 38.8109 ], [ -77.18691, 38.81087 ], [ -77.1871, 38.81189 ], [ -77.18644, 38.81246 ], [ -77.18572, 38.81194 ], [ -77.18516, 38.80998 ], [ -77.18388, 38.80982 ], [ -77.18406, 38.80907 ], [ -77.18474, 38.80895 ], [ -77.18403, 38.80748 ], [ -77.17792, 38.80751 ], [ -77.17724, 38.80697 ], [ -77.17793, 38.80643 ], [ -77.17972, 38.80643 ], [ -77.17812, 38.80479 ], [ -77.17874, 38.8042 ], [ -77.18075, 38.80448 ], [ -77.18043, 38.80534 ], [ -77.18113, 38.80637 ], [ -77.18342, 38.80637 ], [ -77.18322, 38.80312 ], [ -77.18436, 38.80014 ], [ -77.1827, 38.79977 ], [ -77.18223, 38.7991 ], [ -77.18308, 38.79874 ], [ -77.18461, 38.79907 ], [ -77.18503, 38.79722 ], [ -77.18433, 38.79738 ], [ -77.18298, 38.7968 ], [ -77.18309, 38.79618 ], [ -77.18165, 38.79561 ], [ -77.18174, 38.79461 ], [ -77.1804, 38.79422 ], [ -77.17893, 38.79472 ], [ -77.17727, 38.79362 ], [ -77.17784, 38.793 ], [ -77.17921, 38.79359 ], [ -77.1806, 38.79314 ], [ -77.18275, 38.79379 ], [ -77.18325, 38.7944 ], [ -77.18438, 38.79443 ], [ -77.17954, 38.79195 ], [ -77.17764, 38.78938 ], [ -77.178, 38.78775 ], [ -77.17953, 38.78722 ], [ -77.17855, 38.78607 ], [ -77.17924, 38.78538 ], [ -77.17907, 38.78417 ], [ -77.17967, 38.78237 ], [ -77.1788, 38.78198 ], [ -77.17822, 38.78223 ], [ -77.17765, 38.78385 ], [ -77.17785, 38.78442 ], [ -77.17637, 38.78547 ], [ -77.17557, 38.78503 ], [ -77.17591, 38.78432 ], [ -77.17516, 38.78346 ], [ -77.17512, 38.78206 ], [ -77.17229, 38.78186 ], [ -77.17231, 38.78109 ], [ -77.1728, 38.78094 ], [ -77.17699, 38.78107 ], [ -77.17554, 38.77998 ], [ -77.17531, 38.77889 ], [ -77.17345, 38.77819 ], [ -77.1733, 38.7778 ], [ -77.17403, 38.77731 ], [ -77.17512, 38.77737 ], [ -77.18247, 38.77839 ], [ -77.18183, 38.77613 ], [ -77.18225, 38.77294 ], [ -77.18249, 38.77261 ], [ -77.18407, 38.77231 ], [ -77.18472, 38.77286 ], [ -77.18465, 38.77412 ], [ -77.1877, 38.77362 ], [ -77.1881, 38.77388 ], [ -77.18782, 38.77462 ], [ -77.18509, 38.77515 ], [ -77.18696, 38.77834 ], [ -77.18833, 38.77813 ], [ -77.18833, 38.77601 ], [ -77.189, 38.77331 ], [ -77.18972, 38.7728 ], [ -77.19038, 38.77336 ], [ -77.18972, 38.77605 ], [ -77.19029, 38.77649 ], [ -77.18967, 38.77716 ], [ -77.18971, 38.77792 ], [ -77.19301, 38.77735 ], [ -77.1929, 38.77662 ], [ -77.19356, 38.77606 ], [ -77.1943, 38.77678 ], [ -77.19509, 38.77623 ], [ -77.19687, 38.776 ], [ -77.19803, 38.77707 ], [ -77.19803, 38.77762 ], [ -77.19552, 38.77825 ], [ -77.19781, 38.77832 ], [ -77.19997, 38.77924 ], [ -77.19952, 38.77991 ], [ -77.1986, 38.77972 ], [ -77.19816, 38.78006 ] ], [ [ -77.18788, 38.7852 ], [ -77.18788, 38.78522 ], [ -77.1879, 38.78522 ], [ -77.18788, 38.7852 ] ], [ [ -77.18863, 38.78414 ], [ -77.18893, 38.78372 ], [ -77.1877, 38.7841 ], [ -77.18773, 38.78429 ], [ -77.18863, 38.78414 ] ], [ [ -77.18852, 38.78119 ], [ -77.18899, 38.78003 ], [ -77.18839, 38.77939 ], [ -77.18841, 38.78036 ], [ -77.18785, 38.78113 ], [ -77.18852, 38.78119 ] ], [ [ -77.19353, 38.7956 ], [ -77.19344, 38.79578 ], [ -77.19392, 38.79559 ], [ -77.19369, 38.79526 ], [ -77.19353, 38.7956 ] ], [ [ -77.19395, 38.79474 ], [ -77.1939, 38.79483 ], [ -77.19401, 38.79474 ], [ -77.19395, 38.79474 ] ], [ [ -77.19432, 38.78907 ], [ -77.1943, 38.78898 ], [ -77.19433, 38.78953 ], [ -77.19432, 38.78907 ] ], [ [ -77.19724, 38.78757 ], [ -77.19682, 38.78612 ], [ -77.19431, 38.78647 ], [ -77.19508, 38.7878 ], [ -77.19724, 38.78757 ] ], [ [ -77.19901, 38.79291 ], [ -77.19886, 38.79264 ], [ -77.19876, 38.79321 ], [ -77.19901, 38.79291 ] ], [ [ -77.19883, 38.79179 ], [ -77.19884, 38.79184 ], [ -77.19887, 38.79175 ], [ -77.19883, 38.79179 ] ], [ [ -77.20157, 38.78255 ], [ -77.20091, 38.78364 ], [ -77.20112, 38.78402 ], [ -77.20301, 38.78365 ], [ -77.20293, 38.78283 ], [ -77.20157, 38.78255 ] ], [ [ -77.20043, 38.78175 ], [ -77.20025, 38.78177 ], [ -77.20037, 38.7818 ], [ -77.20043, 38.78175 ] ], [ [ -77.19963, 38.78405 ], [ -77.19955, 38.78394 ], [ -77.19973, 38.78425 ], [ -77.19963, 38.78405 ] ], [ [ -77.19958, 38.79071 ], [ -77.19918, 38.79078 ], [ -77.19938, 38.79099 ], [ -77.19958, 38.79071 ] ], [ [ -77.20028, 38.78971 ], [ -77.2005, 38.78938 ], [ -77.19952, 38.78952 ], [ -77.19904, 38.7889 ], [ -77.19925, 38.78965 ], [ -77.20028, 38.78971 ] ], [ [ -77.20123, 38.79287 ], [ -77.20109, 38.79298 ], [ -77.20126, 38.79292 ], [ -77.20123, 38.79287 ] ], [ [ -77.20057, 38.79315 ], [ -77.20069, 38.79312 ], [ -77.20041, 38.79312 ], [ -77.20057, 38.79315 ] ], [ [ -77.20315, 38.79155 ], [ -77.20317, 38.79154 ], [ -77.20313, 38.79152 ], [ -77.20315, 38.79155 ] ], [ [ -77.19599, 38.7851 ], [ -77.19506, 38.78497 ], [ -77.19515, 38.78528 ], [ -77.19599, 38.7851 ] ], [ [ -77.19558, 38.78049 ], [ -77.19637, 38.78059 ], [ -77.19606, 38.77929 ], [ -77.19561, 38.77933 ], [ -77.19558, 38.78049 ] ], [ [ -77.19116, 38.7911 ], [ -77.19119, 38.79108 ], [ -77.19117, 38.79105 ], [ -77.19116, 38.7911 ] ], [ [ -77.19129, 38.78791 ], [ -77.19123, 38.78821 ], [ -77.19152, 38.78818 ], [ -77.19129, 38.78791 ] ], [ [ -77.19087, 38.77985 ], [ -77.1909, 38.77899 ], [ -77.19019, 38.77912 ], [ -77.19036, 38.78019 ], [ -77.18985, 38.78149 ], [ -77.19087, 38.77985 ] ], [ [ -77.19237, 38.79168 ], [ -77.19265, 38.79152 ], [ -77.19249, 38.7916 ], [ -77.19237, 38.79168 ] ], [ [ -77.18981, 38.78455 ], [ -77.18971, 38.78461 ], [ -77.18983, 38.78464 ], [ -77.18981, 38.78455 ] ], [ [ -77.18755, 38.79926 ], [ -77.18801, 38.79893 ], [ -77.187, 38.79858 ], [ -77.18619, 38.79876 ], [ -77.18682, 38.79932 ], [ -77.18726, 38.80093 ], [ -77.18764, 38.80056 ], [ -77.18755, 38.79926 ] ], [ [ -77.18906, 38.7997 ], [ -77.18899, 38.79965 ], [ -77.18899, 38.80003 ], [ -77.18955, 38.80003 ], [ -77.18906, 38.7997 ] ], [ [ -77.1859, 38.792 ], [ -77.18592, 38.79154 ], [ -77.1849, 38.79167 ], [ -77.18441, 38.79325 ], [ -77.18561, 38.79369 ], [ -77.1859, 38.792 ] ], [ [ -77.18524, 38.79049 ], [ -77.18519, 38.79053 ], [ -77.18522, 38.79053 ], [ -77.18524, 38.79049 ] ], [ [ -77.18429, 38.78682 ], [ -77.1843, 38.78683 ], [ -77.1843, 38.7868 ], [ -77.18429, 38.78682 ] ], [ [ -77.18446, 38.78356 ], [ -77.1851, 38.7839 ], [ -77.18486, 38.78279 ], [ -77.18274, 38.7828 ], [ -77.18276, 38.78453 ], [ -77.18323, 38.78416 ], [ -77.18384, 38.78434 ], [ -77.18446, 38.78356 ] ], [ [ -77.1835, 38.78129 ], [ -77.18326, 38.78175 ], [ -77.18461, 38.78173 ], [ -77.1835, 38.78129 ] ], [ [ -77.18697, 38.7796 ], [ -77.18675, 38.77963 ], [ -77.18688, 38.78012 ], [ -77.18697, 38.7796 ] ], [ [ -77.18712, 38.79413 ], [ -77.18751, 38.79432 ], [ -77.18754, 38.79419 ], [ -77.18712, 38.79413 ] ], [ [ -77.18699, 38.79643 ], [ -77.18694, 38.79703 ], [ -77.18728, 38.79709 ], [ -77.18699, 38.79643 ] ], [ [ -77.18175, 38.78665 ], [ -77.18111, 38.78666 ], [ -77.1824, 38.7875 ], [ -77.18175, 38.78665 ] ], [ [ -77.18131, 38.78269 ], [ -77.181, 38.78266 ], [ -77.18052, 38.78479 ], [ -77.18133, 38.78448 ], [ -77.18131, 38.78269 ] ], [ [ -77.18208, 38.78116 ], [ -77.18152, 38.7811 ], [ -77.18138, 38.78151 ], [ -77.18188, 38.78156 ], [ -77.18208, 38.78116 ] ], [ [ -77.18244, 38.7801 ], [ -77.18246, 38.77995 ], [ -77.18158, 38.77949 ], [ -77.17686, 38.77898 ], [ -77.17726, 38.77962 ], [ -77.17798, 38.77911 ], [ -77.17851, 38.77929 ], [ -77.17942, 38.78023 ], [ -77.17945, 38.78085 ], [ -77.18007, 38.78118 ], [ -77.18086, 38.78007 ], [ -77.18244, 38.7801 ] ], [ [ -77.18077, 38.78771 ], [ -77.18075, 38.78776 ], [ -77.18086, 38.78772 ], [ -77.18077, 38.78771 ] ], [ [ -77.17999, 38.79062 ], [ -77.18011, 38.79075 ], [ -77.18014, 38.79069 ], [ -77.17999, 38.79062 ] ], [ [ -77.17648, 38.7831 ], [ -77.17648, 38.78312 ], [ -77.17654, 38.78296 ], [ -77.17648, 38.7831 ] ] ] } },
{ "type": "Feature", "properties": { "variant": "T2s", "miles": 0.5 }, "geometry": { "type": "Polygon", "coordinates": [ [ [ -77.18744, 38.78532 ], [ -77.18793, 38.78573 ], [ -77.18806, 38.78874 ], [ -77.19185, 38.78831 ], [ -77.19232, 38.79043 ], [ -77.193, 38.79033 ], [ -77.19345, 38.79101 ], [ -77.19237, 38.79168 ], [ -77.19321, 38.79237 ], [ -77.19232, 38.79349 ], [ -77.19188, 38.79371 ], [ -77.19062, 38.79329 ], [ -77.18995, 38.79375 ], [ -77.18921, 38.79337 ], [ -77.18866, 38.79526 ], [ -77.18792, 38.79558 ], [ -77.18677, 38.79524 ], [ -77.18642, 38.79731 ], [ -77.18561, 38.79773 ], [ -77.18508, 38.79718 ], [ -77.18433, 38.79738 ], [ -77.18298, 38.7968 ], [ -77.18309, 38.79618 ], [ -77.18245, 38.79576 ], [ -77.18249, 38.79534 ], [ -77.18336, 38.79432 ], [ -77.18438, 38.79443 ], [ -77.18311, 38.7939 ], [ -77.18307, 38.79295 ], [ -77.18035, 38.7916 ], [ -77.18003, 38.79089 ], [ -77.1815, 38.78777 ], [ -77.18302, 38.78771 ], [ -77.18564, 38.78843 ], [ -77.18548, 38.78742 ], [ -77.1847, 38.78727 ], [ -77.18429, 38.78658 ], [ -77.18529, 38.78629 ], [ -77.18541, 38.78557 ], [ -77.18588, 38.78537 ], [ -77.18744, 38.78532 ] ], [ [ -77.18527, 38.79052 ], [ -77.18524, 38.79049 ], [ -77.18519, 38.79053 ], [ -77.18527, 38.79052 ] ], [ [ -77.19116, 38.7911 ], [ -77.19119, 38.79108 ], [ -77.19117, 38.79105 ], [ -77.19116, 38.7911 ] ], [ [ -77.18561, 38.79369 ], [ -77.1859, 38.792 ], [ -77.18592, 38.79154 ], [ -77.1849, 38.79167 ], [ -77.18441, 38.79325 ], [ -77.18561, 38.79369 ] ], [ [ -77.18754, 38.79419 ], [ -77.18714, 38.79419 ], [ -77.18751, 38.79432 ], [ -77.18754, 38.79419 ] ] ] } },
{ "type": "Feature", "properties": { "variant": "T2s", "miles": 1.0 }, "geometry": { "type": "Polygon", "coordinates": [ [ [ -77.19671, 38.78416 ], [ -77.19811, 38.78569 ], [ -77.19852, 38.78706 ], [ -77.19976, 38.78637 ], [ -77.20068, 38.78663 ], [ -77.20037, 38.78734 ], [ -77.19884, 38.78824 ], [ -77.19925, 38.78965 ], [ -77.20089, 38.78995 ], [ -77.20117, 38.79068 ], [ -77.20075, 38.79094 ], [ -77.19918, 38.79078 ], [ -77.19939, 38.79148 ], [ -77.19883, 38.79176 ], [ -77.19876, 38.79321 ], [ -77.19996, 38.79327 ], [ -77.20229, 38.7926 ], [ -77.20283, 38.79324 ], [ -77.20174, 38.7943 ], [ -77.20075, 38.79452 ], [ -77.19851, 38.79428 ], [ -77.19805, 38.79526 ], [ -77.19719, 38.79562 ], [ -77.19628, 38.79445 ], [ -77.19644, 38.79532 ], [ -77.19372, 38.79689 ], [ -77.18844, 38.79544 ], [ -77.18795, 38.79557 ], [ -77.19187, 38.79675 ], [ -77.19168, 38.79796 ], [ -77.19033, 38.79831 ], [ -77.18938, 38.79773 ], [ -77.18736, 38.79822 ], [ -77.1861, 38.79797 ], [ -77.18508, 38.79718 ], [ -77.18433, 38.79738 ], [ -77.18337, 38.7971 ], [ -77.18298, 38.7968 ], [ -77.18309, 38.79618 ], [ -77.18165, 38.79561 ], [ -77.18174, 38.79461 ], [ -77.1804, 38.79422 ], [ -77.17933, 38.79479 ], [ -77.17754, 38.79397 ], [ -77.17727, 38.79362 ], [ -77.17784, 38.793 ], [ -77.17921, 38.79359 ], [ -77.18039, 38.79311 ], [ -77.18275, 38.79379 ], [ -77.18325, 38.7944 ], [ -77.18438, 38.79443 ], [ -77.17954, 38.79195 ], [ -77.17761, 38.78924 ], [ -77.178, 38.78775 ], [ -77.17952, 38.78724 ], [ -77.17855, 38.78607 ], [ -77.17924, 38.78538 ], [ -77.17907, 38.78417 ], [ -77.17977, 38.78206 ], [ -77.18009, 38.78173 ], [ -77.18104, 38.78192 ], [ -77.18052, 38.78479 ], [ -77.18133, 38.78448 ], [ -77.18117, 38.78299 ], [ -77.18241, 38.7805 ], [ -77.18337, 38.78019 ], [ -77.18313, 38.77941 ], [ -77.18348, 38.77888 ], [ -77.18637, 38.77894 ], [ -77.18732, 38.78193 ], [ -77.18885, 38.78229 ], [ -77.1901, 38.78167 ], [ -77.1907, 38.78185 ], [ -77.19084, 38.78248 ], [ -77.19165, 38.78184 ], [ -77.19217, 38.78192 ], [ -77.19469, 38.78318 ], [ -77.19464, 38.78382 ], [ -77.19671, 38.78416 ] ], [ [ -77.1879, 38.78522 ], [ -77.18788, 38.7852 ], [ -77.18788, 38.78522 ], [ -77.1879, 38.78522 ] ], [ [ -77.18773, 38.78429 ], [ -77.18863, 38.78414 ], [ -77.18893, 38.78372 ], [ -77.1877, 38.7841 ], [ -77.18773, 38.78429 ] ], [ [ -77.19433, 38.78953 ], [ -77.19432, 38.78907 ], [ -77.1943, 38.78898 ], [ -77.19433, 38.78953 ] ], [ [ -77.19123, 38.78821 ], [ -77.1913, 38.78793 ], [ -77.19129, 38.78791 ], [ -77.19123, 38.78821 ] ], [ [ -77.19508, 38.7878 ], [ -77.19724, 38.78757 ], [ -77.19682, 38.78612 ], [ -77.19431, 38.78647 ], [ -77.19508, 38.7878 ] ], [ [ -77.19515, 38.78528 ], [ -77.19599, 38.7851 ], [ -77.19506, 38.78497 ], [ -77.19515, 38.78528 ] ], [ [ -77.19117, 38.79105 ], [ -77.19116, 38.7911 ], [ -77.19119, 38.79108 ], [ -77.19117, 38.79105 ] ], [ [ -77.19242, 38.79171 ], [ -77.19249, 38.7916 ], [ -77.19237, 38.79168 ], [ -77.19242, 38.79171 ] ], [ [ -77.19395, 38.79474 ], [ -77.1939, 38.79483 ], [ -77.19401, 38.79474 ], [ -77.19395, 38.79474 ] ], [ [ -77.19392, 38.79559 ], [ -77.19369, 38.79526 ], [ -77.19344, 38.79578 ], [ -77.19392, 38.79559 ] ], [ [ -77.18981, 38.78455 ], [ -77.18983, 38.78464 ], [ -77.18991, 38.78466 ], [ -77.18981, 38.78455 ] ], [ [ -77.18561, 38.79369 ], [ -77.1859, 38.792 ], [ -77.18592, 38.79154 ], [ -77.1849, 38.79167 ], [ -77.18441, 38.79325 ], [ -77.18561, 38.79369 ] ], [ [ -77.18323, 38.78416 ], [ -77.18384, 38.78434 ], [ -77.18446, 38.78356 ], [ -77.1851, 38.7839 ], [ -77.18486, 38.78279 ], [ -77.18274, 38.7828 ], [ -77.18276, 38.78453 ], [ -77.18323, 38.78416 ] ], [ [ -77.18326, 38.78175 ], [ -77.18461, 38.78173 ], [ -77.18451, 38.78139 ], [ -77.1835, 38.78129 ], [ -77.18326, 38.78175 ] ], [ [ -77.18728, 38.79709 ], [ -77.18699, 38.79643 ], [ -77.18694, 38.79703 ], [ -77.18728, 38.79709 ] ], [ [ -77.18714, 38.79419 ], [ -77.18754, 38.79419 ], [ -77.18712, 38.79413 ], [ -77.18714, 38.79419 ] ], [ [ -77.18429, 38.78682 ], [ -77.1843, 38.78683 ], [ -77.1843, 38.7868 ], [ -77.18429, 38.78682 ] ], [ [ -77.18524, 38.79049 ], [ -77.18527, 38.79052 ], [ -77.18526, 38.79051 ], [ -77.18524, 38.79049 ] ], [ [ -77.18011, 38.79075 ], [ -77.18014, 38.79069 ], [ -77.17999, 38.79062 ], [ -77.18011, 38.79075 ] ], [ [ -77.18086, 38.78772 ], [ -77.18077, 38.78771 ], [ -77.18075, 38.78776 ], [ -77.18086, 38.78772 ] ], [ [ -77.1824, 38.7875 ], [ -77.18175, 38.78665 ], [ -77.18111, 38.78666 ], [ -77.1824, 38.7875 ] ] ] } },
{ "type": "Feature", "properties": { "variant": "T2s", "miles": 1.5 }, "geometry": { "type": "Polygon", "coordinates": [ [ [ -77.20223, 38.7808 ], [ -77.20183, 38.78148 ], [ -77.20424, 38.78205 ], [ -77.20445, 38.78435 ], [ -77.2039, 38.78486 ], [ -77.20443, 38.78522 ], [ -77.20435, 38.78563 ], [ -77.20065, 38.78632 ], [ -77.20205, 38.78743 ], [ -77.2031, 38.78741 ], [ -77.2049, 38.7864 ], [ -77.2045, 38.78599 ], [ -77.20484, 38.78527 ], [ -77.20537, 38.78526 ], [ -77.20628, 38.78602 ], [ -77.20724, 38.78798 ], [ -77.20617, 38.7881 ], [ -77.20385, 38.78928 ], [ -77.20561, 38.79084 ], [ -77.20553, 38.79142 ], [ -77.20664, 38.79186 ], [ -77.20631, 38.79258 ], [ -77.2013, 38.79448 ], [ -77.19851, 38.79428 ], [ -77.19772, 38.79558 ], [ -77.19678, 38.79536 ], [ -77.19628, 38.79445 ], [ -77.19644, 38.79532 ], [ -77.19381, 38.79688 ], [ -77.18844, 38.79544 ], [ -77.18795, 38.79557 ], [ -77.19187, 38.79675 ], [ -77.19168, 38.79796 ], [ -77.19033, 38.79831 ], [ -77.18938, 38.79773 ], [ -77.18736, 38.79822 ], [ -77.1861, 38.79797 ], [ -77.18508, 38.79718 ], [ -77.18433, 38.79738 ], [ -77.18337, 38.7971 ], [ -77.18298, 38.7968 ], [ -77.18309, 38.79618 ], [ -77.18165, 38.79561 ], [ -77.18174, 38.79461 ], [ -77.1804, 38.79422 ], [ -77.17933, 38.79479 ], [ -77.17754, 38.79397 ], [ -77.17727, 38.79362 ], [ -77.17784, 38.793 ], [ -77.17921, 38.79359 ], [ -77.18039, 38.79311 ], [ -77.18275, 38.79379 ], [ -77.18325, 38.7944 ], [ -77.18438, 38.79443 ], [ -77.17954, 38.79195 ], [ -77.17761, 38.78924 ], [ -77.178, 38.78775 ], [ -77.17952, 38.78724 ], [ -77.17855, 38.78607 ], [ -77.17924, 38.78538 ], [ -77.17907, 38.78417 ], [ -77.18028, 38.78054 ], [ -77.18098, 38.78004 ], [ -77.18244, 38.7801 ], [ -77.18157, 38.77956 ], [ -77.18166, 38.77915 ], [ -77.18283, 38.77882 ], [ -77.18255, 38.7779 ], [ -77.18337, 38.77761 ], [ -77.1831, 38.77637 ], [ -77.1825, 38.77669 ], [ -77.18183, 38.77613 ], [ -77.18249, 38.77261 ], [ -77.18371, 38.77229 ], [ -77.18453, 38.77248 ], [ -77.18465, 38.77412 ], [ -77.1877, 38.77362 ], [ -77.1881, 38.77388 ], [ -77.18782, 38.77462 ], [ -77.18509, 38.77515 ], [ -77.18696, 38.77834 ], [ -77.18833, 38.77813 ], [ -77.1885, 38.77602 ], [ -77.19004, 38.77612 ], [ -77.19029, 38.77649 ], [ -77.18967, 38.77716 ], [ -77.18971, 38.77792 ], [ -77.19301, 38.77735 ], [ -77.1929, 38.77662 ], [ -77.19356, 38.77606 ], [ -77.19405, 38.77619 ], [ -77.19431, 38.77684 ], [ -77.19516, 38.77658 ], [ -77.19561, 38.77703 ], [ -77.19783, 38.77692 ], [ -77.19798, 38.77768 ], [ -77.19552, 38.77825 ], [ -77.19781, 38.77832 ], [ -77.19997, 38.77924 ], [ -77.19952, 38.77991 ], [ -77.1986, 38.77972 ], [ -77.19816, 38.78006 ], [ -77.19989, 38.7807 ], [ -77.20192, 38.78007 ], [ -77.20223, 38.7808 ] ], [ [ -77.19123, 38.78821 ], [ -77.19142, 38.78808 ], [ -77.19129, 38.78791 ], [ -77.19123, 38.78821 ] ], [ [ -77.18785, 38.78113 ], [ -77.18852, 38.78119 ], [ -77.18899, 38.78003 ], [ -77.18839, 38.77939 ], [ -77.18841, 38.78036 ], [ -77.18785, 38.78113 ] ], [ [ -77.20057, 38.79315 ], [ -77.20041, 38.79312 ], [ -77.20041, 38.79318 ], [ -77.20057, 38.79315 ] ], [ [ -77.19883, 38.79176 ], [ -77.19884, 38.79184 ], [ -77.19887, 38.79175 ], [ -77.19883, 38.79176 ] ], [ [ -77.19508, 38.7878 ], [ -77.19724, 38.78757 ], [ -77.19682, 38.78612 ], [ -77.19431, 38.78647 ], [ -77.19508, 38.7878 ] ], [ [ -77.19515, 38.78528 ], [ -77.19611, 38.78514 ], [ -77.19506, 38.78497 ], [ -77.19515, 38.78528 ] ], [ [ -77.20126, 38.79292 ], [ -77.20123, 38.79287 ], [ -77.20109, 38.79298 ], [ -77.20126, 38.79292 ] ], [ [ -77.19938, 38.79099 ], [ -77.19958, 38.79071 ], [ -77.19918, 38.79078 ], [ -77.19938, 38.79099 ] ], [ [ -77.19955, 38.78962 ], [ -77.20028, 38.78971 ], [ -77.2005, 38.78938 ], [ -77.19952, 38.78952 ], [ -77.19904, 38.7889 ], [ -77.19955, 38.78962 ] ], [ [ -77.19971, 38.78417 ], [ -77.19955, 38.78394 ], [ -77.19975, 38.78425 ], [ -77.19971, 38.78417 ] ], [ [ -77.20037, 38.7818 ], [ -77.20043, 38.78175 ], [ -77.20025, 38.78177 ], [ -77.20037, 38.7818 ] ], [ [ -77.19957, 38.78783 ], [ -77.19954, 38.78779 ], [ -77.19951, 38.78781 ], [ -77.19957, 38.78783 ] ], [ [ -77.20293, 38.78283 ], [ -77.20157, 38.78255 ], [ -77.20091, 38.78364 ], [ -77.20112, 38.78402 ], [ -77.20301, 38.78365 ], [ -77.20293, 38.78283 ] ], [ [ -77.20313, 38.79152 ], [ -77.20315, 38.79155 ], [ -77.20317, 38.79154 ], [ -77.20313, 38.79152 ] ], [ [ -77.19637, 38.78059 ], [ -77.19606, 38.77929 ], [ -77.19561, 38.77933 ], [ -77.19558, 38.78049 ], [ -77.19637, 38.78059 ] ], [ [ -77.19888, 38.7927 ], [ -77.19876, 38.79321 ], [ -77.19904, 38.79326 ], [ -77.19902, 38.79293 ], [ -77.19888, 38.7927 ] ], [ [ -77.1909, 38.77903 ], [ -77.19019, 38.77912 ], [ -77.18997, 38.78153 ], [ -77.19075, 38.78029 ], [ -77.1909, 38.77903 ] ], [ [ -77.19272, 38.78219 ], [ -77.19272, 38.7822 ], [ -77.19273, 38.78217 ], [ -77.19272, 38.78219 ] ], [ [ -77.19237, 38.79168 ], [ -77.19263, 38.79154 ], [ -77.19265, 38.79152 ], [ -77.19237, 38.79168 ] ], [ [ -77.1943, 38.78899 ], [ -77.19433, 38.78931 ], [ -77.19433, 38.78953 ], [ -77.19438, 38.78945 ], [ -77.1943, 38.78899 ] ], [ [ -77.1939, 38.79483 ], [ -77.19401, 38.79474 ], [ -77.19396, 38.79473 ], [ -77.1939, 38.79483 ] ], [ [ -77.19392, 38.79559 ], [ -77.19369, 38.79526 ], [ -77.19344, 38.79578 ], [ -77.19392, 38.79559 ] ], [ [ -77.18561, 38.79369 ], [ -77.1859, 38.792 ], [ -77.18592, 38.79154 ], [ -77.1849, 38.79167 ], [ -77.18441, 38.79325 ], [ -77.18561, 38.79369 ] ], [ [ -77.18506, 38.78371 ], [ -77.18486, 38.78279 ], [ -77.18274, 38.7828 ], [ -77.1825, 38.7833 ], [ -77.18276, 38.78453 ], [ -77.18323, 38.78416 ], [ -77.18384, 38.78434 ], [ -77.18446, 38.78356 ], [ -77.18506, 38.78371 ] ], [ [ -77.1879, 38.78522 ], [ -77.18788, 38.7852 ], [ -77.18788, 38.78522 ], [ -77.1879, 38.78522 ] ], [ [ -77.18863, 38.78414 ], [ -77.18893, 38.78372 ], [ -77.1877, 38.7841 ], [ -77.18773, 38.78429 ], [ -77.18863, 38.78414 ] ], [ [ -77.18981, 38.78455 ], [ -77.18983, 38.78464 ], [ -77.18991, 38.78466 ], [ -77.18981, 38.78455 ] ], [ [ -77.19117, 38.79105 ], [ -77.19116, 38.7911 ], [ -77.19119, 38.79108 ], [ -77.19117, 38.79105 ] ], [ [ -77.18688, 38.78012 ], [ -77.18697, 38.7796 ], [ -77.18675, 38.77963 ], [ -77.18688, 38.78012 ] ], [ [ -77.18754, 38.79419 ], [ -77.18712, 38.79413 ], [ -77.18751, 38.79432 ], [ -77.18754, 38.79419 ] ], [ [ -77.18694, 38.79703 ], [ -77.18728, 38.79709 ], [ -77.18699, 38.79643 ], [ -77.18694, 38.79703 ] ], [ [ -77.18326, 38.78175 ], [ -77.18461, 38.78173 ], [ -77.18451, 38.78139 ], [ -77.1835, 38.78129 ], [ -77.18326, 38.78175 ] ], [ [ -77.18522, 38.79053 ], [ -77.18524, 38.79049 ], [ -77.18519, 38.79053 ], [ -77.18522, 38.79053 ] ], [ [ -77.1843, 38.78683 ], [ -77.1843, 38.7868 ], [ -77.18429, 38.78682 ], [ -77.1843, 38.78683 ] ], [ [ -77.1824, 38.7875 ], [ -77.18175, 38.78665 ], [ -77.18111, 38.78666 ], [ -77.1824, 38.7875 ] ], [ [ -77.18086, 38.78772 ], [ -77.18077, 38.78771 ], [ -77.18075, 38.78776 ], [ -77.18086, 38.78772 ] ], [ [ -77.18133, 38.78448 ], [ -77.18136, 38.78259 ], [ -77.18103, 38.78256 ], [ -77.18052, 38.78479 ], [ -77.18133, 38.78448 ] ], [ [ -77.1815, 38.78152 ], [ -77.18188, 38.78156 ], [ -77.18208, 38.78116 ], [ -77.18152, 38.7811 ], [ -77.1815, 38.78152 ] ], [ [ -77.18011, 38.79075 ], [ -77.18014, 38.79069 ], [ -77.17999, 38.79062 ], [ -77.18011, 38.79075 ] ] ] } }
]
}
