{
"type": "FeatureCollection",
"name": "17",
"crs": { "type": "name", "properties": { "name": "urn:ogc:def:crs:OGC:1.3:CRS84" } },
"xy_coordinate_resolution": 1e-05,
"features": [
{ "type": "Feature", "properties": { "variant": "T0", "miles": 0.5 }, "geometry": { "type": "Polygon", "coordinates": [ [ [ -77.26752, 38.9414 ], [ -77.26631, 38.94259 ], [ -77.26618, 38.94334 ], [ -77.2663, 38.94366 ], [ -77.26704, 38.94292 ], [ -77.26798, 38.94314 ], [ -77.26706, 38.94495 ], [ -77.26781, 38.94623 ], [ -77.26875, 38.94666 ], [ -77.26863, 38.94706 ], [ -77.26666, 38.94722 ], [ -77.26552, 38.94657 ], [ -77.26559, 38.94609 ], [ -77.26495, 38.94605 ], [ -77.26367, 38.9476 ], [ -77.26446, 38.94802 ], [ -77.26437, 38.94877 ], [ -77.26359, 38.94887 ], [ -77.26316, 38.94974 ], [ -77.26509, 38.95114 ], [ -77.26496, 38.95163 ], [ -77.26401, 38.95183 ], [ -77.26164, 38.94998 ], [ -77.26246, 38.94692 ], [ -77.26363, 38.94565 ], [ -77.26267, 38.94483 ], [ -77.26337, 38.9443 ], [ -77.2642, 38.94466 ], [ -77.26488, 38.94237 ], [ -77.26693, 38.94021 ], [ -77.26783, 38.94052 ], [ -77.26752, 38.9414 ] ] ] } },
{ "type": "Feature", "properties": { "variant": "T0", "miles": 1.0 }, "geometry": { "type": "Polygon", "coordinates": [ [ [ -77.26787, 38.93787 ], [ -77.26825, 38.94047 ], [ -77.2673, 38.94185 ], [ -77.26944, 38.94234 ], [ -77.27023, 38.94342 ], [ -77.26916, 38.94463 ], [ -77.26737, 38.94461 ], [ -77.26716, 38.94539 ], [ -77.26781, 38.94623 ], [ -77.2684, 38.94608 ], [ -77.27082, 38.94424 ], [ -77.27139, 38.94338 ], [ -77.27192, 38.94336 ], [ -77.27325, 38.94515 ], [ -77.27478, 38.94541 ], [ -77.27459, 38.94616 ], [ -77.27393, 38.94622 ], [ -77.27418, 38.94726 ], [ -77.27379, 38.94826 ], [ -77.27472, 38.94866 ], [ -77.27493, 38.94936 ], [ -77.27403, 38.94965 ], [ -77.27304, 38.94918 ], [ -77.27258, 38.95067 ], [ -77.27166, 38.95106 ], [ -77.27114, 38.95041 ], [ -77.27144, 38.95002 ], [ -77.26836, 38.94921 ], [ -77.2678, 38.94869 ], [ -77.26723, 38.94929 ], [ -77.26634, 38.94898 ], [ -77.26578, 38.94923 ], [ -77.26554, 38.95016 ], [ -77.26701, 38.94988 ], [ -77.26858, 38.9507 ], [ -77.27028, 38.95038 ], [ -77.27045, 38.95113 ], [ -77.2696, 38.95149 ], [ -77.27101, 38.95361 ], [ -77.26987, 38.95487 ], [ -77.26881, 38.95489 ], [ -77.26734, 38.95654 ], [ -77.26642, 38.95628 ], [ -77.26658, 38.95519 ], [ -77.26521, 38.95653 ], [ -77.26439, 38.9561 ], [ -77.26551, 38.95449 ], [ -77.26401, 38.95339 ], [ -77.26159, 38.95829 ], [ -77.26071, 38.95862 ], [ -77.26029, 38.95793 ], [ -77.26127, 38.95566 ], [ -77.26057, 38.95537 ], [ -77.2606, 38.95488 ], [ -77.25811, 38.95499 ], [ -77.25732, 38.95454 ], [ -77.2579, 38.95392 ], [ -77.25935, 38.95376 ], [ -77.25996, 38.95221 ], [ -77.25875, 38.95149 ], [ -77.25786, 38.95155 ], [ -77.25664, 38.9501 ], [ -77.25738, 38.94959 ], [ -77.25902, 38.95042 ], [ -77.25982, 38.94982 ], [ -77.26102, 38.94974 ], [ -77.25977, 38.94851 ], [ -77.25803, 38.94953 ], [ -77.25707, 38.9494 ], [ -77.25724, 38.94865 ], [ -77.25892, 38.94765 ], [ -77.2546, 38.94273 ], [ -77.2556, 38.94225 ], [ -77.25756, 38.94402 ], [ -77.25791, 38.94332 ], [ -77.25869, 38.94342 ], [ -77.25934, 38.94248 ], [ -77.26027, 38.94226 ], [ -77.26055, 38.94299 ], [ -77.25973, 38.94419 ], [ -77.26057, 38.94472 ], [ -77.26052, 38.94513 ], [ -77.25893, 38.9454 ], [ -77.25972, 38.94617 ], [ -77.26142, 38.94537 ], [ -77.26227, 38.94574 ], [ -77.26183, 38.9465 ], [ -77.26039, 38.94712 ], [ -77.26214, 38.94888 ], [ -77.26246, 38.94692 ], [ -77.26363, 38.94565 ], [ -77.26267, 38.94483 ], [ -77.26337, 38.9443 ], [ -77.2642, 38.94466 ], [ -77.26486, 38.94242 ], [ -77.26615, 38.94105 ], [ -77.26523, 38.93995 ], [ -77.26603, 38.93808 ], [ -77.26519, 38.9374 ], [ -77.26539, 38.93658 ], [ -77.26428, 38.93651 ], [ -77.26397, 38.93578 ], [ -77.2655, 38.93539 ], [ -77.26692, 38.93647 ], [ -77.26719, 38.93571 ], [ -77.26805, 38.93534 ], [ -77.26846, 38.93559 ], [ -77.26787, 38.93787 ] ], [ [ -77.26884, 38.94338 ], [ -77.26779, 38.94302 ], [ -77.26796, 38.94363 ], [ -77.26884, 38.94338 ] ], [ [ -77.27123, 38.94838 ], [ -77.27162, 38.9483 ], [ -77.27129, 38.94798 ], [ -77.27123, 38.94838 ] ], [ [ -77.27121, 38.9476 ], [ -77.27101, 38.9476 ], [ -77.27116, 38.94769 ], [ -77.27121, 38.9476 ] ], [ [ -77.27058, 38.94752 ], [ -77.2704, 38.94738 ], [ -77.27035, 38.94754 ], [ -77.27058, 38.94752 ] ], [ [ -77.27027, 38.94759 ], [ -77.27011, 38.9477 ], [ -77.27011, 38.94774 ], [ -77.27027, 38.94759 ] ], [ [ -77.27159, 38.94703 ], [ -77.27163, 38.94662 ], [ -77.27238, 38.9463 ], [ -77.27119, 38.94617 ], [ -77.27159, 38.94703 ] ], [ [ -77.27159, 38.94725 ], [ -77.27177, 38.94719 ], [ -77.27159, 38.94703 ], [ -77.27159, 38.94725 ] ], [ [ -77.27095, 38.94549 ], [ -77.27101, 38.94593 ], [ -77.2716, 38.94522 ], [ -77.27095, 38.94549 ] ], [ [ -77.26966, 38.94676 ], [ -77.27002, 38.94678 ], [ -77.26992, 38.94661 ], [ -77.26966, 38.94676 ] ], [ [ -77.26895, 38.94709 ], [ -77.26899, 38.94705 ], [ -77.26886, 38.9471 ], [ -77.26895, 38.94709 ] ], [ [ -77.27267, 38.94759 ], [ -77.27275, 38.94742 ], [ -77.2724, 38.94738 ], [ -77.27267, 38.94759 ] ], [ [ -77.27246, 38.94738 ], [ -77.27239, 38.94737 ], [ -77.2724, 38.94738 ], [ -77.27246, 38.94738 ] ], [ [ -77.26663, 38.93998 ], [ -77.26667, 38.94004 ], [ -77.26667, 38.93985 ], [ -77.26663, 38.93998 ] ], [ [ -77.26767, 38.95428 ], [ -77.26463, 38.95222 ], [ -77.26454, 38.95238 ], [ -77.26767, 38.95428 ] ], [ [ -77.26673, 38.95094 ], [ -77.26613, 38.95113 ], [ -77.26548, 38.95092 ], [ -77.26537, 38.95116 ], [ -77.26624, 38.95151 ], [ -77.26673, 38.95094 ] ], [ [ -77.26903, 38.95276 ], [ -77.26832, 38.95303 ], [ -77.26932, 38.95368 ], [ -77.26903, 38.95276 ] ], [ [ -77.26205, 38.95056 ], [ -77.2618, 38.95157 ], [ -77.26225, 38.95159 ], [ -77.26265, 38.95097 ], [ -77.26205, 38.95056 ] ], [ [ -77.26397, 38.94949 ], [ -77.26428, 38.9488 ], [ -77.26359, 38.94887 ], [ -77.26316, 38.94974 ], [ -77.26403, 38.95032 ], [ -77.26397, 38.94949 ] ], [ [ -77.26507, 38.94593 ], [ -77.26376, 38.9473 ], [ -77.26365, 38.94769 ], [ -77.26448, 38.94828 ], [ -77.26551, 38.94797 ], [ -77.26635, 38.94711 ], [ -77.26641, 38.94685 ], [ -77.26552, 38.94657 ], [ -77.26507, 38.94593 ] ], [ [ -77.26442, 38.94866 ], [ -77.26448, 38.94859 ], [ -77.26446, 38.94855 ], [ -77.26442, 38.94866 ] ], [ [ -77.2602, 38.95098 ], [ -77.26052, 38.95117 ], [ -77.26071, 38.95081 ], [ -77.2602, 38.95098 ] ], [ [ -77.26142, 38.95307 ], [ -77.26169, 38.95266 ], [ -77.26123, 38.95265 ], [ -77.26073, 38.9538 ], [ -77.26113, 38.95382 ], [ -77.26142, 38.95307 ] ] ] } },
{ "type": "Feature", "properties": { "variant": "T0", "miles": 1.5 }, "geometry": { "type": "Polygon", "coordinates": [ [ [ -77.27478, 38.94541 ], [ -77.27459, 38.94616 ], [ -77.27393, 38.94622 ], [ -77.27417, 38.94691 ], [ -77.27503, 38.9467 ], [ -77.27538, 38.94701 ], [ -77.275, 38.94787 ], [ -77.27379, 38.94826 ], [ -77.27449, 38.94849 ], [ -77.27565, 38.94819 ], [ -77.27634, 38.94751 ], [ -77.2772, 38.94788 ], [ -77.27591, 38.95024 ], [ -77.27568, 38.9521 ], [ -77.27601, 38.95217 ], [ -77.27661, 38.9503 ], [ -77.27746, 38.94991 ], [ -77.27795, 38.95057 ], [ -77.27735, 38.95244 ], [ -77.28026, 38.95305 ], [ -77.2806, 38.95376 ], [ -77.27968, 38.95403 ], [ -77.27418, 38.95292 ], [ -77.27402, 38.9533 ], [ -77.27478, 38.95328 ], [ -77.27498, 38.95403 ], [ -77.27215, 38.9555 ], [ -77.27395, 38.95666 ], [ -77.27478, 38.95649 ], [ -77.27565, 38.95707 ], [ -77.27738, 38.95535 ], [ -77.2779, 38.95541 ], [ -77.27816, 38.95606 ], [ -77.27969, 38.9566 ], [ -77.27943, 38.95734 ], [ -77.27783, 38.95755 ], [ -77.27736, 38.95722 ], [ -77.276, 38.95812 ], [ -77.27829, 38.95979 ], [ -77.27928, 38.95978 ], [ -77.27912, 38.96132 ], [ -77.27814, 38.96133 ], [ -77.27691, 38.9604 ], [ -77.27554, 38.96109 ], [ -77.27338, 38.95942 ], [ -77.27115, 38.96023 ], [ -77.27018, 38.95851 ], [ -77.27104, 38.95814 ], [ -77.27179, 38.95899 ], [ -77.27215, 38.95881 ], [ -77.27209, 38.95767 ], [ -77.27251, 38.95727 ], [ -77.27129, 38.95648 ], [ -77.27018, 38.95804 ], [ -77.26911, 38.95864 ], [ -77.2686, 38.95852 ], [ -77.26849, 38.95776 ], [ -77.26928, 38.95707 ], [ -77.26783, 38.95595 ], [ -77.26734, 38.95654 ], [ -77.26681, 38.95656 ], [ -77.26642, 38.95628 ], [ -77.26658, 38.95519 ], [ -77.26507, 38.95651 ], [ -77.26694, 38.95834 ], [ -77.26676, 38.95909 ], [ -77.26566, 38.96026 ], [ -77.26606, 38.96081 ], [ -77.26577, 38.96116 ], [ -77.26499, 38.96119 ], [ -77.26381, 38.96032 ], [ -77.26259, 38.96014 ], [ -77.26189, 38.95881 ], [ -77.26153, 38.95879 ], [ -77.26145, 38.96103 ], [ -77.26265, 38.9612 ], [ -77.2631, 38.96188 ], [ -77.26276, 38.96219 ], [ -77.2611, 38.96208 ], [ -77.26062, 38.96277 ], [ -77.26009, 38.9628 ], [ -77.25957, 38.96218 ], [ -77.25836, 38.96227 ], [ -77.25802, 38.96168 ], [ -77.25831, 38.96133 ], [ -77.26005, 38.96106 ], [ -77.26015, 38.95878 ], [ -77.25779, 38.95862 ], [ -77.25708, 38.9581 ], [ -77.25775, 38.95754 ], [ -77.26039, 38.95771 ], [ -77.26127, 38.95566 ], [ -77.26057, 38.95537 ], [ -77.2606, 38.95488 ], [ -77.25811, 38.95499 ], [ -77.25732, 38.95454 ], [ -77.2579, 38.95392 ], [ -77.25935, 38.95376 ], [ -77.25996, 38.95221 ], [ -77.25864, 38.95147 ], [ -77.25768, 38.9525 ], [ -77.25561, 38.95354 ], [ -77.25638, 38.95507 ], [ -77.25608, 38.95541 ], [ -77.25556, 38.95549 ], [ -77.25472, 38.95478 ], [ -77.25354, 38.9546 ], [ -77.25371, 38.95384 ], [ -77.25425, 38.95376 ], [ -77.25431, 38.95143 ], [ -77.25709, 38.94959 ], [ -77.25629, 38.94912 ], [ -77.2582, 38.94693 ], [ -77.25547, 38.94423 ], [ -77.25525, 38.94538 ], [ -77.25427, 38.94538 ], [ -77.25411, 38.9435 ], [ -77.25237, 38.94278 ], [ -77.25059, 38.94239 ], [ -77.24983, 38.94403 ], [ -77.24885, 38.94399 ], [ -77.24874, 38.94322 ], [ -77.24948, 38.94159 ], [ -77.24862, 38.94129 ], [ -77.24862, 38.94088 ], [ -77.25104, 38.9401 ], [ -77.25164, 38.9407 ], [ -77.25095, 38.94133 ], [ -77.25221, 38.94166 ], [ -77.25255, 38.94096 ], [ -77.24951, 38.93781 ], [ -77.24965, 38.93706 ], [ -77.25016, 38.93696 ], [ -77.25159, 38.93793 ], [ -77.25437, 38.93765 ], [ -77.25481, 38.93788 ], [ -77.25461, 38.93863 ], [ -77.25251, 38.93888 ], [ -77.25266, 38.93927 ], [ -77.25756, 38.94402 ], [ -77.25791, 38.94332 ], [ -77.25884, 38.9432 ], [ -77.25799, 38.94284 ], [ -77.25804, 38.94243 ], [ -77.25985, 38.94174 ], [ -77.25932, 38.94099 ], [ -77.25957, 38.94063 ], [ -77.26254, 38.94123 ], [ -77.26238, 38.94198 ], [ -77.26132, 38.94209 ], [ -77.26097, 38.94253 ], [ -77.2621, 38.94256 ], [ -77.26351, 38.94197 ], [ -77.26445, 38.94217 ], [ -77.2642, 38.94291 ], [ -77.26242, 38.94362 ], [ -77.2624, 38.9445 ], [ -77.26175, 38.94521 ], [ -77.26073, 38.94489 ], [ -77.2602, 38.94422 ], [ -77.26066, 38.94359 ], [ -77.26023, 38.94346 ], [ -77.25973, 38.94419 ], [ -77.26057, 38.94472 ], [ -77.26052, 38.94513 ], [ -77.25893, 38.9454 ], [ -77.25972, 38.94617 ], [ -77.26142, 38.94537 ], [ -77.26227, 38.94574 ], [ -77.26183, 38.9465 ], [ -77.26039, 38.94712 ], [ -77.26214, 38.94888 ], [ -77.26246, 38.94692 ], [ -77.26363, 38.94565 ], [ -77.26267, 38.94483 ], [ -77.26337, 38.9443 ], [ -77.2642, 38.94466 ], [ -77.26486, 38.94242 ], [ -77.26615, 38.94105 ], [ -77.26523, 38.93995 ], [ -77.26603, 38.93808 ], [ -77.26519, 38.9374 ], [ -77.26539, 38.93658 ], [ -77.26428, 38.93651 ], [ -77.26397, 38.93578 ], [ -77.2655, 38.93539 ], [ -77.26692, 38.93647 ], [ -77.26747, 38.93495 ], [ -77.26667, 38.93379 ], [ -77.26585, 38.93409 ], [ -77.265, 38.93372 ], [ -77.26515, 38.93318 ], [ -77.26598, 38.93284 ], [ -77.26539, 38.932 ], [ -77.26239, 38.93257 ], [ -77.26048, 38.93181 ], [ -77.2601, 38.93129 ], [ -77.26081, 38.93076 ], [ -77.26201, 38.931 ], [ -77.26263, 38.9315 ], [ -77.26424, 38.93127 ], [ -77.26432, 38.93042 ], [ -77.26533, 38.92939 ], [ -77.26393, 38.92881 ], [ -77.26386, 38.92805 ], [ -77.26434, 38.92787 ], [ -77.26688, 38.92855 ], [ -77.26731, 38.92847 ], [ -77.2673, 38.92788 ], [ -77.26826, 38.92772 ], [ -77.26975, 38.92925 ], [ -77.26996, 38.93015 ], [ -77.27136, 38.92955 ], [ -77.27217, 38.93031 ], [ -77.27181, 38.93085 ], [ -77.26701, 38.93207 ], [ -77.26886, 38.93488 ], [ -77.26787, 38.93787 ], [ -77.26825, 38.94047 ], [ -77.2673, 38.94185 ], [ -77.26944, 38.94234 ], [ -77.27023, 38.94342 ], [ -77.26942, 38.94449 ], [ -77.26844, 38.94481 ], [ -77.26737, 38.94461 ], [ -77.26713, 38.94528 ], [ -77.26781, 38.94623 ], [ -77.2684, 38.94608 ], [ -77.27082, 38.94424 ], [ -77.27139, 38.94338 ], [ -77.27192, 38.94336 ], [ -77.27225, 38.94424 ], [ -77.27339, 38.94513 ], [ -77.27478, 38.94541 ] ], [ [ -77.2662, 38.95321 ], [ -77.26463, 38.95222 ], [ -77.26635, 38.95363 ], [ -77.26766, 38.95429 ], [ -77.2662, 38.95321 ] ], [ [ -77.26673, 38.95094 ], [ -77.26613, 38.95113 ], [ -77.26548, 38.95092 ], [ -77.26537, 38.95116 ], [ -77.26624, 38.95151 ], [ -77.26673, 38.95094 ] ], [ [ -77.26602, 38.94992 ], [ -77.26634, 38.94898 ], [ -77.26558, 38.94943 ], [ -77.26556, 38.95014 ], [ -77.26602, 38.94992 ] ], [ [ -77.26672, 38.93098 ], [ -77.26666, 38.93087 ], [ -77.26659, 38.93104 ], [ -77.26672, 38.93098 ] ], [ [ -77.27243, 38.95399 ], [ -77.27206, 38.95398 ], [ -77.27219, 38.95399 ], [ -77.27243, 38.95399 ] ], [ [ -77.27331, 38.95195 ], [ -77.27437, 38.95174 ], [ -77.27294, 38.95146 ], [ -77.27277, 38.95107 ], [ -77.27364, 38.94937 ], [ -77.27304, 38.94918 ], [ -77.27258, 38.95067 ], [ -77.27166, 38.95106 ], [ -77.27114, 38.95041 ], [ -77.27144, 38.95002 ], [ -77.26836, 38.94921 ], [ -77.2678, 38.94869 ], [ -77.26752, 38.94908 ], [ -77.27057, 38.95072 ], [ -77.2696, 38.95149 ], [ -77.27073, 38.95291 ], [ -77.27275, 38.95288 ], [ -77.27331, 38.95195 ] ], [ [ -77.27123, 38.94838 ], [ -77.27162, 38.9483 ], [ -77.27135, 38.94809 ], [ -77.27123, 38.94838 ] ], [ [ -77.27254, 38.9474 ], [ -77.2724, 38.94738 ], [ -77.27267, 38.94759 ], [ -77.27254, 38.9474 ] ], [ [ -77.27246, 38.94738 ], [ -77.27239, 38.94737 ], [ -77.2724, 38.94738 ], [ -77.27246, 38.94738 ] ], [ [ -77.27159, 38.94703 ], [ -77.27159, 38.94725 ], [ -77.27177, 38.94719 ], [ -77.27159, 38.94703 ] ], [ [ -77.27238, 38.9463 ], [ -77.27119, 38.94617 ], [ -77.27159, 38.94703 ], [ -77.27238, 38.9463 ] ], [ [ -77.27079, 38.94572 ], [ -77.27101, 38.94593 ], [ -77.27162, 38.94521 ], [ -77.27079, 38.94572 ] ], [ [ -77.27101, 38.9476 ], [ -77.27116, 38.94769 ], [ -77.27121, 38.9476 ], [ -77.27101, 38.9476 ] ], [ [ -77.27035, 38.94754 ], [ -77.27058, 38.94752 ], [ -77.2704, 38.94738 ], [ -77.27035, 38.94754 ] ], [ [ -77.26966, 38.94676 ], [ -77.27002, 38.94678 ], [ -77.26992, 38.94661 ], [ -77.26966, 38.94676 ] ], [ [ -77.26886, 38.9471 ], [ -77.26888, 38.94718 ], [ -77.26895, 38.94709 ], [ -77.26886, 38.9471 ] ], [ [ -77.27011, 38.94774 ], [ -77.27027, 38.94759 ], [ -77.27011, 38.9477 ], [ -77.27011, 38.94774 ] ], [ [ -77.27344, 38.95793 ], [ -77.27344, 38.95794 ], [ -77.27349, 38.95792 ], [ -77.27344, 38.95793 ] ], [ [ -77.27574, 38.95977 ], [ -77.27589, 38.95966 ], [ -77.27456, 38.95869 ], [ -77.27574, 38.95977 ] ], [ [ -77.26813, 38.93058 ], [ -77.26817, 38.93062 ], [ -77.26821, 38.93061 ], [ -77.26813, 38.93058 ] ], [ [ -77.26708, 38.92995 ], [ -77.26703, 38.93018 ], [ -77.26728, 38.93014 ], [ -77.26708, 38.92995 ] ], [ [ -77.26884, 38.94338 ], [ -77.26779, 38.94302 ], [ -77.26796, 38.94363 ], [ -77.26884, 38.94338 ] ], [ [ -77.2702, 38.95624 ], [ -77.27072, 38.95612 ], [ -77.26881, 38.95489 ], [ -77.2702, 38.95624 ] ], [ [ -77.26903, 38.95276 ], [ -77.26832, 38.95303 ], [ -77.26932, 38.95368 ], [ -77.26903, 38.95276 ] ], [ [ -77.27129, 38.95495 ], [ -77.27134, 38.95498 ], [ -77.27134, 38.95496 ], [ -77.27129, 38.95495 ] ], [ [ -77.26663, 38.93998 ], [ -77.26667, 38.94004 ], [ -77.26667, 38.93985 ], [ -77.26663, 38.93998 ] ], [ [ -77.26556, 38.95846 ], [ -77.26422, 38.95736 ], [ -77.26232, 38.9566 ], [ -77.26218, 38.95697 ], [ -77.26314, 38.95787 ], [ -77.26332, 38.95921 ], [ -77.26462, 38.95953 ], [ -77.26556, 38.95846 ] ], [ [ -77.26449, 38.95622 ], [ -77.26551, 38.95449 ], [ -77.26401, 38.95339 ], [ -77.26296, 38.95554 ], [ -77.26449, 38.95622 ] ], [ [ -77.26205, 38.95056 ], [ -77.2618, 38.95157 ], [ -77.26225, 38.95159 ], [ -77.26265, 38.95097 ], [ -77.26205, 38.95056 ] ], [ [ -77.25977, 38.94851 ], [ -77.25924, 38.94882 ], [ -77.25959, 38.94955 ], [ -77.25832, 38.95021 ], [ -77.25902, 38.95042 ], [ -77.25964, 38.94988 ], [ -77.26088, 38.94962 ], [ -77.25977, 38.94851 ] ], [ [ -77.26446, 38.94855 ], [ -77.26442, 38.94866 ], [ -77.26448, 38.94859 ], [ -77.26446, 38.94855 ] ], [ [ -77.26316, 38.94974 ], [ -77.26403, 38.95032 ], [ -77.26428, 38.9488 ], [ -77.26358, 38.94892 ], [ -77.26316, 38.94974 ] ], [ [ -77.26641, 38.94685 ], [ -77.2659, 38.94685 ], [ -77.26559, 38.94609 ], [ -77.26507, 38.94593 ], [ -77.26365, 38.94769 ], [ -77.26448, 38.94828 ], [ -77.26605, 38.94754 ], [ -77.26641, 38.94685 ] ], [ [ -77.26087, 38.9533 ], [ -77.26073, 38.9538 ], [ -77.26113, 38.95382 ], [ -77.26169, 38.95266 ], [ -77.26123, 38.95265 ], [ -77.26087, 38.9533 ] ], [ [ -77.26052, 38.95117 ], [ -77.2607, 38.9508 ], [ -77.26034, 38.95082 ], [ -77.26052, 38.95117 ] ], [ [ -77.25557, 38.95188 ], [ -77.25557, 38.95241 ], [ -77.25682, 38.95165 ], [ -77.25722, 38.95088 ], [ -77.25557, 38.95188 ] ] ] } },
{ "type": "Feature", "properties": { "variant": "T2s", "miles": 0.5 }, "geometry": { "type": "Polygon", "coordinates": [ [ [ -77.26798, 38.94314 ], [ -77.26716, 38.94539 ], [ -77.26781, 38.94623 ], [ -77.26847, 38.94631 ], [ -77.26863, 38.94706 ], [ -77.26666, 38.94722 ], [ -77.26507, 38.94593 ], [ -77.2637, 38.94748 ], [ -77.26446, 38.94802 ], [ -77.26437, 38.94877 ], [ -77.26359, 38.94887 ], [ -77.2629, 38.95011 ], [ -77.26196, 38.9503 ], [ -77.26164, 38.94998 ], [ -77.26241, 38.94705 ], [ -77.26363, 38.94565 ], [ -77.26272, 38.94507 ], [ -77.26288, 38.94445 ], [ -77.26337, 38.9443 ], [ -77.2642, 38.94466 ], [ -77.2648, 38.94254 ], [ -77.2654, 38.94196 ], [ -77.26633, 38.94234 ], [ -77.2663, 38.94366 ], [ -77.26704, 38.94292 ], [ -77.26798, 38.94314 ] ] ] } },
{ "type": "Feature", "properties": { "variant": "T2s", "miles": 1.0 }, "geometry": { "type": "Polygon", "coordinates": [ [ [ -77.27001, 38.94281 ], [ -77.27023, 38.94342 ], [ -77.26985, 38.94418 ], [ -77.26869, 38.94477 ], [ -77.26737, 38.94461 ], [ -77.26721, 38.94547 ], [ -77.26781, 38.94623 ], [ -77.26883, 38.9459 ], [ -77.27139, 38.94338 ], [ -77.27192, 38.94336 ], [ -77.27325, 38.94515 ], [ -77.27478, 38.94541 ], [ -77.27459, 38.94616 ], [ -77.27393, 38.94622 ], [ -77.27418, 38.94726 ], [ -77.27379, 38.94826 ], [ -77.27472, 38.94866 ], [ -77.27493, 38.94936 ], [ -77.27403, 38.94965 ], [ -77.27304, 38.94918 ], [ -77.27258, 38.95067 ], [ -77.27166, 38.95106 ], [ -77.27114, 38.95041 ], [ -77.27144, 38.95002 ], [ -77.26836, 38.94921 ], [ -77.2678, 38.94869 ], [ -77.26723, 38.94929 ], [ -77.26634, 38.94898 ], [ -77.2655, 38.9496 ], [ -77.26537, 38.95116 ], [ -77.26739, 38.95244 ], [ -77.26749, 38.9532 ], [ -77.26651, 38.95327 ], [ -77.26469, 38.95211 ], [ -77.26391, 38.95312 ], [ -77.2624, 38.95274 ], [ -77.26206, 38.95202 ], [ -77.26246, 38.95175 ], [ -77.26331, 38.95188 ], [ -77.26357, 38.95142 ], [ -77.26135, 38.94983 ], [ -77.25731, 38.94579 ], [ -77.25615, 38.94437 ], [ -77.25627, 38.94361 ], [ -77.25678, 38.9435 ], [ -77.25756, 38.94402 ], [ -77.25791, 38.94332 ], [ -77.25869, 38.94342 ], [ -77.25934, 38.94248 ], [ -77.26027, 38.94226 ], [ -77.26055, 38.94299 ], [ -77.25973, 38.94419 ], [ -77.26057, 38.94472 ], [ -77.26052, 38.94513 ], [ -77.25893, 38.9454 ], [ -77.25972, 38.94617 ], [ -77.26142, 38.94537 ], [ -77.26227, 38.94574 ], [ -77.26183, 38.9465 ], [ -77.26039, 38.94712 ], [ -77.26214, 38.94888 ], [ -77.26246, 38.94692 ], [ -77.26363, 38.94565 ], [ -77.26267, 38.94483 ], [ -77.26337, 38.9443 ], [ -77.2642, 38.94466 ], [ -77.26486, 38.94242 ], [ -77.26615, 38.94105 ], [ -77.26525, 38.94008 ], [ -77.26604, 38.93813 ], [ -77.26519, 38.9374 ], [ -77.26539, 38.93658 ], [ -77.26394, 38.93619 ], [ -77.26397, 38.93578 ], [ -77.2651, 38.93536 ], [ -77.26616, 38.93567 ], [ -77.26692, 38.93647 ], [ -77.26752, 38.93539 ], [ -77.26846, 38.93559 ], [ -77.26787, 38.93787 ], [ -77.26825, 38.94044 ], [ -77.2673, 38.94185 ], [ -77.26905, 38.94217 ], [ -77.27001, 38.94281 ] ], [ [ -77.26796, 38.94363 ], [ -77.26884, 38.94338 ], [ -77.26779, 38.94302 ], [ -77.26796, 38.94363 ] ], [ [ -77.27267, 38.94759 ], [ -77.27228, 38.94616 ], [ -77.27119, 38.94617 ], [ -77.27159, 38.94725 ], [ -77.27267, 38.94759 ] ], [ [ -77.27121, 38.9476 ], [ -77.27101, 38.9476 ], [ -77.27116, 38.94769 ], [ -77.27121, 38.9476 ] ], [ [ -77.27035, 38.94754 ], [ -77.27058, 38.94752 ], [ -77.2704, 38.94738 ], [ -77.27035, 38.94754 ] ], [ [ -77.27002, 38.94678 ], [ -77.26983, 38.94667 ], [ -77.26966, 38.94676 ], [ -77.27002, 38.94678 ] ], [ [ -77.26886, 38.9471 ], [ -77.26895, 38.94709 ], [ -77.26899, 38.94705 ], [ -77.26886, 38.9471 ] ], [ [ -77.2716, 38.94522 ], [ -77.27095, 38.94549 ], [ -77.27101, 38.94593 ], [ -77.2716, 38.94522 ] ], [ [ -77.27132, 38.94817 ], [ -77.27162, 38.9483 ], [ -77.27129, 38.94798 ], [ -77.27132, 38.94817 ] ], [ [ -77.27011, 38.94774 ], [ -77.27027, 38.94759 ], [ -77.27011, 38.9477 ], [ -77.27011, 38.94774 ] ], [ [ -77.26667, 38.93985 ], [ -77.26663, 38.93998 ], [ -77.26667, 38.94004 ], [ -77.26667, 38.93985 ] ], [ [ -77.26442, 38.94866 ], [ -77.26448, 38.94859 ], [ -77.26446, 38.94855 ], [ -77.26442, 38.94866 ] ], [ [ -77.26448, 38.94828 ], [ -77.26592, 38.94765 ], [ -77.26641, 38.94685 ], [ -77.2659, 38.94685 ], [ -77.26559, 38.94609 ], [ -77.26507, 38.94593 ], [ -77.26365, 38.94769 ], [ -77.26448, 38.94828 ] ], [ [ -77.26357, 38.94896 ], [ -77.26316, 38.94974 ], [ -77.26403, 38.95032 ], [ -77.26428, 38.9488 ], [ -77.26357, 38.94896 ] ] ] } },
{ "type": "Feature", "properties": { "variant": "T2s", "miles": 1.5 }, "geometry": { "type": "Polygon", "coordinates": [ [ [ -77.27181, 38.93085 ], [ -77.26701, 38.93207 ], [ -77.26886, 38.93488 ], [ -77.26787, 38.93787 ], [ -77.26825, 38.94047 ], [ -77.2673, 38.94185 ], [ -77.26944, 38.94234 ], [ -77.27023, 38.94342 ], [ -77.26934, 38.94454 ], [ -77.26833, 38.94481 ], [ -77.26737, 38.94461 ], [ -77.26712, 38.94524 ], [ -77.26781, 38.94623 ], [ -77.2684, 38.94608 ], [ -77.27082, 38.94424 ], [ -77.27139, 38.94338 ], [ -77.27192, 38.94336 ], [ -77.27325, 38.94515 ], [ -77.27478, 38.94541 ], [ -77.27459, 38.94616 ], [ -77.27393, 38.94622 ], [ -77.27417, 38.94691 ], [ -77.27503, 38.9467 ], [ -77.27536, 38.94742 ], [ -77.27475, 38.94804 ], [ -77.27379, 38.94826 ], [ -77.27449, 38.94849 ], [ -77.27565, 38.94819 ], [ -77.27634, 38.94751 ], [ -77.2772, 38.94788 ], [ -77.27591, 38.95024 ], [ -77.27568, 38.9521 ], [ -77.27667, 38.9523 ], [ -77.27717, 38.95296 ], [ -77.27633, 38.95335 ], [ -77.27418, 38.95292 ], [ -77.27402, 38.9533 ], [ -77.27478, 38.95328 ], [ -77.27498, 38.95403 ], [ -77.27377, 38.95457 ], [ -77.27293, 38.95397 ], [ -77.27072, 38.95399 ], [ -77.27039, 38.95436 ], [ -77.27277, 38.9561 ], [ -77.27214, 38.95669 ], [ -77.26883, 38.95486 ], [ -77.26864, 38.95508 ], [ -77.26926, 38.95563 ], [ -77.2702, 38.95624 ], [ -77.27125, 38.95633 ], [ -77.27136, 38.95674 ], [ -77.26911, 38.95864 ], [ -77.26834, 38.95816 ], [ -77.26926, 38.95705 ], [ -77.26783, 38.95595 ], [ -77.26734, 38.95654 ], [ -77.26681, 38.95656 ], [ -77.26642, 38.95628 ], [ -77.26658, 38.95519 ], [ -77.26565, 38.9563 ], [ -77.26469, 38.95645 ], [ -77.26449, 38.9557 ], [ -77.26551, 38.95449 ], [ -77.26359, 38.95319 ], [ -77.26305, 38.95298 ], [ -77.26184, 38.95537 ], [ -77.26094, 38.95566 ], [ -77.2606, 38.95488 ], [ -77.25811, 38.95499 ], [ -77.25732, 38.95454 ], [ -77.2579, 38.95392 ], [ -77.25935, 38.95376 ], [ -77.25996, 38.95221 ], [ -77.25907, 38.95166 ], [ -77.25847, 38.9515 ], [ -77.25755, 38.95259 ], [ -77.25517, 38.95358 ], [ -77.25438, 38.95341 ], [ -77.25419, 38.95179 ], [ -77.25466, 38.95106 ], [ -77.25851, 38.94886 ], [ -77.25963, 38.94914 ], [ -77.25845, 38.95039 ], [ -77.25902, 38.95042 ], [ -77.26008, 38.94976 ], [ -77.26136, 38.94984 ], [ -77.25731, 38.94579 ], [ -77.25601, 38.94397 ], [ -77.25678, 38.9435 ], [ -77.25756, 38.94402 ], [ -77.25791, 38.94332 ], [ -77.25869, 38.94342 ], [ -77.25884, 38.9432 ], [ -77.25799, 38.94284 ], [ -77.25804, 38.94243 ], [ -77.25963, 38.94205 ], [ -77.25957, 38.94063 ], [ -77.26254, 38.94123 ], [ -77.26238, 38.94198 ], [ -77.26132, 38.94209 ], [ -77.26097, 38.94253 ], [ -77.2621, 38.94256 ], [ -77.26351, 38.94197 ], [ -77.26445, 38.94217 ], [ -77.2642, 38.94291 ], [ -77.26242, 38.94362 ], [ -77.2624, 38.9445 ], [ -77.26175, 38.94521 ], [ -77.26073, 38.94489 ], [ -77.2602, 38.94422 ], [ -77.26066, 38.94359 ], [ -77.26023, 38.94346 ], [ -77.25973, 38.94419 ], [ -77.26057, 38.94472 ], [ -77.26052, 38.94513 ], [ -77.25893, 38.9454 ], [ -77.25972, 38.94617 ], [ -77.26142, 38.94537 ], [ -77.26227, 38.94574 ], [ -77.26183, 38.9465 ], [ -77.26039, 38.94712 ], [ -77.26214, 38.94888 ], [ -77.26246, 38.94692 ], [ -77.26363, 38.94565 ], [ -77.26267, 38.94483 ], [ -77.26337, 38.9443 ], [ -77.2642, 38.94466 ], [ -77.26486, 38.94242 ], [ -77.26615, 38.94105 ], [ -77.26523, 38.93995 ], [ -77.26603, 38.93808 ], [ -77.26519, 38.9374 ], [ -77.26539, 38.93658 ], [ -77.26428, 38.93651 ], [ -77.26397, 38.93578 ], [ -77.2655, 38.93539 ], [ -77.26692, 38.93647 ], [ -77.26747, 38.93495 ], [ -77.26667, 38.93379 ], [ -77.26585, 38.93409 ], [ -77.265, 38.93372 ], [ -77.26515, 38.93318 ], [ -77.26598, 38.93284 ], [ -77.26539, 38.932 ], [ -77.26221, 38.93254 ], [ -77.26028, 38.93167 ], [ -77.26032, 38.93091 ], [ -77.26081, 38.93076 ], [ -77.26198, 38.93099 ], [ -77.26263, 38.9315 ], [ -77.26424, 38.93127 ], [ -77.26432, 38.93042 ], [ -77.26533, 38.92939 ], [ -77.26393, 38.92881 ], [ -77.26386, 38.92805 ], [ -77.26434, 38.92787 ], [ -77.26696, 38.92854 ], [ -77.26774, 38.92765 ], [ -77.26867, 38.928 ], [ -77.26978, 38.92931 ], [ -77.26996, 38.93015 ], [ -77.27136, 38.92955 ], [ -77.27213, 38.93042 ], [ -77.27181, 38.93085 ] ], [ [ -77.26666, 38.93087 ], [ -77.26659, 38.93104 ], [ -77.26674, 38.931 ], [ -77.26666, 38.93087 ] ], [ [ -77.2672, 38.93008 ], [ -77.26708, 38.92995 ], [ -77.26703, 38.93018 ], [ -77.2672, 38.93008 ] ], [ [ -77.26813, 38.93058 ], [ -77.26817, 38.93062 ], [ -77.26821, 38.93061 ], [ -77.26813, 38.93058 ] ], [ [ -77.26733, 38.95379 ], [ -77.26469, 38.95211 ], [ -77.26454, 38.95238 ], [ -77.26766, 38.95429 ], [ -77.26733, 38.95379 ] ], [ [ -77.26643, 38.94906 ], [ -77.26634, 38.94898 ], [ -77.26558, 38.94943 ], [ -77.26554, 38.95016 ], [ -77.26602, 38.94992 ], [ -77.26583, 38.94964 ], [ -77.26643, 38.94906 ] ], [ [ -77.26903, 38.95276 ], [ -77.26832, 38.95303 ], [ -77.26932, 38.95368 ], [ -77.26903, 38.95276 ] ], [ [ -77.27274, 38.95289 ], [ -77.27331, 38.95195 ], [ -77.27434, 38.95183 ], [ -77.27294, 38.95146 ], [ -77.27277, 38.95107 ], [ -77.27364, 38.94937 ], [ -77.27304, 38.94918 ], [ -77.27258, 38.95067 ], [ -77.27166, 38.95106 ], [ -77.27114, 38.95041 ], [ -77.27144, 38.95002 ], [ -77.26836, 38.94921 ], [ -77.2678, 38.94869 ], [ -77.26752, 38.94908 ], [ -77.27028, 38.95038 ], [ -77.27045, 38.95113 ], [ -77.2696, 38.95149 ], [ -77.27073, 38.95291 ], [ -77.27274, 38.95289 ] ], [ [ -77.27011, 38.94774 ], [ -77.27027, 38.94759 ], [ -77.27011, 38.9477 ], [ -77.27011, 38.94774 ] ], [ [ -77.27035, 38.94754 ], [ -77.27058, 38.94752 ], [ -77.2704, 38.94738 ], [ -77.27035, 38.94754 ] ], [ [ -77.26992, 38.94661 ], [ -77.26966, 38.94676 ], [ -77.27002, 38.94678 ], [ -77.26992, 38.94661 ] ], [ [ -77.27119, 38.94617 ], [ -77.27159, 38.94703 ], [ -77.27163, 38.94662 ], [ -77.2722, 38.94619 ], [ -77.27119, 38.94617 ] ], [ [ -77.27159, 38.94725 ], [ -77.27177, 38.94719 ], [ -77.27159, 38.94703 ], [ -77.27159, 38.94725 ] ], [ [ -77.27116, 38.94769 ], [ -77.27121, 38.9476 ], [ -77.27101, 38.9476 ], [ -77.27116, 38.94769 ] ], [ [ -77.27079, 38.94572 ], [ -77.27101, 38.94593 ], [ -77.27162, 38.94521 ], [ -77.27079, 38.94572 ] ], [ [ -77.27162, 38.9483 ], [ -77.27129, 38.94798 ], [ -77.27132, 38.94817 ], [ -77.27162, 38.9483 ] ], [ [ -77.27267, 38.94759 ], [ -77.27275, 38.94742 ], [ -77.27244, 38.94738 ], [ -77.2724, 38.94738 ], [ -77.27267, 38.94759 ] ], [ [ -77.27246, 38.94738 ], [ -77.27239, 38.94737 ], [ -77.27244, 38.94738 ], [ -77.27246, 38.94738 ] ], [ [ -77.26895, 38.94709 ], [ -77.26899, 38.94705 ], [ -77.26886, 38.9471 ], [ -77.26895, 38.94709 ] ], [ [ -77.26847, 38.9437 ], [ -77.26884, 38.94338 ], [ -77.26779, 38.94302 ], [ -77.26803, 38.94366 ], [ -77.26847, 38.9437 ] ], [ [ -77.26448, 38.94859 ], [ -77.26446, 38.94855 ], [ -77.26442, 38.94866 ], [ -77.26448, 38.94859 ] ], [ [ -77.26316, 38.94974 ], [ -77.26403, 38.95032 ], [ -77.26428, 38.9488 ], [ -77.26359, 38.94887 ], [ -77.26316, 38.94974 ] ], [ [ -77.26663, 38.93998 ], [ -77.26667, 38.94004 ], [ -77.26667, 38.93985 ], [ -77.26663, 38.93998 ] ], [ [ -77.26507, 38.94593 ], [ -77.26376, 38.9473 ], [ -77.26365, 38.94769 ], [ -77.26448, 38.94828 ], [ -77.26551, 38.94797 ], [ -77.26635, 38.94711 ], [ -77.26641, 38.94685 ], [ -77.26552, 38.94657 ], [ -77.26507, 38.94593 ] ], [ [ -77.26613, 38.95113 ], [ -77.26548, 38.95092 ], [ -77.26537, 38.95116 ], [ -77.26628, 38.95172 ], [ -77.26655, 38.95092 ], [ -77.26613, 38.95113 ] ], [ [ -77.26193, 38.95031 ], [ -77.2618, 38.95157 ], [ -77.26225, 38.95159 ], [ -77.26278, 38.95091 ], [ -77.26193, 38.95031 ] ], [ [ -77.2602, 38.95098 ], [ -77.26052, 38.95117 ], [ -77.26071, 38.95081 ], [ -77.2602, 38.95098 ] ], [ [ -77.25557, 38.95188 ], [ -77.25557, 38.95241 ], [ -77.25682, 38.95165 ], [ -77.25722, 38.95088 ], [ -77.25557, 38.95188 ] ], [ [ -77.26142, 38.95307 ], [ -77.26169, 38.95266 ], [ -77.26123, 38.95265 ], [ -77.26073, 38.9538 ], [ -77.26113, 38.95382 ], [ -77.26142, 38.95307 ] ] ] } }
]
}
