{
"type": "FeatureCollection",
"name": "18",
"crs": { "type": "name", "properties": { "name": "urn:ogc:def:crs:OGC:1.3:CRS84" } },
"xy_coordinate_resolution": 1e-05,
"features": [
{ "type": "Feature", "properties": { "variant": "T0", "miles": 0.5 }, "geometry": { "type": "Polygon", "coordinates": [ [ [ -77.23258, 38.93472 ], [ -77.2335, 38.93497 ], [ -77.23286, 38.93692 ], [ -77.23476, 38.93678 ], [ -77.23548, 38.93729 ], [ -77.23482, 38.93786 ], [ -77.23262, 38.93812 ], [ -77.23153, 38.93983 ], [ -77.23146, 38.94007 ], [ -77.23269, 38.94024 ], [ -77.23295, 38.9406 ], [ -77.23238, 38.94118 ], [ -77.23335, 38.94176 ], [ -77.23263, 38.94227 ], [ -77.2316, 38.94224 ], [ -77.23346, 38.94249 ], [ -77.23356, 38.94352 ], [ -77.23278, 38.94385 ], [ -77.23256, 38.94456 ], [ -77.23111, 38.94446 ], [ -77.23063, 38.94501 ], [ -77.22941, 38.94533 ], [ -77.22881, 38.94472 ], [ -77.22957, 38.94182 ], [ -77.22897, 38.9417 ], [ -77.22822, 38.94221 ], [ -77.22764, 38.94199 ], [ -77.22703, 38.94279 ], [ -77.22652, 38.94269 ], [ -77.22622, 38.94208 ], [ -77.22564, 38.94265 ], [ -77.22475, 38.94279 ], [ -77.22437, 38.94251 ], [ -77.2247, 38.94182 ], [ -77.22358, 38.94215 ], [ -77.22269, 38.94184 ], [ -77.2227, 38.94142 ], [ -77.22427, 38.94062 ], [ -77.22299, 38.93985 ], [ -77.22239, 38.94018 ], [ -77.22162, 38.93971 ], [ -77.22213, 38.939 ], [ -77.22327, 38.93861 ], [ -77.22484, 38.93956 ], [ -77.22701, 38.93901 ], [ -77.22724, 38.93975 ], [ -77.22582, 38.94033 ], [ -77.22891, 38.93937 ], [ -77.2307, 38.93832 ], [ -77.23258, 38.93472 ] ], [ [ -77.23227, 38.94343 ], [ -77.23084, 38.94322 ], [ -77.23228, 38.94356 ], [ -77.23227, 38.94343 ] ], [ [ -77.22746, 38.941 ], [ -77.2276, 38.94106 ], [ -77.2276, 38.94096 ], [ -77.22746, 38.941 ] ], [ [ -77.22629, 38.94173 ], [ -77.2263, 38.94171 ], [ -77.22629, 38.94166 ], [ -77.22629, 38.94173 ] ] ] } },
{ "type": "Feature", "properties": { "variant": "T0", "miles": 1.0 }, "geometry": { "type": "Polygon", "coordinates": [ [ [ -77.23404, 38.92998 ], [ -77.23554, 38.9287 ], [ -77.23663, 38.92843 ], [ -77.23724, 38.92902 ], [ -77.23534, 38.93071 ], [ -77.23789, 38.93089 ], [ -77.23858, 38.93157 ], [ -77.23833, 38.93231 ], [ -77.23664, 38.93372 ], [ -77.23575, 38.93388 ], [ -77.23388, 38.93338 ], [ -77.23421, 38.93524 ], [ -77.23576, 38.93452 ], [ -77.23613, 38.93481 ], [ -77.23592, 38.93563 ], [ -77.23675, 38.93536 ], [ -77.23714, 38.93565 ], [ -77.23687, 38.93664 ], [ -77.23739, 38.93665 ], [ -77.23758, 38.93587 ], [ -77.23808, 38.93573 ], [ -77.23856, 38.9359 ], [ -77.23882, 38.9369 ], [ -77.23931, 38.93701 ], [ -77.23964, 38.93703 ], [ -77.23989, 38.93584 ], [ -77.24086, 38.93586 ], [ -77.24101, 38.93726 ], [ -77.24361, 38.93856 ], [ -77.24375, 38.93932 ], [ -77.24278, 38.93943 ], [ -77.24066, 38.93833 ], [ -77.23941, 38.9381 ], [ -77.23972, 38.94034 ], [ -77.2393, 38.9431 ], [ -77.23782, 38.94403 ], [ -77.23528, 38.94409 ], [ -77.23771, 38.94491 ], [ -77.23783, 38.94668 ], [ -77.23678, 38.94693 ], [ -77.23583, 38.94667 ], [ -77.2357, 38.94627 ], [ -77.23664, 38.9456 ], [ -77.23532, 38.94519 ], [ -77.23504, 38.94537 ], [ -77.23564, 38.94566 ], [ -77.23564, 38.94607 ], [ -77.23448, 38.94637 ], [ -77.23245, 38.94506 ], [ -77.23132, 38.94502 ], [ -77.23111, 38.94446 ], [ -77.23103, 38.94535 ], [ -77.22999, 38.94558 ], [ -77.22817, 38.94782 ], [ -77.22865, 38.94827 ], [ -77.22794, 38.94944 ], [ -77.22696, 38.94949 ], [ -77.22557, 38.94819 ], [ -77.22504, 38.94875 ], [ -77.22569, 38.94918 ], [ -77.22565, 38.94959 ], [ -77.22472, 38.94983 ], [ -77.22377, 38.94925 ], [ -77.22372, 38.94838 ], [ -77.22495, 38.9472 ], [ -77.22593, 38.94713 ], [ -77.22673, 38.94755 ], [ -77.22718, 38.94704 ], [ -77.22692, 38.94622 ], [ -77.22793, 38.94613 ], [ -77.22858, 38.94555 ], [ -77.22777, 38.94501 ], [ -77.22794, 38.9439 ], [ -77.22927, 38.94292 ], [ -77.22957, 38.94182 ], [ -77.22897, 38.9417 ], [ -77.22822, 38.94221 ], [ -77.22764, 38.94199 ], [ -77.22703, 38.94279 ], [ -77.22652, 38.94269 ], [ -77.22622, 38.94208 ], [ -77.22528, 38.94278 ], [ -77.22441, 38.94253 ], [ -77.22422, 38.94485 ], [ -77.22673, 38.94347 ], [ -77.22757, 38.94423 ], [ -77.22739, 38.94532 ], [ -77.22638, 38.94596 ], [ -77.22417, 38.94604 ], [ -77.223, 38.94593 ], [ -77.22309, 38.9466 ], [ -77.22225, 38.94699 ], [ -77.22055, 38.9457 ], [ -77.22161, 38.94493 ], [ -77.22284, 38.94484 ], [ -77.22306, 38.94323 ], [ -77.22117, 38.94335 ], [ -77.2219, 38.94423 ], [ -77.22188, 38.94465 ], [ -77.22097, 38.94492 ], [ -77.21963, 38.94333 ], [ -77.21991, 38.94206 ], [ -77.21719, 38.94128 ], [ -77.21672, 38.942 ], [ -77.2159, 38.94176 ], [ -77.21524, 38.94318 ], [ -77.21436, 38.94352 ], [ -77.21393, 38.94283 ], [ -77.21472, 38.94107 ], [ -77.21214, 38.93917 ], [ -77.21288, 38.93868 ], [ -77.21375, 38.93913 ], [ -77.21414, 38.93814 ], [ -77.21499, 38.93776 ], [ -77.21541, 38.93801 ], [ -77.2153, 38.93894 ], [ -77.2165, 38.9391 ], [ -77.21587, 38.93737 ], [ -77.21632, 38.93716 ], [ -77.21753, 38.93745 ], [ -77.21744, 38.93662 ], [ -77.21843, 38.93653 ], [ -77.21838, 38.93614 ], [ -77.21658, 38.93621 ], [ -77.21629, 38.93562 ], [ -77.21526, 38.93523 ], [ -77.2155, 38.93449 ], [ -77.21761, 38.93497 ], [ -77.22031, 38.93498 ], [ -77.22223, 38.93608 ], [ -77.22437, 38.93589 ], [ -77.22594, 38.93676 ], [ -77.22666, 38.93631 ], [ -77.22846, 38.93702 ], [ -77.22954, 38.93685 ], [ -77.22971, 38.93596 ], [ -77.22686, 38.93538 ], [ -77.22633, 38.93474 ], [ -77.22716, 38.93432 ], [ -77.23211, 38.93529 ], [ -77.23217, 38.93252 ], [ -77.23119, 38.93318 ], [ -77.23017, 38.93254 ], [ -77.22802, 38.93248 ], [ -77.2278, 38.93102 ], [ -77.22905, 38.92976 ], [ -77.2301, 38.92967 ], [ -77.23083, 38.92828 ], [ -77.23134, 38.92819 ], [ -77.23313, 38.92829 ], [ -77.23343, 38.92863 ], [ -77.23288, 38.92928 ], [ -77.23351, 38.93116 ], [ -77.23404, 38.92998 ] ], [ [ -77.23228, 38.94356 ], [ -77.23206, 38.94342 ], [ -77.23084, 38.94322 ], [ -77.23228, 38.94356 ] ], [ [ -77.23226, 38.94235 ], [ -77.23179, 38.94225 ], [ -77.2316, 38.94224 ], [ -77.23226, 38.94235 ] ], [ [ -77.23245, 38.94118 ], [ -77.2338, 38.94184 ], [ -77.23365, 38.94333 ], [ -77.23302, 38.94384 ], [ -77.23389, 38.94477 ], [ -77.23423, 38.94112 ], [ -77.23245, 38.94118 ] ], [ [ -77.23067, 38.93835 ], [ -77.23166, 38.93632 ], [ -77.23115, 38.93625 ], [ -77.23084, 38.937 ], [ -77.23001, 38.93727 ], [ -77.22962, 38.93788 ], [ -77.2279, 38.93802 ], [ -77.2267, 38.93898 ], [ -77.22732, 38.93934 ], [ -77.22724, 38.93975 ], [ -77.22582, 38.94033 ], [ -77.22868, 38.93947 ], [ -77.23067, 38.93835 ] ], [ [ -77.23675, 38.93194 ], [ -77.23638, 38.93246 ], [ -77.23577, 38.93276 ], [ -77.23644, 38.9325 ], [ -77.23675, 38.93194 ] ], [ [ -77.23438, 38.93993 ], [ -77.2341, 38.93791 ], [ -77.23388, 38.93792 ], [ -77.23388, 38.93944 ], [ -77.23274, 38.93947 ], [ -77.23281, 38.93996 ], [ -77.23438, 38.93993 ] ], [ [ -77.23439, 38.93659 ], [ -77.23371, 38.9355 ], [ -77.23344, 38.93558 ], [ -77.23286, 38.93692 ], [ -77.23439, 38.93659 ] ], [ [ -77.23807, 38.93783 ], [ -77.23696, 38.93773 ], [ -77.23811, 38.94096 ], [ -77.23807, 38.93783 ] ], [ [ -77.23539, 38.93799 ], [ -77.23586, 38.9404 ], [ -77.23561, 38.94134 ], [ -77.2365, 38.94205 ], [ -77.23598, 38.9427 ], [ -77.23528, 38.94242 ], [ -77.2354, 38.94294 ], [ -77.23742, 38.94299 ], [ -77.23812, 38.94223 ], [ -77.2366, 38.94121 ], [ -77.23539, 38.93799 ] ], [ [ -77.22297, 38.94243 ], [ -77.22284, 38.94237 ], [ -77.22297, 38.94245 ], [ -77.22297, 38.94243 ] ], [ [ -77.22078, 38.94114 ], [ -77.21956, 38.94063 ], [ -77.21952, 38.94074 ], [ -77.22078, 38.94114 ] ], [ [ -77.22144, 38.94019 ], [ -77.2219, 38.94024 ], [ -77.2223, 38.94016 ], [ -77.22168, 38.93979 ], [ -77.22144, 38.94019 ] ], [ [ -77.22212, 38.93901 ], [ -77.22226, 38.93893 ], [ -77.2222, 38.93876 ], [ -77.22212, 38.93901 ] ], [ [ -77.2276, 38.94106 ], [ -77.22746, 38.941 ], [ -77.22753, 38.94114 ], [ -77.2276, 38.94106 ] ], [ [ -77.22439, 38.94075 ], [ -77.22255, 38.94123 ], [ -77.22133, 38.94128 ], [ -77.22235, 38.94136 ], [ -77.22439, 38.94075 ] ], [ [ -77.22305, 38.9399 ], [ -77.22285, 38.93998 ], [ -77.22264, 38.94007 ], [ -77.22285, 38.94001 ], [ -77.22305, 38.9399 ] ], [ [ -77.22542, 38.93807 ], [ -77.22551, 38.93807 ], [ -77.22548, 38.93804 ], [ -77.22542, 38.93807 ] ], [ [ -77.2235, 38.93833 ], [ -77.22381, 38.93896 ], [ -77.22432, 38.93846 ], [ -77.2235, 38.93833 ] ], [ [ -77.22328, 38.93744 ], [ -77.22335, 38.93775 ], [ -77.22357, 38.93759 ], [ -77.22328, 38.93744 ] ], [ [ -77.2246, 38.93719 ], [ -77.22438, 38.93704 ], [ -77.22432, 38.93729 ], [ -77.2246, 38.93719 ] ], [ [ -77.22572, 38.93914 ], [ -77.22519, 38.9393 ], [ -77.22508, 38.93942 ], [ -77.22572, 38.93914 ] ], [ [ -77.22423, 38.94196 ], [ -77.22437, 38.94236 ], [ -77.2247, 38.94182 ], [ -77.22423, 38.94196 ] ], [ [ -77.2263, 38.94171 ], [ -77.22629, 38.94166 ], [ -77.22629, 38.94173 ], [ -77.2263, 38.94171 ] ], [ [ -77.22384, 38.94599 ], [ -77.22388, 38.94599 ], [ -77.22384, 38.94597 ], [ -77.22384, 38.94599 ] ], [ [ -77.22086, 38.93837 ], [ -77.22053, 38.93906 ], [ -77.22004, 38.93962 ], [ -77.22086, 38.93837 ] ], [ [ -77.21864, 38.9393 ], [ -77.21921, 38.93867 ], [ -77.21944, 38.93831 ], [ -77.21864, 38.9393 ] ], [ [ -77.22016, 38.93624 ], [ -77.22026, 38.93615 ], [ -77.22003, 38.93605 ], [ -77.22016, 38.93624 ] ], [ [ -77.21823, 38.94033 ], [ -77.21681, 38.94017 ], [ -77.21545, 38.94015 ], [ -77.21574, 38.94026 ], [ -77.21823, 38.94033 ] ], [ [ -77.22154, 38.94393 ], [ -77.22156, 38.94395 ], [ -77.22157, 38.94395 ], [ -77.22154, 38.94393 ] ] ] } },
{ "type": "Feature", "properties": { "variant": "T0", "miles": 1.5 }, "geometry": { "type": "Polygon", "coordinates": [ [ [ -77.23799, 38.92564 ], [ -77.23878, 38.92518 ], [ -77.24146, 38.92759 ], [ -77.24467, 38.92651 ], [ -77.2456, 38.92676 ], [ -77.24528, 38.92748 ], [ -77.24233, 38.92845 ], [ -77.24307, 38.92919 ], [ -77.2456, 38.92854 ], [ -77.24647, 38.92889 ], [ -77.24642, 38.9293 ], [ -77.24527, 38.92976 ], [ -77.2456, 38.93062 ], [ -77.24496, 38.93118 ], [ -77.24593, 38.93295 ], [ -77.24515, 38.93341 ], [ -77.24469, 38.9332 ], [ -77.24238, 38.93094 ], [ -77.24107, 38.93169 ], [ -77.24152, 38.93234 ], [ -77.24128, 38.93431 ], [ -77.23869, 38.93438 ], [ -77.23388, 38.93338 ], [ -77.23421, 38.93524 ], [ -77.23576, 38.93452 ], [ -77.23613, 38.93481 ], [ -77.23592, 38.93563 ], [ -77.23675, 38.93536 ], [ -77.23714, 38.93565 ], [ -77.23687, 38.93664 ], [ -77.23739, 38.93665 ], [ -77.23758, 38.93587 ], [ -77.23808, 38.93573 ], [ -77.23856, 38.9359 ], [ -77.23882, 38.9369 ], [ -77.23931, 38.93701 ], [ -77.23964, 38.93703 ], [ -77.23989, 38.93584 ], [ -77.24038, 38.93569 ], [ -77.24105, 38.93624 ], [ -77.24101, 38.93726 ], [ -77.24297, 38.93822 ], [ -77.24274, 38.93684 ], [ -77.24336, 38.93573 ], [ -77.24434, 38.93567 ], [ -77.24543, 38.93685 ], [ -77.24614, 38.93697 ], [ -77.24621, 38.93773 ], [ -77.24562, 38.93814 ], [ -77.24673, 38.93888 ], [ -77.24594, 38.93945 ], [ -77.24495, 38.93919 ], [ -77.24431, 38.9385 ], [ -77.24415, 38.93885 ], [ -77.24839, 38.94109 ], [ -77.249, 38.94059 ], [ -77.25104, 38.9401 ], [ -77.25164, 38.9407 ], [ -77.25095, 38.94133 ], [ -77.25298, 38.94177 ], [ -77.25317, 38.94252 ], [ -77.25229, 38.94278 ], [ -77.25059, 38.94239 ], [ -77.24983, 38.94403 ], [ -77.24933, 38.94417 ], [ -77.24868, 38.9436 ], [ -77.24918, 38.94224 ], [ -77.24752, 38.94197 ], [ -77.24714, 38.943 ], [ -77.24599, 38.94334 ], [ -77.24561, 38.94263 ], [ -77.24612, 38.94227 ], [ -77.24626, 38.94133 ], [ -77.24545, 38.94226 ], [ -77.24421, 38.94262 ], [ -77.24338, 38.94141 ], [ -77.24412, 38.94015 ], [ -77.24343, 38.93978 ], [ -77.24296, 38.94302 ], [ -77.24225, 38.94373 ], [ -77.24129, 38.94391 ], [ -77.24075, 38.94327 ], [ -77.24166, 38.94264 ], [ -77.24192, 38.94074 ], [ -77.24106, 38.94062 ], [ -77.24082, 38.94025 ], [ -77.241, 38.93986 ], [ -77.24203, 38.93966 ], [ -77.24226, 38.93915 ], [ -77.23941, 38.9381 ], [ -77.23972, 38.94034 ], [ -77.2393, 38.9431 ], [ -77.23782, 38.94403 ], [ -77.23528, 38.94409 ], [ -77.23754, 38.94476 ], [ -77.23943, 38.94489 ], [ -77.24074, 38.94586 ], [ -77.2409, 38.94676 ], [ -77.24004, 38.94713 ], [ -77.2392, 38.94603 ], [ -77.23802, 38.94578 ], [ -77.23802, 38.94623 ], [ -77.23925, 38.947 ], [ -77.24005, 38.94831 ], [ -77.24105, 38.9486 ], [ -77.2412, 38.949 ], [ -77.24094, 38.94936 ], [ -77.23864, 38.94959 ], [ -77.23774, 38.95033 ], [ -77.23944, 38.9511 ], [ -77.23985, 38.95179 ], [ -77.23896, 38.95211 ], [ -77.23637, 38.9509 ], [ -77.23609, 38.95055 ], [ -77.23668, 38.94963 ], [ -77.23615, 38.94858 ], [ -77.23559, 38.94903 ], [ -77.23468, 38.94875 ], [ -77.2356, 38.94742 ], [ -77.23607, 38.94722 ], [ -77.23692, 38.94755 ], [ -77.23729, 38.94717 ], [ -77.23583, 38.94667 ], [ -77.2357, 38.94627 ], [ -77.23659, 38.94555 ], [ -77.23518, 38.94517 ], [ -77.23564, 38.94607 ], [ -77.23463, 38.94641 ], [ -77.23245, 38.94506 ], [ -77.23132, 38.94502 ], [ -77.23111, 38.94446 ], [ -77.23103, 38.94535 ], [ -77.22999, 38.94558 ], [ -77.22817, 38.94782 ], [ -77.22865, 38.94827 ], [ -77.22794, 38.94944 ], [ -77.22686, 38.94942 ], [ -77.22645, 38.95012 ], [ -77.22683, 38.95108 ], [ -77.22785, 38.95155 ], [ -77.22744, 38.95022 ], [ -77.22875, 38.95002 ], [ -77.22942, 38.95052 ], [ -77.22932, 38.95097 ], [ -77.23108, 38.95187 ], [ -77.22963, 38.95393 ], [ -77.22989, 38.95407 ], [ -77.23175, 38.95228 ], [ -77.23254, 38.95273 ], [ -77.23242, 38.95313 ], [ -77.23018, 38.95535 ], [ -77.22646, 38.95353 ], [ -77.2254, 38.95499 ], [ -77.22698, 38.95678 ], [ -77.2263, 38.95742 ], [ -77.22596, 38.95902 ], [ -77.22547, 38.95918 ], [ -77.22479, 38.95863 ], [ -77.22494, 38.95761 ], [ -77.22441, 38.95613 ], [ -77.22346, 38.95677 ], [ -77.22266, 38.95632 ], [ -77.223, 38.95569 ], [ -77.22235, 38.95493 ], [ -77.22315, 38.95449 ], [ -77.22385, 38.95479 ], [ -77.22238, 38.95398 ], [ -77.22172, 38.95444 ], [ -77.22092, 38.954 ], [ -77.22211, 38.95234 ], [ -77.22172, 38.95097 ], [ -77.22073, 38.95019 ], [ -77.22085, 38.94978 ], [ -77.22182, 38.94966 ], [ -77.22548, 38.95168 ], [ -77.2251, 38.94985 ], [ -77.22396, 38.94946 ], [ -77.22365, 38.94853 ], [ -77.22495, 38.9472 ], [ -77.22593, 38.94713 ], [ -77.22673, 38.94755 ], [ -77.22718, 38.94704 ], [ -77.22692, 38.94622 ], [ -77.22793, 38.94613 ], [ -77.22858, 38.94555 ], [ -77.22777, 38.94501 ], [ -77.22797, 38.94381 ], [ -77.22746, 38.94403 ], [ -77.22719, 38.94571 ], [ -77.22638, 38.94596 ], [ -77.22417, 38.94604 ], [ -77.223, 38.94593 ], [ -77.22309, 38.9466 ], [ -77.22225, 38.94699 ], [ -77.22164, 38.94638 ], [ -77.22085, 38.94623 ], [ -77.22017, 38.94754 ], [ -77.21965, 38.94763 ], [ -77.21794, 38.94662 ], [ -77.21753, 38.9471 ], [ -77.2158, 38.94662 ], [ -77.21486, 38.9469 ], [ -77.21378, 38.94649 ], [ -77.21189, 38.94721 ], [ -77.20845, 38.94637 ], [ -77.20821, 38.94479 ], [ -77.20939, 38.94436 ], [ -77.21009, 38.94314 ], [ -77.2111, 38.9429 ], [ -77.21372, 38.94335 ], [ -77.21298, 38.9426 ], [ -77.21149, 38.94247 ], [ -77.21074, 38.94197 ], [ -77.20975, 38.94185 ], [ -77.2083, 38.94239 ], [ -77.2078, 38.94226 ], [ -77.2075, 38.94131 ], [ -77.20693, 38.94188 ], [ -77.20605, 38.94156 ], [ -77.20683, 38.93998 ], [ -77.20824, 38.93975 ], [ -77.20778, 38.93879 ], [ -77.20804, 38.93842 ], [ -77.20855, 38.93831 ], [ -77.20942, 38.93892 ], [ -77.20961, 38.9383 ], [ -77.20863, 38.93772 ], [ -77.20851, 38.93677 ], [ -77.2063, 38.93573 ], [ -77.20585, 38.93505 ], [ -77.20692, 38.93475 ], [ -77.20975, 38.93615 ], [ -77.21016, 38.9356 ], [ -77.2116, 38.93568 ], [ -77.21204, 38.93591 ], [ -77.21198, 38.93724 ], [ -77.2129, 38.93757 ], [ -77.21219, 38.93529 ], [ -77.21034, 38.9353 ], [ -77.21019, 38.9349 ], [ -77.21103, 38.93415 ], [ -77.21536, 38.93431 ], [ -77.21761, 38.93497 ], [ -77.21995, 38.93491 ], [ -77.22223, 38.93608 ], [ -77.2242, 38.93586 ], [ -77.22594, 38.93676 ], [ -77.22666, 38.93631 ], [ -77.22846, 38.93702 ], [ -77.22954, 38.93685 ], [ -77.22971, 38.93596 ], [ -77.22686, 38.93538 ], [ -77.22633, 38.93474 ], [ -77.22716, 38.93432 ], [ -77.23211, 38.93529 ], [ -77.23234, 38.93359 ], [ -77.23018, 38.93381 ], [ -77.22969, 38.93315 ], [ -77.23017, 38.93254 ], [ -77.22922, 38.93258 ], [ -77.22902, 38.93358 ], [ -77.22851, 38.93375 ], [ -77.22469, 38.93383 ], [ -77.22321, 38.93308 ], [ -77.22251, 38.93381 ], [ -77.22043, 38.93382 ], [ -77.22039, 38.93306 ], [ -77.22089, 38.93288 ], [ -77.22065, 38.93227 ], [ -77.21942, 38.93148 ], [ -77.21992, 38.93097 ], [ -77.22006, 38.92986 ], [ -77.22225, 38.92962 ], [ -77.22275, 38.92976 ], [ -77.22301, 38.93082 ], [ -77.22437, 38.93095 ], [ -77.22418, 38.92993 ], [ -77.22498, 38.92932 ], [ -77.2231, 38.92874 ], [ -77.22209, 38.92793 ], [ -77.22272, 38.92735 ], [ -77.22427, 38.928 ], [ -77.22464, 38.92734 ], [ -77.22414, 38.92663 ], [ -77.22452, 38.92619 ], [ -77.22596, 38.92621 ], [ -77.22673, 38.92584 ], [ -77.22712, 38.92515 ], [ -77.22575, 38.92371 ], [ -77.22638, 38.92298 ], [ -77.22691, 38.92298 ], [ -77.22785, 38.924 ], [ -77.23141, 38.92575 ], [ -77.23211, 38.92534 ], [ -77.23064, 38.92357 ], [ -77.23256, 38.92224 ], [ -77.23348, 38.92229 ], [ -77.23375, 38.92282 ], [ -77.23532, 38.92213 ], [ -77.23662, 38.92314 ], [ -77.23798, 38.92284 ], [ -77.23835, 38.92329 ], [ -77.23785, 38.92393 ], [ -77.23815, 38.92505 ], [ -77.23734, 38.92548 ], [ -77.23644, 38.92474 ], [ -77.236, 38.92499 ], [ -77.23667, 38.92594 ], [ -77.23539, 38.9269 ], [ -77.237, 38.92836 ], [ -77.2375, 38.92834 ], [ -77.23707, 38.92748 ], [ -77.2379, 38.92708 ], [ -77.23905, 38.92826 ], [ -77.23978, 38.92822 ], [ -77.2383, 38.92669 ], [ -77.23799, 38.92564 ] ], [ [ -77.22957, 38.94182 ], [ -77.22897, 38.9417 ], [ -77.22842, 38.94227 ], [ -77.22883, 38.94303 ], [ -77.22927, 38.9429 ], [ -77.22957, 38.94182 ] ], [ [ -77.2307, 38.93832 ], [ -77.23166, 38.93632 ], [ -77.23115, 38.93625 ], [ -77.23084, 38.937 ], [ -77.23001, 38.93727 ], [ -77.22962, 38.93788 ], [ -77.2279, 38.93802 ], [ -77.2267, 38.93898 ], [ -77.22732, 38.93934 ], [ -77.22724, 38.93975 ], [ -77.22582, 38.94033 ], [ -77.22975, 38.93893 ], [ -77.2307, 38.93832 ] ], [ [ -77.23101, 38.92821 ], [ -77.23091, 38.92764 ], [ -77.22974, 38.92832 ], [ -77.23101, 38.92821 ] ], [ [ -77.23388, 38.93032 ], [ -77.2334, 38.93059 ], [ -77.23351, 38.93116 ], [ -77.23388, 38.93032 ] ], [ [ -77.23475, 38.92548 ], [ -77.23419, 38.9257 ], [ -77.23454, 38.92605 ], [ -77.23502, 38.92576 ], [ -77.23475, 38.92548 ] ], [ [ -77.2355, 38.92378 ], [ -77.2351, 38.92339 ], [ -77.23396, 38.92405 ], [ -77.23423, 38.92433 ], [ -77.2355, 38.92378 ] ], [ [ -77.24132, 38.92985 ], [ -77.24081, 38.92933 ], [ -77.23934, 38.92965 ], [ -77.23875, 38.92937 ], [ -77.23695, 38.92944 ], [ -77.23534, 38.93071 ], [ -77.23814, 38.93088 ], [ -77.23872, 38.93025 ], [ -77.24029, 38.9304 ], [ -77.24047, 38.92981 ], [ -77.24132, 38.92985 ] ], [ [ -77.24392, 38.9301 ], [ -77.24398, 38.93017 ], [ -77.24396, 38.93009 ], [ -77.24392, 38.9301 ] ], [ [ -77.23638, 38.93246 ], [ -77.23577, 38.93276 ], [ -77.23644, 38.9325 ], [ -77.23675, 38.93194 ], [ -77.23638, 38.93246 ] ], [ [ -77.23851, 38.93198 ], [ -77.23766, 38.93302 ], [ -77.23912, 38.93319 ], [ -77.2392, 38.93215 ], [ -77.23851, 38.93198 ] ], [ [ -77.23756, 38.94295 ], [ -77.23812, 38.94223 ], [ -77.2366, 38.94121 ], [ -77.23579, 38.93835 ], [ -77.23527, 38.93784 ], [ -77.23585, 38.9403 ], [ -77.23561, 38.94134 ], [ -77.2365, 38.94205 ], [ -77.23598, 38.9427 ], [ -77.23528, 38.94242 ], [ -77.2354, 38.94294 ], [ -77.23756, 38.94295 ] ], [ [ -77.23423, 38.94112 ], [ -77.23371, 38.94095 ], [ -77.23245, 38.94118 ], [ -77.23363, 38.94145 ], [ -77.2338, 38.94184 ], [ -77.23365, 38.94333 ], [ -77.23302, 38.94384 ], [ -77.23389, 38.94477 ], [ -77.23423, 38.94112 ] ], [ [ -77.2341, 38.93791 ], [ -77.23388, 38.93792 ], [ -77.23388, 38.93944 ], [ -77.23274, 38.93947 ], [ -77.23281, 38.93996 ], [ -77.23438, 38.93993 ], [ -77.2341, 38.93791 ] ], [ [ -77.23371, 38.9355 ], [ -77.23344, 38.93558 ], [ -77.23286, 38.93692 ], [ -77.23439, 38.93659 ], [ -77.23371, 38.9355 ] ], [ [ -77.24403, 38.93728 ], [ -77.24416, 38.93754 ], [ -77.24414, 38.93725 ], [ -77.24403, 38.93728 ] ], [ [ -77.23696, 38.93773 ], [ -77.23811, 38.94096 ], [ -77.23807, 38.93783 ], [ -77.23696, 38.93773 ] ], [ [ -77.23829, 38.94781 ], [ -77.23764, 38.94881 ], [ -77.23868, 38.94846 ], [ -77.23829, 38.94781 ] ], [ [ -77.23381, 38.92856 ], [ -77.23373, 38.92836 ], [ -77.23348, 38.92839 ], [ -77.23381, 38.92856 ] ], [ [ -77.23357, 38.92728 ], [ -77.23359, 38.92728 ], [ -77.23358, 38.92726 ], [ -77.23357, 38.92728 ] ], [ [ -77.23155, 38.94333 ], [ -77.23084, 38.94322 ], [ -77.23228, 38.94356 ], [ -77.23155, 38.94333 ] ], [ [ -77.23179, 38.94225 ], [ -77.2316, 38.94224 ], [ -77.23231, 38.94235 ], [ -77.23179, 38.94225 ] ], [ [ -77.22713, 38.93254 ], [ -77.22433, 38.93204 ], [ -77.22487, 38.93276 ], [ -77.22784, 38.9327 ], [ -77.22713, 38.93254 ] ], [ [ -77.22647, 38.93017 ], [ -77.22642, 38.92964 ], [ -77.22554, 38.93034 ], [ -77.22594, 38.93121 ], [ -77.22643, 38.9313 ], [ -77.22647, 38.93017 ] ], [ [ -77.22163, 38.93085 ], [ -77.22162, 38.93072 ], [ -77.22129, 38.93074 ], [ -77.22163, 38.93085 ] ], [ [ -77.22464, 38.95391 ], [ -77.2253, 38.9529 ], [ -77.22323, 38.95177 ], [ -77.22282, 38.95238 ], [ -77.22307, 38.95304 ], [ -77.22464, 38.95391 ] ], [ [ -77.22306, 38.94323 ], [ -77.22117, 38.94335 ], [ -77.2219, 38.94423 ], [ -77.22151, 38.94497 ], [ -77.22284, 38.94484 ], [ -77.22306, 38.94323 ] ], [ [ -77.22284, 38.94237 ], [ -77.22297, 38.94245 ], [ -77.22297, 38.94243 ], [ -77.22284, 38.94237 ] ], [ [ -77.22417, 38.94053 ], [ -77.22322, 38.94106 ], [ -77.22133, 38.94128 ], [ -77.22228, 38.94137 ], [ -77.22439, 38.94075 ], [ -77.22417, 38.94053 ] ], [ [ -77.22285, 38.93998 ], [ -77.22264, 38.94007 ], [ -77.22298, 38.93995 ], [ -77.22285, 38.93998 ] ], [ [ -77.22432, 38.93846 ], [ -77.2235, 38.93833 ], [ -77.22381, 38.93896 ], [ -77.22432, 38.93846 ] ], [ [ -77.22335, 38.93775 ], [ -77.22357, 38.93759 ], [ -77.22328, 38.93744 ], [ -77.22335, 38.93775 ] ], [ [ -77.22622, 38.94208 ], [ -77.22528, 38.94278 ], [ -77.22441, 38.94253 ], [ -77.22422, 38.94485 ], [ -77.22616, 38.94362 ], [ -77.2267, 38.94287 ], [ -77.22622, 38.94208 ] ], [ [ -77.22746, 38.941 ], [ -77.22753, 38.94114 ], [ -77.2276, 38.94106 ], [ -77.22746, 38.941 ] ], [ [ -77.2269, 38.95245 ], [ -77.22716, 38.9526 ], [ -77.22722, 38.95253 ], [ -77.2269, 38.95245 ] ], [ [ -77.2283, 38.95321 ], [ -77.22849, 38.95331 ], [ -77.22941, 38.95218 ], [ -77.2283, 38.95321 ] ], [ [ -77.22529, 38.93924 ], [ -77.22508, 38.93942 ], [ -77.22572, 38.93914 ], [ -77.22529, 38.93924 ] ], [ [ -77.2246, 38.93719 ], [ -77.22438, 38.93704 ], [ -77.22432, 38.93729 ], [ -77.2246, 38.93719 ] ], [ [ -77.22545, 38.93805 ], [ -77.22541, 38.93808 ], [ -77.22551, 38.93807 ], [ -77.22545, 38.93805 ] ], [ [ -77.22629, 38.94166 ], [ -77.22629, 38.94173 ], [ -77.2263, 38.94171 ], [ -77.22629, 38.94166 ] ], [ [ -77.2247, 38.94182 ], [ -77.22423, 38.94196 ], [ -77.22437, 38.94236 ], [ -77.2247, 38.94182 ] ], [ [ -77.22384, 38.94599 ], [ -77.22388, 38.94599 ], [ -77.22384, 38.94597 ], [ -77.22384, 38.94599 ] ], [ [ -77.22592, 38.94852 ], [ -77.22547, 38.9482 ], [ -77.22504, 38.94875 ], [ -77.22555, 38.94905 ], [ -77.22592, 38.94852 ] ], [ [ -77.2163, 38.94339 ], [ -77.21556, 38.94248 ], [ -77.21516, 38.94337 ], [ -77.2163, 38.94373 ], [ -77.2163, 38.94339 ] ], [ [ -77.21706, 38.94019 ], [ -77.21823, 38.94033 ], [ -77.21715, 38.94017 ], [ -77.21545, 38.94015 ], [ -77.21706, 38.94019 ] ], [ [ -77.21634, 38.93896 ], [ -77.21606, 38.93913 ], [ -77.21627, 38.93911 ], [ -77.21634, 38.93896 ] ], [ [ -77.21581, 38.93793 ], [ -77.21589, 38.93795 ], [ -77.21576, 38.9378 ], [ -77.21581, 38.93793 ] ], [ [ -77.21476, 38.9365 ], [ -77.21477, 38.93644 ], [ -77.21471, 38.93648 ], [ -77.21476, 38.9365 ] ], [ [ -77.21449, 38.93567 ], [ -77.21485, 38.93594 ], [ -77.21502, 38.93537 ], [ -77.21449, 38.93567 ] ], [ [ -77.2213, 38.94013 ], [ -77.2223, 38.94016 ], [ -77.22168, 38.93979 ], [ -77.2213, 38.94013 ] ], [ [ -77.22026, 38.93615 ], [ -77.22003, 38.93605 ], [ -77.22016, 38.93624 ], [ -77.22026, 38.93615 ] ], [ [ -77.21735, 38.93632 ], [ -77.21756, 38.93609 ], [ -77.21743, 38.93606 ], [ -77.21735, 38.93632 ] ], [ [ -77.21656, 38.93619 ], [ -77.21628, 38.93591 ], [ -77.21617, 38.93629 ], [ -77.21613, 38.9367 ], [ -77.21656, 38.93619 ] ], [ [ -77.21599, 38.93731 ], [ -77.21652, 38.93719 ], [ -77.21612, 38.93677 ], [ -77.21599, 38.93731 ] ], [ [ -77.21885, 38.93896 ], [ -77.21864, 38.9393 ], [ -77.21921, 38.93867 ], [ -77.21944, 38.93831 ], [ -77.21885, 38.93896 ] ], [ [ -77.22226, 38.93893 ], [ -77.2222, 38.93876 ], [ -77.22212, 38.93901 ], [ -77.22226, 38.93893 ] ], [ [ -77.22004, 38.93962 ], [ -77.22044, 38.93917 ], [ -77.22086, 38.93837 ], [ -77.22004, 38.93962 ] ], [ [ -77.21759, 38.94277 ], [ -77.21703, 38.94244 ], [ -77.2187, 38.94418 ], [ -77.21903, 38.94372 ], [ -77.21759, 38.94277 ] ], [ [ -77.21952, 38.94074 ], [ -77.22084, 38.94116 ], [ -77.22026, 38.94093 ], [ -77.21952, 38.94074 ] ], [ [ -77.21962, 38.94259 ], [ -77.21991, 38.94206 ], [ -77.21745, 38.94131 ], [ -77.21962, 38.94259 ] ], [ [ -77.21944, 38.94613 ], [ -77.21948, 38.94603 ], [ -77.21928, 38.946 ], [ -77.21944, 38.94613 ] ], [ [ -77.21876, 38.94471 ], [ -77.21869, 38.94425 ], [ -77.21802, 38.94462 ], [ -77.21876, 38.94471 ] ], [ [ -77.21181, 38.94047 ], [ -77.2118, 38.94124 ], [ -77.21244, 38.94063 ], [ -77.21323, 38.9406 ], [ -77.21356, 38.94092 ], [ -77.21321, 38.94152 ], [ -77.21425, 38.94215 ], [ -77.21472, 38.94107 ], [ -77.21298, 38.94003 ], [ -77.21181, 38.94047 ] ], [ [ -77.21091, 38.93942 ], [ -77.2113, 38.93941 ], [ -77.21086, 38.93884 ], [ -77.21091, 38.93942 ] ], [ [ -77.21027, 38.94066 ], [ -77.21003, 38.94076 ], [ -77.21025, 38.94084 ], [ -77.21027, 38.94066 ] ], [ [ -77.21425, 38.9378 ], [ -77.21422, 38.93793 ], [ -77.21439, 38.93755 ], [ -77.21425, 38.9378 ] ], [ [ -77.2136, 38.93571 ], [ -77.21361, 38.93572 ], [ -77.21365, 38.93571 ], [ -77.2136, 38.93571 ] ], [ [ -77.21397, 38.93862 ], [ -77.21416, 38.9381 ], [ -77.21412, 38.93818 ], [ -77.21397, 38.93862 ] ], [ [ -77.21232, 38.9441 ], [ -77.21183, 38.94493 ], [ -77.21105, 38.94514 ], [ -77.21159, 38.94541 ], [ -77.2115, 38.94599 ], [ -77.21261, 38.94591 ], [ -77.21327, 38.9445 ], [ -77.21232, 38.9441 ] ], [ [ -77.21087, 38.94511 ], [ -77.21064, 38.94487 ], [ -77.21069, 38.94496 ], [ -77.21087, 38.94511 ] ] ] } },
{ "type": "Feature", "properties": { "variant": "T2s", "miles": 0.5 }, "geometry": { "type": "Polygon", "coordinates": [ [ [ -77.2307, 38.93832 ], [ -77.23258, 38.93472 ], [ -77.2335, 38.93497 ], [ -77.23286, 38.93692 ], [ -77.23476, 38.93678 ], [ -77.23548, 38.93729 ], [ -77.23482, 38.93786 ], [ -77.23272, 38.93807 ], [ -77.23188, 38.93889 ], [ -77.23146, 38.94007 ], [ -77.23269, 38.94024 ], [ -77.23295, 38.9406 ], [ -77.23234, 38.9412 ], [ -77.23118, 38.94113 ], [ -77.23045, 38.94299 ], [ -77.2295, 38.94282 ], [ -77.22957, 38.94182 ], [ -77.22897, 38.9417 ], [ -77.22822, 38.94221 ], [ -77.22764, 38.94199 ], [ -77.22703, 38.94279 ], [ -77.22652, 38.94269 ], [ -77.22622, 38.94208 ], [ -77.22564, 38.94265 ], [ -77.22475, 38.94279 ], [ -77.22437, 38.94251 ], [ -77.2247, 38.94182 ], [ -77.22305, 38.94214 ], [ -77.2227, 38.94142 ], [ -77.22439, 38.94075 ], [ -77.22299, 38.93985 ], [ -77.22188, 38.94007 ], [ -77.22162, 38.93971 ], [ -77.22202, 38.93908 ], [ -77.22327, 38.93861 ], [ -77.22484, 38.93956 ], [ -77.22701, 38.93901 ], [ -77.22724, 38.93975 ], [ -77.22582, 38.94033 ], [ -77.22868, 38.93947 ], [ -77.2307, 38.93832 ] ], [ [ -77.22746, 38.941 ], [ -77.2276, 38.94106 ], [ -77.2276, 38.94096 ], [ -77.22746, 38.941 ] ], [ [ -77.22629, 38.94173 ], [ -77.2263, 38.94171 ], [ -77.22629, 38.94166 ], [ -77.22629, 38.94173 ] ] ] } },
{ "type": "Feature", "properties": { "variant": "T2s", "miles": 1.0 }, "geometry": { "type": "Polygon", "coordinates": [ [ [ -77.23406, 38.93044 ], [ -77.23831, 38.93101 ], [ -77.23857, 38.93178 ], [ -77.2375, 38.9332 ], [ -77.23653, 38.93376 ], [ -77.23388, 38.93338 ], [ -77.23421, 38.93524 ], [ -77.23576, 38.93452 ], [ -77.23613, 38.93481 ], [ -77.23592, 38.93563 ], [ -77.23675, 38.93536 ], [ -77.23714, 38.93565 ], [ -77.23687, 38.93664 ], [ -77.23739, 38.93665 ], [ -77.23758, 38.93587 ], [ -77.23808, 38.93573 ], [ -77.23856, 38.9359 ], [ -77.23882, 38.9369 ], [ -77.23931, 38.93701 ], [ -77.23964, 38.93703 ], [ -77.23989, 38.93584 ], [ -77.24086, 38.93586 ], [ -77.24101, 38.93726 ], [ -77.24361, 38.93856 ], [ -77.24375, 38.93932 ], [ -77.24278, 38.93943 ], [ -77.24066, 38.93833 ], [ -77.23941, 38.9381 ], [ -77.23972, 38.94036 ], [ -77.23903, 38.9434 ], [ -77.23757, 38.94407 ], [ -77.2353, 38.94402 ], [ -77.23504, 38.94537 ], [ -77.23564, 38.94566 ], [ -77.23564, 38.94607 ], [ -77.23502, 38.94643 ], [ -77.2338, 38.94609 ], [ -77.23245, 38.94506 ], [ -77.23176, 38.94525 ], [ -77.23111, 38.94446 ], [ -77.23103, 38.94535 ], [ -77.22999, 38.94558 ], [ -77.22779, 38.94826 ], [ -77.22795, 38.94905 ], [ -77.22698, 38.94914 ], [ -77.22547, 38.9482 ], [ -77.22504, 38.94875 ], [ -77.22569, 38.94918 ], [ -77.22565, 38.94959 ], [ -77.22472, 38.94983 ], [ -77.22377, 38.94925 ], [ -77.22372, 38.94838 ], [ -77.22495, 38.9472 ], [ -77.22593, 38.94713 ], [ -77.22673, 38.94755 ], [ -77.22718, 38.94704 ], [ -77.22692, 38.94622 ], [ -77.22793, 38.94613 ], [ -77.22858, 38.94555 ], [ -77.22777, 38.94501 ], [ -77.22794, 38.9439 ], [ -77.22927, 38.94292 ], [ -77.22957, 38.94182 ], [ -77.22897, 38.9417 ], [ -77.22822, 38.94221 ], [ -77.22764, 38.94199 ], [ -77.22703, 38.94279 ], [ -77.22652, 38.94269 ], [ -77.22622, 38.94208 ], [ -77.22528, 38.94278 ], [ -77.22441, 38.94253 ], [ -77.22422, 38.94485 ], [ -77.22673, 38.94347 ], [ -77.22757, 38.94423 ], [ -77.22739, 38.94532 ], [ -77.22638, 38.94596 ], [ -77.22417, 38.94604 ], [ -77.223, 38.94593 ], [ -77.22309, 38.9466 ], [ -77.22225, 38.94699 ], [ -77.22055, 38.9457 ], [ -77.22161, 38.94493 ], [ -77.22284, 38.94484 ], [ -77.22306, 38.94323 ], [ -77.22117, 38.94335 ], [ -77.2219, 38.94423 ], [ -77.22188, 38.94465 ], [ -77.22097, 38.94492 ], [ -77.21963, 38.94333 ], [ -77.21991, 38.94206 ], [ -77.21719, 38.94128 ], [ -77.21672, 38.942 ], [ -77.2159, 38.94176 ], [ -77.21524, 38.94318 ], [ -77.21436, 38.94352 ], [ -77.21393, 38.94283 ], [ -77.21472, 38.94107 ], [ -77.21214, 38.93917 ], [ -77.21288, 38.93868 ], [ -77.21375, 38.93913 ], [ -77.21414, 38.93814 ], [ -77.21499, 38.93776 ], [ -77.21541, 38.93801 ], [ -77.2153, 38.93894 ], [ -77.2165, 38.9391 ], [ -77.21587, 38.93737 ], [ -77.21632, 38.93716 ], [ -77.21753, 38.93745 ], [ -77.21744, 38.93662 ], [ -77.21843, 38.93653 ], [ -77.21838, 38.93614 ], [ -77.21658, 38.93621 ], [ -77.21629, 38.93562 ], [ -77.21526, 38.93523 ], [ -77.2155, 38.93449 ], [ -77.21761, 38.93497 ], [ -77.22031, 38.93498 ], [ -77.22223, 38.93608 ], [ -77.22437, 38.93589 ], [ -77.22594, 38.93676 ], [ -77.22666, 38.93631 ], [ -77.22846, 38.93702 ], [ -77.22954, 38.93685 ], [ -77.22971, 38.93596 ], [ -77.22686, 38.93538 ], [ -77.22633, 38.93474 ], [ -77.22716, 38.93432 ], [ -77.23211, 38.93529 ], [ -77.23217, 38.93252 ], [ -77.23119, 38.93318 ], [ -77.23017, 38.93254 ], [ -77.22802, 38.93248 ], [ -77.22793, 38.93084 ], [ -77.22905, 38.92976 ], [ -77.2301, 38.92967 ], [ -77.23083, 38.92828 ], [ -77.23134, 38.92819 ], [ -77.23313, 38.92829 ], [ -77.23343, 38.92863 ], [ -77.23288, 38.92928 ], [ -77.23351, 38.93116 ], [ -77.23406, 38.93044 ] ], [ [ -77.23228, 38.94356 ], [ -77.23206, 38.94342 ], [ -77.23084, 38.94322 ], [ -77.23228, 38.94356 ] ], [ [ -77.23226, 38.94235 ], [ -77.23179, 38.94225 ], [ -77.2316, 38.94224 ], [ -77.23226, 38.94235 ] ], [ [ -77.23245, 38.94118 ], [ -77.2338, 38.94184 ], [ -77.23365, 38.94333 ], [ -77.23302, 38.94384 ], [ -77.23389, 38.94477 ], [ -77.23423, 38.94112 ], [ -77.23245, 38.94118 ] ], [ [ -77.23074, 38.93823 ], [ -77.23166, 38.93632 ], [ -77.23115, 38.93625 ], [ -77.23084, 38.937 ], [ -77.23001, 38.93727 ], [ -77.22962, 38.93788 ], [ -77.2279, 38.93802 ], [ -77.2267, 38.93898 ], [ -77.22732, 38.93934 ], [ -77.22724, 38.93975 ], [ -77.22582, 38.94033 ], [ -77.22868, 38.93947 ], [ -77.23074, 38.93823 ] ], [ [ -77.23675, 38.93194 ], [ -77.23638, 38.93246 ], [ -77.23577, 38.93276 ], [ -77.23644, 38.9325 ], [ -77.23675, 38.93194 ] ], [ [ -77.2329, 38.93993 ], [ -77.2344, 38.94 ], [ -77.2341, 38.93791 ], [ -77.23362, 38.93864 ], [ -77.23388, 38.93944 ], [ -77.23274, 38.93947 ], [ -77.2329, 38.93993 ] ], [ [ -77.23314, 38.93689 ], [ -77.23429, 38.93681 ], [ -77.23448, 38.93642 ], [ -77.23366, 38.93592 ], [ -77.23371, 38.9355 ], [ -77.23314, 38.93689 ] ], [ [ -77.23807, 38.93783 ], [ -77.23696, 38.93773 ], [ -77.23811, 38.94096 ], [ -77.23807, 38.93783 ] ], [ [ -77.2381, 38.94256 ], [ -77.2366, 38.94121 ], [ -77.23579, 38.93835 ], [ -77.23527, 38.93784 ], [ -77.23585, 38.9403 ], [ -77.23561, 38.94134 ], [ -77.2365, 38.94205 ], [ -77.23598, 38.9427 ], [ -77.23528, 38.94242 ], [ -77.2354, 38.94294 ], [ -77.23755, 38.94295 ], [ -77.2381, 38.94256 ] ], [ [ -77.22078, 38.94114 ], [ -77.21956, 38.94063 ], [ -77.21952, 38.94074 ], [ -77.22078, 38.94114 ] ], [ [ -77.22011, 38.93955 ], [ -77.22065, 38.93904 ], [ -77.22086, 38.93837 ], [ -77.22011, 38.93955 ] ], [ [ -77.2276, 38.94106 ], [ -77.22746, 38.941 ], [ -77.22753, 38.94114 ], [ -77.2276, 38.94106 ] ], [ [ -77.22305, 38.9399 ], [ -77.22285, 38.93998 ], [ -77.22264, 38.94007 ], [ -77.22285, 38.94001 ], [ -77.22305, 38.9399 ] ], [ [ -77.22168, 38.93979 ], [ -77.2213, 38.94013 ], [ -77.2223, 38.94016 ], [ -77.22168, 38.93979 ] ], [ [ -77.22542, 38.93807 ], [ -77.22551, 38.93807 ], [ -77.22548, 38.93804 ], [ -77.22542, 38.93807 ] ], [ [ -77.2235, 38.93833 ], [ -77.22381, 38.93896 ], [ -77.22432, 38.93846 ], [ -77.2235, 38.93833 ] ], [ [ -77.22328, 38.93744 ], [ -77.22335, 38.93775 ], [ -77.22357, 38.93759 ], [ -77.22328, 38.93744 ] ], [ [ -77.2246, 38.93719 ], [ -77.22438, 38.93704 ], [ -77.22432, 38.93729 ], [ -77.2246, 38.93719 ] ], [ [ -77.22572, 38.93914 ], [ -77.22519, 38.9393 ], [ -77.22508, 38.93942 ], [ -77.22572, 38.93914 ] ], [ [ -77.22217, 38.93886 ], [ -77.22226, 38.93893 ], [ -77.2222, 38.93876 ], [ -77.22217, 38.93886 ] ], [ [ -77.22629, 38.94173 ], [ -77.2263, 38.94171 ], [ -77.22629, 38.94166 ], [ -77.22629, 38.94173 ] ], [ [ -77.22423, 38.94196 ], [ -77.22437, 38.94236 ], [ -77.2247, 38.94182 ], [ -77.22423, 38.94196 ] ], [ [ -77.22427, 38.94062 ], [ -77.22251, 38.94124 ], [ -77.22133, 38.94128 ], [ -77.22235, 38.94136 ], [ -77.22427, 38.94062 ] ], [ [ -77.22292, 38.9424 ], [ -77.22293, 38.94234 ], [ -77.22284, 38.94237 ], [ -77.22292, 38.9424 ] ], [ [ -77.22384, 38.94599 ], [ -77.22388, 38.94599 ], [ -77.22384, 38.94597 ], [ -77.22384, 38.94599 ] ], [ [ -77.22026, 38.93615 ], [ -77.22003, 38.93605 ], [ -77.22016, 38.93624 ], [ -77.22026, 38.93615 ] ], [ [ -77.21944, 38.93831 ], [ -77.21885, 38.93896 ], [ -77.21864, 38.9393 ], [ -77.21921, 38.93867 ], [ -77.21944, 38.93831 ] ], [ [ -77.21823, 38.94033 ], [ -77.21681, 38.94017 ], [ -77.21545, 38.94015 ], [ -77.21574, 38.94026 ], [ -77.21823, 38.94033 ] ], [ [ -77.22154, 38.94393 ], [ -77.22156, 38.94395 ], [ -77.22157, 38.94395 ], [ -77.22154, 38.94393 ] ] ] } },
{ "type": "Feature", "properties": { "variant": "T2s", "miles": 1.5 }, "geometry": { "type": "Polygon", "coordinates": [ [ [ -77.24363, 38.92947 ], [ -77.24352, 38.93031 ], [ -77.24408, 38.93112 ], [ -77.24332, 38.93159 ], [ -77.24238, 38.93094 ], [ -77.24107, 38.93169 ], [ -77.24152, 38.93234 ], [ -77.24128, 38.93431 ], [ -77.23869, 38.93438 ], [ -77.23388, 38.93338 ], [ -77.23421, 38.93524 ], [ -77.23576, 38.93452 ], [ -77.23613, 38.93481 ], [ -77.23592, 38.93563 ], [ -77.23675, 38.93536 ], [ -77.23714, 38.93565 ], [ -77.23687, 38.93664 ], [ -77.23739, 38.93665 ], [ -77.23758, 38.93587 ], [ -77.23808, 38.93573 ], [ -77.23856, 38.9359 ], [ -77.23882, 38.9369 ], [ -77.23931, 38.93701 ], [ -77.23964, 38.93703 ], [ -77.23989, 38.93584 ], [ -77.24038, 38.93569 ], [ -77.24105, 38.93624 ], [ -77.24101, 38.93726 ], [ -77.24297, 38.93822 ], [ -77.24274, 38.93684 ], [ -77.24336, 38.93573 ], [ -77.24434, 38.93567 ], [ -77.24543, 38.93685 ], [ -77.24614, 38.93697 ], [ -77.24621, 38.93773 ], [ -77.24562, 38.93814 ], [ -77.24673, 38.93888 ], [ -77.24594, 38.93945 ], [ -77.24495, 38.93919 ], [ -77.24431, 38.9385 ], [ -77.24415, 38.93885 ], [ -77.24835, 38.94108 ], [ -77.24915, 38.94054 ], [ -77.25104, 38.9401 ], [ -77.2515, 38.9403 ], [ -77.25164, 38.9407 ], [ -77.2509, 38.94139 ], [ -77.24983, 38.94403 ], [ -77.24885, 38.94399 ], [ -77.24918, 38.94224 ], [ -77.24752, 38.94197 ], [ -77.24714, 38.943 ], [ -77.24599, 38.94334 ], [ -77.24561, 38.94263 ], [ -77.24612, 38.94227 ], [ -77.24613, 38.94126 ], [ -77.2455, 38.94223 ], [ -77.24421, 38.94262 ], [ -77.24338, 38.94141 ], [ -77.24412, 38.94015 ], [ -77.24343, 38.93978 ], [ -77.24288, 38.94315 ], [ -77.24186, 38.94389 ], [ -77.24085, 38.94368 ], [ -77.24075, 38.94327 ], [ -77.24168, 38.94261 ], [ -77.24192, 38.94074 ], [ -77.24106, 38.94062 ], [ -77.24082, 38.94025 ], [ -77.241, 38.93986 ], [ -77.24203, 38.93966 ], [ -77.24226, 38.93915 ], [ -77.23941, 38.9381 ], [ -77.23972, 38.94034 ], [ -77.2393, 38.9431 ], [ -77.23782, 38.94403 ], [ -77.23528, 38.94409 ], [ -77.23754, 38.94476 ], [ -77.23929, 38.94485 ], [ -77.2404, 38.94545 ], [ -77.24095, 38.94641 ], [ -77.24057, 38.94708 ], [ -77.23963, 38.94687 ], [ -77.23893, 38.94589 ], [ -77.23802, 38.94578 ], [ -77.238, 38.9462 ], [ -77.23925, 38.947 ], [ -77.24005, 38.94831 ], [ -77.24105, 38.9486 ], [ -77.24094, 38.94936 ], [ -77.23867, 38.94957 ], [ -77.23736, 38.95074 ], [ -77.2364, 38.95091 ], [ -77.2361, 38.95058 ], [ -77.23643, 38.94988 ], [ -77.23763, 38.94881 ], [ -77.23868, 38.94846 ], [ -77.23803, 38.94756 ], [ -77.23583, 38.94667 ], [ -77.2357, 38.94627 ], [ -77.23662, 38.94558 ], [ -77.23518, 38.94517 ], [ -77.23564, 38.94607 ], [ -77.23463, 38.94641 ], [ -77.23245, 38.94506 ], [ -77.23132, 38.94502 ], [ -77.23111, 38.94446 ], [ -77.23103, 38.94535 ], [ -77.22999, 38.94558 ], [ -77.22817, 38.94782 ], [ -77.22865, 38.94827 ], [ -77.22794, 38.94944 ], [ -77.22686, 38.94942 ], [ -77.22645, 38.95012 ], [ -77.22683, 38.95108 ], [ -77.22785, 38.95155 ], [ -77.22744, 38.95022 ], [ -77.22875, 38.95002 ], [ -77.22942, 38.95052 ], [ -77.22932, 38.95097 ], [ -77.23108, 38.95187 ], [ -77.22963, 38.95393 ], [ -77.22989, 38.95407 ], [ -77.23175, 38.95228 ], [ -77.23254, 38.95273 ], [ -77.23242, 38.95313 ], [ -77.23018, 38.95535 ], [ -77.22646, 38.95353 ], [ -77.2254, 38.95496 ], [ -77.22698, 38.95678 ], [ -77.22648, 38.95744 ], [ -77.22488, 38.95673 ], [ -77.22441, 38.95613 ], [ -77.22346, 38.95677 ], [ -77.22295, 38.95667 ], [ -77.22266, 38.95632 ], [ -77.223, 38.95569 ], [ -77.22235, 38.95493 ], [ -77.22315, 38.95449 ], [ -77.22385, 38.95479 ], [ -77.22238, 38.95398 ], [ -77.22172, 38.95444 ], [ -77.22092, 38.954 ], [ -77.22211, 38.95234 ], [ -77.22172, 38.95097 ], [ -77.22073, 38.95019 ], [ -77.22085, 38.94978 ], [ -77.22182, 38.94966 ], [ -77.22548, 38.95168 ], [ -77.2251, 38.94985 ], [ -77.22396, 38.94946 ], [ -77.22365, 38.94853 ], [ -77.22495, 38.9472 ], [ -77.22593, 38.94713 ], [ -77.22673, 38.94755 ], [ -77.22718, 38.94704 ], [ -77.22692, 38.94622 ], [ -77.22793, 38.94613 ], [ -77.22858, 38.94555 ], [ -77.22777, 38.94501 ], [ -77.22797, 38.94381 ], [ -77.22746, 38.94403 ], [ -77.22719, 38.94571 ], [ -77.22638, 38.94596 ], [ -77.22417, 38.94604 ], [ -77.223, 38.94593 ], [ -77.22309, 38.9466 ], [ -77.22225, 38.94699 ], [ -77.22164, 38.94638 ], [ -77.22085, 38.94623 ], [ -77.22017, 38.94754 ], [ -77.21965, 38.94763 ], [ -77.21909, 38.947 ], [ -77.21948, 38.94603 ], [ -77.21766, 38.94568 ], [ -77.21471, 38.9444 ], [ -77.2139, 38.94469 ], [ -77.21232, 38.9441 ], [ -77.21183, 38.94493 ], [ -77.21105, 38.94514 ], [ -77.21159, 38.94541 ], [ -77.21135, 38.94615 ], [ -77.2096, 38.9457 ], [ -77.20943, 38.94635 ], [ -77.20845, 38.94637 ], [ -77.20821, 38.94479 ], [ -77.20939, 38.94436 ], [ -77.21009, 38.94314 ], [ -77.2111, 38.9429 ], [ -77.21372, 38.94335 ], [ -77.21298, 38.9426 ], [ -77.21149, 38.94247 ], [ -77.21074, 38.94197 ], [ -77.20975, 38.94185 ], [ -77.2083, 38.94239 ], [ -77.2078, 38.94226 ], [ -77.2075, 38.94131 ], [ -77.20693, 38.94188 ], [ -77.20605, 38.94156 ], [ -77.20683, 38.93998 ], [ -77.20824, 38.93975 ], [ -77.20778, 38.93879 ], [ -77.20804, 38.93842 ], [ -77.20855, 38.93831 ], [ -77.20942, 38.93892 ], [ -77.20961, 38.9383 ], [ -77.20863, 38.93772 ], [ -77.20851, 38.93677 ], [ -77.2063, 38.93573 ], [ -77.20585, 38.93505 ], [ -77.20692, 38.93475 ], [ -77.20975, 38.93615 ], [ -77.21016, 38.9356 ], [ -77.2116, 38.93568 ], [ -77.21204, 38.93591 ], [ -77.21198, 38.93724 ], [ -77.2129, 38.93757 ], [ -77.21219, 38.93529 ], [ -77.21034, 38.9353 ], [ -77.21019, 38.9349 ], [ -77.21103, 38.93415 ], [ -77.21536, 38.93431 ], [ -77.21761, 38.93497 ], [ -77.21995, 38.93491 ], [ -77.22223, 38.93608 ], [ -77.2242, 38.93586 ], [ -77.22594, 38.93676 ], [ -77.22666, 38.93631 ], [ -77.22846, 38.93702 ], [ -77.22954, 38.93685 ], [ -77.22971, 38.93596 ], [ -77.22686, 38.93538 ], [ -77.22633, 38.93474 ], [ -77.22716, 38.93432 ], [ -77.23211, 38.93529 ], [ -77.23234, 38.93359 ], [ -77.23018, 38.93381 ], [ -77.22969, 38.93315 ], [ -77.23012, 38.93254 ], [ -77.22922, 38.93258 ], [ -77.22926, 38.93318 ], [ -77.22865, 38.93373 ], [ -77.22469, 38.93383 ], [ -77.22321, 38.93308 ], [ -77.22259, 38.93378 ], [ -77.22093, 38.93396 ], [ -77.22021, 38.93345 ], [ -77.22089, 38.93288 ], [ -77.22065, 38.93227 ], [ -77.21942, 38.93148 ], [ -77.21992, 38.93097 ], [ -77.22006, 38.92986 ], [ -77.22054, 38.92968 ], [ -77.22275, 38.92976 ], [ -77.22301, 38.93082 ], [ -77.22437, 38.93095 ], [ -77.22418, 38.92993 ], [ -77.22513, 38.92923 ], [ -77.22539, 38.92848 ], [ -77.22605, 38.92833 ], [ -77.22561, 38.92648 ], [ -77.22664, 38.92592 ], [ -77.22712, 38.92515 ], [ -77.22611, 38.92433 ], [ -77.2258, 38.9233 ], [ -77.22691, 38.92298 ], [ -77.22785, 38.924 ], [ -77.23141, 38.92575 ], [ -77.23211, 38.92534 ], [ -77.23077, 38.92397 ], [ -77.23091, 38.92321 ], [ -77.23142, 38.92311 ], [ -77.23226, 38.92371 ], [ -77.23375, 38.92301 ], [ -77.23421, 38.92321 ], [ -77.23423, 38.92433 ], [ -77.23638, 38.92327 ], [ -77.23756, 38.92338 ], [ -77.23746, 38.92414 ], [ -77.236, 38.92499 ], [ -77.23667, 38.92594 ], [ -77.23539, 38.9269 ], [ -77.237, 38.92836 ], [ -77.2375, 38.92834 ], [ -77.23707, 38.92748 ], [ -77.2379, 38.92708 ], [ -77.23905, 38.92826 ], [ -77.23978, 38.92822 ], [ -77.23816, 38.92629 ], [ -77.23893, 38.92581 ], [ -77.24363, 38.92947 ] ], [ [ -77.23164, 38.94345 ], [ -77.23228, 38.94356 ], [ -77.23084, 38.94322 ], [ -77.23164, 38.94345 ] ], [ [ -77.23166, 38.93632 ], [ -77.23115, 38.93625 ], [ -77.23084, 38.937 ], [ -77.23001, 38.93727 ], [ -77.22962, 38.93788 ], [ -77.2279, 38.93802 ], [ -77.2267, 38.93898 ], [ -77.22732, 38.93934 ], [ -77.22724, 38.93975 ], [ -77.22582, 38.94033 ], [ -77.22868, 38.93947 ], [ -77.23067, 38.93835 ], [ -77.23166, 38.93632 ] ], [ [ -77.23368, 38.931 ], [ -77.23388, 38.93032 ], [ -77.2334, 38.93059 ], [ -77.23368, 38.931 ] ], [ [ -77.23851, 38.93198 ], [ -77.23766, 38.93302 ], [ -77.23912, 38.93319 ], [ -77.2392, 38.93215 ], [ -77.23851, 38.93198 ] ], [ [ -77.23872, 38.93025 ], [ -77.24029, 38.9304 ], [ -77.24047, 38.92981 ], [ -77.24132, 38.92985 ], [ -77.24081, 38.92933 ], [ -77.23934, 38.92965 ], [ -77.23875, 38.92937 ], [ -77.23695, 38.92944 ], [ -77.23534, 38.93071 ], [ -77.23813, 38.93088 ], [ -77.23872, 38.93025 ] ], [ [ -77.23502, 38.92576 ], [ -77.23475, 38.92548 ], [ -77.23419, 38.9257 ], [ -77.23454, 38.92605 ], [ -77.23502, 38.92576 ] ], [ [ -77.23623, 38.93257 ], [ -77.23577, 38.93276 ], [ -77.23644, 38.9325 ], [ -77.23696, 38.93195 ], [ -77.23623, 38.93257 ] ], [ [ -77.23357, 38.92728 ], [ -77.23359, 38.92728 ], [ -77.23358, 38.92726 ], [ -77.23357, 38.92728 ] ], [ [ -77.23352, 38.92862 ], [ -77.23375, 38.92862 ], [ -77.23378, 38.92842 ], [ -77.23352, 38.92862 ] ], [ [ -77.23807, 38.93783 ], [ -77.23696, 38.93773 ], [ -77.23779, 38.94063 ], [ -77.23816, 38.94089 ], [ -77.23807, 38.93783 ] ], [ [ -77.23585, 38.9403 ], [ -77.23561, 38.94134 ], [ -77.2365, 38.94205 ], [ -77.23598, 38.9427 ], [ -77.23528, 38.94242 ], [ -77.2354, 38.94294 ], [ -77.23742, 38.94299 ], [ -77.23812, 38.94223 ], [ -77.2366, 38.94121 ], [ -77.23579, 38.93835 ], [ -77.23527, 38.93784 ], [ -77.23585, 38.9403 ] ], [ [ -77.23371, 38.9355 ], [ -77.23344, 38.93558 ], [ -77.23286, 38.93692 ], [ -77.23439, 38.93659 ], [ -77.23371, 38.9355 ] ], [ [ -77.24403, 38.93728 ], [ -77.24416, 38.93754 ], [ -77.24414, 38.93725 ], [ -77.24403, 38.93728 ] ], [ [ -77.23423, 38.94112 ], [ -77.23348, 38.94093 ], [ -77.23245, 38.94118 ], [ -77.23363, 38.94145 ], [ -77.2338, 38.94184 ], [ -77.23365, 38.94333 ], [ -77.23302, 38.94384 ], [ -77.23391, 38.94474 ], [ -77.23423, 38.94112 ] ], [ [ -77.2344, 38.94 ], [ -77.2341, 38.93791 ], [ -77.23362, 38.93864 ], [ -77.23388, 38.93944 ], [ -77.23274, 38.93947 ], [ -77.23302, 38.93991 ], [ -77.2344, 38.94 ] ], [ [ -77.23091, 38.92764 ], [ -77.22974, 38.92832 ], [ -77.23101, 38.92821 ], [ -77.23091, 38.92764 ] ], [ [ -77.2316, 38.94224 ], [ -77.23231, 38.94235 ], [ -77.23232, 38.94226 ], [ -77.2316, 38.94224 ] ], [ [ -77.22713, 38.93254 ], [ -77.22433, 38.93204 ], [ -77.22487, 38.93276 ], [ -77.22784, 38.9327 ], [ -77.22713, 38.93254 ] ], [ [ -77.22554, 38.93034 ], [ -77.22594, 38.93121 ], [ -77.22643, 38.9313 ], [ -77.22642, 38.92964 ], [ -77.22554, 38.93034 ] ], [ [ -77.2213, 38.93087 ], [ -77.22163, 38.93085 ], [ -77.22162, 38.93072 ], [ -77.2213, 38.93087 ] ], [ [ -77.2253, 38.9529 ], [ -77.22323, 38.95177 ], [ -77.22282, 38.95238 ], [ -77.22305, 38.95303 ], [ -77.2247, 38.95382 ], [ -77.2253, 38.9529 ] ], [ [ -77.22386, 38.94599 ], [ -77.22388, 38.94599 ], [ -77.22384, 38.94597 ], [ -77.22386, 38.94599 ] ], [ [ -77.22616, 38.94362 ], [ -77.22681, 38.94275 ], [ -77.22622, 38.94208 ], [ -77.22528, 38.94278 ], [ -77.22441, 38.94253 ], [ -77.2243, 38.94484 ], [ -77.22616, 38.94362 ] ], [ [ -77.22423, 38.94196 ], [ -77.22437, 38.94236 ], [ -77.22436, 38.94209 ], [ -77.2247, 38.94182 ], [ -77.22423, 38.94196 ] ], [ [ -77.22417, 38.94053 ], [ -77.22322, 38.94106 ], [ -77.22133, 38.94128 ], [ -77.22228, 38.94137 ], [ -77.22439, 38.94075 ], [ -77.22417, 38.94053 ] ], [ [ -77.22432, 38.93846 ], [ -77.2235, 38.93833 ], [ -77.22381, 38.93896 ], [ -77.22432, 38.93846 ] ], [ [ -77.22335, 38.93775 ], [ -77.22357, 38.93759 ], [ -77.22328, 38.93744 ], [ -77.22335, 38.93775 ] ], [ [ -77.2246, 38.93719 ], [ -77.22438, 38.93704 ], [ -77.22432, 38.93729 ], [ -77.2246, 38.93719 ] ], [ [ -77.22957, 38.94182 ], [ -77.22897, 38.9417 ], [ -77.22842, 38.94227 ], [ -77.22902, 38.94297 ], [ -77.22957, 38.94182 ] ], [ [ -77.22746, 38.941 ], [ -77.22753, 38.94114 ], [ -77.2276, 38.94106 ], [ -77.22746, 38.941 ] ], [ [ -77.22941, 38.95218 ], [ -77.22913, 38.95207 ], [ -77.2283, 38.95321 ], [ -77.22941, 38.95218 ] ], [ [ -77.2263, 38.94171 ], [ -77.22629, 38.94166 ], [ -77.22629, 38.94173 ], [ -77.2263, 38.94171 ] ], [ [ -77.22508, 38.93942 ], [ -77.22572, 38.93914 ], [ -77.22547, 38.93917 ], [ -77.22508, 38.93942 ] ], [ [ -77.2269, 38.95236 ], [ -77.22716, 38.9526 ], [ -77.22722, 38.95253 ], [ -77.2269, 38.95236 ] ], [ [ -77.22504, 38.94875 ], [ -77.22555, 38.94905 ], [ -77.22592, 38.94852 ], [ -77.22547, 38.9482 ], [ -77.22504, 38.94875 ] ], [ [ -77.22003, 38.93605 ], [ -77.22016, 38.93624 ], [ -77.22026, 38.93615 ], [ -77.22003, 38.93605 ] ], [ [ -77.21743, 38.93606 ], [ -77.21717, 38.93622 ], [ -77.21735, 38.93632 ], [ -77.21743, 38.93606 ] ], [ [ -77.21617, 38.93629 ], [ -77.21613, 38.9367 ], [ -77.21656, 38.93619 ], [ -77.21617, 38.93629 ] ], [ [ -77.21599, 38.93731 ], [ -77.21652, 38.93719 ], [ -77.21611, 38.93684 ], [ -77.21599, 38.93731 ] ], [ [ -77.2163, 38.94339 ], [ -77.21556, 38.94248 ], [ -77.21516, 38.94337 ], [ -77.2163, 38.94373 ], [ -77.2163, 38.94339 ] ], [ [ -77.2187, 38.94418 ], [ -77.21884, 38.94348 ], [ -77.21703, 38.94244 ], [ -77.2187, 38.94418 ] ], [ [ -77.21721, 38.94019 ], [ -77.21823, 38.94033 ], [ -77.21715, 38.94017 ], [ -77.21545, 38.94015 ], [ -77.21721, 38.94019 ] ], [ [ -77.21581, 38.93793 ], [ -77.21589, 38.93795 ], [ -77.21576, 38.9378 ], [ -77.21581, 38.93793 ] ], [ [ -77.22292, 38.9424 ], [ -77.22297, 38.94245 ], [ -77.22293, 38.94234 ], [ -77.22292, 38.9424 ] ], [ [ -77.22117, 38.94335 ], [ -77.2219, 38.94423 ], [ -77.22151, 38.94497 ], [ -77.22284, 38.94484 ], [ -77.22306, 38.94323 ], [ -77.22117, 38.94335 ] ], [ [ -77.22004, 38.93962 ], [ -77.22053, 38.93906 ], [ -77.22086, 38.93837 ], [ -77.22004, 38.93962 ] ], [ [ -77.21944, 38.93831 ], [ -77.21864, 38.9393 ], [ -77.21865, 38.9393 ], [ -77.21944, 38.93831 ] ], [ [ -77.21952, 38.94074 ], [ -77.22084, 38.94116 ], [ -77.22026, 38.94093 ], [ -77.21952, 38.94074 ] ], [ [ -77.22293, 38.93997 ], [ -77.22305, 38.9399 ], [ -77.22264, 38.94007 ], [ -77.22293, 38.93997 ] ], [ [ -77.22184, 38.94024 ], [ -77.2223, 38.94016 ], [ -77.22168, 38.93979 ], [ -77.2214, 38.94017 ], [ -77.22184, 38.94024 ] ], [ [ -77.21745, 38.94131 ], [ -77.21962, 38.94259 ], [ -77.21991, 38.94206 ], [ -77.21745, 38.94131 ] ], [ [ -77.21881, 38.94465 ], [ -77.21869, 38.94425 ], [ -77.21802, 38.94462 ], [ -77.21881, 38.94465 ] ], [ [ -77.21449, 38.93567 ], [ -77.21485, 38.93594 ], [ -77.21502, 38.93537 ], [ -77.21449, 38.93567 ] ], [ [ -77.21181, 38.94047 ], [ -77.2118, 38.94124 ], [ -77.21244, 38.94063 ], [ -77.21323, 38.9406 ], [ -77.21356, 38.94092 ], [ -77.21321, 38.94152 ], [ -77.21425, 38.94215 ], [ -77.21472, 38.94107 ], [ -77.21277, 38.94013 ], [ -77.21181, 38.94047 ] ], [ [ -77.21091, 38.93942 ], [ -77.2113, 38.93941 ], [ -77.21086, 38.93884 ], [ -77.21091, 38.93942 ] ], [ [ -77.21027, 38.94066 ], [ -77.21003, 38.94076 ], [ -77.21025, 38.94084 ], [ -77.21027, 38.94066 ] ], [ [ -77.21399, 38.9385 ], [ -77.21397, 38.93862 ], [ -77.21416, 38.9381 ], [ -77.21399, 38.9385 ] ], [ [ -77.21476, 38.9365 ], [ -77.21477, 38.93644 ], [ -77.21471, 38.93648 ], [ -77.21476, 38.9365 ] ], [ [ -77.21422, 38.93793 ], [ -77.21439, 38.93755 ], [ -77.21429, 38.93758 ], [ -77.21422, 38.93793 ] ], [ [ -77.21087, 38.94511 ], [ -77.21064, 38.94487 ], [ -77.21076, 38.94509 ], [ -77.21087, 38.94511 ] ] ] } }
]
}
