{
"type": "FeatureCollection",
"name": "180",
"crs": { "type": "name", "properties": { "name": "urn:ogc:def:crs:OGC:1.3:CRS84" } },
"xy_coordinate_resolution": 1e-05,
"features": [
{ "type": "Feature", "properties": { "variant": "T0", "miles": 1.0 }, "geometry": { "type": "Polygon", "coordinates": [ [ [ -77.15021, 38.74356 ], [ -77.15425, 38.74272 ], [ -77.15519, 38.74317 ], [ -77.15513, 38.74358 ], [ -77.15411, 38.74398 ], [ -77.1546, 38.74439 ], [ -77.15446, 38.74478 ], [ -77.15373, 38.74502 ], [ -77.15291, 38.74601 ], [ -77.15203, 38.74568 ], [ -77.15234, 38.74436 ], [ -77.1502, 38.74492 ], [ -77.15038, 38.74556 ], [ -77.14957, 38.74655 ], [ -77.14821, 38.74604 ], [ -77.14781, 38.74728 ], [ -77.14941, 38.748 ], [ -77.14967, 38.74874 ], [ -77.14873, 38.74894 ], [ -77.14758, 38.74842 ], [ -77.14714, 38.75002 ], [ -77.14743, 38.75059 ], [ -77.14564, 38.75309 ], [ -77.14718, 38.75349 ], [ -77.1477, 38.75482 ], [ -77.149, 38.75285 ], [ -77.14991, 38.75232 ], [ -77.15117, 38.75304 ], [ -77.152, 38.75283 ], [ -77.1532, 38.75414 ], [ -77.1528, 38.75484 ], [ -77.15162, 38.75484 ], [ -77.15148, 38.75435 ], [ -77.14981, 38.75549 ], [ -77.14686, 38.75655 ], [ -77.15029, 38.76078 ], [ -77.15126, 38.76099 ], [ -77.15126, 38.76147 ], [ -77.15035, 38.76219 ], [ -77.14933, 38.7624 ], [ -77.14657, 38.75814 ], [ -77.14652, 38.75937 ], [ -77.14447, 38.75981 ], [ -77.14489, 38.76013 ], [ -77.14448, 38.76112 ], [ -77.14217, 38.76105 ], [ -77.14141, 38.76165 ], [ -77.14095, 38.76146 ], [ -77.14085, 38.7607 ], [ -77.13979, 38.76036 ], [ -77.14038, 38.75923 ], [ -77.13941, 38.75851 ], [ -77.14016, 38.75802 ], [ -77.14202, 38.75856 ], [ -77.14314, 38.75748 ], [ -77.14257, 38.75663 ], [ -77.14177, 38.75686 ], [ -77.14122, 38.75652 ], [ -77.14027, 38.75688 ], [ -77.13981, 38.75667 ], [ -77.13981, 38.7561 ], [ -77.13895, 38.75601 ], [ -77.13869, 38.75655 ], [ -77.13966, 38.75697 ], [ -77.13934, 38.75769 ], [ -77.13745, 38.75819 ], [ -77.13712, 38.75786 ], [ -77.13742, 38.75699 ], [ -77.13645, 38.75796 ], [ -77.13562, 38.75755 ], [ -77.13659, 38.75559 ], [ -77.13512, 38.75484 ], [ -77.13521, 38.75432 ], [ -77.13426, 38.75413 ], [ -77.13405, 38.75375 ], [ -77.13472, 38.7532 ], [ -77.13631, 38.75362 ], [ -77.13681, 38.75239 ], [ -77.13476, 38.75257 ], [ -77.13398, 38.7521 ], [ -77.13412, 38.7517 ], [ -77.13496, 38.75144 ], [ -77.13535, 38.75061 ], [ -77.13705, 38.75118 ], [ -77.13544, 38.74779 ], [ -77.13632, 38.74746 ], [ -77.13742, 38.74924 ], [ -77.13865, 38.74889 ], [ -77.14063, 38.75 ], [ -77.14149, 38.74897 ], [ -77.14114, 38.7484 ], [ -77.14141, 38.74799 ], [ -77.14256, 38.74814 ], [ -77.14426, 38.74705 ], [ -77.14219, 38.74552 ], [ -77.14201, 38.74351 ], [ -77.14444, 38.74235 ], [ -77.14851, 38.7443 ], [ -77.14886, 38.74413 ], [ -77.1468, 38.74135 ], [ -77.14675, 38.74061 ], [ -77.14717, 38.74036 ], [ -77.14781, 38.74038 ], [ -77.15021, 38.74356 ] ], [ [ -77.14373, 38.75373 ], [ -77.14562, 38.7506 ], [ -77.14594, 38.74908 ], [ -77.14518, 38.74859 ], [ -77.14534, 38.74775 ], [ -77.14291, 38.74933 ], [ -77.14074, 38.75178 ], [ -77.14373, 38.75373 ] ], [ [ -77.14544, 38.7463 ], [ -77.14734, 38.74499 ], [ -77.14434, 38.74344 ], [ -77.14379, 38.74423 ], [ -77.14389, 38.74555 ], [ -77.14544, 38.7463 ] ], [ [ -77.14613, 38.7542 ], [ -77.14544, 38.75452 ], [ -77.14587, 38.75503 ], [ -77.14629, 38.75478 ], [ -77.14613, 38.7542 ] ], [ [ -77.13952, 38.75449 ], [ -77.1407, 38.75456 ], [ -77.14104, 38.75414 ], [ -77.14101, 38.7535 ], [ -77.13989, 38.75278 ], [ -77.13897, 38.75408 ], [ -77.13952, 38.75449 ] ] ] } },
{ "type": "Feature", "properties": { "variant": "T0", "miles": 1.5 }, "geometry": { "type": "Polygon", "coordinates": [ [ [ -77.16158, 38.74041 ], [ -77.16316, 38.73951 ], [ -77.16391, 38.73979 ], [ -77.16395, 38.74055 ], [ -77.1629, 38.74133 ], [ -77.16359, 38.74181 ], [ -77.1635, 38.74256 ], [ -77.15999, 38.74411 ], [ -77.15834, 38.74323 ], [ -77.15589, 38.74359 ], [ -77.1558, 38.74455 ], [ -77.15455, 38.74491 ], [ -77.15396, 38.74561 ], [ -77.15395, 38.74684 ], [ -77.1531, 38.74779 ], [ -77.15365, 38.74843 ], [ -77.15325, 38.74926 ], [ -77.15229, 38.74913 ], [ -77.15164, 38.74808 ], [ -77.15032, 38.74772 ], [ -77.1502, 38.74732 ], [ -77.15164, 38.74634 ], [ -77.15234, 38.74436 ], [ -77.1502, 38.74492 ], [ -77.15038, 38.74556 ], [ -77.14957, 38.74655 ], [ -77.14821, 38.74604 ], [ -77.14781, 38.74728 ], [ -77.14941, 38.748 ], [ -77.14967, 38.74874 ], [ -77.14873, 38.74894 ], [ -77.14758, 38.74842 ], [ -77.14714, 38.75002 ], [ -77.14743, 38.75059 ], [ -77.14564, 38.75309 ], [ -77.14701, 38.75336 ], [ -77.1477, 38.75482 ], [ -77.14806, 38.75474 ], [ -77.14815, 38.75409 ], [ -77.14949, 38.75245 ], [ -77.15052, 38.75251 ], [ -77.15099, 38.75297 ], [ -77.1519, 38.75191 ], [ -77.1536, 38.75187 ], [ -77.15729, 38.75089 ], [ -77.15672, 38.74974 ], [ -77.15725, 38.74922 ], [ -77.15841, 38.74985 ], [ -77.16016, 38.74904 ], [ -77.16102, 38.74941 ], [ -77.1588, 38.75261 ], [ -77.15783, 38.75278 ], [ -77.15692, 38.75214 ], [ -77.15293, 38.75346 ], [ -77.15441, 38.75425 ], [ -77.1545, 38.75501 ], [ -77.15592, 38.75404 ], [ -77.15746, 38.75469 ], [ -77.1562, 38.75712 ], [ -77.15532, 38.75736 ], [ -77.15423, 38.75683 ], [ -77.1539, 38.75774 ], [ -77.15698, 38.75844 ], [ -77.15723, 38.75881 ], [ -77.15672, 38.75954 ], [ -77.15623, 38.7597 ], [ -77.15457, 38.759 ], [ -77.15398, 38.75983 ], [ -77.15209, 38.75953 ], [ -77.15189, 38.75798 ], [ -77.15136, 38.75766 ], [ -77.1517, 38.75703 ], [ -77.15134, 38.75552 ], [ -77.15051, 38.75503 ], [ -77.14686, 38.75655 ], [ -77.14922, 38.75933 ], [ -77.14949, 38.75895 ], [ -77.15046, 38.75908 ], [ -77.15222, 38.76175 ], [ -77.15339, 38.76091 ], [ -77.15414, 38.76114 ], [ -77.15442, 38.76167 ], [ -77.15352, 38.76272 ], [ -77.15386, 38.76301 ], [ -77.15452, 38.76226 ], [ -77.15544, 38.76197 ], [ -77.15731, 38.76277 ], [ -77.15751, 38.76315 ], [ -77.15685, 38.76432 ], [ -77.15767, 38.76475 ], [ -77.15767, 38.76516 ], [ -77.1573, 38.76546 ], [ -77.1564, 38.76534 ], [ -77.15564, 38.76712 ], [ -77.15452, 38.76698 ], [ -77.15478, 38.76587 ], [ -77.15189, 38.76455 ], [ -77.15279, 38.76559 ], [ -77.1522, 38.76686 ], [ -77.15308, 38.76705 ], [ -77.15306, 38.76782 ], [ -77.15163, 38.76812 ], [ -77.14927, 38.76772 ], [ -77.14862, 38.7684 ], [ -77.1477, 38.76812 ], [ -77.14764, 38.76718 ], [ -77.14682, 38.7667 ], [ -77.1471, 38.76614 ], [ -77.14674, 38.76528 ], [ -77.14721, 38.76481 ], [ -77.14603, 38.76472 ], [ -77.14583, 38.76345 ], [ -77.14772, 38.76301 ], [ -77.14818, 38.76379 ], [ -77.15055, 38.7632 ], [ -77.14906, 38.76229 ], [ -77.14877, 38.76113 ], [ -77.14657, 38.75814 ], [ -77.14652, 38.75937 ], [ -77.14516, 38.75959 ], [ -77.1462, 38.76048 ], [ -77.14571, 38.76114 ], [ -77.14501, 38.76118 ], [ -77.14476, 38.76322 ], [ -77.14156, 38.76428 ], [ -77.14064, 38.76521 ], [ -77.1416, 38.76627 ], [ -77.14137, 38.76744 ], [ -77.1421, 38.76845 ], [ -77.14184, 38.76881 ], [ -77.14065, 38.76869 ], [ -77.13974, 38.76773 ], [ -77.13795, 38.76851 ], [ -77.13672, 38.76751 ], [ -77.13698, 38.76649 ], [ -77.13801, 38.76535 ], [ -77.1375, 38.76515 ], [ -77.13666, 38.76589 ], [ -77.13583, 38.76572 ], [ -77.13524, 38.76455 ], [ -77.13555, 38.76421 ], [ -77.13659, 38.76425 ], [ -77.13645, 38.76362 ], [ -77.13589, 38.7629 ], [ -77.13493, 38.76254 ], [ -77.13669, 38.75986 ], [ -77.13466, 38.76056 ], [ -77.12792, 38.76467 ], [ -77.12696, 38.76454 ], [ -77.12678, 38.76331 ], [ -77.12844, 38.76257 ], [ -77.12912, 38.76273 ], [ -77.12781, 38.76153 ], [ -77.1278, 38.76076 ], [ -77.12877, 38.76075 ], [ -77.13021, 38.76206 ], [ -77.13183, 38.761 ], [ -77.13103, 38.7603 ], [ -77.13084, 38.76085 ], [ -77.13033, 38.76096 ], [ -77.12916, 38.76006 ], [ -77.12832, 38.75997 ], [ -77.12814, 38.75958 ], [ -77.1289, 38.75872 ], [ -77.13004, 38.75806 ], [ -77.13053, 38.75823 ], [ -77.13289, 38.76031 ], [ -77.13371, 38.75977 ], [ -77.13653, 38.75596 ], [ -77.13659, 38.75559 ], [ -77.1351, 38.75459 ], [ -77.13249, 38.75389 ], [ -77.12893, 38.75206 ], [ -77.12867, 38.75088 ], [ -77.13081, 38.74921 ], [ -77.13046, 38.74855 ], [ -77.1308, 38.74827 ], [ -77.13025, 38.74764 ], [ -77.13105, 38.74717 ], [ -77.13107, 38.74651 ], [ -77.13185, 38.74642 ], [ -77.1313, 38.74585 ], [ -77.13146, 38.74546 ], [ -77.13264, 38.74456 ], [ -77.13368, 38.74504 ], [ -77.13356, 38.74376 ], [ -77.13435, 38.74281 ], [ -77.14256, 38.74814 ], [ -77.14426, 38.74705 ], [ -77.14262, 38.74605 ], [ -77.14181, 38.74431 ], [ -77.13569, 38.74136 ], [ -77.13541, 38.74063 ], [ -77.13635, 38.74042 ], [ -77.14181, 38.74312 ], [ -77.14217, 38.74194 ], [ -77.14367, 38.7409 ], [ -77.14438, 38.74142 ], [ -77.1442, 38.74181 ], [ -77.1433, 38.74256 ], [ -77.14319, 38.74284 ], [ -77.14388, 38.74241 ], [ -77.14476, 38.7424 ], [ -77.14851, 38.7443 ], [ -77.14886, 38.74413 ], [ -77.14666, 38.74098 ], [ -77.14669, 38.73992 ], [ -77.14715, 38.73972 ], [ -77.14782, 38.73986 ], [ -77.15021, 38.74356 ], [ -77.15362, 38.74285 ], [ -77.15369, 38.74214 ], [ -77.15415, 38.74193 ], [ -77.15496, 38.74255 ], [ -77.15888, 38.74173 ], [ -77.16044, 38.74106 ], [ -77.16009, 38.73966 ], [ -77.16078, 38.73912 ], [ -77.16127, 38.73928 ], [ -77.16158, 38.74041 ] ], [ [ -77.14373, 38.75373 ], [ -77.14562, 38.7506 ], [ -77.14594, 38.74908 ], [ -77.14518, 38.74859 ], [ -77.14534, 38.74775 ], [ -77.14291, 38.74933 ], [ -77.14074, 38.75178 ], [ -77.14373, 38.75373 ] ], [ [ -77.14544, 38.7463 ], [ -77.14734, 38.74499 ], [ -77.14434, 38.74344 ], [ -77.14379, 38.74423 ], [ -77.14389, 38.74555 ], [ -77.14544, 38.7463 ] ], [ [ -77.16076, 38.74263 ], [ -77.16133, 38.74242 ], [ -77.16116, 38.74217 ], [ -77.16074, 38.74232 ], [ -77.16076, 38.74263 ] ], [ [ -77.15557, 38.76306 ], [ -77.15501, 38.76369 ], [ -77.15552, 38.76402 ], [ -77.15595, 38.76323 ], [ -77.15557, 38.76306 ] ], [ [ -77.1377, 38.76165 ], [ -77.13959, 38.76103 ], [ -77.13812, 38.76069 ], [ -77.13753, 38.76126 ], [ -77.1377, 38.76165 ] ], [ [ -77.13906, 38.75929 ], [ -77.13986, 38.75994 ], [ -77.14038, 38.75923 ], [ -77.13964, 38.75949 ], [ -77.13906, 38.75929 ] ], [ [ -77.13739, 38.74917 ], [ -77.13764, 38.74925 ], [ -77.13767, 38.74916 ], [ -77.13739, 38.74917 ] ], [ [ -77.13838, 38.74885 ], [ -77.14063, 38.75 ], [ -77.14149, 38.74897 ], [ -77.14127, 38.74874 ], [ -77.14061, 38.74925 ], [ -77.14009, 38.74917 ], [ -77.13994, 38.74837 ], [ -77.13935, 38.74795 ], [ -77.13838, 38.74885 ] ], [ [ -77.14086, 38.76186 ], [ -77.14078, 38.76112 ], [ -77.14024, 38.76114 ], [ -77.14086, 38.76186 ] ], [ [ -77.14207, 38.75851 ], [ -77.14314, 38.75748 ], [ -77.14257, 38.75663 ], [ -77.14087, 38.75773 ], [ -77.14093, 38.75823 ], [ -77.14207, 38.75851 ] ], [ [ -77.14009, 38.7568 ], [ -77.13947, 38.75615 ], [ -77.13986, 38.757 ], [ -77.14009, 38.7568 ] ], [ [ -77.1407, 38.75456 ], [ -77.14101, 38.7535 ], [ -77.13989, 38.75278 ], [ -77.13897, 38.75408 ], [ -77.13941, 38.75451 ], [ -77.1407, 38.75456 ] ], [ [ -77.14038, 38.76328 ], [ -77.14041, 38.76341 ], [ -77.14049, 38.76331 ], [ -77.14038, 38.76328 ] ], [ [ -77.13737, 38.75705 ], [ -77.13735, 38.75723 ], [ -77.13742, 38.75699 ], [ -77.13737, 38.75705 ] ], [ [ -77.13165, 38.75022 ], [ -77.13181, 38.75032 ], [ -77.13182, 38.75019 ], [ -77.13165, 38.75022 ] ], [ [ -77.13346, 38.74954 ], [ -77.13333, 38.74945 ], [ -77.13332, 38.74958 ], [ -77.13346, 38.74954 ] ], [ [ -77.13424, 38.74833 ], [ -77.13417, 38.74824 ], [ -77.1341, 38.74838 ], [ -77.13424, 38.74833 ] ] ] } },
{ "type": "Feature", "properties": { "variant": "T0", "miles": 2.0 }, "geometry": { "type": "Polygon", "coordinates": [ [ [ -77.16982, 38.73496 ], [ -77.17004, 38.7357 ], [ -77.1687, 38.73807 ], [ -77.16782, 38.73884 ], [ -77.16566, 38.73975 ], [ -77.1663, 38.74035 ], [ -77.16617, 38.74098 ], [ -77.16703, 38.74131 ], [ -77.16842, 38.74107 ], [ -77.17002, 38.74225 ], [ -77.17127, 38.74231 ], [ -77.17149, 38.74269 ], [ -77.17006, 38.74391 ], [ -77.16724, 38.74421 ], [ -77.16737, 38.746 ], [ -77.16696, 38.74626 ], [ -77.16592, 38.74595 ], [ -77.16503, 38.74383 ], [ -77.1631, 38.74403 ], [ -77.16043, 38.74499 ], [ -77.15834, 38.74323 ], [ -77.15589, 38.74359 ], [ -77.1558, 38.74455 ], [ -77.15455, 38.74491 ], [ -77.15396, 38.74561 ], [ -77.15395, 38.74684 ], [ -77.1531, 38.74779 ], [ -77.15356, 38.74803 ], [ -77.15353, 38.74891 ], [ -77.15274, 38.74935 ], [ -77.15164, 38.74808 ], [ -77.15032, 38.74772 ], [ -77.1502, 38.74732 ], [ -77.15164, 38.74634 ], [ -77.15234, 38.74436 ], [ -77.1502, 38.74492 ], [ -77.15038, 38.74556 ], [ -77.14957, 38.74655 ], [ -77.14821, 38.74604 ], [ -77.14781, 38.74728 ], [ -77.14941, 38.748 ], [ -77.14967, 38.74874 ], [ -77.14873, 38.74894 ], [ -77.14758, 38.74842 ], [ -77.14714, 38.75002 ], [ -77.14743, 38.75059 ], [ -77.14564, 38.75309 ], [ -77.14718, 38.75349 ], [ -77.1477, 38.75482 ], [ -77.14949, 38.75245 ], [ -77.15052, 38.75251 ], [ -77.15099, 38.75297 ], [ -77.1519, 38.75191 ], [ -77.1536, 38.75187 ], [ -77.15729, 38.75089 ], [ -77.15677, 38.7501 ], [ -77.15505, 38.74932 ], [ -77.1548, 38.74896 ], [ -77.15541, 38.74837 ], [ -77.1562, 38.74847 ], [ -77.15841, 38.74985 ], [ -77.15957, 38.74922 ], [ -77.15896, 38.74876 ], [ -77.15944, 38.7481 ], [ -77.16078, 38.74798 ], [ -77.16092, 38.74898 ], [ -77.16136, 38.74902 ], [ -77.16143, 38.74847 ], [ -77.16236, 38.74824 ], [ -77.16289, 38.74924 ], [ -77.16356, 38.74892 ], [ -77.16517, 38.74957 ], [ -77.16599, 38.74928 ], [ -77.16725, 38.75007 ], [ -77.16728, 38.75048 ], [ -77.16648, 38.7511 ], [ -77.16776, 38.75141 ], [ -77.16922, 38.75125 ], [ -77.16974, 38.7517 ], [ -77.16871, 38.75315 ], [ -77.16745, 38.75328 ], [ -77.16661, 38.75242 ], [ -77.16538, 38.75417 ], [ -77.16447, 38.75443 ], [ -77.16411, 38.75412 ], [ -77.16449, 38.75311 ], [ -77.16353, 38.75229 ], [ -77.16363, 38.75177 ], [ -77.16099, 38.75074 ], [ -77.16056, 38.75016 ], [ -77.15909, 38.75174 ], [ -77.1588, 38.75261 ], [ -77.15783, 38.75278 ], [ -77.15692, 38.75214 ], [ -77.15293, 38.75346 ], [ -77.15441, 38.75425 ], [ -77.1545, 38.75501 ], [ -77.15592, 38.75404 ], [ -77.15739, 38.7546 ], [ -77.15747, 38.75516 ], [ -77.15595, 38.75726 ], [ -77.15609, 38.75754 ], [ -77.15675, 38.75686 ], [ -77.15764, 38.75717 ], [ -77.15693, 38.75843 ], [ -77.15712, 38.75909 ], [ -77.15784, 38.75916 ], [ -77.15876, 38.75993 ], [ -77.16021, 38.75844 ], [ -77.15895, 38.75774 ], [ -77.15918, 38.757 ], [ -77.16022, 38.75705 ], [ -77.16129, 38.75775 ], [ -77.16263, 38.75707 ], [ -77.16368, 38.75788 ], [ -77.16113, 38.7595 ], [ -77.16209, 38.7605 ], [ -77.16143, 38.76189 ], [ -77.1631, 38.76221 ], [ -77.16346, 38.76292 ], [ -77.16309, 38.76321 ], [ -77.16206, 38.76308 ], [ -77.16172, 38.76391 ], [ -77.16121, 38.76401 ], [ -77.16075, 38.7638 ], [ -77.16055, 38.76293 ], [ -77.15863, 38.76416 ], [ -77.15932, 38.76457 ], [ -77.15963, 38.76585 ], [ -77.16248, 38.76634 ], [ -77.16237, 38.7674 ], [ -77.16116, 38.76879 ], [ -77.15927, 38.76989 ], [ -77.15769, 38.77012 ], [ -77.15467, 38.76986 ], [ -77.15389, 38.77093 ], [ -77.15518, 38.77361 ], [ -77.15494, 38.77399 ], [ -77.15444, 38.77412 ], [ -77.15262, 38.77317 ], [ -77.1518, 38.77328 ], [ -77.15148, 38.77295 ], [ -77.15196, 38.77204 ], [ -77.15082, 38.77253 ], [ -77.14934, 38.77205 ], [ -77.14918, 38.77138 ], [ -77.15004, 38.77077 ], [ -77.14759, 38.77179 ], [ -77.1472, 38.77111 ], [ -77.14654, 38.77097 ], [ -77.14534, 38.76989 ], [ -77.14423, 38.76973 ], [ -77.14223, 38.7721 ], [ -77.13926, 38.77416 ], [ -77.1383, 38.77431 ], [ -77.13788, 38.77383 ], [ -77.13831, 38.77306 ], [ -77.14126, 38.77108 ], [ -77.14172, 38.77007 ], [ -77.13747, 38.77244 ], [ -77.13556, 38.77285 ], [ -77.13424, 38.77161 ], [ -77.13418, 38.7699 ], [ -77.13285, 38.77055 ], [ -77.13247, 38.77195 ], [ -77.13133, 38.77261 ], [ -77.12915, 38.77075 ], [ -77.12497, 38.76925 ], [ -77.12419, 38.76829 ], [ -77.12383, 38.76672 ], [ -77.12121, 38.76802 ], [ -77.11951, 38.76817 ], [ -77.11914, 38.76787 ], [ -77.11951, 38.76717 ], [ -77.12191, 38.76633 ], [ -77.12041, 38.76417 ], [ -77.12075, 38.76346 ], [ -77.12166, 38.76372 ], [ -77.12311, 38.7658 ], [ -77.1239, 38.76543 ], [ -77.12238, 38.76277 ], [ -77.12224, 38.7617 ], [ -77.12302, 38.76015 ], [ -77.12398, 38.75951 ], [ -77.1236, 38.75882 ], [ -77.12463, 38.75855 ], [ -77.12546, 38.75676 ], [ -77.12638, 38.75701 ], [ -77.12745, 38.75869 ], [ -77.12791, 38.75864 ], [ -77.12839, 38.7592 ], [ -77.13004, 38.75806 ], [ -77.13289, 38.76031 ], [ -77.13538, 38.75763 ], [ -77.12629, 38.75334 ], [ -77.12604, 38.7526 ], [ -77.12698, 38.7524 ], [ -77.13606, 38.75668 ], [ -77.13642, 38.75621 ], [ -77.13659, 38.75559 ], [ -77.1351, 38.75459 ], [ -77.13272, 38.75398 ], [ -77.13065, 38.75273 ], [ -77.12924, 38.75241 ], [ -77.12872, 38.75129 ], [ -77.12867, 38.75088 ], [ -77.13081, 38.74921 ], [ -77.13046, 38.74855 ], [ -77.1308, 38.74827 ], [ -77.13025, 38.74764 ], [ -77.13105, 38.74717 ], [ -77.13107, 38.74651 ], [ -77.13185, 38.74642 ], [ -77.1313, 38.74585 ], [ -77.13146, 38.74546 ], [ -77.13264, 38.74456 ], [ -77.13368, 38.74504 ], [ -77.13389, 38.74301 ], [ -77.13486, 38.74292 ], [ -77.13679, 38.7446 ], [ -77.13943, 38.74585 ], [ -77.14256, 38.74814 ], [ -77.14426, 38.74705 ], [ -77.14262, 38.74605 ], [ -77.14181, 38.74431 ], [ -77.13569, 38.74136 ], [ -77.13541, 38.74063 ], [ -77.13662, 38.74053 ], [ -77.13771, 38.73921 ], [ -77.13955, 38.73874 ], [ -77.14097, 38.73965 ], [ -77.14104, 38.74041 ], [ -77.14006, 38.74047 ], [ -77.13924, 38.7399 ], [ -77.13785, 38.74107 ], [ -77.14181, 38.74312 ], [ -77.14217, 38.74194 ], [ -77.14367, 38.7409 ], [ -77.14438, 38.74142 ], [ -77.1442, 38.74181 ], [ -77.1433, 38.74256 ], [ -77.14319, 38.74284 ], [ -77.14388, 38.74241 ], [ -77.14476, 38.7424 ], [ -77.14851, 38.7443 ], [ -77.14886, 38.74413 ], [ -77.14666, 38.74098 ], [ -77.14677, 38.73717 ], [ -77.14275, 38.73219 ], [ -77.14153, 38.73 ], [ -77.142, 38.72919 ], [ -77.14291, 38.72946 ], [ -77.14428, 38.7319 ], [ -77.14825, 38.73685 ], [ -77.14853, 38.73818 ], [ -77.14811, 38.7406 ], [ -77.15021, 38.74356 ], [ -77.15362, 38.74285 ], [ -77.15369, 38.74214 ], [ -77.15415, 38.74193 ], [ -77.15496, 38.74255 ], [ -77.15762, 38.74216 ], [ -77.16036, 38.74109 ], [ -77.15974, 38.73644 ], [ -77.1568, 38.73417 ], [ -77.15676, 38.73341 ], [ -77.15774, 38.73338 ], [ -77.16027, 38.73522 ], [ -77.16121, 38.73525 ], [ -77.16308, 38.7373 ], [ -77.16459, 38.73719 ], [ -77.16483, 38.73793 ], [ -77.16326, 38.73837 ], [ -77.16342, 38.73917 ], [ -77.1669, 38.73787 ], [ -77.16875, 38.73508 ], [ -77.16982, 38.73496 ] ], [ [ -77.14857, 38.77017 ], [ -77.15089, 38.76913 ], [ -77.15048, 38.76866 ], [ -77.14783, 38.76822 ], [ -77.14743, 38.76888 ], [ -77.14857, 38.77017 ] ], [ [ -77.14898, 38.76347 ], [ -77.15055, 38.7632 ], [ -77.14906, 38.76229 ], [ -77.14877, 38.76113 ], [ -77.14657, 38.75814 ], [ -77.14652, 38.75937 ], [ -77.14516, 38.75959 ], [ -77.1462, 38.76048 ], [ -77.14613, 38.76089 ], [ -77.14501, 38.76118 ], [ -77.14493, 38.76293 ], [ -77.14432, 38.76446 ], [ -77.14554, 38.76455 ], [ -77.14565, 38.76287 ], [ -77.14764, 38.76148 ], [ -77.14843, 38.76193 ], [ -77.14828, 38.76236 ], [ -77.14898, 38.76347 ] ], [ [ -77.14373, 38.75373 ], [ -77.14562, 38.7506 ], [ -77.14594, 38.74908 ], [ -77.14518, 38.74859 ], [ -77.14534, 38.74775 ], [ -77.14291, 38.74933 ], [ -77.14074, 38.75178 ], [ -77.14373, 38.75373 ] ], [ [ -77.14392, 38.74558 ], [ -77.14544, 38.7463 ], [ -77.14734, 38.74499 ], [ -77.14434, 38.74344 ], [ -77.14379, 38.74423 ], [ -77.14392, 38.74558 ] ], [ [ -77.16342, 38.74261 ], [ -77.16307, 38.74283 ], [ -77.1631, 38.74294 ], [ -77.16346, 38.74292 ], [ -77.16342, 38.74261 ] ], [ [ -77.16573, 38.74127 ], [ -77.16566, 38.7416 ], [ -77.1657, 38.74159 ], [ -77.16573, 38.74127 ] ], [ [ -77.16126, 38.73707 ], [ -77.16148, 38.74005 ], [ -77.16164, 38.74051 ], [ -77.16221, 38.74012 ], [ -77.16126, 38.73707 ] ], [ [ -77.16076, 38.74264 ], [ -77.16133, 38.74242 ], [ -77.16116, 38.74217 ], [ -77.16074, 38.74232 ], [ -77.16076, 38.74264 ] ], [ [ -77.15796, 38.76893 ], [ -77.15861, 38.76792 ], [ -77.15933, 38.76846 ], [ -77.16097, 38.76717 ], [ -77.15802, 38.76733 ], [ -77.15724, 38.76833 ], [ -77.15731, 38.7689 ], [ -77.15796, 38.76893 ] ], [ [ -77.15478, 38.76587 ], [ -77.15189, 38.76455 ], [ -77.15279, 38.76559 ], [ -77.1522, 38.76686 ], [ -77.15449, 38.76689 ], [ -77.15478, 38.76587 ] ], [ [ -77.15386, 38.76301 ], [ -77.15435, 38.76238 ], [ -77.15526, 38.76194 ], [ -77.15433, 38.76184 ], [ -77.15352, 38.76272 ], [ -77.15386, 38.76301 ] ], [ [ -77.15426, 38.76134 ], [ -77.15505, 38.76086 ], [ -77.15496, 38.76016 ], [ -77.15542, 38.75995 ], [ -77.15713, 38.7609 ], [ -77.1573, 38.76157 ], [ -77.15783, 38.76096 ], [ -77.15457, 38.759 ], [ -77.15398, 38.75983 ], [ -77.15209, 38.75953 ], [ -77.15189, 38.75798 ], [ -77.15136, 38.75766 ], [ -77.1517, 38.75703 ], [ -77.15134, 38.75552 ], [ -77.15051, 38.75503 ], [ -77.14686, 38.75655 ], [ -77.14922, 38.75933 ], [ -77.14949, 38.75895 ], [ -77.15046, 38.75908 ], [ -77.15222, 38.76175 ], [ -77.15339, 38.76091 ], [ -77.15426, 38.76134 ] ], [ [ -77.15936, 38.7623 ], [ -77.15895, 38.76186 ], [ -77.15775, 38.76329 ], [ -77.15779, 38.76331 ], [ -77.15936, 38.7623 ] ], [ [ -77.1567, 38.76229 ], [ -77.15677, 38.76221 ], [ -77.15668, 38.76228 ], [ -77.1567, 38.76229 ] ], [ [ -77.15541, 38.7631 ], [ -77.15501, 38.76369 ], [ -77.15552, 38.76402 ], [ -77.15595, 38.76323 ], [ -77.15541, 38.7631 ] ], [ [ -77.15228, 38.77028 ], [ -77.15231, 38.77028 ], [ -77.15224, 38.77027 ], [ -77.15228, 38.77028 ] ], [ [ -77.15224, 38.77027 ], [ -77.15147, 38.77015 ], [ -77.15126, 38.77024 ], [ -77.15224, 38.77027 ] ], [ [ -77.15365, 38.76879 ], [ -77.15399, 38.76817 ], [ -77.15409, 38.76797 ], [ -77.15337, 38.76797 ], [ -77.15365, 38.76879 ] ], [ [ -77.15591, 38.76863 ], [ -77.15561, 38.76819 ], [ -77.15534, 38.76872 ], [ -77.15591, 38.76863 ] ], [ [ -77.15654, 38.76739 ], [ -77.15664, 38.76731 ], [ -77.15642, 38.76731 ], [ -77.15654, 38.76739 ] ], [ [ -77.15234, 38.77028 ], [ -77.15257, 38.77032 ], [ -77.15262, 38.77027 ], [ -77.15234, 38.77028 ] ], [ [ -77.13953, 38.76857 ], [ -77.14019, 38.76823 ], [ -77.13983, 38.76783 ], [ -77.13913, 38.7682 ], [ -77.13953, 38.76857 ] ], [ [ -77.1377, 38.76165 ], [ -77.13959, 38.76103 ], [ -77.13812, 38.76069 ], [ -77.13753, 38.76126 ], [ -77.1377, 38.76165 ] ], [ [ -77.13906, 38.75929 ], [ -77.13986, 38.75994 ], [ -77.14038, 38.75923 ], [ -77.13964, 38.75949 ], [ -77.13906, 38.75929 ] ], [ [ -77.14093, 38.75823 ], [ -77.14202, 38.75856 ], [ -77.14296, 38.7577 ], [ -77.14257, 38.75663 ], [ -77.14087, 38.75773 ], [ -77.14093, 38.75823 ] ], [ [ -77.14009, 38.7568 ], [ -77.13947, 38.75615 ], [ -77.13986, 38.757 ], [ -77.14009, 38.7568 ] ], [ [ -77.13952, 38.75449 ], [ -77.1407, 38.75456 ], [ -77.14104, 38.75414 ], [ -77.14101, 38.7535 ], [ -77.13989, 38.75278 ], [ -77.13897, 38.75408 ], [ -77.13952, 38.75449 ] ], [ [ -77.14208, 38.76717 ], [ -77.14213, 38.76714 ], [ -77.1421, 38.76713 ], [ -77.14208, 38.76717 ] ], [ [ -77.14086, 38.76186 ], [ -77.14078, 38.76112 ], [ -77.14024, 38.76114 ], [ -77.14086, 38.76186 ] ], [ [ -77.1435, 38.76639 ], [ -77.14346, 38.7664 ], [ -77.14346, 38.76641 ], [ -77.1435, 38.76639 ] ], [ [ -77.146, 38.765 ], [ -77.14579, 38.76492 ], [ -77.14582, 38.7651 ], [ -77.146, 38.765 ] ], [ [ -77.14355, 38.76845 ], [ -77.14351, 38.76844 ], [ -77.14354, 38.76847 ], [ -77.14355, 38.76845 ] ], [ [ -77.14127, 38.74874 ], [ -77.14061, 38.74925 ], [ -77.14009, 38.74917 ], [ -77.13994, 38.74837 ], [ -77.13935, 38.74795 ], [ -77.13838, 38.74885 ], [ -77.14063, 38.75 ], [ -77.14149, 38.74897 ], [ -77.14127, 38.74874 ] ], [ [ -77.14045, 38.76336 ], [ -77.14038, 38.76328 ], [ -77.14041, 38.76341 ], [ -77.14045, 38.76336 ] ], [ [ -77.13739, 38.74917 ], [ -77.13764, 38.74925 ], [ -77.13767, 38.74916 ], [ -77.13739, 38.74917 ] ], [ [ -77.13659, 38.76007 ], [ -77.13466, 38.76056 ], [ -77.13167, 38.76253 ], [ -77.13471, 38.76496 ], [ -77.13516, 38.76482 ], [ -77.13522, 38.76354 ], [ -77.13589, 38.7629 ], [ -77.13525, 38.76287 ], [ -77.135, 38.76213 ], [ -77.13568, 38.76183 ], [ -77.13549, 38.76146 ], [ -77.13659, 38.76007 ] ], [ [ -77.13084, 38.76085 ], [ -77.12977, 38.76066 ], [ -77.12929, 38.76116 ], [ -77.13021, 38.76206 ], [ -77.13183, 38.761 ], [ -77.13103, 38.7603 ], [ -77.13084, 38.76085 ] ], [ [ -77.13742, 38.75699 ], [ -77.13728, 38.75719 ], [ -77.13735, 38.75723 ], [ -77.13742, 38.75699 ] ], [ [ -77.13332, 38.74958 ], [ -77.13346, 38.74954 ], [ -77.13333, 38.74945 ], [ -77.13332, 38.74958 ] ], [ [ -77.13182, 38.75019 ], [ -77.13161, 38.7502 ], [ -77.13181, 38.75032 ], [ -77.13182, 38.75019 ] ], [ [ -77.13424, 38.74833 ], [ -77.13417, 38.74824 ], [ -77.1341, 38.74838 ], [ -77.13424, 38.74833 ] ], [ [ -77.13558, 38.77077 ], [ -77.13836, 38.76922 ], [ -77.13799, 38.76881 ], [ -77.13531, 38.76928 ], [ -77.13558, 38.77077 ] ], [ [ -77.13706, 38.76781 ], [ -77.13543, 38.76778 ], [ -77.13471, 38.76814 ], [ -77.13706, 38.76781 ] ], [ [ -77.13135, 38.77111 ], [ -77.13181, 38.76984 ], [ -77.13339, 38.76887 ], [ -77.13378, 38.76731 ], [ -77.13631, 38.76655 ], [ -77.13568, 38.76585 ], [ -77.13417, 38.76669 ], [ -77.13367, 38.76657 ], [ -77.13371, 38.7657 ], [ -77.13211, 38.7644 ], [ -77.13248, 38.76516 ], [ -77.13188, 38.76576 ], [ -77.13081, 38.76487 ], [ -77.12874, 38.76424 ], [ -77.13048, 38.76629 ], [ -77.13034, 38.76698 ], [ -77.12924, 38.76811 ], [ -77.12997, 38.76988 ], [ -77.13135, 38.77111 ] ], [ [ -77.13068, 38.76329 ], [ -77.12993, 38.7636 ], [ -77.1316, 38.76398 ], [ -77.13103, 38.76352 ], [ -77.13068, 38.76329 ] ], [ [ -77.12912, 38.76273 ], [ -77.12718, 38.76105 ], [ -77.12778, 38.76157 ], [ -77.12778, 38.76221 ], [ -77.12912, 38.76273 ] ], [ [ -77.12392, 38.7612 ], [ -77.12439, 38.76169 ], [ -77.12505, 38.76098 ], [ -77.12428, 38.76086 ], [ -77.12392, 38.7612 ] ], [ [ -77.12404, 38.76274 ], [ -77.12401, 38.76282 ], [ -77.12402, 38.76282 ], [ -77.12404, 38.76274 ] ], [ [ -77.12678, 38.76331 ], [ -77.12687, 38.76325 ], [ -77.12676, 38.76324 ], [ -77.12678, 38.76331 ] ] ] } },
{ "type": "Feature", "properties": { "variant": "T2s", "miles": 1.0 }, "geometry": { "type": "Polygon", "coordinates": [ [ [ -77.15484, 38.74284 ], [ -77.15513, 38.74358 ], [ -77.15411, 38.74398 ], [ -77.1546, 38.74439 ], [ -77.15446, 38.74478 ], [ -77.15373, 38.74502 ], [ -77.15291, 38.74601 ], [ -77.15203, 38.74568 ], [ -77.15234, 38.74436 ], [ -77.1502, 38.74492 ], [ -77.15038, 38.74556 ], [ -77.14957, 38.74655 ], [ -77.14821, 38.74604 ], [ -77.14781, 38.74728 ], [ -77.14941, 38.748 ], [ -77.14967, 38.74874 ], [ -77.14873, 38.74894 ], [ -77.14758, 38.74842 ], [ -77.14714, 38.75002 ], [ -77.14743, 38.75059 ], [ -77.14564, 38.75309 ], [ -77.14718, 38.75349 ], [ -77.1477, 38.75482 ], [ -77.149, 38.75285 ], [ -77.14991, 38.75232 ], [ -77.15117, 38.75304 ], [ -77.152, 38.75283 ], [ -77.1532, 38.75414 ], [ -77.1528, 38.75484 ], [ -77.15162, 38.75484 ], [ -77.15148, 38.75435 ], [ -77.14981, 38.75549 ], [ -77.14686, 38.75655 ], [ -77.15029, 38.76078 ], [ -77.15126, 38.76099 ], [ -77.15098, 38.7618 ], [ -77.14983, 38.76225 ], [ -77.1463, 38.75786 ], [ -77.14221, 38.75429 ], [ -77.13989, 38.75278 ], [ -77.13839, 38.75485 ], [ -77.13889, 38.75499 ], [ -77.13892, 38.75576 ], [ -77.13797, 38.75592 ], [ -77.13679, 38.75547 ], [ -77.13701, 38.75459 ], [ -77.13612, 38.75424 ], [ -77.13674, 38.75227 ], [ -77.13476, 38.75257 ], [ -77.13398, 38.7521 ], [ -77.13412, 38.7517 ], [ -77.13496, 38.75144 ], [ -77.13535, 38.75061 ], [ -77.13705, 38.75118 ], [ -77.13625, 38.74974 ], [ -77.13813, 38.74881 ], [ -77.14063, 38.75 ], [ -77.14149, 38.74897 ], [ -77.14114, 38.7484 ], [ -77.14141, 38.74799 ], [ -77.14256, 38.74814 ], [ -77.14886, 38.74413 ], [ -77.1468, 38.74135 ], [ -77.14675, 38.74061 ], [ -77.14717, 38.74036 ], [ -77.14814, 38.7407 ], [ -77.15021, 38.74356 ], [ -77.15484, 38.74284 ] ], [ [ -77.1459, 38.74924 ], [ -77.14518, 38.74859 ], [ -77.14534, 38.74775 ], [ -77.14291, 38.74933 ], [ -77.14074, 38.75178 ], [ -77.14369, 38.75378 ], [ -77.14561, 38.75061 ], [ -77.1459, 38.74924 ] ], [ [ -77.14613, 38.7542 ], [ -77.14544, 38.75452 ], [ -77.14587, 38.75503 ], [ -77.14629, 38.75478 ], [ -77.14613, 38.7542 ] ] ] } },
{ "type": "Feature", "properties": { "variant": "T2s", "miles": 1.5 }, "geometry": { "type": "Polygon", "coordinates": [ [ [ -77.16127, 38.73928 ], [ -77.16175, 38.74068 ], [ -77.16283, 38.73991 ], [ -77.1638, 38.73995 ], [ -77.16376, 38.74071 ], [ -77.1629, 38.74133 ], [ -77.16359, 38.74181 ], [ -77.1635, 38.74256 ], [ -77.15999, 38.74411 ], [ -77.15834, 38.74323 ], [ -77.15589, 38.74359 ], [ -77.1558, 38.74455 ], [ -77.15455, 38.74491 ], [ -77.15396, 38.74561 ], [ -77.15395, 38.74684 ], [ -77.1531, 38.74779 ], [ -77.15365, 38.74843 ], [ -77.15325, 38.74926 ], [ -77.15229, 38.74913 ], [ -77.15164, 38.74808 ], [ -77.15032, 38.74772 ], [ -77.1502, 38.74732 ], [ -77.15164, 38.74634 ], [ -77.15234, 38.74436 ], [ -77.1502, 38.74492 ], [ -77.15038, 38.74556 ], [ -77.14957, 38.74655 ], [ -77.14821, 38.74604 ], [ -77.14781, 38.74728 ], [ -77.14941, 38.748 ], [ -77.14967, 38.74874 ], [ -77.14873, 38.74894 ], [ -77.14758, 38.74842 ], [ -77.14714, 38.75002 ], [ -77.14743, 38.75059 ], [ -77.14564, 38.75309 ], [ -77.14701, 38.75336 ], [ -77.1477, 38.75482 ], [ -77.14806, 38.75474 ], [ -77.14815, 38.75409 ], [ -77.14949, 38.75245 ], [ -77.15052, 38.75251 ], [ -77.15099, 38.75297 ], [ -77.1519, 38.75191 ], [ -77.1536, 38.75187 ], [ -77.15729, 38.75089 ], [ -77.15672, 38.74974 ], [ -77.15725, 38.74922 ], [ -77.15841, 38.74985 ], [ -77.16016, 38.74904 ], [ -77.16102, 38.74941 ], [ -77.1588, 38.75261 ], [ -77.15783, 38.75278 ], [ -77.15692, 38.75214 ], [ -77.15293, 38.75346 ], [ -77.15441, 38.75425 ], [ -77.1545, 38.75501 ], [ -77.15592, 38.75404 ], [ -77.15746, 38.75469 ], [ -77.1562, 38.75712 ], [ -77.15532, 38.75736 ], [ -77.15423, 38.75683 ], [ -77.1539, 38.75774 ], [ -77.15698, 38.75844 ], [ -77.15723, 38.75881 ], [ -77.15672, 38.75954 ], [ -77.15623, 38.7597 ], [ -77.15457, 38.759 ], [ -77.15398, 38.75983 ], [ -77.15209, 38.75953 ], [ -77.15189, 38.75798 ], [ -77.15136, 38.75766 ], [ -77.1517, 38.75703 ], [ -77.15134, 38.75552 ], [ -77.15051, 38.75503 ], [ -77.14686, 38.75655 ], [ -77.14922, 38.75933 ], [ -77.14949, 38.75895 ], [ -77.15046, 38.75908 ], [ -77.15222, 38.76175 ], [ -77.15339, 38.76091 ], [ -77.15414, 38.76114 ], [ -77.15442, 38.76167 ], [ -77.15352, 38.76272 ], [ -77.1556, 38.7642 ], [ -77.15659, 38.76439 ], [ -77.15564, 38.76712 ], [ -77.15452, 38.76698 ], [ -77.15478, 38.76587 ], [ -77.15189, 38.76455 ], [ -77.15279, 38.76559 ], [ -77.15221, 38.76626 ], [ -77.15256, 38.76747 ], [ -77.15215, 38.76806 ], [ -77.14777, 38.76757 ], [ -77.14682, 38.7667 ], [ -77.1471, 38.76614 ], [ -77.14674, 38.76528 ], [ -77.14721, 38.76481 ], [ -77.14603, 38.76472 ], [ -77.14583, 38.76345 ], [ -77.14772, 38.76301 ], [ -77.14818, 38.76379 ], [ -77.15055, 38.7632 ], [ -77.14906, 38.76229 ], [ -77.14877, 38.76113 ], [ -77.14657, 38.75814 ], [ -77.14652, 38.75937 ], [ -77.14447, 38.75981 ], [ -77.14488, 38.76055 ], [ -77.14437, 38.76117 ], [ -77.14277, 38.7611 ], [ -77.14234, 38.76086 ], [ -77.14225, 38.75997 ], [ -77.1414, 38.76022 ], [ -77.14102, 38.75993 ], [ -77.14088, 38.75881 ], [ -77.14202, 38.75856 ], [ -77.14314, 38.75748 ], [ -77.14257, 38.75663 ], [ -77.13884, 38.75942 ], [ -77.13545, 38.7602 ], [ -77.13328, 38.76146 ], [ -77.13231, 38.76143 ], [ -77.13235, 38.76066 ], [ -77.13371, 38.75977 ], [ -77.13659, 38.75559 ], [ -77.1351, 38.75459 ], [ -77.13429, 38.75456 ], [ -77.13109, 38.75318 ], [ -77.13061, 38.75211 ], [ -77.12913, 38.75155 ], [ -77.12867, 38.75088 ], [ -77.13081, 38.74921 ], [ -77.13046, 38.74855 ], [ -77.1308, 38.74827 ], [ -77.13025, 38.74764 ], [ -77.13105, 38.74717 ], [ -77.13107, 38.74651 ], [ -77.13185, 38.74642 ], [ -77.1313, 38.74585 ], [ -77.13146, 38.74546 ], [ -77.13264, 38.74456 ], [ -77.13368, 38.74504 ], [ -77.13389, 38.74301 ], [ -77.13486, 38.74292 ], [ -77.13679, 38.7446 ], [ -77.13943, 38.74585 ], [ -77.14256, 38.74814 ], [ -77.14426, 38.74705 ], [ -77.14266, 38.7461 ], [ -77.14186, 38.74466 ], [ -77.14188, 38.74244 ], [ -77.14319, 38.74107 ], [ -77.14367, 38.7409 ], [ -77.14438, 38.74142 ], [ -77.1442, 38.74181 ], [ -77.1433, 38.74256 ], [ -77.14319, 38.74284 ], [ -77.14388, 38.74241 ], [ -77.14476, 38.7424 ], [ -77.14851, 38.7443 ], [ -77.14886, 38.74413 ], [ -77.14666, 38.74098 ], [ -77.14669, 38.73992 ], [ -77.14715, 38.73972 ], [ -77.14782, 38.73986 ], [ -77.15021, 38.74356 ], [ -77.15362, 38.74285 ], [ -77.15369, 38.74214 ], [ -77.15415, 38.74193 ], [ -77.15496, 38.74255 ], [ -77.15888, 38.74173 ], [ -77.16044, 38.74106 ], [ -77.16009, 38.73966 ], [ -77.16078, 38.73912 ], [ -77.16127, 38.73928 ] ], [ [ -77.14562, 38.7506 ], [ -77.14594, 38.74908 ], [ -77.14518, 38.74859 ], [ -77.14534, 38.74775 ], [ -77.14291, 38.74933 ], [ -77.14074, 38.75178 ], [ -77.14369, 38.75378 ], [ -77.14562, 38.7506 ] ], [ [ -77.14544, 38.7463 ], [ -77.14734, 38.74499 ], [ -77.14434, 38.74344 ], [ -77.14379, 38.74423 ], [ -77.14389, 38.74555 ], [ -77.14544, 38.7463 ] ], [ [ -77.16076, 38.74263 ], [ -77.16133, 38.74242 ], [ -77.16116, 38.74217 ], [ -77.16074, 38.74232 ], [ -77.16076, 38.74263 ] ], [ [ -77.1409, 38.75358 ], [ -77.13989, 38.75278 ], [ -77.13897, 38.75408 ], [ -77.13941, 38.75451 ], [ -77.1407, 38.75456 ], [ -77.1409, 38.75358 ] ], [ [ -77.14376, 38.75581 ], [ -77.14335, 38.75621 ], [ -77.14409, 38.75668 ], [ -77.14457, 38.75639 ], [ -77.14376, 38.75581 ] ], [ [ -77.1413, 38.74877 ], [ -77.14061, 38.74925 ], [ -77.14009, 38.74917 ], [ -77.13994, 38.74837 ], [ -77.13935, 38.74795 ], [ -77.13838, 38.74885 ], [ -77.14063, 38.75 ], [ -77.1413, 38.74877 ] ], [ [ -77.13739, 38.74917 ], [ -77.13764, 38.74925 ], [ -77.13767, 38.74916 ], [ -77.13739, 38.74917 ] ], [ [ -77.13747, 38.75706 ], [ -77.13728, 38.75719 ], [ -77.13735, 38.75723 ], [ -77.13747, 38.75706 ] ], [ [ -77.13947, 38.75615 ], [ -77.13979, 38.75664 ], [ -77.13986, 38.757 ], [ -77.13981, 38.7561 ], [ -77.13947, 38.75615 ] ], [ [ -77.13165, 38.75022 ], [ -77.13181, 38.75032 ], [ -77.13182, 38.75019 ], [ -77.13165, 38.75022 ] ], [ [ -77.1341, 38.74838 ], [ -77.13424, 38.74833 ], [ -77.13417, 38.74824 ], [ -77.1341, 38.74838 ] ], [ [ -77.13346, 38.74954 ], [ -77.13333, 38.74945 ], [ -77.13332, 38.74958 ], [ -77.13346, 38.74954 ] ] ] } },
{ "type": "Feature", "properties": { "variant": "T2s", "miles": 2.0 }, "geometry": { "type": "Polygon", "coordinates": [ [ [ -77.16098, 38.73517 ], [ -77.16201, 38.73581 ], [ -77.16308, 38.7373 ], [ -77.16459, 38.73719 ], [ -77.1649, 38.73752 ], [ -77.1644, 38.73818 ], [ -77.16326, 38.73837 ], [ -77.16353, 38.73936 ], [ -77.16722, 38.73779 ], [ -77.16887, 38.73513 ], [ -77.1693, 38.73489 ], [ -77.17013, 38.7353 ], [ -77.1685, 38.73828 ], [ -77.16566, 38.73975 ], [ -77.1663, 38.74035 ], [ -77.16617, 38.74098 ], [ -77.16703, 38.74131 ], [ -77.16842, 38.74107 ], [ -77.1699, 38.74199 ], [ -77.16884, 38.7434 ], [ -77.16825, 38.74357 ], [ -77.16816, 38.74422 ], [ -77.16699, 38.74445 ], [ -77.16737, 38.746 ], [ -77.16679, 38.7463 ], [ -77.16592, 38.74595 ], [ -77.16503, 38.74383 ], [ -77.1631, 38.74403 ], [ -77.16043, 38.74499 ], [ -77.15834, 38.74323 ], [ -77.15589, 38.74359 ], [ -77.1558, 38.74455 ], [ -77.15455, 38.74491 ], [ -77.15396, 38.74561 ], [ -77.15395, 38.74684 ], [ -77.1531, 38.74779 ], [ -77.15356, 38.74803 ], [ -77.15353, 38.74891 ], [ -77.15274, 38.74935 ], [ -77.15164, 38.74808 ], [ -77.15032, 38.74772 ], [ -77.1502, 38.74732 ], [ -77.15164, 38.74634 ], [ -77.15234, 38.74436 ], [ -77.15031, 38.74487 ], [ -77.14994, 38.74624 ], [ -77.14902, 38.74656 ], [ -77.14834, 38.74597 ], [ -77.14781, 38.74728 ], [ -77.14941, 38.748 ], [ -77.14967, 38.74874 ], [ -77.14873, 38.74894 ], [ -77.14758, 38.74842 ], [ -77.14714, 38.75002 ], [ -77.14743, 38.75059 ], [ -77.14564, 38.75309 ], [ -77.14718, 38.75349 ], [ -77.1477, 38.75482 ], [ -77.14949, 38.75245 ], [ -77.15052, 38.75251 ], [ -77.15099, 38.75297 ], [ -77.1519, 38.75191 ], [ -77.1536, 38.75187 ], [ -77.15729, 38.75089 ], [ -77.15677, 38.7501 ], [ -77.15505, 38.74932 ], [ -77.1548, 38.74896 ], [ -77.15541, 38.74837 ], [ -77.1562, 38.74847 ], [ -77.15841, 38.74985 ], [ -77.15957, 38.74922 ], [ -77.15896, 38.74876 ], [ -77.15902, 38.74835 ], [ -77.16078, 38.74798 ], [ -77.16092, 38.74898 ], [ -77.16136, 38.74902 ], [ -77.16183, 38.7482 ], [ -77.16236, 38.74824 ], [ -77.16289, 38.74924 ], [ -77.16356, 38.74892 ], [ -77.16517, 38.74957 ], [ -77.16599, 38.74928 ], [ -77.16725, 38.75007 ], [ -77.16728, 38.75048 ], [ -77.16589, 38.75127 ], [ -77.16545, 38.75211 ], [ -77.1623, 38.7514 ], [ -77.16056, 38.75016 ], [ -77.15909, 38.75174 ], [ -77.1588, 38.75261 ], [ -77.15783, 38.75278 ], [ -77.15692, 38.75214 ], [ -77.15293, 38.75346 ], [ -77.15441, 38.75425 ], [ -77.1545, 38.75501 ], [ -77.15592, 38.75404 ], [ -77.1574, 38.75461 ], [ -77.15728, 38.7555 ], [ -77.15595, 38.75726 ], [ -77.15609, 38.75754 ], [ -77.15675, 38.75686 ], [ -77.15764, 38.75717 ], [ -77.15693, 38.75843 ], [ -77.15715, 38.75912 ], [ -77.15784, 38.75916 ], [ -77.15876, 38.75993 ], [ -77.16021, 38.75844 ], [ -77.15895, 38.75774 ], [ -77.15887, 38.75733 ], [ -77.1597, 38.75693 ], [ -77.1605, 38.75719 ], [ -77.16197, 38.75854 ], [ -77.16113, 38.7595 ], [ -77.16209, 38.7605 ], [ -77.16143, 38.76189 ], [ -77.16208, 38.76251 ], [ -77.16181, 38.76286 ], [ -77.16024, 38.76293 ], [ -77.15895, 38.76186 ], [ -77.15775, 38.76329 ], [ -77.15767, 38.76516 ], [ -77.15645, 38.7658 ], [ -77.1563, 38.76623 ], [ -77.15733, 38.76565 ], [ -77.15782, 38.7658 ], [ -77.15801, 38.7675 ], [ -77.15724, 38.76833 ], [ -77.15731, 38.7689 ], [ -77.15796, 38.76893 ], [ -77.15813, 38.7681 ], [ -77.15912, 38.76807 ], [ -77.15951, 38.76964 ], [ -77.15842, 38.7701 ], [ -77.15467, 38.76986 ], [ -77.15389, 38.77093 ], [ -77.15462, 38.77311 ], [ -77.15361, 38.77346 ], [ -77.15208, 38.7729 ], [ -77.15196, 38.77204 ], [ -77.14964, 38.77212 ], [ -77.14938, 38.77153 ], [ -77.15004, 38.77077 ], [ -77.14759, 38.77179 ], [ -77.1472, 38.77111 ], [ -77.14654, 38.77097 ], [ -77.14534, 38.76989 ], [ -77.14423, 38.76973 ], [ -77.14362, 38.77061 ], [ -77.14284, 38.77084 ], [ -77.14197, 38.77063 ], [ -77.141, 38.7691 ], [ -77.1393, 38.76982 ], [ -77.1376, 38.76839 ], [ -77.13748, 38.76799 ], [ -77.13824, 38.76737 ], [ -77.13729, 38.76725 ], [ -77.13717, 38.76684 ], [ -77.13738, 38.766 ], [ -77.13831, 38.76519 ], [ -77.13719, 38.76504 ], [ -77.13687, 38.76384 ], [ -77.13761, 38.76334 ], [ -77.13816, 38.76359 ], [ -77.1386, 38.76304 ], [ -77.13826, 38.76257 ], [ -77.13846, 38.76161 ], [ -77.13959, 38.76103 ], [ -77.13812, 38.76069 ], [ -77.13753, 38.76126 ], [ -77.13768, 38.76238 ], [ -77.13714, 38.7627 ], [ -77.13629, 38.76259 ], [ -77.13549, 38.76146 ], [ -77.13669, 38.75986 ], [ -77.13466, 38.76056 ], [ -77.13167, 38.76253 ], [ -77.13475, 38.76499 ], [ -77.13473, 38.76576 ], [ -77.13376, 38.76574 ], [ -77.13211, 38.7644 ], [ -77.13234, 38.76556 ], [ -77.13137, 38.76565 ], [ -77.13081, 38.76487 ], [ -77.12874, 38.76424 ], [ -77.12771, 38.76479 ], [ -77.12866, 38.76608 ], [ -77.12842, 38.76645 ], [ -77.12725, 38.76663 ], [ -77.12698, 38.76708 ], [ -77.12601, 38.76699 ], [ -77.12544, 38.76598 ], [ -77.12399, 38.76649 ], [ -77.12355, 38.76627 ], [ -77.12377, 38.76503 ], [ -77.12441, 38.76449 ], [ -77.12367, 38.76381 ], [ -77.12436, 38.76231 ], [ -77.12586, 38.76218 ], [ -77.12616, 38.76145 ], [ -77.12731, 38.76138 ], [ -77.12778, 38.76157 ], [ -77.12778, 38.76221 ], [ -77.12912, 38.76273 ], [ -77.1272, 38.76104 ], [ -77.12613, 38.76103 ], [ -77.12627, 38.75927 ], [ -77.12791, 38.75864 ], [ -77.12839, 38.7592 ], [ -77.13004, 38.75806 ], [ -77.13289, 38.76031 ], [ -77.13538, 38.75763 ], [ -77.12629, 38.75334 ], [ -77.12604, 38.7526 ], [ -77.12698, 38.7524 ], [ -77.13606, 38.75668 ], [ -77.13646, 38.75615 ], [ -77.13659, 38.75559 ], [ -77.1351, 38.75459 ], [ -77.13272, 38.75398 ], [ -77.13065, 38.75273 ], [ -77.12924, 38.75241 ], [ -77.12872, 38.75129 ], [ -77.12867, 38.75088 ], [ -77.13081, 38.74921 ], [ -77.13046, 38.74855 ], [ -77.1308, 38.74827 ], [ -77.13025, 38.74764 ], [ -77.13105, 38.74717 ], [ -77.13107, 38.74651 ], [ -77.13185, 38.74642 ], [ -77.1313, 38.74585 ], [ -77.13146, 38.74546 ], [ -77.13264, 38.74456 ], [ -77.13368, 38.74504 ], [ -77.13389, 38.74301 ], [ -77.13486, 38.74292 ], [ -77.13679, 38.7446 ], [ -77.13943, 38.74585 ], [ -77.14256, 38.74814 ], [ -77.14426, 38.74705 ], [ -77.14262, 38.74605 ], [ -77.14181, 38.74431 ], [ -77.13569, 38.74136 ], [ -77.13541, 38.74063 ], [ -77.13662, 38.74053 ], [ -77.13771, 38.73921 ], [ -77.13955, 38.73874 ], [ -77.14097, 38.73965 ], [ -77.14104, 38.74041 ], [ -77.14006, 38.74047 ], [ -77.13924, 38.7399 ], [ -77.13785, 38.74107 ], [ -77.14181, 38.74312 ], [ -77.14217, 38.74194 ], [ -77.14367, 38.7409 ], [ -77.14438, 38.74142 ], [ -77.1442, 38.74181 ], [ -77.1433, 38.74256 ], [ -77.14319, 38.74284 ], [ -77.14388, 38.74241 ], [ -77.14476, 38.7424 ], [ -77.14851, 38.7443 ], [ -77.14886, 38.74413 ], [ -77.14666, 38.74098 ], [ -77.14677, 38.73717 ], [ -77.14275, 38.73219 ], [ -77.14153, 38.73 ], [ -77.14187, 38.72928 ], [ -77.14291, 38.72946 ], [ -77.14428, 38.7319 ], [ -77.14825, 38.73685 ], [ -77.14853, 38.73818 ], [ -77.14811, 38.7406 ], [ -77.15021, 38.74356 ], [ -77.15362, 38.74285 ], [ -77.15369, 38.74214 ], [ -77.15415, 38.74193 ], [ -77.15496, 38.74255 ], [ -77.15762, 38.74216 ], [ -77.16036, 38.74109 ], [ -77.15974, 38.73644 ], [ -77.1568, 38.73417 ], [ -77.15676, 38.73341 ], [ -77.15774, 38.73338 ], [ -77.16027, 38.73522 ], [ -77.16098, 38.73517 ] ], [ [ -77.14734, 38.74499 ], [ -77.14434, 38.74344 ], [ -77.14379, 38.74423 ], [ -77.14389, 38.74555 ], [ -77.14544, 38.7463 ], [ -77.14734, 38.74499 ] ], [ [ -77.16116, 38.74217 ], [ -77.16076, 38.74264 ], [ -77.16133, 38.74242 ], [ -77.16116, 38.74217 ] ], [ [ -77.16213, 38.74 ], [ -77.16159, 38.73766 ], [ -77.16126, 38.73707 ], [ -77.16164, 38.74051 ], [ -77.16213, 38.74 ] ], [ [ -77.16573, 38.74173 ], [ -77.16564, 38.74139 ], [ -77.16573, 38.74127 ], [ -77.16554, 38.74138 ], [ -77.16573, 38.74173 ] ], [ [ -77.16307, 38.74283 ], [ -77.16346, 38.74292 ], [ -77.16342, 38.74261 ], [ -77.16307, 38.74283 ] ], [ [ -77.14857, 38.77017 ], [ -77.15089, 38.76913 ], [ -77.15048, 38.76866 ], [ -77.14783, 38.76822 ], [ -77.14743, 38.76888 ], [ -77.14857, 38.77017 ] ], [ [ -77.14898, 38.76347 ], [ -77.15055, 38.7632 ], [ -77.14906, 38.76229 ], [ -77.14877, 38.76113 ], [ -77.14657, 38.75814 ], [ -77.14652, 38.75937 ], [ -77.14516, 38.75959 ], [ -77.1462, 38.76048 ], [ -77.14613, 38.76089 ], [ -77.14501, 38.76118 ], [ -77.14493, 38.76293 ], [ -77.14432, 38.76446 ], [ -77.14554, 38.76455 ], [ -77.14565, 38.76287 ], [ -77.14764, 38.76148 ], [ -77.14843, 38.76193 ], [ -77.14828, 38.76236 ], [ -77.14898, 38.76347 ] ], [ [ -77.14686, 38.75655 ], [ -77.14922, 38.75933 ], [ -77.14949, 38.75895 ], [ -77.15046, 38.75908 ], [ -77.15222, 38.76175 ], [ -77.15339, 38.76091 ], [ -77.15426, 38.76134 ], [ -77.15505, 38.76086 ], [ -77.15496, 38.76016 ], [ -77.15542, 38.75995 ], [ -77.15713, 38.7609 ], [ -77.1573, 38.76157 ], [ -77.15783, 38.76096 ], [ -77.15457, 38.759 ], [ -77.15398, 38.75983 ], [ -77.15209, 38.75953 ], [ -77.15189, 38.75798 ], [ -77.15136, 38.75766 ], [ -77.1517, 38.75703 ], [ -77.15134, 38.75552 ], [ -77.15051, 38.75503 ], [ -77.14686, 38.75655 ] ], [ [ -77.15676, 38.76222 ], [ -77.15668, 38.76228 ], [ -77.1567, 38.76229 ], [ -77.15676, 38.76222 ] ], [ [ -77.15654, 38.76739 ], [ -77.15664, 38.76731 ], [ -77.15642, 38.76731 ], [ -77.15654, 38.76739 ] ], [ [ -77.15357, 38.7689 ], [ -77.15399, 38.76817 ], [ -77.15409, 38.76797 ], [ -77.15337, 38.76797 ], [ -77.15357, 38.7689 ] ], [ [ -77.15449, 38.76689 ], [ -77.15478, 38.76587 ], [ -77.15189, 38.76455 ], [ -77.15279, 38.76559 ], [ -77.1522, 38.76686 ], [ -77.15449, 38.76689 ] ], [ [ -77.15433, 38.76184 ], [ -77.15386, 38.76301 ], [ -77.15526, 38.76194 ], [ -77.15433, 38.76184 ] ], [ [ -77.1557, 38.76309 ], [ -77.15501, 38.76369 ], [ -77.15552, 38.76402 ], [ -77.15595, 38.76323 ], [ -77.1557, 38.76309 ] ], [ [ -77.15593, 38.76877 ], [ -77.15561, 38.76819 ], [ -77.15534, 38.76872 ], [ -77.15593, 38.76877 ] ], [ [ -77.15224, 38.77027 ], [ -77.15147, 38.77015 ], [ -77.15126, 38.77024 ], [ -77.15134, 38.77032 ], [ -77.15224, 38.77027 ] ], [ [ -77.15247, 38.7703 ], [ -77.15262, 38.77027 ], [ -77.15234, 38.77028 ], [ -77.15247, 38.7703 ] ], [ [ -77.15228, 38.77028 ], [ -77.15231, 38.77028 ], [ -77.15224, 38.77027 ], [ -77.15228, 38.77028 ] ], [ [ -77.14137, 38.76744 ], [ -77.14197, 38.76723 ], [ -77.14213, 38.76714 ], [ -77.14164, 38.76704 ], [ -77.14137, 38.76744 ] ], [ [ -77.14038, 38.76328 ], [ -77.14041, 38.76341 ], [ -77.14049, 38.76331 ], [ -77.14038, 38.76328 ] ], [ [ -77.13906, 38.75929 ], [ -77.13986, 38.75994 ], [ -77.14038, 38.75923 ], [ -77.13964, 38.75949 ], [ -77.13906, 38.75929 ] ], [ [ -77.14093, 38.75823 ], [ -77.14202, 38.75856 ], [ -77.14296, 38.7577 ], [ -77.14257, 38.75663 ], [ -77.14087, 38.75773 ], [ -77.14093, 38.75823 ] ], [ [ -77.14009, 38.7568 ], [ -77.13947, 38.75615 ], [ -77.13986, 38.757 ], [ -77.14009, 38.7568 ] ], [ [ -77.13952, 38.75449 ], [ -77.1407, 38.75456 ], [ -77.14104, 38.75414 ], [ -77.14101, 38.7535 ], [ -77.13989, 38.75278 ], [ -77.13897, 38.75408 ], [ -77.13952, 38.75449 ] ], [ [ -77.14063, 38.75 ], [ -77.14149, 38.74897 ], [ -77.14127, 38.74874 ], [ -77.14061, 38.74925 ], [ -77.14009, 38.74917 ], [ -77.13994, 38.74837 ], [ -77.13935, 38.74795 ], [ -77.13838, 38.74885 ], [ -77.14063, 38.75 ] ], [ [ -77.14074, 38.75178 ], [ -77.14369, 38.75378 ], [ -77.14561, 38.75061 ], [ -77.14594, 38.74908 ], [ -77.14518, 38.74859 ], [ -77.14534, 38.74775 ], [ -77.14291, 38.74933 ], [ -77.14074, 38.75178 ] ], [ [ -77.14346, 38.76641 ], [ -77.1435, 38.76639 ], [ -77.14346, 38.7664 ], [ -77.14346, 38.76641 ] ], [ [ -77.14579, 38.76492 ], [ -77.14582, 38.7651 ], [ -77.146, 38.765 ], [ -77.14579, 38.76492 ] ], [ [ -77.14086, 38.76186 ], [ -77.14078, 38.76112 ], [ -77.14024, 38.76114 ], [ -77.14086, 38.76186 ] ], [ [ -77.14351, 38.76844 ], [ -77.14354, 38.76847 ], [ -77.14355, 38.76845 ], [ -77.14351, 38.76844 ] ], [ [ -77.14019, 38.76823 ], [ -77.13983, 38.76783 ], [ -77.13913, 38.7682 ], [ -77.13953, 38.76857 ], [ -77.14019, 38.76823 ] ], [ [ -77.13886, 38.76703 ], [ -77.13839, 38.76729 ], [ -77.13904, 38.76694 ], [ -77.13886, 38.76703 ] ], [ [ -77.13739, 38.74917 ], [ -77.13764, 38.74925 ], [ -77.13767, 38.74916 ], [ -77.13739, 38.74917 ] ], [ [ -77.13737, 38.75705 ], [ -77.13735, 38.75723 ], [ -77.13742, 38.75699 ], [ -77.13737, 38.75705 ] ], [ [ -77.13346, 38.74954 ], [ -77.13333, 38.74945 ], [ -77.13332, 38.74958 ], [ -77.13346, 38.74954 ] ], [ [ -77.13417, 38.74824 ], [ -77.1341, 38.74838 ], [ -77.13424, 38.74833 ], [ -77.13417, 38.74824 ] ], [ [ -77.13182, 38.75019 ], [ -77.13165, 38.75022 ], [ -77.13181, 38.75032 ], [ -77.13182, 38.75019 ] ], [ [ -77.12993, 38.7636 ], [ -77.13113, 38.76381 ], [ -77.1316, 38.76398 ], [ -77.13058, 38.76321 ], [ -77.12993, 38.7636 ] ], [ [ -77.12977, 38.76066 ], [ -77.12929, 38.76116 ], [ -77.13021, 38.76206 ], [ -77.13183, 38.761 ], [ -77.13103, 38.7603 ], [ -77.13084, 38.76085 ], [ -77.12977, 38.76066 ] ], [ [ -77.12678, 38.76331 ], [ -77.12687, 38.76325 ], [ -77.12676, 38.76324 ], [ -77.12678, 38.76331 ] ] ] } }
]
}
