{
"type": "FeatureCollection",
"name": "184",
"crs": { "type": "name", "properties": { "name": "urn:ogc:def:crs:OGC:1.3:CRS84" } },
"xy_coordinate_resolution": 1e-05,
"features": [
{ "type": "Feature", "properties": { "variant": "T0", "miles": 0.5 }, "geometry": { "type": "Polygon", "coordinates": [ [ [ -77.14772, 38.74635 ], [ -77.1423, 38.74992 ], [ -77.14074, 38.75178 ], [ -77.14183, 38.75247 ], [ -77.14182, 38.75332 ], [ -77.14085, 38.7534 ], [ -77.13989, 38.75278 ], [ -77.13884, 38.75419 ], [ -77.13807, 38.75411 ], [ -77.13774, 38.75378 ], [ -77.13803, 38.75306 ], [ -77.13706, 38.75308 ], [ -77.13684, 38.75271 ], [ -77.13678, 38.7519 ], [ -77.13724, 38.75158 ], [ -77.13625, 38.74974 ], [ -77.13707, 38.74926 ], [ -77.13759, 38.74922 ], [ -77.13802, 38.74966 ], [ -77.13881, 38.74915 ], [ -77.13932, 38.74926 ], [ -77.13957, 38.74963 ], [ -77.13904, 38.75039 ], [ -77.14002, 38.75069 ], [ -77.14149, 38.74897 ], [ -77.14127, 38.74874 ], [ -77.14061, 38.74925 ], [ -77.14009, 38.74917 ], [ -77.13994, 38.74837 ], [ -77.13935, 38.74795 ], [ -77.13873, 38.74835 ], [ -77.13762, 38.748 ], [ -77.13735, 38.74764 ], [ -77.13772, 38.74714 ], [ -77.1371, 38.74663 ], [ -77.13721, 38.74622 ], [ -77.13765, 38.74599 ], [ -77.13904, 38.74652 ], [ -77.14012, 38.74636 ], [ -77.14256, 38.74814 ], [ -77.14426, 38.74705 ], [ -77.14252, 38.74594 ], [ -77.1427, 38.74519 ], [ -77.14322, 38.74511 ], [ -77.14544, 38.7463 ], [ -77.1473, 38.74523 ], [ -77.14789, 38.74561 ], [ -77.14772, 38.74635 ] ], [ [ -77.13827, 38.75273 ], [ -77.13822, 38.75264 ], [ -77.13804, 38.75305 ], [ -77.13827, 38.75273 ] ] ] } },
{ "type": "Feature", "properties": { "variant": "T0", "miles": 1.0 }, "geometry": { "type": "Polygon", "coordinates": [ [ [ -77.14782, 38.73986 ], [ -77.15021, 38.74356 ], [ -77.15362, 38.74285 ], [ -77.15369, 38.74214 ], [ -77.15415, 38.74193 ], [ -77.15466, 38.74203 ], [ -77.15519, 38.74317 ], [ -77.15513, 38.74358 ], [ -77.15411, 38.74398 ], [ -77.1546, 38.74439 ], [ -77.15448, 38.74522 ], [ -77.15419, 38.74557 ], [ -77.15343, 38.74553 ], [ -77.15283, 38.74627 ], [ -77.15191, 38.746 ], [ -77.15234, 38.74436 ], [ -77.1502, 38.74492 ], [ -77.15038, 38.74556 ], [ -77.14957, 38.74655 ], [ -77.14821, 38.74604 ], [ -77.14781, 38.74728 ], [ -77.14941, 38.748 ], [ -77.14967, 38.74874 ], [ -77.14873, 38.74894 ], [ -77.14758, 38.74842 ], [ -77.14714, 38.75002 ], [ -77.14743, 38.75059 ], [ -77.14463, 38.75463 ], [ -77.14584, 38.75566 ], [ -77.14684, 38.75461 ], [ -77.14806, 38.75474 ], [ -77.14888, 38.75387 ], [ -77.15031, 38.75445 ], [ -77.15026, 38.75521 ], [ -77.14686, 38.75655 ], [ -77.14765, 38.7575 ], [ -77.14665, 38.75801 ], [ -77.14635, 38.75851 ], [ -77.14676, 38.759 ], [ -77.14631, 38.75951 ], [ -77.14408, 38.75979 ], [ -77.14349, 38.75922 ], [ -77.1436, 38.7587 ], [ -77.1428, 38.7587 ], [ -77.14255, 38.75833 ], [ -77.14457, 38.75639 ], [ -77.14382, 38.75574 ], [ -77.13894, 38.75937 ], [ -77.13545, 38.7602 ], [ -77.13328, 38.76146 ], [ -77.13231, 38.76143 ], [ -77.13235, 38.76066 ], [ -77.13371, 38.75977 ], [ -77.13659, 38.75559 ], [ -77.1351, 38.75459 ], [ -77.13272, 38.75398 ], [ -77.13068, 38.75292 ], [ -77.13094, 38.75219 ], [ -77.13182, 38.75198 ], [ -77.12974, 38.75031 ], [ -77.13081, 38.74921 ], [ -77.13046, 38.74855 ], [ -77.1308, 38.74827 ], [ -77.13025, 38.74764 ], [ -77.13105, 38.74717 ], [ -77.13107, 38.74651 ], [ -77.13185, 38.74642 ], [ -77.1313, 38.74585 ], [ -77.13146, 38.74546 ], [ -77.13264, 38.74456 ], [ -77.13368, 38.74504 ], [ -77.13389, 38.74301 ], [ -77.13486, 38.74292 ], [ -77.13679, 38.7446 ], [ -77.13943, 38.74585 ], [ -77.14256, 38.74814 ], [ -77.14426, 38.74705 ], [ -77.14262, 38.74605 ], [ -77.14181, 38.74431 ], [ -77.13683, 38.74183 ], [ -77.13667, 38.74107 ], [ -77.13764, 38.74095 ], [ -77.14181, 38.74312 ], [ -77.14217, 38.74194 ], [ -77.14367, 38.7409 ], [ -77.14438, 38.74142 ], [ -77.1442, 38.74181 ], [ -77.1433, 38.74256 ], [ -77.14319, 38.74284 ], [ -77.14388, 38.74241 ], [ -77.14476, 38.7424 ], [ -77.14851, 38.7443 ], [ -77.14886, 38.74413 ], [ -77.14677, 38.74129 ], [ -77.14669, 38.73992 ], [ -77.14782, 38.73986 ] ], [ [ -77.14373, 38.75373 ], [ -77.14562, 38.7506 ], [ -77.14594, 38.74908 ], [ -77.14518, 38.74859 ], [ -77.14534, 38.74775 ], [ -77.14291, 38.74933 ], [ -77.14074, 38.75178 ], [ -77.14373, 38.75373 ] ], [ [ -77.13767, 38.74916 ], [ -77.13739, 38.74917 ], [ -77.13764, 38.74925 ], [ -77.13767, 38.74916 ] ], [ [ -77.14379, 38.74423 ], [ -77.14389, 38.74555 ], [ -77.14544, 38.7463 ], [ -77.14734, 38.74499 ], [ -77.14434, 38.74344 ], [ -77.14379, 38.74423 ] ], [ [ -77.14149, 38.74897 ], [ -77.14009, 38.74917 ], [ -77.13994, 38.74837 ], [ -77.13935, 38.74795 ], [ -77.13838, 38.74885 ], [ -77.14063, 38.75 ], [ -77.14149, 38.74897 ] ], [ [ -77.14009, 38.7568 ], [ -77.13947, 38.75615 ], [ -77.13986, 38.757 ], [ -77.14009, 38.7568 ] ], [ [ -77.13977, 38.7529 ], [ -77.13897, 38.75408 ], [ -77.13941, 38.75451 ], [ -77.1407, 38.75456 ], [ -77.14101, 38.7535 ], [ -77.13977, 38.7529 ] ], [ [ -77.13728, 38.75719 ], [ -77.13747, 38.75706 ], [ -77.13742, 38.75699 ], [ -77.13728, 38.75719 ] ], [ [ -77.13165, 38.75022 ], [ -77.13181, 38.75032 ], [ -77.13182, 38.75019 ], [ -77.13165, 38.75022 ] ], [ [ -77.13332, 38.74958 ], [ -77.13346, 38.74954 ], [ -77.13333, 38.74945 ], [ -77.13332, 38.74958 ] ], [ [ -77.13419, 38.74834 ], [ -77.13417, 38.74824 ], [ -77.1341, 38.74838 ], [ -77.13419, 38.74834 ] ] ] } },
{ "type": "Feature", "properties": { "variant": "T0", "miles": 1.5 }, "geometry": { "type": "Polygon", "coordinates": [ [ [ -77.16084, 38.73814 ], [ -77.16133, 38.73852 ], [ -77.16164, 38.74051 ], [ -77.16316, 38.73951 ], [ -77.16413, 38.74016 ], [ -77.16369, 38.74076 ], [ -77.16446, 38.74173 ], [ -77.16307, 38.74283 ], [ -77.1632, 38.74382 ], [ -77.16043, 38.74499 ], [ -77.15834, 38.74323 ], [ -77.15589, 38.74359 ], [ -77.1558, 38.74455 ], [ -77.15455, 38.74491 ], [ -77.15396, 38.74561 ], [ -77.15395, 38.74684 ], [ -77.1531, 38.74779 ], [ -77.15356, 38.74803 ], [ -77.15353, 38.74891 ], [ -77.15274, 38.74935 ], [ -77.15164, 38.74808 ], [ -77.15032, 38.74772 ], [ -77.1502, 38.74732 ], [ -77.15164, 38.74634 ], [ -77.15234, 38.74436 ], [ -77.1502, 38.74492 ], [ -77.15038, 38.74556 ], [ -77.14994, 38.74624 ], [ -77.14902, 38.74656 ], [ -77.14834, 38.74597 ], [ -77.14781, 38.74728 ], [ -77.14941, 38.748 ], [ -77.14967, 38.74874 ], [ -77.14873, 38.74894 ], [ -77.14758, 38.74842 ], [ -77.14714, 38.75002 ], [ -77.14743, 38.75059 ], [ -77.14564, 38.75309 ], [ -77.14718, 38.75349 ], [ -77.1477, 38.75482 ], [ -77.14949, 38.75245 ], [ -77.15052, 38.75251 ], [ -77.15099, 38.75297 ], [ -77.15203, 38.75187 ], [ -77.1536, 38.75187 ], [ -77.15764, 38.75076 ], [ -77.15857, 38.75097 ], [ -77.15835, 38.75179 ], [ -77.15293, 38.75346 ], [ -77.15441, 38.75425 ], [ -77.1545, 38.75501 ], [ -77.15588, 38.75487 ], [ -77.15659, 38.75618 ], [ -77.15579, 38.75736 ], [ -77.15423, 38.75683 ], [ -77.154, 38.75837 ], [ -77.1535, 38.75892 ], [ -77.15297, 38.75892 ], [ -77.15136, 38.75766 ], [ -77.1517, 38.75703 ], [ -77.15128, 38.75645 ], [ -77.15144, 38.75581 ], [ -77.15051, 38.75503 ], [ -77.14686, 38.75655 ], [ -77.14922, 38.75933 ], [ -77.14949, 38.75895 ], [ -77.15046, 38.75908 ], [ -77.15222, 38.76175 ], [ -77.15339, 38.76091 ], [ -77.15414, 38.76114 ], [ -77.15442, 38.76167 ], [ -77.15352, 38.76272 ], [ -77.15482, 38.76377 ], [ -77.15406, 38.76501 ], [ -77.15312, 38.76522 ], [ -77.15281, 38.76493 ], [ -77.15189, 38.76455 ], [ -77.15275, 38.766 ], [ -77.15118, 38.76629 ], [ -77.14948, 38.76619 ], [ -77.14853, 38.76509 ], [ -77.14751, 38.76499 ], [ -77.14758, 38.76412 ], [ -77.15055, 38.7632 ], [ -77.14906, 38.76229 ], [ -77.14877, 38.76113 ], [ -77.14657, 38.75814 ], [ -77.14652, 38.75937 ], [ -77.14516, 38.75959 ], [ -77.1462, 38.76048 ], [ -77.14571, 38.76114 ], [ -77.14501, 38.76118 ], [ -77.14476, 38.76322 ], [ -77.14156, 38.76428 ], [ -77.13934, 38.7666 ], [ -77.13884, 38.76646 ], [ -77.13869, 38.76539 ], [ -77.13806, 38.76486 ], [ -77.13817, 38.76446 ], [ -77.13862, 38.76423 ], [ -77.13943, 38.76447 ], [ -77.14016, 38.76378 ], [ -77.14049, 38.76331 ], [ -77.13982, 38.76232 ], [ -77.14087, 38.76188 ], [ -77.14078, 38.76112 ], [ -77.13812, 38.76069 ], [ -77.1371, 38.76185 ], [ -77.13618, 38.762 ], [ -77.13549, 38.76146 ], [ -77.13669, 38.75986 ], [ -77.13466, 38.76056 ], [ -77.13167, 38.76253 ], [ -77.13475, 38.76499 ], [ -77.13473, 38.76576 ], [ -77.13376, 38.76574 ], [ -77.13211, 38.7644 ], [ -77.13234, 38.76556 ], [ -77.13137, 38.76565 ], [ -77.13081, 38.76487 ], [ -77.12874, 38.76424 ], [ -77.12701, 38.76519 ], [ -77.1267, 38.76598 ], [ -77.12579, 38.7657 ], [ -77.12496, 38.76457 ], [ -77.12515, 38.76419 ], [ -77.12628, 38.76427 ], [ -77.12692, 38.76391 ], [ -77.12687, 38.76325 ], [ -77.12556, 38.76325 ], [ -77.1252, 38.76294 ], [ -77.12616, 38.76145 ], [ -77.12713, 38.76153 ], [ -77.12725, 38.76219 ], [ -77.12912, 38.76273 ], [ -77.1272, 38.76104 ], [ -77.12613, 38.76103 ], [ -77.12627, 38.75927 ], [ -77.128, 38.7594 ], [ -77.13004, 38.75806 ], [ -77.13289, 38.76031 ], [ -77.13538, 38.75763 ], [ -77.12629, 38.75334 ], [ -77.12604, 38.7526 ], [ -77.12698, 38.7524 ], [ -77.13606, 38.75668 ], [ -77.13653, 38.75596 ], [ -77.13659, 38.75559 ], [ -77.1351, 38.75459 ], [ -77.13249, 38.75389 ], [ -77.12893, 38.75206 ], [ -77.12867, 38.75088 ], [ -77.13081, 38.74921 ], [ -77.13046, 38.74855 ], [ -77.1308, 38.74827 ], [ -77.13025, 38.74764 ], [ -77.13105, 38.74717 ], [ -77.13107, 38.74651 ], [ -77.13185, 38.74642 ], [ -77.1313, 38.74585 ], [ -77.13146, 38.74546 ], [ -77.13264, 38.74456 ], [ -77.13368, 38.74504 ], [ -77.13356, 38.74376 ], [ -77.13435, 38.74281 ], [ -77.14256, 38.74814 ], [ -77.14426, 38.74705 ], [ -77.14262, 38.74605 ], [ -77.14181, 38.74431 ], [ -77.13569, 38.74136 ], [ -77.13541, 38.74063 ], [ -77.13662, 38.74053 ], [ -77.13771, 38.73921 ], [ -77.13955, 38.73874 ], [ -77.14097, 38.73965 ], [ -77.14104, 38.74041 ], [ -77.14006, 38.74047 ], [ -77.13924, 38.7399 ], [ -77.13785, 38.74107 ], [ -77.14181, 38.74312 ], [ -77.14225, 38.74186 ], [ -77.14319, 38.74107 ], [ -77.14417, 38.74104 ], [ -77.1442, 38.74181 ], [ -77.1433, 38.74256 ], [ -77.14319, 38.74284 ], [ -77.14388, 38.74241 ], [ -77.14476, 38.7424 ], [ -77.14851, 38.7443 ], [ -77.14886, 38.74413 ], [ -77.14677, 38.74129 ], [ -77.14669, 38.73992 ], [ -77.14782, 38.73986 ], [ -77.15021, 38.74356 ], [ -77.15362, 38.74285 ], [ -77.15369, 38.74214 ], [ -77.15415, 38.74193 ], [ -77.15496, 38.74255 ], [ -77.15762, 38.74216 ], [ -77.16036, 38.74109 ], [ -77.15996, 38.73862 ], [ -77.16084, 38.73814 ] ], [ [ -77.14314, 38.75748 ], [ -77.14257, 38.75663 ], [ -77.14087, 38.75773 ], [ -77.14093, 38.75823 ], [ -77.14202, 38.75856 ], [ -77.14314, 38.75748 ] ], [ [ -77.14373, 38.75373 ], [ -77.14562, 38.7506 ], [ -77.14594, 38.74908 ], [ -77.14518, 38.74859 ], [ -77.14534, 38.74775 ], [ -77.14291, 38.74933 ], [ -77.14074, 38.75178 ], [ -77.14373, 38.75373 ] ], [ [ -77.16116, 38.74217 ], [ -77.16076, 38.74264 ], [ -77.16133, 38.74242 ], [ -77.16116, 38.74217 ] ], [ [ -77.14544, 38.7463 ], [ -77.14734, 38.74499 ], [ -77.14434, 38.74344 ], [ -77.14379, 38.74423 ], [ -77.14389, 38.74555 ], [ -77.14544, 38.7463 ] ], [ [ -77.13906, 38.75929 ], [ -77.13986, 38.75994 ], [ -77.14038, 38.75923 ], [ -77.13964, 38.75949 ], [ -77.13906, 38.75929 ] ], [ [ -77.13952, 38.75449 ], [ -77.1407, 38.75456 ], [ -77.14104, 38.75414 ], [ -77.14101, 38.7535 ], [ -77.13989, 38.75278 ], [ -77.13897, 38.75408 ], [ -77.13952, 38.75449 ] ], [ [ -77.13739, 38.74917 ], [ -77.13764, 38.74925 ], [ -77.13767, 38.74916 ], [ -77.13739, 38.74917 ] ], [ [ -77.14009, 38.7568 ], [ -77.13947, 38.75615 ], [ -77.13986, 38.757 ], [ -77.14009, 38.7568 ] ], [ [ -77.13838, 38.74885 ], [ -77.14063, 38.75 ], [ -77.14149, 38.74897 ], [ -77.14127, 38.74874 ], [ -77.14061, 38.74925 ], [ -77.14009, 38.74917 ], [ -77.13994, 38.74837 ], [ -77.13935, 38.74795 ], [ -77.13838, 38.74885 ] ], [ [ -77.13728, 38.75719 ], [ -77.13747, 38.75706 ], [ -77.13742, 38.75699 ], [ -77.13728, 38.75719 ] ], [ [ -77.13165, 38.75022 ], [ -77.13182, 38.75019 ], [ -77.13161, 38.7502 ], [ -77.13165, 38.75022 ] ], [ [ -77.13419, 38.74834 ], [ -77.13417, 38.74824 ], [ -77.1341, 38.74838 ], [ -77.13419, 38.74834 ] ], [ [ -77.13333, 38.74945 ], [ -77.13332, 38.74958 ], [ -77.13346, 38.74954 ], [ -77.13333, 38.74945 ] ], [ [ -77.12987, 38.76076 ], [ -77.12929, 38.76116 ], [ -77.13021, 38.76206 ], [ -77.13183, 38.761 ], [ -77.13103, 38.7603 ], [ -77.13084, 38.76085 ], [ -77.12987, 38.76076 ] ], [ [ -77.13058, 38.76321 ], [ -77.12993, 38.7636 ], [ -77.1316, 38.76398 ], [ -77.13058, 38.76321 ] ] ] } },
{ "type": "Feature", "properties": { "variant": "T2s", "miles": 0.5 }, "geometry": { "type": "Polygon", "coordinates": [ [ [ -77.148, 38.74601 ], [ -77.1423, 38.74992 ], [ -77.14074, 38.75178 ], [ -77.14183, 38.75247 ], [ -77.14182, 38.75332 ], [ -77.14085, 38.7534 ], [ -77.13989, 38.75278 ], [ -77.13884, 38.75419 ], [ -77.13807, 38.75411 ], [ -77.13774, 38.75378 ], [ -77.13803, 38.75306 ], [ -77.13706, 38.75308 ], [ -77.13684, 38.75271 ], [ -77.13678, 38.7519 ], [ -77.13724, 38.75158 ], [ -77.13625, 38.74974 ], [ -77.13707, 38.74926 ], [ -77.13759, 38.74922 ], [ -77.13802, 38.74966 ], [ -77.13881, 38.74915 ], [ -77.13932, 38.74926 ], [ -77.13957, 38.74963 ], [ -77.13904, 38.75039 ], [ -77.14002, 38.75069 ], [ -77.14149, 38.74897 ], [ -77.14127, 38.74874 ], [ -77.14061, 38.74925 ], [ -77.14009, 38.74917 ], [ -77.13994, 38.74837 ], [ -77.13935, 38.74795 ], [ -77.13873, 38.74835 ], [ -77.13762, 38.748 ], [ -77.13735, 38.74764 ], [ -77.13772, 38.74714 ], [ -77.1371, 38.74663 ], [ -77.13721, 38.74622 ], [ -77.13765, 38.74599 ], [ -77.13904, 38.74652 ], [ -77.14012, 38.74636 ], [ -77.14256, 38.74814 ], [ -77.14426, 38.74705 ], [ -77.14252, 38.74594 ], [ -77.1427, 38.74519 ], [ -77.14322, 38.74511 ], [ -77.14544, 38.7463 ], [ -77.14745, 38.74538 ], [ -77.148, 38.74601 ] ], [ [ -77.13827, 38.75273 ], [ -77.13822, 38.75264 ], [ -77.13804, 38.75305 ], [ -77.13827, 38.75273 ] ] ] } },
{ "type": "Feature", "properties": { "variant": "T2s", "miles": 1.0 }, "geometry": { "type": "Polygon", "coordinates": [ [ [ -77.14782, 38.73986 ], [ -77.15021, 38.74356 ], [ -77.15362, 38.74285 ], [ -77.15369, 38.74214 ], [ -77.15415, 38.74193 ], [ -77.15466, 38.74203 ], [ -77.15519, 38.74317 ], [ -77.15513, 38.74358 ], [ -77.15411, 38.74398 ], [ -77.1546, 38.74439 ], [ -77.15448, 38.74522 ], [ -77.15419, 38.74557 ], [ -77.15343, 38.74553 ], [ -77.15283, 38.74627 ], [ -77.15191, 38.746 ], [ -77.15234, 38.74436 ], [ -77.1502, 38.74492 ], [ -77.15038, 38.74556 ], [ -77.14957, 38.74655 ], [ -77.14821, 38.74604 ], [ -77.14781, 38.74728 ], [ -77.14941, 38.748 ], [ -77.14967, 38.74874 ], [ -77.14873, 38.74894 ], [ -77.14758, 38.74842 ], [ -77.14714, 38.75002 ], [ -77.14743, 38.75059 ], [ -77.14463, 38.75463 ], [ -77.14584, 38.75566 ], [ -77.14684, 38.75461 ], [ -77.14806, 38.75474 ], [ -77.14888, 38.75387 ], [ -77.15031, 38.75445 ], [ -77.15026, 38.75521 ], [ -77.14686, 38.75655 ], [ -77.14765, 38.7575 ], [ -77.14665, 38.75801 ], [ -77.14635, 38.75851 ], [ -77.14676, 38.759 ], [ -77.14631, 38.75951 ], [ -77.14408, 38.75979 ], [ -77.14349, 38.75922 ], [ -77.1436, 38.7587 ], [ -77.1428, 38.7587 ], [ -77.14255, 38.75833 ], [ -77.14457, 38.75639 ], [ -77.14382, 38.75574 ], [ -77.13894, 38.75937 ], [ -77.13387, 38.76058 ], [ -77.13366, 38.75984 ], [ -77.13659, 38.75559 ], [ -77.1351, 38.75459 ], [ -77.13272, 38.75398 ], [ -77.13068, 38.75292 ], [ -77.13094, 38.75219 ], [ -77.13182, 38.75198 ], [ -77.12974, 38.75031 ], [ -77.13081, 38.74921 ], [ -77.13046, 38.74855 ], [ -77.1308, 38.74827 ], [ -77.13025, 38.74764 ], [ -77.13105, 38.74717 ], [ -77.13107, 38.74651 ], [ -77.13185, 38.74642 ], [ -77.1313, 38.74585 ], [ -77.13146, 38.74546 ], [ -77.13264, 38.74456 ], [ -77.13368, 38.74504 ], [ -77.13389, 38.74301 ], [ -77.13486, 38.74292 ], [ -77.13679, 38.7446 ], [ -77.13943, 38.74585 ], [ -77.14256, 38.74814 ], [ -77.14426, 38.74705 ], [ -77.14262, 38.74605 ], [ -77.14181, 38.74431 ], [ -77.13683, 38.74183 ], [ -77.13667, 38.74107 ], [ -77.13764, 38.74095 ], [ -77.14181, 38.74312 ], [ -77.14217, 38.74194 ], [ -77.14367, 38.7409 ], [ -77.14438, 38.74142 ], [ -77.1442, 38.74181 ], [ -77.1433, 38.74256 ], [ -77.14319, 38.74284 ], [ -77.14388, 38.74241 ], [ -77.14476, 38.7424 ], [ -77.14851, 38.7443 ], [ -77.14886, 38.74413 ], [ -77.14677, 38.74129 ], [ -77.14669, 38.73992 ], [ -77.14782, 38.73986 ] ], [ [ -77.14373, 38.75373 ], [ -77.14562, 38.7506 ], [ -77.14594, 38.74908 ], [ -77.14518, 38.74859 ], [ -77.14534, 38.74775 ], [ -77.14291, 38.74933 ], [ -77.14074, 38.75178 ], [ -77.14373, 38.75373 ] ], [ [ -77.13767, 38.74916 ], [ -77.13739, 38.74917 ], [ -77.13764, 38.74925 ], [ -77.13767, 38.74916 ] ], [ [ -77.14379, 38.74423 ], [ -77.14389, 38.74555 ], [ -77.14544, 38.7463 ], [ -77.14734, 38.74499 ], [ -77.14434, 38.74344 ], [ -77.14379, 38.74423 ] ], [ [ -77.14149, 38.74897 ], [ -77.14009, 38.74917 ], [ -77.13994, 38.74837 ], [ -77.13935, 38.74795 ], [ -77.13838, 38.74885 ], [ -77.14063, 38.75 ], [ -77.14149, 38.74897 ] ], [ [ -77.14009, 38.7568 ], [ -77.13947, 38.75615 ], [ -77.13986, 38.757 ], [ -77.14009, 38.7568 ] ], [ [ -77.1407, 38.75456 ], [ -77.14101, 38.7535 ], [ -77.13989, 38.75278 ], [ -77.13897, 38.75408 ], [ -77.13941, 38.75451 ], [ -77.1407, 38.75456 ] ], [ [ -77.13735, 38.75723 ], [ -77.13742, 38.75699 ], [ -77.13728, 38.75719 ], [ -77.13735, 38.75723 ] ], [ [ -77.13165, 38.75022 ], [ -77.13181, 38.75032 ], [ -77.13182, 38.75019 ], [ -77.13165, 38.75022 ] ], [ [ -77.13332, 38.74958 ], [ -77.13346, 38.74954 ], [ -77.13333, 38.74945 ], [ -77.13332, 38.74958 ] ], [ [ -77.13419, 38.74834 ], [ -77.13417, 38.74824 ], [ -77.1341, 38.74838 ], [ -77.13419, 38.74834 ] ] ] } },
{ "type": "Feature", "properties": { "variant": "T2s", "miles": 1.5 }, "geometry": { "type": "Polygon", "coordinates": [ [ [ -77.16155, 38.74032 ], [ -77.16322, 38.73951 ], [ -77.16413, 38.74016 ], [ -77.16369, 38.74076 ], [ -77.16446, 38.74173 ], [ -77.16307, 38.74283 ], [ -77.1632, 38.74382 ], [ -77.16043, 38.74499 ], [ -77.15834, 38.74323 ], [ -77.15589, 38.74359 ], [ -77.1558, 38.74455 ], [ -77.15455, 38.74491 ], [ -77.15396, 38.74561 ], [ -77.15395, 38.74684 ], [ -77.1531, 38.74779 ], [ -77.15365, 38.74843 ], [ -77.15325, 38.74926 ], [ -77.15229, 38.74913 ], [ -77.15164, 38.74808 ], [ -77.15032, 38.74772 ], [ -77.1502, 38.74732 ], [ -77.15164, 38.74634 ], [ -77.15234, 38.74436 ], [ -77.1502, 38.74492 ], [ -77.15038, 38.74556 ], [ -77.14957, 38.74655 ], [ -77.14821, 38.74604 ], [ -77.14781, 38.74728 ], [ -77.14941, 38.748 ], [ -77.14967, 38.74874 ], [ -77.14873, 38.74894 ], [ -77.14758, 38.74842 ], [ -77.14714, 38.75002 ], [ -77.14743, 38.75059 ], [ -77.14564, 38.75309 ], [ -77.14718, 38.75349 ], [ -77.1477, 38.75482 ], [ -77.14949, 38.75245 ], [ -77.15052, 38.75251 ], [ -77.15099, 38.75297 ], [ -77.15203, 38.75187 ], [ -77.1536, 38.75187 ], [ -77.15764, 38.75076 ], [ -77.15864, 38.75108 ], [ -77.15835, 38.75179 ], [ -77.15293, 38.75346 ], [ -77.15441, 38.75425 ], [ -77.1545, 38.75501 ], [ -77.15588, 38.75487 ], [ -77.15659, 38.75618 ], [ -77.15579, 38.75736 ], [ -77.15423, 38.75683 ], [ -77.154, 38.75837 ], [ -77.1535, 38.75892 ], [ -77.15297, 38.75892 ], [ -77.15136, 38.75766 ], [ -77.1517, 38.75703 ], [ -77.15128, 38.75645 ], [ -77.15144, 38.75581 ], [ -77.15051, 38.75503 ], [ -77.14686, 38.75655 ], [ -77.14922, 38.75933 ], [ -77.14949, 38.75895 ], [ -77.15046, 38.75908 ], [ -77.15222, 38.76175 ], [ -77.15339, 38.76091 ], [ -77.15414, 38.76114 ], [ -77.15442, 38.76167 ], [ -77.15352, 38.76272 ], [ -77.15482, 38.76377 ], [ -77.15472, 38.76418 ], [ -77.15365, 38.76527 ], [ -77.15189, 38.76455 ], [ -77.15275, 38.766 ], [ -77.15181, 38.76624 ], [ -77.15107, 38.76555 ], [ -77.15015, 38.76615 ], [ -77.14853, 38.76511 ], [ -77.14906, 38.76446 ], [ -77.1505, 38.76419 ], [ -77.15065, 38.76339 ], [ -77.14906, 38.76229 ], [ -77.14877, 38.76113 ], [ -77.14657, 38.75814 ], [ -77.14652, 38.75937 ], [ -77.14516, 38.75959 ], [ -77.1462, 38.76048 ], [ -77.14571, 38.76114 ], [ -77.14501, 38.76118 ], [ -77.14476, 38.76322 ], [ -77.14156, 38.76428 ], [ -77.13934, 38.7666 ], [ -77.13884, 38.76646 ], [ -77.13869, 38.76539 ], [ -77.13806, 38.76486 ], [ -77.13817, 38.76446 ], [ -77.13862, 38.76423 ], [ -77.13943, 38.76447 ], [ -77.14016, 38.76378 ], [ -77.14049, 38.76331 ], [ -77.13982, 38.76232 ], [ -77.14087, 38.76188 ], [ -77.14078, 38.76112 ], [ -77.13812, 38.76069 ], [ -77.1366, 38.76199 ], [ -77.13594, 38.76143 ], [ -77.13669, 38.75986 ], [ -77.13466, 38.76056 ], [ -77.13167, 38.76253 ], [ -77.13475, 38.76499 ], [ -77.13473, 38.76576 ], [ -77.13376, 38.76574 ], [ -77.13211, 38.7644 ], [ -77.13234, 38.76556 ], [ -77.13137, 38.76565 ], [ -77.13081, 38.76487 ], [ -77.12874, 38.76424 ], [ -77.12701, 38.76519 ], [ -77.1267, 38.76598 ], [ -77.12579, 38.7657 ], [ -77.12496, 38.76457 ], [ -77.12515, 38.76419 ], [ -77.12628, 38.76427 ], [ -77.12692, 38.76391 ], [ -77.12687, 38.76325 ], [ -77.12556, 38.76325 ], [ -77.1252, 38.76294 ], [ -77.12616, 38.76145 ], [ -77.12713, 38.76153 ], [ -77.12725, 38.76219 ], [ -77.12912, 38.76273 ], [ -77.1272, 38.76104 ], [ -77.12613, 38.76103 ], [ -77.12627, 38.75927 ], [ -77.128, 38.7594 ], [ -77.13004, 38.75806 ], [ -77.13289, 38.76031 ], [ -77.13538, 38.75763 ], [ -77.12629, 38.75334 ], [ -77.12604, 38.7526 ], [ -77.12698, 38.7524 ], [ -77.13606, 38.75668 ], [ -77.13653, 38.75596 ], [ -77.13659, 38.75559 ], [ -77.1351, 38.75459 ], [ -77.13249, 38.75389 ], [ -77.12893, 38.75206 ], [ -77.12867, 38.75088 ], [ -77.13081, 38.74921 ], [ -77.13046, 38.74855 ], [ -77.1308, 38.74827 ], [ -77.13025, 38.74764 ], [ -77.13105, 38.74717 ], [ -77.13107, 38.74651 ], [ -77.13185, 38.74642 ], [ -77.1313, 38.74585 ], [ -77.13146, 38.74546 ], [ -77.13264, 38.74456 ], [ -77.13368, 38.74504 ], [ -77.13356, 38.74376 ], [ -77.13435, 38.74281 ], [ -77.14256, 38.74814 ], [ -77.14426, 38.74705 ], [ -77.14262, 38.74605 ], [ -77.14181, 38.74431 ], [ -77.13569, 38.74136 ], [ -77.13541, 38.74063 ], [ -77.13662, 38.74053 ], [ -77.13771, 38.73921 ], [ -77.13955, 38.73874 ], [ -77.14097, 38.73965 ], [ -77.14104, 38.74041 ], [ -77.14006, 38.74047 ], [ -77.13924, 38.7399 ], [ -77.13785, 38.74107 ], [ -77.14181, 38.74312 ], [ -77.14225, 38.74186 ], [ -77.14319, 38.74107 ], [ -77.14417, 38.74104 ], [ -77.1442, 38.74181 ], [ -77.1433, 38.74256 ], [ -77.14319, 38.74284 ], [ -77.14388, 38.74241 ], [ -77.14476, 38.7424 ], [ -77.14851, 38.7443 ], [ -77.14886, 38.74413 ], [ -77.14666, 38.74098 ], [ -77.14669, 38.73992 ], [ -77.14715, 38.73972 ], [ -77.14782, 38.73986 ], [ -77.15021, 38.74356 ], [ -77.15362, 38.74285 ], [ -77.15369, 38.74214 ], [ -77.15415, 38.74193 ], [ -77.15496, 38.74255 ], [ -77.15888, 38.74173 ], [ -77.16044, 38.74106 ], [ -77.16009, 38.73966 ], [ -77.16078, 38.73912 ], [ -77.16127, 38.73928 ], [ -77.16155, 38.74032 ] ], [ [ -77.14298, 38.75766 ], [ -77.14257, 38.75663 ], [ -77.14087, 38.75773 ], [ -77.14093, 38.75823 ], [ -77.14202, 38.75856 ], [ -77.14298, 38.75766 ] ], [ [ -77.14074, 38.75178 ], [ -77.14369, 38.75378 ], [ -77.14562, 38.7506 ], [ -77.14594, 38.74908 ], [ -77.14518, 38.74859 ], [ -77.14534, 38.74775 ], [ -77.14291, 38.74933 ], [ -77.14074, 38.75178 ] ], [ [ -77.16116, 38.74217 ], [ -77.16076, 38.74264 ], [ -77.16133, 38.74242 ], [ -77.16116, 38.74217 ] ], [ [ -77.14544, 38.7463 ], [ -77.14734, 38.74499 ], [ -77.14434, 38.74344 ], [ -77.14379, 38.74423 ], [ -77.14389, 38.74555 ], [ -77.14544, 38.7463 ] ], [ [ -77.13906, 38.75929 ], [ -77.13986, 38.75994 ], [ -77.14038, 38.75923 ], [ -77.13964, 38.75949 ], [ -77.13906, 38.75929 ] ], [ [ -77.13739, 38.74917 ], [ -77.13764, 38.74925 ], [ -77.13767, 38.74916 ], [ -77.13739, 38.74917 ] ], [ [ -77.14009, 38.7568 ], [ -77.13947, 38.75615 ], [ -77.13986, 38.757 ], [ -77.14009, 38.7568 ] ], [ [ -77.1407, 38.75456 ], [ -77.14101, 38.7535 ], [ -77.13989, 38.75278 ], [ -77.13897, 38.75408 ], [ -77.13941, 38.75451 ], [ -77.1407, 38.75456 ] ], [ [ -77.13838, 38.74885 ], [ -77.14063, 38.75 ], [ -77.14149, 38.74897 ], [ -77.14127, 38.74874 ], [ -77.14061, 38.74925 ], [ -77.14009, 38.74917 ], [ -77.13994, 38.74837 ], [ -77.13935, 38.74795 ], [ -77.13838, 38.74885 ] ], [ [ -77.13735, 38.75723 ], [ -77.13742, 38.75699 ], [ -77.13728, 38.75719 ], [ -77.13735, 38.75723 ] ], [ [ -77.13182, 38.75019 ], [ -77.13161, 38.7502 ], [ -77.13181, 38.75032 ], [ -77.13182, 38.75019 ] ], [ [ -77.13419, 38.74834 ], [ -77.13417, 38.74824 ], [ -77.1341, 38.74838 ], [ -77.13419, 38.74834 ] ], [ [ -77.13333, 38.74945 ], [ -77.13332, 38.74958 ], [ -77.13346, 38.74954 ], [ -77.13333, 38.74945 ] ], [ [ -77.12987, 38.76076 ], [ -77.12929, 38.76116 ], [ -77.13021, 38.76206 ], [ -77.13183, 38.761 ], [ -77.13103, 38.7603 ], [ -77.13084, 38.76085 ], [ -77.12987, 38.76076 ] ], [ [ -77.13058, 38.76321 ], [ -77.12993, 38.7636 ], [ -77.1316, 38.76398 ], [ -77.13058, 38.76321 ] ] ] } }
]
}
