{
"type": "FeatureCollection",
"name": "193",
"crs": { "type": "name", "properties": { "name": "urn:ogc:def:crs:OGC:1.3:CRS84" } },
"xy_coordinate_resolution": 1e-05,
"features": [
{ "type": "Feature", "properties": { "variant": "T0", "miles": 0.5 }, "geometry": { "type": "Polygon", "coordinates": [ [ [ -77.11377, 38.79237 ], [ -77.11371, 38.79367 ], [ -77.11291, 38.79381 ], [ -77.11227, 38.79325 ], [ -77.11043, 38.79405 ], [ -77.11085, 38.79516 ], [ -77.11187, 38.79488 ], [ -77.11238, 38.79541 ], [ -77.11608, 38.79302 ], [ -77.11705, 38.79312 ], [ -77.11718, 38.79352 ], [ -77.11641, 38.79439 ], [ -77.11314, 38.79632 ], [ -77.11427, 38.79623 ], [ -77.11458, 38.79698 ], [ -77.11594, 38.79716 ], [ -77.11604, 38.79792 ], [ -77.11419, 38.79804 ], [ -77.11423, 38.79849 ], [ -77.11595, 38.79903 ], [ -77.11617, 38.7994 ], [ -77.11552, 38.79997 ], [ -77.11391, 38.79956 ], [ -77.11239, 38.80067 ], [ -77.11235, 38.80118 ], [ -77.11141, 38.80138 ], [ -77.11, 38.79817 ], [ -77.10953, 38.79926 ], [ -77.1074, 38.79904 ], [ -77.10755, 38.79828 ], [ -77.10967, 38.79703 ], [ -77.10988, 38.79641 ], [ -77.10943, 38.79522 ], [ -77.10873, 38.79486 ], [ -77.1089, 38.79438 ], [ -77.10799, 38.79436 ], [ -77.10772, 38.79401 ], [ -77.10856, 38.79333 ], [ -77.10802, 38.79297 ], [ -77.1083, 38.79245 ], [ -77.10745, 38.79188 ], [ -77.10725, 38.79101 ], [ -77.10869, 38.7895 ], [ -77.10942, 38.79001 ], [ -77.10959, 38.79121 ], [ -77.11096, 38.79109 ], [ -77.11116, 38.79028 ], [ -77.11166, 38.79014 ], [ -77.11232, 38.7907 ], [ -77.11252, 38.79198 ], [ -77.11332, 38.7917 ], [ -77.11377, 38.79237 ] ], [ [ -77.11197, 38.79949 ], [ -77.11229, 38.79943 ], [ -77.11246, 38.79926 ], [ -77.11197, 38.79949 ] ], [ [ -77.11206, 38.79836 ], [ -77.11254, 38.79776 ], [ -77.11195, 38.79691 ], [ -77.11148, 38.79823 ], [ -77.11206, 38.79836 ] ] ] } },
{ "type": "Feature", "properties": { "variant": "T0", "miles": 1.0 }, "geometry": { "type": "Polygon", "coordinates": [ [ [ -77.1175, 38.78793 ], [ -77.11964, 38.78791 ], [ -77.12007, 38.79 ], [ -77.12061, 38.78985 ], [ -77.12065, 38.78873 ], [ -77.12162, 38.78881 ], [ -77.12187, 38.79075 ], [ -77.1231, 38.791 ], [ -77.12325, 38.79139 ], [ -77.12249, 38.79187 ], [ -77.12031, 38.79157 ], [ -77.12014, 38.79291 ], [ -77.12093, 38.79533 ], [ -77.12065, 38.79609 ], [ -77.12109, 38.79677 ], [ -77.12232, 38.7964 ], [ -77.12309, 38.79687 ], [ -77.12295, 38.79726 ], [ -77.12128, 38.79784 ], [ -77.12125, 38.79917 ], [ -77.12027, 38.79923 ], [ -77.12003, 38.79884 ], [ -77.11912, 38.79955 ], [ -77.11728, 38.79955 ], [ -77.11688, 38.80007 ], [ -77.11613, 38.79986 ], [ -77.11557, 38.80046 ], [ -77.11433, 38.80061 ], [ -77.11385, 38.80104 ], [ -77.1124, 38.80088 ], [ -77.11194, 38.80144 ], [ -77.11141, 38.80138 ], [ -77.11098, 38.80075 ], [ -77.10881, 38.80251 ], [ -77.10696, 38.80231 ], [ -77.10621, 38.80265 ], [ -77.10532, 38.80247 ], [ -77.10208, 38.8029 ], [ -77.10123, 38.80261 ], [ -77.10123, 38.80211 ], [ -77.10026, 38.80178 ], [ -77.10047, 38.80104 ], [ -77.10603, 38.80112 ], [ -77.10559, 38.8001 ], [ -77.10617, 38.79856 ], [ -77.10679, 38.79819 ], [ -77.10755, 38.79829 ], [ -77.10967, 38.79703 ], [ -77.10988, 38.79641 ], [ -77.10876, 38.79466 ], [ -77.10855, 38.7965 ], [ -77.10741, 38.79715 ], [ -77.10644, 38.79704 ], [ -77.10631, 38.79664 ], [ -77.10724, 38.79588 ], [ -77.10725, 38.79513 ], [ -77.10619, 38.79528 ], [ -77.10587, 38.79453 ], [ -77.10662, 38.79343 ], [ -77.10617, 38.79263 ], [ -77.10545, 38.79268 ], [ -77.10498, 38.79205 ], [ -77.10122, 38.79216 ], [ -77.10097, 38.79275 ], [ -77.09999, 38.79271 ], [ -77.09987, 38.79161 ], [ -77.10073, 38.79107 ], [ -77.10099, 38.79006 ], [ -77.10196, 38.78993 ], [ -77.10234, 38.79109 ], [ -77.10249, 38.78995 ], [ -77.09977, 38.78883 ], [ -77.09944, 38.78851 ], [ -77.09992, 38.78758 ], [ -77.10406, 38.78638 ], [ -77.10627, 38.78692 ], [ -77.10663, 38.78598 ], [ -77.10712, 38.78582 ], [ -77.10769, 38.78616 ], [ -77.10919, 38.7861 ], [ -77.10928, 38.78676 ], [ -77.10873, 38.78754 ], [ -77.10902, 38.78762 ], [ -77.11002, 38.7863 ], [ -77.11087, 38.78661 ], [ -77.11346, 38.78641 ], [ -77.1154, 38.78682 ], [ -77.11624, 38.78607 ], [ -77.11676, 38.78613 ], [ -77.11707, 38.78647 ], [ -77.11663, 38.78732 ], [ -77.11725, 38.78734 ], [ -77.1175, 38.78793 ] ], [ [ -77.11376, 38.79986 ], [ -77.11407, 38.79961 ], [ -77.11349, 38.79999 ], [ -77.11376, 38.79986 ] ], [ [ -77.11253, 38.79775 ], [ -77.11185, 38.79692 ], [ -77.11157, 38.79845 ], [ -77.11205, 38.79837 ], [ -77.11253, 38.79775 ] ], [ [ -77.11238, 38.79541 ], [ -77.11503, 38.79385 ], [ -77.11291, 38.79381 ], [ -77.11227, 38.79325 ], [ -77.11043, 38.79405 ], [ -77.11085, 38.79516 ], [ -77.11187, 38.79488 ], [ -77.11238, 38.79541 ] ], [ [ -77.11009, 38.79134 ], [ -77.11007, 38.79134 ], [ -77.11008, 38.79135 ], [ -77.11009, 38.79134 ] ], [ [ -77.11707, 38.79569 ], [ -77.11714, 38.79656 ], [ -77.11744, 38.79691 ], [ -77.11741, 38.79681 ], [ -77.11707, 38.79569 ] ], [ [ -77.11829, 38.79279 ], [ -77.11828, 38.79282 ], [ -77.1183, 38.7928 ], [ -77.11829, 38.79279 ] ], [ [ -77.11748, 38.79011 ], [ -77.11747, 38.79007 ], [ -77.11746, 38.79014 ], [ -77.11748, 38.79011 ] ], [ [ -77.11552, 38.78874 ], [ -77.11562, 38.78844 ], [ -77.11526, 38.78866 ], [ -77.11552, 38.78874 ] ], [ [ -77.11609, 38.78999 ], [ -77.11226, 38.78936 ], [ -77.11274, 38.79073 ], [ -77.11236, 38.79114 ], [ -77.11252, 38.79198 ], [ -77.11332, 38.7917 ], [ -77.11383, 38.79271 ], [ -77.11479, 38.79272 ], [ -77.11516, 38.79245 ], [ -77.11518, 38.79057 ], [ -77.11609, 38.78999 ] ], [ [ -77.11053, 38.78766 ], [ -77.11044, 38.78769 ], [ -77.11056, 38.78767 ], [ -77.11053, 38.78766 ] ], [ [ -77.11895, 38.79177 ], [ -77.11891, 38.79179 ], [ -77.11896, 38.79181 ], [ -77.11895, 38.79177 ] ], [ [ -77.11858, 38.796 ], [ -77.11875, 38.79593 ], [ -77.11848, 38.79565 ], [ -77.11858, 38.796 ] ], [ [ -77.11814, 38.79431 ], [ -77.11815, 38.79433 ], [ -77.11816, 38.79429 ], [ -77.11814, 38.79431 ] ], [ [ -77.11959, 38.79679 ], [ -77.11925, 38.79695 ], [ -77.11969, 38.79691 ], [ -77.11959, 38.79679 ] ], [ [ -77.11472, 38.79814 ], [ -77.11419, 38.79804 ], [ -77.11423, 38.79849 ], [ -77.11477, 38.79867 ], [ -77.11472, 38.79814 ] ], [ [ -77.11338, 38.79642 ], [ -77.11427, 38.79623 ], [ -77.11498, 38.79707 ], [ -77.11454, 38.79584 ], [ -77.1149, 38.79554 ], [ -77.11569, 38.79572 ], [ -77.11583, 38.79473 ], [ -77.11338, 38.79642 ] ], [ [ -77.11611, 38.79845 ], [ -77.11605, 38.79828 ], [ -77.116, 38.79824 ], [ -77.11611, 38.79845 ] ], [ [ -77.11011, 38.79009 ], [ -77.10981, 38.79026 ], [ -77.1102, 38.79026 ], [ -77.11011, 38.79009 ] ], [ [ -77.10912, 38.80061 ], [ -77.11046, 38.79927 ], [ -77.11, 38.79817 ], [ -77.10974, 38.79913 ], [ -77.10877, 38.7992 ], [ -77.10912, 38.80061 ] ], [ [ -77.10641, 38.79033 ], [ -77.10636, 38.79018 ], [ -77.10629, 38.79015 ], [ -77.10641, 38.79033 ] ], [ [ -77.10802, 38.78971 ], [ -77.10787, 38.78961 ], [ -77.10776, 38.78981 ], [ -77.10802, 38.78971 ] ], [ [ -77.11201, 38.79959 ], [ -77.11229, 38.79943 ], [ -77.11246, 38.79926 ], [ -77.11201, 38.79959 ] ], [ [ -77.1083, 38.79245 ], [ -77.10721, 38.79123 ], [ -77.1074, 38.79214 ], [ -77.10805, 38.7928 ], [ -77.1083, 38.79245 ] ], [ [ -77.1082, 38.80141 ], [ -77.10741, 38.7994 ], [ -77.10725, 38.79937 ], [ -77.10697, 38.80013 ], [ -77.10741, 38.80128 ], [ -77.1082, 38.80141 ] ], [ [ -77.10382, 38.78847 ], [ -77.10366, 38.7876 ], [ -77.1027, 38.78789 ], [ -77.10382, 38.78847 ] ], [ [ -77.10381, 38.791 ], [ -77.10367, 38.7911 ], [ -77.10393, 38.7911 ], [ -77.10381, 38.791 ] ] ] } },
{ "type": "Feature", "properties": { "variant": "T0", "miles": 1.5 }, "geometry": { "type": "Polygon", "coordinates": [ [ [ -77.12093, 38.78308 ], [ -77.12198, 38.78564 ], [ -77.12305, 38.78535 ], [ -77.1249, 38.78403 ], [ -77.12641, 38.78375 ], [ -77.12691, 38.78482 ], [ -77.12627, 38.78717 ], [ -77.12845, 38.78729 ], [ -77.12838, 38.78805 ], [ -77.12698, 38.78837 ], [ -77.12801, 38.7885 ], [ -77.12827, 38.78925 ], [ -77.12983, 38.78984 ], [ -77.12998, 38.79023 ], [ -77.12909, 38.7907 ], [ -77.12941, 38.79142 ], [ -77.12815, 38.79184 ], [ -77.1282, 38.79262 ], [ -77.12719, 38.79275 ], [ -77.12668, 38.79326 ], [ -77.12587, 38.79284 ], [ -77.12553, 38.79076 ], [ -77.12383, 38.79016 ], [ -77.12312, 38.78943 ], [ -77.12343, 38.79302 ], [ -77.12472, 38.79421 ], [ -77.12507, 38.79598 ], [ -77.12656, 38.79588 ], [ -77.12673, 38.79666 ], [ -77.12128, 38.79784 ], [ -77.12141, 38.79878 ], [ -77.12078, 38.79936 ], [ -77.12003, 38.79884 ], [ -77.11912, 38.79955 ], [ -77.11728, 38.79955 ], [ -77.11688, 38.80007 ], [ -77.11613, 38.79986 ], [ -77.11557, 38.80046 ], [ -77.11433, 38.80061 ], [ -77.11385, 38.80104 ], [ -77.1124, 38.80088 ], [ -77.11194, 38.80144 ], [ -77.11141, 38.80138 ], [ -77.11098, 38.80075 ], [ -77.10872, 38.80252 ], [ -77.10696, 38.80231 ], [ -77.10621, 38.80265 ], [ -77.10189, 38.80289 ], [ -77.10123, 38.80261 ], [ -77.10123, 38.80211 ], [ -77.09619, 38.8012 ], [ -77.09611, 38.80199 ], [ -77.09522, 38.80229 ], [ -77.0946, 38.8016 ], [ -77.09321, 38.80103 ], [ -77.09344, 38.8004 ], [ -77.09276, 38.8007 ], [ -77.0921, 38.80052 ], [ -77.09201, 38.79998 ], [ -77.09138, 38.79963 ], [ -77.09173, 38.79892 ], [ -77.09521, 38.79977 ], [ -77.09593, 38.79958 ], [ -77.09705, 38.80029 ], [ -77.09773, 38.79965 ], [ -77.09916, 38.79982 ], [ -77.10003, 38.7995 ], [ -77.10046, 38.80018 ], [ -77.09999, 38.80079 ], [ -77.10103, 38.80019 ], [ -77.10269, 38.80043 ], [ -77.10333, 38.80006 ], [ -77.10381, 38.80025 ], [ -77.10384, 38.80115 ], [ -77.10603, 38.80112 ], [ -77.10559, 38.80018 ], [ -77.10614, 38.7986 ], [ -77.10591, 38.79807 ], [ -77.10684, 38.79723 ], [ -77.10631, 38.79664 ], [ -77.10724, 38.79588 ], [ -77.1072, 38.79508 ], [ -77.1067, 38.79539 ], [ -77.10593, 38.79492 ], [ -77.10606, 38.79409 ], [ -77.10663, 38.79388 ], [ -77.10645, 38.79307 ], [ -77.10498, 38.79205 ], [ -77.10122, 38.79216 ], [ -77.10098, 38.7953 ], [ -77.10209, 38.79531 ], [ -77.10277, 38.79585 ], [ -77.102, 38.79639 ], [ -77.10224, 38.79709 ], [ -77.1019, 38.79741 ], [ -77.10097, 38.79718 ], [ -77.10042, 38.79635 ], [ -77.09984, 38.79657 ], [ -77.09964, 38.7973 ], [ -77.09854, 38.79748 ], [ -77.0982, 38.79717 ], [ -77.09852, 38.79577 ], [ -77.09785, 38.79548 ], [ -77.09796, 38.79498 ], [ -77.09729, 38.79528 ], [ -77.09668, 38.79494 ], [ -77.09473, 38.79507 ], [ -77.09421, 38.79555 ], [ -77.09317, 38.79538 ], [ -77.09264, 38.79487 ], [ -77.09115, 38.79492 ], [ -77.09097, 38.79417 ], [ -77.09282, 38.79374 ], [ -77.09304, 38.79259 ], [ -77.09091, 38.79296 ], [ -77.09076, 38.79384 ], [ -77.08978, 38.79388 ], [ -77.08954, 38.79319 ], [ -77.08846, 38.79272 ], [ -77.08962, 38.79128 ], [ -77.09011, 38.79112 ], [ -77.09079, 38.79187 ], [ -77.09127, 38.79177 ], [ -77.09133, 38.79107 ], [ -77.09301, 38.79102 ], [ -77.09403, 38.79017 ], [ -77.09125, 38.78996 ], [ -77.09044, 38.78938 ], [ -77.09042, 38.78873 ], [ -77.0915, 38.78861 ], [ -77.09339, 38.78761 ], [ -77.09483, 38.78815 ], [ -77.09565, 38.78792 ], [ -77.09534, 38.78708 ], [ -77.09428, 38.78636 ], [ -77.09476, 38.78569 ], [ -77.09643, 38.78638 ], [ -77.09688, 38.7874 ], [ -77.09874, 38.78831 ], [ -77.09791, 38.78751 ], [ -77.09807, 38.78676 ], [ -77.09859, 38.78667 ], [ -77.10008, 38.78747 ], [ -77.10147, 38.78735 ], [ -77.10412, 38.78637 ], [ -77.10627, 38.78692 ], [ -77.10663, 38.78598 ], [ -77.10712, 38.78582 ], [ -77.10769, 38.78616 ], [ -77.10919, 38.7861 ], [ -77.10928, 38.78676 ], [ -77.10873, 38.78754 ], [ -77.10902, 38.78762 ], [ -77.11033, 38.78566 ], [ -77.11584, 38.78363 ], [ -77.11831, 38.78346 ], [ -77.11881, 38.78304 ], [ -77.11693, 38.78068 ], [ -77.11724, 38.77996 ], [ -77.11776, 38.77993 ], [ -77.11855, 38.7808 ], [ -77.11888, 38.78041 ], [ -77.11983, 38.7806 ], [ -77.11935, 38.78173 ], [ -77.11968, 38.78196 ], [ -77.12363, 38.78152 ], [ -77.1239, 38.78255 ], [ -77.12093, 38.78308 ] ], [ [ -77.11407, 38.79961 ], [ -77.11349, 38.79999 ], [ -77.11376, 38.79986 ], [ -77.11407, 38.79961 ] ], [ [ -77.11498, 38.79815 ], [ -77.11419, 38.79804 ], [ -77.11423, 38.79849 ], [ -77.11477, 38.79866 ], [ -77.11498, 38.79815 ] ], [ [ -77.11503, 38.79687 ], [ -77.11454, 38.79584 ], [ -77.1149, 38.79554 ], [ -77.11569, 38.79572 ], [ -77.11583, 38.79473 ], [ -77.11314, 38.79632 ], [ -77.11427, 38.79623 ], [ -77.11467, 38.79702 ], [ -77.11503, 38.79687 ] ], [ [ -77.11291, 38.79381 ], [ -77.11227, 38.79325 ], [ -77.11043, 38.79405 ], [ -77.11085, 38.79516 ], [ -77.11187, 38.79488 ], [ -77.11238, 38.79541 ], [ -77.11498, 38.79385 ], [ -77.11291, 38.79381 ] ], [ [ -77.11007, 38.79134 ], [ -77.11008, 38.79135 ], [ -77.11009, 38.79134 ], [ -77.11007, 38.79134 ] ], [ [ -77.12228, 38.7956 ], [ -77.12128, 38.79556 ], [ -77.12086, 38.7948 ], [ -77.12065, 38.79609 ], [ -77.12109, 38.79677 ], [ -77.12228, 38.7956 ] ], [ [ -77.12193, 38.79402 ], [ -77.12185, 38.79402 ], [ -77.12187, 38.79404 ], [ -77.12193, 38.79402 ] ], [ [ -77.12243, 38.79394 ], [ -77.12232, 38.79374 ], [ -77.12199, 38.794 ], [ -77.12243, 38.79394 ] ], [ [ -77.12183, 38.79183 ], [ -77.12154, 38.79182 ], [ -77.12182, 38.79234 ], [ -77.12183, 38.79183 ] ], [ [ -77.12189, 38.79072 ], [ -77.12187, 38.79075 ], [ -77.12191, 38.79075 ], [ -77.12189, 38.79072 ] ], [ [ -77.12016, 38.78996 ], [ -77.12007, 38.78994 ], [ -77.12007, 38.79 ], [ -77.12016, 38.78996 ] ], [ [ -77.1179, 38.78572 ], [ -77.11663, 38.78732 ], [ -77.11725, 38.78734 ], [ -77.1175, 38.78793 ], [ -77.1191, 38.78686 ], [ -77.1179, 38.78572 ] ], [ [ -77.12125, 38.78705 ], [ -77.12128, 38.7885 ], [ -77.12139, 38.78794 ], [ -77.12125, 38.78705 ] ], [ [ -77.12426, 38.78712 ], [ -77.12427, 38.78715 ], [ -77.12479, 38.78705 ], [ -77.12495, 38.78685 ], [ -77.12426, 38.78712 ] ], [ [ -77.12307, 38.78835 ], [ -77.12281, 38.78675 ], [ -77.1226, 38.78679 ], [ -77.12307, 38.78835 ] ], [ [ -77.12573, 38.78949 ], [ -77.12577, 38.78925 ], [ -77.12543, 38.78939 ], [ -77.12573, 38.78949 ] ], [ [ -77.12467, 38.78928 ], [ -77.12497, 38.78932 ], [ -77.12475, 38.78923 ], [ -77.12467, 38.78928 ] ], [ [ -77.12595, 38.78878 ], [ -77.12632, 38.7885 ], [ -77.12595, 38.78848 ], [ -77.12595, 38.78878 ] ], [ [ -77.1269, 38.79062 ], [ -77.12695, 38.79093 ], [ -77.12905, 38.7907 ], [ -77.1269, 38.79062 ] ], [ [ -77.12365, 38.79596 ], [ -77.12339, 38.79624 ], [ -77.12371, 38.79619 ], [ -77.12365, 38.79596 ] ], [ [ -77.12256, 38.79519 ], [ -77.12243, 38.79544 ], [ -77.12284, 38.795 ], [ -77.12256, 38.79519 ] ], [ [ -77.11957, 38.78552 ], [ -77.11973, 38.7853 ], [ -77.11944, 38.78525 ], [ -77.11957, 38.78552 ] ], [ [ -77.11987, 38.78838 ], [ -77.11982, 38.7893 ], [ -77.12005, 38.78908 ], [ -77.11987, 38.78838 ] ], [ [ -77.11985, 38.78826 ], [ -77.11981, 38.78796 ], [ -77.11971, 38.78803 ], [ -77.11985, 38.78826 ] ], [ [ -77.11959, 38.79679 ], [ -77.11925, 38.79695 ], [ -77.11969, 38.79691 ], [ -77.11959, 38.79679 ] ], [ [ -77.11858, 38.796 ], [ -77.11875, 38.79593 ], [ -77.11848, 38.79565 ], [ -77.11858, 38.796 ] ], [ [ -77.11815, 38.79433 ], [ -77.11816, 38.79429 ], [ -77.11814, 38.79431 ], [ -77.11815, 38.79433 ] ], [ [ -77.11895, 38.79177 ], [ -77.11891, 38.79179 ], [ -77.11896, 38.79181 ], [ -77.11895, 38.79177 ] ], [ [ -77.11537, 38.79019 ], [ -77.11609, 38.78999 ], [ -77.11226, 38.78936 ], [ -77.11274, 38.79073 ], [ -77.11236, 38.79114 ], [ -77.11252, 38.79198 ], [ -77.11332, 38.7917 ], [ -77.11383, 38.79271 ], [ -77.11479, 38.79272 ], [ -77.11516, 38.79245 ], [ -77.11537, 38.79019 ] ], [ [ -77.1147, 38.7866 ], [ -77.11543, 38.78679 ], [ -77.11515, 38.7867 ], [ -77.1147, 38.7866 ] ], [ [ -77.12014, 38.79291 ], [ -77.12074, 38.79402 ], [ -77.12117, 38.79382 ], [ -77.12033, 38.79253 ], [ -77.12014, 38.79291 ] ], [ [ -77.11616, 38.78587 ], [ -77.11621, 38.78581 ], [ -77.11614, 38.78582 ], [ -77.11616, 38.78587 ] ], [ [ -77.11531, 38.78864 ], [ -77.11526, 38.78866 ], [ -77.11552, 38.78874 ], [ -77.11531, 38.78864 ] ], [ [ -77.11748, 38.79011 ], [ -77.11753, 38.79007 ], [ -77.11747, 38.79007 ], [ -77.11748, 38.79011 ] ], [ [ -77.11829, 38.79279 ], [ -77.11828, 38.79282 ], [ -77.1183, 38.7928 ], [ -77.11829, 38.79279 ] ], [ [ -77.11744, 38.79691 ], [ -77.11707, 38.79569 ], [ -77.11713, 38.79651 ], [ -77.11744, 38.79691 ] ], [ [ -77.11605, 38.79828 ], [ -77.116, 38.79824 ], [ -77.11611, 38.79845 ], [ -77.11605, 38.79828 ] ], [ [ -77.11046, 38.78765 ], [ -77.11044, 38.78769 ], [ -77.11056, 38.78767 ], [ -77.11046, 38.78765 ] ], [ [ -77.11249, 38.78601 ], [ -77.11145, 38.78651 ], [ -77.11325, 38.7864 ], [ -77.11249, 38.78601 ] ], [ [ -77.10981, 38.79026 ], [ -77.1102, 38.79026 ], [ -77.11011, 38.79009 ], [ -77.10981, 38.79026 ] ], [ [ -77.10378, 38.79097 ], [ -77.10371, 38.7909 ], [ -77.10367, 38.7911 ], [ -77.10378, 38.79097 ] ], [ [ -77.11046, 38.79927 ], [ -77.11, 38.79817 ], [ -77.10974, 38.79913 ], [ -77.10877, 38.7992 ], [ -77.10912, 38.80061 ], [ -77.11046, 38.79927 ] ], [ [ -77.10943, 38.79522 ], [ -77.10876, 38.79466 ], [ -77.10866, 38.79597 ], [ -77.10939, 38.79645 ], [ -77.10944, 38.79694 ], [ -77.10747, 38.79825 ], [ -77.10971, 38.79684 ], [ -77.10943, 38.79522 ] ], [ [ -77.11229, 38.79943 ], [ -77.11246, 38.79926 ], [ -77.11197, 38.79949 ], [ -77.11229, 38.79943 ] ], [ [ -77.11157, 38.79845 ], [ -77.11254, 38.79776 ], [ -77.11195, 38.79691 ], [ -77.11157, 38.79845 ] ], [ [ -77.10783, 38.7897 ], [ -77.10776, 38.78981 ], [ -77.10802, 38.78971 ], [ -77.10783, 38.7897 ] ], [ [ -77.10641, 38.79033 ], [ -77.10667, 38.79023 ], [ -77.10647, 38.79021 ], [ -77.10641, 38.79033 ] ], [ [ -77.10366, 38.7876 ], [ -77.1027, 38.78789 ], [ -77.10382, 38.78847 ], [ -77.10366, 38.7876 ] ], [ [ -77.10721, 38.79123 ], [ -77.10704, 38.7913 ], [ -77.1074, 38.79214 ], [ -77.10805, 38.7928 ], [ -77.1083, 38.79245 ], [ -77.10721, 38.79123 ] ], [ [ -77.10741, 38.7994 ], [ -77.10725, 38.79937 ], [ -77.10699, 38.80018 ], [ -77.10741, 38.80128 ], [ -77.1082, 38.80141 ], [ -77.10741, 38.7994 ] ], [ [ -77.09532, 38.79383 ], [ -77.09654, 38.79385 ], [ -77.09653, 38.79373 ], [ -77.09532, 38.79383 ] ], [ [ -77.09631, 38.78841 ], [ -77.09499, 38.78937 ], [ -77.09605, 38.79104 ], [ -77.09725, 38.79104 ], [ -77.09631, 38.78841 ] ], [ [ -77.10185, 38.78974 ], [ -77.10214, 38.79109 ], [ -77.10234, 38.79109 ], [ -77.10243, 38.78994 ], [ -77.10185, 38.78974 ] ], [ [ -77.09904, 38.79106 ], [ -77.10077, 38.79092 ], [ -77.09972, 38.79091 ], [ -77.09904, 38.79106 ] ], [ [ -77.09892, 38.79214 ], [ -77.09902, 38.79226 ], [ -77.09923, 38.79214 ], [ -77.09892, 38.79214 ] ], [ [ -77.09364, 38.78885 ], [ -77.0937, 38.7888 ], [ -77.09344, 38.78887 ], [ -77.09364, 38.78885 ] ], [ [ -77.0946, 38.79121 ], [ -77.09468, 38.79119 ], [ -77.09468, 38.79116 ], [ -77.0946, 38.79121 ] ], [ [ -77.09408, 38.7944 ], [ -77.09417, 38.79443 ], [ -77.0941, 38.79434 ], [ -77.09408, 38.7944 ] ] ] } },
{ "type": "Feature", "properties": { "variant": "T2s", "miles": 0.5 }, "geometry": { "type": "Polygon", "coordinates": [ [ [ -77.11377, 38.79237 ], [ -77.11371, 38.79367 ], [ -77.11291, 38.79381 ], [ -77.11227, 38.79325 ], [ -77.11043, 38.79405 ], [ -77.11085, 38.79516 ], [ -77.11187, 38.79488 ], [ -77.11238, 38.79541 ], [ -77.11608, 38.79302 ], [ -77.11705, 38.79312 ], [ -77.11718, 38.79352 ], [ -77.11641, 38.79439 ], [ -77.11314, 38.79632 ], [ -77.11427, 38.79623 ], [ -77.11458, 38.79698 ], [ -77.11594, 38.79716 ], [ -77.11604, 38.79792 ], [ -77.11419, 38.79804 ], [ -77.11423, 38.79849 ], [ -77.11595, 38.79903 ], [ -77.11617, 38.7994 ], [ -77.11552, 38.79997 ], [ -77.11391, 38.79956 ], [ -77.11239, 38.80067 ], [ -77.11235, 38.80118 ], [ -77.11141, 38.80138 ], [ -77.11, 38.79817 ], [ -77.10953, 38.79926 ], [ -77.1074, 38.79904 ], [ -77.10755, 38.79828 ], [ -77.10967, 38.79703 ], [ -77.10988, 38.79641 ], [ -77.10943, 38.79522 ], [ -77.10873, 38.79486 ], [ -77.1089, 38.79438 ], [ -77.10799, 38.79436 ], [ -77.10772, 38.79401 ], [ -77.10856, 38.79333 ], [ -77.10802, 38.79297 ], [ -77.1083, 38.79245 ], [ -77.10745, 38.79188 ], [ -77.10725, 38.79101 ], [ -77.10869, 38.7895 ], [ -77.10942, 38.79001 ], [ -77.10959, 38.79121 ], [ -77.11096, 38.79109 ], [ -77.11116, 38.79028 ], [ -77.11166, 38.79014 ], [ -77.11232, 38.7907 ], [ -77.11252, 38.79198 ], [ -77.11332, 38.7917 ], [ -77.11377, 38.79237 ] ], [ [ -77.11197, 38.79949 ], [ -77.11229, 38.79943 ], [ -77.11246, 38.79926 ], [ -77.11197, 38.79949 ] ], [ [ -77.11206, 38.79836 ], [ -77.11254, 38.79776 ], [ -77.11195, 38.79691 ], [ -77.11148, 38.79823 ], [ -77.11206, 38.79836 ] ] ] } },
{ "type": "Feature", "properties": { "variant": "T2s", "miles": 1.0 }, "geometry": { "type": "MultiPolygon", "coordinates": [ [ [ [ -77.11765, 38.78797 ], [ -77.11964, 38.78791 ], [ -77.12007, 38.79 ], [ -77.12061, 38.78985 ], [ -77.12065, 38.78873 ], [ -77.12162, 38.78881 ], [ -77.12187, 38.79075 ], [ -77.1231, 38.791 ], [ -77.12325, 38.79139 ], [ -77.12249, 38.79187 ], [ -77.12031, 38.79157 ], [ -77.12014, 38.79291 ], [ -77.12093, 38.79533 ], [ -77.12065, 38.79609 ], [ -77.12109, 38.79677 ], [ -77.12232, 38.7964 ], [ -77.12309, 38.79687 ], [ -77.12295, 38.79726 ], [ -77.12128, 38.79784 ], [ -77.12125, 38.79917 ], [ -77.12027, 38.79923 ], [ -77.12003, 38.79884 ], [ -77.11912, 38.79955 ], [ -77.11728, 38.79955 ], [ -77.11688, 38.80007 ], [ -77.11613, 38.79986 ], [ -77.11557, 38.80046 ], [ -77.11433, 38.80061 ], [ -77.11385, 38.80104 ], [ -77.1124, 38.80088 ], [ -77.11194, 38.80144 ], [ -77.11141, 38.80138 ], [ -77.11098, 38.80075 ], [ -77.10881, 38.80251 ], [ -77.10696, 38.80231 ], [ -77.10621, 38.80265 ], [ -77.10532, 38.80247 ], [ -77.10208, 38.8029 ], [ -77.10123, 38.80261 ], [ -77.10123, 38.80211 ], [ -77.10026, 38.80178 ], [ -77.10047, 38.80104 ], [ -77.10603, 38.80112 ], [ -77.10559, 38.8001 ], [ -77.10617, 38.79856 ], [ -77.10679, 38.79819 ], [ -77.10755, 38.79829 ], [ -77.10967, 38.79703 ], [ -77.10988, 38.79641 ], [ -77.10876, 38.79466 ], [ -77.10855, 38.7965 ], [ -77.10741, 38.79715 ], [ -77.10644, 38.79704 ], [ -77.10631, 38.79664 ], [ -77.10724, 38.79588 ], [ -77.10725, 38.79513 ], [ -77.1067, 38.79539 ], [ -77.10593, 38.79492 ], [ -77.10662, 38.79343 ], [ -77.10617, 38.79263 ], [ -77.10509, 38.79239 ], [ -77.1047, 38.79145 ], [ -77.10579, 38.79057 ], [ -77.11106, 38.78868 ], [ -77.11145, 38.78941 ], [ -77.11235, 38.78938 ], [ -77.11259, 38.78975 ], [ -77.11252, 38.79198 ], [ -77.11332, 38.7917 ], [ -77.11383, 38.79271 ], [ -77.11479, 38.79272 ], [ -77.11516, 38.79245 ], [ -77.11518, 38.79057 ], [ -77.11609, 38.78999 ], [ -77.11381, 38.7895 ], [ -77.11344, 38.78879 ], [ -77.11435, 38.7885 ], [ -77.11635, 38.78885 ], [ -77.11765, 38.78797 ] ], [ [ -77.11376, 38.79986 ], [ -77.11407, 38.79961 ], [ -77.11349, 38.79999 ], [ -77.11376, 38.79986 ] ], [ [ -77.11197, 38.79949 ], [ -77.11229, 38.79943 ], [ -77.11246, 38.79926 ], [ -77.11197, 38.79949 ] ], [ [ -77.11206, 38.79836 ], [ -77.11254, 38.79776 ], [ -77.11195, 38.79691 ], [ -77.11148, 38.79823 ], [ -77.11206, 38.79836 ] ], [ [ -77.11238, 38.79541 ], [ -77.11503, 38.79385 ], [ -77.11291, 38.79381 ], [ -77.11227, 38.79325 ], [ -77.11043, 38.79405 ], [ -77.11085, 38.79516 ], [ -77.11187, 38.79488 ], [ -77.11238, 38.79541 ] ], [ [ -77.11707, 38.79569 ], [ -77.11714, 38.79656 ], [ -77.11744, 38.79691 ], [ -77.11741, 38.79681 ], [ -77.11707, 38.79569 ] ], [ [ -77.11829, 38.79279 ], [ -77.11828, 38.79282 ], [ -77.1183, 38.7928 ], [ -77.11829, 38.79279 ] ], [ [ -77.11748, 38.79011 ], [ -77.11747, 38.79007 ], [ -77.11746, 38.79014 ], [ -77.11748, 38.79011 ] ], [ [ -77.11895, 38.79177 ], [ -77.11891, 38.79179 ], [ -77.11896, 38.79181 ], [ -77.11895, 38.79177 ] ], [ [ -77.11858, 38.796 ], [ -77.11875, 38.79593 ], [ -77.11848, 38.79565 ], [ -77.11858, 38.796 ] ], [ [ -77.11815, 38.79432 ], [ -77.11816, 38.79429 ], [ -77.11814, 38.79431 ], [ -77.11815, 38.79432 ] ], [ [ -77.11959, 38.79679 ], [ -77.11925, 38.79695 ], [ -77.11969, 38.79691 ], [ -77.11959, 38.79679 ] ], [ [ -77.11498, 38.79815 ], [ -77.11419, 38.79804 ], [ -77.11423, 38.79849 ], [ -77.11477, 38.79867 ], [ -77.11498, 38.79815 ] ], [ [ -77.11569, 38.79572 ], [ -77.11583, 38.79473 ], [ -77.11314, 38.79632 ], [ -77.11427, 38.79623 ], [ -77.11498, 38.79707 ], [ -77.11454, 38.79584 ], [ -77.1149, 38.79554 ], [ -77.11569, 38.79572 ] ], [ [ -77.11611, 38.79845 ], [ -77.11616, 38.7984 ], [ -77.116, 38.79824 ], [ -77.11611, 38.79845 ] ], [ [ -77.10912, 38.80061 ], [ -77.11046, 38.79927 ], [ -77.11, 38.79817 ], [ -77.10974, 38.79913 ], [ -77.10877, 38.7992 ], [ -77.10912, 38.80061 ] ], [ [ -77.1083, 38.79245 ], [ -77.10721, 38.79123 ], [ -77.10704, 38.7913 ], [ -77.10782, 38.79284 ], [ -77.1083, 38.79245 ] ], [ [ -77.11007, 38.79134 ], [ -77.11008, 38.79135 ], [ -77.11009, 38.79134 ], [ -77.11007, 38.79134 ] ], [ [ -77.11011, 38.79009 ], [ -77.10981, 38.79026 ], [ -77.1102, 38.79026 ], [ -77.11011, 38.79009 ] ], [ [ -77.1082, 38.80141 ], [ -77.10741, 38.7994 ], [ -77.10725, 38.79937 ], [ -77.10697, 38.80013 ], [ -77.10741, 38.80128 ], [ -77.1082, 38.80141 ] ] ], [ [ [ -77.10105, 38.79124 ], [ -77.10097, 38.79275 ], [ -77.09999, 38.79271 ], [ -77.10008, 38.79123 ], [ -77.10105, 38.79124 ] ] ] ] } },
{ "type": "Feature", "properties": { "variant": "T2s", "miles": 1.5 }, "geometry": { "type": "MultiPolygon", "coordinates": [ [ [ [ -77.12691, 38.78482 ], [ -77.12627, 38.78717 ], [ -77.12845, 38.78729 ], [ -77.12838, 38.78805 ], [ -77.12698, 38.78837 ], [ -77.12801, 38.7885 ], [ -77.12827, 38.78925 ], [ -77.12983, 38.78984 ], [ -77.12998, 38.79023 ], [ -77.12909, 38.7907 ], [ -77.12941, 38.79142 ], [ -77.12815, 38.79184 ], [ -77.1282, 38.79262 ], [ -77.12719, 38.79275 ], [ -77.12668, 38.79326 ], [ -77.12587, 38.79284 ], [ -77.12553, 38.79076 ], [ -77.12383, 38.79016 ], [ -77.12312, 38.78943 ], [ -77.1232, 38.79231 ], [ -77.12364, 38.79341 ], [ -77.12471, 38.79418 ], [ -77.12507, 38.79598 ], [ -77.12604, 38.79578 ], [ -77.12684, 38.79627 ], [ -77.1263, 38.79689 ], [ -77.12128, 38.79784 ], [ -77.12125, 38.79917 ], [ -77.12027, 38.79923 ], [ -77.12003, 38.79884 ], [ -77.11912, 38.79955 ], [ -77.11728, 38.79955 ], [ -77.11688, 38.80007 ], [ -77.11613, 38.79986 ], [ -77.11557, 38.80046 ], [ -77.11433, 38.80061 ], [ -77.11385, 38.80104 ], [ -77.1124, 38.80088 ], [ -77.11194, 38.80144 ], [ -77.11141, 38.80138 ], [ -77.11098, 38.80075 ], [ -77.10884, 38.8025 ], [ -77.10696, 38.80231 ], [ -77.10621, 38.80265 ], [ -77.10532, 38.80247 ], [ -77.10208, 38.8029 ], [ -77.10123, 38.80261 ], [ -77.10123, 38.80211 ], [ -77.09619, 38.8012 ], [ -77.09611, 38.80199 ], [ -77.09522, 38.80229 ], [ -77.0946, 38.8016 ], [ -77.09321, 38.80103 ], [ -77.09344, 38.8004 ], [ -77.09276, 38.8007 ], [ -77.0921, 38.80052 ], [ -77.09201, 38.79998 ], [ -77.09138, 38.79963 ], [ -77.09137, 38.79922 ], [ -77.09226, 38.7989 ], [ -77.09521, 38.79977 ], [ -77.09593, 38.79958 ], [ -77.09705, 38.80029 ], [ -77.09773, 38.79965 ], [ -77.09916, 38.79982 ], [ -77.10003, 38.7995 ], [ -77.10046, 38.80018 ], [ -77.09999, 38.80079 ], [ -77.10103, 38.80019 ], [ -77.10269, 38.80043 ], [ -77.10333, 38.80006 ], [ -77.10381, 38.80025 ], [ -77.10384, 38.80115 ], [ -77.10603, 38.80112 ], [ -77.10559, 38.80018 ], [ -77.10614, 38.7986 ], [ -77.10591, 38.79807 ], [ -77.10684, 38.79723 ], [ -77.10631, 38.79664 ], [ -77.10724, 38.79588 ], [ -77.10725, 38.79514 ], [ -77.1067, 38.79539 ], [ -77.10593, 38.79492 ], [ -77.10662, 38.79343 ], [ -77.10617, 38.79263 ], [ -77.10509, 38.79239 ], [ -77.1047, 38.79145 ], [ -77.10579, 38.79057 ], [ -77.11106, 38.78868 ], [ -77.11145, 38.78941 ], [ -77.11235, 38.78938 ], [ -77.11259, 38.78975 ], [ -77.11252, 38.79198 ], [ -77.11332, 38.7917 ], [ -77.11383, 38.79271 ], [ -77.11479, 38.79272 ], [ -77.11516, 38.79245 ], [ -77.11518, 38.79057 ], [ -77.11609, 38.78999 ], [ -77.11381, 38.7895 ], [ -77.11344, 38.78879 ], [ -77.11382, 38.7885 ], [ -77.11572, 38.78889 ], [ -77.11649, 38.78869 ], [ -77.12052, 38.78599 ], [ -77.1232, 38.78541 ], [ -77.1249, 38.78417 ], [ -77.12638, 38.78385 ], [ -77.12691, 38.78482 ] ], [ [ -77.11583, 38.79473 ], [ -77.11314, 38.79632 ], [ -77.11427, 38.79623 ], [ -77.11498, 38.79707 ], [ -77.11454, 38.79584 ], [ -77.1149, 38.79554 ], [ -77.11569, 38.79572 ], [ -77.11583, 38.79473 ] ], [ [ -77.10876, 38.79466 ], [ -77.10866, 38.79597 ], [ -77.10939, 38.79645 ], [ -77.10944, 38.79694 ], [ -77.10747, 38.79825 ], [ -77.10967, 38.79703 ], [ -77.10988, 38.7964 ], [ -77.10876, 38.79466 ] ], [ [ -77.11007, 38.79134 ], [ -77.11008, 38.79135 ], [ -77.11009, 38.79134 ], [ -77.11007, 38.79134 ] ], [ [ -77.12228, 38.7956 ], [ -77.12128, 38.79556 ], [ -77.12086, 38.7948 ], [ -77.12065, 38.79609 ], [ -77.12133, 38.79675 ], [ -77.12228, 38.7956 ] ], [ [ -77.12117, 38.79382 ], [ -77.12036, 38.79241 ], [ -77.12014, 38.79291 ], [ -77.12074, 38.79402 ], [ -77.12117, 38.79382 ] ], [ [ -77.1219, 38.79403 ], [ -77.12193, 38.79402 ], [ -77.12185, 38.79402 ], [ -77.1219, 38.79403 ] ], [ [ -77.12243, 38.79394 ], [ -77.12232, 38.79374 ], [ -77.12199, 38.794 ], [ -77.12243, 38.79394 ] ], [ [ -77.12183, 38.79183 ], [ -77.12154, 38.79182 ], [ -77.12182, 38.79234 ], [ -77.12183, 38.79183 ] ], [ [ -77.12189, 38.79072 ], [ -77.12187, 38.79075 ], [ -77.12191, 38.79075 ], [ -77.12189, 38.79072 ] ], [ [ -77.11994, 38.78883 ], [ -77.11987, 38.78838 ], [ -77.11982, 38.7893 ], [ -77.11994, 38.78883 ] ], [ [ -77.11971, 38.78803 ], [ -77.11985, 38.78826 ], [ -77.11981, 38.78801 ], [ -77.11971, 38.78803 ] ], [ [ -77.12125, 38.78705 ], [ -77.12128, 38.7885 ], [ -77.12139, 38.78794 ], [ -77.12125, 38.78705 ] ], [ [ -77.12426, 38.78712 ], [ -77.12427, 38.78715 ], [ -77.12479, 38.78705 ], [ -77.12495, 38.78685 ], [ -77.12426, 38.78712 ] ], [ [ -77.12307, 38.78835 ], [ -77.12281, 38.78675 ], [ -77.1226, 38.78679 ], [ -77.12307, 38.78835 ] ], [ [ -77.1253, 38.78823 ], [ -77.12521, 38.7882 ], [ -77.12495, 38.78815 ], [ -77.1253, 38.78823 ] ], [ [ -77.12595, 38.78878 ], [ -77.12632, 38.7885 ], [ -77.12603, 38.78848 ], [ -77.12595, 38.78878 ] ], [ [ -77.12577, 38.78925 ], [ -77.12543, 38.78939 ], [ -77.1256, 38.78943 ], [ -77.12577, 38.78925 ] ], [ [ -77.12497, 38.78932 ], [ -77.1246, 38.78924 ], [ -77.12467, 38.78928 ], [ -77.12497, 38.78932 ] ], [ [ -77.1269, 38.79062 ], [ -77.12695, 38.79093 ], [ -77.12905, 38.7907 ], [ -77.1269, 38.79062 ] ], [ [ -77.12247, 38.79502 ], [ -77.12243, 38.79544 ], [ -77.12284, 38.795 ], [ -77.12247, 38.79502 ] ], [ [ -77.12365, 38.79596 ], [ -77.12339, 38.79624 ], [ -77.12371, 38.79619 ], [ -77.12365, 38.79596 ] ], [ [ -77.11925, 38.79695 ], [ -77.11969, 38.79691 ], [ -77.11959, 38.79679 ], [ -77.11925, 38.79695 ] ], [ [ -77.11748, 38.79011 ], [ -77.11753, 38.79007 ], [ -77.11747, 38.79007 ], [ -77.11748, 38.79011 ] ], [ [ -77.12007, 38.79 ], [ -77.12016, 38.78996 ], [ -77.12007, 38.78994 ], [ -77.12007, 38.79 ] ], [ [ -77.1183, 38.7928 ], [ -77.11829, 38.79279 ], [ -77.11828, 38.79282 ], [ -77.1183, 38.7928 ] ], [ [ -77.11895, 38.79177 ], [ -77.11891, 38.79179 ], [ -77.11896, 38.79181 ], [ -77.11895, 38.79177 ] ], [ [ -77.11875, 38.79593 ], [ -77.11848, 38.79565 ], [ -77.11858, 38.796 ], [ -77.11875, 38.79593 ] ], [ [ -77.11816, 38.79429 ], [ -77.11814, 38.79431 ], [ -77.11815, 38.79432 ], [ -77.11816, 38.79429 ] ], [ [ -77.11744, 38.79691 ], [ -77.11707, 38.79569 ], [ -77.11712, 38.79643 ], [ -77.11744, 38.79691 ] ], [ [ -77.11043, 38.79405 ], [ -77.11085, 38.79516 ], [ -77.11187, 38.79488 ], [ -77.11238, 38.79541 ], [ -77.11503, 38.79385 ], [ -77.11291, 38.79381 ], [ -77.11227, 38.79325 ], [ -77.11124, 38.79346 ], [ -77.11043, 38.79405 ] ], [ [ -77.11046, 38.79927 ], [ -77.11, 38.79817 ], [ -77.10974, 38.79913 ], [ -77.10877, 38.7992 ], [ -77.10912, 38.80061 ], [ -77.11046, 38.79927 ] ], [ [ -77.11205, 38.79837 ], [ -77.11254, 38.79776 ], [ -77.11195, 38.79691 ], [ -77.11148, 38.79823 ], [ -77.11205, 38.79837 ] ], [ [ -77.11616, 38.7984 ], [ -77.116, 38.79824 ], [ -77.11611, 38.79845 ], [ -77.11616, 38.7984 ] ], [ [ -77.11419, 38.79804 ], [ -77.11423, 38.79849 ], [ -77.11477, 38.79867 ], [ -77.11498, 38.79815 ], [ -77.11419, 38.79804 ] ], [ [ -77.11349, 38.79999 ], [ -77.11376, 38.80001 ], [ -77.11389, 38.79959 ], [ -77.11349, 38.79999 ] ], [ [ -77.11246, 38.79926 ], [ -77.11201, 38.79959 ], [ -77.11225, 38.79947 ], [ -77.11246, 38.79926 ] ], [ [ -77.10981, 38.79026 ], [ -77.1102, 38.79026 ], [ -77.11011, 38.79009 ], [ -77.10981, 38.79026 ] ], [ [ -77.10782, 38.79284 ], [ -77.10805, 38.7928 ], [ -77.1083, 38.79245 ], [ -77.10704, 38.7913 ], [ -77.10782, 38.79284 ] ], [ [ -77.10741, 38.7994 ], [ -77.10725, 38.79937 ], [ -77.10699, 38.80018 ], [ -77.10741, 38.80128 ], [ -77.1082, 38.80141 ], [ -77.10741, 38.7994 ] ] ], [ [ [ -77.10098, 38.7953 ], [ -77.10209, 38.79531 ], [ -77.10277, 38.79585 ], [ -77.102, 38.79639 ], [ -77.10224, 38.79709 ], [ -77.10137, 38.79745 ], [ -77.10042, 38.79635 ], [ -77.09984, 38.79657 ], [ -77.09964, 38.7973 ], [ -77.09854, 38.79748 ], [ -77.0982, 38.79717 ], [ -77.09852, 38.79577 ], [ -77.09785, 38.79548 ], [ -77.09796, 38.79498 ], [ -77.09729, 38.79528 ], [ -77.09668, 38.79494 ], [ -77.09473, 38.79507 ], [ -77.09421, 38.79555 ], [ -77.09317, 38.79538 ], [ -77.09264, 38.79487 ], [ -77.09115, 38.79492 ], [ -77.09097, 38.79417 ], [ -77.09282, 38.79374 ], [ -77.09304, 38.79259 ], [ -77.09091, 38.79296 ], [ -77.09076, 38.79384 ], [ -77.09028, 38.79402 ], [ -77.08902, 38.79288 ], [ -77.08943, 38.79219 ], [ -77.09455, 38.79122 ], [ -77.09508, 38.79127 ], [ -77.09558, 38.79208 ], [ -77.09639, 38.792 ], [ -77.09662, 38.79265 ], [ -77.09775, 38.79265 ], [ -77.09794, 38.79199 ], [ -77.09902, 38.79226 ], [ -77.10057, 38.79108 ], [ -77.10125, 38.79163 ], [ -77.10098, 38.7953 ] ], [ [ -77.09569, 38.79383 ], [ -77.09654, 38.79385 ], [ -77.09653, 38.79373 ], [ -77.09532, 38.79383 ], [ -77.09569, 38.79383 ] ], [ [ -77.09408, 38.7944 ], [ -77.09417, 38.79443 ], [ -77.0941, 38.79434 ], [ -77.09408, 38.7944 ] ] ] ] } }
]
}
