{
"type": "FeatureCollection",
"name": "197",
"crs": { "type": "name", "properties": { "name": "urn:ogc:def:crs:OGC:1.3:CRS84" } },
"xy_coordinate_resolution": 1e-05,
"features": [
{ "type": "Feature", "properties": { "variant": "T0", "miles": 0.5 }, "geometry": { "type": "Polygon", "coordinates": [ [ [ -77.1418, 38.71488 ], [ -77.14472, 38.71972 ], [ -77.14594, 38.71864 ], [ -77.14573, 38.71774 ], [ -77.14665, 38.71748 ], [ -77.14742, 38.71872 ], [ -77.14701, 38.71946 ], [ -77.14912, 38.72018 ], [ -77.14881, 38.72091 ], [ -77.14627, 38.72041 ], [ -77.14537, 38.72067 ], [ -77.14676, 38.72425 ], [ -77.14934, 38.72706 ], [ -77.14868, 38.72762 ], [ -77.14704, 38.72666 ], [ -77.14613, 38.72562 ], [ -77.14409, 38.72108 ], [ -77.13679, 38.72369 ], [ -77.13582, 38.72358 ], [ -77.13608, 38.72275 ], [ -77.14036, 38.72108 ], [ -77.13915, 38.71932 ], [ -77.13854, 38.71906 ], [ -77.1385, 38.71865 ], [ -77.13935, 38.71814 ], [ -77.13848, 38.71777 ], [ -77.13843, 38.71736 ], [ -77.1409, 38.71458 ], [ -77.1418, 38.71488 ] ] ] } },
{ "type": "Feature", "properties": { "variant": "T0", "miles": 1.0 }, "geometry": { "type": "Polygon", "coordinates": [ [ [ -77.14798, 38.71308 ], [ -77.14996, 38.71256 ], [ -77.15041, 38.71324 ], [ -77.14717, 38.71449 ], [ -77.14806, 38.71625 ], [ -77.15336, 38.71456 ], [ -77.15389, 38.71456 ], [ -77.15425, 38.71527 ], [ -77.15286, 38.71588 ], [ -77.15282, 38.71647 ], [ -77.15356, 38.71677 ], [ -77.15333, 38.71751 ], [ -77.15197, 38.71739 ], [ -77.15144, 38.71652 ], [ -77.15064, 38.71659 ], [ -77.14812, 38.71741 ], [ -77.14717, 38.71813 ], [ -77.14742, 38.71892 ], [ -77.14701, 38.71946 ], [ -77.1527, 38.72087 ], [ -77.15253, 38.71909 ], [ -77.15349, 38.71896 ], [ -77.15446, 38.72195 ], [ -77.1557, 38.72342 ], [ -77.15679, 38.72349 ], [ -77.1566, 38.72424 ], [ -77.15193, 38.72655 ], [ -77.14581, 38.72868 ], [ -77.1454, 38.72799 ], [ -77.14748, 38.72698 ], [ -77.14542, 38.72456 ], [ -77.14409, 38.72108 ], [ -77.13686, 38.72364 ], [ -77.1313, 38.7281 ], [ -77.12834, 38.72858 ], [ -77.12808, 38.72792 ], [ -77.12841, 38.72733 ], [ -77.12929, 38.72695 ], [ -77.12936, 38.72554 ], [ -77.12987, 38.72545 ], [ -77.13145, 38.72651 ], [ -77.13305, 38.72519 ], [ -77.1332, 38.72463 ], [ -77.1324, 38.72442 ], [ -77.13233, 38.72401 ], [ -77.13299, 38.72352 ], [ -77.13227, 38.72238 ], [ -77.13355, 38.72068 ], [ -77.13236, 38.72049 ], [ -77.1317, 38.71891 ], [ -77.13252, 38.71816 ], [ -77.13191, 38.71707 ], [ -77.13222, 38.71646 ], [ -77.13367, 38.71656 ], [ -77.13378, 38.7175 ], [ -77.13685, 38.72241 ], [ -77.14036, 38.72108 ], [ -77.13915, 38.71932 ], [ -77.13854, 38.71906 ], [ -77.1385, 38.71865 ], [ -77.13935, 38.71814 ], [ -77.13848, 38.71777 ], [ -77.13843, 38.71736 ], [ -77.1405, 38.71537 ], [ -77.14071, 38.71463 ], [ -77.14257, 38.71398 ], [ -77.14352, 38.71447 ], [ -77.14651, 38.71353 ], [ -77.14621, 38.71248 ], [ -77.14659, 38.71219 ], [ -77.14712, 38.7122 ], [ -77.14798, 38.71308 ] ], [ [ -77.14472, 38.71972 ], [ -77.14538, 38.71886 ], [ -77.14431, 38.71877 ], [ -77.14238, 38.71517 ], [ -77.14195, 38.71532 ], [ -77.14472, 38.71972 ] ], [ [ -77.14522, 38.71774 ], [ -77.14688, 38.71685 ], [ -77.14622, 38.71553 ], [ -77.14433, 38.7161 ], [ -77.14522, 38.71774 ] ], [ [ -77.14627, 38.72041 ], [ -77.14537, 38.72067 ], [ -77.1466, 38.72396 ], [ -77.14876, 38.72642 ], [ -77.15127, 38.7256 ], [ -77.1545, 38.72395 ], [ -77.15299, 38.72194 ], [ -77.15296, 38.72344 ], [ -77.15202, 38.72364 ], [ -77.15141, 38.72252 ], [ -77.15156, 38.7218 ], [ -77.15091, 38.72163 ], [ -77.15072, 38.72236 ], [ -77.14963, 38.72254 ], [ -77.14933, 38.7222 ], [ -77.1496, 38.72128 ], [ -77.14627, 38.72041 ] ], [ [ -77.13451, 38.72229 ], [ -77.13514, 38.72231 ], [ -77.13501, 38.7221 ], [ -77.13451, 38.72229 ] ] ] } },
{ "type": "Feature", "properties": { "variant": "T0", "miles": 1.5 }, "geometry": { "type": "Polygon", "coordinates": [ [ [ -77.15131, 38.70808 ], [ -77.15185, 38.70952 ], [ -77.15497, 38.70877 ], [ -77.15624, 38.70897 ], [ -77.15902, 38.71269 ], [ -77.15807, 38.71491 ], [ -77.1571, 38.71497 ], [ -77.15698, 38.71402 ], [ -77.15656, 38.7147 ], [ -77.15446, 38.71538 ], [ -77.15359, 38.71825 ], [ -77.15423, 38.72144 ], [ -77.15461, 38.72216 ], [ -77.15451, 38.72112 ], [ -77.15547, 38.72099 ], [ -77.15633, 38.72307 ], [ -77.15841, 38.72194 ], [ -77.1617, 38.72152 ], [ -77.16128, 38.72112 ], [ -77.1618, 38.72047 ], [ -77.16307, 38.72096 ], [ -77.16364, 38.72186 ], [ -77.16186, 38.72273 ], [ -77.15884, 38.72309 ], [ -77.15193, 38.72655 ], [ -77.14957, 38.7273 ], [ -77.1499, 38.72849 ], [ -77.15093, 38.7297 ], [ -77.15356, 38.73001 ], [ -77.15501, 38.73063 ], [ -77.1565, 38.73221 ], [ -77.16124, 38.73527 ], [ -77.16116, 38.73624 ], [ -77.16019, 38.73619 ], [ -77.15547, 38.73293 ], [ -77.15382, 38.73127 ], [ -77.14995, 38.73048 ], [ -77.14876, 38.72916 ], [ -77.14835, 38.72784 ], [ -77.14634, 38.72867 ], [ -77.14542, 38.7284 ], [ -77.14577, 38.72768 ], [ -77.14748, 38.72698 ], [ -77.14542, 38.72456 ], [ -77.14409, 38.72108 ], [ -77.13734, 38.72343 ], [ -77.13859, 38.72574 ], [ -77.14234, 38.72847 ], [ -77.14387, 38.73111 ], [ -77.14354, 38.73183 ], [ -77.14247, 38.7316 ], [ -77.14054, 38.72858 ], [ -77.13736, 38.72646 ], [ -77.1361, 38.72424 ], [ -77.13182, 38.7278 ], [ -77.13223, 38.72945 ], [ -77.13134, 38.73067 ], [ -77.13251, 38.73219 ], [ -77.13271, 38.73404 ], [ -77.13229, 38.7347 ], [ -77.13046, 38.73579 ], [ -77.12971, 38.7353 ], [ -77.13037, 38.73451 ], [ -77.12922, 38.73435 ], [ -77.1294, 38.73347 ], [ -77.12891, 38.73273 ], [ -77.12716, 38.73242 ], [ -77.1252, 38.73266 ], [ -77.12359, 38.73002 ], [ -77.12306, 38.73014 ], [ -77.12331, 38.73082 ], [ -77.12286, 38.7314 ], [ -77.12194, 38.73113 ], [ -77.12169, 38.73047 ], [ -77.11995, 38.73073 ], [ -77.11961, 38.73042 ], [ -77.12006, 38.72974 ], [ -77.12572, 38.72835 ], [ -77.12588, 38.72792 ], [ -77.12528, 38.72743 ], [ -77.12524, 38.72664 ], [ -77.12563, 38.72639 ], [ -77.12469, 38.72564 ], [ -77.12442, 38.7244 ], [ -77.12484, 38.72404 ], [ -77.12434, 38.7234 ], [ -77.125, 38.72225 ], [ -77.12588, 38.7218 ], [ -77.12539, 38.72115 ], [ -77.12339, 38.72192 ], [ -77.12289, 38.72126 ], [ -77.12442, 38.72007 ], [ -77.13172, 38.7167 ], [ -77.13088, 38.71501 ], [ -77.1311, 38.71576 ], [ -77.13076, 38.71607 ], [ -77.13023, 38.71611 ], [ -77.12968, 38.71561 ], [ -77.12816, 38.71599 ], [ -77.12737, 38.71543 ], [ -77.12751, 38.71503 ], [ -77.1303, 38.71403 ], [ -77.12858, 38.71137 ], [ -77.12876, 38.71062 ], [ -77.12927, 38.71054 ], [ -77.12995, 38.71103 ], [ -77.13303, 38.71606 ], [ -77.13482, 38.71511 ], [ -77.13666, 38.71311 ], [ -77.13823, 38.71245 ], [ -77.14025, 38.7124 ], [ -77.14055, 38.71321 ], [ -77.14352, 38.71447 ], [ -77.14651, 38.71353 ], [ -77.14621, 38.71248 ], [ -77.14659, 38.71219 ], [ -77.14712, 38.7122 ], [ -77.14779, 38.71314 ], [ -77.14886, 38.7128 ], [ -77.1485, 38.71214 ], [ -77.14882, 38.71147 ], [ -77.1476, 38.71131 ], [ -77.14741, 38.71056 ], [ -77.14862, 38.71025 ], [ -77.14972, 38.71061 ], [ -77.15056, 38.70993 ], [ -77.15001, 38.70842 ], [ -77.15044, 38.70774 ], [ -77.15131, 38.70808 ] ], [ [ -77.13277, 38.72348 ], [ -77.13227, 38.72238 ], [ -77.13355, 38.72068 ], [ -77.13269, 38.7207 ], [ -77.1322, 38.72025 ], [ -77.13169, 38.71888 ], [ -77.13252, 38.71816 ], [ -77.13232, 38.71783 ], [ -77.12697, 38.72036 ], [ -77.12702, 38.72119 ], [ -77.12871, 38.72129 ], [ -77.13026, 38.72342 ], [ -77.13079, 38.72513 ], [ -77.13148, 38.72534 ], [ -77.13174, 38.72635 ], [ -77.13305, 38.72519 ], [ -77.1332, 38.72463 ], [ -77.1324, 38.72442 ], [ -77.13233, 38.72401 ], [ -77.13277, 38.72348 ] ], [ [ -77.14876, 38.72642 ], [ -77.15127, 38.7256 ], [ -77.1545, 38.72395 ], [ -77.15299, 38.72194 ], [ -77.15296, 38.72344 ], [ -77.15202, 38.72364 ], [ -77.15141, 38.72252 ], [ -77.15156, 38.7218 ], [ -77.15091, 38.72163 ], [ -77.15072, 38.72236 ], [ -77.14963, 38.72254 ], [ -77.14933, 38.7222 ], [ -77.1496, 38.72128 ], [ -77.1463, 38.72042 ], [ -77.14537, 38.72067 ], [ -77.14676, 38.72425 ], [ -77.14785, 38.72576 ], [ -77.14876, 38.72642 ] ], [ [ -77.14701, 38.71946 ], [ -77.1527, 38.72087 ], [ -77.15236, 38.71749 ], [ -77.15088, 38.71755 ], [ -77.15025, 38.71671 ], [ -77.14812, 38.71741 ], [ -77.14717, 38.71813 ], [ -77.14742, 38.71892 ], [ -77.14701, 38.71946 ] ], [ [ -77.14806, 38.71625 ], [ -77.15272, 38.71476 ], [ -77.15181, 38.71301 ], [ -77.14717, 38.71449 ], [ -77.14806, 38.71625 ] ], [ [ -77.15315, 38.71579 ], [ -77.15282, 38.71647 ], [ -77.15292, 38.71648 ], [ -77.15315, 38.71579 ] ], [ [ -77.15756, 38.71304 ], [ -77.15546, 38.70987 ], [ -77.15306, 38.71016 ], [ -77.15224, 38.71057 ], [ -77.15262, 38.71159 ], [ -77.15522, 38.711 ], [ -77.15626, 38.71252 ], [ -77.15756, 38.71304 ] ], [ [ -77.15458, 38.71215 ], [ -77.15309, 38.71261 ], [ -77.154, 38.71436 ], [ -77.15548, 38.7139 ], [ -77.15458, 38.71215 ] ], [ [ -77.15133, 38.71199 ], [ -77.15098, 38.71109 ], [ -77.14973, 38.71169 ], [ -77.15012, 38.71238 ], [ -77.15133, 38.71199 ] ], [ [ -77.14622, 38.71553 ], [ -77.14433, 38.7161 ], [ -77.14519, 38.71775 ], [ -77.14688, 38.71685 ], [ -77.14622, 38.71553 ] ], [ [ -77.14238, 38.71517 ], [ -77.14195, 38.71532 ], [ -77.14472, 38.71972 ], [ -77.14538, 38.71886 ], [ -77.14414, 38.71859 ], [ -77.14238, 38.71517 ] ], [ [ -77.14033, 38.72097 ], [ -77.13915, 38.71932 ], [ -77.13854, 38.71906 ], [ -77.1385, 38.71865 ], [ -77.13935, 38.71814 ], [ -77.13848, 38.71777 ], [ -77.13843, 38.71736 ], [ -77.13935, 38.7163 ], [ -77.13831, 38.71534 ], [ -77.13621, 38.71576 ], [ -77.13364, 38.71722 ], [ -77.13685, 38.72241 ], [ -77.14033, 38.72097 ] ], [ [ -77.13922, 38.71358 ], [ -77.13807, 38.71384 ], [ -77.13734, 38.71435 ], [ -77.13904, 38.71407 ], [ -77.13943, 38.7139 ], [ -77.13922, 38.71358 ] ], [ [ -77.13451, 38.72229 ], [ -77.13514, 38.72231 ], [ -77.13501, 38.7221 ], [ -77.13451, 38.72229 ] ], [ [ -77.12892, 38.72978 ], [ -77.1294, 38.72856 ], [ -77.12684, 38.72919 ], [ -77.12728, 38.72981 ], [ -77.12673, 38.73044 ], [ -77.12596, 38.73021 ], [ -77.12526, 38.73055 ], [ -77.12596, 38.73157 ], [ -77.12631, 38.73151 ], [ -77.12721, 38.73036 ], [ -77.12815, 38.73006 ], [ -77.12875, 38.73025 ], [ -77.12919, 38.73008 ], [ -77.12892, 38.72978 ] ], [ [ -77.12759, 38.72493 ], [ -77.12728, 38.72461 ], [ -77.12751, 38.72498 ], [ -77.12759, 38.72493 ] ] ] } },
{ "type": "Feature", "properties": { "variant": "T2s", "miles": 0.5 }, "geometry": { "type": "MultiPolygon", "coordinates": [ [ [ [ -77.14251, 38.7165 ], [ -77.14472, 38.71972 ], [ -77.14594, 38.71864 ], [ -77.14573, 38.71774 ], [ -77.14665, 38.71748 ], [ -77.14742, 38.71872 ], [ -77.14701, 38.71946 ], [ -77.14872, 38.71991 ], [ -77.14916, 38.7206 ], [ -77.14828, 38.72093 ], [ -77.1463, 38.72042 ], [ -77.14537, 38.72067 ], [ -77.14593, 38.7222 ], [ -77.14552, 38.72289 ], [ -77.14464, 38.72256 ], [ -77.14409, 38.72108 ], [ -77.13682, 38.72366 ], [ -77.13589, 38.72345 ], [ -77.13615, 38.72272 ], [ -77.14036, 38.72108 ], [ -77.13915, 38.71932 ], [ -77.13854, 38.71906 ], [ -77.1385, 38.71865 ], [ -77.13935, 38.71814 ], [ -77.13848, 38.71777 ], [ -77.13843, 38.71736 ], [ -77.13952, 38.71641 ], [ -77.14045, 38.71663 ], [ -77.14048, 38.71711 ], [ -77.14251, 38.7165 ] ] ], [ [ [ -77.1414, 38.7156 ], [ -77.1405, 38.7153 ], [ -77.1409, 38.71458 ], [ -77.1418, 38.71488 ], [ -77.1414, 38.7156 ] ] ] ] } },
{ "type": "Feature", "properties": { "variant": "T2s", "miles": 1.0 }, "geometry": { "type": "Polygon", "coordinates": [ [ [ -77.14779, 38.71314 ], [ -77.14996, 38.71256 ], [ -77.15041, 38.71324 ], [ -77.14717, 38.71449 ], [ -77.14806, 38.71625 ], [ -77.15336, 38.71456 ], [ -77.15426, 38.71486 ], [ -77.15388, 38.71556 ], [ -77.15286, 38.71588 ], [ -77.15282, 38.71647 ], [ -77.15356, 38.71677 ], [ -77.15333, 38.71751 ], [ -77.15188, 38.71736 ], [ -77.15113, 38.71644 ], [ -77.14824, 38.71736 ], [ -77.14717, 38.71813 ], [ -77.14742, 38.71892 ], [ -77.14701, 38.71946 ], [ -77.153, 38.72109 ], [ -77.15296, 38.72344 ], [ -77.15202, 38.72364 ], [ -77.15169, 38.72332 ], [ -77.15156, 38.7218 ], [ -77.15091, 38.72163 ], [ -77.15072, 38.72236 ], [ -77.14963, 38.72254 ], [ -77.14933, 38.7222 ], [ -77.1496, 38.72128 ], [ -77.14627, 38.72041 ], [ -77.14537, 38.72067 ], [ -77.14593, 38.7222 ], [ -77.14552, 38.72289 ], [ -77.14464, 38.72256 ], [ -77.14409, 38.72108 ], [ -77.13622, 38.72368 ], [ -77.13199, 38.71726 ], [ -77.13197, 38.71666 ], [ -77.13246, 38.71636 ], [ -77.13367, 38.71656 ], [ -77.13378, 38.7175 ], [ -77.13685, 38.72241 ], [ -77.14036, 38.72108 ], [ -77.13915, 38.71932 ], [ -77.13854, 38.71906 ], [ -77.1385, 38.71865 ], [ -77.13935, 38.71814 ], [ -77.13848, 38.71777 ], [ -77.13843, 38.71736 ], [ -77.1405, 38.71537 ], [ -77.14071, 38.71463 ], [ -77.14257, 38.71398 ], [ -77.14352, 38.71447 ], [ -77.14651, 38.71353 ], [ -77.14621, 38.71248 ], [ -77.14659, 38.71219 ], [ -77.14712, 38.7122 ], [ -77.14779, 38.71314 ] ], [ [ -77.14472, 38.71972 ], [ -77.14538, 38.71886 ], [ -77.14431, 38.71877 ], [ -77.14238, 38.71517 ], [ -77.14195, 38.71532 ], [ -77.14472, 38.71972 ] ], [ [ -77.14603, 38.71559 ], [ -77.14433, 38.7161 ], [ -77.14519, 38.71775 ], [ -77.14688, 38.71685 ], [ -77.14603, 38.71559 ] ] ] } },
{ "type": "Feature", "properties": { "variant": "T2s", "miles": 1.5 }, "geometry": { "type": "Polygon", "coordinates": [ [ [ -77.15197, 38.70943 ], [ -77.15497, 38.70877 ], [ -77.15619, 38.70895 ], [ -77.15902, 38.71269 ], [ -77.15807, 38.71491 ], [ -77.1571, 38.71497 ], [ -77.15698, 38.71402 ], [ -77.15656, 38.7147 ], [ -77.15446, 38.71538 ], [ -77.15359, 38.71825 ], [ -77.15423, 38.72144 ], [ -77.15461, 38.72216 ], [ -77.15451, 38.72112 ], [ -77.15547, 38.72099 ], [ -77.15633, 38.72307 ], [ -77.15841, 38.72194 ], [ -77.1617, 38.72152 ], [ -77.16128, 38.72112 ], [ -77.1618, 38.72047 ], [ -77.16307, 38.72096 ], [ -77.16364, 38.72186 ], [ -77.16182, 38.72274 ], [ -77.15882, 38.72297 ], [ -77.15543, 38.72467 ], [ -77.15299, 38.72194 ], [ -77.15296, 38.72344 ], [ -77.15202, 38.72364 ], [ -77.15141, 38.72252 ], [ -77.15156, 38.7218 ], [ -77.15091, 38.72163 ], [ -77.15072, 38.72236 ], [ -77.14963, 38.72254 ], [ -77.14933, 38.7222 ], [ -77.1496, 38.72128 ], [ -77.14627, 38.72041 ], [ -77.14537, 38.72067 ], [ -77.14593, 38.7222 ], [ -77.14552, 38.72289 ], [ -77.14464, 38.72256 ], [ -77.14409, 38.72108 ], [ -77.13734, 38.72343 ], [ -77.13859, 38.72574 ], [ -77.14234, 38.72847 ], [ -77.14387, 38.73111 ], [ -77.1439, 38.73152 ], [ -77.14302, 38.73185 ], [ -77.14066, 38.7285 ], [ -77.13748, 38.72638 ], [ -77.13612, 38.72395 ], [ -77.13483, 38.72446 ], [ -77.13434, 38.7243 ], [ -77.13434, 38.72354 ], [ -77.13531, 38.72301 ], [ -77.13518, 38.72238 ], [ -77.13389, 38.72203 ], [ -77.13354, 38.72064 ], [ -77.13269, 38.7207 ], [ -77.13224, 38.72033 ], [ -77.13169, 38.71888 ], [ -77.13252, 38.71816 ], [ -77.13232, 38.71783 ], [ -77.12928, 38.71923 ], [ -77.12833, 38.71905 ], [ -77.12855, 38.71831 ], [ -77.13172, 38.7167 ], [ -77.13088, 38.71501 ], [ -77.1311, 38.71576 ], [ -77.13076, 38.71607 ], [ -77.13023, 38.71611 ], [ -77.12968, 38.71561 ], [ -77.12816, 38.71599 ], [ -77.12737, 38.71543 ], [ -77.12751, 38.71503 ], [ -77.1303, 38.71403 ], [ -77.12847, 38.71097 ], [ -77.12876, 38.71062 ], [ -77.12972, 38.71076 ], [ -77.13303, 38.71606 ], [ -77.13482, 38.71511 ], [ -77.13666, 38.71311 ], [ -77.13823, 38.71245 ], [ -77.14025, 38.7124 ], [ -77.14055, 38.71321 ], [ -77.14352, 38.71447 ], [ -77.14651, 38.71353 ], [ -77.14621, 38.71248 ], [ -77.14659, 38.71219 ], [ -77.14712, 38.7122 ], [ -77.14779, 38.71314 ], [ -77.14886, 38.7128 ], [ -77.1485, 38.71214 ], [ -77.14882, 38.71147 ], [ -77.1476, 38.71131 ], [ -77.14741, 38.71056 ], [ -77.14862, 38.71025 ], [ -77.14972, 38.71061 ], [ -77.15056, 38.70993 ], [ -77.15001, 38.70842 ], [ -77.15044, 38.70774 ], [ -77.15131, 38.70808 ], [ -77.15197, 38.70943 ] ], [ [ -77.14472, 38.71972 ], [ -77.14538, 38.71886 ], [ -77.14431, 38.71877 ], [ -77.14238, 38.71517 ], [ -77.14195, 38.71532 ], [ -77.14472, 38.71972 ] ], [ [ -77.13933, 38.71629 ], [ -77.13831, 38.71534 ], [ -77.13708, 38.71547 ], [ -77.13364, 38.71722 ], [ -77.13685, 38.72241 ], [ -77.14036, 38.72108 ], [ -77.13915, 38.71932 ], [ -77.13854, 38.71906 ], [ -77.1385, 38.71865 ], [ -77.13935, 38.71814 ], [ -77.13848, 38.71777 ], [ -77.13843, 38.71736 ], [ -77.13907, 38.71702 ], [ -77.13933, 38.71629 ] ], [ [ -77.1527, 38.72087 ], [ -77.15236, 38.71749 ], [ -77.15088, 38.71755 ], [ -77.15025, 38.71671 ], [ -77.14812, 38.71741 ], [ -77.14717, 38.71813 ], [ -77.14742, 38.71892 ], [ -77.14701, 38.71946 ], [ -77.1527, 38.72087 ] ], [ [ -77.14806, 38.71625 ], [ -77.15272, 38.71476 ], [ -77.15181, 38.71301 ], [ -77.14717, 38.71449 ], [ -77.14806, 38.71625 ] ], [ [ -77.15133, 38.71199 ], [ -77.15098, 38.71109 ], [ -77.14973, 38.71169 ], [ -77.15012, 38.71238 ], [ -77.15133, 38.71199 ] ], [ [ -77.15548, 38.7139 ], [ -77.15458, 38.71215 ], [ -77.15309, 38.71261 ], [ -77.154, 38.71436 ], [ -77.15548, 38.7139 ] ], [ [ -77.15547, 38.70987 ], [ -77.15224, 38.71057 ], [ -77.15262, 38.71159 ], [ -77.15517, 38.71098 ], [ -77.15626, 38.71252 ], [ -77.15761, 38.713 ], [ -77.15547, 38.70987 ] ], [ [ -77.15286, 38.71588 ], [ -77.15292, 38.71648 ], [ -77.15315, 38.71579 ], [ -77.15286, 38.71588 ] ], [ [ -77.14622, 38.71553 ], [ -77.14433, 38.7161 ], [ -77.14519, 38.71775 ], [ -77.14688, 38.71685 ], [ -77.14622, 38.71553 ] ], [ [ -77.13932, 38.71378 ], [ -77.1385, 38.71368 ], [ -77.13734, 38.71435 ], [ -77.13854, 38.71426 ], [ -77.13932, 38.71378 ] ] ] } }
]
}
