{
"type": "FeatureCollection",
"name": "200",
"crs": { "type": "name", "properties": { "name": "urn:ogc:def:crs:OGC:1.3:CRS84" } },
"xy_coordinate_resolution": 1e-05,
"features": [
{ "type": "Feature", "properties": { "variant": "T0", "miles": 1.0 }, "geometry": { "type": "Polygon", "coordinates": [ [ [ -77.08254, 38.77041 ], [ -77.08204, 38.77365 ], [ -77.08463, 38.77403 ], [ -77.08519, 38.77466 ], [ -77.08438, 38.77509 ], [ -77.08159, 38.77469 ], [ -77.08105, 38.77703 ], [ -77.08479, 38.77675 ], [ -77.08578, 38.77756 ], [ -77.08502, 38.77803 ], [ -77.08285, 38.77783 ], [ -77.08285, 38.77933 ], [ -77.08228, 38.77995 ], [ -77.08149, 38.77949 ], [ -77.08147, 38.77812 ], [ -77.0807, 38.77854 ], [ -77.08022, 38.77999 ], [ -77.08088, 38.77977 ], [ -77.0815, 38.78035 ], [ -77.07969, 38.7817 ], [ -77.07885, 38.78338 ], [ -77.0778, 38.78373 ], [ -77.07567, 38.78192 ], [ -77.07591, 38.78155 ], [ -77.07698, 38.78168 ], [ -77.07776, 38.78113 ], [ -77.07812, 38.78075 ], [ -77.07873, 38.77915 ], [ -77.07836, 38.77998 ], [ -77.0775, 38.78034 ], [ -77.07704, 38.77966 ], [ -77.07736, 38.77884 ], [ -77.07442, 38.77819 ], [ -77.07313, 38.77927 ], [ -77.07251, 38.77868 ], [ -77.07283, 38.77826 ], [ -77.07233, 38.77698 ], [ -77.07328, 38.7763 ], [ -77.07245, 38.77565 ], [ -77.07272, 38.7753 ], [ -77.07445, 38.77513 ], [ -77.07492, 38.77443 ], [ -77.07576, 38.77421 ], [ -77.07444, 38.77094 ], [ -77.07363, 38.77099 ], [ -77.07331, 38.77027 ], [ -77.07544, 38.76982 ], [ -77.08045, 38.77148 ], [ -77.08065, 38.77047 ], [ -77.08147, 38.77011 ], [ -77.08254, 38.77041 ] ], [ [ -77.07865, 38.77725 ], [ -77.07884, 38.77724 ], [ -77.07844, 38.77733 ], [ -77.07865, 38.77725 ] ], [ [ -77.07954, 38.77489 ], [ -77.07995, 38.7749 ], [ -77.08025, 38.77363 ], [ -77.07988, 38.77351 ], [ -77.07938, 38.77395 ], [ -77.07954, 38.77489 ] ], [ [ -77.07688, 38.77605 ], [ -77.07734, 38.77609 ], [ -77.07736, 38.77602 ], [ -77.07688, 38.77605 ] ], [ [ -77.07715, 38.77403 ], [ -77.07678, 38.77199 ], [ -77.07739, 38.77162 ], [ -77.07598, 38.77114 ], [ -77.07715, 38.77403 ] ], [ [ -77.07424, 38.77708 ], [ -77.07696, 38.77762 ], [ -77.07707, 38.77716 ], [ -77.07447, 38.77691 ], [ -77.07424, 38.77708 ] ], [ [ -77.07462, 38.77581 ], [ -77.07461, 38.77583 ], [ -77.07465, 38.77584 ], [ -77.07462, 38.77581 ] ] ] } },
{ "type": "Feature", "properties": { "variant": "T0", "miles": 1.5 }, "geometry": { "type": "Polygon", "coordinates": [ [ [ -77.08666, 38.76481 ], [ -77.08619, 38.76548 ], [ -77.08482, 38.76574 ], [ -77.08474, 38.76598 ], [ -77.08564, 38.76623 ], [ -77.08551, 38.76699 ], [ -77.08423, 38.76702 ], [ -77.08654, 38.76743 ], [ -77.08654, 38.76968 ], [ -77.08981, 38.77027 ], [ -77.0914, 38.77338 ], [ -77.0941, 38.77297 ], [ -77.09436, 38.77371 ], [ -77.09395, 38.77396 ], [ -77.09055, 38.77469 ], [ -77.08997, 38.77495 ], [ -77.09109, 38.77512 ], [ -77.09254, 38.77662 ], [ -77.09196, 38.77723 ], [ -77.09117, 38.77697 ], [ -77.09067, 38.77731 ], [ -77.09073, 38.77825 ], [ -77.09011, 38.77878 ], [ -77.08859, 38.77903 ], [ -77.08801, 38.77966 ], [ -77.08748, 38.77965 ], [ -77.08712, 38.77935 ], [ -77.08758, 38.77814 ], [ -77.08738, 38.77743 ], [ -77.08701, 38.77802 ], [ -77.08651, 38.77815 ], [ -77.0858, 38.77775 ], [ -77.08401, 38.77892 ], [ -77.08437, 38.78016 ], [ -77.08368, 38.78088 ], [ -77.08513, 38.78211 ], [ -77.08547, 38.78373 ], [ -77.08597, 38.78415 ], [ -77.08449, 38.78708 ], [ -77.08358, 38.78736 ], [ -77.08321, 38.78687 ], [ -77.08161, 38.78669 ], [ -77.08017, 38.78913 ], [ -77.0781, 38.78944 ], [ -77.07748, 38.78988 ], [ -77.0754, 38.78965 ], [ -77.07433, 38.78903 ], [ -77.07362, 38.78786 ], [ -77.07164, 38.78696 ], [ -77.0719, 38.78545 ], [ -77.06901, 38.78721 ], [ -77.06797, 38.78631 ], [ -77.06976, 38.78493 ], [ -77.07556, 38.78258 ], [ -77.07348, 38.78106 ], [ -77.07326, 38.78068 ], [ -77.07398, 38.77988 ], [ -77.07531, 38.78001 ], [ -77.07739, 38.78133 ], [ -77.07812, 38.78075 ], [ -77.07873, 38.77915 ], [ -77.07836, 38.77998 ], [ -77.0775, 38.78034 ], [ -77.07704, 38.77966 ], [ -77.07736, 38.77884 ], [ -77.07442, 38.77819 ], [ -77.07363, 38.77915 ], [ -77.07266, 38.77908 ], [ -77.07283, 38.77826 ], [ -77.07233, 38.77698 ], [ -77.07328, 38.7763 ], [ -77.07245, 38.77565 ], [ -77.07272, 38.7753 ], [ -77.07445, 38.77513 ], [ -77.07492, 38.77443 ], [ -77.07576, 38.77421 ], [ -77.07444, 38.77094 ], [ -77.0736, 38.77118 ], [ -77.07314, 38.77214 ], [ -77.07225, 38.77156 ], [ -77.06988, 38.77222 ], [ -77.06982, 38.7736 ], [ -77.06883, 38.77462 ], [ -77.06808, 38.77413 ], [ -77.06781, 38.77278 ], [ -77.06619, 38.77375 ], [ -77.0653, 38.77345 ], [ -77.06584, 38.77237 ], [ -77.0671, 38.77183 ], [ -77.06668, 38.76989 ], [ -77.06739, 38.76936 ], [ -77.0687, 38.77026 ], [ -77.06853, 38.76877 ], [ -77.0677, 38.76854 ], [ -77.06765, 38.76813 ], [ -77.0685, 38.76759 ], [ -77.06931, 38.76606 ], [ -77.07021, 38.76633 ], [ -77.07017, 38.7669 ], [ -77.0708, 38.76749 ], [ -77.07134, 38.7671 ], [ -77.07212, 38.76781 ], [ -77.07371, 38.76783 ], [ -77.07432, 38.76668 ], [ -77.07199, 38.76666 ], [ -77.07152, 38.7661 ], [ -77.07175, 38.76573 ], [ -77.07429, 38.7656 ], [ -77.07423, 38.76483 ], [ -77.07526, 38.76483 ], [ -77.07637, 38.76412 ], [ -77.07708, 38.76464 ], [ -77.07686, 38.76506 ], [ -77.07766, 38.7653 ], [ -77.07758, 38.76604 ], [ -77.07941, 38.7666 ], [ -77.0794, 38.76598 ], [ -77.0801, 38.76518 ], [ -77.08163, 38.76543 ], [ -77.08214, 38.76489 ], [ -77.0834, 38.76513 ], [ -77.08373, 38.7641 ], [ -77.08423, 38.76398 ], [ -77.08485, 38.76464 ], [ -77.08634, 38.76449 ], [ -77.08666, 38.76481 ] ], [ [ -77.08015, 38.78509 ], [ -77.07868, 38.78451 ], [ -77.0785, 38.7854 ], [ -77.07973, 38.78571 ], [ -77.08015, 38.78509 ] ], [ [ -77.0791, 38.78348 ], [ -77.08107, 38.78418 ], [ -77.07916, 38.78331 ], [ -77.0791, 38.78348 ] ], [ [ -77.08075, 38.7821 ], [ -77.08169, 38.7819 ], [ -77.08249, 38.7825 ], [ -77.08191, 38.78432 ], [ -77.08283, 38.78505 ], [ -77.08259, 38.78578 ], [ -77.08372, 38.78582 ], [ -77.08447, 38.7854 ], [ -77.0841, 38.7839 ], [ -77.08324, 38.78386 ], [ -77.08296, 38.78351 ], [ -77.08344, 38.78292 ], [ -77.08259, 38.78262 ], [ -77.0828, 38.78172 ], [ -77.08085, 38.78098 ], [ -77.07969, 38.7817 ], [ -77.07959, 38.78226 ], [ -77.08038, 38.78261 ], [ -77.08075, 38.7821 ] ], [ [ -77.08022, 38.77999 ], [ -77.08146, 38.77919 ], [ -77.08147, 38.77812 ], [ -77.0807, 38.77854 ], [ -77.08022, 38.77999 ] ], [ [ -77.07865, 38.77725 ], [ -77.07884, 38.77724 ], [ -77.07844, 38.77733 ], [ -77.07865, 38.77725 ] ], [ [ -77.08046, 38.77136 ], [ -77.08052, 38.77097 ], [ -77.0779, 38.77007 ], [ -77.07503, 38.76966 ], [ -77.07497, 38.769 ], [ -77.07441, 38.76879 ], [ -77.07452, 38.7698 ], [ -77.08046, 38.77136 ] ], [ [ -77.07706, 38.76703 ], [ -77.07675, 38.76683 ], [ -77.07644, 38.76765 ], [ -77.07706, 38.76703 ] ], [ [ -77.08285, 38.77828 ], [ -77.08351, 38.77784 ], [ -77.08285, 38.77783 ], [ -77.08285, 38.77828 ] ], [ [ -77.08105, 38.77703 ], [ -77.08405, 38.77676 ], [ -77.08443, 38.7751 ], [ -77.08159, 38.77469 ], [ -77.08105, 38.77703 ] ], [ [ -77.08204, 38.77365 ], [ -77.08544, 38.77385 ], [ -77.08543, 38.7735 ], [ -77.08435, 38.77324 ], [ -77.08418, 38.77279 ], [ -77.0847, 38.77221 ], [ -77.0856, 38.77224 ], [ -77.08566, 38.77187 ], [ -77.08468, 38.77158 ], [ -77.08456, 38.77117 ], [ -77.08553, 38.77067 ], [ -77.08266, 38.77037 ], [ -77.08204, 38.77365 ] ], [ [ -77.09034, 38.77628 ], [ -77.0904, 38.77628 ], [ -77.09038, 38.77624 ], [ -77.09034, 38.77628 ] ], [ [ -77.08644, 38.77582 ], [ -77.08625, 38.77604 ], [ -77.08686, 38.77564 ], [ -77.08644, 38.77582 ] ], [ [ -77.08532, 38.76823 ], [ -77.08509, 38.76848 ], [ -77.08516, 38.7685 ], [ -77.08532, 38.76823 ] ], [ [ -77.08831, 38.77369 ], [ -77.08851, 38.77374 ], [ -77.08845, 38.7736 ], [ -77.08831, 38.77369 ] ], [ [ -77.08691, 38.77483 ], [ -77.08705, 38.77522 ], [ -77.08691, 38.7756 ], [ -77.08744, 38.77521 ], [ -77.08691, 38.77483 ] ], [ [ -77.08821, 38.77095 ], [ -77.08885, 38.77138 ], [ -77.09006, 38.77368 ], [ -77.08879, 38.77101 ], [ -77.08821, 38.77095 ] ], [ [ -77.08935, 38.77549 ], [ -77.0895, 38.77525 ], [ -77.08958, 38.77517 ], [ -77.08935, 38.77549 ] ], [ [ -77.08448, 38.76947 ], [ -77.08457, 38.76948 ], [ -77.0845, 38.76945 ], [ -77.08448, 38.76947 ] ], [ [ -77.08287, 38.7693 ], [ -77.08325, 38.76898 ], [ -77.08308, 38.76892 ], [ -77.08287, 38.7693 ] ], [ [ -77.08386, 38.78263 ], [ -77.08353, 38.78288 ], [ -77.08396, 38.78282 ], [ -77.08386, 38.78263 ] ], [ [ -77.08001, 38.77355 ], [ -77.07938, 38.77395 ], [ -77.07966, 38.77459 ], [ -77.07927, 38.77488 ], [ -77.07995, 38.7749 ], [ -77.08001, 38.77355 ] ], [ [ -77.07605, 38.7853 ], [ -77.07606, 38.78518 ], [ -77.07584, 38.78515 ], [ -77.07605, 38.7853 ] ], [ [ -77.07702, 38.78339 ], [ -77.07703, 38.78344 ], [ -77.0771, 38.78346 ], [ -77.07702, 38.78339 ] ], [ [ -77.07706, 38.77721 ], [ -77.07447, 38.77691 ], [ -77.07419, 38.77712 ], [ -77.07696, 38.77762 ], [ -77.07706, 38.77721 ] ], [ [ -77.07688, 38.77605 ], [ -77.07734, 38.77609 ], [ -77.07736, 38.77602 ], [ -77.07688, 38.77605 ] ], [ [ -77.07729, 38.77399 ], [ -77.0767, 38.77223 ], [ -77.07739, 38.77162 ], [ -77.07598, 38.77114 ], [ -77.07729, 38.77399 ] ], [ [ -77.07462, 38.77581 ], [ -77.07461, 38.77583 ], [ -77.07465, 38.77584 ], [ -77.07462, 38.77581 ] ], [ [ -77.07348, 38.78608 ], [ -77.07287, 38.78641 ], [ -77.07351, 38.78672 ], [ -77.07348, 38.78608 ] ], [ [ -77.07486, 38.78596 ], [ -77.07489, 38.78594 ], [ -77.07486, 38.78591 ], [ -77.07486, 38.78596 ] ], [ [ -77.07095, 38.76977 ], [ -77.07003, 38.76984 ], [ -77.07019, 38.77098 ], [ -77.07107, 38.77074 ], [ -77.07095, 38.76977 ] ] ] } },
{ "type": "Feature", "properties": { "variant": "T0", "miles": 2.0 }, "geometry": { "type": "Polygon", "coordinates": [ [ [ -77.09163, 38.76301 ], [ -77.09248, 38.76304 ], [ -77.0929, 38.76372 ], [ -77.09271, 38.7641 ], [ -77.09132, 38.76446 ], [ -77.0921, 38.7647 ], [ -77.09224, 38.7651 ], [ -77.09136, 38.76555 ], [ -77.09208, 38.76872 ], [ -77.09185, 38.76934 ], [ -77.09304, 38.76947 ], [ -77.09361, 38.76669 ], [ -77.09474, 38.76618 ], [ -77.09525, 38.76683 ], [ -77.09441, 38.76957 ], [ -77.09499, 38.76924 ], [ -77.09548, 38.7694 ], [ -77.09569, 38.77089 ], [ -77.09669, 38.77114 ], [ -77.09644, 38.77231 ], [ -77.0971, 38.77109 ], [ -77.09758, 38.77092 ], [ -77.09847, 38.77133 ], [ -77.09882, 38.77055 ], [ -77.10014, 38.76948 ], [ -77.10108, 38.76968 ], [ -77.10103, 38.77037 ], [ -77.10032, 38.77099 ], [ -77.10068, 38.77139 ], [ -77.10203, 38.77122 ], [ -77.10238, 38.77153 ], [ -77.10195, 38.77222 ], [ -77.0999, 38.77267 ], [ -77.1001, 38.77407 ], [ -77.10123, 38.77446 ], [ -77.10198, 38.77523 ], [ -77.1007, 38.77611 ], [ -77.09822, 38.77565 ], [ -77.0978, 38.77539 ], [ -77.09802, 38.77471 ], [ -77.0963, 38.7746 ], [ -77.09577, 38.77408 ], [ -77.09478, 38.77574 ], [ -77.09304, 38.77505 ], [ -77.0926, 38.77425 ], [ -77.09188, 38.7744 ], [ -77.09377, 38.776 ], [ -77.09511, 38.77649 ], [ -77.09574, 38.77908 ], [ -77.09704, 38.77884 ], [ -77.09735, 38.77917 ], [ -77.09698, 38.77974 ], [ -77.09802, 38.78005 ], [ -77.09785, 38.7808 ], [ -77.0965, 38.78077 ], [ -77.09613, 38.78151 ], [ -77.09517, 38.78138 ], [ -77.09514, 38.78059 ], [ -77.09439, 38.78012 ], [ -77.09364, 38.78047 ], [ -77.09378, 38.78112 ], [ -77.09336, 38.78136 ], [ -77.09165, 38.78136 ], [ -77.09244, 38.77876 ], [ -77.09187, 38.77722 ], [ -77.09117, 38.77697 ], [ -77.09059, 38.77745 ], [ -77.091, 38.77858 ], [ -77.09039, 38.77993 ], [ -77.08941, 38.77988 ], [ -77.08939, 38.77903 ], [ -77.08859, 38.77903 ], [ -77.08872, 38.77976 ], [ -77.08828, 38.78033 ], [ -77.08746, 38.78053 ], [ -77.08664, 38.78024 ], [ -77.08633, 38.77939 ], [ -77.08758, 38.77814 ], [ -77.08738, 38.77743 ], [ -77.08701, 38.77802 ], [ -77.08651, 38.77815 ], [ -77.0858, 38.77775 ], [ -77.08401, 38.77892 ], [ -77.08437, 38.78016 ], [ -77.08368, 38.78088 ], [ -77.08513, 38.78211 ], [ -77.08547, 38.78373 ], [ -77.08656, 38.78308 ], [ -77.08717, 38.78413 ], [ -77.0875, 38.78245 ], [ -77.08848, 38.78246 ], [ -77.08839, 38.7855 ], [ -77.08979, 38.78484 ], [ -77.09028, 38.78371 ], [ -77.09125, 38.78378 ], [ -77.09118, 38.78626 ], [ -77.09039, 38.78679 ], [ -77.09121, 38.78807 ], [ -77.09092, 38.7888 ], [ -77.09039, 38.78883 ], [ -77.08962, 38.78804 ], [ -77.08979, 38.78874 ], [ -77.08935, 38.78938 ], [ -77.08841, 38.78916 ], [ -77.08837, 38.7887 ], [ -77.08755, 38.78918 ], [ -77.0887, 38.78958 ], [ -77.08843, 38.79032 ], [ -77.08656, 38.79011 ], [ -77.08587, 38.79144 ], [ -77.08504, 38.79181 ], [ -77.08434, 38.79113 ], [ -77.08531, 38.78948 ], [ -77.0868, 38.78827 ], [ -77.08672, 38.78765 ], [ -77.08597, 38.78755 ], [ -77.08517, 38.78891 ], [ -77.08347, 38.78839 ], [ -77.0826, 38.78858 ], [ -77.0823, 38.78789 ], [ -77.08118, 38.78938 ], [ -77.0816, 38.79261 ], [ -77.08351, 38.79368 ], [ -77.08382, 38.7944 ], [ -77.0829, 38.79465 ], [ -77.08148, 38.79389 ], [ -77.08091, 38.79424 ], [ -77.08118, 38.79491 ], [ -77.08001, 38.79587 ], [ -77.08033, 38.79685 ], [ -77.07996, 38.79715 ], [ -77.07943, 38.79715 ], [ -77.07715, 38.79546 ], [ -77.07743, 38.79481 ], [ -77.0768, 38.79427 ], [ -77.07654, 38.79326 ], [ -77.07551, 38.79289 ], [ -77.07552, 38.79163 ], [ -77.07462, 38.79166 ], [ -77.07417, 38.79093 ], [ -77.07322, 38.79059 ], [ -77.07311, 38.78831 ], [ -77.07347, 38.78783 ], [ -77.07159, 38.78689 ], [ -77.0719, 38.78545 ], [ -77.06914, 38.7872 ], [ -77.07008, 38.78776 ], [ -77.07022, 38.78869 ], [ -77.07109, 38.78918 ], [ -77.07007, 38.79005 ], [ -77.06974, 38.79106 ], [ -77.06922, 38.79111 ], [ -77.06749, 38.78989 ], [ -77.06711, 38.78852 ], [ -77.06506, 38.78978 ], [ -77.06671, 38.79081 ], [ -77.06672, 38.79158 ], [ -77.06623, 38.79174 ], [ -77.06406, 38.7907 ], [ -77.06327, 38.79166 ], [ -77.0623, 38.79153 ], [ -77.06217, 38.79077 ], [ -77.06292, 38.78993 ], [ -77.06128, 38.79032 ], [ -77.06027, 38.79018 ], [ -77.06002, 38.78946 ], [ -77.06043, 38.7892 ], [ -77.06272, 38.78873 ], [ -77.06371, 38.78892 ], [ -77.06496, 38.78732 ], [ -77.06581, 38.78778 ], [ -77.06935, 38.78515 ], [ -77.07248, 38.7838 ], [ -77.07281, 38.78272 ], [ -77.07234, 38.78098 ], [ -77.07066, 38.78025 ], [ -77.07002, 38.78056 ], [ -77.0695, 38.78022 ], [ -77.06765, 38.78008 ], [ -77.06757, 38.78125 ], [ -77.06672, 38.78197 ], [ -77.06575, 38.78201 ], [ -77.06585, 38.7805 ], [ -77.06694, 38.77886 ], [ -77.06609, 38.77877 ], [ -77.06586, 38.77839 ], [ -77.06684, 38.77741 ], [ -77.06606, 38.77727 ], [ -77.06481, 38.77854 ], [ -77.06445, 38.77959 ], [ -77.06301, 38.77958 ], [ -77.06251, 38.77944 ], [ -77.06226, 38.77879 ], [ -77.06151, 38.77867 ], [ -77.06144, 38.77753 ], [ -77.06042, 38.77697 ], [ -77.0611, 38.77642 ], [ -77.06206, 38.7765 ], [ -77.06196, 38.77567 ], [ -77.05787, 38.7755 ], [ -77.05771, 38.77499 ], [ -77.05831, 38.77451 ], [ -77.05839, 38.77383 ], [ -77.05939, 38.77374 ], [ -77.05953, 38.77301 ], [ -77.06118, 38.77304 ], [ -77.06207, 38.77381 ], [ -77.0631, 38.77364 ], [ -77.0635, 38.77448 ], [ -77.0648, 38.77425 ], [ -77.06529, 38.77305 ], [ -77.0644, 38.7724 ], [ -77.06449, 38.77123 ], [ -77.06496, 38.77077 ], [ -77.0647, 38.7693 ], [ -77.06286, 38.76799 ], [ -77.06291, 38.76725 ], [ -77.06147, 38.76648 ], [ -77.06178, 38.76576 ], [ -77.06291, 38.76577 ], [ -77.06306, 38.76527 ], [ -77.06245, 38.76424 ], [ -77.06269, 38.76357 ], [ -77.06186, 38.76304 ], [ -77.06173, 38.76239 ], [ -77.06264, 38.76211 ], [ -77.06354, 38.76271 ], [ -77.06435, 38.76183 ], [ -77.06531, 38.76179 ], [ -77.06903, 38.7643 ], [ -77.06945, 38.76585 ], [ -77.0702, 38.76632 ], [ -77.07017, 38.7669 ], [ -77.0708, 38.76749 ], [ -77.07134, 38.7671 ], [ -77.07212, 38.76781 ], [ -77.07371, 38.76783 ], [ -77.07432, 38.76668 ], [ -77.07217, 38.76671 ], [ -77.07148, 38.76614 ], [ -77.0721, 38.76251 ], [ -77.07275, 38.76154 ], [ -77.07188, 38.76148 ], [ -77.07193, 38.76071 ], [ -77.07302, 38.76016 ], [ -77.07325, 38.75932 ], [ -77.07422, 38.75934 ], [ -77.07439, 38.76033 ], [ -77.07618, 38.7602 ], [ -77.07659, 38.76096 ], [ -77.07771, 38.76078 ], [ -77.07763, 38.76167 ], [ -77.07852, 38.76268 ], [ -77.07843, 38.7636 ], [ -77.07917, 38.76412 ], [ -77.0834, 38.76513 ], [ -77.08335, 38.76261 ], [ -77.08262, 38.76218 ], [ -77.08241, 38.76034 ], [ -77.08156, 38.76054 ], [ -77.07949, 38.75999 ], [ -77.07902, 38.75933 ], [ -77.0795, 38.75828 ], [ -77.08057, 38.7576 ], [ -77.08166, 38.75768 ], [ -77.08235, 38.7569 ], [ -77.08381, 38.75684 ], [ -77.08451, 38.75734 ], [ -77.08462, 38.75851 ], [ -77.08528, 38.75717 ], [ -77.08645, 38.7571 ], [ -77.08767, 38.75794 ], [ -77.08707, 38.75854 ], [ -77.08635, 38.7583 ], [ -77.08625, 38.75878 ], [ -77.08847, 38.75901 ], [ -77.08907, 38.75961 ], [ -77.08831, 38.76008 ], [ -77.08732, 38.75999 ], [ -77.08699, 38.7609 ], [ -77.08762, 38.76133 ], [ -77.08757, 38.76174 ], [ -77.08664, 38.76197 ], [ -77.08532, 38.7615 ], [ -77.08512, 38.76233 ], [ -77.09, 38.76283 ], [ -77.09032, 38.76216 ], [ -77.09084, 38.76206 ], [ -77.09163, 38.76301 ] ], [ [ -77.0785, 38.7854 ], [ -77.07973, 38.78571 ], [ -77.08015, 38.78509 ], [ -77.07868, 38.78451 ], [ -77.0785, 38.7854 ] ], [ [ -77.0791, 38.78348 ], [ -77.08107, 38.78418 ], [ -77.07916, 38.78331 ], [ -77.0791, 38.78348 ] ], [ [ -77.07834, 38.7801 ], [ -77.07873, 38.77915 ], [ -77.07836, 38.77998 ], [ -77.0775, 38.78034 ], [ -77.07704, 38.77966 ], [ -77.07736, 38.77884 ], [ -77.07442, 38.77819 ], [ -77.07313, 38.77927 ], [ -77.07251, 38.77868 ], [ -77.07283, 38.77826 ], [ -77.07257, 38.77772 ], [ -77.07066, 38.77825 ], [ -77.07103, 38.77915 ], [ -77.07344, 38.78032 ], [ -77.07474, 38.77978 ], [ -77.07739, 38.78133 ], [ -77.07834, 38.7801 ] ], [ [ -77.07865, 38.77725 ], [ -77.07884, 38.77724 ], [ -77.07844, 38.77733 ], [ -77.07865, 38.77725 ] ], [ [ -77.07954, 38.77489 ], [ -77.07995, 38.7749 ], [ -77.08025, 38.77363 ], [ -77.07988, 38.77351 ], [ -77.07938, 38.77395 ], [ -77.07954, 38.77489 ] ], [ [ -77.08046, 38.77136 ], [ -77.08052, 38.77097 ], [ -77.0779, 38.77007 ], [ -77.07503, 38.76966 ], [ -77.07497, 38.769 ], [ -77.07441, 38.76879 ], [ -77.07452, 38.7698 ], [ -77.08046, 38.77136 ] ], [ [ -77.07941, 38.7666 ], [ -77.07985, 38.76579 ], [ -77.07997, 38.76532 ], [ -77.07951, 38.76528 ], [ -77.07847, 38.76633 ], [ -77.07941, 38.7666 ] ], [ [ -77.07788, 38.76524 ], [ -77.07822, 38.7649 ], [ -77.07805, 38.76478 ], [ -77.07788, 38.76524 ] ], [ [ -77.08686, 38.77564 ], [ -77.08625, 38.77592 ], [ -77.08625, 38.77604 ], [ -77.08648, 38.77589 ], [ -77.08686, 38.77564 ] ], [ [ -77.08542, 38.77371 ], [ -77.08435, 38.77324 ], [ -77.08418, 38.77279 ], [ -77.0847, 38.77221 ], [ -77.0856, 38.77224 ], [ -77.08566, 38.77187 ], [ -77.08468, 38.77158 ], [ -77.08456, 38.77117 ], [ -77.08553, 38.77067 ], [ -77.08266, 38.77037 ], [ -77.08204, 38.77365 ], [ -77.08422, 38.77397 ], [ -77.08542, 38.77371 ] ], [ [ -77.08516, 38.7685 ], [ -77.08518, 38.76821 ], [ -77.08509, 38.76848 ], [ -77.08516, 38.7685 ] ], [ [ -77.09045, 38.76768 ], [ -77.08424, 38.76701 ], [ -77.08423, 38.76702 ], [ -77.08467, 38.76707 ], [ -77.09045, 38.76768 ] ], [ [ -77.08883, 38.77108 ], [ -77.08821, 38.77095 ], [ -77.08885, 38.77138 ], [ -77.09006, 38.77368 ], [ -77.08883, 38.77108 ] ], [ [ -77.09172, 38.77332 ], [ -77.09037, 38.77027 ], [ -77.08972, 38.7702 ], [ -77.0914, 38.77338 ], [ -77.09172, 38.77332 ] ], [ [ -77.08538, 38.76345 ], [ -77.08506, 38.76342 ], [ -77.08507, 38.76461 ], [ -77.08523, 38.76457 ], [ -77.08538, 38.76345 ] ], [ [ -77.09055, 38.77469 ], [ -77.08997, 38.77495 ], [ -77.09066, 38.77493 ], [ -77.09055, 38.77469 ] ], [ [ -77.08935, 38.77549 ], [ -77.0895, 38.77525 ], [ -77.08958, 38.77517 ], [ -77.08935, 38.77549 ] ], [ [ -77.09069, 38.76921 ], [ -77.09051, 38.76878 ], [ -77.08647, 38.76835 ], [ -77.08651, 38.76877 ], [ -77.09069, 38.76921 ] ], [ [ -77.08842, 38.76634 ], [ -77.08696, 38.76621 ], [ -77.08843, 38.76637 ], [ -77.08842, 38.76634 ] ], [ [ -77.08917, 38.76458 ], [ -77.09071, 38.7644 ], [ -77.08881, 38.7642 ], [ -77.08917, 38.76458 ] ], [ [ -77.08865, 38.76418 ], [ -77.08712, 38.76419 ], [ -77.08639, 38.76354 ], [ -77.08659, 38.76428 ], [ -77.08784, 38.76466 ], [ -77.08865, 38.76418 ] ], [ [ -77.09303, 38.77297 ], [ -77.09303, 38.77056 ], [ -77.09182, 38.77043 ], [ -77.09214, 38.77111 ], [ -77.09303, 38.77297 ] ], [ [ -77.08984, 38.76635 ], [ -77.09016, 38.76619 ], [ -77.08992, 38.76556 ], [ -77.08957, 38.76561 ], [ -77.08984, 38.76635 ] ], [ [ -77.09855, 38.77298 ], [ -77.09708, 38.77339 ], [ -77.09866, 38.77374 ], [ -77.09855, 38.77298 ] ], [ [ -77.09431, 38.77414 ], [ -77.09441, 38.77387 ], [ -77.0941, 38.77393 ], [ -77.09431, 38.77414 ] ], [ [ -77.09038, 38.77624 ], [ -77.09032, 38.77629 ], [ -77.0904, 38.77628 ], [ -77.09038, 38.77624 ] ], [ [ -77.09175, 38.77595 ], [ -77.0918, 38.77599 ], [ -77.09174, 38.77595 ], [ -77.09175, 38.77595 ] ], [ [ -77.08595, 38.75984 ], [ -77.08565, 38.76043 ], [ -77.08572, 38.76046 ], [ -77.08595, 38.75984 ] ], [ [ -77.08682, 38.77468 ], [ -77.08705, 38.77522 ], [ -77.08691, 38.7756 ], [ -77.08744, 38.77521 ], [ -77.08682, 38.77468 ] ], [ [ -77.08845, 38.7736 ], [ -77.08831, 38.77369 ], [ -77.08851, 38.77374 ], [ -77.08845, 38.7736 ] ], [ [ -77.08567, 38.78498 ], [ -77.08701, 38.78547 ], [ -77.08584, 38.78451 ], [ -77.08567, 38.78498 ] ], [ [ -77.08899, 38.78695 ], [ -77.08883, 38.78655 ], [ -77.08821, 38.78676 ], [ -77.08812, 38.78755 ], [ -77.08899, 38.78695 ] ], [ [ -77.08146, 38.77889 ], [ -77.08147, 38.77812 ], [ -77.0807, 38.77854 ], [ -77.08022, 38.77999 ], [ -77.08146, 38.77889 ] ], [ [ -77.08397, 38.77676 ], [ -77.08443, 38.7751 ], [ -77.08159, 38.77469 ], [ -77.08105, 38.77703 ], [ -77.08397, 38.77676 ] ], [ [ -77.08287, 38.7693 ], [ -77.08325, 38.76898 ], [ -77.08308, 38.76892 ], [ -77.08287, 38.7693 ] ], [ [ -77.08448, 38.76947 ], [ -77.08457, 38.76948 ], [ -77.0845, 38.76945 ], [ -77.08448, 38.76947 ] ], [ [ -77.08351, 38.77784 ], [ -77.08285, 38.77783 ], [ -77.08285, 38.77828 ], [ -77.08351, 38.77784 ] ], [ [ -77.08285, 38.78176 ], [ -77.08085, 38.78098 ], [ -77.07969, 38.7817 ], [ -77.07959, 38.78226 ], [ -77.08038, 38.78261 ], [ -77.08117, 38.78185 ], [ -77.08169, 38.7819 ], [ -77.08249, 38.7825 ], [ -77.08208, 38.7835 ], [ -77.08299, 38.78339 ], [ -77.08344, 38.78292 ], [ -77.08259, 38.78262 ], [ -77.08285, 38.78176 ] ], [ [ -77.08289, 38.78686 ], [ -77.08302, 38.78695 ], [ -77.08308, 38.78686 ], [ -77.08289, 38.78686 ] ], [ [ -77.08356, 38.78581 ], [ -77.08354, 38.78579 ], [ -77.08351, 38.78581 ], [ -77.08356, 38.78581 ] ], [ [ -77.08261, 38.78578 ], [ -77.08276, 38.78578 ], [ -77.0827, 38.78573 ], [ -77.08261, 38.78578 ] ], [ [ -77.08329, 38.78407 ], [ -77.08327, 38.7841 ], [ -77.08332, 38.78412 ], [ -77.08329, 38.78407 ] ], [ [ -77.08396, 38.78282 ], [ -77.08388, 38.7826 ], [ -77.08353, 38.78288 ], [ -77.08396, 38.78282 ] ], [ [ -77.07486, 38.78591 ], [ -77.07486, 38.78596 ], [ -77.07489, 38.78594 ], [ -77.07486, 38.78591 ] ], [ [ -77.0754, 38.78264 ], [ -77.07464, 38.78183 ], [ -77.07392, 38.78144 ], [ -77.07414, 38.78302 ], [ -77.0754, 38.78264 ] ], [ [ -77.07737, 38.79111 ], [ -77.07782, 38.79118 ], [ -77.0776, 38.79006 ], [ -77.07714, 38.78986 ], [ -77.07737, 38.79111 ] ], [ [ -77.07703, 38.78344 ], [ -77.0771, 38.78346 ], [ -77.07693, 38.78343 ], [ -77.07703, 38.78344 ] ], [ [ -77.07605, 38.7853 ], [ -77.07606, 38.78518 ], [ -77.07584, 38.78515 ], [ -77.07605, 38.7853 ] ], [ [ -77.07429, 38.77711 ], [ -77.07696, 38.77762 ], [ -77.07707, 38.77716 ], [ -77.07447, 38.77691 ], [ -77.07429, 38.77711 ] ], [ [ -77.07303, 38.77627 ], [ -77.07245, 38.77565 ], [ -77.07272, 38.7753 ], [ -77.07445, 38.77513 ], [ -77.07492, 38.77443 ], [ -77.07576, 38.77421 ], [ -77.0748, 38.7718 ], [ -77.07432, 38.77241 ], [ -77.07003, 38.77362 ], [ -77.07049, 38.77715 ], [ -77.0725, 38.7767 ], [ -77.07303, 38.77627 ] ], [ [ -77.06992, 38.77251 ], [ -77.07236, 38.77183 ], [ -77.07225, 38.77156 ], [ -77.06988, 38.77222 ], [ -77.06992, 38.77251 ] ], [ [ -77.07426, 38.7656 ], [ -77.07429, 38.7656 ], [ -77.07427, 38.76558 ], [ -77.07426, 38.7656 ] ], [ [ -77.07447, 38.76474 ], [ -77.07541, 38.76469 ], [ -77.07344, 38.76344 ], [ -77.07345, 38.76435 ], [ -77.07401, 38.76426 ], [ -77.07447, 38.76474 ] ], [ [ -77.07367, 38.76238 ], [ -77.07462, 38.76266 ], [ -77.07682, 38.76423 ], [ -77.07692, 38.76396 ], [ -77.07408, 38.76205 ], [ -77.07367, 38.76238 ] ], [ [ -77.07706, 38.76703 ], [ -77.07675, 38.76683 ], [ -77.07644, 38.76765 ], [ -77.07673, 38.76713 ], [ -77.07706, 38.76703 ] ], [ [ -77.07714, 38.76265 ], [ -77.0771, 38.76265 ], [ -77.07713, 38.76267 ], [ -77.07714, 38.76265 ] ], [ [ -77.07734, 38.77609 ], [ -77.07736, 38.77602 ], [ -77.07688, 38.77605 ], [ -77.07734, 38.77609 ] ], [ [ -77.07729, 38.77399 ], [ -77.0767, 38.77223 ], [ -77.07739, 38.77162 ], [ -77.07598, 38.77114 ], [ -77.07729, 38.77399 ] ], [ [ -77.07465, 38.77584 ], [ -77.07462, 38.77581 ], [ -77.07461, 38.77583 ], [ -77.07465, 38.77584 ] ], [ [ -77.07444, 38.77094 ], [ -77.07362, 38.77145 ], [ -77.07476, 38.7717 ], [ -77.07444, 38.77094 ] ], [ [ -77.07003, 38.76984 ], [ -77.07019, 38.77098 ], [ -77.07107, 38.77074 ], [ -77.07095, 38.76977 ], [ -77.07003, 38.76984 ] ], [ [ -77.06573, 38.77572 ], [ -77.06652, 38.77443 ], [ -77.06624, 38.77432 ], [ -77.0655, 38.77528 ], [ -77.06573, 38.77572 ] ], [ [ -77.06569, 38.76398 ], [ -77.06593, 38.76368 ], [ -77.06494, 38.76301 ], [ -77.06451, 38.76355 ], [ -77.06569, 38.76398 ] ], [ [ -77.067, 38.76449 ], [ -77.06643, 38.76493 ], [ -77.06794, 38.76518 ], [ -77.06786, 38.76492 ], [ -77.067, 38.76449 ] ], [ [ -77.06697, 38.77632 ], [ -77.06737, 38.77621 ], [ -77.06736, 38.77614 ], [ -77.06723, 38.77606 ], [ -77.06697, 38.77632 ] ], [ [ -77.06457, 38.77707 ], [ -77.06484, 38.77675 ], [ -77.06454, 38.77666 ], [ -77.06457, 38.77707 ] ] ] } },
{ "type": "Feature", "properties": { "variant": "T2s", "miles": 1.0 }, "geometry": { "type": "MultiPolygon", "coordinates": [ [ [ [ -77.0805, 38.77106 ], [ -77.08099, 38.77016 ], [ -77.08222, 38.77041 ], [ -77.08188, 38.77347 ], [ -77.08143, 38.7745 ], [ -77.08092, 38.77458 ], [ -77.0803, 38.77433 ], [ -77.08025, 38.77363 ], [ -77.07976, 38.77354 ], [ -77.07938, 38.77395 ], [ -77.07966, 38.77459 ], [ -77.07847, 38.77498 ], [ -77.07884, 38.77565 ], [ -77.08029, 38.77577 ], [ -77.08084, 38.77635 ], [ -77.08036, 38.77753 ], [ -77.07847, 38.77719 ], [ -77.0783, 38.77792 ], [ -77.07889, 38.77862 ], [ -77.07836, 38.77998 ], [ -77.0775, 38.78034 ], [ -77.07704, 38.77966 ], [ -77.07736, 38.77884 ], [ -77.07445, 38.77819 ], [ -77.07363, 38.77915 ], [ -77.07266, 38.77908 ], [ -77.07283, 38.77826 ], [ -77.07233, 38.77698 ], [ -77.07328, 38.7763 ], [ -77.07258, 38.77606 ], [ -77.07272, 38.7753 ], [ -77.07445, 38.77513 ], [ -77.07492, 38.77443 ], [ -77.07729, 38.77399 ], [ -77.0767, 38.77232 ], [ -77.07722, 38.77167 ], [ -77.08048, 38.77253 ], [ -77.0805, 38.77106 ] ], [ [ -77.07736, 38.77602 ], [ -77.07688, 38.77605 ], [ -77.07734, 38.77609 ], [ -77.07736, 38.77602 ] ], [ [ -77.07461, 38.77583 ], [ -77.07465, 38.77584 ], [ -77.07462, 38.77581 ], [ -77.07461, 38.77583 ] ], [ [ -77.07707, 38.77716 ], [ -77.07447, 38.77691 ], [ -77.07419, 38.77712 ], [ -77.07696, 38.77762 ], [ -77.07707, 38.77716 ] ] ], [ [ [ -77.07966, 38.7785 ], [ -77.08015, 38.77916 ], [ -77.07943, 38.78115 ], [ -77.07959, 38.7823 ], [ -77.07908, 38.78299 ], [ -77.07807, 38.78279 ], [ -77.07677, 38.78307 ], [ -77.07584, 38.78231 ], [ -77.07591, 38.78155 ], [ -77.07698, 38.78168 ], [ -77.07776, 38.78113 ], [ -77.07812, 38.78075 ], [ -77.07882, 38.77888 ], [ -77.07966, 38.7785 ] ] ] ] } },
{ "type": "Feature", "properties": { "variant": "T2s", "miles": 1.5 }, "geometry": { "type": "Polygon", "coordinates": [ [ [ -77.08485, 38.76464 ], [ -77.08634, 38.76449 ], [ -77.08666, 38.76481 ], [ -77.08619, 38.76548 ], [ -77.08482, 38.76574 ], [ -77.08474, 38.76598 ], [ -77.08564, 38.76623 ], [ -77.08551, 38.76699 ], [ -77.08423, 38.76702 ], [ -77.08654, 38.76743 ], [ -77.08653, 38.76981 ], [ -77.08718, 38.77113 ], [ -77.08684, 38.77341 ], [ -77.08871, 38.77379 ], [ -77.08982, 38.77466 ], [ -77.08812, 38.77581 ], [ -77.0868, 38.77468 ], [ -77.0869, 38.77562 ], [ -77.08622, 38.77611 ], [ -77.08708, 38.77621 ], [ -77.08768, 38.77704 ], [ -77.0868, 38.77782 ], [ -77.08581, 38.77774 ], [ -77.08401, 38.77892 ], [ -77.08437, 38.78016 ], [ -77.08368, 38.78088 ], [ -77.08526, 38.78236 ], [ -77.08547, 38.78373 ], [ -77.08597, 38.78415 ], [ -77.08554, 38.78544 ], [ -77.08411, 38.78737 ], [ -77.08358, 38.78736 ], [ -77.08321, 38.78687 ], [ -77.08161, 38.78669 ], [ -77.08144, 38.78745 ], [ -77.08102, 38.78775 ], [ -77.08015, 38.78757 ], [ -77.07955, 38.78869 ], [ -77.07848, 38.78878 ], [ -77.07756, 38.78986 ], [ -77.07587, 38.78929 ], [ -77.07493, 38.78947 ], [ -77.07469, 38.78877 ], [ -77.07365, 38.78804 ], [ -77.07313, 38.78494 ], [ -77.06866, 38.78685 ], [ -77.06797, 38.78631 ], [ -77.06976, 38.78493 ], [ -77.07556, 38.78258 ], [ -77.07326, 38.78068 ], [ -77.07405, 38.77983 ], [ -77.07577, 38.78021 ], [ -77.07739, 38.78133 ], [ -77.07834, 38.78023 ], [ -77.07873, 38.77915 ], [ -77.07836, 38.77998 ], [ -77.0775, 38.78034 ], [ -77.07704, 38.77966 ], [ -77.07736, 38.77884 ], [ -77.07445, 38.77819 ], [ -77.07363, 38.77915 ], [ -77.07266, 38.77908 ], [ -77.07283, 38.77826 ], [ -77.07233, 38.77698 ], [ -77.07328, 38.7763 ], [ -77.07245, 38.77565 ], [ -77.07272, 38.7753 ], [ -77.07445, 38.77513 ], [ -77.07492, 38.77443 ], [ -77.07576, 38.77421 ], [ -77.07444, 38.77094 ], [ -77.0736, 38.77118 ], [ -77.07314, 38.77214 ], [ -77.07225, 38.77156 ], [ -77.06988, 38.77222 ], [ -77.06982, 38.7736 ], [ -77.06883, 38.77462 ], [ -77.06808, 38.77413 ], [ -77.06781, 38.77278 ], [ -77.06619, 38.77375 ], [ -77.0653, 38.77345 ], [ -77.0653, 38.77304 ], [ -77.06601, 38.77224 ], [ -77.0671, 38.77183 ], [ -77.06689, 38.76951 ], [ -77.06781, 38.76948 ], [ -77.0687, 38.77026 ], [ -77.06874, 38.76901 ], [ -77.06971, 38.76893 ], [ -77.07019, 38.77098 ], [ -77.07205, 38.77046 ], [ -77.07206, 38.76878 ], [ -77.07301, 38.76871 ], [ -77.0733, 38.76803 ], [ -77.07414, 38.76765 ], [ -77.07547, 38.76799 ], [ -77.07649, 38.76764 ], [ -77.07706, 38.76703 ], [ -77.0767, 38.76627 ], [ -77.07712, 38.76603 ], [ -77.07941, 38.7666 ], [ -77.0794, 38.76598 ], [ -77.0801, 38.76518 ], [ -77.08163, 38.76543 ], [ -77.08214, 38.76489 ], [ -77.0834, 38.76513 ], [ -77.08373, 38.7641 ], [ -77.08423, 38.76398 ], [ -77.08485, 38.76464 ] ], [ [ -77.07973, 38.78571 ], [ -77.0801, 38.78501 ], [ -77.07868, 38.78451 ], [ -77.0785, 38.7854 ], [ -77.07973, 38.78571 ] ], [ [ -77.0791, 38.78348 ], [ -77.08107, 38.78418 ], [ -77.07916, 38.78331 ], [ -77.0791, 38.78348 ] ], [ [ -77.08075, 38.7821 ], [ -77.08169, 38.7819 ], [ -77.08249, 38.7825 ], [ -77.08191, 38.78432 ], [ -77.08283, 38.78505 ], [ -77.08259, 38.78578 ], [ -77.08372, 38.78582 ], [ -77.08447, 38.7854 ], [ -77.0841, 38.7839 ], [ -77.08324, 38.78386 ], [ -77.08296, 38.78351 ], [ -77.08344, 38.78292 ], [ -77.08259, 38.78262 ], [ -77.0828, 38.78172 ], [ -77.08085, 38.78098 ], [ -77.07969, 38.7817 ], [ -77.07959, 38.78226 ], [ -77.08038, 38.78261 ], [ -77.08075, 38.7821 ] ], [ [ -77.08037, 38.77989 ], [ -77.08146, 38.77919 ], [ -77.08147, 38.77812 ], [ -77.0807, 38.77854 ], [ -77.08037, 38.77989 ] ], [ [ -77.07995, 38.7749 ], [ -77.08025, 38.77363 ], [ -77.07976, 38.77354 ], [ -77.07927, 38.77488 ], [ -77.07995, 38.7749 ] ], [ [ -77.08046, 38.77136 ], [ -77.08052, 38.77097 ], [ -77.0779, 38.77007 ], [ -77.07503, 38.76966 ], [ -77.07497, 38.769 ], [ -77.07441, 38.76879 ], [ -77.07452, 38.7698 ], [ -77.08046, 38.77136 ] ], [ [ -77.08405, 38.77676 ], [ -77.08443, 38.7751 ], [ -77.08159, 38.77469 ], [ -77.08105, 38.77703 ], [ -77.08405, 38.77676 ] ], [ [ -77.08204, 38.77365 ], [ -77.08544, 38.77385 ], [ -77.08543, 38.7735 ], [ -77.08435, 38.77324 ], [ -77.08418, 38.77279 ], [ -77.0847, 38.77221 ], [ -77.0856, 38.77224 ], [ -77.08566, 38.77187 ], [ -77.08468, 38.77158 ], [ -77.08456, 38.77117 ], [ -77.08553, 38.77067 ], [ -77.08266, 38.77037 ], [ -77.08204, 38.77365 ] ], [ [ -77.08448, 38.76947 ], [ -77.08457, 38.76948 ], [ -77.0845, 38.76945 ], [ -77.08448, 38.76947 ] ], [ [ -77.08518, 38.76821 ], [ -77.08516, 38.7685 ], [ -77.08532, 38.76823 ], [ -77.08518, 38.76821 ] ], [ [ -77.08287, 38.7693 ], [ -77.08325, 38.76898 ], [ -77.08308, 38.76892 ], [ -77.08287, 38.7693 ] ], [ [ -77.08351, 38.77784 ], [ -77.08285, 38.77783 ], [ -77.08285, 38.77828 ], [ -77.08351, 38.77784 ] ], [ [ -77.08396, 38.78282 ], [ -77.08388, 38.7826 ], [ -77.08353, 38.78288 ], [ -77.08396, 38.78282 ] ], [ [ -77.07429, 38.77711 ], [ -77.07696, 38.77762 ], [ -77.07707, 38.77716 ], [ -77.07447, 38.77691 ], [ -77.07429, 38.77711 ] ], [ [ -77.07462, 38.77581 ], [ -77.07461, 38.77583 ], [ -77.07465, 38.77584 ], [ -77.07462, 38.77581 ] ], [ [ -77.07734, 38.77609 ], [ -77.07736, 38.77602 ], [ -77.07688, 38.77605 ], [ -77.07734, 38.77609 ] ], [ [ -77.07672, 38.77246 ], [ -77.07739, 38.77162 ], [ -77.07598, 38.77114 ], [ -77.07715, 38.77403 ], [ -77.07672, 38.77246 ] ], [ [ -77.07884, 38.77724 ], [ -77.07847, 38.77719 ], [ -77.07844, 38.77733 ], [ -77.07884, 38.77724 ] ], [ [ -77.07486, 38.78596 ], [ -77.07489, 38.78594 ], [ -77.07486, 38.78591 ], [ -77.07486, 38.78596 ] ], [ [ -77.07703, 38.78344 ], [ -77.07702, 38.78339 ], [ -77.07693, 38.78343 ], [ -77.07703, 38.78344 ] ], [ [ -77.07606, 38.78518 ], [ -77.07584, 38.78515 ], [ -77.07605, 38.7853 ], [ -77.07606, 38.78518 ] ] ] } },
{ "type": "Feature", "properties": { "variant": "T2s", "miles": 2.0 }, "geometry": { "type": "Polygon", "coordinates": [ [ [ -77.08907, 38.75961 ], [ -77.08831, 38.76008 ], [ -77.08591, 38.75984 ], [ -77.08565, 38.76043 ], [ -77.08728, 38.76101 ], [ -77.08757, 38.76174 ], [ -77.08664, 38.76197 ], [ -77.08532, 38.7615 ], [ -77.08512, 38.76233 ], [ -77.09, 38.76283 ], [ -77.09032, 38.76216 ], [ -77.09084, 38.76206 ], [ -77.09129, 38.76227 ], [ -77.09136, 38.76298 ], [ -77.09287, 38.76332 ], [ -77.09271, 38.7641 ], [ -77.09132, 38.76446 ], [ -77.0921, 38.7647 ], [ -77.09224, 38.7651 ], [ -77.09136, 38.76555 ], [ -77.09208, 38.76872 ], [ -77.09185, 38.76934 ], [ -77.09304, 38.76947 ], [ -77.09345, 38.76726 ], [ -77.09434, 38.76695 ], [ -77.09488, 38.76774 ], [ -77.09441, 38.76957 ], [ -77.09499, 38.76924 ], [ -77.09548, 38.7694 ], [ -77.09569, 38.77089 ], [ -77.09628, 38.77087 ], [ -77.09674, 38.77155 ], [ -77.09603, 38.77335 ], [ -77.0941, 38.77393 ], [ -77.09444, 38.77456 ], [ -77.09398, 38.77528 ], [ -77.09304, 38.77505 ], [ -77.0926, 38.77425 ], [ -77.09188, 38.7744 ], [ -77.09377, 38.776 ], [ -77.09475, 38.7762 ], [ -77.095, 38.77694 ], [ -77.09355, 38.7771 ], [ -77.09244, 38.77649 ], [ -77.09196, 38.77723 ], [ -77.09117, 38.77697 ], [ -77.09059, 38.77745 ], [ -77.091, 38.77858 ], [ -77.09039, 38.77993 ], [ -77.08941, 38.77988 ], [ -77.08939, 38.77903 ], [ -77.08859, 38.77903 ], [ -77.08872, 38.77976 ], [ -77.08828, 38.78033 ], [ -77.08746, 38.78053 ], [ -77.08664, 38.78024 ], [ -77.08633, 38.77939 ], [ -77.08758, 38.77814 ], [ -77.08738, 38.77743 ], [ -77.08701, 38.77802 ], [ -77.08651, 38.77815 ], [ -77.0858, 38.77775 ], [ -77.08401, 38.77892 ], [ -77.08437, 38.78016 ], [ -77.08368, 38.78088 ], [ -77.08513, 38.78211 ], [ -77.08547, 38.78373 ], [ -77.08656, 38.78308 ], [ -77.08717, 38.78413 ], [ -77.0875, 38.78245 ], [ -77.08848, 38.78246 ], [ -77.08839, 38.7855 ], [ -77.08979, 38.78484 ], [ -77.09028, 38.78371 ], [ -77.09078, 38.78359 ], [ -77.09141, 38.78417 ], [ -77.0912, 38.78616 ], [ -77.08993, 38.78741 ], [ -77.08941, 38.78738 ], [ -77.08883, 38.78655 ], [ -77.08821, 38.78676 ], [ -77.08781, 38.78826 ], [ -77.0873, 38.78837 ], [ -77.08672, 38.78765 ], [ -77.08597, 38.78755 ], [ -77.08517, 38.78891 ], [ -77.08347, 38.78839 ], [ -77.0826, 38.78858 ], [ -77.0823, 38.78789 ], [ -77.08118, 38.78938 ], [ -77.08161, 38.79272 ], [ -77.08149, 38.79387 ], [ -77.08091, 38.79424 ], [ -77.08118, 38.79491 ], [ -77.08001, 38.79587 ], [ -77.08033, 38.79685 ], [ -77.07943, 38.79715 ], [ -77.0768, 38.79427 ], [ -77.07654, 38.79326 ], [ -77.07551, 38.79289 ], [ -77.07552, 38.79163 ], [ -77.07462, 38.79166 ], [ -77.07417, 38.79093 ], [ -77.07322, 38.79059 ], [ -77.07311, 38.78831 ], [ -77.07347, 38.78783 ], [ -77.07159, 38.78689 ], [ -77.0719, 38.78545 ], [ -77.06914, 38.7872 ], [ -77.07008, 38.78776 ], [ -77.07022, 38.78869 ], [ -77.07109, 38.78918 ], [ -77.07007, 38.79005 ], [ -77.06974, 38.79106 ], [ -77.06922, 38.79111 ], [ -77.06749, 38.78989 ], [ -77.06711, 38.78852 ], [ -77.06506, 38.78978 ], [ -77.06634, 38.79068 ], [ -77.0661, 38.7912 ], [ -77.06519, 38.7913 ], [ -77.06406, 38.7907 ], [ -77.06327, 38.79127 ], [ -77.0623, 38.79117 ], [ -77.06217, 38.79077 ], [ -77.063, 38.79 ], [ -77.06284, 38.78947 ], [ -77.06393, 38.78882 ], [ -77.06455, 38.78759 ], [ -77.06549, 38.78736 ], [ -77.06581, 38.78778 ], [ -77.06935, 38.78515 ], [ -77.07248, 38.7838 ], [ -77.07281, 38.78272 ], [ -77.07234, 38.78098 ], [ -77.07066, 38.78025 ], [ -77.07002, 38.78056 ], [ -77.0695, 38.78022 ], [ -77.06765, 38.78008 ], [ -77.06757, 38.78125 ], [ -77.06672, 38.78197 ], [ -77.06575, 38.78201 ], [ -77.06585, 38.7805 ], [ -77.06694, 38.77886 ], [ -77.06609, 38.77877 ], [ -77.06586, 38.77839 ], [ -77.06684, 38.77741 ], [ -77.06606, 38.77727 ], [ -77.06481, 38.77854 ], [ -77.06474, 38.7793 ], [ -77.06393, 38.77966 ], [ -77.06251, 38.77944 ], [ -77.06216, 38.77758 ], [ -77.06063, 38.77735 ], [ -77.06061, 38.77658 ], [ -77.06206, 38.7765 ], [ -77.06195, 38.77556 ], [ -77.06069, 38.7754 ], [ -77.06048, 38.77502 ], [ -77.06068, 38.7739 ], [ -77.06259, 38.77351 ], [ -77.0631, 38.77364 ], [ -77.06337, 38.77446 ], [ -77.06385, 38.77448 ], [ -77.0648, 38.77425 ], [ -77.06529, 38.77305 ], [ -77.0644, 38.7724 ], [ -77.06449, 38.77123 ], [ -77.06496, 38.77077 ], [ -77.0647, 38.7693 ], [ -77.06303, 38.76817 ], [ -77.06291, 38.76725 ], [ -77.06147, 38.76648 ], [ -77.06143, 38.76607 ], [ -77.06178, 38.76576 ], [ -77.06291, 38.76577 ], [ -77.06298, 38.76465 ], [ -77.06251, 38.76383 ], [ -77.06373, 38.76295 ], [ -77.06419, 38.76316 ], [ -77.06408, 38.7639 ], [ -77.06674, 38.76507 ], [ -77.06794, 38.76518 ], [ -77.06624, 38.76364 ], [ -77.06672, 38.76298 ], [ -77.06725, 38.76303 ], [ -77.06903, 38.7643 ], [ -77.06945, 38.76585 ], [ -77.0702, 38.76632 ], [ -77.07017, 38.7669 ], [ -77.0708, 38.76749 ], [ -77.07134, 38.7671 ], [ -77.07212, 38.76781 ], [ -77.07371, 38.76783 ], [ -77.07432, 38.76668 ], [ -77.07217, 38.76671 ], [ -77.07148, 38.76612 ], [ -77.07211, 38.76245 ], [ -77.07313, 38.76079 ], [ -77.0741, 38.76069 ], [ -77.07494, 38.7612 ], [ -77.07565, 38.76022 ], [ -77.07618, 38.7602 ], [ -77.0766, 38.76089 ], [ -77.07602, 38.7619 ], [ -77.07713, 38.76267 ], [ -77.07736, 38.76226 ], [ -77.07833, 38.76229 ], [ -77.07843, 38.7636 ], [ -77.07917, 38.76412 ], [ -77.0834, 38.76513 ], [ -77.08335, 38.76261 ], [ -77.08262, 38.76218 ], [ -77.08241, 38.76034 ], [ -77.08156, 38.76054 ], [ -77.0794, 38.7598 ], [ -77.07966, 38.75852 ], [ -77.08024, 38.75792 ], [ -77.08058, 38.7576 ], [ -77.08166, 38.75768 ], [ -77.08235, 38.7569 ], [ -77.08381, 38.75684 ], [ -77.0843, 38.75699 ], [ -77.08489, 38.75856 ], [ -77.08506, 38.75752 ], [ -77.0858, 38.75703 ], [ -77.08643, 38.75761 ], [ -77.08625, 38.75878 ], [ -77.08847, 38.75901 ], [ -77.08907, 38.75961 ] ], [ [ -77.07973, 38.78571 ], [ -77.0801, 38.78501 ], [ -77.07868, 38.78451 ], [ -77.0785, 38.7854 ], [ -77.07973, 38.78571 ] ], [ [ -77.0791, 38.78348 ], [ -77.08107, 38.78418 ], [ -77.07916, 38.78331 ], [ -77.0791, 38.78348 ] ], [ [ -77.08038, 38.78261 ], [ -77.08118, 38.78185 ], [ -77.08233, 38.78224 ], [ -77.08208, 38.7835 ], [ -77.08299, 38.78339 ], [ -77.08344, 38.78292 ], [ -77.08259, 38.78262 ], [ -77.0828, 38.78172 ], [ -77.08085, 38.78098 ], [ -77.07969, 38.7817 ], [ -77.07959, 38.78226 ], [ -77.08038, 38.78261 ] ], [ [ -77.07739, 38.78133 ], [ -77.07812, 38.78075 ], [ -77.07873, 38.77915 ], [ -77.07836, 38.77998 ], [ -77.0775, 38.78034 ], [ -77.07704, 38.77966 ], [ -77.07736, 38.77884 ], [ -77.07442, 38.77819 ], [ -77.07313, 38.77927 ], [ -77.07251, 38.77868 ], [ -77.07283, 38.77826 ], [ -77.07257, 38.77772 ], [ -77.07066, 38.77825 ], [ -77.07103, 38.77915 ], [ -77.07344, 38.78032 ], [ -77.07457, 38.77974 ], [ -77.07669, 38.78066 ], [ -77.07739, 38.78133 ] ], [ [ -77.07865, 38.77725 ], [ -77.07884, 38.77724 ], [ -77.07844, 38.77733 ], [ -77.07865, 38.77725 ] ], [ [ -77.07736, 38.77602 ], [ -77.07688, 38.77605 ], [ -77.07734, 38.77609 ], [ -77.07736, 38.77602 ] ], [ [ -77.07715, 38.77403 ], [ -77.07678, 38.77199 ], [ -77.07739, 38.77162 ], [ -77.07598, 38.77114 ], [ -77.07715, 38.77403 ] ], [ [ -77.07452, 38.7698 ], [ -77.07584, 38.76992 ], [ -77.08045, 38.77148 ], [ -77.08052, 38.77097 ], [ -77.07803, 38.77011 ], [ -77.07503, 38.76966 ], [ -77.07497, 38.769 ], [ -77.07441, 38.76879 ], [ -77.07452, 38.7698 ] ], [ [ -77.07706, 38.76703 ], [ -77.07675, 38.76683 ], [ -77.07644, 38.76765 ], [ -77.07706, 38.76703 ] ], [ [ -77.07692, 38.76396 ], [ -77.07408, 38.76205 ], [ -77.07367, 38.76238 ], [ -77.07682, 38.76423 ], [ -77.07692, 38.76396 ] ], [ [ -77.08405, 38.77676 ], [ -77.08443, 38.7751 ], [ -77.08159, 38.77469 ], [ -77.08105, 38.77703 ], [ -77.08405, 38.77676 ] ], [ [ -77.08204, 38.77365 ], [ -77.08544, 38.77385 ], [ -77.08543, 38.7735 ], [ -77.08435, 38.77324 ], [ -77.08418, 38.77279 ], [ -77.0847, 38.77221 ], [ -77.0856, 38.77224 ], [ -77.08566, 38.77187 ], [ -77.08468, 38.77158 ], [ -77.08456, 38.77117 ], [ -77.08553, 38.77067 ], [ -77.08266, 38.77037 ], [ -77.08204, 38.77365 ] ], [ [ -77.0845, 38.76945 ], [ -77.08448, 38.76947 ], [ -77.08457, 38.76948 ], [ -77.0845, 38.76945 ] ], [ [ -77.08424, 38.76701 ], [ -77.08608, 38.76722 ], [ -77.09045, 38.76768 ], [ -77.08424, 38.76701 ] ], [ [ -77.08644, 38.77582 ], [ -77.08625, 38.77604 ], [ -77.08686, 38.77564 ], [ -77.08644, 38.77582 ] ], [ [ -77.08744, 38.77521 ], [ -77.08697, 38.77479 ], [ -77.0868, 38.77468 ], [ -77.08691, 38.7756 ], [ -77.08744, 38.77521 ] ], [ [ -77.09069, 38.76921 ], [ -77.09051, 38.76878 ], [ -77.08647, 38.76835 ], [ -77.08651, 38.76877 ], [ -77.09069, 38.76921 ] ], [ [ -77.08671, 38.76427 ], [ -77.08784, 38.76466 ], [ -77.08865, 38.76418 ], [ -77.08712, 38.76419 ], [ -77.08639, 38.76354 ], [ -77.08671, 38.76427 ] ], [ [ -77.09055, 38.77469 ], [ -77.08997, 38.77495 ], [ -77.09066, 38.77493 ], [ -77.09055, 38.77469 ] ], [ [ -77.08831, 38.77369 ], [ -77.08851, 38.77374 ], [ -77.08845, 38.7736 ], [ -77.08831, 38.77369 ] ], [ [ -77.09071, 38.7644 ], [ -77.08881, 38.7642 ], [ -77.08917, 38.76458 ], [ -77.09071, 38.7644 ] ], [ [ -77.08957, 38.76561 ], [ -77.09016, 38.76619 ], [ -77.08992, 38.76556 ], [ -77.08957, 38.76561 ] ], [ [ -77.08842, 38.76634 ], [ -77.08696, 38.76621 ], [ -77.08843, 38.76637 ], [ -77.08842, 38.76634 ] ], [ [ -77.09303, 38.77297 ], [ -77.09303, 38.77056 ], [ -77.09182, 38.77043 ], [ -77.09303, 38.77297 ] ], [ [ -77.09041, 38.77052 ], [ -77.08972, 38.7702 ], [ -77.0914, 38.77338 ], [ -77.09172, 38.77332 ], [ -77.09041, 38.77052 ] ], [ [ -77.08821, 38.77095 ], [ -77.08885, 38.77138 ], [ -77.09006, 38.77368 ], [ -77.08879, 38.77101 ], [ -77.08821, 38.77095 ] ], [ [ -77.0918, 38.77599 ], [ -77.09174, 38.77595 ], [ -77.09175, 38.77595 ], [ -77.0918, 38.77599 ] ], [ [ -77.08943, 38.77535 ], [ -77.08958, 38.77517 ], [ -77.08935, 38.77549 ], [ -77.08943, 38.77535 ] ], [ [ -77.09034, 38.77628 ], [ -77.0904, 38.77628 ], [ -77.09038, 38.77624 ], [ -77.09034, 38.77628 ] ], [ [ -77.08506, 38.76342 ], [ -77.08507, 38.76461 ], [ -77.08538, 38.76345 ], [ -77.08506, 38.76342 ] ], [ [ -77.08518, 38.76821 ], [ -77.08517, 38.76842 ], [ -77.08532, 38.76823 ], [ -77.08518, 38.76821 ] ], [ [ -77.08701, 38.78547 ], [ -77.08584, 38.78451 ], [ -77.0856, 38.78464 ], [ -77.08567, 38.78498 ], [ -77.08701, 38.78547 ] ], [ [ -77.0794, 38.76598 ], [ -77.07997, 38.76532 ], [ -77.07951, 38.76528 ], [ -77.07847, 38.76633 ], [ -77.07941, 38.7666 ], [ -77.0794, 38.76598 ] ], [ [ -77.08287, 38.7693 ], [ -77.08325, 38.76898 ], [ -77.08308, 38.76892 ], [ -77.08287, 38.7693 ] ], [ [ -77.0827, 38.78573 ], [ -77.08259, 38.78578 ], [ -77.08276, 38.78578 ], [ -77.0827, 38.78573 ] ], [ [ -77.08147, 38.77812 ], [ -77.0807, 38.77854 ], [ -77.08022, 38.77999 ], [ -77.08146, 38.77919 ], [ -77.08147, 38.77812 ] ], [ [ -77.08351, 38.77784 ], [ -77.08285, 38.77783 ], [ -77.08285, 38.77828 ], [ -77.08351, 38.77784 ] ], [ [ -77.08356, 38.78581 ], [ -77.08354, 38.78579 ], [ -77.08351, 38.78581 ], [ -77.08356, 38.78581 ] ], [ [ -77.08396, 38.78282 ], [ -77.08388, 38.7826 ], [ -77.08353, 38.78288 ], [ -77.08396, 38.78282 ] ], [ [ -77.08329, 38.78407 ], [ -77.08327, 38.7841 ], [ -77.08332, 38.78412 ], [ -77.08329, 38.78407 ] ], [ [ -77.08299, 38.78694 ], [ -77.08308, 38.78686 ], [ -77.08289, 38.78686 ], [ -77.08299, 38.78694 ] ], [ [ -77.08001, 38.77355 ], [ -77.07938, 38.77395 ], [ -77.07966, 38.77459 ], [ -77.07927, 38.77488 ], [ -77.07995, 38.7749 ], [ -77.08001, 38.77355 ] ], [ [ -77.07788, 38.76524 ], [ -77.07822, 38.7649 ], [ -77.07805, 38.76478 ], [ -77.07788, 38.76524 ] ], [ [ -77.07486, 38.78596 ], [ -77.07489, 38.78594 ], [ -77.07486, 38.78591 ], [ -77.07486, 38.78596 ] ], [ [ -77.07414, 38.78302 ], [ -77.07556, 38.78258 ], [ -77.07392, 38.78144 ], [ -77.07414, 38.78302 ] ], [ [ -77.0776, 38.79006 ], [ -77.07714, 38.78986 ], [ -77.07709, 38.79077 ], [ -77.07719, 38.7911 ], [ -77.07782, 38.79118 ], [ -77.0776, 38.79006 ] ], [ [ -77.07606, 38.78518 ], [ -77.07584, 38.78515 ], [ -77.07605, 38.7853 ], [ -77.07606, 38.78518 ] ], [ [ -77.07703, 38.78344 ], [ -77.0771, 38.78346 ], [ -77.07693, 38.78343 ], [ -77.07703, 38.78344 ] ], [ [ -77.07049, 38.77715 ], [ -77.07328, 38.7763 ], [ -77.07258, 38.77606 ], [ -77.07272, 38.7753 ], [ -77.07445, 38.77513 ], [ -77.07492, 38.77443 ], [ -77.07576, 38.77421 ], [ -77.0748, 38.7718 ], [ -77.07432, 38.77241 ], [ -77.07003, 38.77362 ], [ -77.07049, 38.77715 ] ], [ [ -77.06992, 38.77251 ], [ -77.07236, 38.77183 ], [ -77.07225, 38.77156 ], [ -77.06988, 38.77222 ], [ -77.06992, 38.77251 ] ], [ [ -77.07003, 38.76984 ], [ -77.07019, 38.77098 ], [ -77.07107, 38.77074 ], [ -77.07095, 38.76977 ], [ -77.07003, 38.76984 ] ], [ [ -77.07538, 38.76471 ], [ -77.07374, 38.76349 ], [ -77.07344, 38.76344 ], [ -77.07345, 38.76435 ], [ -77.07538, 38.76471 ] ], [ [ -77.07707, 38.77716 ], [ -77.07447, 38.77691 ], [ -77.07419, 38.77712 ], [ -77.07696, 38.77762 ], [ -77.07707, 38.77716 ] ], [ [ -77.07461, 38.77583 ], [ -77.07465, 38.77584 ], [ -77.07462, 38.77581 ], [ -77.07461, 38.77583 ] ], [ [ -77.07444, 38.77094 ], [ -77.07362, 38.77145 ], [ -77.07476, 38.7717 ], [ -77.07444, 38.77094 ] ], [ [ -77.07426, 38.7656 ], [ -77.07428, 38.76559 ], [ -77.07427, 38.76558 ], [ -77.07426, 38.7656 ] ], [ [ -77.06573, 38.77572 ], [ -77.06652, 38.77443 ], [ -77.06624, 38.77432 ], [ -77.0655, 38.77528 ], [ -77.06573, 38.77572 ] ], [ [ -77.06699, 38.77631 ], [ -77.06737, 38.77621 ], [ -77.06736, 38.77614 ], [ -77.06723, 38.77606 ], [ -77.06699, 38.77631 ] ], [ [ -77.06454, 38.77666 ], [ -77.06457, 38.77707 ], [ -77.06484, 38.77675 ], [ -77.06454, 38.77666 ] ] ] } }
]
}
