{
"type": "FeatureCollection",
"name": "202",
"crs": { "type": "name", "properties": { "name": "urn:ogc:def:crs:OGC:1.3:CRS84" } },
"xy_coordinate_resolution": 1e-05,
"features": [
{ "type": "Feature", "properties": { "variant": "T0", "miles": 0.5 }, "geometry": { "type": "Polygon", "coordinates": [ [ [ -77.06413, 38.77108 ], [ -77.06292, 38.77192 ], [ -77.06326, 38.77453 ], [ -77.06483, 38.77425 ], [ -77.06537, 38.7749 ], [ -77.06489, 38.77555 ], [ -77.06334, 38.77562 ], [ -77.06348, 38.77693 ], [ -77.06301, 38.77748 ], [ -77.0617, 38.77742 ], [ -77.06196, 38.77567 ], [ -77.05576, 38.77563 ], [ -77.05455, 38.77479 ], [ -77.05453, 38.7716 ], [ -77.05522, 38.77106 ], [ -77.05669, 38.77137 ], [ -77.05915, 38.77094 ], [ -77.0618, 38.77376 ], [ -77.06151, 38.77199 ], [ -77.05941, 38.76921 ], [ -77.05911, 38.76823 ], [ -77.05754, 38.76853 ], [ -77.0571, 38.7683 ], [ -77.05699, 38.7679 ], [ -77.05762, 38.7674 ], [ -77.05925, 38.7671 ], [ -77.06002, 38.76729 ], [ -77.06235, 38.77093 ], [ -77.0639, 38.77071 ], [ -77.06413, 38.77108 ] ], [ [ -77.0583, 38.77366 ], [ -77.05791, 38.77365 ], [ -77.05781, 38.77448 ], [ -77.0583, 38.77449 ], [ -77.0583, 38.77366 ] ], [ [ -77.05868, 38.77205 ], [ -77.05864, 38.77202 ], [ -77.05867, 38.77206 ], [ -77.05868, 38.77205 ] ] ] } },
{ "type": "Feature", "properties": { "variant": "T0", "miles": 1.0 }, "geometry": { "type": "Polygon", "coordinates": [ [ [ -77.06445, 38.7653 ], [ -77.06627, 38.76827 ], [ -77.06752, 38.76817 ], [ -77.06879, 38.76898 ], [ -77.06971, 38.76893 ], [ -77.07019, 38.77098 ], [ -77.07257, 38.77032 ], [ -77.07346, 38.77064 ], [ -77.07343, 38.77105 ], [ -77.06988, 38.77222 ], [ -77.06999, 38.77321 ], [ -77.06942, 38.77376 ], [ -77.0696, 38.77665 ], [ -77.06726, 38.77737 ], [ -77.06606, 38.77727 ], [ -77.06559, 38.77782 ], [ -77.06606, 38.77856 ], [ -77.0655, 38.77927 ], [ -77.06467, 38.77967 ], [ -77.06366, 38.7796 ], [ -77.06351, 38.78012 ], [ -77.06652, 38.77981 ], [ -77.06736, 38.78021 ], [ -77.06757, 38.78125 ], [ -77.06617, 38.7822 ], [ -77.06607, 38.78316 ], [ -77.0646, 38.78362 ], [ -77.06372, 38.7844 ], [ -77.06296, 38.78406 ], [ -77.06226, 38.78454 ], [ -77.06139, 38.78457 ], [ -77.06077, 38.784 ], [ -77.06086, 38.78248 ], [ -77.05997, 38.78334 ], [ -77.05915, 38.78291 ], [ -77.05969, 38.78189 ], [ -77.06057, 38.7814 ], [ -77.05276, 38.78079 ], [ -77.05309, 38.7795 ], [ -77.05203, 38.77862 ], [ -77.05112, 38.77487 ], [ -77.05162, 38.77445 ], [ -77.05232, 38.77217 ], [ -77.05401, 38.77217 ], [ -77.05443, 38.77296 ], [ -77.05453, 38.7716 ], [ -77.05522, 38.77106 ], [ -77.05669, 38.77137 ], [ -77.05915, 38.77094 ], [ -77.0618, 38.77376 ], [ -77.06151, 38.77199 ], [ -77.05941, 38.76921 ], [ -77.05911, 38.76823 ], [ -77.05671, 38.76898 ], [ -77.05396, 38.76828 ], [ -77.05352, 38.7678 ], [ -77.05343, 38.76645 ], [ -77.05274, 38.76607 ], [ -77.05356, 38.76427 ], [ -77.05543, 38.76404 ], [ -77.05631, 38.76353 ], [ -77.05468, 38.76347 ], [ -77.05435, 38.76315 ], [ -77.05482, 38.76248 ], [ -77.05725, 38.76234 ], [ -77.05776, 38.76245 ], [ -77.0581, 38.76323 ], [ -77.05902, 38.76314 ], [ -77.05872, 38.76047 ], [ -77.05805, 38.75934 ], [ -77.05833, 38.75861 ], [ -77.05927, 38.75882 ], [ -77.05977, 38.75967 ], [ -77.06093, 38.75939 ], [ -77.06179, 38.75975 ], [ -77.06133, 38.76043 ], [ -77.06016, 38.7607 ], [ -77.06031, 38.76188 ], [ -77.06155, 38.76261 ], [ -77.06142, 38.76306 ], [ -77.06195, 38.76314 ], [ -77.06173, 38.76239 ], [ -77.06264, 38.76211 ], [ -77.06577, 38.76424 ], [ -77.0654, 38.7651 ], [ -77.06445, 38.7653 ] ], [ [ -77.06029, 38.77685 ], [ -77.06097, 38.77643 ], [ -77.06206, 38.7765 ], [ -77.06196, 38.77567 ], [ -77.05903, 38.77567 ], [ -77.05891, 38.77666 ], [ -77.05967, 38.77642 ], [ -77.06029, 38.77685 ] ], [ [ -77.05988, 38.76626 ], [ -77.05998, 38.76555 ], [ -77.05909, 38.76554 ], [ -77.05803, 38.76433 ], [ -77.05684, 38.76455 ], [ -77.05805, 38.766 ], [ -77.05988, 38.76626 ] ], [ [ -77.06457, 38.77707 ], [ -77.06484, 38.77675 ], [ -77.06454, 38.77666 ], [ -77.06457, 38.77707 ] ], [ [ -77.06337, 38.77446 ], [ -77.0648, 38.77425 ], [ -77.06615, 38.77215 ], [ -77.06576, 38.77068 ], [ -77.06465, 38.77021 ], [ -77.0647, 38.7693 ], [ -77.06285, 38.76797 ], [ -77.06338, 38.7664 ], [ -77.06227, 38.76528 ], [ -77.06135, 38.76497 ], [ -77.06164, 38.76653 ], [ -77.06079, 38.76758 ], [ -77.0608, 38.76862 ], [ -77.06246, 38.77087 ], [ -77.0634, 38.77058 ], [ -77.06413, 38.77108 ], [ -77.06314, 38.77182 ], [ -77.06337, 38.77446 ] ], [ [ -77.06652, 38.77443 ], [ -77.0655, 38.77528 ], [ -77.06561, 38.77584 ], [ -77.06652, 38.77443 ] ], [ [ -77.06699, 38.77631 ], [ -77.06737, 38.77621 ], [ -77.06736, 38.77614 ], [ -77.06723, 38.77606 ], [ -77.06699, 38.77631 ] ], [ [ -77.06277, 38.78158 ], [ -77.06348, 38.7821 ], [ -77.06407, 38.7818 ], [ -77.06277, 38.78158 ] ], [ [ -77.05755, 38.78009 ], [ -77.05714, 38.77979 ], [ -77.05711, 38.78005 ], [ -77.05755, 38.78009 ] ], [ [ -77.05839, 38.77383 ], [ -77.05791, 38.77365 ], [ -77.05781, 38.77448 ], [ -77.0583, 38.77449 ], [ -77.05839, 38.77383 ] ], [ [ -77.05867, 38.77206 ], [ -77.05864, 38.772 ], [ -77.05862, 38.77198 ], [ -77.05867, 38.77206 ] ], [ [ -77.05627, 38.77563 ], [ -77.05486, 38.77563 ], [ -77.05486, 38.77594 ], [ -77.05622, 38.77605 ], [ -77.05627, 38.77563 ] ], [ [ -77.05299, 38.77688 ], [ -77.05339, 38.77712 ], [ -77.05342, 38.77691 ], [ -77.05299, 38.77688 ] ], [ [ -77.05345, 38.77455 ], [ -77.05327, 38.7736 ], [ -77.0532, 38.77359 ], [ -77.053, 38.77452 ], [ -77.05345, 38.77455 ] ], [ [ -77.05289, 38.77579 ], [ -77.05348, 38.77563 ], [ -77.05288, 38.7756 ], [ -77.05289, 38.77579 ] ], [ [ -77.05445, 38.77976 ], [ -77.05452, 38.77985 ], [ -77.05447, 38.77959 ], [ -77.05445, 38.77976 ] ] ] } },
{ "type": "Feature", "properties": { "variant": "T0", "miles": 1.5 }, "geometry": { "type": "Polygon", "coordinates": [ [ [ -77.07005, 38.76179 ], [ -77.06889, 38.76353 ], [ -77.06788, 38.76352 ], [ -77.06906, 38.76434 ], [ -77.06945, 38.76585 ], [ -77.0702, 38.76632 ], [ -77.07017, 38.7669 ], [ -77.0708, 38.76749 ], [ -77.07134, 38.7671 ], [ -77.07212, 38.76781 ], [ -77.07392, 38.76773 ], [ -77.07432, 38.76668 ], [ -77.0729, 38.76657 ], [ -77.07268, 38.76619 ], [ -77.07286, 38.7658 ], [ -77.07429, 38.7656 ], [ -77.07405, 38.76522 ], [ -77.0747, 38.76465 ], [ -77.07665, 38.76536 ], [ -77.07706, 38.76602 ], [ -77.07644, 38.76765 ], [ -77.07673, 38.76713 ], [ -77.07771, 38.76716 ], [ -77.07791, 38.76779 ], [ -77.07916, 38.76822 ], [ -77.07952, 38.76893 ], [ -77.07861, 38.76921 ], [ -77.07698, 38.76865 ], [ -77.07565, 38.76906 ], [ -77.07441, 38.76879 ], [ -77.07452, 38.7698 ], [ -77.07578, 38.7699 ], [ -77.08074, 38.77158 ], [ -77.08132, 38.77134 ], [ -77.08179, 38.77153 ], [ -77.08207, 38.77245 ], [ -77.08109, 38.77286 ], [ -77.07598, 38.77114 ], [ -77.07714, 38.77403 ], [ -77.07799, 38.77389 ], [ -77.07868, 38.77443 ], [ -77.07848, 38.77481 ], [ -77.07737, 38.7751 ], [ -77.07722, 38.77587 ], [ -77.07675, 38.77606 ], [ -77.07625, 38.77593 ], [ -77.07599, 38.77527 ], [ -77.075, 38.7752 ], [ -77.07476, 38.77483 ], [ -77.07492, 38.77443 ], [ -77.07576, 38.77421 ], [ -77.0748, 38.7718 ], [ -77.07432, 38.77241 ], [ -77.07003, 38.77362 ], [ -77.07049, 38.77715 ], [ -77.07212, 38.7767 ], [ -77.07302, 38.777 ], [ -77.07263, 38.7777 ], [ -77.07066, 38.77825 ], [ -77.07079, 38.78001 ], [ -77.07219, 38.78065 ], [ -77.0717, 38.78131 ], [ -77.07089, 38.78113 ], [ -77.07062, 38.78405 ], [ -77.0693, 38.78461 ], [ -77.06773, 38.7835 ], [ -77.06741, 38.78364 ], [ -77.06733, 38.78413 ], [ -77.06668, 38.78429 ], [ -77.0638, 38.7874 ], [ -77.06265, 38.78748 ], [ -77.06256, 38.78779 ], [ -77.06437, 38.78798 ], [ -77.06507, 38.78866 ], [ -77.06397, 38.79003 ], [ -77.06147, 38.79107 ], [ -77.06113, 38.79177 ], [ -77.05944, 38.79173 ], [ -77.05885, 38.7909 ], [ -77.05962, 38.79039 ], [ -77.05997, 38.78928 ], [ -77.06086, 38.78248 ], [ -77.05997, 38.78334 ], [ -77.05915, 38.78291 ], [ -77.05969, 38.78189 ], [ -77.06057, 38.7814 ], [ -77.05276, 38.78079 ], [ -77.05309, 38.7795 ], [ -77.05203, 38.77862 ], [ -77.05112, 38.77487 ], [ -77.05162, 38.77445 ], [ -77.05232, 38.77217 ], [ -77.05401, 38.77217 ], [ -77.05443, 38.77296 ], [ -77.05453, 38.7716 ], [ -77.05522, 38.77106 ], [ -77.05669, 38.77137 ], [ -77.05915, 38.77094 ], [ -77.0618, 38.77376 ], [ -77.06158, 38.77219 ], [ -77.05911, 38.76823 ], [ -77.05653, 38.76898 ], [ -77.05358, 38.76799 ], [ -77.05343, 38.76645 ], [ -77.05274, 38.76607 ], [ -77.05326, 38.76514 ], [ -77.0517, 38.76362 ], [ -77.05165, 38.76283 ], [ -77.04985, 38.76082 ], [ -77.04928, 38.75779 ], [ -77.04948, 38.75741 ], [ -77.05031, 38.75726 ], [ -77.05206, 38.75815 ], [ -77.05212, 38.75737 ], [ -77.05308, 38.75692 ], [ -77.05316, 38.75561 ], [ -77.05537, 38.75567 ], [ -77.05566, 38.75489 ], [ -77.05664, 38.75498 ], [ -77.05658, 38.75201 ], [ -77.05727, 38.75147 ], [ -77.05796, 38.752 ], [ -77.05795, 38.7538 ], [ -77.05965, 38.75401 ], [ -77.05981, 38.75441 ], [ -77.05933, 38.75483 ], [ -77.05957, 38.75695 ], [ -77.06044, 38.7583 ], [ -77.06298, 38.75854 ], [ -77.06347, 38.7592 ], [ -77.06288, 38.75956 ], [ -77.06343, 38.75963 ], [ -77.06499, 38.75792 ], [ -77.06548, 38.7561 ], [ -77.06645, 38.75604 ], [ -77.0667, 38.75742 ], [ -77.0657, 38.75909 ], [ -77.06601, 38.75962 ], [ -77.0655, 38.75998 ], [ -77.06641, 38.75999 ], [ -77.06679, 38.75878 ], [ -77.06777, 38.75879 ], [ -77.06808, 38.76066 ], [ -77.07005, 38.76179 ] ], [ [ -77.06178, 38.78615 ], [ -77.06196, 38.78595 ], [ -77.06181, 38.78585 ], [ -77.06178, 38.78615 ] ], [ [ -77.06206, 38.7765 ], [ -77.06196, 38.77567 ], [ -77.05903, 38.77567 ], [ -77.05891, 38.77666 ], [ -77.05967, 38.77642 ], [ -77.06029, 38.77686 ], [ -77.06097, 38.77643 ], [ -77.06206, 38.7765 ] ], [ [ -77.06323, 38.77244 ], [ -77.06337, 38.77446 ], [ -77.0648, 38.77425 ], [ -77.06529, 38.77305 ], [ -77.06463, 38.77279 ], [ -77.06364, 38.77296 ], [ -77.06323, 38.77244 ] ], [ [ -77.06246, 38.77087 ], [ -77.06381, 38.77066 ], [ -77.06434, 38.77127 ], [ -77.06496, 38.77077 ], [ -77.0647, 38.7693 ], [ -77.06303, 38.76817 ], [ -77.06269, 38.76718 ], [ -77.06212, 38.76842 ], [ -77.06304, 38.76924 ], [ -77.06233, 38.76977 ], [ -77.06145, 38.76956 ], [ -77.06246, 38.77087 ] ], [ [ -77.06167, 38.76579 ], [ -77.06275, 38.76574 ], [ -77.06135, 38.76497 ], [ -77.06167, 38.76579 ] ], [ [ -77.06162, 38.76309 ], [ -77.0615, 38.76295 ], [ -77.06142, 38.76306 ], [ -77.06162, 38.76309 ] ], [ [ -77.06145, 38.76235 ], [ -77.06271, 38.76116 ], [ -77.06371, 38.76095 ], [ -77.06471, 38.76125 ], [ -77.06645, 38.76264 ], [ -77.06709, 38.76296 ], [ -77.06603, 38.76215 ], [ -77.06545, 38.76109 ], [ -77.06129, 38.76045 ], [ -77.06016, 38.7607 ], [ -77.06031, 38.76188 ], [ -77.06145, 38.76235 ] ], [ [ -77.06623, 38.77985 ], [ -77.06694, 38.77886 ], [ -77.06601, 38.77864 ], [ -77.06507, 38.77955 ], [ -77.06366, 38.7796 ], [ -77.06351, 38.78012 ], [ -77.06623, 38.77985 ] ], [ [ -77.06644, 38.77786 ], [ -77.06684, 38.77741 ], [ -77.06606, 38.77727 ], [ -77.06559, 38.77782 ], [ -77.06644, 38.77786 ] ], [ [ -77.06568, 38.77576 ], [ -77.06652, 38.77443 ], [ -77.06624, 38.77432 ], [ -77.0655, 38.77528 ], [ -77.06568, 38.77576 ] ], [ [ -77.06839, 38.7621 ], [ -77.06748, 38.76168 ], [ -77.06704, 38.76137 ], [ -77.06827, 38.76234 ], [ -77.06839, 38.7621 ] ], [ [ -77.07107, 38.77074 ], [ -77.07095, 38.76977 ], [ -77.07003, 38.76984 ], [ -77.07019, 38.77098 ], [ -77.07107, 38.77074 ] ], [ [ -77.07444, 38.77094 ], [ -77.07362, 38.77145 ], [ -77.07476, 38.7717 ], [ -77.07444, 38.77094 ] ], [ [ -77.07225, 38.77156 ], [ -77.06988, 38.77222 ], [ -77.06992, 38.77251 ], [ -77.07236, 38.77183 ], [ -77.07225, 38.77156 ] ], [ [ -77.06919, 38.78336 ], [ -77.06931, 38.78319 ], [ -77.06909, 38.78321 ], [ -77.06919, 38.78336 ] ], [ [ -77.06643, 38.76493 ], [ -77.06746, 38.76497 ], [ -77.06794, 38.76518 ], [ -77.06695, 38.76444 ], [ -77.06643, 38.76493 ] ], [ [ -77.06699, 38.77631 ], [ -77.06723, 38.77606 ], [ -77.06697, 38.77632 ], [ -77.06699, 38.77631 ] ], [ [ -77.06396, 38.78183 ], [ -77.06361, 38.78165 ], [ -77.0627, 38.78171 ], [ -77.06348, 38.7821 ], [ -77.06396, 38.78183 ] ], [ [ -77.06457, 38.77707 ], [ -77.06484, 38.77675 ], [ -77.06454, 38.77666 ], [ -77.06457, 38.77707 ] ], [ [ -77.06208, 38.78458 ], [ -77.06214, 38.78467 ], [ -77.06217, 38.78456 ], [ -77.06208, 38.78458 ] ], [ [ -77.06129, 38.76938 ], [ -77.06127, 38.76933 ], [ -77.06123, 38.76929 ], [ -77.06129, 38.76938 ] ], [ [ -77.05755, 38.78009 ], [ -77.05714, 38.77979 ], [ -77.05711, 38.78005 ], [ -77.05755, 38.78009 ] ], [ [ -77.0583, 38.77449 ], [ -77.05856, 38.77378 ], [ -77.05791, 38.77365 ], [ -77.05781, 38.77448 ], [ -77.0583, 38.77449 ] ], [ [ -77.05887, 38.76591 ], [ -77.05981, 38.76639 ], [ -77.05998, 38.76555 ], [ -77.05909, 38.76554 ], [ -77.05803, 38.76433 ], [ -77.05684, 38.76455 ], [ -77.05805, 38.766 ], [ -77.05887, 38.76591 ] ], [ [ -77.05735, 38.76083 ], [ -77.05707, 38.76074 ], [ -77.05743, 38.76126 ], [ -77.05735, 38.76083 ] ], [ [ -77.05746, 38.7589 ], [ -77.05773, 38.75881 ], [ -77.05759, 38.75857 ], [ -77.05746, 38.7589 ] ], [ [ -77.05691, 38.75717 ], [ -77.0568, 38.75671 ], [ -77.05673, 38.75589 ], [ -77.05658, 38.75701 ], [ -77.05691, 38.75717 ] ], [ [ -77.05817, 38.75605 ], [ -77.05825, 38.75581 ], [ -77.05814, 38.75616 ], [ -77.05817, 38.75605 ] ], [ [ -77.0589, 38.76171 ], [ -77.05889, 38.76159 ], [ -77.05887, 38.7615 ], [ -77.0589, 38.76171 ] ], [ [ -77.05885, 38.76141 ], [ -77.05833, 38.75978 ], [ -77.05826, 38.75981 ], [ -77.05885, 38.76141 ] ], [ [ -77.06016, 38.75955 ], [ -77.05974, 38.75927 ], [ -77.0594, 38.75901 ], [ -77.05977, 38.75967 ], [ -77.06016, 38.75955 ] ], [ [ -77.05864, 38.77202 ], [ -77.05868, 38.77205 ], [ -77.05862, 38.77198 ], [ -77.05864, 38.77202 ] ], [ [ -77.05433, 38.76411 ], [ -77.05543, 38.76404 ], [ -77.05631, 38.76353 ], [ -77.05468, 38.76347 ], [ -77.0544, 38.76278 ], [ -77.05403, 38.76282 ], [ -77.05453, 38.76358 ], [ -77.05433, 38.76411 ] ], [ [ -77.05498, 38.76244 ], [ -77.05517, 38.76241 ], [ -77.05509, 38.76221 ], [ -77.05498, 38.76244 ] ], [ [ -77.05508, 38.7622 ], [ -77.05368, 38.76018 ], [ -77.05344, 38.75925 ], [ -77.05317, 38.75925 ], [ -77.05331, 38.75997 ], [ -77.05228, 38.76006 ], [ -77.05219, 38.76092 ], [ -77.05307, 38.76066 ], [ -77.05368, 38.76126 ], [ -77.05261, 38.76202 ], [ -77.05436, 38.7617 ], [ -77.05508, 38.7622 ] ], [ [ -77.05566, 38.76032 ], [ -77.05594, 38.76011 ], [ -77.05527, 38.75994 ], [ -77.05566, 38.76032 ] ], [ [ -77.05575, 38.75888 ], [ -77.05591, 38.75898 ], [ -77.05605, 38.75874 ], [ -77.05575, 38.75888 ] ], [ [ -77.0538, 38.75784 ], [ -77.05346, 38.75803 ], [ -77.05353, 38.75817 ], [ -77.05362, 38.75817 ], [ -77.0538, 38.75784 ] ], [ [ -77.05627, 38.77563 ], [ -77.05486, 38.77563 ], [ -77.05486, 38.77594 ], [ -77.05622, 38.77605 ], [ -77.05627, 38.77563 ] ], [ [ -77.05327, 38.7736 ], [ -77.053, 38.77452 ], [ -77.05345, 38.77455 ], [ -77.05327, 38.7736 ] ], [ [ -77.05299, 38.77688 ], [ -77.05339, 38.77712 ], [ -77.05342, 38.77691 ], [ -77.05299, 38.77688 ] ], [ [ -77.05289, 38.77579 ], [ -77.05348, 38.77563 ], [ -77.05288, 38.7756 ], [ -77.05289, 38.77579 ] ], [ [ -77.05445, 38.77976 ], [ -77.05452, 38.77985 ], [ -77.05447, 38.77959 ], [ -77.05445, 38.77976 ] ] ] } },
{ "type": "Feature", "properties": { "variant": "T2s", "miles": 0.5 }, "geometry": { "type": "Polygon", "coordinates": [ [ [ -77.06413, 38.77108 ], [ -77.06292, 38.77192 ], [ -77.06326, 38.77453 ], [ -77.06483, 38.77425 ], [ -77.06537, 38.7749 ], [ -77.06489, 38.77555 ], [ -77.06334, 38.77562 ], [ -77.06348, 38.77693 ], [ -77.06301, 38.77748 ], [ -77.0617, 38.77742 ], [ -77.06195, 38.77556 ], [ -77.05792, 38.77542 ], [ -77.0577, 38.77504 ], [ -77.05831, 38.77451 ], [ -77.0583, 38.77366 ], [ -77.05791, 38.77365 ], [ -77.05753, 38.77509 ], [ -77.05639, 38.77519 ], [ -77.05577, 38.77563 ], [ -77.05455, 38.77479 ], [ -77.05453, 38.7716 ], [ -77.05522, 38.77106 ], [ -77.05669, 38.77137 ], [ -77.05915, 38.77094 ], [ -77.0618, 38.77376 ], [ -77.06151, 38.77199 ], [ -77.05941, 38.76921 ], [ -77.05911, 38.76823 ], [ -77.05754, 38.76853 ], [ -77.0571, 38.7683 ], [ -77.05699, 38.7679 ], [ -77.05762, 38.7674 ], [ -77.05925, 38.7671 ], [ -77.06002, 38.76729 ], [ -77.06235, 38.77093 ], [ -77.0639, 38.77071 ], [ -77.06413, 38.77108 ] ], [ [ -77.05868, 38.77205 ], [ -77.05862, 38.77198 ], [ -77.05867, 38.77206 ], [ -77.05868, 38.77205 ] ] ] } },
{ "type": "Feature", "properties": { "variant": "T2s", "miles": 1.0 }, "geometry": { "type": "Polygon", "coordinates": [ [ [ -77.06572, 38.76466 ], [ -77.06498, 38.76535 ], [ -77.06445, 38.7653 ], [ -77.06449, 38.76575 ], [ -77.06627, 38.76827 ], [ -77.06752, 38.76817 ], [ -77.06879, 38.76898 ], [ -77.06971, 38.76893 ], [ -77.07019, 38.77098 ], [ -77.07257, 38.77032 ], [ -77.07346, 38.77064 ], [ -77.07343, 38.77105 ], [ -77.06988, 38.77222 ], [ -77.06999, 38.77321 ], [ -77.06942, 38.77376 ], [ -77.0696, 38.77665 ], [ -77.06726, 38.77737 ], [ -77.06606, 38.77727 ], [ -77.06559, 38.77782 ], [ -77.0661, 38.77814 ], [ -77.06601, 38.77864 ], [ -77.06507, 38.77955 ], [ -77.06366, 38.7796 ], [ -77.06331, 38.78053 ], [ -77.06396, 38.78112 ], [ -77.06371, 38.78149 ], [ -77.06277, 38.78158 ], [ -77.0632, 38.78252 ], [ -77.06226, 38.78275 ], [ -77.06116, 38.78221 ], [ -77.06134, 38.78146 ], [ -77.05584, 38.78089 ], [ -77.05577, 38.77968 ], [ -77.0547, 38.77945 ], [ -77.05455, 38.77906 ], [ -77.0552, 38.77859 ], [ -77.05528, 38.7779 ], [ -77.05458, 38.7783 ], [ -77.05331, 38.7782 ], [ -77.05361, 38.7791 ], [ -77.05325, 38.7794 ], [ -77.05217, 38.77891 ], [ -77.05112, 38.77487 ], [ -77.05251, 38.77206 ], [ -77.05401, 38.77217 ], [ -77.05443, 38.77296 ], [ -77.05473, 38.77122 ], [ -77.05798, 38.7713 ], [ -77.05882, 38.77086 ], [ -77.05976, 38.77137 ], [ -77.0618, 38.77376 ], [ -77.06151, 38.77199 ], [ -77.05941, 38.76921 ], [ -77.05911, 38.76823 ], [ -77.05671, 38.76898 ], [ -77.05396, 38.76828 ], [ -77.05281, 38.76566 ], [ -77.05335, 38.76539 ], [ -77.05318, 38.76456 ], [ -77.05356, 38.76427 ], [ -77.05543, 38.76404 ], [ -77.05631, 38.76353 ], [ -77.05468, 38.76347 ], [ -77.05435, 38.76315 ], [ -77.05482, 38.76248 ], [ -77.05725, 38.76234 ], [ -77.05776, 38.76245 ], [ -77.0581, 38.76323 ], [ -77.05902, 38.76314 ], [ -77.05872, 38.76047 ], [ -77.058, 38.75893 ], [ -77.05885, 38.75856 ], [ -77.05977, 38.75967 ], [ -77.06093, 38.75939 ], [ -77.06179, 38.75975 ], [ -77.06133, 38.76043 ], [ -77.06016, 38.7607 ], [ -77.06031, 38.76188 ], [ -77.06155, 38.76261 ], [ -77.06142, 38.76306 ], [ -77.06195, 38.76314 ], [ -77.06173, 38.76239 ], [ -77.06264, 38.76211 ], [ -77.06543, 38.76393 ], [ -77.06572, 38.76466 ] ], [ [ -77.0611, 38.77642 ], [ -77.06206, 38.7765 ], [ -77.06195, 38.77556 ], [ -77.05792, 38.77542 ], [ -77.0577, 38.77504 ], [ -77.05831, 38.77451 ], [ -77.0583, 38.77366 ], [ -77.05791, 38.77365 ], [ -77.05753, 38.77509 ], [ -77.05486, 38.77563 ], [ -77.05486, 38.77594 ], [ -77.05691, 38.77611 ], [ -77.05752, 38.7767 ], [ -77.05827, 38.77622 ], [ -77.05885, 38.77672 ], [ -77.05967, 38.77642 ], [ -77.06029, 38.77686 ], [ -77.0611, 38.77642 ] ], [ [ -77.05867, 38.77206 ], [ -77.05864, 38.772 ], [ -77.05862, 38.77198 ], [ -77.05867, 38.77206 ] ], [ [ -77.05887, 38.76591 ], [ -77.05981, 38.76639 ], [ -77.05998, 38.76555 ], [ -77.05909, 38.76554 ], [ -77.05803, 38.76433 ], [ -77.05684, 38.76455 ], [ -77.05805, 38.766 ], [ -77.05887, 38.76591 ] ], [ [ -77.06454, 38.77666 ], [ -77.06457, 38.77707 ], [ -77.06484, 38.77675 ], [ -77.06454, 38.77666 ] ], [ [ -77.0648, 38.77425 ], [ -77.06615, 38.77215 ], [ -77.06576, 38.77068 ], [ -77.06465, 38.77021 ], [ -77.0647, 38.7693 ], [ -77.06286, 38.76799 ], [ -77.06338, 38.7664 ], [ -77.06227, 38.76528 ], [ -77.06135, 38.76497 ], [ -77.06164, 38.76653 ], [ -77.06079, 38.76758 ], [ -77.0608, 38.76862 ], [ -77.06246, 38.77087 ], [ -77.0634, 38.77058 ], [ -77.06413, 38.77108 ], [ -77.06314, 38.77182 ], [ -77.06337, 38.77446 ], [ -77.0648, 38.77425 ] ], [ [ -77.06723, 38.77606 ], [ -77.06697, 38.77632 ], [ -77.06736, 38.77614 ], [ -77.06723, 38.77606 ] ], [ [ -77.06624, 38.77432 ], [ -77.0655, 38.77528 ], [ -77.06561, 38.77584 ], [ -77.06652, 38.77443 ], [ -77.06624, 38.77432 ] ], [ [ -77.05936, 38.78022 ], [ -77.05932, 38.77998 ], [ -77.05714, 38.77979 ], [ -77.05711, 38.78005 ], [ -77.05936, 38.78022 ] ], [ [ -77.05327, 38.7736 ], [ -77.053, 38.77452 ], [ -77.05345, 38.77455 ], [ -77.05327, 38.7736 ] ], [ [ -77.05348, 38.77563 ], [ -77.05289, 38.77579 ], [ -77.05348, 38.77583 ], [ -77.05348, 38.77563 ] ], [ [ -77.05299, 38.77688 ], [ -77.05339, 38.77712 ], [ -77.05342, 38.77691 ], [ -77.05299, 38.77688 ] ] ] } },
{ "type": "Feature", "properties": { "variant": "T2s", "miles": 1.5 }, "geometry": { "type": "Polygon", "coordinates": [ [ [ -77.06808, 38.76066 ], [ -77.07005, 38.76178 ], [ -77.06889, 38.76353 ], [ -77.06788, 38.76352 ], [ -77.06906, 38.76434 ], [ -77.06945, 38.76585 ], [ -77.0702, 38.76632 ], [ -77.07017, 38.7669 ], [ -77.0708, 38.76749 ], [ -77.07134, 38.7671 ], [ -77.07212, 38.76781 ], [ -77.07392, 38.76773 ], [ -77.07432, 38.76668 ], [ -77.0729, 38.76657 ], [ -77.07268, 38.76619 ], [ -77.07286, 38.7658 ], [ -77.07429, 38.7656 ], [ -77.07405, 38.76522 ], [ -77.0747, 38.76465 ], [ -77.07665, 38.76536 ], [ -77.07706, 38.76602 ], [ -77.07644, 38.76765 ], [ -77.07673, 38.76713 ], [ -77.07771, 38.76716 ], [ -77.07791, 38.76779 ], [ -77.07916, 38.76822 ], [ -77.07952, 38.76893 ], [ -77.07861, 38.76921 ], [ -77.07698, 38.76865 ], [ -77.07565, 38.76906 ], [ -77.07441, 38.76879 ], [ -77.07452, 38.7698 ], [ -77.07578, 38.7699 ], [ -77.08151, 38.77182 ], [ -77.08207, 38.77245 ], [ -77.08109, 38.77286 ], [ -77.07598, 38.77114 ], [ -77.07714, 38.77403 ], [ -77.07799, 38.77389 ], [ -77.07868, 38.77443 ], [ -77.07848, 38.77481 ], [ -77.07737, 38.7751 ], [ -77.07722, 38.77587 ], [ -77.07675, 38.77606 ], [ -77.07625, 38.77593 ], [ -77.07599, 38.77527 ], [ -77.075, 38.7752 ], [ -77.07476, 38.77483 ], [ -77.07492, 38.77443 ], [ -77.07576, 38.77421 ], [ -77.0748, 38.7718 ], [ -77.07432, 38.77241 ], [ -77.07003, 38.77362 ], [ -77.07049, 38.77715 ], [ -77.07212, 38.7767 ], [ -77.07302, 38.777 ], [ -77.07263, 38.7777 ], [ -77.07066, 38.77825 ], [ -77.07079, 38.78001 ], [ -77.07219, 38.78065 ], [ -77.0717, 38.78131 ], [ -77.07089, 38.78113 ], [ -77.07062, 38.78405 ], [ -77.0693, 38.78461 ], [ -77.06773, 38.7835 ], [ -77.06741, 38.78364 ], [ -77.06733, 38.78413 ], [ -77.06668, 38.78429 ], [ -77.0638, 38.7874 ], [ -77.06265, 38.78748 ], [ -77.06241, 38.78939 ], [ -77.06135, 38.78937 ], [ -77.0612, 38.79103 ], [ -77.06028, 38.79131 ], [ -77.05983, 38.79058 ], [ -77.06086, 38.78248 ], [ -77.05997, 38.78334 ], [ -77.05915, 38.78291 ], [ -77.05969, 38.78189 ], [ -77.06057, 38.7814 ], [ -77.05276, 38.78079 ], [ -77.05309, 38.7795 ], [ -77.05203, 38.77862 ], [ -77.05112, 38.77487 ], [ -77.05162, 38.77445 ], [ -77.05232, 38.77217 ], [ -77.05401, 38.77217 ], [ -77.05443, 38.77296 ], [ -77.05453, 38.7716 ], [ -77.05522, 38.77106 ], [ -77.05669, 38.77137 ], [ -77.05915, 38.77094 ], [ -77.0618, 38.77376 ], [ -77.06158, 38.77219 ], [ -77.05911, 38.76823 ], [ -77.05653, 38.76898 ], [ -77.05358, 38.76799 ], [ -77.05343, 38.76645 ], [ -77.05274, 38.76607 ], [ -77.05326, 38.76514 ], [ -77.0517, 38.76362 ], [ -77.05165, 38.76283 ], [ -77.04985, 38.76082 ], [ -77.04928, 38.75779 ], [ -77.04948, 38.75741 ], [ -77.05031, 38.75726 ], [ -77.05206, 38.75815 ], [ -77.05212, 38.75737 ], [ -77.05308, 38.75692 ], [ -77.05316, 38.75561 ], [ -77.05537, 38.75567 ], [ -77.05566, 38.75489 ], [ -77.05664, 38.75498 ], [ -77.05658, 38.75201 ], [ -77.05727, 38.75147 ], [ -77.05796, 38.752 ], [ -77.05795, 38.7538 ], [ -77.05965, 38.75401 ], [ -77.05981, 38.75441 ], [ -77.05933, 38.75483 ], [ -77.05957, 38.75695 ], [ -77.06025, 38.75814 ], [ -77.06077, 38.75854 ], [ -77.06298, 38.75854 ], [ -77.06347, 38.7592 ], [ -77.06288, 38.75956 ], [ -77.06343, 38.75963 ], [ -77.06499, 38.75792 ], [ -77.06548, 38.7561 ], [ -77.06645, 38.75604 ], [ -77.0667, 38.75742 ], [ -77.0657, 38.75909 ], [ -77.06601, 38.75962 ], [ -77.0655, 38.75998 ], [ -77.06641, 38.75999 ], [ -77.06679, 38.75878 ], [ -77.06729, 38.75863 ], [ -77.06796, 38.75917 ], [ -77.06808, 38.76066 ] ], [ [ -77.06214, 38.78467 ], [ -77.06208, 38.78458 ], [ -77.06207, 38.78464 ], [ -77.06214, 38.78467 ] ], [ [ -77.06348, 38.7821 ], [ -77.06407, 38.7818 ], [ -77.0627, 38.78171 ], [ -77.06348, 38.7821 ] ], [ [ -77.06352, 38.78011 ], [ -77.06619, 38.77991 ], [ -77.06694, 38.77886 ], [ -77.06601, 38.77864 ], [ -77.06507, 38.77955 ], [ -77.06366, 38.7796 ], [ -77.06352, 38.78011 ] ], [ [ -77.06029, 38.77685 ], [ -77.06097, 38.77643 ], [ -77.06206, 38.7765 ], [ -77.06195, 38.77556 ], [ -77.05792, 38.77542 ], [ -77.0577, 38.77504 ], [ -77.05831, 38.77451 ], [ -77.0583, 38.77366 ], [ -77.05791, 38.77365 ], [ -77.05753, 38.77509 ], [ -77.05486, 38.77563 ], [ -77.05486, 38.77594 ], [ -77.05691, 38.77611 ], [ -77.05752, 38.7767 ], [ -77.05827, 38.77622 ], [ -77.05885, 38.77672 ], [ -77.05967, 38.77642 ], [ -77.06029, 38.77685 ] ], [ [ -77.06162, 38.76309 ], [ -77.0615, 38.76295 ], [ -77.06142, 38.76306 ], [ -77.06162, 38.76309 ] ], [ [ -77.06145, 38.76235 ], [ -77.06271, 38.76116 ], [ -77.06371, 38.76095 ], [ -77.06471, 38.76125 ], [ -77.06645, 38.76264 ], [ -77.06709, 38.76296 ], [ -77.06603, 38.76215 ], [ -77.06545, 38.76109 ], [ -77.06129, 38.76045 ], [ -77.06016, 38.7607 ], [ -77.06031, 38.76188 ], [ -77.06145, 38.76235 ] ], [ [ -77.06016, 38.75955 ], [ -77.05974, 38.75927 ], [ -77.0594, 38.75901 ], [ -77.05977, 38.75967 ], [ -77.06016, 38.75955 ] ], [ [ -77.06644, 38.77786 ], [ -77.06684, 38.77741 ], [ -77.06606, 38.77727 ], [ -77.06559, 38.77782 ], [ -77.06644, 38.77786 ] ], [ [ -77.06568, 38.77576 ], [ -77.06652, 38.77443 ], [ -77.06624, 38.77432 ], [ -77.0655, 38.77528 ], [ -77.06568, 38.77576 ] ], [ [ -77.06496, 38.77077 ], [ -77.0647, 38.7693 ], [ -77.06286, 38.76799 ], [ -77.06269, 38.76718 ], [ -77.06212, 38.76842 ], [ -77.06304, 38.76924 ], [ -77.06233, 38.76977 ], [ -77.06145, 38.76956 ], [ -77.06246, 38.77087 ], [ -77.06381, 38.77066 ], [ -77.06434, 38.77127 ], [ -77.06496, 38.77077 ] ], [ [ -77.06704, 38.76137 ], [ -77.06827, 38.76234 ], [ -77.06844, 38.76212 ], [ -77.06704, 38.76137 ] ], [ [ -77.07107, 38.77074 ], [ -77.07095, 38.76977 ], [ -77.07003, 38.76984 ], [ -77.07019, 38.77098 ], [ -77.07107, 38.77074 ] ], [ [ -77.07362, 38.7713 ], [ -77.07448, 38.77142 ], [ -77.07476, 38.7717 ], [ -77.07444, 38.77094 ], [ -77.07362, 38.7713 ] ], [ [ -77.07225, 38.77156 ], [ -77.06988, 38.77222 ], [ -77.06992, 38.77251 ], [ -77.07236, 38.77183 ], [ -77.07225, 38.77156 ] ], [ [ -77.06919, 38.78336 ], [ -77.06931, 38.78319 ], [ -77.06909, 38.78321 ], [ -77.06919, 38.78336 ] ], [ [ -77.0669, 38.76453 ], [ -77.06643, 38.76493 ], [ -77.06794, 38.76518 ], [ -77.06786, 38.76492 ], [ -77.0669, 38.76453 ] ], [ [ -77.06723, 38.77606 ], [ -77.06697, 38.77632 ], [ -77.06736, 38.77614 ], [ -77.06723, 38.77606 ] ], [ [ -77.0635, 38.77448 ], [ -77.0648, 38.77425 ], [ -77.06529, 38.77305 ], [ -77.06463, 38.77279 ], [ -77.06364, 38.77296 ], [ -77.06323, 38.77244 ], [ -77.0635, 38.77448 ] ], [ [ -77.06247, 38.76572 ], [ -77.06227, 38.76528 ], [ -77.06135, 38.76497 ], [ -77.06167, 38.7658 ], [ -77.06247, 38.76572 ] ], [ [ -77.06454, 38.77666 ], [ -77.06457, 38.77707 ], [ -77.06484, 38.77675 ], [ -77.06454, 38.77666 ] ], [ [ -77.06127, 38.76936 ], [ -77.06128, 38.76934 ], [ -77.06123, 38.76929 ], [ -77.06127, 38.76936 ] ], [ [ -77.05755, 38.78009 ], [ -77.05714, 38.77979 ], [ -77.05711, 38.78005 ], [ -77.05755, 38.78009 ] ], [ [ -77.06178, 38.78615 ], [ -77.06196, 38.78595 ], [ -77.06181, 38.78585 ], [ -77.06178, 38.78615 ] ], [ [ -77.05868, 38.77205 ], [ -77.05862, 38.77198 ], [ -77.05867, 38.77206 ], [ -77.05868, 38.77205 ] ], [ [ -77.05327, 38.7736 ], [ -77.053, 38.77452 ], [ -77.05345, 38.77455 ], [ -77.05327, 38.7736 ] ], [ [ -77.05299, 38.77688 ], [ -77.05339, 38.77712 ], [ -77.05342, 38.77691 ], [ -77.05299, 38.77688 ] ], [ [ -77.05289, 38.77579 ], [ -77.05348, 38.77563 ], [ -77.05288, 38.7756 ], [ -77.05289, 38.77579 ] ], [ [ -77.05445, 38.77976 ], [ -77.05452, 38.77985 ], [ -77.05447, 38.77959 ], [ -77.05445, 38.77976 ] ], [ [ -77.05887, 38.76591 ], [ -77.05981, 38.76639 ], [ -77.05998, 38.76555 ], [ -77.05909, 38.76554 ], [ -77.05803, 38.76433 ], [ -77.05684, 38.76455 ], [ -77.05805, 38.766 ], [ -77.05887, 38.76591 ] ], [ [ -77.05735, 38.76083 ], [ -77.05707, 38.76074 ], [ -77.05743, 38.76126 ], [ -77.05735, 38.76083 ] ], [ [ -77.0559, 38.7601 ], [ -77.05552, 38.76002 ], [ -77.05527, 38.75994 ], [ -77.05566, 38.76032 ], [ -77.0559, 38.7601 ] ], [ [ -77.05773, 38.75881 ], [ -77.05759, 38.75857 ], [ -77.05746, 38.7589 ], [ -77.05773, 38.75881 ] ], [ [ -77.05691, 38.75717 ], [ -77.05679, 38.75641 ], [ -77.05673, 38.75589 ], [ -77.05658, 38.75701 ], [ -77.05691, 38.75717 ] ], [ [ -77.05811, 38.75583 ], [ -77.0582, 38.75594 ], [ -77.05825, 38.75581 ], [ -77.05811, 38.75583 ] ], [ [ -77.05826, 38.75981 ], [ -77.05867, 38.76049 ], [ -77.05885, 38.76141 ], [ -77.05826, 38.75981 ] ], [ [ -77.05889, 38.76159 ], [ -77.05887, 38.7615 ], [ -77.0589, 38.76171 ], [ -77.05889, 38.76159 ] ], [ [ -77.05591, 38.75898 ], [ -77.05605, 38.75874 ], [ -77.05575, 38.75888 ], [ -77.05591, 38.75898 ] ], [ [ -77.05433, 38.76411 ], [ -77.05543, 38.76404 ], [ -77.05631, 38.76353 ], [ -77.05468, 38.76347 ], [ -77.0544, 38.76278 ], [ -77.05403, 38.76282 ], [ -77.05453, 38.76358 ], [ -77.05433, 38.76411 ] ], [ [ -77.05498, 38.76244 ], [ -77.05517, 38.76241 ], [ -77.05509, 38.76221 ], [ -77.05498, 38.76244 ] ], [ [ -77.05508, 38.7622 ], [ -77.05368, 38.76018 ], [ -77.05344, 38.75925 ], [ -77.05317, 38.75925 ], [ -77.05331, 38.75997 ], [ -77.05228, 38.76006 ], [ -77.05219, 38.76092 ], [ -77.05307, 38.76066 ], [ -77.05368, 38.76126 ], [ -77.05261, 38.76202 ], [ -77.05436, 38.7617 ], [ -77.05508, 38.7622 ] ], [ [ -77.05346, 38.75803 ], [ -77.05371, 38.75798 ], [ -77.0538, 38.75784 ], [ -77.05346, 38.75803 ] ] ] } }
]
}
