{
"type": "FeatureCollection",
"name": "203",
"crs": { "type": "name", "properties": { "name": "urn:ogc:def:crs:OGC:1.3:CRS84" } },
"xy_coordinate_resolution": 1e-05,
"features": [
{ "type": "Feature", "properties": { "variant": "T0", "miles": 0.5 }, "geometry": { "type": "Polygon", "coordinates": [ [ [ -77.07966, 38.77892 ], [ -77.08008, 38.77918 ], [ -77.07993, 38.78017 ], [ -77.08088, 38.77977 ], [ -77.0815, 38.78035 ], [ -77.07969, 38.7817 ], [ -77.07959, 38.78226 ], [ -77.08038, 38.78261 ], [ -77.08118, 38.78185 ], [ -77.08231, 38.78222 ], [ -77.08191, 38.78432 ], [ -77.08275, 38.78493 ], [ -77.08379, 38.78448 ], [ -77.08427, 38.78466 ], [ -77.08523, 38.7859 ], [ -77.08469, 38.78659 ], [ -77.08599, 38.78749 ], [ -77.08517, 38.78891 ], [ -77.08347, 38.78839 ], [ -77.0826, 38.78858 ], [ -77.08223, 38.78757 ], [ -77.08157, 38.78806 ], [ -77.08118, 38.78938 ], [ -77.08143, 38.79066 ], [ -77.0802, 38.79084 ], [ -77.07897, 38.78995 ], [ -77.07919, 38.79102 ], [ -77.07861, 38.79164 ], [ -77.07782, 38.79119 ], [ -77.0776, 38.79006 ], [ -77.07714, 38.78986 ], [ -77.07705, 38.79086 ], [ -77.07583, 38.79095 ], [ -77.07564, 38.78969 ], [ -77.07384, 38.78882 ], [ -77.07345, 38.78519 ], [ -77.07265, 38.78392 ], [ -77.07556, 38.78258 ], [ -77.07397, 38.78129 ], [ -77.07438, 38.78022 ], [ -77.07532, 38.78001 ], [ -77.07739, 38.78133 ], [ -77.07881, 38.77929 ], [ -77.07966, 38.77892 ] ], [ [ -77.07948, 38.78563 ], [ -77.08014, 38.78506 ], [ -77.07868, 38.78451 ], [ -77.0785, 38.7854 ], [ -77.07948, 38.78563 ] ], [ [ -77.0791, 38.78348 ], [ -77.08107, 38.78418 ], [ -77.07916, 38.78331 ], [ -77.0791, 38.78348 ] ], [ [ -77.08258, 38.78686 ], [ -77.08239, 38.78711 ], [ -77.08308, 38.78686 ], [ -77.08258, 38.78686 ] ], [ [ -77.08351, 38.78581 ], [ -77.08356, 38.78581 ], [ -77.08354, 38.78579 ], [ -77.08351, 38.78581 ] ], [ [ -77.0827, 38.78573 ], [ -77.08259, 38.78578 ], [ -77.08276, 38.78578 ], [ -77.0827, 38.78573 ] ], [ [ -77.07486, 38.78591 ], [ -77.07486, 38.78596 ], [ -77.07489, 38.78594 ], [ -77.07486, 38.78591 ] ], [ [ -77.07605, 38.7853 ], [ -77.07606, 38.78518 ], [ -77.07584, 38.78515 ], [ -77.07605, 38.7853 ] ], [ [ -77.07703, 38.78344 ], [ -77.0771, 38.78346 ], [ -77.07693, 38.78343 ], [ -77.07703, 38.78344 ] ] ] } },
{ "type": "Feature", "properties": { "variant": "T0", "miles": 1.0 }, "geometry": { "type": "Polygon", "coordinates": [ [ [ -77.0855, 38.77468 ], [ -77.08643, 38.77499 ], [ -77.08625, 38.77604 ], [ -77.08841, 38.77472 ], [ -77.08909, 38.77527 ], [ -77.08701, 38.77802 ], [ -77.08651, 38.77815 ], [ -77.0858, 38.77775 ], [ -77.08401, 38.77892 ], [ -77.08437, 38.78016 ], [ -77.08368, 38.78088 ], [ -77.08513, 38.78211 ], [ -77.08547, 38.78373 ], [ -77.08656, 38.78308 ], [ -77.08717, 38.78413 ], [ -77.08729, 38.78056 ], [ -77.08744, 38.78016 ], [ -77.08842, 38.78009 ], [ -77.08891, 38.78177 ], [ -77.08961, 38.78191 ], [ -77.08994, 38.78255 ], [ -77.09025, 38.78156 ], [ -77.09075, 38.78143 ], [ -77.09136, 38.78223 ], [ -77.09192, 38.78181 ], [ -77.09276, 38.7822 ], [ -77.09119, 38.78491 ], [ -77.0912, 38.78617 ], [ -77.09297, 38.78565 ], [ -77.09329, 38.78637 ], [ -77.0909, 38.78761 ], [ -77.09256, 38.78931 ], [ -77.09213, 38.78999 ], [ -77.09074, 38.78953 ], [ -77.08963, 38.78804 ], [ -77.08979, 38.78874 ], [ -77.08935, 38.78938 ], [ -77.08841, 38.78916 ], [ -77.08837, 38.7887 ], [ -77.08755, 38.78918 ], [ -77.0903, 38.7903 ], [ -77.09075, 38.791 ], [ -77.09061, 38.79171 ], [ -77.08792, 38.79199 ], [ -77.08702, 38.79094 ], [ -77.08704, 38.79021 ], [ -77.08656, 38.79011 ], [ -77.0856, 38.79197 ], [ -77.08604, 38.79264 ], [ -77.08527, 38.79331 ], [ -77.08516, 38.79502 ], [ -77.08422, 38.79524 ], [ -77.0838, 38.79444 ], [ -77.08197, 38.79719 ], [ -77.08129, 38.7975 ], [ -77.08052, 38.79679 ], [ -77.07943, 38.79715 ], [ -77.07863, 38.79636 ], [ -77.07682, 38.79568 ], [ -77.07743, 38.79481 ], [ -77.0768, 38.79427 ], [ -77.07654, 38.79326 ], [ -77.07551, 38.79289 ], [ -77.07552, 38.79163 ], [ -77.07448, 38.79159 ], [ -77.07417, 38.79093 ], [ -77.07317, 38.79049 ], [ -77.07311, 38.78831 ], [ -77.07347, 38.78783 ], [ -77.07159, 38.78689 ], [ -77.0719, 38.78545 ], [ -77.06914, 38.7872 ], [ -77.06905, 38.78868 ], [ -77.06861, 38.7889 ], [ -77.06756, 38.78832 ], [ -77.06664, 38.78827 ], [ -77.0662, 38.78769 ], [ -77.06862, 38.78558 ], [ -77.07248, 38.7838 ], [ -77.07281, 38.78272 ], [ -77.07242, 38.78107 ], [ -77.06884, 38.77919 ], [ -77.06936, 38.77755 ], [ -77.07033, 38.77746 ], [ -77.07096, 38.77909 ], [ -77.07344, 38.78032 ], [ -77.07474, 38.77978 ], [ -77.07739, 38.78133 ], [ -77.07812, 38.78075 ], [ -77.07873, 38.77915 ], [ -77.07836, 38.77998 ], [ -77.0775, 38.78034 ], [ -77.07704, 38.77966 ], [ -77.07736, 38.77884 ], [ -77.07442, 38.77819 ], [ -77.07313, 38.77927 ], [ -77.07251, 38.77868 ], [ -77.07283, 38.77826 ], [ -77.07232, 38.77717 ], [ -77.0726, 38.77661 ], [ -77.07424, 38.77584 ], [ -77.07662, 38.77602 ], [ -77.07601, 38.77556 ], [ -77.07665, 38.77498 ], [ -77.07995, 38.7749 ], [ -77.08053, 38.77224 ], [ -77.08131, 38.7718 ], [ -77.08207, 38.77243 ], [ -77.08105, 38.77703 ], [ -77.08405, 38.77676 ], [ -77.08431, 38.77587 ], [ -77.0855, 38.77468 ] ], [ [ -77.07973, 38.78571 ], [ -77.0801, 38.78501 ], [ -77.07868, 38.78451 ], [ -77.0785, 38.7854 ], [ -77.07973, 38.78571 ] ], [ [ -77.0791, 38.78348 ], [ -77.08107, 38.78418 ], [ -77.07916, 38.78331 ], [ -77.0791, 38.78348 ] ], [ [ -77.08038, 38.78261 ], [ -77.08118, 38.78185 ], [ -77.08233, 38.78224 ], [ -77.08208, 38.7835 ], [ -77.08299, 38.78339 ], [ -77.08344, 38.78292 ], [ -77.08259, 38.78262 ], [ -77.0828, 38.78172 ], [ -77.08085, 38.78098 ], [ -77.07969, 38.7817 ], [ -77.07959, 38.78226 ], [ -77.08038, 38.78261 ] ], [ [ -77.07865, 38.77725 ], [ -77.07884, 38.77724 ], [ -77.07844, 38.77733 ], [ -77.07865, 38.77725 ] ], [ [ -77.08299, 38.79127 ], [ -77.08318, 38.79053 ], [ -77.08462, 38.79059 ], [ -77.0868, 38.78827 ], [ -77.08672, 38.78765 ], [ -77.08597, 38.78755 ], [ -77.08517, 38.78891 ], [ -77.08347, 38.78839 ], [ -77.0826, 38.78858 ], [ -77.0823, 38.78789 ], [ -77.08118, 38.78938 ], [ -77.0816, 38.79261 ], [ -77.0828, 38.7933 ], [ -77.08405, 38.7916 ], [ -77.08299, 38.79127 ] ], [ [ -77.08299, 38.78695 ], [ -77.08308, 38.78686 ], [ -77.08289, 38.78686 ], [ -77.08299, 38.78695 ] ], [ [ -77.08261, 38.78578 ], [ -77.0827, 38.78573 ], [ -77.08259, 38.78578 ], [ -77.08261, 38.78578 ] ], [ [ -77.08285, 38.77783 ], [ -77.08285, 38.77828 ], [ -77.08351, 38.77784 ], [ -77.08285, 38.77783 ] ], [ [ -77.08701, 38.78547 ], [ -77.08584, 38.78451 ], [ -77.0856, 38.78464 ], [ -77.08567, 38.78498 ], [ -77.08701, 38.78547 ] ], [ [ -77.08851, 38.78443 ], [ -77.08876, 38.78405 ], [ -77.08872, 38.78343 ], [ -77.08862, 38.78342 ], [ -77.08851, 38.78443 ] ], [ [ -77.08868, 38.78662 ], [ -77.08821, 38.78676 ], [ -77.08812, 38.78755 ], [ -77.08905, 38.78706 ], [ -77.08868, 38.78662 ] ], [ [ -77.08351, 38.78581 ], [ -77.08356, 38.78581 ], [ -77.08354, 38.78579 ], [ -77.08351, 38.78581 ] ], [ [ -77.08329, 38.78407 ], [ -77.08327, 38.7841 ], [ -77.08332, 38.78412 ], [ -77.08329, 38.78407 ] ], [ [ -77.08396, 38.78282 ], [ -77.08388, 38.7826 ], [ -77.08353, 38.78288 ], [ -77.08396, 38.78282 ] ], [ [ -77.08102, 38.79419 ], [ -77.08181, 38.7947 ], [ -77.08212, 38.79425 ], [ -77.08148, 38.79389 ], [ -77.08102, 38.79419 ] ], [ [ -77.08022, 38.77999 ], [ -77.08146, 38.77919 ], [ -77.08147, 38.77812 ], [ -77.0807, 38.77854 ], [ -77.08022, 38.77999 ] ], [ [ -77.07729, 38.7911 ], [ -77.07782, 38.79118 ], [ -77.0776, 38.79006 ], [ -77.07714, 38.78986 ], [ -77.07729, 38.7911 ] ], [ [ -77.07702, 38.78339 ], [ -77.07703, 38.78344 ], [ -77.0771, 38.78346 ], [ -77.07702, 38.78339 ] ], [ [ -77.07556, 38.78258 ], [ -77.07392, 38.78144 ], [ -77.07414, 38.78302 ], [ -77.07556, 38.78258 ] ], [ [ -77.07486, 38.78596 ], [ -77.07489, 38.78594 ], [ -77.07486, 38.78591 ], [ -77.07486, 38.78596 ] ], [ [ -77.07605, 38.7853 ], [ -77.07606, 38.78518 ], [ -77.07584, 38.78515 ], [ -77.07605, 38.7853 ] ], [ [ -77.07429, 38.77711 ], [ -77.07696, 38.77762 ], [ -77.07707, 38.77716 ], [ -77.07447, 38.77691 ], [ -77.07429, 38.77711 ] ], [ [ -77.07734, 38.77609 ], [ -77.07736, 38.77602 ], [ -77.07688, 38.77605 ], [ -77.07734, 38.77609 ] ] ] } },
{ "type": "Feature", "properties": { "variant": "T0", "miles": 1.5 }, "geometry": { "type": "Polygon", "coordinates": [ [ [ -77.09441, 38.77275 ], [ -77.09655, 38.77246 ], [ -77.0968, 38.7732 ], [ -77.0941, 38.77393 ], [ -77.09444, 38.77456 ], [ -77.09398, 38.77528 ], [ -77.09304, 38.77505 ], [ -77.0926, 38.77425 ], [ -77.09188, 38.7744 ], [ -77.09377, 38.776 ], [ -77.09511, 38.77649 ], [ -77.09563, 38.77956 ], [ -77.09651, 38.77984 ], [ -77.09654, 38.78063 ], [ -77.09781, 38.78097 ], [ -77.09759, 38.78173 ], [ -77.09993, 38.78203 ], [ -77.10003, 38.78291 ], [ -77.10113, 38.78266 ], [ -77.10153, 38.78294 ], [ -77.10122, 38.78366 ], [ -77.09836, 38.78474 ], [ -77.09877, 38.78539 ], [ -77.09844, 38.78571 ], [ -77.09696, 38.78601 ], [ -77.1004, 38.78606 ], [ -77.101, 38.78667 ], [ -77.10022, 38.78714 ], [ -77.09676, 38.78716 ], [ -77.0977, 38.78802 ], [ -77.098, 38.78914 ], [ -77.09928, 38.78874 ], [ -77.10012, 38.78913 ], [ -77.09967, 38.78997 ], [ -77.0986, 38.79023 ], [ -77.09857, 38.79161 ], [ -77.09788, 38.79212 ], [ -77.09768, 38.79357 ], [ -77.0967, 38.79357 ], [ -77.0965, 38.79212 ], [ -77.09559, 38.79212 ], [ -77.09523, 38.79282 ], [ -77.09442, 38.79272 ], [ -77.09455, 38.79357 ], [ -77.09382, 38.79469 ], [ -77.0933, 38.79478 ], [ -77.09273, 38.79416 ], [ -77.09304, 38.79259 ], [ -77.09152, 38.79283 ], [ -77.09091, 38.79296 ], [ -77.09098, 38.79435 ], [ -77.09059, 38.79482 ], [ -77.08876, 38.79571 ], [ -77.08687, 38.79577 ], [ -77.08719, 38.79645 ], [ -77.0883, 38.79643 ], [ -77.08898, 38.79698 ], [ -77.08856, 38.79751 ], [ -77.08879, 38.79815 ], [ -77.08812, 38.79896 ], [ -77.08793, 38.80116 ], [ -77.08696, 38.80117 ], [ -77.08555, 38.79995 ], [ -77.08471, 38.80007 ], [ -77.08423, 38.79921 ], [ -77.08223, 38.79925 ], [ -77.08158, 38.79853 ], [ -77.08068, 38.79896 ], [ -77.07639, 38.80307 ], [ -77.07544, 38.80361 ], [ -77.07493, 38.8035 ], [ -77.07481, 38.80274 ], [ -77.07884, 38.79869 ], [ -77.07565, 38.79724 ], [ -77.07451, 38.79841 ], [ -77.07238, 38.79803 ], [ -77.07197, 38.79776 ], [ -77.07183, 38.79564 ], [ -77.07114, 38.79599 ], [ -77.07037, 38.79551 ], [ -77.07246, 38.79352 ], [ -77.0733, 38.7939 ], [ -77.07302, 38.79459 ], [ -77.0745, 38.7953 ], [ -77.07478, 38.79448 ], [ -77.07587, 38.79408 ], [ -77.07654, 38.79326 ], [ -77.07551, 38.79289 ], [ -77.07552, 38.79163 ], [ -77.07462, 38.79166 ], [ -77.07417, 38.79093 ], [ -77.07322, 38.79059 ], [ -77.07311, 38.78831 ], [ -77.07347, 38.78783 ], [ -77.07159, 38.78689 ], [ -77.0719, 38.78545 ], [ -77.06914, 38.7872 ], [ -77.07028, 38.78826 ], [ -77.07167, 38.78804 ], [ -77.07257, 38.78885 ], [ -77.07176, 38.78958 ], [ -77.07199, 38.79042 ], [ -77.0714, 38.79097 ], [ -77.07004, 38.79061 ], [ -77.06922, 38.79111 ], [ -77.0686, 38.79059 ], [ -77.06873, 38.79153 ], [ -77.06826, 38.79205 ], [ -77.0695, 38.79318 ], [ -77.06889, 38.79387 ], [ -77.06804, 38.79357 ], [ -77.06716, 38.79446 ], [ -77.06664, 38.79443 ], [ -77.06633, 38.7937 ], [ -77.06709, 38.79278 ], [ -77.06681, 38.79254 ], [ -77.06583, 38.79343 ], [ -77.06505, 38.79306 ], [ -77.06301, 38.79461 ], [ -77.06112, 38.79392 ], [ -77.06052, 38.79429 ], [ -77.06003, 38.79414 ], [ -77.05981, 38.79353 ], [ -77.06023, 38.7928 ], [ -77.06206, 38.79159 ], [ -77.05753, 38.79289 ], [ -77.05662, 38.7926 ], [ -77.05723, 38.79153 ], [ -77.05962, 38.79039 ], [ -77.06007, 38.78844 ], [ -77.06109, 38.788 ], [ -77.06157, 38.78703 ], [ -77.06253, 38.7872 ], [ -77.06244, 38.78846 ], [ -77.06371, 38.78892 ], [ -77.06496, 38.78732 ], [ -77.06581, 38.78778 ], [ -77.06935, 38.78515 ], [ -77.07248, 38.7838 ], [ -77.07281, 38.78269 ], [ -77.07215, 38.78086 ], [ -77.0717, 38.78131 ], [ -77.07089, 38.78113 ], [ -77.07036, 38.78228 ], [ -77.06957, 38.78224 ], [ -77.06934, 38.78319 ], [ -77.06744, 38.78293 ], [ -77.06672, 38.78413 ], [ -77.06527, 38.78353 ], [ -77.06485, 38.78272 ], [ -77.06347, 38.78267 ], [ -77.06381, 38.78169 ], [ -77.06277, 38.78158 ], [ -77.06206, 38.7825 ], [ -77.06154, 38.7825 ], [ -77.06116, 38.78221 ], [ -77.06134, 38.78146 ], [ -77.06061, 38.78088 ], [ -77.06088, 38.78008 ], [ -77.06138, 38.77995 ], [ -77.06193, 38.78031 ], [ -77.06256, 38.77927 ], [ -77.06351, 38.77944 ], [ -77.06351, 38.78012 ], [ -77.06584, 38.77995 ], [ -77.06689, 38.77894 ], [ -77.06586, 38.77839 ], [ -77.06684, 38.77741 ], [ -77.06606, 38.77727 ], [ -77.06462, 38.7786 ], [ -77.06353, 38.77854 ], [ -77.06329, 38.77817 ], [ -77.06704, 38.77409 ], [ -77.06686, 38.7731 ], [ -77.0662, 38.77349 ], [ -77.06544, 38.77301 ], [ -77.06614, 38.77216 ], [ -77.06818, 38.77153 ], [ -77.06757, 38.77064 ], [ -77.06783, 38.77027 ], [ -77.06833, 38.77015 ], [ -77.0695, 38.77118 ], [ -77.07037, 38.7711 ], [ -77.07073, 38.77141 ], [ -77.0707, 38.77182 ], [ -77.06988, 38.77222 ], [ -77.07049, 38.77715 ], [ -77.07319, 38.77636 ], [ -77.07258, 38.77606 ], [ -77.07272, 38.7753 ], [ -77.07445, 38.77513 ], [ -77.07492, 38.77443 ], [ -77.07576, 38.77421 ], [ -77.07444, 38.77094 ], [ -77.0736, 38.77118 ], [ -77.07314, 38.77214 ], [ -77.07225, 38.77156 ], [ -77.07155, 38.77159 ], [ -77.07121, 38.77087 ], [ -77.07503, 38.76978 ], [ -77.08045, 38.77148 ], [ -77.08052, 38.77097 ], [ -77.07789, 38.77006 ], [ -77.07552, 38.76982 ], [ -77.07483, 38.76928 ], [ -77.07503, 38.7689 ], [ -77.07675, 38.76857 ], [ -77.07631, 38.76792 ], [ -77.07682, 38.76723 ], [ -77.07893, 38.76727 ], [ -77.07987, 38.76667 ], [ -77.08078, 38.76695 ], [ -77.08173, 38.76564 ], [ -77.08263, 38.76594 ], [ -77.08269, 38.7667 ], [ -77.0836, 38.76538 ], [ -77.08428, 38.7654 ], [ -77.0847, 38.76598 ], [ -77.08564, 38.76623 ], [ -77.08551, 38.76699 ], [ -77.08423, 38.76702 ], [ -77.08654, 38.76743 ], [ -77.08654, 38.76968 ], [ -77.08981, 38.77027 ], [ -77.0914, 38.77338 ], [ -77.09303, 38.77304 ], [ -77.09323, 38.77222 ], [ -77.09372, 38.77206 ], [ -77.09441, 38.77275 ] ], [ [ -77.07906, 38.79745 ], [ -77.07909, 38.79741 ], [ -77.07907, 38.79736 ], [ -77.07906, 38.79745 ] ], [ [ -77.07973, 38.78571 ], [ -77.0801, 38.78501 ], [ -77.07868, 38.78451 ], [ -77.0785, 38.7854 ], [ -77.07973, 38.78571 ] ], [ [ -77.0791, 38.78348 ], [ -77.08107, 38.78418 ], [ -77.07916, 38.78331 ], [ -77.0791, 38.78348 ] ], [ [ -77.07873, 38.77915 ], [ -77.07836, 38.77998 ], [ -77.0775, 38.78034 ], [ -77.07704, 38.77966 ], [ -77.07736, 38.77884 ], [ -77.07442, 38.77819 ], [ -77.07313, 38.77927 ], [ -77.07251, 38.77868 ], [ -77.07283, 38.77826 ], [ -77.07257, 38.77772 ], [ -77.07066, 38.77825 ], [ -77.07103, 38.77915 ], [ -77.07344, 38.78032 ], [ -77.07474, 38.77978 ], [ -77.07739, 38.78133 ], [ -77.07812, 38.78075 ], [ -77.07873, 38.77915 ] ], [ [ -77.07865, 38.77725 ], [ -77.07884, 38.77724 ], [ -77.07844, 38.77733 ], [ -77.07865, 38.77725 ] ], [ [ -77.07954, 38.77489 ], [ -77.07995, 38.7749 ], [ -77.08025, 38.77363 ], [ -77.07988, 38.77351 ], [ -77.07938, 38.77395 ], [ -77.07954, 38.77489 ] ], [ [ -77.08597, 38.79389 ], [ -77.08621, 38.79324 ], [ -77.08527, 38.79331 ], [ -77.08531, 38.79381 ], [ -77.08597, 38.79389 ] ], [ [ -77.08695, 38.79073 ], [ -77.08694, 38.79067 ], [ -77.0869, 38.79077 ], [ -77.08695, 38.79073 ] ], [ [ -77.08462, 38.79059 ], [ -77.0868, 38.78827 ], [ -77.08672, 38.78765 ], [ -77.08597, 38.78755 ], [ -77.08517, 38.78891 ], [ -77.08347, 38.78839 ], [ -77.08292, 38.7886 ], [ -77.08462, 38.79059 ] ], [ [ -77.08701, 38.78547 ], [ -77.08584, 38.78451 ], [ -77.0856, 38.78464 ], [ -77.08567, 38.78498 ], [ -77.08701, 38.78547 ] ], [ [ -77.08547, 38.78373 ], [ -77.08592, 38.78322 ], [ -77.08538, 38.78309 ], [ -77.08547, 38.78373 ] ], [ [ -77.08396, 38.78282 ], [ -77.08388, 38.7826 ], [ -77.08353, 38.78288 ], [ -77.08396, 38.78282 ] ], [ [ -77.08259, 38.78262 ], [ -77.0828, 38.78172 ], [ -77.08085, 38.78098 ], [ -77.07969, 38.7817 ], [ -77.07959, 38.78226 ], [ -77.08038, 38.78261 ], [ -77.08118, 38.78185 ], [ -77.08231, 38.78222 ], [ -77.08208, 38.7835 ], [ -77.08299, 38.78339 ], [ -77.08344, 38.78292 ], [ -77.08259, 38.78262 ] ], [ [ -77.0842, 38.78129 ], [ -77.08522, 38.78026 ], [ -77.08639, 38.77993 ], [ -77.08644, 38.77914 ], [ -77.08758, 38.77814 ], [ -77.08738, 38.77743 ], [ -77.08701, 38.77802 ], [ -77.08651, 38.77815 ], [ -77.0858, 38.77775 ], [ -77.08401, 38.77892 ], [ -77.08437, 38.78016 ], [ -77.08368, 38.78088 ], [ -77.0842, 38.78129 ] ], [ [ -77.08285, 38.77783 ], [ -77.08285, 38.77828 ], [ -77.08351, 38.77784 ], [ -77.08285, 38.77783 ] ], [ [ -77.08105, 38.77703 ], [ -77.08405, 38.77676 ], [ -77.08443, 38.7751 ], [ -77.08159, 38.77469 ], [ -77.08105, 38.77703 ] ], [ [ -77.08204, 38.77365 ], [ -77.08544, 38.77385 ], [ -77.08543, 38.7735 ], [ -77.08435, 38.77324 ], [ -77.08418, 38.77279 ], [ -77.0847, 38.77221 ], [ -77.0856, 38.77224 ], [ -77.08566, 38.77187 ], [ -77.08468, 38.77158 ], [ -77.08456, 38.77117 ], [ -77.08553, 38.77067 ], [ -77.08266, 38.77037 ], [ -77.08204, 38.77365 ] ], [ [ -77.08287, 38.7693 ], [ -77.08325, 38.76898 ], [ -77.08308, 38.76892 ], [ -77.08287, 38.7693 ] ], [ [ -77.09079, 38.79187 ], [ -77.0913, 38.79111 ], [ -77.09076, 38.79107 ], [ -77.09079, 38.79187 ] ], [ [ -77.09013, 38.79 ], [ -77.09144, 38.79003 ], [ -77.09053, 38.78952 ], [ -77.08963, 38.78804 ], [ -77.08979, 38.78874 ], [ -77.08935, 38.78938 ], [ -77.08841, 38.78916 ], [ -77.08837, 38.7887 ], [ -77.08755, 38.78918 ], [ -77.09013, 38.79 ] ], [ [ -77.09075, 38.78143 ], [ -77.09136, 38.78223 ], [ -77.09224, 38.78184 ], [ -77.09263, 38.78117 ], [ -77.09369, 38.78135 ], [ -77.09377, 38.78066 ], [ -77.09465, 38.78038 ], [ -77.09392, 38.77713 ], [ -77.09342, 38.77708 ], [ -77.09265, 38.77807 ], [ -77.09215, 38.77796 ], [ -77.09187, 38.77722 ], [ -77.09117, 38.77697 ], [ -77.09067, 38.77731 ], [ -77.091, 38.77858 ], [ -77.09048, 38.77978 ], [ -77.09135, 38.77987 ], [ -77.09146, 38.78063 ], [ -77.09045, 38.78141 ], [ -77.08972, 38.78092 ], [ -77.08878, 38.78099 ], [ -77.08891, 38.78177 ], [ -77.08961, 38.78191 ], [ -77.08994, 38.78255 ], [ -77.09025, 38.78156 ], [ -77.09075, 38.78143 ] ], [ [ -77.0894, 38.77986 ], [ -77.08939, 38.77903 ], [ -77.08859, 38.77903 ], [ -77.08867, 38.77991 ], [ -77.0894, 38.77986 ] ], [ [ -77.08686, 38.77469 ], [ -77.08705, 38.77522 ], [ -77.08691, 38.7756 ], [ -77.08744, 38.77521 ], [ -77.08686, 38.77469 ] ], [ [ -77.08642, 38.77581 ], [ -77.08625, 38.77604 ], [ -77.08686, 38.77564 ], [ -77.08642, 38.77581 ] ], [ [ -77.09524, 38.78703 ], [ -77.09477, 38.78676 ], [ -77.09414, 38.78674 ], [ -77.09524, 38.78703 ] ], [ [ -77.0928, 38.78667 ], [ -77.09212, 38.78698 ], [ -77.09304, 38.78667 ], [ -77.0928, 38.78667 ] ], [ [ -77.09118, 38.78573 ], [ -77.0912, 38.78617 ], [ -77.09154, 38.78596 ], [ -77.09118, 38.78573 ] ], [ [ -77.08935, 38.77549 ], [ -77.0895, 38.77525 ], [ -77.08958, 38.77517 ], [ -77.08935, 38.77549 ] ], [ [ -77.09012, 38.77491 ], [ -77.09045, 38.7749 ], [ -77.09066, 38.77493 ], [ -77.09055, 38.77469 ], [ -77.09012, 38.77491 ] ], [ [ -77.08879, 38.77101 ], [ -77.08821, 38.77095 ], [ -77.08885, 38.77138 ], [ -77.09006, 38.77368 ], [ -77.08879, 38.77101 ] ], [ [ -77.09736, 38.7828 ], [ -77.09737, 38.78279 ], [ -77.09736, 38.78279 ], [ -77.09736, 38.7828 ] ], [ [ -77.09712, 38.78382 ], [ -77.09717, 38.78359 ], [ -77.09691, 38.78363 ], [ -77.09712, 38.78382 ] ], [ [ -77.09588, 38.78377 ], [ -77.09589, 38.78355 ], [ -77.09587, 38.78379 ], [ -77.09588, 38.78377 ] ], [ [ -77.09275, 38.78226 ], [ -77.09284, 38.78224 ], [ -77.09276, 38.78222 ], [ -77.09275, 38.78226 ] ], [ [ -77.09034, 38.77628 ], [ -77.0904, 38.77628 ], [ -77.09038, 38.77624 ], [ -77.09034, 38.77628 ] ], [ [ -77.09174, 38.77595 ], [ -77.09175, 38.77595 ], [ -77.0918, 38.77599 ], [ -77.09174, 38.77595 ] ], [ [ -77.09467, 38.78147 ], [ -77.09452, 38.78156 ], [ -77.09476, 38.78148 ], [ -77.09467, 38.78147 ] ], [ [ -77.09192, 38.78418 ], [ -77.0919, 38.78421 ], [ -77.09193, 38.78422 ], [ -77.09192, 38.78418 ] ], [ [ -77.09725, 38.79104 ], [ -77.09631, 38.78841 ], [ -77.09499, 38.78937 ], [ -77.09605, 38.79104 ], [ -77.09725, 38.79104 ] ], [ [ -77.09374, 38.78992 ], [ -77.09313, 38.79059 ], [ -77.09257, 38.79093 ], [ -77.09301, 38.79102 ], [ -77.09403, 38.79017 ], [ -77.09374, 38.78992 ] ], [ [ -77.09554, 38.78775 ], [ -77.0948, 38.78813 ], [ -77.09565, 38.78792 ], [ -77.09554, 38.78775 ] ], [ [ -77.09364, 38.78885 ], [ -77.09364, 38.78876 ], [ -77.09344, 38.78887 ], [ -77.09364, 38.78885 ] ], [ [ -77.09153, 38.78855 ], [ -77.09154, 38.78857 ], [ -77.09156, 38.78854 ], [ -77.09153, 38.78855 ] ], [ [ -77.09468, 38.79116 ], [ -77.0946, 38.79121 ], [ -77.09468, 38.79119 ], [ -77.09468, 38.79116 ] ], [ [ -77.08845, 38.7736 ], [ -77.08831, 38.77369 ], [ -77.08851, 38.77374 ], [ -77.08845, 38.7736 ] ], [ [ -77.08844, 38.79242 ], [ -77.08809, 38.79245 ], [ -77.0881, 38.79247 ], [ -77.08844, 38.79242 ] ], [ [ -77.08714, 38.78413 ], [ -77.08724, 38.78332 ], [ -77.08689, 38.7833 ], [ -77.08696, 38.78334 ], [ -77.08714, 38.78413 ] ], [ [ -77.08608, 38.78215 ], [ -77.08647, 38.78218 ], [ -77.08643, 38.782 ], [ -77.08608, 38.78215 ] ], [ [ -77.08851, 38.78443 ], [ -77.08878, 38.78378 ], [ -77.08862, 38.78342 ], [ -77.08851, 38.78443 ] ], [ [ -77.08883, 38.78655 ], [ -77.08821, 38.78676 ], [ -77.08812, 38.78755 ], [ -77.08905, 38.78706 ], [ -77.08883, 38.78655 ] ], [ [ -77.08821, 38.79355 ], [ -77.08744, 38.79375 ], [ -77.08717, 38.79457 ], [ -77.08835, 38.79465 ], [ -77.08892, 38.79431 ], [ -77.08821, 38.79355 ] ], [ [ -77.08532, 38.76823 ], [ -77.08509, 38.76848 ], [ -77.08516, 38.7685 ], [ -77.08532, 38.76823 ] ], [ [ -77.08448, 38.76947 ], [ -77.08457, 38.76948 ], [ -77.0845, 38.76945 ], [ -77.08448, 38.76947 ] ], [ [ -77.08673, 38.79931 ], [ -77.08674, 38.79934 ], [ -77.08674, 38.79931 ], [ -77.08673, 38.79931 ] ], [ [ -77.08372, 38.79729 ], [ -77.08442, 38.79588 ], [ -77.08354, 38.79544 ], [ -77.0838, 38.79444 ], [ -77.08218, 38.79686 ], [ -77.08246, 38.7975 ], [ -77.08372, 38.79729 ] ], [ [ -77.0828, 38.7933 ], [ -77.08281, 38.79323 ], [ -77.08273, 38.79326 ], [ -77.0828, 38.7933 ] ], [ [ -77.08372, 38.79204 ], [ -77.08405, 38.7916 ], [ -77.08341, 38.7915 ], [ -77.08372, 38.79204 ] ], [ [ -77.08243, 38.79125 ], [ -77.0827, 38.79135 ], [ -77.08273, 38.79134 ], [ -77.08243, 38.79125 ] ], [ [ -77.08132, 38.78964 ], [ -77.08244, 38.78843 ], [ -77.0823, 38.78789 ], [ -77.08118, 38.78938 ], [ -77.08132, 38.78964 ] ], [ [ -77.08299, 38.78694 ], [ -77.08308, 38.78686 ], [ -77.08289, 38.78686 ], [ -77.08299, 38.78694 ] ], [ [ -77.08354, 38.78579 ], [ -77.08351, 38.78581 ], [ -77.08356, 38.78581 ], [ -77.08354, 38.78579 ] ], [ [ -77.08329, 38.78402 ], [ -77.08332, 38.78412 ], [ -77.08329, 38.78401 ], [ -77.08329, 38.78402 ] ], [ [ -77.08578, 38.79644 ], [ -77.08577, 38.79641 ], [ -77.08573, 38.79644 ], [ -77.08578, 38.79644 ] ], [ [ -77.0827, 38.78573 ], [ -77.08261, 38.78578 ], [ -77.08276, 38.78578 ], [ -77.0827, 38.78573 ] ], [ [ -77.08146, 38.77889 ], [ -77.08147, 38.77812 ], [ -77.0807, 38.77854 ], [ -77.08022, 38.77999 ], [ -77.08146, 38.77889 ] ], [ [ -77.08148, 38.79389 ], [ -77.08092, 38.79423 ], [ -77.08181, 38.7947 ], [ -77.08212, 38.79425 ], [ -77.08148, 38.79389 ] ], [ [ -77.07486, 38.78591 ], [ -77.07486, 38.78596 ], [ -77.07489, 38.78594 ], [ -77.07486, 38.78591 ] ], [ [ -77.07737, 38.79111 ], [ -77.07782, 38.79118 ], [ -77.0776, 38.79006 ], [ -77.07714, 38.78986 ], [ -77.07737, 38.79111 ] ], [ [ -77.07703, 38.78344 ], [ -77.0771, 38.78346 ], [ -77.07693, 38.78343 ], [ -77.07703, 38.78344 ] ], [ [ -77.07556, 38.78258 ], [ -77.07464, 38.78183 ], [ -77.07392, 38.78144 ], [ -77.07414, 38.78302 ], [ -77.07556, 38.78258 ] ], [ [ -77.07447, 38.77691 ], [ -77.07696, 38.77762 ], [ -77.07707, 38.77716 ], [ -77.07447, 38.77691 ] ], [ [ -77.07461, 38.77583 ], [ -77.07465, 38.77584 ], [ -77.07462, 38.77581 ], [ -77.07461, 38.77583 ] ], [ [ -77.07736, 38.77602 ], [ -77.07688, 38.77605 ], [ -77.07734, 38.77609 ], [ -77.07736, 38.77602 ] ], [ [ -77.07715, 38.77403 ], [ -77.07678, 38.77199 ], [ -77.07739, 38.77162 ], [ -77.07598, 38.77114 ], [ -77.07715, 38.77403 ] ], [ [ -77.07606, 38.78518 ], [ -77.07599, 38.78527 ], [ -77.07605, 38.7853 ], [ -77.07606, 38.78518 ] ], [ [ -77.06653, 38.78933 ], [ -77.06726, 38.78961 ], [ -77.06711, 38.78852 ], [ -77.06506, 38.78978 ], [ -77.06569, 38.79013 ], [ -77.06653, 38.78933 ] ], [ [ -77.06752, 38.78991 ], [ -77.06737, 38.78976 ], [ -77.06732, 38.78999 ], [ -77.06752, 38.78991 ] ], [ [ -77.06374, 38.79095 ], [ -77.06422, 38.79117 ], [ -77.06442, 38.79089 ], [ -77.06406, 38.7907 ], [ -77.06374, 38.79095 ] ], [ [ -77.06723, 38.77606 ], [ -77.06697, 38.77632 ], [ -77.06736, 38.77614 ], [ -77.06723, 38.77606 ] ] ] } },
{ "type": "Feature", "properties": { "variant": "T2s", "miles": 0.5 }, "geometry": { "type": "Polygon", "coordinates": [ [ [ -77.08134, 38.77996 ], [ -77.08125, 38.78072 ], [ -77.07969, 38.7817 ], [ -77.07959, 38.78226 ], [ -77.08038, 38.78261 ], [ -77.08118, 38.78185 ], [ -77.08231, 38.78222 ], [ -77.08191, 38.78432 ], [ -77.08275, 38.78493 ], [ -77.08379, 38.78448 ], [ -77.08427, 38.78466 ], [ -77.08523, 38.7859 ], [ -77.08469, 38.78659 ], [ -77.08599, 38.78749 ], [ -77.08517, 38.78891 ], [ -77.08347, 38.78839 ], [ -77.0826, 38.78858 ], [ -77.08223, 38.78757 ], [ -77.08157, 38.78806 ], [ -77.08118, 38.78938 ], [ -77.08143, 38.79066 ], [ -77.0802, 38.79084 ], [ -77.07897, 38.78995 ], [ -77.07919, 38.79102 ], [ -77.07861, 38.79164 ], [ -77.0781, 38.79154 ], [ -77.0776, 38.79006 ], [ -77.07714, 38.78986 ], [ -77.07705, 38.79086 ], [ -77.07633, 38.79103 ], [ -77.07568, 38.79051 ], [ -77.07596, 38.78887 ], [ -77.07716, 38.78686 ], [ -77.07707, 38.78471 ], [ -77.07376, 38.78428 ], [ -77.07336, 38.78349 ], [ -77.07556, 38.78258 ], [ -77.07397, 38.78129 ], [ -77.07479, 38.77997 ], [ -77.07669, 38.78066 ], [ -77.07739, 38.78133 ], [ -77.07855, 38.78009 ], [ -77.07966, 38.78034 ], [ -77.08088, 38.77977 ], [ -77.08134, 38.77996 ] ], [ [ -77.07854, 38.7854 ], [ -77.07973, 38.78571 ], [ -77.08017, 38.78513 ], [ -77.07868, 38.78451 ], [ -77.07854, 38.7854 ] ], [ [ -77.08107, 38.78418 ], [ -77.0808, 38.78405 ], [ -77.07916, 38.78331 ], [ -77.0791, 38.78348 ], [ -77.08107, 38.78418 ] ], [ [ -77.08258, 38.78686 ], [ -77.08239, 38.78711 ], [ -77.08308, 38.78686 ], [ -77.08258, 38.78686 ] ], [ [ -77.0827, 38.78573 ], [ -77.08259, 38.78578 ], [ -77.08276, 38.78578 ], [ -77.0827, 38.78573 ] ], [ [ -77.08351, 38.78581 ], [ -77.08356, 38.78581 ], [ -77.08354, 38.78579 ], [ -77.08351, 38.78581 ] ], [ [ -77.07702, 38.78339 ], [ -77.07703, 38.78344 ], [ -77.0771, 38.78346 ], [ -77.07702, 38.78339 ] ] ] } },
{ "type": "Feature", "properties": { "variant": "T2s", "miles": 1.0 }, "geometry": { "type": "MultiPolygon", "coordinates": [ [ [ [ -77.08909, 38.77527 ], [ -77.08701, 38.77802 ], [ -77.08651, 38.77815 ], [ -77.0858, 38.77775 ], [ -77.08401, 38.77892 ], [ -77.08437, 38.78016 ], [ -77.08368, 38.78088 ], [ -77.08513, 38.78211 ], [ -77.08547, 38.78373 ], [ -77.08656, 38.78308 ], [ -77.08714, 38.78413 ], [ -77.08744, 38.78016 ], [ -77.08842, 38.78009 ], [ -77.08891, 38.78177 ], [ -77.08961, 38.78191 ], [ -77.08994, 38.78255 ], [ -77.09025, 38.78156 ], [ -77.09122, 38.78162 ], [ -77.09136, 38.78223 ], [ -77.09244, 38.78186 ], [ -77.09268, 38.78261 ], [ -77.09119, 38.78491 ], [ -77.09116, 38.7863 ], [ -77.08993, 38.78741 ], [ -77.08941, 38.78738 ], [ -77.08883, 38.78655 ], [ -77.08821, 38.78676 ], [ -77.08781, 38.78826 ], [ -77.0873, 38.78837 ], [ -77.08672, 38.78765 ], [ -77.08597, 38.78755 ], [ -77.08517, 38.78891 ], [ -77.08347, 38.78839 ], [ -77.0826, 38.78858 ], [ -77.0823, 38.78789 ], [ -77.08118, 38.78938 ], [ -77.08161, 38.79272 ], [ -77.08149, 38.79387 ], [ -77.08092, 38.79423 ], [ -77.0818, 38.79469 ], [ -77.08195, 38.79529 ], [ -77.08094, 38.79671 ], [ -77.07943, 38.79715 ], [ -77.07552, 38.79163 ], [ -77.07462, 38.79166 ], [ -77.07417, 38.79093 ], [ -77.07322, 38.79059 ], [ -77.07311, 38.78831 ], [ -77.07347, 38.78783 ], [ -77.07159, 38.78689 ], [ -77.0719, 38.78545 ], [ -77.06914, 38.7872 ], [ -77.06905, 38.78868 ], [ -77.06861, 38.7889 ], [ -77.06639, 38.78808 ], [ -77.0664, 38.78732 ], [ -77.06855, 38.78563 ], [ -77.07248, 38.7838 ], [ -77.07281, 38.78272 ], [ -77.07246, 38.78113 ], [ -77.06995, 38.77983 ], [ -77.06949, 38.77862 ], [ -77.07045, 38.77846 ], [ -77.0711, 38.77919 ], [ -77.07344, 38.78032 ], [ -77.0746, 38.77975 ], [ -77.07739, 38.78133 ], [ -77.07812, 38.78075 ], [ -77.07873, 38.77915 ], [ -77.07836, 38.77998 ], [ -77.0775, 38.78034 ], [ -77.07704, 38.77966 ], [ -77.07736, 38.77884 ], [ -77.07442, 38.77819 ], [ -77.07313, 38.77927 ], [ -77.07251, 38.77868 ], [ -77.07283, 38.77826 ], [ -77.07247, 38.77675 ], [ -77.07294, 38.77656 ], [ -77.0738, 38.77721 ], [ -77.07696, 38.77762 ], [ -77.07736, 38.77602 ], [ -77.07625, 38.77593 ], [ -77.07618, 38.77516 ], [ -77.07995, 38.7749 ], [ -77.08071, 38.77228 ], [ -77.08149, 38.77182 ], [ -77.08207, 38.77243 ], [ -77.08105, 38.77703 ], [ -77.08405, 38.77676 ], [ -77.08431, 38.77587 ], [ -77.08551, 38.77498 ], [ -77.08601, 38.7751 ], [ -77.08625, 38.77604 ], [ -77.08841, 38.77472 ], [ -77.08909, 38.77527 ] ], [ [ -77.0785, 38.7854 ], [ -77.07973, 38.78571 ], [ -77.08015, 38.78509 ], [ -77.07868, 38.78451 ], [ -77.0785, 38.7854 ] ], [ [ -77.0791, 38.78348 ], [ -77.08107, 38.78418 ], [ -77.07916, 38.78331 ], [ -77.0791, 38.78348 ] ], [ [ -77.07865, 38.77725 ], [ -77.07884, 38.77724 ], [ -77.07844, 38.77733 ], [ -77.07865, 38.77725 ] ], [ [ -77.08022, 38.77999 ], [ -77.08146, 38.77919 ], [ -77.08147, 38.77812 ], [ -77.0807, 38.77854 ], [ -77.08022, 38.77999 ] ], [ [ -77.08285, 38.77828 ], [ -77.08351, 38.77784 ], [ -77.08285, 38.77783 ], [ -77.08285, 38.77828 ] ], [ [ -77.08351, 38.78581 ], [ -77.08356, 38.78581 ], [ -77.08354, 38.78579 ], [ -77.08351, 38.78581 ] ], [ [ -77.08344, 38.78292 ], [ -77.08259, 38.78262 ], [ -77.0828, 38.78172 ], [ -77.08085, 38.78098 ], [ -77.07969, 38.7817 ], [ -77.07959, 38.78226 ], [ -77.08038, 38.78261 ], [ -77.08118, 38.78185 ], [ -77.08231, 38.78222 ], [ -77.08208, 38.7835 ], [ -77.08299, 38.78339 ], [ -77.08344, 38.78292 ] ], [ [ -77.08396, 38.78282 ], [ -77.08388, 38.7826 ], [ -77.08353, 38.78288 ], [ -77.08396, 38.78282 ] ], [ [ -77.08701, 38.78547 ], [ -77.08584, 38.78451 ], [ -77.0856, 38.78464 ], [ -77.08567, 38.78498 ], [ -77.08701, 38.78547 ] ], [ [ -77.08862, 38.78342 ], [ -77.08851, 38.78443 ], [ -77.08872, 38.78343 ], [ -77.08862, 38.78342 ] ], [ [ -77.08299, 38.78695 ], [ -77.08308, 38.78686 ], [ -77.08289, 38.78686 ], [ -77.08299, 38.78695 ] ], [ [ -77.08329, 38.78407 ], [ -77.08329, 38.78401 ], [ -77.08332, 38.78412 ], [ -77.08329, 38.78407 ] ], [ [ -77.08261, 38.78578 ], [ -77.08276, 38.78578 ], [ -77.0827, 38.78573 ], [ -77.08261, 38.78578 ] ], [ [ -77.07729, 38.7911 ], [ -77.07782, 38.79118 ], [ -77.0776, 38.79006 ], [ -77.07714, 38.78986 ], [ -77.07729, 38.7911 ] ], [ [ -77.07486, 38.78596 ], [ -77.07489, 38.78594 ], [ -77.07486, 38.78591 ], [ -77.07486, 38.78596 ] ], [ [ -77.0754, 38.78264 ], [ -77.07464, 38.78183 ], [ -77.07392, 38.78144 ], [ -77.07414, 38.78302 ], [ -77.0754, 38.78264 ] ], [ [ -77.07703, 38.78344 ], [ -77.0771, 38.78346 ], [ -77.07693, 38.78343 ], [ -77.07703, 38.78344 ] ], [ [ -77.07606, 38.78518 ], [ -77.07599, 38.78527 ], [ -77.07605, 38.7853 ], [ -77.07606, 38.78518 ] ] ], [ [ [ -77.08563, 38.79101 ], [ -77.08541, 38.79192 ], [ -77.08604, 38.79264 ], [ -77.08517, 38.79299 ], [ -77.08375, 38.7924 ], [ -77.08405, 38.7916 ], [ -77.08299, 38.79127 ], [ -77.08289, 38.79087 ], [ -77.0837, 38.79045 ], [ -77.08471, 38.7906 ], [ -77.08563, 38.79101 ] ] ] ] } },
{ "type": "Feature", "properties": { "variant": "T2s", "miles": 1.5 }, "geometry": { "type": "Polygon", "coordinates": [ [ [ -77.08908, 38.76995 ], [ -77.09001, 38.7705 ], [ -77.0914, 38.77338 ], [ -77.09303, 38.77304 ], [ -77.09323, 38.77222 ], [ -77.09372, 38.77206 ], [ -77.09441, 38.77275 ], [ -77.09602, 38.7724 ], [ -77.09687, 38.77279 ], [ -77.09638, 38.77345 ], [ -77.0941, 38.77393 ], [ -77.09444, 38.77456 ], [ -77.09398, 38.77528 ], [ -77.09304, 38.77505 ], [ -77.0926, 38.77425 ], [ -77.09188, 38.7744 ], [ -77.09377, 38.776 ], [ -77.09508, 38.77645 ], [ -77.09563, 38.77956 ], [ -77.09651, 38.77984 ], [ -77.09654, 38.78063 ], [ -77.09781, 38.78097 ], [ -77.09759, 38.78173 ], [ -77.09892, 38.78207 ], [ -77.09904, 38.78247 ], [ -77.09875, 38.78282 ], [ -77.09736, 38.78279 ], [ -77.09725, 38.78357 ], [ -77.09589, 38.78355 ], [ -77.09563, 38.78404 ], [ -77.0946, 38.78419 ], [ -77.09461, 38.786 ], [ -77.09223, 38.7862 ], [ -77.09118, 38.78573 ], [ -77.0911, 38.78641 ], [ -77.09039, 38.78679 ], [ -77.09121, 38.78807 ], [ -77.09092, 38.7888 ], [ -77.09039, 38.78883 ], [ -77.08963, 38.78804 ], [ -77.08979, 38.78874 ], [ -77.08935, 38.78938 ], [ -77.08841, 38.78916 ], [ -77.08837, 38.7887 ], [ -77.08755, 38.78918 ], [ -77.0903, 38.7903 ], [ -77.09079, 38.79187 ], [ -77.09182, 38.79092 ], [ -77.09318, 38.79107 ], [ -77.0945, 38.79184 ], [ -77.09395, 38.79247 ], [ -77.09091, 38.79296 ], [ -77.09098, 38.79435 ], [ -77.08876, 38.79571 ], [ -77.08681, 38.79577 ], [ -77.08583, 38.79513 ], [ -77.08521, 38.79568 ], [ -77.08382, 38.79579 ], [ -77.0838, 38.79444 ], [ -77.08218, 38.79686 ], [ -77.08246, 38.7975 ], [ -77.08372, 38.79729 ], [ -77.08393, 38.79658 ], [ -77.08491, 38.79659 ], [ -77.08492, 38.79816 ], [ -77.08601, 38.7982 ], [ -77.08667, 38.79876 ], [ -77.08567, 38.79927 ], [ -77.08566, 38.79989 ], [ -77.08471, 38.80007 ], [ -77.08423, 38.79921 ], [ -77.08223, 38.79925 ], [ -77.08133, 38.79818 ], [ -77.07915, 38.8001 ], [ -77.07818, 38.80019 ], [ -77.07806, 38.79943 ], [ -77.07884, 38.79869 ], [ -77.07458, 38.79664 ], [ -77.0746, 38.79475 ], [ -77.07587, 38.79408 ], [ -77.07654, 38.79326 ], [ -77.07551, 38.79289 ], [ -77.07552, 38.79163 ], [ -77.07462, 38.79166 ], [ -77.07417, 38.79093 ], [ -77.07322, 38.79059 ], [ -77.07311, 38.78831 ], [ -77.07347, 38.78783 ], [ -77.07159, 38.78689 ], [ -77.0719, 38.78545 ], [ -77.06914, 38.7872 ], [ -77.07028, 38.78826 ], [ -77.07149, 38.78801 ], [ -77.0725, 38.78854 ], [ -77.07249, 38.78909 ], [ -77.07176, 38.78958 ], [ -77.07176, 38.79078 ], [ -77.071, 38.79101 ], [ -77.07004, 38.79061 ], [ -77.06922, 38.79111 ], [ -77.06737, 38.78976 ], [ -77.06713, 38.79034 ], [ -77.06866, 38.79089 ], [ -77.06826, 38.79205 ], [ -77.06883, 38.79277 ], [ -77.06861, 38.79314 ], [ -77.06798, 38.79333 ], [ -77.06681, 38.79254 ], [ -77.06583, 38.79343 ], [ -77.06505, 38.79306 ], [ -77.06443, 38.79368 ], [ -77.06391, 38.79364 ], [ -77.06353, 38.79294 ], [ -77.06278, 38.7926 ], [ -77.06048, 38.79364 ], [ -77.06022, 38.79281 ], [ -77.06206, 38.79159 ], [ -77.05905, 38.79217 ], [ -77.05828, 38.79169 ], [ -77.05962, 38.79039 ], [ -77.06028, 38.78813 ], [ -77.06209, 38.78782 ], [ -77.06221, 38.78885 ], [ -77.06371, 38.78892 ], [ -77.06496, 38.78732 ], [ -77.06581, 38.78778 ], [ -77.06935, 38.78515 ], [ -77.07248, 38.7838 ], [ -77.07281, 38.78269 ], [ -77.07215, 38.78086 ], [ -77.0717, 38.78131 ], [ -77.07089, 38.78113 ], [ -77.07067, 38.78199 ], [ -77.06957, 38.78224 ], [ -77.06928, 38.78291 ], [ -77.06831, 38.78284 ], [ -77.06817, 38.78229 ], [ -77.06634, 38.78216 ], [ -77.06601, 38.78321 ], [ -77.06552, 38.78336 ], [ -77.06485, 38.78272 ], [ -77.06347, 38.78267 ], [ -77.06335, 38.78226 ], [ -77.06407, 38.7818 ], [ -77.06176, 38.78132 ], [ -77.0619, 38.78057 ], [ -77.06296, 38.78051 ], [ -77.06419, 38.7799 ], [ -77.06619, 38.77991 ], [ -77.06694, 38.77886 ], [ -77.06609, 38.77877 ], [ -77.06586, 38.77839 ], [ -77.06684, 38.77741 ], [ -77.06517, 38.77664 ], [ -77.06651, 38.77445 ], [ -77.06801, 38.77363 ], [ -77.06765, 38.77184 ], [ -77.06941, 38.7712 ], [ -77.07028, 38.77154 ], [ -77.06988, 38.77221 ], [ -77.07049, 38.77715 ], [ -77.07319, 38.77636 ], [ -77.07258, 38.77606 ], [ -77.07272, 38.7753 ], [ -77.07445, 38.77513 ], [ -77.07492, 38.77443 ], [ -77.07576, 38.77421 ], [ -77.07444, 38.77094 ], [ -77.0725, 38.77131 ], [ -77.07219, 38.77058 ], [ -77.07259, 38.77031 ], [ -77.07544, 38.76982 ], [ -77.08045, 38.77148 ], [ -77.08052, 38.77097 ], [ -77.07803, 38.77011 ], [ -77.07503, 38.76966 ], [ -77.07503, 38.7689 ], [ -77.07675, 38.76857 ], [ -77.07631, 38.76792 ], [ -77.07665, 38.7676 ], [ -77.07853, 38.768 ], [ -77.07935, 38.76674 ], [ -77.08078, 38.76695 ], [ -77.08131, 38.7664 ], [ -77.08269, 38.7667 ], [ -77.08323, 38.76568 ], [ -77.08407, 38.76535 ], [ -77.08467, 38.76568 ], [ -77.08423, 38.76702 ], [ -77.08515, 38.76729 ], [ -77.08509, 38.76848 ], [ -77.08629, 38.76891 ], [ -77.08654, 38.76968 ], [ -77.08908, 38.76995 ] ], [ [ -77.08132, 38.78963 ], [ -77.08182, 38.78871 ], [ -77.08244, 38.78843 ], [ -77.0823, 38.78789 ], [ -77.08118, 38.78938 ], [ -77.08132, 38.78963 ] ], [ [ -77.07973, 38.78571 ], [ -77.0801, 38.78501 ], [ -77.07868, 38.78451 ], [ -77.0785, 38.7854 ], [ -77.07973, 38.78571 ] ], [ [ -77.0791, 38.78348 ], [ -77.08107, 38.78418 ], [ -77.07916, 38.78331 ], [ -77.0791, 38.78348 ] ], [ [ -77.08038, 38.78261 ], [ -77.08118, 38.78185 ], [ -77.08233, 38.78224 ], [ -77.08208, 38.7835 ], [ -77.08299, 38.78339 ], [ -77.08344, 38.78292 ], [ -77.08259, 38.78262 ], [ -77.0828, 38.78172 ], [ -77.08085, 38.78098 ], [ -77.07969, 38.7817 ], [ -77.07959, 38.78226 ], [ -77.08038, 38.78261 ] ], [ [ -77.07739, 38.78133 ], [ -77.07812, 38.78075 ], [ -77.07873, 38.77915 ], [ -77.07836, 38.77998 ], [ -77.0775, 38.78034 ], [ -77.07704, 38.77966 ], [ -77.07736, 38.77884 ], [ -77.07442, 38.77819 ], [ -77.07313, 38.77927 ], [ -77.07251, 38.77868 ], [ -77.07283, 38.77826 ], [ -77.07257, 38.77772 ], [ -77.07066, 38.77825 ], [ -77.07103, 38.77915 ], [ -77.07344, 38.78032 ], [ -77.07457, 38.77974 ], [ -77.07669, 38.78066 ], [ -77.07739, 38.78133 ] ], [ [ -77.07865, 38.77725 ], [ -77.07884, 38.77724 ], [ -77.07844, 38.77733 ], [ -77.07865, 38.77725 ] ], [ [ -77.07715, 38.77403 ], [ -77.07678, 38.77199 ], [ -77.07739, 38.77162 ], [ -77.07598, 38.77114 ], [ -77.07715, 38.77403 ] ], [ [ -77.08597, 38.79389 ], [ -77.08621, 38.79324 ], [ -77.08567, 38.79311 ], [ -77.08531, 38.79381 ], [ -77.08597, 38.79389 ] ], [ [ -77.08433, 38.79055 ], [ -77.0868, 38.78827 ], [ -77.08672, 38.78765 ], [ -77.08597, 38.78755 ], [ -77.08517, 38.78891 ], [ -77.08347, 38.78839 ], [ -77.08292, 38.7886 ], [ -77.08307, 38.78917 ], [ -77.08419, 38.7897 ], [ -77.08433, 38.79055 ] ], [ [ -77.08547, 38.78373 ], [ -77.08592, 38.78322 ], [ -77.08538, 38.78309 ], [ -77.08547, 38.78373 ] ], [ [ -77.0842, 38.78129 ], [ -77.08522, 38.78026 ], [ -77.08639, 38.77993 ], [ -77.08644, 38.77914 ], [ -77.08758, 38.77814 ], [ -77.08738, 38.77743 ], [ -77.08701, 38.77802 ], [ -77.08651, 38.77815 ], [ -77.0858, 38.77775 ], [ -77.08401, 38.77892 ], [ -77.08437, 38.78016 ], [ -77.08368, 38.78088 ], [ -77.0842, 38.78129 ] ], [ [ -77.08405, 38.77676 ], [ -77.08443, 38.7751 ], [ -77.08159, 38.77469 ], [ -77.08105, 38.77703 ], [ -77.08405, 38.77676 ] ], [ [ -77.08204, 38.77365 ], [ -77.08544, 38.77385 ], [ -77.08543, 38.7735 ], [ -77.08435, 38.77324 ], [ -77.08418, 38.77279 ], [ -77.0847, 38.77221 ], [ -77.0856, 38.77224 ], [ -77.08566, 38.77187 ], [ -77.08468, 38.77158 ], [ -77.08456, 38.77117 ], [ -77.08553, 38.77067 ], [ -77.08266, 38.77037 ], [ -77.08204, 38.77365 ] ], [ [ -77.0845, 38.76945 ], [ -77.08448, 38.76947 ], [ -77.08457, 38.76948 ], [ -77.0845, 38.76945 ] ], [ [ -77.08308, 38.76892 ], [ -77.08306, 38.76932 ], [ -77.08325, 38.76898 ], [ -77.08308, 38.76892 ] ], [ [ -77.08881, 38.78716 ], [ -77.08883, 38.78655 ], [ -77.08821, 38.78676 ], [ -77.08812, 38.78755 ], [ -77.08881, 38.78716 ] ], [ [ -77.08851, 38.78443 ], [ -77.08878, 38.78378 ], [ -77.08862, 38.78342 ], [ -77.08851, 38.78443 ] ], [ [ -77.0894, 38.77986 ], [ -77.08939, 38.77903 ], [ -77.08859, 38.77903 ], [ -77.08867, 38.77991 ], [ -77.0894, 38.77986 ] ], [ [ -77.08686, 38.77469 ], [ -77.08705, 38.77522 ], [ -77.08691, 38.7756 ], [ -77.08744, 38.77521 ], [ -77.08686, 38.77469 ] ], [ [ -77.08845, 38.7736 ], [ -77.08831, 38.77369 ], [ -77.08851, 38.77374 ], [ -77.08845, 38.7736 ] ], [ [ -77.09276, 38.78222 ], [ -77.09275, 38.78226 ], [ -77.09284, 38.78224 ], [ -77.09276, 38.78222 ] ], [ [ -77.0919, 38.78421 ], [ -77.09193, 38.78422 ], [ -77.09192, 38.78418 ], [ -77.0919, 38.78421 ] ], [ [ -77.09347, 38.77709 ], [ -77.09265, 38.77807 ], [ -77.09215, 38.77796 ], [ -77.09187, 38.77722 ], [ -77.09117, 38.77697 ], [ -77.09067, 38.77731 ], [ -77.091, 38.77858 ], [ -77.09048, 38.77978 ], [ -77.09135, 38.77987 ], [ -77.09146, 38.78063 ], [ -77.09045, 38.78141 ], [ -77.08972, 38.78092 ], [ -77.08878, 38.78099 ], [ -77.08891, 38.78177 ], [ -77.08961, 38.78191 ], [ -77.08994, 38.78255 ], [ -77.09025, 38.78156 ], [ -77.09122, 38.78162 ], [ -77.09136, 38.78223 ], [ -77.09224, 38.78184 ], [ -77.09263, 38.78117 ], [ -77.09369, 38.78135 ], [ -77.09377, 38.78066 ], [ -77.09465, 38.78038 ], [ -77.09392, 38.77713 ], [ -77.09347, 38.77709 ] ], [ [ -77.0904, 38.77628 ], [ -77.09038, 38.77624 ], [ -77.09032, 38.77629 ], [ -77.0904, 38.77628 ] ], [ [ -77.09055, 38.77469 ], [ -77.08997, 38.77495 ], [ -77.09066, 38.77493 ], [ -77.09055, 38.77469 ] ], [ [ -77.08821, 38.77095 ], [ -77.08891, 38.77147 ], [ -77.09006, 38.77368 ], [ -77.08879, 38.77101 ], [ -77.08821, 38.77095 ] ], [ [ -77.09174, 38.77595 ], [ -77.09175, 38.77595 ], [ -77.0918, 38.77599 ], [ -77.09174, 38.77595 ] ], [ [ -77.08943, 38.77535 ], [ -77.08925, 38.77539 ], [ -77.08935, 38.77549 ], [ -77.08943, 38.77535 ] ], [ [ -77.09467, 38.78147 ], [ -77.09451, 38.78156 ], [ -77.09476, 38.78148 ], [ -77.09467, 38.78147 ] ], [ [ -77.08892, 38.79431 ], [ -77.08845, 38.79352 ], [ -77.08773, 38.79355 ], [ -77.08717, 38.79457 ], [ -77.08835, 38.79465 ], [ -77.08892, 38.79431 ] ], [ [ -77.0881, 38.79247 ], [ -77.0883, 38.79242 ], [ -77.08809, 38.79245 ], [ -77.0881, 38.79247 ] ], [ [ -77.08686, 38.77564 ], [ -77.08625, 38.77592 ], [ -77.08625, 38.77604 ], [ -77.08648, 38.77589 ], [ -77.08686, 38.77564 ] ], [ [ -77.08701, 38.78547 ], [ -77.08584, 38.78451 ], [ -77.0856, 38.78464 ], [ -77.08567, 38.78498 ], [ -77.08701, 38.78547 ] ], [ [ -77.08714, 38.78413 ], [ -77.08724, 38.78332 ], [ -77.08689, 38.7833 ], [ -77.08714, 38.78413 ] ], [ [ -77.08647, 38.78218 ], [ -77.08643, 38.782 ], [ -77.08608, 38.78215 ], [ -77.08647, 38.78218 ] ], [ [ -77.0869, 38.79077 ], [ -77.08695, 38.79073 ], [ -77.08694, 38.79067 ], [ -77.0869, 38.79077 ] ], [ [ -77.08025, 38.77363 ], [ -77.07976, 38.77354 ], [ -77.07938, 38.77395 ], [ -77.07966, 38.77459 ], [ -77.07927, 38.77488 ], [ -77.07995, 38.7749 ], [ -77.08025, 38.77363 ] ], [ [ -77.08308, 38.78686 ], [ -77.08289, 38.78686 ], [ -77.08302, 38.78695 ], [ -77.08308, 38.78686 ] ], [ [ -77.0827, 38.78573 ], [ -77.08259, 38.78578 ], [ -77.08276, 38.78578 ], [ -77.0827, 38.78573 ] ], [ [ -77.08147, 38.77812 ], [ -77.0807, 38.77854 ], [ -77.08022, 38.77999 ], [ -77.08146, 38.77919 ], [ -77.08147, 38.77812 ] ], [ [ -77.08327, 38.78409 ], [ -77.08332, 38.78412 ], [ -77.08329, 38.78401 ], [ -77.08327, 38.78409 ] ], [ [ -77.08351, 38.77784 ], [ -77.08285, 38.77783 ], [ -77.08285, 38.77828 ], [ -77.08351, 38.77784 ] ], [ [ -77.08396, 38.78282 ], [ -77.08388, 38.7826 ], [ -77.08353, 38.78288 ], [ -77.08396, 38.78282 ] ], [ [ -77.08351, 38.78581 ], [ -77.08356, 38.78581 ], [ -77.08354, 38.78579 ], [ -77.08351, 38.78581 ] ], [ [ -77.0828, 38.7933 ], [ -77.08281, 38.79323 ], [ -77.08273, 38.79326 ], [ -77.0828, 38.7933 ] ], [ [ -77.08244, 38.79125 ], [ -77.0827, 38.79135 ], [ -77.08273, 38.79134 ], [ -77.08244, 38.79125 ] ], [ [ -77.08405, 38.7916 ], [ -77.08341, 38.7915 ], [ -77.08372, 38.79204 ], [ -77.08405, 38.7916 ] ], [ [ -77.08148, 38.79389 ], [ -77.08092, 38.79423 ], [ -77.08181, 38.7947 ], [ -77.08212, 38.79425 ], [ -77.08148, 38.79389 ] ], [ [ -77.07414, 38.78302 ], [ -77.07556, 38.78258 ], [ -77.07392, 38.78144 ], [ -77.07414, 38.78302 ] ], [ [ -77.07912, 38.79746 ], [ -77.07907, 38.79736 ], [ -77.07914, 38.79748 ], [ -77.07912, 38.79746 ] ], [ [ -77.0776, 38.79006 ], [ -77.07714, 38.78986 ], [ -77.07709, 38.79077 ], [ -77.07719, 38.7911 ], [ -77.07782, 38.79118 ], [ -77.0776, 38.79006 ] ], [ [ -77.07606, 38.78518 ], [ -77.07584, 38.78515 ], [ -77.07605, 38.7853 ], [ -77.07606, 38.78518 ] ], [ [ -77.07703, 38.78344 ], [ -77.0771, 38.78346 ], [ -77.07693, 38.78343 ], [ -77.07703, 38.78344 ] ], [ [ -77.07489, 38.78594 ], [ -77.07486, 38.78591 ], [ -77.07486, 38.78596 ], [ -77.07489, 38.78594 ] ], [ [ -77.07707, 38.77716 ], [ -77.07447, 38.77691 ], [ -77.07419, 38.77712 ], [ -77.07696, 38.77762 ], [ -77.07707, 38.77716 ] ], [ [ -77.07734, 38.77609 ], [ -77.07736, 38.77602 ], [ -77.07688, 38.77605 ], [ -77.07734, 38.77609 ] ], [ [ -77.07462, 38.77581 ], [ -77.07461, 38.77583 ], [ -77.07465, 38.77584 ], [ -77.07462, 38.77581 ] ], [ [ -77.06719, 38.78945 ], [ -77.06711, 38.78852 ], [ -77.06506, 38.78978 ], [ -77.06569, 38.79013 ], [ -77.06653, 38.78933 ], [ -77.06719, 38.78945 ] ], [ [ -77.06699, 38.77631 ], [ -77.06737, 38.77621 ], [ -77.06736, 38.77614 ], [ -77.06723, 38.77606 ], [ -77.06699, 38.77631 ] ], [ [ -77.06396, 38.79078 ], [ -77.06346, 38.79165 ], [ -77.06376, 38.79179 ], [ -77.06462, 38.791 ], [ -77.06396, 38.79078 ] ], [ [ -77.06143, 38.7891 ], [ -77.06137, 38.78908 ], [ -77.06137, 38.78911 ], [ -77.06143, 38.7891 ] ] ] } }
]
}
