{
"type": "FeatureCollection",
"name": "207",
"crs": { "type": "name", "properties": { "name": "urn:ogc:def:crs:OGC:1.3:CRS84" } },
"xy_coordinate_resolution": 1e-05,
"features": [
{ "type": "Feature", "properties": { "variant": "T0", "miles": 0.5 }, "geometry": { "type": "Polygon", "coordinates": [ [ [ -77.07682, 38.76423 ], [ -77.07736, 38.76226 ], [ -77.07833, 38.76229 ], [ -77.07843, 38.7636 ], [ -77.07972, 38.76447 ], [ -77.07975, 38.76488 ], [ -77.07835, 38.76641 ], [ -77.07688, 38.76648 ], [ -77.07644, 38.76765 ], [ -77.07673, 38.76713 ], [ -77.07771, 38.76716 ], [ -77.07791, 38.76779 ], [ -77.07916, 38.76822 ], [ -77.07952, 38.76893 ], [ -77.07861, 38.76921 ], [ -77.07698, 38.76865 ], [ -77.07565, 38.76906 ], [ -77.07441, 38.76879 ], [ -77.07452, 38.7698 ], [ -77.07542, 38.76992 ], [ -77.07546, 38.77068 ], [ -77.0725, 38.77131 ], [ -77.07219, 38.77058 ], [ -77.07318, 38.77015 ], [ -77.07303, 38.76883 ], [ -77.07224, 38.76888 ], [ -77.0721, 38.76954 ], [ -77.07163, 38.76973 ], [ -77.07113, 38.7696 ], [ -77.07086, 38.76898 ], [ -77.06875, 38.76896 ], [ -77.06869, 38.76819 ], [ -77.07074, 38.7679 ], [ -77.07134, 38.7671 ], [ -77.07212, 38.76781 ], [ -77.07392, 38.76773 ], [ -77.07432, 38.76668 ], [ -77.07217, 38.76671 ], [ -77.07148, 38.76612 ], [ -77.07211, 38.76245 ], [ -77.07313, 38.76079 ], [ -77.07359, 38.76058 ], [ -77.07451, 38.76095 ], [ -77.07459, 38.76167 ], [ -77.07367, 38.76238 ], [ -77.07682, 38.76423 ] ], [ [ -77.07428, 38.76559 ], [ -77.07427, 38.76558 ], [ -77.07426, 38.7656 ], [ -77.07428, 38.76559 ] ], [ [ -77.07345, 38.76435 ], [ -77.07541, 38.76469 ], [ -77.07344, 38.76344 ], [ -77.07345, 38.76435 ] ], [ [ -77.07804, 38.7653 ], [ -77.07805, 38.76478 ], [ -77.07788, 38.76524 ], [ -77.07804, 38.7653 ] ] ] } },
{ "type": "Feature", "properties": { "variant": "T0", "miles": 1.0 }, "geometry": { "type": "Polygon", "coordinates": [ [ [ -77.08469, 38.76153 ], [ -77.08507, 38.76461 ], [ -77.08534, 38.76346 ], [ -77.08632, 38.76342 ], [ -77.08662, 38.7652 ], [ -77.08482, 38.76574 ], [ -77.08474, 38.76598 ], [ -77.08564, 38.76623 ], [ -77.08551, 38.76699 ], [ -77.08423, 38.76702 ], [ -77.08654, 38.76743 ], [ -77.08643, 38.76921 ], [ -77.08718, 38.77113 ], [ -77.08704, 38.77195 ], [ -77.08621, 38.77236 ], [ -77.08578, 38.77213 ], [ -77.08553, 38.77067 ], [ -77.08266, 38.77037 ], [ -77.08163, 38.77452 ], [ -77.08074, 38.77456 ], [ -77.0803, 38.77433 ], [ -77.08025, 38.77363 ], [ -77.07902, 38.77347 ], [ -77.07834, 38.77298 ], [ -77.07868, 38.7739 ], [ -77.07929, 38.77388 ], [ -77.07966, 38.77459 ], [ -77.07847, 38.77498 ], [ -77.07884, 38.77567 ], [ -77.07828, 38.77714 ], [ -77.07732, 38.777 ], [ -77.07736, 38.77602 ], [ -77.07533, 38.77613 ], [ -77.07447, 38.77566 ], [ -77.07492, 38.77443 ], [ -77.07576, 38.77421 ], [ -77.07444, 38.77094 ], [ -77.0736, 38.77118 ], [ -77.07314, 38.77214 ], [ -77.07225, 38.77156 ], [ -77.06988, 38.77222 ], [ -77.06999, 38.77321 ], [ -77.06942, 38.77376 ], [ -77.06959, 38.77512 ], [ -77.06898, 38.77571 ], [ -77.06764, 38.77531 ], [ -77.06706, 38.77425 ], [ -77.06605, 38.77424 ], [ -77.0653, 38.77345 ], [ -77.06615, 38.77215 ], [ -77.06597, 38.77147 ], [ -77.06495, 38.77133 ], [ -77.0647, 38.7693 ], [ -77.06285, 38.76797 ], [ -77.06338, 38.7664 ], [ -77.06314, 38.76579 ], [ -77.06411, 38.76548 ], [ -77.06406, 38.76513 ], [ -77.06245, 38.76424 ], [ -77.06251, 38.76383 ], [ -77.06328, 38.76315 ], [ -77.0638, 38.76323 ], [ -77.06402, 38.76387 ], [ -77.06559, 38.76456 ], [ -77.06566, 38.76401 ], [ -77.06677, 38.76297 ], [ -77.06828, 38.76385 ], [ -77.06771, 38.76317 ], [ -77.06919, 38.7609 ], [ -77.06798, 38.76046 ], [ -77.06756, 38.75956 ], [ -77.06854, 38.75824 ], [ -77.07104, 38.75926 ], [ -77.07207, 38.75843 ], [ -77.07381, 38.75854 ], [ -77.07427, 38.75893 ], [ -77.07439, 38.76033 ], [ -77.07618, 38.7602 ], [ -77.07659, 38.76096 ], [ -77.07771, 38.76078 ], [ -77.07763, 38.76167 ], [ -77.07852, 38.76268 ], [ -77.07843, 38.7636 ], [ -77.07933, 38.76419 ], [ -77.0834, 38.76513 ], [ -77.08353, 38.76168 ], [ -77.08469, 38.76153 ] ], [ [ -77.07715, 38.77403 ], [ -77.07678, 38.77199 ], [ -77.07739, 38.77162 ], [ -77.07598, 38.77114 ], [ -77.07715, 38.77403 ] ], [ [ -77.07452, 38.7698 ], [ -77.07584, 38.76992 ], [ -77.08045, 38.77148 ], [ -77.08052, 38.77097 ], [ -77.07803, 38.77011 ], [ -77.07503, 38.76966 ], [ -77.07497, 38.769 ], [ -77.07441, 38.76879 ], [ -77.07452, 38.7698 ] ], [ [ -77.07706, 38.76703 ], [ -77.07675, 38.76683 ], [ -77.07644, 38.76765 ], [ -77.07706, 38.76703 ] ], [ [ -77.07428, 38.76559 ], [ -77.07427, 38.76558 ], [ -77.07426, 38.7656 ], [ -77.07428, 38.76559 ] ], [ [ -77.07349, 38.76431 ], [ -77.07401, 38.76426 ], [ -77.07447, 38.76474 ], [ -77.07541, 38.76469 ], [ -77.07344, 38.76344 ], [ -77.07349, 38.76431 ] ], [ [ -77.07206, 38.76267 ], [ -77.07223, 38.76218 ], [ -77.0726, 38.76169 ], [ -77.07134, 38.76263 ], [ -77.07206, 38.76267 ] ], [ [ -77.07185, 38.76023 ], [ -77.07185, 38.76009 ], [ -77.07164, 38.76013 ], [ -77.07185, 38.76023 ] ], [ [ -77.07692, 38.76396 ], [ -77.07408, 38.76205 ], [ -77.07367, 38.76238 ], [ -77.07682, 38.76423 ], [ -77.07692, 38.76396 ] ], [ [ -77.0771, 38.76265 ], [ -77.07713, 38.76267 ], [ -77.07714, 38.76265 ], [ -77.0771, 38.76265 ] ], [ [ -77.08532, 38.76823 ], [ -77.08509, 38.76848 ], [ -77.08516, 38.7685 ], [ -77.08532, 38.76823 ] ], [ [ -77.08287, 38.7693 ], [ -77.08325, 38.76898 ], [ -77.08308, 38.76892 ], [ -77.08287, 38.7693 ] ], [ [ -77.08457, 38.76948 ], [ -77.0845, 38.76945 ], [ -77.08448, 38.76947 ], [ -77.08457, 38.76948 ] ], [ [ -77.07788, 38.76524 ], [ -77.07822, 38.7649 ], [ -77.07805, 38.76478 ], [ -77.07788, 38.76524 ] ], [ [ -77.07951, 38.76528 ], [ -77.07847, 38.76633 ], [ -77.07941, 38.7666 ], [ -77.07997, 38.76532 ], [ -77.07951, 38.76528 ] ], [ [ -77.07003, 38.76984 ], [ -77.07019, 38.77098 ], [ -77.07107, 38.77074 ], [ -77.07095, 38.76977 ], [ -77.07003, 38.76984 ] ], [ [ -77.06945, 38.76585 ], [ -77.0708, 38.76749 ], [ -77.07134, 38.7671 ], [ -77.07212, 38.76781 ], [ -77.07392, 38.76773 ], [ -77.07432, 38.76668 ], [ -77.07221, 38.76671 ], [ -77.07155, 38.76632 ], [ -77.0721, 38.76381 ], [ -77.07147, 38.76426 ], [ -77.07054, 38.764 ], [ -77.06916, 38.76453 ], [ -77.06945, 38.76585 ] ], [ [ -77.07114, 38.75992 ], [ -77.07105, 38.75975 ], [ -77.07099, 38.75985 ], [ -77.07114, 38.75992 ] ], [ [ -77.06902, 38.75948 ], [ -77.0695, 38.75985 ], [ -77.06956, 38.75972 ], [ -77.06902, 38.75948 ] ], [ [ -77.07206, 38.76355 ], [ -77.07203, 38.76341 ], [ -77.07201, 38.76346 ], [ -77.07206, 38.76355 ] ], [ [ -77.06948, 38.76329 ], [ -77.07122, 38.76119 ], [ -77.07059, 38.76092 ], [ -77.06948, 38.76329 ] ], [ [ -77.06643, 38.76493 ], [ -77.06713, 38.7649 ], [ -77.06794, 38.76518 ], [ -77.06695, 38.76444 ], [ -77.06643, 38.76493 ] ] ] } },
{ "type": "Feature", "properties": { "variant": "T0", "miles": 1.5 }, "geometry": { "type": "Polygon", "coordinates": [ [ [ -77.08665, 38.75717 ], [ -77.0877, 38.75774 ], [ -77.08806, 38.75715 ], [ -77.08902, 38.7573 ], [ -77.08877, 38.75904 ], [ -77.09106, 38.75932 ], [ -77.09166, 38.75993 ], [ -77.09089, 38.7604 ], [ -77.08732, 38.75999 ], [ -77.08699, 38.7609 ], [ -77.08762, 38.76133 ], [ -77.08757, 38.76174 ], [ -77.08664, 38.76197 ], [ -77.08532, 38.7615 ], [ -77.08512, 38.76233 ], [ -77.09, 38.76283 ], [ -77.08848, 38.76242 ], [ -77.08859, 38.76166 ], [ -77.09071, 38.7617 ], [ -77.09196, 38.76219 ], [ -77.09258, 38.76194 ], [ -77.09368, 38.76241 ], [ -77.09412, 38.76392 ], [ -77.09366, 38.76485 ], [ -77.09214, 38.76481 ], [ -77.09198, 38.76545 ], [ -77.09136, 38.76555 ], [ -77.09208, 38.76872 ], [ -77.09185, 38.76934 ], [ -77.09379, 38.76954 ], [ -77.09441, 38.77013 ], [ -77.09365, 38.77062 ], [ -77.09182, 38.77043 ], [ -77.09306, 38.77303 ], [ -77.0941, 38.77297 ], [ -77.09436, 38.77371 ], [ -77.08961, 38.77515 ], [ -77.08925, 38.77539 ], [ -77.08974, 38.77644 ], [ -77.08914, 38.7771 ], [ -77.08817, 38.77715 ], [ -77.08822, 38.77611 ], [ -77.08585, 38.7777 ], [ -77.08488, 38.7777 ], [ -77.08404, 38.77673 ], [ -77.08443, 38.7751 ], [ -77.08159, 38.77469 ], [ -77.08105, 38.77703 ], [ -77.08181, 38.77676 ], [ -77.08268, 38.77694 ], [ -77.08285, 38.77933 ], [ -77.08273, 38.77973 ], [ -77.08176, 38.77985 ], [ -77.08147, 38.77812 ], [ -77.0807, 38.77854 ], [ -77.07922, 38.78259 ], [ -77.07738, 38.78262 ], [ -77.07675, 38.78204 ], [ -77.07812, 38.78075 ], [ -77.07873, 38.77915 ], [ -77.07836, 38.77998 ], [ -77.0775, 38.78034 ], [ -77.07704, 38.77966 ], [ -77.07736, 38.77884 ], [ -77.07442, 38.77819 ], [ -77.07313, 38.77927 ], [ -77.07251, 38.77868 ], [ -77.07283, 38.77826 ], [ -77.07257, 38.77772 ], [ -77.07066, 38.77825 ], [ -77.07052, 38.78045 ], [ -77.06765, 38.78008 ], [ -77.06757, 38.78125 ], [ -77.06624, 38.78215 ], [ -77.06552, 38.78164 ], [ -77.06694, 38.77886 ], [ -77.06601, 38.77864 ], [ -77.06524, 38.77946 ], [ -77.06366, 38.7796 ], [ -77.0629, 38.78041 ], [ -77.06136, 38.77998 ], [ -77.06129, 38.77881 ], [ -77.05955, 38.77852 ], [ -77.05939, 38.77812 ], [ -77.06014, 38.77764 ], [ -77.0605, 38.77662 ], [ -77.06206, 38.7765 ], [ -77.06196, 38.77567 ], [ -77.05903, 38.77567 ], [ -77.05889, 38.77681 ], [ -77.05814, 38.7773 ], [ -77.05752, 38.77671 ], [ -77.05764, 38.77567 ], [ -77.05527, 38.77547 ], [ -77.05507, 38.77509 ], [ -77.05575, 38.77455 ], [ -77.05717, 38.77414 ], [ -77.0583, 38.77449 ], [ -77.05856, 38.77378 ], [ -77.05756, 38.77297 ], [ -77.0581, 38.77233 ], [ -77.06017, 38.77203 ], [ -77.0618, 38.77376 ], [ -77.0616, 38.77228 ], [ -77.05916, 38.7686 ], [ -77.05998, 38.76555 ], [ -77.05909, 38.76554 ], [ -77.05803, 38.76433 ], [ -77.05404, 38.76528 ], [ -77.05316, 38.76495 ], [ -77.0532, 38.76453 ], [ -77.05631, 38.76353 ], [ -77.05468, 38.76347 ], [ -77.05435, 38.76315 ], [ -77.05482, 38.76248 ], [ -77.05652, 38.76243 ], [ -77.05563, 38.76096 ], [ -77.05586, 38.76022 ], [ -77.05638, 38.76015 ], [ -77.05703, 38.76068 ], [ -77.0581, 38.76323 ], [ -77.05902, 38.76314 ], [ -77.05872, 38.76047 ], [ -77.05805, 38.75934 ], [ -77.05833, 38.75861 ], [ -77.05927, 38.75882 ], [ -77.05977, 38.75967 ], [ -77.06018, 38.75957 ], [ -77.06034, 38.75872 ], [ -77.06086, 38.75866 ], [ -77.06163, 38.75939 ], [ -77.06343, 38.75963 ], [ -77.06535, 38.75713 ], [ -77.064, 38.75706 ], [ -77.06387, 38.7563 ], [ -77.06708, 38.75587 ], [ -77.06886, 38.75507 ], [ -77.06936, 38.75554 ], [ -77.06976, 38.7548 ], [ -77.0685, 38.75457 ], [ -77.06858, 38.75381 ], [ -77.06784, 38.75336 ], [ -77.06839, 38.75224 ], [ -77.07084, 38.75224 ], [ -77.0717, 38.75347 ], [ -77.07262, 38.75217 ], [ -77.07352, 38.75247 ], [ -77.0733, 38.75328 ], [ -77.07383, 38.75394 ], [ -77.07357, 38.7543 ], [ -77.07271, 38.75436 ], [ -77.0734, 38.75514 ], [ -77.07294, 38.75595 ], [ -77.07213, 38.75611 ], [ -77.07239, 38.75695 ], [ -77.07142, 38.75704 ], [ -77.07058, 38.75605 ], [ -77.07054, 38.75649 ], [ -77.07172, 38.75744 ], [ -77.07185, 38.75851 ], [ -77.07329, 38.75837 ], [ -77.07413, 38.75876 ], [ -77.07439, 38.76033 ], [ -77.07618, 38.7602 ], [ -77.07659, 38.76096 ], [ -77.07771, 38.76078 ], [ -77.07763, 38.76167 ], [ -77.07852, 38.76268 ], [ -77.07843, 38.7636 ], [ -77.07933, 38.76419 ], [ -77.0834, 38.76513 ], [ -77.08335, 38.76261 ], [ -77.08262, 38.76218 ], [ -77.08241, 38.76034 ], [ -77.08156, 38.76054 ], [ -77.08015, 38.76014 ], [ -77.07923, 38.76067 ], [ -77.07882, 38.76041 ], [ -77.0792, 38.75884 ], [ -77.07842, 38.75896 ], [ -77.07805, 38.75808 ], [ -77.07839, 38.75776 ], [ -77.07954, 38.75774 ], [ -77.08, 38.75649 ], [ -77.08055, 38.75612 ], [ -77.08183, 38.75613 ], [ -77.08272, 38.75688 ], [ -77.08251, 38.75456 ], [ -77.08314, 38.75398 ], [ -77.08444, 38.75453 ], [ -77.08468, 38.75852 ], [ -77.0853, 38.75715 ], [ -77.08665, 38.75717 ] ], [ [ -77.07706, 38.77722 ], [ -77.07447, 38.77691 ], [ -77.07419, 38.77712 ], [ -77.07696, 38.77762 ], [ -77.07706, 38.77722 ] ], [ [ -77.07736, 38.77602 ], [ -77.07688, 38.77605 ], [ -77.07734, 38.77609 ], [ -77.07736, 38.77602 ] ], [ [ -77.07715, 38.77403 ], [ -77.07678, 38.77199 ], [ -77.07739, 38.77162 ], [ -77.07598, 38.77114 ], [ -77.07715, 38.77403 ] ], [ [ -77.07452, 38.7698 ], [ -77.07584, 38.76992 ], [ -77.08045, 38.77148 ], [ -77.08052, 38.77097 ], [ -77.07803, 38.77011 ], [ -77.07503, 38.76966 ], [ -77.07497, 38.769 ], [ -77.07441, 38.76879 ], [ -77.07452, 38.7698 ] ], [ [ -77.07644, 38.76765 ], [ -77.07706, 38.76703 ], [ -77.07675, 38.76683 ], [ -77.07644, 38.76765 ] ], [ [ -77.07692, 38.76396 ], [ -77.07408, 38.76205 ], [ -77.07367, 38.76238 ], [ -77.07682, 38.76423 ], [ -77.07692, 38.76396 ] ], [ [ -77.07714, 38.76265 ], [ -77.0771, 38.76265 ], [ -77.07713, 38.76267 ], [ -77.07714, 38.76265 ] ], [ [ -77.08204, 38.77365 ], [ -77.08544, 38.77385 ], [ -77.08543, 38.7735 ], [ -77.08435, 38.77324 ], [ -77.08418, 38.77279 ], [ -77.0847, 38.77221 ], [ -77.0856, 38.77224 ], [ -77.08566, 38.77187 ], [ -77.08468, 38.77158 ], [ -77.08456, 38.77117 ], [ -77.08553, 38.77067 ], [ -77.08266, 38.77037 ], [ -77.08204, 38.77365 ] ], [ [ -77.08287, 38.7693 ], [ -77.08325, 38.76898 ], [ -77.08308, 38.76892 ], [ -77.08287, 38.7693 ] ], [ [ -77.08595, 38.75984 ], [ -77.08565, 38.76043 ], [ -77.08572, 38.76046 ], [ -77.08595, 38.75984 ] ], [ [ -77.08625, 38.75878 ], [ -77.08632, 38.75879 ], [ -77.08625, 38.75876 ], [ -77.08625, 38.75878 ] ], [ [ -77.0874, 38.7589 ], [ -77.08718, 38.75875 ], [ -77.08694, 38.75886 ], [ -77.0874, 38.7589 ] ], [ [ -77.08644, 38.77582 ], [ -77.08625, 38.77604 ], [ -77.08686, 38.77564 ], [ -77.08644, 38.77582 ] ], [ [ -77.09069, 38.76921 ], [ -77.09051, 38.76878 ], [ -77.08647, 38.76835 ], [ -77.08651, 38.76877 ], [ -77.09069, 38.76921 ] ], [ [ -77.09045, 38.76768 ], [ -77.08424, 38.76701 ], [ -77.08423, 38.76702 ], [ -77.09045, 38.76768 ] ], [ [ -77.08538, 38.76345 ], [ -77.08506, 38.76342 ], [ -77.08507, 38.76461 ], [ -77.08523, 38.76457 ], [ -77.08538, 38.76345 ] ], [ [ -77.08958, 38.76565 ], [ -77.08984, 38.76635 ], [ -77.09016, 38.76619 ], [ -77.08992, 38.76556 ], [ -77.08958, 38.76565 ] ], [ [ -77.08842, 38.76634 ], [ -77.08696, 38.76621 ], [ -77.08843, 38.76637 ], [ -77.08842, 38.76634 ] ], [ [ -77.08665, 38.76427 ], [ -77.08784, 38.76466 ], [ -77.08865, 38.76418 ], [ -77.08712, 38.76419 ], [ -77.08639, 38.76354 ], [ -77.08665, 38.76427 ] ], [ [ -77.09151, 38.76442 ], [ -77.09132, 38.76446 ], [ -77.09154, 38.76448 ], [ -77.09151, 38.76442 ] ], [ [ -77.09071, 38.7644 ], [ -77.08881, 38.7642 ], [ -77.08917, 38.76458 ], [ -77.09071, 38.7644 ] ], [ [ -77.09172, 38.77332 ], [ -77.09037, 38.77027 ], [ -77.08972, 38.7702 ], [ -77.0914, 38.77338 ], [ -77.09172, 38.77332 ] ], [ [ -77.08851, 38.77374 ], [ -77.08845, 38.7736 ], [ -77.08831, 38.77369 ], [ -77.08851, 38.77374 ] ], [ [ -77.08827, 38.77097 ], [ -77.08885, 38.77138 ], [ -77.09006, 38.77368 ], [ -77.08879, 38.77101 ], [ -77.08827, 38.77097 ] ], [ [ -77.0868, 38.77468 ], [ -77.08705, 38.77522 ], [ -77.08691, 38.7756 ], [ -77.08744, 38.77521 ], [ -77.0868, 38.77468 ] ], [ [ -77.08448, 38.76947 ], [ -77.08457, 38.76948 ], [ -77.0845, 38.76945 ], [ -77.08448, 38.76947 ] ], [ [ -77.08518, 38.76821 ], [ -77.08516, 38.7685 ], [ -77.08532, 38.76823 ], [ -77.08518, 38.76821 ] ], [ [ -77.08001, 38.77355 ], [ -77.07938, 38.77395 ], [ -77.07966, 38.77459 ], [ -77.07927, 38.77488 ], [ -77.07995, 38.7749 ], [ -77.08001, 38.77355 ] ], [ [ -77.0794, 38.76598 ], [ -77.07997, 38.76532 ], [ -77.07951, 38.76528 ], [ -77.07847, 38.76633 ], [ -77.07941, 38.7666 ], [ -77.0794, 38.76598 ] ], [ [ -77.07804, 38.7653 ], [ -77.07805, 38.76478 ], [ -77.07788, 38.76524 ], [ -77.07804, 38.7653 ] ], [ [ -77.07865, 38.77725 ], [ -77.07884, 38.77724 ], [ -77.07844, 38.77733 ], [ -77.07865, 38.77725 ] ], [ [ -77.06644, 38.77786 ], [ -77.06684, 38.77741 ], [ -77.06606, 38.77727 ], [ -77.06559, 38.77782 ], [ -77.06644, 38.77786 ] ], [ [ -77.06568, 38.77576 ], [ -77.06652, 38.77443 ], [ -77.06624, 38.77432 ], [ -77.0655, 38.77528 ], [ -77.06568, 38.77576 ] ], [ [ -77.06643, 38.76493 ], [ -77.06746, 38.76497 ], [ -77.06794, 38.76518 ], [ -77.06695, 38.76444 ], [ -77.06643, 38.76493 ] ], [ [ -77.06709, 38.76296 ], [ -77.06545, 38.76109 ], [ -77.06129, 38.76045 ], [ -77.06016, 38.7607 ], [ -77.06031, 38.76188 ], [ -77.06142, 38.76248 ], [ -77.06266, 38.7612 ], [ -77.06363, 38.76095 ], [ -77.06471, 38.76125 ], [ -77.06645, 38.76264 ], [ -77.06709, 38.76296 ] ], [ [ -77.06641, 38.75999 ], [ -77.06679, 38.75878 ], [ -77.06726, 38.75863 ], [ -77.06641, 38.75805 ], [ -77.0657, 38.75909 ], [ -77.06601, 38.75962 ], [ -77.0655, 38.75998 ], [ -77.06641, 38.75999 ] ], [ [ -77.06994, 38.75333 ], [ -77.06974, 38.7532 ], [ -77.07002, 38.75347 ], [ -77.06994, 38.75333 ] ], [ [ -77.07049, 38.77715 ], [ -77.07328, 38.7763 ], [ -77.07258, 38.77606 ], [ -77.07272, 38.7753 ], [ -77.07445, 38.77513 ], [ -77.07492, 38.77443 ], [ -77.07576, 38.77421 ], [ -77.0748, 38.7718 ], [ -77.07432, 38.77241 ], [ -77.07003, 38.77362 ], [ -77.07049, 38.77715 ] ], [ [ -77.06992, 38.77251 ], [ -77.07236, 38.77183 ], [ -77.07225, 38.77156 ], [ -77.06988, 38.77222 ], [ -77.06992, 38.77251 ] ], [ [ -77.07003, 38.76984 ], [ -77.07019, 38.77098 ], [ -77.07107, 38.77074 ], [ -77.07095, 38.76977 ], [ -77.07003, 38.76984 ] ], [ [ -77.07134, 38.7671 ], [ -77.07212, 38.76781 ], [ -77.07371, 38.76783 ], [ -77.07432, 38.76668 ], [ -77.07221, 38.76671 ], [ -77.07156, 38.76635 ], [ -77.0721, 38.76381 ], [ -77.07147, 38.76426 ], [ -77.07054, 38.764 ], [ -77.06916, 38.76453 ], [ -77.07017, 38.7669 ], [ -77.0708, 38.76749 ], [ -77.07134, 38.7671 ] ], [ [ -77.06948, 38.76329 ], [ -77.07122, 38.76119 ], [ -77.07059, 38.76092 ], [ -77.06948, 38.76329 ] ], [ [ -77.07099, 38.75985 ], [ -77.07114, 38.75992 ], [ -77.07105, 38.75975 ], [ -77.07099, 38.75985 ] ], [ [ -77.07426, 38.7656 ], [ -77.07428, 38.76559 ], [ -77.07427, 38.76558 ], [ -77.07426, 38.7656 ] ], [ [ -77.07168, 38.76015 ], [ -77.07185, 38.76009 ], [ -77.07164, 38.76013 ], [ -77.07168, 38.76015 ] ], [ [ -77.07201, 38.76287 ], [ -77.0726, 38.76169 ], [ -77.07134, 38.76263 ], [ -77.07201, 38.76287 ] ], [ [ -77.07526, 38.76483 ], [ -77.07344, 38.76344 ], [ -77.07345, 38.76435 ], [ -77.07401, 38.76426 ], [ -77.07447, 38.76474 ], [ -77.07526, 38.76483 ] ], [ [ -77.07206, 38.76355 ], [ -77.07203, 38.76341 ], [ -77.07201, 38.76346 ], [ -77.07206, 38.76355 ] ], [ [ -77.07363, 38.77145 ], [ -77.07448, 38.77142 ], [ -77.07476, 38.7717 ], [ -77.07444, 38.77094 ], [ -77.0736, 38.77118 ], [ -77.07363, 38.77145 ] ], [ [ -77.07462, 38.77581 ], [ -77.07461, 38.77583 ], [ -77.07465, 38.77584 ], [ -77.07462, 38.77581 ] ], [ [ -77.06919, 38.7609 ], [ -77.06797, 38.76045 ], [ -77.0691, 38.76117 ], [ -77.06919, 38.7609 ] ], [ [ -77.06844, 38.76212 ], [ -77.06704, 38.76137 ], [ -77.06827, 38.76234 ], [ -77.06844, 38.76212 ] ], [ [ -77.0703, 38.7586 ], [ -77.07044, 38.75787 ], [ -77.06991, 38.75752 ], [ -77.0703, 38.7586 ] ], [ [ -77.06918, 38.75672 ], [ -77.06916, 38.75599 ], [ -77.06857, 38.75631 ], [ -77.06918, 38.75672 ] ], [ [ -77.06697, 38.75706 ], [ -77.06842, 38.75799 ], [ -77.0688, 38.75816 ], [ -77.06796, 38.7573 ], [ -77.06697, 38.75706 ] ], [ [ -77.06902, 38.75948 ], [ -77.0695, 38.75985 ], [ -77.06956, 38.75972 ], [ -77.06902, 38.75948 ] ], [ [ -77.06788, 38.76352 ], [ -77.06795, 38.76369 ], [ -77.06828, 38.76385 ], [ -77.06788, 38.76352 ] ], [ [ -77.06723, 38.77606 ], [ -77.06697, 38.77632 ], [ -77.06736, 38.77614 ], [ -77.06723, 38.77606 ] ], [ [ -77.0635, 38.77448 ], [ -77.0648, 38.77425 ], [ -77.06529, 38.77305 ], [ -77.06463, 38.77279 ], [ -77.06364, 38.77296 ], [ -77.06273, 38.77147 ], [ -77.0635, 38.77448 ] ], [ [ -77.06164, 38.76964 ], [ -77.06121, 38.76928 ], [ -77.06106, 38.76928 ], [ -77.06137, 38.76968 ], [ -77.06164, 38.76964 ] ], [ [ -77.0623, 38.76988 ], [ -77.06321, 38.77041 ], [ -77.06396, 38.77034 ], [ -77.06434, 38.77127 ], [ -77.06493, 38.77083 ], [ -77.0647, 38.7693 ], [ -77.06303, 38.76817 ], [ -77.06269, 38.76718 ], [ -77.06212, 38.76842 ], [ -77.06304, 38.76924 ], [ -77.0623, 38.76988 ] ], [ [ -77.06247, 38.76572 ], [ -77.06227, 38.76528 ], [ -77.06121, 38.76495 ], [ -77.06138, 38.76601 ], [ -77.06247, 38.76572 ] ], [ [ -77.06142, 38.76306 ], [ -77.06162, 38.76309 ], [ -77.0615, 38.76295 ], [ -77.06142, 38.76306 ] ], [ [ -77.06484, 38.77675 ], [ -77.06454, 38.77666 ], [ -77.06457, 38.77707 ], [ -77.06484, 38.77675 ] ] ] } },
{ "type": "Feature", "properties": { "variant": "T2s", "miles": 0.5 }, "geometry": { "type": "Polygon", "coordinates": [ [ [ -77.07682, 38.76423 ], [ -77.07736, 38.76226 ], [ -77.07833, 38.76229 ], [ -77.07843, 38.7636 ], [ -77.07972, 38.76447 ], [ -77.07975, 38.76488 ], [ -77.07835, 38.76641 ], [ -77.07688, 38.76648 ], [ -77.07644, 38.76765 ], [ -77.07673, 38.76713 ], [ -77.07771, 38.76716 ], [ -77.07791, 38.76779 ], [ -77.07953, 38.76851 ], [ -77.07914, 38.76921 ], [ -77.07698, 38.76865 ], [ -77.07551, 38.76907 ], [ -77.07311, 38.76882 ], [ -77.07224, 38.76888 ], [ -77.0721, 38.76954 ], [ -77.07163, 38.76973 ], [ -77.07113, 38.7696 ], [ -77.07086, 38.76898 ], [ -77.06875, 38.76896 ], [ -77.06869, 38.76819 ], [ -77.07074, 38.7679 ], [ -77.07134, 38.7671 ], [ -77.07212, 38.76781 ], [ -77.07392, 38.76773 ], [ -77.07432, 38.76668 ], [ -77.07217, 38.76671 ], [ -77.07148, 38.76612 ], [ -77.07211, 38.76245 ], [ -77.07313, 38.76079 ], [ -77.07359, 38.76058 ], [ -77.07451, 38.76095 ], [ -77.07459, 38.76167 ], [ -77.07367, 38.76238 ], [ -77.07682, 38.76423 ] ], [ [ -77.07447, 38.76474 ], [ -77.07541, 38.76469 ], [ -77.07344, 38.76344 ], [ -77.07345, 38.76435 ], [ -77.07401, 38.76426 ], [ -77.07447, 38.76474 ] ], [ [ -77.07804, 38.7653 ], [ -77.07805, 38.76478 ], [ -77.07788, 38.76524 ], [ -77.07804, 38.7653 ] ], [ [ -77.07426, 38.7656 ], [ -77.07428, 38.76559 ], [ -77.07427, 38.76558 ], [ -77.07426, 38.7656 ] ] ] } },
{ "type": "Feature", "properties": { "variant": "T2s", "miles": 1.0 }, "geometry": { "type": "Polygon", "coordinates": [ [ [ -77.07439, 38.76033 ], [ -77.07618, 38.7602 ], [ -77.07659, 38.76096 ], [ -77.07771, 38.76078 ], [ -77.07763, 38.76167 ], [ -77.07852, 38.76268 ], [ -77.07843, 38.7636 ], [ -77.07933, 38.76419 ], [ -77.08268, 38.76489 ], [ -77.08305, 38.76519 ], [ -77.08291, 38.76584 ], [ -77.08368, 38.76632 ], [ -77.08325, 38.767 ], [ -77.08235, 38.76683 ], [ -77.08097, 38.76892 ], [ -77.07968, 38.76865 ], [ -77.07886, 38.76921 ], [ -77.08222, 38.77041 ], [ -77.08191, 38.77419 ], [ -77.08161, 38.77454 ], [ -77.08074, 38.77456 ], [ -77.0803, 38.77433 ], [ -77.08025, 38.77363 ], [ -77.07902, 38.77347 ], [ -77.07876, 38.77311 ], [ -77.07955, 38.77235 ], [ -77.07476, 38.77087 ], [ -77.0736, 38.77118 ], [ -77.07314, 38.77214 ], [ -77.07225, 38.77156 ], [ -77.06988, 38.77222 ], [ -77.06944, 38.77551 ], [ -77.06845, 38.77569 ], [ -77.06738, 38.77511 ], [ -77.06706, 38.77425 ], [ -77.06605, 38.77424 ], [ -77.06529, 38.77345 ], [ -77.06615, 38.77215 ], [ -77.06597, 38.77147 ], [ -77.06495, 38.77133 ], [ -77.0647, 38.7693 ], [ -77.06285, 38.76797 ], [ -77.06338, 38.7664 ], [ -77.06314, 38.76579 ], [ -77.06411, 38.76548 ], [ -77.06406, 38.76513 ], [ -77.06245, 38.76424 ], [ -77.06251, 38.76383 ], [ -77.06328, 38.76315 ], [ -77.0638, 38.76323 ], [ -77.06402, 38.76387 ], [ -77.06559, 38.76456 ], [ -77.06566, 38.76401 ], [ -77.06677, 38.76297 ], [ -77.06828, 38.76385 ], [ -77.06771, 38.76317 ], [ -77.06919, 38.7609 ], [ -77.06798, 38.76046 ], [ -77.06756, 38.75956 ], [ -77.06854, 38.75824 ], [ -77.07104, 38.75926 ], [ -77.07191, 38.75848 ], [ -77.07351, 38.75841 ], [ -77.07427, 38.75893 ], [ -77.07439, 38.76033 ] ], [ [ -77.07455, 38.7698 ], [ -77.07578, 38.7699 ], [ -77.08045, 38.77148 ], [ -77.08052, 38.77097 ], [ -77.07803, 38.77011 ], [ -77.07503, 38.76966 ], [ -77.07497, 38.769 ], [ -77.07441, 38.76879 ], [ -77.07455, 38.7698 ] ], [ [ -77.07386, 38.76776 ], [ -77.07432, 38.76668 ], [ -77.07221, 38.76671 ], [ -77.07155, 38.76632 ], [ -77.0721, 38.76381 ], [ -77.07147, 38.76426 ], [ -77.07054, 38.764 ], [ -77.06916, 38.76453 ], [ -77.06945, 38.76585 ], [ -77.0702, 38.76632 ], [ -77.07017, 38.7669 ], [ -77.0708, 38.76749 ], [ -77.07134, 38.7671 ], [ -77.07212, 38.76781 ], [ -77.07386, 38.76776 ] ], [ [ -77.07426, 38.7656 ], [ -77.07428, 38.76559 ], [ -77.07427, 38.76558 ], [ -77.07426, 38.7656 ] ], [ [ -77.07345, 38.76435 ], [ -77.07541, 38.76469 ], [ -77.07344, 38.76344 ], [ -77.07345, 38.76435 ] ], [ [ -77.07206, 38.76267 ], [ -77.07223, 38.76218 ], [ -77.0726, 38.76169 ], [ -77.07134, 38.76263 ], [ -77.07206, 38.76267 ] ], [ [ -77.07201, 38.76346 ], [ -77.07206, 38.76355 ], [ -77.07203, 38.76341 ], [ -77.07201, 38.76346 ] ], [ [ -77.06929, 38.76311 ], [ -77.07122, 38.76119 ], [ -77.07059, 38.76092 ], [ -77.06929, 38.76311 ] ], [ [ -77.06953, 38.75978 ], [ -77.06902, 38.75948 ], [ -77.06895, 38.75956 ], [ -77.06905, 38.75975 ], [ -77.06953, 38.75978 ] ], [ [ -77.0771, 38.76265 ], [ -77.07713, 38.76267 ], [ -77.07714, 38.76265 ], [ -77.0771, 38.76265 ] ], [ [ -77.07692, 38.76396 ], [ -77.07408, 38.76205 ], [ -77.07367, 38.76238 ], [ -77.07682, 38.76423 ], [ -77.07692, 38.76396 ] ], [ [ -77.07675, 38.76683 ], [ -77.07644, 38.76765 ], [ -77.07706, 38.76703 ], [ -77.07675, 38.76683 ] ], [ [ -77.07865, 38.76639 ], [ -77.07941, 38.7666 ], [ -77.07997, 38.76532 ], [ -77.07951, 38.76528 ], [ -77.07865, 38.76639 ] ], [ [ -77.07804, 38.7653 ], [ -77.07805, 38.76478 ], [ -77.07788, 38.76524 ], [ -77.07804, 38.7653 ] ], [ [ -77.07105, 38.75975 ], [ -77.07099, 38.75985 ], [ -77.07114, 38.75992 ], [ -77.07105, 38.75975 ] ], [ [ -77.07185, 38.76009 ], [ -77.07164, 38.76013 ], [ -77.07185, 38.76023 ], [ -77.07185, 38.76009 ] ], [ [ -77.06643, 38.76493 ], [ -77.06746, 38.76497 ], [ -77.06794, 38.76518 ], [ -77.06695, 38.76444 ], [ -77.06643, 38.76493 ] ], [ [ -77.07095, 38.76977 ], [ -77.07003, 38.76984 ], [ -77.07019, 38.77098 ], [ -77.07107, 38.77074 ], [ -77.07095, 38.76977 ] ] ] } },
{ "type": "Feature", "properties": { "variant": "T2s", "miles": 1.5 }, "geometry": { "type": "MultiPolygon", "coordinates": [ [ [ [ -77.08392, 38.75698 ], [ -77.08407, 38.75941 ], [ -77.08209, 38.76049 ], [ -77.08015, 38.76014 ], [ -77.07975, 38.76063 ], [ -77.07882, 38.76041 ], [ -77.0792, 38.75884 ], [ -77.07842, 38.75896 ], [ -77.07797, 38.75828 ], [ -77.07839, 38.75776 ], [ -77.07954, 38.75774 ], [ -77.08024, 38.75626 ], [ -77.08168, 38.75608 ], [ -77.08239, 38.75689 ], [ -77.08392, 38.75698 ] ] ], [ [ [ -77.08488, 38.76464 ], [ -77.08634, 38.76449 ], [ -77.08666, 38.76481 ], [ -77.08619, 38.76548 ], [ -77.08482, 38.76574 ], [ -77.08474, 38.76598 ], [ -77.08564, 38.76623 ], [ -77.08551, 38.76699 ], [ -77.08423, 38.76702 ], [ -77.08654, 38.76743 ], [ -77.08653, 38.76981 ], [ -77.08718, 38.77113 ], [ -77.08684, 38.77341 ], [ -77.08871, 38.77379 ], [ -77.08982, 38.77466 ], [ -77.08862, 38.77567 ], [ -77.08764, 38.77563 ], [ -77.0868, 38.77468 ], [ -77.0869, 38.77562 ], [ -77.08625, 38.77592 ], [ -77.08596, 38.7772 ], [ -77.08525, 38.77751 ], [ -77.08404, 38.77673 ], [ -77.08443, 38.7751 ], [ -77.08159, 38.77469 ], [ -77.08105, 38.77703 ], [ -77.0822, 38.77676 ], [ -77.08286, 38.77733 ], [ -77.0807, 38.77854 ], [ -77.07962, 38.78127 ], [ -77.07892, 38.78192 ], [ -77.0784, 38.78187 ], [ -77.07771, 38.7813 ], [ -77.07812, 38.78075 ], [ -77.07873, 38.77915 ], [ -77.07802, 38.7803 ], [ -77.07709, 38.78008 ], [ -77.07736, 38.77884 ], [ -77.07678, 38.77814 ], [ -77.07707, 38.77716 ], [ -77.07383, 38.77695 ], [ -77.07346, 38.77666 ], [ -77.07382, 38.77595 ], [ -77.07465, 38.77584 ], [ -77.07435, 38.77525 ], [ -77.07492, 38.77443 ], [ -77.07576, 38.77421 ], [ -77.0748, 38.7718 ], [ -77.07432, 38.77241 ], [ -77.07003, 38.77362 ], [ -77.07049, 38.77715 ], [ -77.07212, 38.7767 ], [ -77.07302, 38.777 ], [ -77.07263, 38.7777 ], [ -77.07066, 38.77825 ], [ -77.07052, 38.78045 ], [ -77.06765, 38.78008 ], [ -77.06757, 38.78125 ], [ -77.06624, 38.78215 ], [ -77.06552, 38.78164 ], [ -77.06694, 38.77886 ], [ -77.06601, 38.77864 ], [ -77.06524, 38.77946 ], [ -77.06366, 38.7796 ], [ -77.0633, 38.78018 ], [ -77.06136, 38.77998 ], [ -77.06129, 38.77881 ], [ -77.06023, 38.77857 ], [ -77.06019, 38.77728 ], [ -77.06072, 38.77649 ], [ -77.06206, 38.7765 ], [ -77.06195, 38.77556 ], [ -77.06063, 38.7753 ], [ -77.05841, 38.77557 ], [ -77.0577, 38.77504 ], [ -77.05899, 38.77332 ], [ -77.05901, 38.77247 ], [ -77.06113, 38.77273 ], [ -77.0618, 38.77376 ], [ -77.06151, 38.77199 ], [ -77.05916, 38.7686 ], [ -77.05911, 38.76774 ], [ -77.06001, 38.76572 ], [ -77.0591, 38.76386 ], [ -77.05872, 38.76047 ], [ -77.05805, 38.75934 ], [ -77.05833, 38.75861 ], [ -77.05927, 38.75882 ], [ -77.05977, 38.75967 ], [ -77.06018, 38.75957 ], [ -77.06034, 38.75872 ], [ -77.06086, 38.75866 ], [ -77.06163, 38.75939 ], [ -77.06343, 38.75963 ], [ -77.06535, 38.75713 ], [ -77.064, 38.75706 ], [ -77.06387, 38.7563 ], [ -77.06708, 38.75587 ], [ -77.06886, 38.75507 ], [ -77.06936, 38.75554 ], [ -77.06976, 38.7548 ], [ -77.0685, 38.75457 ], [ -77.06858, 38.75381 ], [ -77.06784, 38.75336 ], [ -77.06822, 38.75236 ], [ -77.06898, 38.75208 ], [ -77.07084, 38.75224 ], [ -77.0717, 38.75347 ], [ -77.07224, 38.75246 ], [ -77.07315, 38.75218 ], [ -77.07383, 38.75394 ], [ -77.07357, 38.7543 ], [ -77.07271, 38.75436 ], [ -77.0734, 38.75514 ], [ -77.07294, 38.75595 ], [ -77.07213, 38.75611 ], [ -77.07239, 38.75695 ], [ -77.07142, 38.75704 ], [ -77.0705, 38.75622 ], [ -77.07175, 38.75748 ], [ -77.07185, 38.75851 ], [ -77.07396, 38.75862 ], [ -77.07439, 38.76033 ], [ -77.07618, 38.7602 ], [ -77.07659, 38.76096 ], [ -77.07771, 38.76078 ], [ -77.07763, 38.76167 ], [ -77.07852, 38.76268 ], [ -77.07843, 38.7636 ], [ -77.07922, 38.76415 ], [ -77.0834, 38.76513 ], [ -77.08373, 38.7641 ], [ -77.0847, 38.76417 ], [ -77.08488, 38.76464 ] ], [ [ -77.07736, 38.77602 ], [ -77.07688, 38.77605 ], [ -77.07734, 38.77609 ], [ -77.07736, 38.77602 ] ], [ [ -77.07715, 38.77403 ], [ -77.07678, 38.77199 ], [ -77.07739, 38.77162 ], [ -77.07598, 38.77114 ], [ -77.07715, 38.77403 ] ], [ [ -77.07452, 38.7698 ], [ -77.07584, 38.76992 ], [ -77.08045, 38.77148 ], [ -77.08052, 38.77097 ], [ -77.07803, 38.77011 ], [ -77.07503, 38.76966 ], [ -77.07497, 38.769 ], [ -77.07441, 38.76879 ], [ -77.07452, 38.7698 ] ], [ [ -77.07644, 38.76765 ], [ -77.07706, 38.76703 ], [ -77.07675, 38.76683 ], [ -77.07644, 38.76765 ] ], [ [ -77.07447, 38.76474 ], [ -77.07541, 38.76469 ], [ -77.07344, 38.76344 ], [ -77.07345, 38.76435 ], [ -77.07401, 38.76426 ], [ -77.07447, 38.76474 ] ], [ [ -77.07167, 38.76647 ], [ -77.0721, 38.76381 ], [ -77.07147, 38.76426 ], [ -77.07054, 38.764 ], [ -77.06916, 38.76453 ], [ -77.06945, 38.76585 ], [ -77.0702, 38.76632 ], [ -77.07017, 38.7669 ], [ -77.0708, 38.76749 ], [ -77.07134, 38.7671 ], [ -77.07212, 38.76781 ], [ -77.07392, 38.76773 ], [ -77.07432, 38.76668 ], [ -77.07167, 38.76647 ] ], [ [ -77.06948, 38.76329 ], [ -77.07122, 38.76119 ], [ -77.07059, 38.76092 ], [ -77.06948, 38.76329 ] ], [ [ -77.07114, 38.75992 ], [ -77.07105, 38.75975 ], [ -77.07099, 38.75985 ], [ -77.07114, 38.75992 ] ], [ [ -77.08204, 38.77365 ], [ -77.08544, 38.77385 ], [ -77.08543, 38.7735 ], [ -77.08435, 38.77324 ], [ -77.08418, 38.77279 ], [ -77.0847, 38.77221 ], [ -77.0856, 38.77224 ], [ -77.08566, 38.77187 ], [ -77.08468, 38.77158 ], [ -77.08456, 38.77117 ], [ -77.08553, 38.77067 ], [ -77.08266, 38.77037 ], [ -77.08204, 38.77365 ] ], [ [ -77.07941, 38.7666 ], [ -77.07997, 38.76532 ], [ -77.07951, 38.76528 ], [ -77.07847, 38.76633 ], [ -77.07941, 38.7666 ] ], [ [ -77.08287, 38.7693 ], [ -77.08325, 38.76898 ], [ -77.08308, 38.76892 ], [ -77.08287, 38.7693 ] ], [ [ -77.08518, 38.76821 ], [ -77.08516, 38.7685 ], [ -77.08532, 38.76823 ], [ -77.08518, 38.76821 ] ], [ [ -77.0845, 38.76945 ], [ -77.08448, 38.76947 ], [ -77.08457, 38.76948 ], [ -77.0845, 38.76945 ] ], [ [ -77.07874, 38.77723 ], [ -77.07844, 38.77733 ], [ -77.07884, 38.77724 ], [ -77.07874, 38.77723 ] ], [ [ -77.07692, 38.76396 ], [ -77.07408, 38.76205 ], [ -77.07367, 38.76238 ], [ -77.07682, 38.76423 ], [ -77.07692, 38.76396 ] ], [ [ -77.07713, 38.76267 ], [ -77.07714, 38.76265 ], [ -77.0771, 38.76265 ], [ -77.07713, 38.76267 ] ], [ [ -77.08001, 38.77355 ], [ -77.07938, 38.77395 ], [ -77.07966, 38.77459 ], [ -77.07927, 38.77488 ], [ -77.07995, 38.7749 ], [ -77.08001, 38.77355 ] ], [ [ -77.07788, 38.76524 ], [ -77.07822, 38.7649 ], [ -77.07805, 38.76478 ], [ -77.07788, 38.76524 ] ], [ [ -77.07185, 38.76009 ], [ -77.07168, 38.76015 ], [ -77.07185, 38.76023 ], [ -77.07185, 38.76009 ] ], [ [ -77.07201, 38.76287 ], [ -77.0726, 38.76169 ], [ -77.07134, 38.76263 ], [ -77.07201, 38.76287 ] ], [ [ -77.07201, 38.76346 ], [ -77.07206, 38.76355 ], [ -77.07203, 38.76341 ], [ -77.07201, 38.76346 ] ], [ [ -77.07002, 38.75347 ], [ -77.06989, 38.75321 ], [ -77.06974, 38.7532 ], [ -77.07002, 38.75347 ] ], [ [ -77.06737, 38.77621 ], [ -77.0671, 38.77621 ], [ -77.06697, 38.77632 ], [ -77.06737, 38.77621 ] ], [ [ -77.06643, 38.76493 ], [ -77.06746, 38.76497 ], [ -77.06794, 38.76518 ], [ -77.06695, 38.76444 ], [ -77.06643, 38.76493 ] ], [ [ -77.06142, 38.76248 ], [ -77.06338, 38.76095 ], [ -77.06447, 38.76113 ], [ -77.06709, 38.76296 ], [ -77.06603, 38.76215 ], [ -77.06545, 38.76109 ], [ -77.06129, 38.76045 ], [ -77.06016, 38.7607 ], [ -77.06031, 38.76188 ], [ -77.06142, 38.76248 ] ], [ [ -77.06992, 38.77251 ], [ -77.07236, 38.77183 ], [ -77.07225, 38.77156 ], [ -77.06988, 38.77222 ], [ -77.06992, 38.77251 ] ], [ [ -77.07003, 38.76984 ], [ -77.07019, 38.77098 ], [ -77.07107, 38.77074 ], [ -77.07095, 38.76977 ], [ -77.07003, 38.76984 ] ], [ [ -77.07426, 38.7656 ], [ -77.07429, 38.7656 ], [ -77.07427, 38.76558 ], [ -77.07426, 38.7656 ] ], [ [ -77.07363, 38.77145 ], [ -77.07448, 38.77142 ], [ -77.07476, 38.7717 ], [ -77.07444, 38.77094 ], [ -77.0736, 38.77118 ], [ -77.07363, 38.77145 ] ], [ [ -77.06643, 38.75981 ], [ -77.06679, 38.75878 ], [ -77.06726, 38.75863 ], [ -77.06641, 38.75805 ], [ -77.0657, 38.75909 ], [ -77.06601, 38.75962 ], [ -77.0655, 38.75998 ], [ -77.06643, 38.75981 ] ], [ [ -77.06673, 38.75693 ], [ -77.06842, 38.75799 ], [ -77.0688, 38.75816 ], [ -77.06796, 38.7573 ], [ -77.06673, 38.75693 ] ], [ [ -77.06857, 38.75631 ], [ -77.06918, 38.75672 ], [ -77.06916, 38.75599 ], [ -77.06857, 38.75631 ] ], [ [ -77.0703, 38.7586 ], [ -77.07038, 38.75783 ], [ -77.06991, 38.75752 ], [ -77.0703, 38.7586 ] ], [ [ -77.06844, 38.76212 ], [ -77.06704, 38.76137 ], [ -77.06827, 38.76234 ], [ -77.06844, 38.76212 ] ], [ [ -77.06919, 38.7609 ], [ -77.06797, 38.76045 ], [ -77.0691, 38.76117 ], [ -77.06919, 38.7609 ] ], [ [ -77.06902, 38.75948 ], [ -77.0695, 38.75985 ], [ -77.06956, 38.75972 ], [ -77.06902, 38.75948 ] ], [ [ -77.06788, 38.76352 ], [ -77.06795, 38.76369 ], [ -77.06828, 38.76385 ], [ -77.06788, 38.76352 ] ], [ [ -77.06457, 38.77707 ], [ -77.06484, 38.77675 ], [ -77.06454, 38.77666 ], [ -77.06457, 38.77707 ] ], [ [ -77.0648, 38.77425 ], [ -77.06529, 38.77305 ], [ -77.06463, 38.77279 ], [ -77.06364, 38.77296 ], [ -77.06273, 38.77147 ], [ -77.06337, 38.77446 ], [ -77.0648, 38.77425 ] ], [ [ -77.06434, 38.77127 ], [ -77.06496, 38.77077 ], [ -77.0647, 38.7693 ], [ -77.06303, 38.76817 ], [ -77.06269, 38.76718 ], [ -77.06212, 38.76842 ], [ -77.06304, 38.76924 ], [ -77.06211, 38.76975 ], [ -77.06321, 38.77041 ], [ -77.06396, 38.77034 ], [ -77.06434, 38.77127 ] ], [ [ -77.06684, 38.77741 ], [ -77.06606, 38.77727 ], [ -77.06559, 38.77782 ], [ -77.06644, 38.77786 ], [ -77.06684, 38.77741 ] ], [ [ -77.06624, 38.77432 ], [ -77.0655, 38.77528 ], [ -77.06561, 38.77584 ], [ -77.06652, 38.77443 ], [ -77.06624, 38.77432 ] ], [ [ -77.06142, 38.76306 ], [ -77.06162, 38.76309 ], [ -77.0615, 38.76295 ], [ -77.06142, 38.76306 ] ], [ [ -77.06275, 38.76574 ], [ -77.06121, 38.76495 ], [ -77.06138, 38.76601 ], [ -77.06275, 38.76574 ] ], [ [ -77.06121, 38.76928 ], [ -77.06137, 38.76968 ], [ -77.06164, 38.76964 ], [ -77.06139, 38.76954 ], [ -77.06121, 38.76928 ] ] ] ] } }
]
}
