{
"type": "FeatureCollection",
"name": "21",
"crs": { "type": "name", "properties": { "name": "urn:ogc:def:crs:OGC:1.3:CRS84" } },
"xy_coordinate_resolution": 1e-05,
"features": [
{ "type": "Feature", "properties": { "variant": "T0", "miles": 1.0 }, "geometry": { "type": "Polygon", "coordinates": [ [ [ -77.19524, 38.94531 ], [ -77.19961, 38.94564 ], [ -77.20022, 38.94624 ], [ -77.19969, 38.94666 ], [ -77.19913, 38.94851 ], [ -77.19748, 38.94846 ], [ -77.1968, 38.94797 ], [ -77.19628, 38.94834 ], [ -77.19558, 38.94797 ], [ -77.19587, 38.95057 ], [ -77.1968, 38.95118 ], [ -77.19612, 38.95195 ], [ -77.19306, 38.95366 ], [ -77.19476, 38.95426 ], [ -77.19652, 38.95199 ], [ -77.19843, 38.95183 ], [ -77.19896, 38.95248 ], [ -77.19844, 38.95291 ], [ -77.19876, 38.95327 ], [ -77.19851, 38.95383 ], [ -77.19749, 38.95458 ], [ -77.19621, 38.95428 ], [ -77.19694, 38.95507 ], [ -77.20008, 38.95627 ], [ -77.2004, 38.9556 ], [ -77.19958, 38.95495 ], [ -77.19956, 38.95433 ], [ -77.20095, 38.95358 ], [ -77.20175, 38.9525 ], [ -77.20228, 38.95249 ], [ -77.20267, 38.95319 ], [ -77.20124, 38.95472 ], [ -77.20262, 38.95452 ], [ -77.20302, 38.95522 ], [ -77.20176, 38.95583 ], [ -77.20132, 38.95675 ], [ -77.20266, 38.95625 ], [ -77.20438, 38.95682 ], [ -77.20474, 38.95713 ], [ -77.20441, 38.95774 ], [ -77.20547, 38.95824 ], [ -77.20639, 38.9593 ], [ -77.20564, 38.95979 ], [ -77.20416, 38.95882 ], [ -77.19748, 38.95651 ], [ -77.19741, 38.95791 ], [ -77.19691, 38.95803 ], [ -77.1963, 38.95747 ], [ -77.19551, 38.958 ], [ -77.19483, 38.95745 ], [ -77.19513, 38.95574 ], [ -77.19242, 38.95474 ], [ -77.19218, 38.95841 ], [ -77.19125, 38.95956 ], [ -77.19192, 38.96069 ], [ -77.1888, 38.96228 ], [ -77.18828, 38.96163 ], [ -77.19019, 38.96027 ], [ -77.1894, 38.96034 ], [ -77.18871, 38.96113 ], [ -77.1882, 38.96103 ], [ -77.18738, 38.95892 ], [ -77.18358, 38.95825 ], [ -77.18262, 38.95848 ], [ -77.18229, 38.95816 ], [ -77.18404, 38.95581 ], [ -77.18402, 38.95485 ], [ -77.18257, 38.955 ], [ -77.18136, 38.95434 ], [ -77.1817, 38.95362 ], [ -77.18243, 38.95375 ], [ -77.18225, 38.95304 ], [ -77.18282, 38.95253 ], [ -77.18003, 38.95195 ], [ -77.17969, 38.95269 ], [ -77.17918, 38.9528 ], [ -77.17872, 38.9526 ], [ -77.17868, 38.9517 ], [ -77.17726, 38.95148 ], [ -77.17671, 38.95085 ], [ -77.177, 38.95051 ], [ -77.1787, 38.9506 ], [ -77.18017, 38.95001 ], [ -77.18068, 38.95013 ], [ -77.18082, 38.95076 ], [ -77.18404, 38.9517 ], [ -77.18517, 38.95104 ], [ -77.18638, 38.95096 ], [ -77.18794, 38.95131 ], [ -77.18852, 38.95268 ], [ -77.1894, 38.95283 ], [ -77.18825, 38.95023 ], [ -77.18537, 38.95076 ], [ -77.1848, 38.9496 ], [ -77.18413, 38.95015 ], [ -77.18364, 38.95 ], [ -77.18341, 38.9491 ], [ -77.18225, 38.94858 ], [ -77.18193, 38.94766 ], [ -77.18268, 38.94588 ], [ -77.18351, 38.94529 ], [ -77.18458, 38.94567 ], [ -77.18479, 38.94504 ], [ -77.18531, 38.94495 ], [ -77.18986, 38.94548 ], [ -77.18865, 38.94516 ], [ -77.18851, 38.94476 ], [ -77.18878, 38.9444 ], [ -77.19013, 38.94438 ], [ -77.19009, 38.9438 ], [ -77.19083, 38.94355 ], [ -77.19117, 38.94248 ], [ -77.19283, 38.94241 ], [ -77.19261, 38.94211 ], [ -77.19332, 38.94151 ], [ -77.1935, 38.94057 ], [ -77.19402, 38.94054 ], [ -77.19471, 38.94128 ], [ -77.19524, 38.94531 ] ], [ [ -77.19086, 38.95675 ], [ -77.18963, 38.95668 ], [ -77.18876, 38.95593 ], [ -77.18544, 38.95564 ], [ -77.18511, 38.95593 ], [ -77.18802, 38.95677 ], [ -77.19084, 38.95733 ], [ -77.19086, 38.95675 ] ], [ [ -77.19012, 38.9553 ], [ -77.18989, 38.9553 ], [ -77.19029, 38.95572 ], [ -77.19094, 38.95549 ], [ -77.19012, 38.9553 ] ], [ [ -77.19012, 38.95416 ], [ -77.18929, 38.95402 ], [ -77.1894, 38.95456 ], [ -77.19, 38.95424 ], [ -77.19112, 38.95438 ], [ -77.19012, 38.95416 ] ], [ [ -77.19428, 38.95164 ], [ -77.19303, 38.95167 ], [ -77.1928, 38.95017 ], [ -77.19068, 38.94958 ], [ -77.19108, 38.95045 ], [ -77.18997, 38.95066 ], [ -77.19084, 38.95308 ], [ -77.1917, 38.9532 ], [ -77.19428, 38.95164 ] ], [ [ -77.19044, 38.94663 ], [ -77.18826, 38.9464 ], [ -77.189, 38.94806 ], [ -77.18938, 38.94755 ], [ -77.1903, 38.94743 ], [ -77.19044, 38.94663 ] ], [ [ -77.1921, 38.94572 ], [ -77.19392, 38.94592 ], [ -77.19124, 38.9456 ], [ -77.1921, 38.94572 ] ], [ [ -77.19389, 38.94794 ], [ -77.19371, 38.94821 ], [ -77.19422, 38.94817 ], [ -77.19389, 38.94794 ] ], [ [ -77.19323, 38.9447 ], [ -77.19297, 38.94469 ], [ -77.19379, 38.94476 ], [ -77.19323, 38.9447 ] ], [ [ -77.19222, 38.94349 ], [ -77.19222, 38.94358 ], [ -77.19364, 38.94361 ], [ -77.19222, 38.94349 ] ], [ [ -77.1979, 38.9466 ], [ -77.19817, 38.94746 ], [ -77.1983, 38.94667 ], [ -77.1979, 38.9466 ] ], [ [ -77.19735, 38.95286 ], [ -77.19688, 38.95332 ], [ -77.19716, 38.95343 ], [ -77.19735, 38.95286 ] ], [ [ -77.19244, 38.94819 ], [ -77.19279, 38.94829 ], [ -77.19259, 38.94805 ], [ -77.19244, 38.94819 ] ], [ [ -77.19389, 38.94929 ], [ -77.19317, 38.94935 ], [ -77.19332, 38.9496 ], [ -77.19389, 38.94929 ] ], [ [ -77.18706, 38.95417 ], [ -77.18723, 38.95358 ], [ -77.18659, 38.95343 ], [ -77.1868, 38.95418 ], [ -77.18641, 38.95445 ], [ -77.18487, 38.95381 ], [ -77.18535, 38.95456 ], [ -77.18703, 38.95479 ], [ -77.18802, 38.95447 ], [ -77.18706, 38.95417 ] ], [ [ -77.18778, 38.94869 ], [ -77.18782, 38.9487 ], [ -77.18782, 38.94869 ], [ -77.18778, 38.94869 ] ], [ [ -77.18982, 38.95922 ], [ -77.19067, 38.95841 ], [ -77.18452, 38.95693 ], [ -77.18429, 38.95728 ], [ -77.18817, 38.95801 ], [ -77.18926, 38.95926 ], [ -77.18982, 38.95922 ] ], [ [ -77.18658, 38.9483 ], [ -77.18575, 38.94846 ], [ -77.1872, 38.94862 ], [ -77.18658, 38.9483 ] ], [ [ -77.18467, 38.94683 ], [ -77.18481, 38.94726 ], [ -77.18519, 38.94692 ], [ -77.18467, 38.94683 ] ], [ [ -77.18392, 38.94663 ], [ -77.18381, 38.94659 ], [ -77.18377, 38.94669 ], [ -77.18392, 38.94663 ] ], [ [ -77.18641, 38.94963 ], [ -77.18619, 38.9496 ], [ -77.18619, 38.94966 ], [ -77.18641, 38.94963 ] ], [ [ -77.18295, 38.95395 ], [ -77.18343, 38.95387 ], [ -77.1834, 38.95362 ], [ -77.1825, 38.9538 ], [ -77.18295, 38.95395 ] ], [ [ -77.18563, 38.95206 ], [ -77.18707, 38.95242 ], [ -77.18703, 38.95217 ], [ -77.18563, 38.95206 ] ] ] } },
{ "type": "Feature", "properties": { "variant": "T0", "miles": 1.5 }, "geometry": { "type": "Polygon", "coordinates": [ [ [ -77.19453, 38.93926 ], [ -77.19656, 38.93909 ], [ -77.19752, 38.93795 ], [ -77.19848, 38.93778 ], [ -77.19869, 38.93852 ], [ -77.19796, 38.9394 ], [ -77.2001, 38.94021 ], [ -77.20108, 38.94002 ], [ -77.20209, 38.94146 ], [ -77.202, 38.94291 ], [ -77.20047, 38.94381 ], [ -77.2003, 38.94433 ], [ -77.20193, 38.9448 ], [ -77.20235, 38.94549 ], [ -77.20146, 38.94581 ], [ -77.19668, 38.94444 ], [ -77.19599, 38.94481 ], [ -77.19506, 38.94381 ], [ -77.19524, 38.94531 ], [ -77.19961, 38.94564 ], [ -77.20012, 38.94638 ], [ -77.20087, 38.94638 ], [ -77.20114, 38.94728 ], [ -77.20052, 38.94796 ], [ -77.19944, 38.94813 ], [ -77.19891, 38.94909 ], [ -77.19792, 38.94963 ], [ -77.19636, 38.94915 ], [ -77.19625, 38.94833 ], [ -77.19558, 38.94797 ], [ -77.19587, 38.95057 ], [ -77.1968, 38.95118 ], [ -77.19612, 38.95195 ], [ -77.19306, 38.95366 ], [ -77.19476, 38.95426 ], [ -77.19576, 38.95268 ], [ -77.1972, 38.95173 ], [ -77.19823, 38.95044 ], [ -77.19935, 38.95052 ], [ -77.19966, 38.94949 ], [ -77.20076, 38.94934 ], [ -77.20185, 38.95042 ], [ -77.2016, 38.95078 ], [ -77.20072, 38.95075 ], [ -77.20077, 38.95171 ], [ -77.20156, 38.95228 ], [ -77.20141, 38.9518 ], [ -77.20172, 38.95146 ], [ -77.20244, 38.9515 ], [ -77.20281, 38.95072 ], [ -77.2037, 38.95104 ], [ -77.20387, 38.95175 ], [ -77.20367, 38.95246 ], [ -77.20286, 38.95285 ], [ -77.2021, 38.95418 ], [ -77.20124, 38.95472 ], [ -77.20262, 38.95452 ], [ -77.20302, 38.95522 ], [ -77.20176, 38.95583 ], [ -77.20132, 38.95675 ], [ -77.20231, 38.95628 ], [ -77.2032, 38.95634 ], [ -77.20474, 38.95713 ], [ -77.20441, 38.95774 ], [ -77.20481, 38.95787 ], [ -77.20514, 38.95733 ], [ -77.20369, 38.95422 ], [ -77.20382, 38.95382 ], [ -77.20478, 38.95371 ], [ -77.20648, 38.95707 ], [ -77.20587, 38.95857 ], [ -77.20622, 38.9589 ], [ -77.20844, 38.95868 ], [ -77.21319, 38.95931 ], [ -77.21426, 38.95877 ], [ -77.21472, 38.95898 ], [ -77.2151, 38.96023 ], [ -77.21426, 38.96063 ], [ -77.2084, 38.95976 ], [ -77.20577, 38.95994 ], [ -77.20416, 38.95882 ], [ -77.19748, 38.95651 ], [ -77.19741, 38.95791 ], [ -77.19691, 38.95803 ], [ -77.1963, 38.95747 ], [ -77.19551, 38.958 ], [ -77.19483, 38.95745 ], [ -77.19513, 38.95574 ], [ -77.19242, 38.95474 ], [ -77.19218, 38.95841 ], [ -77.19125, 38.95956 ], [ -77.19196, 38.9606 ], [ -77.18983, 38.96197 ], [ -77.1897, 38.96393 ], [ -77.18896, 38.96549 ], [ -77.18815, 38.96613 ], [ -77.18764, 38.96603 ], [ -77.18737, 38.96568 ], [ -77.18787, 38.96438 ], [ -77.18676, 38.96498 ], [ -77.18539, 38.96513 ], [ -77.18741, 38.96626 ], [ -77.188, 38.96716 ], [ -77.18772, 38.96751 ], [ -77.1872, 38.96761 ], [ -77.18449, 38.966 ], [ -77.18389, 38.9649 ], [ -77.18201, 38.96624 ], [ -77.1816, 38.96708 ], [ -77.18065, 38.96727 ], [ -77.18036, 38.96629 ], [ -77.18242, 38.96426 ], [ -77.18356, 38.96383 ], [ -77.18655, 38.96385 ], [ -77.1877, 38.96182 ], [ -77.19034, 38.96039 ], [ -77.1894, 38.96034 ], [ -77.18917, 38.96092 ], [ -77.1882, 38.96103 ], [ -77.18738, 38.95892 ], [ -77.18358, 38.95825 ], [ -77.18613, 38.9591 ], [ -77.18717, 38.96014 ], [ -77.18725, 38.96065 ], [ -77.18636, 38.96097 ], [ -77.18536, 38.96001 ], [ -77.1842, 38.95975 ], [ -77.186, 38.96101 ], [ -77.18599, 38.96178 ], [ -77.18423, 38.96254 ], [ -77.18298, 38.9623 ], [ -77.1829, 38.96164 ], [ -77.18163, 38.96219 ], [ -77.17793, 38.96268 ], [ -77.17703, 38.9625 ], [ -77.17568, 38.9614 ], [ -77.17631, 38.96003 ], [ -77.17748, 38.95955 ], [ -77.17946, 38.95985 ], [ -77.17977, 38.95905 ], [ -77.17876, 38.95932 ], [ -77.17831, 38.9591 ], [ -77.17846, 38.95835 ], [ -77.18, 38.95795 ], [ -77.18097, 38.95667 ], [ -77.1815, 38.95671 ], [ -77.18178, 38.95743 ], [ -77.18261, 38.9574 ], [ -77.18314, 38.95666 ], [ -77.18044, 38.95616 ], [ -77.17937, 38.95638 ], [ -77.17954, 38.95696 ], [ -77.17867, 38.95732 ], [ -77.17754, 38.95633 ], [ -77.17655, 38.95671 ], [ -77.17634, 38.95823 ], [ -77.17536, 38.95819 ], [ -77.17522, 38.95701 ], [ -77.17412, 38.95497 ], [ -77.1741, 38.95333 ], [ -77.17288, 38.95163 ], [ -77.17288, 38.95066 ], [ -77.16845, 38.94953 ], [ -77.16798, 38.94886 ], [ -77.16884, 38.94849 ], [ -77.16991, 38.94876 ], [ -77.17024, 38.94796 ], [ -77.17112, 38.94763 ], [ -77.17155, 38.94832 ], [ -77.17123, 38.9491 ], [ -77.17224, 38.94936 ], [ -77.17269, 38.94834 ], [ -77.17251, 38.94713 ], [ -77.17342, 38.94685 ], [ -77.17384, 38.94725 ], [ -77.17453, 38.94549 ], [ -77.17533, 38.94556 ], [ -77.1759, 38.94487 ], [ -77.17745, 38.94453 ], [ -77.17617, 38.94435 ], [ -77.17557, 38.94375 ], [ -77.17662, 38.9433 ], [ -77.177, 38.94199 ], [ -77.17796, 38.94194 ], [ -77.17751, 38.94115 ], [ -77.17882, 38.94029 ], [ -77.17976, 38.94048 ], [ -77.1808, 38.94184 ], [ -77.1806, 38.94283 ], [ -77.18106, 38.94298 ], [ -77.18221, 38.9417 ], [ -77.184, 38.94275 ], [ -77.18409, 38.94364 ], [ -77.18311, 38.94368 ], [ -77.18249, 38.94314 ], [ -77.18219, 38.94364 ], [ -77.18468, 38.94477 ], [ -77.18505, 38.9438 ], [ -77.18632, 38.94255 ], [ -77.18555, 38.94227 ], [ -77.18544, 38.94151 ], [ -77.18619, 38.94108 ], [ -77.18698, 38.94116 ], [ -77.18708, 38.93979 ], [ -77.18611, 38.9392 ], [ -77.18633, 38.93882 ], [ -77.18717, 38.93871 ], [ -77.18721, 38.93832 ], [ -77.18613, 38.9378 ], [ -77.18616, 38.93739 ], [ -77.18708, 38.93714 ], [ -77.19091, 38.9378 ], [ -77.19297, 38.93704 ], [ -77.19369, 38.93734 ], [ -77.19409, 38.93676 ], [ -77.19519, 38.93647 ], [ -77.19703, 38.93424 ], [ -77.19798, 38.93407 ], [ -77.19821, 38.93481 ], [ -77.19453, 38.93926 ] ], [ [ -77.18982, 38.95922 ], [ -77.19067, 38.95841 ], [ -77.18452, 38.95693 ], [ -77.18429, 38.95728 ], [ -77.18817, 38.95801 ], [ -77.18918, 38.95926 ], [ -77.18982, 38.95922 ] ], [ [ -77.19086, 38.95675 ], [ -77.18963, 38.95668 ], [ -77.18876, 38.95593 ], [ -77.18544, 38.95564 ], [ -77.18511, 38.95593 ], [ -77.18802, 38.95677 ], [ -77.19084, 38.95733 ], [ -77.19086, 38.95675 ] ], [ [ -77.19032, 38.95424 ], [ -77.19112, 38.95438 ], [ -77.18929, 38.95402 ], [ -77.1894, 38.95456 ], [ -77.19032, 38.95424 ] ], [ [ -77.18825, 38.95023 ], [ -77.18569, 38.95081 ], [ -77.18483, 38.95022 ], [ -77.18419, 38.95119 ], [ -77.18338, 38.95075 ], [ -77.18344, 38.95016 ], [ -77.18265, 38.9505 ], [ -77.1822, 38.95029 ], [ -77.18187, 38.94915 ], [ -77.18241, 38.94873 ], [ -77.18192, 38.94785 ], [ -77.18225, 38.94685 ], [ -77.18141, 38.94713 ], [ -77.18102, 38.94952 ], [ -77.18008, 38.94931 ], [ -77.17981, 38.94871 ], [ -77.17943, 38.94995 ], [ -77.1784, 38.9501 ], [ -77.17825, 38.95053 ], [ -77.17912, 38.95052 ], [ -77.18016, 38.94949 ], [ -77.18171, 38.95113 ], [ -77.18404, 38.9517 ], [ -77.18557, 38.95095 ], [ -77.1876, 38.95117 ], [ -77.18827, 38.95161 ], [ -77.18852, 38.95268 ], [ -77.1894, 38.95283 ], [ -77.18825, 38.95023 ] ], [ [ -77.18938, 38.94755 ], [ -77.1903, 38.94743 ], [ -77.19044, 38.94663 ], [ -77.18826, 38.9464 ], [ -77.18901, 38.94805 ], [ -77.18938, 38.94755 ] ], [ [ -77.18986, 38.94548 ], [ -77.18987, 38.94545 ], [ -77.18679, 38.94512 ], [ -77.18986, 38.94548 ] ], [ [ -77.18875, 38.94361 ], [ -77.1879, 38.94361 ], [ -77.18827, 38.94369 ], [ -77.18863, 38.94419 ], [ -77.18875, 38.94361 ] ], [ [ -77.19069, 38.94146 ], [ -77.19179, 38.94241 ], [ -77.19283, 38.94241 ], [ -77.19208, 38.94143 ], [ -77.19288, 38.94079 ], [ -77.19215, 38.93965 ], [ -77.19202, 38.94069 ], [ -77.19034, 38.94068 ], [ -77.18991, 38.93875 ], [ -77.18858, 38.93855 ], [ -77.18834, 38.94155 ], [ -77.19069, 38.94146 ] ], [ [ -77.19371, 38.94821 ], [ -77.19422, 38.94817 ], [ -77.19419, 38.94798 ], [ -77.19371, 38.94821 ] ], [ [ -77.19275, 38.94829 ], [ -77.19279, 38.94829 ], [ -77.19259, 38.94805 ], [ -77.19275, 38.94829 ] ], [ [ -77.1921, 38.94572 ], [ -77.19392, 38.94592 ], [ -77.19391, 38.94584 ], [ -77.19123, 38.94563 ], [ -77.1921, 38.94572 ] ], [ [ -77.19324, 38.94362 ], [ -77.19364, 38.94361 ], [ -77.19222, 38.94349 ], [ -77.19324, 38.94362 ] ], [ [ -77.19675, 38.94184 ], [ -77.19817, 38.94068 ], [ -77.1968, 38.94016 ], [ -77.19465, 38.94033 ], [ -77.19477, 38.94137 ], [ -77.19561, 38.94268 ], [ -77.19733, 38.94348 ], [ -77.19675, 38.94184 ] ], [ [ -77.20067, 38.94169 ], [ -77.19944, 38.94117 ], [ -77.19811, 38.94212 ], [ -77.19873, 38.94296 ], [ -77.19871, 38.94387 ], [ -77.19899, 38.94395 ], [ -77.19938, 38.94214 ], [ -77.20034, 38.94199 ], [ -77.20057, 38.94259 ], [ -77.20067, 38.94169 ] ], [ [ -77.19964, 38.94704 ], [ -77.19978, 38.94703 ], [ -77.19985, 38.94663 ], [ -77.19964, 38.94704 ] ], [ [ -77.1979, 38.9466 ], [ -77.19817, 38.94746 ], [ -77.1983, 38.94667 ], [ -77.1979, 38.9466 ] ], [ [ -77.19687, 38.94808 ], [ -77.1968, 38.94797 ], [ -77.19665, 38.94818 ], [ -77.19687, 38.94808 ] ], [ [ -77.19772, 38.9485 ], [ -77.19749, 38.94846 ], [ -77.19755, 38.9485 ], [ -77.19772, 38.9485 ] ], [ [ -77.19386, 38.93805 ], [ -77.19375, 38.93763 ], [ -77.19373, 38.93772 ], [ -77.19386, 38.93805 ] ], [ [ -77.19378, 38.94469 ], [ -77.19297, 38.94469 ], [ -77.19356, 38.94475 ], [ -77.19378, 38.94469 ] ], [ [ -77.20008, 38.95627 ], [ -77.2004, 38.95564 ], [ -77.19952, 38.95444 ], [ -77.20111, 38.95331 ], [ -77.19896, 38.95157 ], [ -77.1986, 38.95192 ], [ -77.19896, 38.95248 ], [ -77.19844, 38.95291 ], [ -77.19865, 38.95367 ], [ -77.19811, 38.95424 ], [ -77.1973, 38.95459 ], [ -77.19621, 38.95428 ], [ -77.1975, 38.95525 ], [ -77.20008, 38.95627 ] ], [ [ -77.1971, 38.95308 ], [ -77.19688, 38.95332 ], [ -77.19768, 38.95297 ], [ -77.1971, 38.95308 ] ], [ [ -77.19428, 38.95164 ], [ -77.19303, 38.95167 ], [ -77.19279, 38.95042 ], [ -77.19068, 38.94958 ], [ -77.19108, 38.95045 ], [ -77.18997, 38.95066 ], [ -77.19084, 38.95308 ], [ -77.19181, 38.9531 ], [ -77.19428, 38.95164 ] ], [ [ -77.19375, 38.94962 ], [ -77.19389, 38.94929 ], [ -77.19356, 38.94931 ], [ -77.19375, 38.94962 ] ], [ [ -77.19002, 38.94425 ], [ -77.19, 38.94437 ], [ -77.19013, 38.94438 ], [ -77.19002, 38.94425 ] ], [ [ -77.19044, 38.94362 ], [ -77.19013, 38.94362 ], [ -77.19011, 38.94379 ], [ -77.19044, 38.94362 ] ], [ [ -77.19033, 38.95573 ], [ -77.19094, 38.95551 ], [ -77.19012, 38.9553 ], [ -77.19033, 38.95573 ] ], [ [ -77.17798, 38.9467 ], [ -77.17825, 38.94694 ], [ -77.17831, 38.94677 ], [ -77.17798, 38.9467 ] ], [ [ -77.18381, 38.94659 ], [ -77.18377, 38.94669 ], [ -77.18392, 38.94663 ], [ -77.18381, 38.94659 ] ], [ [ -77.18143, 38.94455 ], [ -77.18092, 38.94569 ], [ -77.18228, 38.94639 ], [ -77.1823, 38.94673 ], [ -77.18304, 38.94542 ], [ -77.18143, 38.94455 ] ], [ [ -77.18655, 38.94401 ], [ -77.18719, 38.94407 ], [ -77.18768, 38.94361 ], [ -77.18681, 38.94362 ], [ -77.18655, 38.94401 ] ], [ [ -77.18658, 38.9483 ], [ -77.18575, 38.94846 ], [ -77.1872, 38.94862 ], [ -77.18658, 38.9483 ] ], [ [ -77.18467, 38.94683 ], [ -77.18481, 38.94726 ], [ -77.18519, 38.94692 ], [ -77.18467, 38.94683 ] ], [ [ -77.18641, 38.94963 ], [ -77.18619, 38.9496 ], [ -77.18619, 38.94966 ], [ -77.18641, 38.94963 ] ], [ [ -77.17986, 38.94427 ], [ -77.17978, 38.94481 ], [ -77.18032, 38.94391 ], [ -77.17992, 38.94379 ], [ -77.17986, 38.94427 ] ], [ [ -77.18402, 38.95485 ], [ -77.18257, 38.955 ], [ -77.18136, 38.95434 ], [ -77.1817, 38.95362 ], [ -77.18243, 38.95375 ], [ -77.18225, 38.95304 ], [ -77.18282, 38.95253 ], [ -77.18003, 38.95195 ], [ -77.17969, 38.95269 ], [ -77.17896, 38.9527 ], [ -77.17857, 38.95318 ], [ -77.17767, 38.95287 ], [ -77.1776, 38.9532 ], [ -77.18052, 38.95366 ], [ -77.18105, 38.9543 ], [ -77.18022, 38.95472 ], [ -77.17737, 38.95427 ], [ -77.1778, 38.95526 ], [ -77.18074, 38.95508 ], [ -77.18402, 38.95572 ], [ -77.18402, 38.95485 ] ], [ [ -77.1834, 38.95362 ], [ -77.18248, 38.95379 ], [ -77.18297, 38.95395 ], [ -77.1834, 38.95362 ] ], [ [ -77.1868, 38.95418 ], [ -77.18641, 38.95445 ], [ -77.18487, 38.95381 ], [ -77.18535, 38.95456 ], [ -77.18801, 38.9547 ], [ -77.18706, 38.95417 ], [ -77.18723, 38.95358 ], [ -77.18669, 38.95346 ], [ -77.1868, 38.95418 ] ], [ [ -77.18604, 38.95201 ], [ -77.18563, 38.95206 ], [ -77.18707, 38.95242 ], [ -77.18604, 38.95201 ] ], [ [ -77.18396, 38.96142 ], [ -77.18358, 38.9609 ], [ -77.18314, 38.96146 ], [ -77.18396, 38.96142 ] ], [ [ -77.18323, 38.94905 ], [ -77.18326, 38.94908 ], [ -77.18335, 38.94908 ], [ -77.18323, 38.94905 ] ], [ [ -77.17783, 38.9616 ], [ -77.18146, 38.9611 ], [ -77.1822, 38.96065 ], [ -77.18294, 38.9593 ], [ -77.18215, 38.9585 ], [ -77.18117, 38.95854 ], [ -77.18036, 38.96074 ], [ -77.17955, 38.96095 ], [ -77.1775, 38.96063 ], [ -77.17715, 38.96109 ], [ -77.17783, 38.9616 ] ], [ [ -77.17668, 38.94756 ], [ -77.17761, 38.94661 ], [ -77.17558, 38.94606 ], [ -77.17458, 38.94997 ], [ -77.17688, 38.95031 ], [ -77.17713, 38.94914 ], [ -77.17668, 38.94756 ] ], [ [ -77.17424, 38.95102 ], [ -77.1742, 38.9513 ], [ -77.17505, 38.95253 ], [ -77.17624, 38.95302 ], [ -77.1766, 38.95136 ], [ -77.17424, 38.95102 ] ], [ [ -77.176, 38.95409 ], [ -77.17542, 38.95399 ], [ -77.17592, 38.95572 ], [ -77.1764, 38.95559 ], [ -77.176, 38.95409 ] ] ] } },
{ "type": "Feature", "properties": { "variant": "T0", "miles": 2.0 }, "geometry": { "type": "Polygon", "coordinates": [ [ [ -77.20331, 38.92872 ], [ -77.20367, 38.92943 ], [ -77.20026, 38.93172 ], [ -77.20101, 38.93222 ], [ -77.20174, 38.93161 ], [ -77.20298, 38.93152 ], [ -77.2032, 38.93226 ], [ -77.20213, 38.93285 ], [ -77.2028, 38.93314 ], [ -77.20368, 38.93294 ], [ -77.20478, 38.93445 ], [ -77.20437, 38.93483 ], [ -77.2033, 38.93474 ], [ -77.20245, 38.9355 ], [ -77.20164, 38.93506 ], [ -77.20206, 38.93425 ], [ -77.20167, 38.93449 ], [ -77.20064, 38.93422 ], [ -77.19972, 38.93301 ], [ -77.19902, 38.93384 ], [ -77.20044, 38.9347 ], [ -77.20048, 38.93511 ], [ -77.20041, 38.93606 ], [ -77.19923, 38.93716 ], [ -77.201, 38.93883 ], [ -77.20188, 38.93851 ], [ -77.20227, 38.93879 ], [ -77.20201, 38.93964 ], [ -77.20102, 38.94001 ], [ -77.2021, 38.9415 ], [ -77.20217, 38.94254 ], [ -77.2003, 38.94433 ], [ -77.20347, 38.94523 ], [ -77.20392, 38.9444 ], [ -77.20543, 38.94355 ], [ -77.20594, 38.94365 ], [ -77.20609, 38.9444 ], [ -77.20488, 38.94526 ], [ -77.20574, 38.9456 ], [ -77.2082, 38.94549 ], [ -77.20824, 38.94476 ], [ -77.20991, 38.94428 ], [ -77.21046, 38.94492 ], [ -77.20958, 38.94547 ], [ -77.21241, 38.94659 ], [ -77.21196, 38.94719 ], [ -77.21019, 38.94741 ], [ -77.21097, 38.94826 ], [ -77.21213, 38.94726 ], [ -77.21292, 38.94771 ], [ -77.21219, 38.94878 ], [ -77.21255, 38.94968 ], [ -77.21102, 38.94973 ], [ -77.21242, 38.95036 ], [ -77.21199, 38.95117 ], [ -77.21219, 38.95222 ], [ -77.21124, 38.95242 ], [ -77.21024, 38.95067 ], [ -77.20937, 38.95135 ], [ -77.21026, 38.95235 ], [ -77.20982, 38.95382 ], [ -77.21173, 38.95447 ], [ -77.21168, 38.95523 ], [ -77.20971, 38.95518 ], [ -77.20939, 38.95586 ], [ -77.20841, 38.9559 ], [ -77.20857, 38.95429 ], [ -77.20589, 38.95515 ], [ -77.20574, 38.95426 ], [ -77.20851, 38.95314 ], [ -77.20889, 38.95251 ], [ -77.20836, 38.95226 ], [ -77.20794, 38.95303 ], [ -77.20703, 38.95331 ], [ -77.20666, 38.95301 ], [ -77.20709, 38.95181 ], [ -77.20673, 38.95154 ], [ -77.2056, 38.95305 ], [ -77.20506, 38.95408 ], [ -77.20654, 38.95736 ], [ -77.20587, 38.95857 ], [ -77.20622, 38.9589 ], [ -77.20844, 38.95868 ], [ -77.21319, 38.95931 ], [ -77.21325, 38.95818 ], [ -77.21408, 38.95702 ], [ -77.2128, 38.95675 ], [ -77.21265, 38.95599 ], [ -77.21442, 38.95545 ], [ -77.21536, 38.95629 ], [ -77.21705, 38.9568 ], [ -77.21641, 38.95605 ], [ -77.21619, 38.95487 ], [ -77.21676, 38.95424 ], [ -77.21756, 38.95469 ], [ -77.2177, 38.95567 ], [ -77.21838, 38.95645 ], [ -77.21798, 38.95787 ], [ -77.21848, 38.9585 ], [ -77.21827, 38.95888 ], [ -77.21718, 38.95879 ], [ -77.21501, 38.95965 ], [ -77.21725, 38.95929 ], [ -77.22137, 38.96044 ], [ -77.22144, 38.96002 ], [ -77.22238, 38.95983 ], [ -77.22278, 38.96073 ], [ -77.2243, 38.96105 ], [ -77.22478, 38.96172 ], [ -77.22393, 38.96209 ], [ -77.22259, 38.96181 ], [ -77.22125, 38.96261 ], [ -77.22049, 38.96213 ], [ -77.22091, 38.96146 ], [ -77.21705, 38.96036 ], [ -77.21493, 38.96075 ], [ -77.21689, 38.96169 ], [ -77.21723, 38.96322 ], [ -77.21627, 38.96336 ], [ -77.21565, 38.96235 ], [ -77.21412, 38.96175 ], [ -77.21259, 38.96194 ], [ -77.21325, 38.96289 ], [ -77.21293, 38.96447 ], [ -77.21196, 38.96454 ], [ -77.21168, 38.96393 ], [ -77.21129, 38.96417 ], [ -77.21334, 38.96598 ], [ -77.21433, 38.96637 ], [ -77.21441, 38.96736 ], [ -77.21393, 38.96752 ], [ -77.21257, 38.96688 ], [ -77.21087, 38.96531 ], [ -77.20923, 38.96617 ], [ -77.2091, 38.9673 ], [ -77.20659, 38.96733 ], [ -77.20616, 38.96664 ], [ -77.20692, 38.96617 ], [ -77.20699, 38.9655 ], [ -77.2065, 38.96243 ], [ -77.20754, 38.96097 ], [ -77.20733, 38.9598 ], [ -77.20563, 38.9599 ], [ -77.20416, 38.95882 ], [ -77.19748, 38.95651 ], [ -77.19741, 38.95791 ], [ -77.19691, 38.95803 ], [ -77.1963, 38.95747 ], [ -77.19551, 38.958 ], [ -77.19503, 38.95784 ], [ -77.19513, 38.95574 ], [ -77.19242, 38.95474 ], [ -77.19218, 38.95841 ], [ -77.19125, 38.95956 ], [ -77.19196, 38.9606 ], [ -77.18983, 38.96197 ], [ -77.1897, 38.96393 ], [ -77.18896, 38.96549 ], [ -77.18815, 38.96613 ], [ -77.18764, 38.96603 ], [ -77.18737, 38.96568 ], [ -77.18787, 38.96438 ], [ -77.18676, 38.96498 ], [ -77.18539, 38.96513 ], [ -77.1865, 38.96551 ], [ -77.188, 38.96716 ], [ -77.18772, 38.96751 ], [ -77.18675, 38.96739 ], [ -77.1856, 38.96639 ], [ -77.18449, 38.966 ], [ -77.18403, 38.96492 ], [ -77.18364, 38.96492 ], [ -77.1833, 38.9651 ], [ -77.18414, 38.96605 ], [ -77.18417, 38.96684 ], [ -77.18225, 38.96814 ], [ -77.18175, 38.96742 ], [ -77.18286, 38.96647 ], [ -77.18237, 38.96592 ], [ -77.1816, 38.96708 ], [ -77.18065, 38.96727 ], [ -77.18028, 38.96653 ], [ -77.18094, 38.96555 ], [ -77.18308, 38.96393 ], [ -77.18578, 38.96406 ], [ -77.18675, 38.96375 ], [ -77.1877, 38.96182 ], [ -77.19034, 38.96039 ], [ -77.1894, 38.96034 ], [ -77.18917, 38.96092 ], [ -77.1882, 38.96103 ], [ -77.18738, 38.95892 ], [ -77.18358, 38.95825 ], [ -77.18613, 38.9591 ], [ -77.18717, 38.96014 ], [ -77.18725, 38.96065 ], [ -77.18636, 38.96097 ], [ -77.18536, 38.96001 ], [ -77.1842, 38.95975 ], [ -77.186, 38.96101 ], [ -77.18599, 38.96178 ], [ -77.18423, 38.96254 ], [ -77.18298, 38.9623 ], [ -77.1829, 38.96164 ], [ -77.18177, 38.96216 ], [ -77.17811, 38.96266 ], [ -77.17654, 38.96215 ], [ -77.17628, 38.96273 ], [ -77.17532, 38.96286 ], [ -77.17504, 38.96217 ], [ -77.17612, 38.96024 ], [ -77.17525, 38.96017 ], [ -77.17507, 38.95979 ], [ -77.17522, 38.95702 ], [ -77.17416, 38.95509 ], [ -77.1739, 38.95313 ], [ -77.17317, 38.9545 ], [ -77.17353, 38.95657 ], [ -77.17275, 38.95769 ], [ -77.17451, 38.95927 ], [ -77.17439, 38.96003 ], [ -77.17342, 38.95993 ], [ -77.17131, 38.95782 ], [ -77.17217, 38.95635 ], [ -77.1718, 38.95437 ], [ -77.17271, 38.95247 ], [ -77.17288, 38.95066 ], [ -77.17245, 38.95056 ], [ -77.17242, 38.95149 ], [ -77.17123, 38.95215 ], [ -77.1706, 38.95157 ], [ -77.17111, 38.95105 ], [ -77.16959, 38.95069 ], [ -77.16931, 38.95308 ], [ -77.1696, 38.95381 ], [ -77.17047, 38.95363 ], [ -77.17097, 38.95428 ], [ -77.16965, 38.95518 ], [ -77.17072, 38.95545 ], [ -77.17086, 38.95585 ], [ -77.1706, 38.95621 ], [ -77.16942, 38.95625 ], [ -77.16845, 38.95709 ], [ -77.16794, 38.95696 ], [ -77.1677, 38.95659 ], [ -77.16834, 38.95441 ], [ -77.1678, 38.95272 ], [ -77.16811, 38.95158 ], [ -77.16761, 38.95114 ], [ -77.16805, 38.95064 ], [ -77.16779, 38.94937 ], [ -77.16548, 38.94878 ], [ -77.16404, 38.94922 ], [ -77.1637, 38.9489 ], [ -77.16395, 38.94837 ], [ -77.16244, 38.948 ], [ -77.16174, 38.94973 ], [ -77.16088, 38.9501 ], [ -77.16041, 38.94943 ], [ -77.16112, 38.94766 ], [ -77.15904, 38.94713 ], [ -77.15861, 38.94644 ], [ -77.15949, 38.94611 ], [ -77.16336, 38.94709 ], [ -77.16383, 38.94595 ], [ -77.16243, 38.94426 ], [ -77.16321, 38.9438 ], [ -77.16465, 38.94501 ], [ -77.16466, 38.94454 ], [ -77.16559, 38.9443 ], [ -77.16631, 38.94511 ], [ -77.16545, 38.94322 ], [ -77.16567, 38.94225 ], [ -77.17279, 38.94048 ], [ -77.1726, 38.93941 ], [ -77.17394, 38.93587 ], [ -77.17427, 38.93555 ], [ -77.17519, 38.93557 ], [ -77.17665, 38.93397 ], [ -77.17754, 38.93451 ], [ -77.17662, 38.93588 ], [ -77.17656, 38.93674 ], [ -77.17698, 38.93683 ], [ -77.17886, 38.93501 ], [ -77.17765, 38.9345 ], [ -77.17854, 38.93322 ], [ -77.17952, 38.93318 ], [ -77.18034, 38.93375 ], [ -77.18099, 38.93319 ], [ -77.18087, 38.93245 ], [ -77.18127, 38.93218 ], [ -77.1838, 38.93164 ], [ -77.18518, 38.93406 ], [ -77.18613, 38.93393 ], [ -77.18648, 38.93424 ], [ -77.1863, 38.93483 ], [ -77.18524, 38.9352 ], [ -77.18647, 38.93573 ], [ -77.18676, 38.93518 ], [ -77.18836, 38.93452 ], [ -77.1889, 38.93346 ], [ -77.18864, 38.93231 ], [ -77.18905, 38.93205 ], [ -77.18991, 38.93242 ], [ -77.19075, 38.93413 ], [ -77.19476, 38.93264 ], [ -77.19522, 38.93172 ], [ -77.19619, 38.93198 ], [ -77.19724, 38.93159 ], [ -77.19765, 38.93035 ], [ -77.19689, 38.92881 ], [ -77.19773, 38.9281 ], [ -77.19871, 38.92811 ], [ -77.19876, 38.92933 ], [ -77.19961, 38.92913 ], [ -77.20086, 38.92986 ], [ -77.20227, 38.92881 ], [ -77.20331, 38.92872 ] ], [ [ -77.18982, 38.95922 ], [ -77.19067, 38.95841 ], [ -77.18452, 38.95693 ], [ -77.18429, 38.95728 ], [ -77.18817, 38.95801 ], [ -77.18918, 38.95926 ], [ -77.18982, 38.95922 ] ], [ [ -77.19086, 38.95675 ], [ -77.18963, 38.95668 ], [ -77.18876, 38.95593 ], [ -77.18544, 38.95564 ], [ -77.18511, 38.95593 ], [ -77.18802, 38.95677 ], [ -77.19084, 38.95733 ], [ -77.19086, 38.95675 ] ], [ [ -77.18706, 38.95417 ], [ -77.18723, 38.95358 ], [ -77.18659, 38.95343 ], [ -77.1868, 38.95418 ], [ -77.18641, 38.95445 ], [ -77.18487, 38.95381 ], [ -77.18535, 38.95456 ], [ -77.18703, 38.95479 ], [ -77.18802, 38.95448 ], [ -77.18706, 38.95417 ] ], [ [ -77.18825, 38.95023 ], [ -77.18569, 38.95081 ], [ -77.18483, 38.95022 ], [ -77.18419, 38.95119 ], [ -77.18338, 38.95075 ], [ -77.18344, 38.95016 ], [ -77.18265, 38.9505 ], [ -77.1822, 38.95029 ], [ -77.18187, 38.94915 ], [ -77.18241, 38.94873 ], [ -77.18192, 38.94785 ], [ -77.18224, 38.94688 ], [ -77.18141, 38.94713 ], [ -77.18102, 38.94952 ], [ -77.18008, 38.94931 ], [ -77.17981, 38.94871 ], [ -77.17943, 38.94995 ], [ -77.1784, 38.9501 ], [ -77.17825, 38.95053 ], [ -77.17912, 38.95052 ], [ -77.18016, 38.94949 ], [ -77.18171, 38.95113 ], [ -77.18404, 38.9517 ], [ -77.18557, 38.95095 ], [ -77.1876, 38.95117 ], [ -77.18827, 38.95161 ], [ -77.18852, 38.95268 ], [ -77.1894, 38.95283 ], [ -77.18825, 38.95023 ] ], [ [ -77.18986, 38.94548 ], [ -77.18987, 38.94545 ], [ -77.18679, 38.94512 ], [ -77.18986, 38.94548 ] ], [ [ -77.18768, 38.94361 ], [ -77.18682, 38.9436 ], [ -77.18655, 38.94401 ], [ -77.18719, 38.94407 ], [ -77.18768, 38.94361 ] ], [ [ -77.20008, 38.95627 ], [ -77.2004, 38.95564 ], [ -77.19952, 38.95444 ], [ -77.20111, 38.95331 ], [ -77.19896, 38.95157 ], [ -77.1986, 38.95192 ], [ -77.19896, 38.95248 ], [ -77.19844, 38.95291 ], [ -77.19865, 38.95367 ], [ -77.19811, 38.95424 ], [ -77.1973, 38.95459 ], [ -77.19621, 38.95428 ], [ -77.1975, 38.95525 ], [ -77.20008, 38.95627 ] ], [ [ -77.19735, 38.95286 ], [ -77.19688, 38.95332 ], [ -77.19716, 38.95343 ], [ -77.19735, 38.95286 ] ], [ [ -77.19823, 38.95044 ], [ -77.19935, 38.95052 ], [ -77.19984, 38.94937 ], [ -77.20102, 38.94944 ], [ -77.20185, 38.95042 ], [ -77.2016, 38.95078 ], [ -77.20072, 38.95075 ], [ -77.20077, 38.95171 ], [ -77.20156, 38.95228 ], [ -77.20141, 38.9518 ], [ -77.20172, 38.95146 ], [ -77.20244, 38.9515 ], [ -77.20281, 38.95072 ], [ -77.2037, 38.95104 ], [ -77.20387, 38.95175 ], [ -77.20367, 38.95246 ], [ -77.20286, 38.95285 ], [ -77.2021, 38.95418 ], [ -77.20124, 38.95472 ], [ -77.20262, 38.95452 ], [ -77.20302, 38.95522 ], [ -77.20176, 38.95583 ], [ -77.20132, 38.95675 ], [ -77.20231, 38.95628 ], [ -77.2032, 38.95634 ], [ -77.20474, 38.95713 ], [ -77.20441, 38.95774 ], [ -77.20481, 38.95787 ], [ -77.20514, 38.95733 ], [ -77.20445, 38.95641 ], [ -77.20369, 38.95381 ], [ -77.20717, 38.94871 ], [ -77.2042, 38.94768 ], [ -77.20381, 38.94698 ], [ -77.2047, 38.94667 ], [ -77.20784, 38.94776 ], [ -77.20907, 38.94652 ], [ -77.20434, 38.94658 ], [ -77.19668, 38.94444 ], [ -77.19599, 38.94481 ], [ -77.19506, 38.94381 ], [ -77.19524, 38.94531 ], [ -77.19961, 38.94564 ], [ -77.20117, 38.94691 ], [ -77.20085, 38.94774 ], [ -77.19944, 38.94813 ], [ -77.19894, 38.94907 ], [ -77.19803, 38.94961 ], [ -77.19636, 38.94915 ], [ -77.19625, 38.94833 ], [ -77.19558, 38.94797 ], [ -77.19587, 38.95057 ], [ -77.1968, 38.95118 ], [ -77.19612, 38.95195 ], [ -77.19306, 38.95366 ], [ -77.19476, 38.95426 ], [ -77.19547, 38.95302 ], [ -77.19823, 38.95044 ] ], [ [ -77.19735, 38.9433 ], [ -77.19679, 38.94172 ], [ -77.19817, 38.94068 ], [ -77.1968, 38.94016 ], [ -77.19465, 38.94033 ], [ -77.19557, 38.94264 ], [ -77.19735, 38.9433 ] ], [ [ -77.19782, 38.93778 ], [ -77.19625, 38.93717 ], [ -77.19453, 38.93926 ], [ -77.19656, 38.93909 ], [ -77.19782, 38.93778 ] ], [ [ -77.19228, 38.94033 ], [ -77.19166, 38.94077 ], [ -77.19215, 38.94124 ], [ -77.19288, 38.94079 ], [ -77.19215, 38.93965 ], [ -77.19228, 38.94033 ] ], [ [ -77.19297, 38.93704 ], [ -77.19369, 38.93734 ], [ -77.19409, 38.93676 ], [ -77.19525, 38.93641 ], [ -77.19495, 38.93562 ], [ -77.19419, 38.93567 ], [ -77.19357, 38.93519 ], [ -77.19432, 38.93403 ], [ -77.19216, 38.93491 ], [ -77.19246, 38.93663 ], [ -77.19137, 38.93729 ], [ -77.19043, 38.93691 ], [ -77.19026, 38.9377 ], [ -77.19297, 38.93704 ] ], [ [ -77.20946, 38.94803 ], [ -77.20985, 38.94746 ], [ -77.20859, 38.94892 ], [ -77.20986, 38.94912 ], [ -77.20946, 38.94803 ] ], [ [ -77.20742, 38.95056 ], [ -77.20788, 38.9509 ], [ -77.20911, 38.95002 ], [ -77.20796, 38.95004 ], [ -77.20742, 38.95056 ] ], [ [ -77.21301, 38.96093 ], [ -77.2135, 38.96078 ], [ -77.21358, 38.96049 ], [ -77.21298, 38.96038 ], [ -77.21301, 38.96093 ] ], [ [ -77.21164, 38.96115 ], [ -77.21159, 38.96021 ], [ -77.20891, 38.95984 ], [ -77.20887, 38.96129 ], [ -77.20789, 38.96251 ], [ -77.20836, 38.96532 ], [ -77.20969, 38.96474 ], [ -77.2103, 38.96312 ], [ -77.21134, 38.96286 ], [ -77.21106, 38.96214 ], [ -77.21164, 38.96115 ] ], [ [ -77.21458, 38.95861 ], [ -77.21569, 38.95841 ], [ -77.21635, 38.95776 ], [ -77.21541, 38.95739 ], [ -77.21458, 38.95861 ] ], [ [ -77.20068, 38.9417 ], [ -77.19944, 38.94117 ], [ -77.19811, 38.94212 ], [ -77.19873, 38.94296 ], [ -77.19871, 38.94387 ], [ -77.19899, 38.94395 ], [ -77.19938, 38.94214 ], [ -77.19982, 38.94191 ], [ -77.20034, 38.94199 ], [ -77.20057, 38.94259 ], [ -77.20068, 38.9417 ] ], [ [ -77.19787, 38.93323 ], [ -77.19852, 38.93247 ], [ -77.19557, 38.93354 ], [ -77.1956, 38.93446 ], [ -77.19636, 38.93506 ], [ -77.19787, 38.93323 ] ], [ [ -77.19829, 38.93676 ], [ -77.19834, 38.93678 ], [ -77.19834, 38.93674 ], [ -77.19829, 38.93676 ] ], [ [ -77.197, 38.93626 ], [ -77.19717, 38.93634 ], [ -77.19795, 38.93526 ], [ -77.197, 38.93626 ] ], [ [ -77.19875, 38.93824 ], [ -77.19796, 38.9394 ], [ -77.2001, 38.94021 ], [ -77.20058, 38.93995 ], [ -77.19875, 38.93824 ] ], [ [ -77.19386, 38.93805 ], [ -77.19375, 38.93763 ], [ -77.19373, 38.93772 ], [ -77.19386, 38.93805 ] ], [ [ -77.19687, 38.94808 ], [ -77.1968, 38.94797 ], [ -77.19665, 38.94818 ], [ -77.19687, 38.94808 ] ], [ [ -77.19807, 38.94745 ], [ -77.19817, 38.94746 ], [ -77.1983, 38.94667 ], [ -77.19796, 38.94673 ], [ -77.19807, 38.94745 ] ], [ [ -77.19985, 38.94663 ], [ -77.19964, 38.94704 ], [ -77.19977, 38.94688 ], [ -77.19985, 38.94663 ] ], [ [ -77.19761, 38.94849 ], [ -77.19749, 38.94846 ], [ -77.19766, 38.94855 ], [ -77.19761, 38.94849 ] ], [ [ -77.19109, 38.93599 ], [ -77.19056, 38.93621 ], [ -77.19057, 38.93624 ], [ -77.19109, 38.93599 ] ], [ [ -77.19012, 38.95416 ], [ -77.18929, 38.95402 ], [ -77.1894, 38.95456 ], [ -77.19, 38.95424 ], [ -77.19112, 38.95438 ], [ -77.19012, 38.95416 ] ], [ [ -77.19428, 38.95164 ], [ -77.19303, 38.95167 ], [ -77.19279, 38.95042 ], [ -77.19068, 38.94958 ], [ -77.19108, 38.95045 ], [ -77.18997, 38.95066 ], [ -77.19084, 38.95308 ], [ -77.19181, 38.9531 ], [ -77.19428, 38.95164 ] ], [ [ -77.19245, 38.94576 ], [ -77.19392, 38.94592 ], [ -77.19391, 38.94584 ], [ -77.19123, 38.94563 ], [ -77.19245, 38.94576 ] ], [ [ -77.19324, 38.94362 ], [ -77.19364, 38.94361 ], [ -77.19222, 38.94349 ], [ -77.19324, 38.94362 ] ], [ [ -77.19011, 38.94379 ], [ -77.19044, 38.94362 ], [ -77.19041, 38.94362 ], [ -77.19011, 38.94379 ] ], [ [ -77.1879, 38.94361 ], [ -77.18862, 38.94423 ], [ -77.18875, 38.94361 ], [ -77.1879, 38.94361 ] ], [ [ -77.18705, 38.9401 ], [ -77.18705, 38.94019 ], [ -77.18707, 38.93994 ], [ -77.18705, 38.9401 ] ], [ [ -77.18663, 38.93817 ], [ -77.18608, 38.93795 ], [ -77.18626, 38.93869 ], [ -77.18717, 38.93871 ], [ -77.18721, 38.93832 ], [ -77.18663, 38.93817 ] ], [ [ -77.19235, 38.94231 ], [ -77.19171, 38.94233 ], [ -77.19283, 38.94241 ], [ -77.19261, 38.94211 ], [ -77.19235, 38.94231 ] ], [ [ -77.19266, 38.94186 ], [ -77.19267, 38.94195 ], [ -77.1927, 38.94187 ], [ -77.19266, 38.94186 ] ], [ [ -77.19378, 38.94469 ], [ -77.19297, 38.94469 ], [ -77.19356, 38.94475 ], [ -77.19378, 38.94469 ] ], [ [ -77.19375, 38.94962 ], [ -77.19389, 38.94929 ], [ -77.19356, 38.94931 ], [ -77.19375, 38.94962 ] ], [ [ -77.19371, 38.94821 ], [ -77.19422, 38.94817 ], [ -77.19419, 38.94798 ], [ -77.19371, 38.94821 ] ], [ [ -77.19259, 38.94805 ], [ -77.19244, 38.94819 ], [ -77.19275, 38.94829 ], [ -77.19259, 38.94805 ] ], [ [ -77.18999, 38.94112 ], [ -77.18903, 38.94127 ], [ -77.18846, 38.93995 ], [ -77.18834, 38.94155 ], [ -77.19052, 38.94139 ], [ -77.18981, 38.93873 ], [ -77.18999, 38.94112 ] ], [ [ -77.18826, 38.9464 ], [ -77.189, 38.94806 ], [ -77.18938, 38.94755 ], [ -77.1903, 38.94743 ], [ -77.19044, 38.94663 ], [ -77.18826, 38.9464 ] ], [ [ -77.19, 38.94437 ], [ -77.19013, 38.94438 ], [ -77.19002, 38.94425 ], [ -77.19, 38.94437 ] ], [ [ -77.19033, 38.95573 ], [ -77.19094, 38.95551 ], [ -77.18989, 38.9553 ], [ -77.19033, 38.95573 ] ], [ [ -77.17798, 38.9467 ], [ -77.17825, 38.94694 ], [ -77.17831, 38.94677 ], [ -77.17798, 38.9467 ] ], [ [ -77.18094, 38.93747 ], [ -77.18036, 38.93706 ], [ -77.17941, 38.93774 ], [ -77.17891, 38.9376 ], [ -77.17867, 38.93723 ], [ -77.17926, 38.93629 ], [ -77.17812, 38.93752 ], [ -77.1779, 38.93835 ], [ -77.17825, 38.93869 ], [ -77.18094, 38.93747 ] ], [ [ -77.18467, 38.94683 ], [ -77.18474, 38.94724 ], [ -77.18505, 38.94694 ], [ -77.18467, 38.94683 ] ], [ [ -77.18377, 38.94669 ], [ -77.18392, 38.94663 ], [ -77.18381, 38.94659 ], [ -77.18377, 38.94669 ] ], [ [ -77.18091, 38.94568 ], [ -77.18152, 38.94595 ], [ -77.18208, 38.94493 ], [ -77.18162, 38.94467 ], [ -77.18091, 38.94568 ] ], [ [ -77.18032, 38.94391 ], [ -77.17992, 38.94379 ], [ -77.17978, 38.94481 ], [ -77.18032, 38.94391 ] ], [ [ -77.18131, 38.94257 ], [ -77.18157, 38.94211 ], [ -77.1806, 38.94283 ], [ -77.18131, 38.94257 ] ], [ [ -77.18225, 38.93693 ], [ -77.18255, 38.93668 ], [ -77.18022, 38.93545 ], [ -77.18225, 38.93693 ] ], [ [ -77.1839, 38.94082 ], [ -77.1831, 38.94211 ], [ -77.18322, 38.9422 ], [ -77.1839, 38.94082 ] ], [ [ -77.18318, 38.9437 ], [ -77.18249, 38.94314 ], [ -77.18219, 38.94364 ], [ -77.18318, 38.9437 ] ], [ [ -77.185, 38.94203 ], [ -77.18487, 38.94193 ], [ -77.18475, 38.94215 ], [ -77.185, 38.94203 ] ], [ [ -77.18468, 38.94477 ], [ -77.18478, 38.94443 ], [ -77.18466, 38.94453 ], [ -77.18468, 38.94477 ] ], [ [ -77.18632, 38.94255 ], [ -77.18628, 38.94246 ], [ -77.18619, 38.94258 ], [ -77.18632, 38.94255 ] ], [ [ -77.18619, 38.94966 ], [ -77.18641, 38.94963 ], [ -77.18619, 38.9496 ], [ -77.18619, 38.94966 ] ], [ [ -77.18575, 38.94846 ], [ -77.1872, 38.94862 ], [ -77.18658, 38.9483 ], [ -77.18575, 38.94846 ] ], [ [ -77.18134, 38.93458 ], [ -77.18172, 38.93474 ], [ -77.18153, 38.93434 ], [ -77.18134, 38.93458 ] ], [ [ -77.18295, 38.93987 ], [ -77.18315, 38.93952 ], [ -77.18308, 38.93956 ], [ -77.18295, 38.93987 ] ], [ [ -77.18323, 38.94905 ], [ -77.18326, 38.94908 ], [ -77.18335, 38.94908 ], [ -77.18323, 38.94905 ] ], [ [ -77.18396, 38.96142 ], [ -77.18358, 38.9609 ], [ -77.18314, 38.96146 ], [ -77.18396, 38.96142 ] ], [ [ -77.18215, 38.9585 ], [ -77.18118, 38.95854 ], [ -77.18107, 38.95961 ], [ -77.18031, 38.96077 ], [ -77.17955, 38.96095 ], [ -77.17752, 38.96063 ], [ -77.17715, 38.96109 ], [ -77.17781, 38.9616 ], [ -77.18142, 38.96111 ], [ -77.18218, 38.96067 ], [ -77.1829, 38.95938 ], [ -77.18215, 38.9585 ] ], [ [ -77.18314, 38.95666 ], [ -77.18066, 38.95616 ], [ -77.17937, 38.95638 ], [ -77.1792, 38.95728 ], [ -77.17826, 38.95706 ], [ -77.17783, 38.95637 ], [ -77.17655, 38.95671 ], [ -77.17661, 38.95717 ], [ -77.1774, 38.95704 ], [ -77.17814, 38.95753 ], [ -77.17797, 38.95793 ], [ -77.17654, 38.95828 ], [ -77.17638, 38.95996 ], [ -77.17755, 38.95954 ], [ -77.17946, 38.95985 ], [ -77.17977, 38.95905 ], [ -77.17876, 38.95932 ], [ -77.17819, 38.9587 ], [ -77.17873, 38.95821 ], [ -77.18, 38.95795 ], [ -77.18097, 38.95667 ], [ -77.1815, 38.95671 ], [ -77.18178, 38.95743 ], [ -77.18245, 38.9574 ], [ -77.18314, 38.95666 ] ], [ [ -77.18402, 38.95572 ], [ -77.18402, 38.95485 ], [ -77.18257, 38.955 ], [ -77.18136, 38.95434 ], [ -77.1817, 38.95362 ], [ -77.18243, 38.95375 ], [ -77.18225, 38.95304 ], [ -77.18282, 38.95253 ], [ -77.18003, 38.95195 ], [ -77.17969, 38.95269 ], [ -77.17896, 38.9527 ], [ -77.17857, 38.95318 ], [ -77.17767, 38.95287 ], [ -77.1776, 38.9532 ], [ -77.18052, 38.95366 ], [ -77.18105, 38.9543 ], [ -77.18022, 38.95472 ], [ -77.17737, 38.95427 ], [ -77.1778, 38.95526 ], [ -77.18057, 38.95507 ], [ -77.18402, 38.95572 ] ], [ [ -77.18563, 38.95206 ], [ -77.18707, 38.95242 ], [ -77.18703, 38.95217 ], [ -77.18563, 38.95206 ] ], [ [ -77.18343, 38.95387 ], [ -77.1834, 38.95362 ], [ -77.18248, 38.95379 ], [ -77.18343, 38.95387 ] ], [ [ -77.17668, 38.94756 ], [ -77.17761, 38.94661 ], [ -77.17556, 38.94614 ], [ -77.17458, 38.94997 ], [ -77.17688, 38.95031 ], [ -77.17719, 38.94918 ], [ -77.17668, 38.94756 ] ], [ [ -77.17484, 38.94189 ], [ -77.1711, 38.94319 ], [ -77.17058, 38.94315 ], [ -77.17029, 38.94245 ], [ -77.16694, 38.94327 ], [ -77.16786, 38.94528 ], [ -77.16874, 38.94516 ], [ -77.16983, 38.94623 ], [ -77.17196, 38.94694 ], [ -77.17151, 38.94762 ], [ -77.17008, 38.94732 ], [ -77.16952, 38.94866 ], [ -77.16991, 38.94876 ], [ -77.17024, 38.94796 ], [ -77.17112, 38.94763 ], [ -77.17155, 38.94832 ], [ -77.17123, 38.9491 ], [ -77.17224, 38.94936 ], [ -77.17269, 38.94834 ], [ -77.17251, 38.94713 ], [ -77.17342, 38.94685 ], [ -77.17384, 38.94725 ], [ -77.17484, 38.94189 ] ], [ [ -77.17428, 38.93904 ], [ -77.17436, 38.93878 ], [ -77.17397, 38.93974 ], [ -77.17428, 38.93904 ] ], [ [ -77.17471, 38.93773 ], [ -77.17472, 38.9377 ], [ -77.17471, 38.93772 ], [ -77.17471, 38.93773 ] ], [ [ -77.17555, 38.93948 ], [ -77.17538, 38.93997 ], [ -77.17578, 38.93993 ], [ -77.17555, 38.93948 ] ], [ [ -77.176, 38.95409 ], [ -77.17542, 38.95399 ], [ -77.1758, 38.95552 ], [ -77.17624, 38.95565 ], [ -77.176, 38.95409 ] ], [ [ -77.17624, 38.95302 ], [ -77.1766, 38.95136 ], [ -77.17424, 38.95102 ], [ -77.17559, 38.95289 ], [ -77.17624, 38.95302 ] ], [ [ -77.16702, 38.94666 ], [ -77.16661, 38.94728 ], [ -77.16499, 38.94662 ], [ -77.16469, 38.94742 ], [ -77.1682, 38.94834 ], [ -77.16835, 38.948 ], [ -77.16769, 38.94779 ], [ -77.16702, 38.94666 ] ], [ [ -77.16846, 38.94626 ], [ -77.16833, 38.9463 ], [ -77.16862, 38.94694 ], [ -77.16846, 38.94626 ] ], [ [ -77.16663, 38.94617 ], [ -77.16696, 38.94653 ], [ -77.16691, 38.94642 ], [ -77.16663, 38.94617 ] ] ] } },
{ "type": "Feature", "properties": { "variant": "T2s", "miles": 1.0 }, "geometry": { "type": "Polygon", "coordinates": [ [ [ -77.19276, 38.94171 ], [ -77.19406, 38.94143 ], [ -77.19481, 38.94186 ], [ -77.19524, 38.94531 ], [ -77.19961, 38.94564 ], [ -77.20022, 38.94624 ], [ -77.19969, 38.94666 ], [ -77.19913, 38.94851 ], [ -77.19748, 38.94846 ], [ -77.1968, 38.94797 ], [ -77.19628, 38.94834 ], [ -77.19558, 38.94797 ], [ -77.19587, 38.95057 ], [ -77.1968, 38.95118 ], [ -77.19612, 38.95195 ], [ -77.19291, 38.95375 ], [ -77.19232, 38.95453 ], [ -77.17682, 38.95126 ], [ -77.177, 38.95051 ], [ -77.1787, 38.9506 ], [ -77.18017, 38.95001 ], [ -77.18068, 38.95013 ], [ -77.18082, 38.95076 ], [ -77.18404, 38.9517 ], [ -77.18557, 38.95095 ], [ -77.18767, 38.95119 ], [ -77.18829, 38.95165 ], [ -77.18852, 38.95268 ], [ -77.1894, 38.95283 ], [ -77.18825, 38.95023 ], [ -77.18723, 38.95062 ], [ -77.1852, 38.95069 ], [ -77.1848, 38.9496 ], [ -77.18413, 38.95015 ], [ -77.18364, 38.95 ], [ -77.18341, 38.9491 ], [ -77.18231, 38.94865 ], [ -77.18194, 38.94763 ], [ -77.18268, 38.94588 ], [ -77.18351, 38.94529 ], [ -77.18458, 38.94567 ], [ -77.18479, 38.94504 ], [ -77.18531, 38.94495 ], [ -77.18986, 38.94548 ], [ -77.18865, 38.94516 ], [ -77.18878, 38.9444 ], [ -77.19013, 38.94438 ], [ -77.19009, 38.9438 ], [ -77.19083, 38.94355 ], [ -77.1909, 38.94264 ], [ -77.19283, 38.94241 ], [ -77.19276, 38.94171 ] ], [ [ -77.19087, 38.95308 ], [ -77.19165, 38.95327 ], [ -77.19428, 38.95164 ], [ -77.19303, 38.95167 ], [ -77.1928, 38.95017 ], [ -77.19073, 38.94958 ], [ -77.19108, 38.95045 ], [ -77.18997, 38.95066 ], [ -77.19087, 38.95308 ] ], [ [ -77.1903, 38.94743 ], [ -77.19044, 38.94663 ], [ -77.18826, 38.9464 ], [ -77.189, 38.94806 ], [ -77.18938, 38.94755 ], [ -77.1903, 38.94743 ] ], [ [ -77.19375, 38.94962 ], [ -77.19381, 38.94929 ], [ -77.19317, 38.94935 ], [ -77.19375, 38.94962 ] ], [ [ -77.19422, 38.94817 ], [ -77.19389, 38.94794 ], [ -77.19371, 38.94821 ], [ -77.19422, 38.94817 ] ], [ [ -77.19392, 38.94592 ], [ -77.19124, 38.9456 ], [ -77.19123, 38.94563 ], [ -77.19392, 38.94592 ] ], [ [ -77.19379, 38.94476 ], [ -77.19323, 38.9447 ], [ -77.19297, 38.94469 ], [ -77.19379, 38.94476 ] ], [ [ -77.19364, 38.94361 ], [ -77.19222, 38.94349 ], [ -77.19222, 38.94358 ], [ -77.19364, 38.94361 ] ], [ [ -77.1983, 38.94667 ], [ -77.1979, 38.9466 ], [ -77.19817, 38.94746 ], [ -77.1983, 38.94667 ] ], [ [ -77.19244, 38.94819 ], [ -77.19279, 38.94829 ], [ -77.19259, 38.94805 ], [ -77.19244, 38.94819 ] ], [ [ -77.18782, 38.94869 ], [ -77.18778, 38.94869 ], [ -77.18782, 38.9487 ], [ -77.18782, 38.94869 ] ], [ [ -77.1872, 38.94862 ], [ -77.18658, 38.9483 ], [ -77.18575, 38.94846 ], [ -77.1872, 38.94862 ] ], [ [ -77.18641, 38.94963 ], [ -77.18619, 38.9496 ], [ -77.18619, 38.94966 ], [ -77.18641, 38.94963 ] ], [ [ -77.18519, 38.94692 ], [ -77.18467, 38.94683 ], [ -77.18474, 38.94724 ], [ -77.18519, 38.94692 ] ], [ [ -77.18392, 38.94663 ], [ -77.18381, 38.94659 ], [ -77.18377, 38.94669 ], [ -77.18392, 38.94663 ] ], [ [ -77.18707, 38.95242 ], [ -77.18604, 38.95201 ], [ -77.18563, 38.95206 ], [ -77.18707, 38.95242 ] ] ] } },
{ "type": "Feature", "properties": { "variant": "T2s", "miles": 1.5 }, "geometry": { "type": "MultiPolygon", "coordinates": [ [ [ [ -77.19276, 38.94171 ], [ -77.19451, 38.94152 ], [ -77.19481, 38.94186 ], [ -77.19524, 38.94531 ], [ -77.19961, 38.94564 ], [ -77.20012, 38.94638 ], [ -77.20087, 38.94638 ], [ -77.20116, 38.94717 ], [ -77.20059, 38.94792 ], [ -77.19944, 38.94813 ], [ -77.19891, 38.94909 ], [ -77.19792, 38.94963 ], [ -77.19636, 38.94915 ], [ -77.19625, 38.94833 ], [ -77.19558, 38.94797 ], [ -77.19587, 38.95057 ], [ -77.1968, 38.95118 ], [ -77.19612, 38.95195 ], [ -77.19291, 38.95375 ], [ -77.19231, 38.95453 ], [ -77.17393, 38.95096 ], [ -77.16804, 38.94927 ], [ -77.16831, 38.94854 ], [ -77.16991, 38.94876 ], [ -77.17024, 38.94796 ], [ -77.17112, 38.94763 ], [ -77.17155, 38.94832 ], [ -77.17123, 38.9491 ], [ -77.17224, 38.94936 ], [ -77.17269, 38.94834 ], [ -77.17251, 38.94713 ], [ -77.17342, 38.94685 ], [ -77.17384, 38.94725 ], [ -77.17453, 38.94549 ], [ -77.17533, 38.94556 ], [ -77.1759, 38.94487 ], [ -77.17745, 38.94453 ], [ -77.17617, 38.94435 ], [ -77.17557, 38.94375 ], [ -77.17662, 38.9433 ], [ -77.177, 38.94199 ], [ -77.17796, 38.94194 ], [ -77.17751, 38.94115 ], [ -77.17882, 38.94029 ], [ -77.17976, 38.94048 ], [ -77.1808, 38.94184 ], [ -77.1806, 38.94283 ], [ -77.18106, 38.94298 ], [ -77.18221, 38.9417 ], [ -77.184, 38.94275 ], [ -77.18409, 38.94364 ], [ -77.18311, 38.94368 ], [ -77.18249, 38.94314 ], [ -77.18219, 38.94364 ], [ -77.18468, 38.94477 ], [ -77.18505, 38.9438 ], [ -77.18632, 38.94255 ], [ -77.18555, 38.94227 ], [ -77.18544, 38.94151 ], [ -77.18619, 38.94108 ], [ -77.18698, 38.94116 ], [ -77.18708, 38.93979 ], [ -77.1863, 38.93959 ], [ -77.18633, 38.93882 ], [ -77.18834, 38.93894 ], [ -77.18834, 38.94155 ], [ -77.19031, 38.94134 ], [ -77.19179, 38.94241 ], [ -77.19283, 38.94241 ], [ -77.19276, 38.94171 ] ], [ [ -77.1894, 38.95283 ], [ -77.18825, 38.95023 ], [ -77.18569, 38.95081 ], [ -77.18483, 38.95022 ], [ -77.18419, 38.95119 ], [ -77.18338, 38.95075 ], [ -77.18344, 38.95016 ], [ -77.18265, 38.9505 ], [ -77.1822, 38.95029 ], [ -77.18187, 38.94915 ], [ -77.18241, 38.94873 ], [ -77.18192, 38.94785 ], [ -77.18225, 38.94685 ], [ -77.18141, 38.94713 ], [ -77.18102, 38.94952 ], [ -77.18008, 38.94931 ], [ -77.17981, 38.94871 ], [ -77.17943, 38.94995 ], [ -77.1784, 38.9501 ], [ -77.17825, 38.95053 ], [ -77.17912, 38.95052 ], [ -77.18016, 38.94949 ], [ -77.18171, 38.95113 ], [ -77.18404, 38.9517 ], [ -77.18552, 38.95096 ], [ -77.18744, 38.95113 ], [ -77.18824, 38.95157 ], [ -77.18852, 38.95268 ], [ -77.1894, 38.95283 ] ], [ [ -77.18901, 38.94805 ], [ -77.18938, 38.94755 ], [ -77.1903, 38.94743 ], [ -77.19044, 38.94663 ], [ -77.18826, 38.9464 ], [ -77.18901, 38.94805 ] ], [ [ -77.18309, 38.94545 ], [ -77.18143, 38.94455 ], [ -77.18092, 38.94569 ], [ -77.18228, 38.94639 ], [ -77.1823, 38.94673 ], [ -77.18309, 38.94545 ] ], [ [ -77.19175, 38.95316 ], [ -77.19428, 38.95164 ], [ -77.19303, 38.95167 ], [ -77.19279, 38.95042 ], [ -77.19068, 38.94958 ], [ -77.19108, 38.95045 ], [ -77.18997, 38.95066 ], [ -77.19084, 38.95308 ], [ -77.19175, 38.95316 ] ], [ [ -77.19244, 38.94819 ], [ -77.19266, 38.94823 ], [ -77.19259, 38.94805 ], [ -77.19244, 38.94819 ] ], [ [ -77.18987, 38.94545 ], [ -77.18892, 38.94534 ], [ -77.18679, 38.94512 ], [ -77.18832, 38.94532 ], [ -77.18987, 38.94545 ] ], [ [ -77.18862, 38.94423 ], [ -77.18875, 38.94361 ], [ -77.1879, 38.94361 ], [ -77.18862, 38.94423 ] ], [ [ -77.18924, 38.94253 ], [ -77.18998, 38.94241 ], [ -77.18915, 38.94253 ], [ -77.18924, 38.94253 ] ], [ [ -77.19767, 38.9485 ], [ -77.19749, 38.94846 ], [ -77.19772, 38.9485 ], [ -77.19767, 38.9485 ] ], [ [ -77.19701, 38.94822 ], [ -77.1968, 38.94797 ], [ -77.19665, 38.94818 ], [ -77.19701, 38.94822 ] ], [ [ -77.19419, 38.94798 ], [ -77.19371, 38.94821 ], [ -77.19422, 38.94817 ], [ -77.19419, 38.94798 ] ], [ [ -77.19123, 38.94563 ], [ -77.1921, 38.94572 ], [ -77.19392, 38.94592 ], [ -77.19391, 38.94584 ], [ -77.19123, 38.94563 ] ], [ [ -77.19222, 38.94349 ], [ -77.19324, 38.94362 ], [ -77.19364, 38.94361 ], [ -77.19222, 38.94349 ] ], [ [ -77.19985, 38.94663 ], [ -77.19964, 38.94704 ], [ -77.19978, 38.94703 ], [ -77.19985, 38.94663 ] ], [ [ -77.19793, 38.94665 ], [ -77.19807, 38.94745 ], [ -77.19817, 38.94746 ], [ -77.1983, 38.94667 ], [ -77.19793, 38.94665 ] ], [ [ -77.19378, 38.94469 ], [ -77.19297, 38.94469 ], [ -77.19379, 38.94476 ], [ -77.19378, 38.94469 ] ], [ [ -77.19356, 38.94931 ], [ -77.19375, 38.94962 ], [ -77.19389, 38.94929 ], [ -77.19356, 38.94931 ] ], [ [ -77.19013, 38.94362 ], [ -77.19011, 38.94379 ], [ -77.19044, 38.94362 ], [ -77.19013, 38.94362 ] ], [ [ -77.19002, 38.94425 ], [ -77.19, 38.94437 ], [ -77.19013, 38.94438 ], [ -77.19002, 38.94425 ] ], [ [ -77.18667, 38.94385 ], [ -77.18719, 38.94407 ], [ -77.18768, 38.94361 ], [ -77.18682, 38.9436 ], [ -77.18667, 38.94385 ] ], [ [ -77.18323, 38.94905 ], [ -77.18326, 38.94908 ], [ -77.18335, 38.94908 ], [ -77.18323, 38.94905 ] ], [ [ -77.17831, 38.94677 ], [ -77.17798, 38.9467 ], [ -77.17825, 38.94694 ], [ -77.17831, 38.94677 ] ], [ [ -77.18392, 38.94663 ], [ -77.18381, 38.94659 ], [ -77.18377, 38.94669 ], [ -77.18392, 38.94663 ] ], [ [ -77.18619, 38.9496 ], [ -77.18619, 38.94966 ], [ -77.18641, 38.94963 ], [ -77.18619, 38.9496 ] ], [ [ -77.18658, 38.9483 ], [ -77.18575, 38.94846 ], [ -77.1872, 38.94862 ], [ -77.18658, 38.9483 ] ], [ [ -77.18519, 38.94692 ], [ -77.18467, 38.94683 ], [ -77.18481, 38.94726 ], [ -77.18519, 38.94692 ] ], [ [ -77.18782, 38.94869 ], [ -77.18778, 38.94869 ], [ -77.18782, 38.9487 ], [ -77.18782, 38.94869 ] ], [ [ -77.17992, 38.94379 ], [ -77.17985, 38.94426 ], [ -77.17978, 38.94481 ], [ -77.18032, 38.94391 ], [ -77.17992, 38.94379 ] ], [ [ -77.18707, 38.95242 ], [ -77.18604, 38.95201 ], [ -77.18563, 38.95206 ], [ -77.18707, 38.95242 ] ], [ [ -77.17713, 38.94914 ], [ -77.17668, 38.94756 ], [ -77.17761, 38.94661 ], [ -77.17558, 38.94606 ], [ -77.17458, 38.94997 ], [ -77.17688, 38.95031 ], [ -77.17713, 38.94914 ] ] ], [ [ [ -77.19213, 38.93993 ], [ -77.19202, 38.94069 ], [ -77.19085, 38.9408 ], [ -77.19009, 38.94032 ], [ -77.19024, 38.93992 ], [ -77.19121, 38.9397 ], [ -77.19213, 38.93993 ] ] ] ] } },
{ "type": "Feature", "properties": { "variant": "T2s", "miles": 2.0 }, "geometry": { "type": "Polygon", "coordinates": [ [ [ -77.19234, 38.93362 ], [ -77.19327, 38.93384 ], [ -77.19332, 38.93425 ], [ -77.19216, 38.93491 ], [ -77.19226, 38.93611 ], [ -77.19056, 38.93621 ], [ -77.19026, 38.9377 ], [ -77.19091, 38.9378 ], [ -77.19262, 38.93719 ], [ -77.19374, 38.93774 ], [ -77.19373, 38.93878 ], [ -77.1919, 38.93983 ], [ -77.19228, 38.94033 ], [ -77.19166, 38.94077 ], [ -77.19261, 38.94158 ], [ -77.19267, 38.94195 ], [ -77.19406, 38.94143 ], [ -77.19481, 38.94186 ], [ -77.19524, 38.94531 ], [ -77.19961, 38.94564 ], [ -77.20117, 38.94691 ], [ -77.20085, 38.94774 ], [ -77.19944, 38.94813 ], [ -77.19894, 38.94907 ], [ -77.19803, 38.94961 ], [ -77.19636, 38.94915 ], [ -77.19625, 38.94833 ], [ -77.19558, 38.94797 ], [ -77.19587, 38.95057 ], [ -77.1968, 38.95118 ], [ -77.19612, 38.95195 ], [ -77.19291, 38.95375 ], [ -77.19232, 38.95453 ], [ -77.17245, 38.95056 ], [ -77.17242, 38.95149 ], [ -77.17123, 38.95215 ], [ -77.1706, 38.95157 ], [ -77.17111, 38.95105 ], [ -77.16959, 38.95069 ], [ -77.16922, 38.95338 ], [ -77.16828, 38.9536 ], [ -77.1678, 38.95272 ], [ -77.16811, 38.95158 ], [ -77.16761, 38.95114 ], [ -77.16805, 38.95064 ], [ -77.16779, 38.94937 ], [ -77.15865, 38.94686 ], [ -77.15861, 38.94644 ], [ -77.15949, 38.94611 ], [ -77.16336, 38.94709 ], [ -77.16383, 38.94595 ], [ -77.16243, 38.94426 ], [ -77.16321, 38.9438 ], [ -77.16465, 38.94501 ], [ -77.16466, 38.94454 ], [ -77.16559, 38.9443 ], [ -77.16631, 38.94511 ], [ -77.16545, 38.94322 ], [ -77.16548, 38.9428 ], [ -77.1664, 38.94255 ], [ -77.16786, 38.94528 ], [ -77.16874, 38.94516 ], [ -77.16983, 38.94623 ], [ -77.17196, 38.94694 ], [ -77.17151, 38.94762 ], [ -77.17008, 38.94732 ], [ -77.16952, 38.94866 ], [ -77.16991, 38.94876 ], [ -77.17024, 38.94796 ], [ -77.17112, 38.94763 ], [ -77.17155, 38.94832 ], [ -77.17123, 38.9491 ], [ -77.17224, 38.94936 ], [ -77.17269, 38.94834 ], [ -77.17251, 38.94713 ], [ -77.17342, 38.94685 ], [ -77.17384, 38.94725 ], [ -77.17444, 38.94559 ], [ -77.17484, 38.94189 ], [ -77.1711, 38.94319 ], [ -77.17058, 38.94315 ], [ -77.17029, 38.94245 ], [ -77.16853, 38.94276 ], [ -77.16821, 38.94204 ], [ -77.16976, 38.94132 ], [ -77.17881, 38.93941 ], [ -77.17852, 38.93877 ], [ -77.17881, 38.93842 ], [ -77.18094, 38.93747 ], [ -77.18036, 38.93706 ], [ -77.17941, 38.93774 ], [ -77.17891, 38.9376 ], [ -77.17867, 38.93723 ], [ -77.17927, 38.9363 ], [ -77.17852, 38.93557 ], [ -77.17886, 38.93501 ], [ -77.1777, 38.93458 ], [ -77.17798, 38.93384 ], [ -77.17989, 38.93414 ], [ -77.18099, 38.93319 ], [ -77.18087, 38.93245 ], [ -77.18218, 38.93192 ], [ -77.18304, 38.93223 ], [ -77.1841, 38.93438 ], [ -77.1856, 38.93391 ], [ -77.18648, 38.93424 ], [ -77.1863, 38.93483 ], [ -77.18524, 38.9352 ], [ -77.18647, 38.93573 ], [ -77.18676, 38.93518 ], [ -77.18836, 38.93452 ], [ -77.18862, 38.93369 ], [ -77.1895, 38.93323 ], [ -77.19042, 38.93349 ], [ -77.18974, 38.93468 ], [ -77.19234, 38.93362 ] ], [ [ -77.18552, 38.95096 ], [ -77.18752, 38.95115 ], [ -77.18824, 38.95157 ], [ -77.18852, 38.95268 ], [ -77.1894, 38.95283 ], [ -77.18825, 38.95023 ], [ -77.18569, 38.95081 ], [ -77.18483, 38.95022 ], [ -77.18419, 38.95119 ], [ -77.18338, 38.95075 ], [ -77.18344, 38.95016 ], [ -77.18265, 38.9505 ], [ -77.1822, 38.95029 ], [ -77.18187, 38.94915 ], [ -77.18241, 38.94873 ], [ -77.18192, 38.94785 ], [ -77.18224, 38.94688 ], [ -77.18141, 38.94713 ], [ -77.18102, 38.94952 ], [ -77.18008, 38.94931 ], [ -77.17981, 38.94871 ], [ -77.17943, 38.94995 ], [ -77.1784, 38.9501 ], [ -77.17825, 38.95053 ], [ -77.17912, 38.95052 ], [ -77.18016, 38.94949 ], [ -77.18171, 38.95113 ], [ -77.18407, 38.95167 ], [ -77.18552, 38.95096 ] ], [ [ -77.18467, 38.94683 ], [ -77.18474, 38.94724 ], [ -77.18481, 38.94726 ], [ -77.18505, 38.94694 ], [ -77.18467, 38.94683 ] ], [ [ -77.18457, 38.94458 ], [ -77.18431, 38.94466 ], [ -77.18468, 38.94477 ], [ -77.18457, 38.94458 ] ], [ [ -77.18632, 38.94255 ], [ -77.18628, 38.94246 ], [ -77.18619, 38.94258 ], [ -77.18632, 38.94255 ] ], [ [ -77.18475, 38.94215 ], [ -77.18483, 38.94221 ], [ -77.185, 38.94203 ], [ -77.18475, 38.94215 ] ], [ [ -77.18249, 38.93646 ], [ -77.18018, 38.93549 ], [ -77.18225, 38.93693 ], [ -77.18249, 38.93646 ] ], [ [ -77.18153, 38.93434 ], [ -77.18128, 38.93455 ], [ -77.18172, 38.93474 ], [ -77.18153, 38.93434 ] ], [ [ -77.19428, 38.95164 ], [ -77.19303, 38.95167 ], [ -77.19279, 38.95042 ], [ -77.19068, 38.94958 ], [ -77.19108, 38.95045 ], [ -77.18997, 38.95066 ], [ -77.19084, 38.95308 ], [ -77.19175, 38.95316 ], [ -77.19428, 38.95164 ] ], [ [ -77.18778, 38.94869 ], [ -77.18782, 38.9487 ], [ -77.18782, 38.94869 ], [ -77.18778, 38.94869 ] ], [ [ -77.18938, 38.94755 ], [ -77.1903, 38.94743 ], [ -77.19044, 38.94663 ], [ -77.18826, 38.9464 ], [ -77.18901, 38.94805 ], [ -77.18938, 38.94755 ] ], [ [ -77.18986, 38.94548 ], [ -77.18987, 38.94545 ], [ -77.18679, 38.94512 ], [ -77.18986, 38.94548 ] ], [ [ -77.18875, 38.94361 ], [ -77.1879, 38.94361 ], [ -77.18827, 38.94369 ], [ -77.18858, 38.94423 ], [ -77.18875, 38.94361 ] ], [ [ -77.18655, 38.94401 ], [ -77.18719, 38.94407 ], [ -77.18768, 38.94361 ], [ -77.18689, 38.9436 ], [ -77.18655, 38.94401 ] ], [ [ -77.19052, 38.94139 ], [ -77.18981, 38.93873 ], [ -77.18999, 38.94112 ], [ -77.18903, 38.94127 ], [ -77.18846, 38.93995 ], [ -77.18834, 38.94155 ], [ -77.19052, 38.94139 ] ], [ [ -77.18663, 38.93817 ], [ -77.18608, 38.93795 ], [ -77.18626, 38.93869 ], [ -77.18717, 38.93871 ], [ -77.18721, 38.93832 ], [ -77.18663, 38.93817 ] ], [ [ -77.19245, 38.94576 ], [ -77.19392, 38.94592 ], [ -77.19391, 38.94584 ], [ -77.19123, 38.94563 ], [ -77.19245, 38.94576 ] ], [ [ -77.19265, 38.94201 ], [ -77.19171, 38.94233 ], [ -77.19179, 38.94241 ], [ -77.19283, 38.94241 ], [ -77.19265, 38.94201 ] ], [ [ -77.19964, 38.94704 ], [ -77.19978, 38.94703 ], [ -77.19985, 38.94663 ], [ -77.19964, 38.94704 ] ], [ [ -77.19807, 38.94745 ], [ -77.19817, 38.94746 ], [ -77.1983, 38.94667 ], [ -77.19793, 38.94665 ], [ -77.19807, 38.94745 ] ], [ [ -77.19368, 38.94476 ], [ -77.19379, 38.94476 ], [ -77.19378, 38.94469 ], [ -77.19297, 38.94469 ], [ -77.19368, 38.94476 ] ], [ [ -77.19324, 38.94362 ], [ -77.19364, 38.94361 ], [ -77.19222, 38.94349 ], [ -77.19324, 38.94362 ] ], [ [ -77.19766, 38.94855 ], [ -77.19772, 38.9485 ], [ -77.19749, 38.94846 ], [ -77.19766, 38.94855 ] ], [ [ -77.19665, 38.94818 ], [ -77.19701, 38.94822 ], [ -77.19687, 38.94808 ], [ -77.19665, 38.94818 ] ], [ [ -77.19389, 38.94794 ], [ -77.19371, 38.94821 ], [ -77.19422, 38.94817 ], [ -77.19389, 38.94794 ] ], [ [ -77.19279, 38.94829 ], [ -77.19259, 38.94805 ], [ -77.19244, 38.94819 ], [ -77.19279, 38.94829 ] ], [ [ -77.19375, 38.94962 ], [ -77.19389, 38.94929 ], [ -77.19356, 38.94931 ], [ -77.19375, 38.94962 ] ], [ [ -77.19002, 38.94425 ], [ -77.19, 38.94437 ], [ -77.19013, 38.94438 ], [ -77.19002, 38.94425 ] ], [ [ -77.19044, 38.94362 ], [ -77.19013, 38.94362 ], [ -77.19011, 38.94379 ], [ -77.19044, 38.94362 ] ], [ [ -77.18575, 38.94846 ], [ -77.1872, 38.94862 ], [ -77.18658, 38.9483 ], [ -77.18575, 38.94846 ] ], [ [ -77.18619, 38.9496 ], [ -77.18619, 38.94966 ], [ -77.18641, 38.94963 ], [ -77.18619, 38.9496 ] ], [ [ -77.18563, 38.95206 ], [ -77.18707, 38.95242 ], [ -77.18703, 38.95217 ], [ -77.18563, 38.95206 ] ], [ [ -77.18091, 38.94568 ], [ -77.18152, 38.94595 ], [ -77.18208, 38.94493 ], [ -77.18162, 38.94467 ], [ -77.18091, 38.94568 ] ], [ [ -77.18266, 38.94393 ], [ -77.18318, 38.9437 ], [ -77.18249, 38.94314 ], [ -77.18229, 38.94371 ], [ -77.18266, 38.94393 ] ], [ [ -77.18326, 38.94908 ], [ -77.18335, 38.94908 ], [ -77.18323, 38.94905 ], [ -77.18326, 38.94908 ] ], [ [ -77.18308, 38.93956 ], [ -77.18273, 38.93972 ], [ -77.18295, 38.93987 ], [ -77.18308, 38.93956 ] ], [ [ -77.1831, 38.94211 ], [ -77.18322, 38.9422 ], [ -77.1833, 38.94203 ], [ -77.18394, 38.94093 ], [ -77.1831, 38.94211 ] ], [ [ -77.18381, 38.94659 ], [ -77.18377, 38.94669 ], [ -77.18392, 38.94663 ], [ -77.18381, 38.94659 ] ], [ [ -77.17985, 38.94426 ], [ -77.17978, 38.94481 ], [ -77.18032, 38.94391 ], [ -77.17992, 38.94379 ], [ -77.17985, 38.94426 ] ], [ [ -77.1806, 38.94283 ], [ -77.18106, 38.94298 ], [ -77.18157, 38.94211 ], [ -77.1806, 38.94283 ] ], [ [ -77.1773, 38.94924 ], [ -77.17679, 38.94871 ], [ -77.17668, 38.94756 ], [ -77.17761, 38.94661 ], [ -77.17556, 38.94614 ], [ -77.17458, 38.94997 ], [ -77.17688, 38.95031 ], [ -77.1773, 38.94924 ] ], [ [ -77.17831, 38.94677 ], [ -77.17798, 38.9467 ], [ -77.17816, 38.94676 ], [ -77.17831, 38.94677 ] ], [ [ -77.16863, 38.94694 ], [ -77.16846, 38.94626 ], [ -77.16833, 38.9463 ], [ -77.16863, 38.94694 ] ], [ [ -77.16678, 38.94613 ], [ -77.16663, 38.94617 ], [ -77.16669, 38.94629 ], [ -77.16696, 38.94653 ], [ -77.16678, 38.94613 ] ], [ [ -77.16533, 38.94653 ], [ -77.16469, 38.94742 ], [ -77.1682, 38.94834 ], [ -77.16835, 38.948 ], [ -77.16752, 38.94765 ], [ -77.16702, 38.94666 ], [ -77.16661, 38.94728 ], [ -77.16599, 38.94722 ], [ -77.16533, 38.94653 ] ] ] } }
]
}
