{
"type": "FeatureCollection",
"name": "212",
"crs": { "type": "name", "properties": { "name": "urn:ogc:def:crs:OGC:1.3:CRS84" } },
"xy_coordinate_resolution": 1e-05,
"features": [
{ "type": "Feature", "properties": { "variant": "T0", "miles": 0.5 }, "geometry": { "type": "Polygon", "coordinates": [ [ [ -77.07005, 38.72411 ], [ -77.07213, 38.72439 ], [ -77.07258, 38.72461 ], [ -77.07263, 38.72534 ], [ -77.07357, 38.72563 ], [ -77.0729, 38.72922 ], [ -77.07378, 38.72965 ], [ -77.0738, 38.73007 ], [ -77.07292, 38.73039 ], [ -77.07158, 38.72953 ], [ -77.07069, 38.73008 ], [ -77.07019, 38.72942 ], [ -77.07053, 38.72839 ], [ -77.06876, 38.72803 ], [ -77.06797, 38.72969 ], [ -77.06901, 38.72972 ], [ -77.06891, 38.73114 ], [ -77.0709, 38.73157 ], [ -77.07113, 38.73194 ], [ -77.07048, 38.73251 ], [ -77.06901, 38.73241 ], [ -77.06918, 38.7333 ], [ -77.06878, 38.73357 ], [ -77.06791, 38.73323 ], [ -77.06743, 38.73228 ], [ -77.06714, 38.73372 ], [ -77.06637, 38.73419 ], [ -77.06577, 38.73359 ], [ -77.06593, 38.73289 ], [ -77.06323, 38.7319 ], [ -77.06322, 38.73149 ], [ -77.0641, 38.73116 ], [ -77.06528, 38.72902 ], [ -77.06332, 38.72868 ], [ -77.06412, 38.72656 ], [ -77.06338, 38.72628 ], [ -77.06349, 38.72508 ], [ -77.06378, 38.72473 ], [ -77.06466, 38.72484 ], [ -77.06499, 38.72377 ], [ -77.06596, 38.72372 ], [ -77.06584, 38.72575 ], [ -77.06745, 38.72622 ], [ -77.06803, 38.72373 ], [ -77.06669, 38.72338 ], [ -77.06657, 38.72298 ], [ -77.06735, 38.72252 ], [ -77.07034, 38.72313 ], [ -77.0706, 38.72387 ], [ -77.07005, 38.72411 ] ], [ [ -77.07115, 38.7257 ], [ -77.07123, 38.72537 ], [ -77.07082, 38.72531 ], [ -77.07079, 38.72563 ], [ -77.07115, 38.7257 ] ], [ [ -77.06944, 38.72508 ], [ -77.06908, 38.72505 ], [ -77.06888, 38.726 ], [ -77.0693, 38.72605 ], [ -77.06944, 38.72508 ] ], [ [ -77.06617, 38.73164 ], [ -77.06536, 38.7316 ], [ -77.0653, 38.73169 ], [ -77.06613, 38.73182 ], [ -77.06617, 38.73164 ] ], [ [ -77.06636, 38.73073 ], [ -77.06632, 38.73085 ], [ -77.06633, 38.73088 ], [ -77.06636, 38.73073 ] ], [ [ -77.0666, 38.72955 ], [ -77.06623, 38.72984 ], [ -77.06652, 38.73 ], [ -77.0666, 38.72955 ] ], [ [ -77.06692, 38.72845 ], [ -77.06694, 38.72847 ], [ -77.06698, 38.72838 ], [ -77.06692, 38.72845 ] ] ] } },
{ "type": "Feature", "properties": { "variant": "T0", "miles": 1.0 }, "geometry": { "type": "Polygon", "coordinates": [ [ [ -77.07538, 38.72224 ], [ -77.07773, 38.72192 ], [ -77.07906, 38.72268 ], [ -77.07864, 38.72414 ], [ -77.07776, 38.72442 ], [ -77.07754, 38.72598 ], [ -77.07933, 38.72665 ], [ -77.08017, 38.72978 ], [ -77.07887, 38.73061 ], [ -77.07913, 38.73105 ], [ -77.07845, 38.7316 ], [ -77.07774, 38.73126 ], [ -77.0764, 38.72911 ], [ -77.07551, 38.72951 ], [ -77.07404, 38.72939 ], [ -77.07466, 38.72991 ], [ -77.07432, 38.73063 ], [ -77.07229, 38.73019 ], [ -77.07158, 38.72953 ], [ -77.07102, 38.73004 ], [ -77.07132, 38.73035 ], [ -77.07216, 38.73032 ], [ -77.07243, 38.73082 ], [ -77.07433, 38.73141 ], [ -77.07438, 38.73218 ], [ -77.0684, 38.73596 ], [ -77.07282, 38.7371 ], [ -77.0732, 38.7378 ], [ -77.0723, 38.7381 ], [ -77.06862, 38.73712 ], [ -77.06902, 38.73963 ], [ -77.06879, 38.74 ], [ -77.06785, 38.74013 ], [ -77.06737, 38.73995 ], [ -77.06735, 38.73929 ], [ -77.06648, 38.73954 ], [ -77.06565, 38.73913 ], [ -77.06617, 38.73848 ], [ -77.06757, 38.73811 ], [ -77.06705, 38.73678 ], [ -77.06382, 38.73598 ], [ -77.06246, 38.73734 ], [ -77.06149, 38.73724 ], [ -77.06135, 38.73684 ], [ -77.0625, 38.73566 ], [ -77.06025, 38.73507 ], [ -77.05988, 38.73439 ], [ -77.06025, 38.73375 ], [ -77.06091, 38.73362 ], [ -77.06267, 38.73456 ], [ -77.0631, 38.73343 ], [ -77.06105, 38.73287 ], [ -77.0601, 38.73349 ], [ -77.05964, 38.73328 ], [ -77.05973, 38.73254 ], [ -77.05598, 38.73122 ], [ -77.05595, 38.73081 ], [ -77.05663, 38.73048 ], [ -77.05626, 38.72985 ], [ -77.05753, 38.72684 ], [ -77.05389, 38.72569 ], [ -77.0539, 38.72425 ], [ -77.05466, 38.72272 ], [ -77.0553, 38.72241 ], [ -77.05521, 38.72189 ], [ -77.0561, 38.72157 ], [ -77.05705, 38.72283 ], [ -77.0586, 38.72335 ], [ -77.05914, 38.72449 ], [ -77.06152, 38.71965 ], [ -77.06249, 38.7196 ], [ -77.06247, 38.72066 ], [ -77.06435, 38.72031 ], [ -77.06347, 38.71923 ], [ -77.0639, 38.71854 ], [ -77.06745, 38.71949 ], [ -77.06947, 38.7195 ], [ -77.07037, 38.71825 ], [ -77.06973, 38.71777 ], [ -77.07021, 38.71711 ], [ -77.07139, 38.7175 ], [ -77.0724, 38.71848 ], [ -77.0725, 38.71916 ], [ -77.0751, 38.71817 ], [ -77.07552, 38.71842 ], [ -77.07559, 38.71883 ], [ -77.07498, 38.71929 ], [ -77.07546, 38.71986 ], [ -77.07538, 38.72224 ] ], [ [ -77.07053, 38.72999 ], [ -77.07019, 38.72942 ], [ -77.07053, 38.72839 ], [ -77.06876, 38.72803 ], [ -77.06797, 38.72969 ], [ -77.06857, 38.7295 ], [ -77.07004, 38.7303 ], [ -77.07053, 38.72999 ] ], [ [ -77.06623, 38.72984 ], [ -77.06652, 38.73 ], [ -77.0666, 38.72955 ], [ -77.06623, 38.72984 ] ], [ [ -77.06803, 38.72373 ], [ -77.06721, 38.72507 ], [ -77.06669, 38.72514 ], [ -77.06616, 38.72449 ], [ -77.06644, 38.72347 ], [ -77.06293, 38.72291 ], [ -77.06264, 38.72346 ], [ -77.06367, 38.7233 ], [ -77.06596, 38.72372 ], [ -77.06584, 38.72575 ], [ -77.06721, 38.72615 ], [ -77.06803, 38.72373 ] ], [ [ -77.06577, 38.72022 ], [ -77.06563, 38.72086 ], [ -77.06584, 38.72086 ], [ -77.06636, 38.72028 ], [ -77.06577, 38.72022 ] ], [ [ -77.07469, 38.72472 ], [ -77.07542, 38.72481 ], [ -77.07531, 38.72452 ], [ -77.07469, 38.72472 ] ], [ [ -77.07881, 38.72947 ], [ -77.07878, 38.72928 ], [ -77.07872, 38.7294 ], [ -77.07881, 38.72947 ] ], [ [ -77.07739, 38.72829 ], [ -77.07735, 38.72832 ], [ -77.07739, 38.72834 ], [ -77.07739, 38.72829 ] ], [ [ -77.07321, 38.72853 ], [ -77.07338, 38.72845 ], [ -77.07305, 38.72854 ], [ -77.07321, 38.72853 ] ], [ [ -77.0762, 38.72769 ], [ -77.07621, 38.7277 ], [ -77.07622, 38.72769 ], [ -77.0762, 38.72769 ] ], [ [ -77.0714, 38.73247 ], [ -77.07143, 38.73261 ], [ -77.07161, 38.73251 ], [ -77.0714, 38.73247 ] ], [ [ -77.06914, 38.72496 ], [ -77.06888, 38.726 ], [ -77.0693, 38.72605 ], [ -77.06956, 38.72512 ], [ -77.06914, 38.72496 ] ], [ [ -77.06907, 38.72186 ], [ -77.06911, 38.72195 ], [ -77.0691, 38.72176 ], [ -77.06907, 38.72186 ] ], [ [ -77.07115, 38.7257 ], [ -77.07123, 38.72537 ], [ -77.07082, 38.72531 ], [ -77.07115, 38.7257 ] ], [ [ -77.06839, 38.72083 ], [ -77.06894, 38.72063 ], [ -77.06861, 38.72058 ], [ -77.06839, 38.72083 ] ], [ [ -77.06694, 38.72847 ], [ -77.06698, 38.72838 ], [ -77.06692, 38.72845 ], [ -77.06694, 38.72847 ] ], [ [ -77.06687, 38.73495 ], [ -77.06692, 38.73492 ], [ -77.06688, 38.73491 ], [ -77.06687, 38.73495 ] ], [ [ -77.06426, 38.73246 ], [ -77.06421, 38.73258 ], [ -77.06592, 38.73295 ], [ -77.06426, 38.73246 ] ], [ [ -77.06536, 38.7316 ], [ -77.0653, 38.73169 ], [ -77.06613, 38.73182 ], [ -77.06617, 38.73164 ], [ -77.06536, 38.7316 ] ], [ [ -77.06632, 38.73085 ], [ -77.06633, 38.73088 ], [ -77.06636, 38.73073 ], [ -77.06632, 38.73085 ] ], [ [ -77.06528, 38.72902 ], [ -77.0637, 38.72897 ], [ -77.06332, 38.72844 ], [ -77.05926, 38.72631 ], [ -77.05884, 38.7272 ], [ -77.06051, 38.72799 ], [ -77.06053, 38.7284 ], [ -77.05973, 38.72871 ], [ -77.06021, 38.72999 ], [ -77.06409, 38.73117 ], [ -77.06528, 38.72902 ] ], [ [ -77.06845, 38.73449 ], [ -77.0682, 38.73391 ], [ -77.06807, 38.73467 ], [ -77.06845, 38.73449 ] ], [ [ -77.06366, 38.72439 ], [ -77.06349, 38.72437 ], [ -77.06365, 38.72444 ], [ -77.06366, 38.72439 ] ], [ [ -77.06411, 38.72657 ], [ -77.06412, 38.72656 ], [ -77.06408, 38.72656 ], [ -77.06411, 38.72657 ] ], [ [ -77.06393, 38.72146 ], [ -77.0641, 38.72149 ], [ -77.06412, 38.72143 ], [ -77.06393, 38.72146 ] ], [ [ -77.06246, 38.73192 ], [ -77.06238, 38.73189 ], [ -77.0629, 38.73223 ], [ -77.06246, 38.73192 ] ], [ [ -77.06504, 38.73399 ], [ -77.06498, 38.73514 ], [ -77.06542, 38.73525 ], [ -77.06569, 38.73403 ], [ -77.06504, 38.73399 ] ], [ [ -77.05736, 38.72407 ], [ -77.05572, 38.7236 ], [ -77.05526, 38.72497 ], [ -77.05802, 38.72583 ], [ -77.05835, 38.72544 ], [ -77.05736, 38.72407 ] ], [ [ -77.06088, 38.72426 ], [ -77.0617, 38.72384 ], [ -77.06107, 38.72352 ], [ -77.06088, 38.72426 ] ], [ [ -77.06155, 38.72279 ], [ -77.06158, 38.72268 ], [ -77.06133, 38.72264 ], [ -77.06122, 38.72301 ], [ -77.06155, 38.72279 ] ], [ [ -77.05908, 38.72962 ], [ -77.05795, 38.72928 ], [ -77.05698, 38.73051 ], [ -77.05851, 38.73101 ], [ -77.05908, 38.72962 ] ] ] } },
{ "type": "Feature", "properties": { "variant": "T0", "miles": 1.5 }, "geometry": { "type": "Polygon", "coordinates": [ [ [ -77.07896, 38.72153 ], [ -77.07925, 38.72251 ], [ -77.07864, 38.72414 ], [ -77.07776, 38.72442 ], [ -77.07754, 38.72598 ], [ -77.07874, 38.72619 ], [ -77.07937, 38.7267 ], [ -77.0794, 38.7276 ], [ -77.08006, 38.72843 ], [ -77.08009, 38.72995 ], [ -77.07887, 38.73061 ], [ -77.07913, 38.73105 ], [ -77.07845, 38.7316 ], [ -77.07774, 38.73126 ], [ -77.0764, 38.72911 ], [ -77.07551, 38.72951 ], [ -77.07404, 38.72939 ], [ -77.07466, 38.72991 ], [ -77.07432, 38.73063 ], [ -77.07229, 38.73019 ], [ -77.07158, 38.72953 ], [ -77.07102, 38.73004 ], [ -77.07132, 38.73035 ], [ -77.07216, 38.73032 ], [ -77.07243, 38.73082 ], [ -77.07433, 38.73141 ], [ -77.07438, 38.73218 ], [ -77.0684, 38.73596 ], [ -77.07088, 38.73653 ], [ -77.07225, 38.73551 ], [ -77.0728, 38.73551 ], [ -77.07307, 38.73444 ], [ -77.07434, 38.73387 ], [ -77.07526, 38.73393 ], [ -77.07628, 38.73489 ], [ -77.07685, 38.73656 ], [ -77.07364, 38.73753 ], [ -77.07419, 38.73823 ], [ -77.07589, 38.73704 ], [ -77.07697, 38.7373 ], [ -77.07679, 38.73669 ], [ -77.07802, 38.73555 ], [ -77.07854, 38.73558 ], [ -77.07903, 38.73638 ], [ -77.0787, 38.73743 ], [ -77.07913, 38.73705 ], [ -77.08008, 38.73722 ], [ -77.07994, 38.73837 ], [ -77.0791, 38.73875 ], [ -77.07723, 38.73847 ], [ -77.07513, 38.73951 ], [ -77.07552, 38.74007 ], [ -77.07719, 38.74018 ], [ -77.07799, 38.73982 ], [ -77.07919, 38.74021 ], [ -77.07886, 38.74205 ], [ -77.0775, 38.74252 ], [ -77.07813, 38.7428 ], [ -77.07815, 38.74321 ], [ -77.07583, 38.74402 ], [ -77.07549, 38.74331 ], [ -77.07596, 38.743 ], [ -77.07387, 38.73995 ], [ -77.07205, 38.74044 ], [ -77.07369, 38.74252 ], [ -77.07337, 38.74314 ], [ -77.07231, 38.74342 ], [ -77.07296, 38.74465 ], [ -77.07258, 38.74536 ], [ -77.07039, 38.74451 ], [ -77.06997, 38.74138 ], [ -77.06871, 38.74232 ], [ -77.06946, 38.74252 ], [ -77.06925, 38.7433 ], [ -77.06503, 38.74367 ], [ -77.06396, 38.74421 ], [ -77.06317, 38.74394 ], [ -77.06135, 38.74196 ], [ -77.05944, 38.74255 ], [ -77.05914, 38.74177 ], [ -77.05814, 38.74148 ], [ -77.05881, 38.74068 ], [ -77.05796, 38.73928 ], [ -77.05983, 38.73809 ], [ -77.06059, 38.73804 ], [ -77.06088, 38.73732 ], [ -77.06162, 38.73742 ], [ -77.06135, 38.73684 ], [ -77.0625, 38.73566 ], [ -77.05812, 38.73451 ], [ -77.05785, 38.73514 ], [ -77.05885, 38.73587 ], [ -77.05857, 38.73657 ], [ -77.05663, 38.73678 ], [ -77.05536, 38.73622 ], [ -77.05465, 38.7381 ], [ -77.05429, 38.73841 ], [ -77.05337, 38.73815 ], [ -77.0545, 38.73473 ], [ -77.05186, 38.73453 ], [ -77.05121, 38.7331 ], [ -77.04976, 38.73273 ], [ -77.05087, 38.72989 ], [ -77.04882, 38.72912 ], [ -77.0488, 38.72871 ], [ -77.04951, 38.7284 ], [ -77.04821, 38.72637 ], [ -77.0482, 38.72595 ], [ -77.04903, 38.72545 ], [ -77.04868, 38.72429 ], [ -77.04544, 38.72309 ], [ -77.04549, 38.72189 ], [ -77.04622, 38.7215 ], [ -77.04724, 38.72175 ], [ -77.04814, 38.72078 ], [ -77.05107, 38.72111 ], [ -77.05009, 38.7202 ], [ -77.04801, 38.71979 ], [ -77.04779, 38.71942 ], [ -77.04846, 38.71886 ], [ -77.04991, 38.71898 ], [ -77.04966, 38.71843 ], [ -77.05044, 38.71722 ], [ -77.05135, 38.71749 ], [ -77.05123, 38.7182 ], [ -77.05192, 38.71831 ], [ -77.05158, 38.71762 ], [ -77.05196, 38.71733 ], [ -77.05771, 38.71816 ], [ -77.05901, 38.7155 ], [ -77.06197, 38.7148 ], [ -77.06088, 38.71476 ], [ -77.06058, 38.71442 ], [ -77.06067, 38.71401 ], [ -77.06187, 38.71363 ], [ -77.06191, 38.71217 ], [ -77.06494, 38.71183 ], [ -77.06736, 38.71211 ], [ -77.06796, 38.71105 ], [ -77.06883, 38.71076 ], [ -77.07029, 38.71109 ], [ -77.07109, 38.71208 ], [ -77.07036, 38.71264 ], [ -77.07089, 38.71342 ], [ -77.07051, 38.71371 ], [ -77.0694, 38.71343 ], [ -77.06928, 38.71368 ], [ -77.0692, 38.71397 ], [ -77.07065, 38.71497 ], [ -77.06942, 38.71637 ], [ -77.07008, 38.71678 ], [ -77.07098, 38.71572 ], [ -77.07264, 38.71581 ], [ -77.07362, 38.71704 ], [ -77.07896, 38.72153 ] ], [ [ -77.06627, 38.73702 ], [ -77.06705, 38.73678 ], [ -77.06382, 38.73598 ], [ -77.06265, 38.73722 ], [ -77.06493, 38.73684 ], [ -77.06613, 38.73758 ], [ -77.06627, 38.73702 ] ], [ [ -77.06569, 38.73403 ], [ -77.06412, 38.73369 ], [ -77.06504, 38.73399 ], [ -77.06498, 38.73514 ], [ -77.06543, 38.7352 ], [ -77.06569, 38.73403 ] ], [ [ -77.06426, 38.73246 ], [ -77.06421, 38.73258 ], [ -77.06592, 38.73295 ], [ -77.06426, 38.73246 ] ], [ [ -77.06536, 38.7316 ], [ -77.0653, 38.73169 ], [ -77.06613, 38.73182 ], [ -77.06536, 38.7316 ] ], [ [ -77.06623, 38.73078 ], [ -77.06633, 38.73088 ], [ -77.06636, 38.73073 ], [ -77.06623, 38.73078 ] ], [ [ -77.06623, 38.72984 ], [ -77.06652, 38.73 ], [ -77.0666, 38.72955 ], [ -77.06623, 38.72984 ] ], [ [ -77.06803, 38.72373 ], [ -77.06721, 38.72507 ], [ -77.06669, 38.72514 ], [ -77.06616, 38.72449 ], [ -77.06644, 38.72347 ], [ -77.06293, 38.72291 ], [ -77.06264, 38.72346 ], [ -77.06367, 38.7233 ], [ -77.06596, 38.72372 ], [ -77.06584, 38.72575 ], [ -77.06721, 38.72615 ], [ -77.06803, 38.72373 ] ], [ [ -77.06577, 38.72022 ], [ -77.06563, 38.72086 ], [ -77.06584, 38.72086 ], [ -77.06636, 38.72028 ], [ -77.06577, 38.72022 ] ], [ [ -77.06665, 38.71816 ], [ -77.06716, 38.71807 ], [ -77.06779, 38.7183 ], [ -77.06768, 38.71947 ], [ -77.06947, 38.7195 ], [ -77.06979, 38.7187 ], [ -77.06916, 38.71846 ], [ -77.06941, 38.71774 ], [ -77.06804, 38.7169 ], [ -77.0674, 38.7171 ], [ -77.06682, 38.7165 ], [ -77.06612, 38.71653 ], [ -77.0662, 38.71919 ], [ -77.06665, 38.71816 ] ], [ [ -77.07053, 38.72839 ], [ -77.06876, 38.72803 ], [ -77.06797, 38.72969 ], [ -77.06857, 38.7295 ], [ -77.07, 38.73038 ], [ -77.07053, 38.72999 ], [ -77.07019, 38.72942 ], [ -77.07053, 38.72839 ] ], [ [ -77.07123, 38.72537 ], [ -77.07082, 38.72531 ], [ -77.07079, 38.72563 ], [ -77.07115, 38.7257 ], [ -77.07123, 38.72537 ] ], [ [ -77.07304, 38.72865 ], [ -77.07338, 38.72845 ], [ -77.07312, 38.72859 ], [ -77.07304, 38.72865 ] ], [ [ -77.07469, 38.72472 ], [ -77.07542, 38.72481 ], [ -77.07531, 38.72452 ], [ -77.07469, 38.72472 ] ], [ [ -77.07635, 38.72198 ], [ -77.07632, 38.72208 ], [ -77.07644, 38.72206 ], [ -77.07635, 38.72198 ] ], [ [ -77.0762, 38.72769 ], [ -77.07621, 38.7277 ], [ -77.07622, 38.72769 ], [ -77.0762, 38.72769 ] ], [ [ -77.07872, 38.7294 ], [ -77.0786, 38.72954 ], [ -77.07881, 38.72947 ], [ -77.07872, 38.7294 ] ], [ [ -77.07739, 38.72834 ], [ -77.07739, 38.72829 ], [ -77.07735, 38.72832 ], [ -77.07739, 38.72834 ] ], [ [ -77.07223, 38.718 ], [ -77.07176, 38.71805 ], [ -77.07259, 38.71848 ], [ -77.07332, 38.71819 ], [ -77.07223, 38.718 ] ], [ [ -77.07143, 38.717 ], [ -77.07205, 38.71693 ], [ -77.07189, 38.71671 ], [ -77.07143, 38.717 ] ], [ [ -77.07195, 38.74238 ], [ -77.07207, 38.74236 ], [ -77.07201, 38.74226 ], [ -77.07195, 38.74238 ] ], [ [ -77.07136, 38.74154 ], [ -77.07155, 38.74159 ], [ -77.07143, 38.74142 ], [ -77.07136, 38.74154 ] ], [ [ -77.07155, 38.74034 ], [ -77.07138, 38.74024 ], [ -77.07138, 38.74034 ], [ -77.07155, 38.74034 ] ], [ [ -77.07134, 38.7395 ], [ -77.07136, 38.73975 ], [ -77.07144, 38.73966 ], [ -77.07134, 38.7395 ] ], [ [ -77.07632, 38.74113 ], [ -77.07629, 38.74116 ], [ -77.07663, 38.74166 ], [ -77.07747, 38.74134 ], [ -77.07632, 38.74113 ] ], [ [ -77.07312, 38.73894 ], [ -77.07308, 38.73903 ], [ -77.07317, 38.739 ], [ -77.07312, 38.73894 ] ], [ [ -77.0726, 38.73829 ], [ -77.07266, 38.73831 ], [ -77.07262, 38.73827 ], [ -77.0726, 38.73829 ] ], [ [ -77.0714, 38.73247 ], [ -77.07143, 38.73261 ], [ -77.07161, 38.73251 ], [ -77.0714, 38.73247 ] ], [ [ -77.06901, 38.71196 ], [ -77.06918, 38.71186 ], [ -77.06905, 38.71184 ], [ -77.06901, 38.71196 ] ], [ [ -77.06858, 38.72057 ], [ -77.06833, 38.72053 ], [ -77.06839, 38.72083 ], [ -77.06894, 38.72063 ], [ -77.06858, 38.72057 ] ], [ [ -77.06903, 38.72179 ], [ -77.06911, 38.72195 ], [ -77.06912, 38.72194 ], [ -77.06903, 38.72179 ] ], [ [ -77.06888, 38.726 ], [ -77.0693, 38.72605 ], [ -77.06956, 38.72512 ], [ -77.06908, 38.72507 ], [ -77.06888, 38.726 ] ], [ [ -77.06845, 38.73449 ], [ -77.0682, 38.73391 ], [ -77.0681, 38.73463 ], [ -77.06845, 38.73449 ] ], [ [ -77.07, 38.7403 ], [ -77.07011, 38.73747 ], [ -77.06862, 38.73712 ], [ -77.06907, 38.73834 ], [ -77.06905, 38.74037 ], [ -77.07, 38.7403 ] ], [ [ -77.06694, 38.72847 ], [ -77.06698, 38.72838 ], [ -77.06692, 38.72845 ], [ -77.06694, 38.72847 ] ], [ [ -77.06688, 38.73491 ], [ -77.06687, 38.73495 ], [ -77.06692, 38.73492 ], [ -77.06688, 38.73491 ] ], [ [ -77.06758, 38.74003 ], [ -77.06762, 38.74011 ], [ -77.06762, 38.74004 ], [ -77.06758, 38.74003 ] ], [ [ -77.06735, 38.73929 ], [ -77.06722, 38.73934 ], [ -77.06727, 38.73943 ], [ -77.06735, 38.73929 ] ], [ [ -77.05993, 38.73341 ], [ -77.05963, 38.73324 ], [ -77.05943, 38.73374 ], [ -77.05987, 38.73377 ], [ -77.05993, 38.73341 ] ], [ [ -77.06409, 38.73117 ], [ -77.06528, 38.72902 ], [ -77.0637, 38.72897 ], [ -77.06332, 38.72844 ], [ -77.05926, 38.72631 ], [ -77.05884, 38.7272 ], [ -77.06051, 38.72799 ], [ -77.06053, 38.7284 ], [ -77.05973, 38.72871 ], [ -77.05975, 38.72953 ], [ -77.06088, 38.73022 ], [ -77.06409, 38.73117 ] ], [ [ -77.06062, 38.71972 ], [ -77.05977, 38.71958 ], [ -77.05871, 38.72382 ], [ -77.05914, 38.72449 ], [ -77.06062, 38.71972 ] ], [ [ -77.06095, 38.71706 ], [ -77.06092, 38.71604 ], [ -77.05996, 38.71628 ], [ -77.05942, 38.71744 ], [ -77.06025, 38.71758 ], [ -77.06095, 38.71706 ] ], [ [ -77.06435, 38.72031 ], [ -77.06441, 38.72 ], [ -77.06371, 38.71963 ], [ -77.06269, 38.72004 ], [ -77.06247, 38.72066 ], [ -77.06435, 38.72031 ] ], [ [ -77.06373, 38.71866 ], [ -77.06385, 38.71858 ], [ -77.06371, 38.71846 ], [ -77.06373, 38.71866 ] ], [ [ -77.06464, 38.7171 ], [ -77.06473, 38.71618 ], [ -77.06409, 38.71637 ], [ -77.06347, 38.71579 ], [ -77.06387, 38.71675 ], [ -77.06464, 38.7171 ] ], [ [ -77.06462, 38.71871 ], [ -77.06461, 38.71858 ], [ -77.06449, 38.71863 ], [ -77.06462, 38.71871 ] ], [ [ -77.0641, 38.72149 ], [ -77.06412, 38.72143 ], [ -77.06393, 38.72146 ], [ -77.0641, 38.72149 ] ], [ [ -77.06213, 38.73315 ], [ -77.06219, 38.73367 ], [ -77.06175, 38.73393 ], [ -77.06187, 38.73436 ], [ -77.06267, 38.73456 ], [ -77.0631, 38.73343 ], [ -77.06213, 38.73315 ] ], [ [ -77.06246, 38.73192 ], [ -77.06238, 38.73189 ], [ -77.0629, 38.73223 ], [ -77.06246, 38.73192 ] ], [ [ -77.06412, 38.72656 ], [ -77.06408, 38.72656 ], [ -77.06411, 38.72657 ], [ -77.06412, 38.72656 ] ], [ [ -77.06365, 38.72444 ], [ -77.06366, 38.72439 ], [ -77.06349, 38.72437 ], [ -77.06365, 38.72444 ] ], [ [ -77.06352, 38.74148 ], [ -77.06341, 38.74126 ], [ -77.06317, 38.74143 ], [ -77.06352, 38.74148 ] ], [ [ -77.06283, 38.74048 ], [ -77.06301, 38.74048 ], [ -77.06299, 38.74044 ], [ -77.06283, 38.74048 ] ], [ [ -77.06527, 38.73848 ], [ -77.0652, 38.73852 ], [ -77.06528, 38.7385 ], [ -77.06527, 38.73848 ] ], [ [ -77.06089, 38.71859 ], [ -77.06071, 38.71863 ], [ -77.06086, 38.71865 ], [ -77.06089, 38.71859 ] ], [ [ -77.06122, 38.72301 ], [ -77.06155, 38.72279 ], [ -77.06133, 38.72264 ], [ -77.06122, 38.72301 ] ], [ [ -77.0613, 38.72403 ], [ -77.0617, 38.72384 ], [ -77.06107, 38.72352 ], [ -77.06088, 38.72426 ], [ -77.0613, 38.72403 ] ], [ [ -77.06202, 38.73853 ], [ -77.06202, 38.73854 ], [ -77.06203, 38.73853 ], [ -77.06202, 38.73853 ] ], [ [ -77.05502, 38.73233 ], [ -77.05496, 38.73258 ], [ -77.05521, 38.73265 ], [ -77.05502, 38.73233 ] ], [ [ -77.05505, 38.73016 ], [ -77.05511, 38.73025 ], [ -77.05516, 38.73019 ], [ -77.05505, 38.73016 ] ], [ [ -77.05402, 38.72006 ], [ -77.05365, 38.72007 ], [ -77.05474, 38.72217 ], [ -77.05524, 38.72231 ], [ -77.05402, 38.72006 ] ], [ [ -77.05646, 38.71909 ], [ -77.05522, 38.7189 ], [ -77.05522, 38.71907 ], [ -77.05646, 38.71909 ] ], [ [ -77.05736, 38.72407 ], [ -77.05572, 38.7236 ], [ -77.05521, 38.7246 ], [ -77.05526, 38.72497 ], [ -77.05802, 38.72583 ], [ -77.05835, 38.72544 ], [ -77.05736, 38.72407 ] ], [ [ -77.05673, 38.72226 ], [ -77.05752, 38.72297 ], [ -77.05842, 38.71937 ], [ -77.05782, 38.71928 ], [ -77.05673, 38.72226 ] ], [ [ -77.05567, 38.72047 ], [ -77.05599, 38.721 ], [ -77.05615, 38.72032 ], [ -77.05554, 38.72022 ], [ -77.05567, 38.72047 ] ], [ [ -77.05676, 38.73493 ], [ -77.0568, 38.73419 ], [ -77.05616, 38.73404 ], [ -77.05596, 38.7346 ], [ -77.05676, 38.73493 ] ], [ [ -77.05832, 38.73212 ], [ -77.05701, 38.73169 ], [ -77.05651, 38.73299 ], [ -77.05748, 38.73322 ], [ -77.05832, 38.73212 ] ], [ [ -77.05229, 38.72643 ], [ -77.05306, 38.72691 ], [ -77.05355, 38.72574 ], [ -77.05142, 38.7251 ], [ -77.05229, 38.72643 ] ], [ [ -77.05238, 38.72149 ], [ -77.05297, 38.72166 ], [ -77.05259, 38.721 ], [ -77.05238, 38.72149 ] ], [ [ -77.05077, 38.72371 ], [ -77.05141, 38.72236 ], [ -77.05067, 38.72215 ], [ -77.05013, 38.72331 ], [ -77.05077, 38.72371 ] ], [ [ -77.05367, 38.71898 ], [ -77.05384, 38.71898 ], [ -77.05385, 38.71869 ], [ -77.05337, 38.71866 ], [ -77.05367, 38.71898 ] ], [ [ -77.05073, 38.71924 ], [ -77.05074, 38.71923 ], [ -77.05068, 38.71922 ], [ -77.05073, 38.71924 ] ], [ [ -77.05132, 38.73203 ], [ -77.0516, 38.73205 ], [ -77.05142, 38.73197 ], [ -77.05132, 38.73203 ] ], [ [ -77.05263, 38.73356 ], [ -77.0547, 38.73365 ], [ -77.05319, 38.73327 ], [ -77.05263, 38.73356 ] ] ] } },
{ "type": "Feature", "properties": { "variant": "T2s", "miles": 0.5 }, "geometry": { "type": "Polygon", "coordinates": [ [ [ -77.07005, 38.72411 ], [ -77.07213, 38.72439 ], [ -77.07258, 38.72461 ], [ -77.07263, 38.72534 ], [ -77.07357, 38.72563 ], [ -77.0729, 38.72922 ], [ -77.07378, 38.72965 ], [ -77.0738, 38.73007 ], [ -77.07292, 38.73039 ], [ -77.07158, 38.72953 ], [ -77.07069, 38.73008 ], [ -77.07019, 38.72942 ], [ -77.07053, 38.72839 ], [ -77.06876, 38.72803 ], [ -77.06797, 38.72969 ], [ -77.06901, 38.72972 ], [ -77.06891, 38.73114 ], [ -77.0709, 38.73157 ], [ -77.07113, 38.73194 ], [ -77.07048, 38.73251 ], [ -77.06901, 38.73241 ], [ -77.06918, 38.7333 ], [ -77.06878, 38.73357 ], [ -77.06791, 38.73323 ], [ -77.06743, 38.73228 ], [ -77.06714, 38.73372 ], [ -77.06637, 38.73419 ], [ -77.06577, 38.73359 ], [ -77.06593, 38.73289 ], [ -77.06323, 38.7319 ], [ -77.06322, 38.73149 ], [ -77.0641, 38.73116 ], [ -77.06528, 38.72902 ], [ -77.06332, 38.72868 ], [ -77.06412, 38.72656 ], [ -77.06338, 38.72628 ], [ -77.06349, 38.72508 ], [ -77.06378, 38.72473 ], [ -77.06466, 38.72484 ], [ -77.06499, 38.72377 ], [ -77.06596, 38.72372 ], [ -77.06584, 38.72575 ], [ -77.06745, 38.72622 ], [ -77.06803, 38.72373 ], [ -77.06669, 38.72338 ], [ -77.06657, 38.72298 ], [ -77.06735, 38.72252 ], [ -77.07034, 38.72313 ], [ -77.0706, 38.72387 ], [ -77.07005, 38.72411 ] ], [ [ -77.07115, 38.7257 ], [ -77.07123, 38.72537 ], [ -77.07082, 38.72531 ], [ -77.07079, 38.72563 ], [ -77.07115, 38.7257 ] ], [ [ -77.06944, 38.72508 ], [ -77.06908, 38.72505 ], [ -77.06888, 38.726 ], [ -77.0693, 38.72605 ], [ -77.06944, 38.72508 ] ], [ [ -77.06617, 38.73164 ], [ -77.06536, 38.7316 ], [ -77.0653, 38.73169 ], [ -77.06613, 38.73182 ], [ -77.06617, 38.73164 ] ], [ [ -77.06636, 38.73073 ], [ -77.06632, 38.73085 ], [ -77.06633, 38.73088 ], [ -77.06636, 38.73073 ] ], [ [ -77.0666, 38.72955 ], [ -77.06623, 38.72984 ], [ -77.06652, 38.73 ], [ -77.0666, 38.72955 ] ], [ [ -77.06692, 38.72845 ], [ -77.06694, 38.72847 ], [ -77.06698, 38.72838 ], [ -77.06692, 38.72845 ] ] ] } },
{ "type": "Feature", "properties": { "variant": "T2s", "miles": 1.0 }, "geometry": { "type": "Polygon", "coordinates": [ [ [ -77.07546, 38.71986 ], [ -77.07538, 38.72224 ], [ -77.07773, 38.72192 ], [ -77.07906, 38.72268 ], [ -77.07864, 38.72414 ], [ -77.07776, 38.72442 ], [ -77.07754, 38.72598 ], [ -77.07933, 38.72665 ], [ -77.08017, 38.72978 ], [ -77.07887, 38.73061 ], [ -77.07913, 38.73105 ], [ -77.07845, 38.7316 ], [ -77.07774, 38.73126 ], [ -77.0764, 38.72911 ], [ -77.07551, 38.72951 ], [ -77.07404, 38.72939 ], [ -77.07466, 38.72991 ], [ -77.07432, 38.73063 ], [ -77.07229, 38.73019 ], [ -77.07158, 38.72953 ], [ -77.07102, 38.73004 ], [ -77.07132, 38.73035 ], [ -77.07216, 38.73032 ], [ -77.07243, 38.73082 ], [ -77.07433, 38.73141 ], [ -77.07438, 38.73218 ], [ -77.0684, 38.73596 ], [ -77.07233, 38.73696 ], [ -77.07269, 38.73767 ], [ -77.07179, 38.73796 ], [ -77.06862, 38.73712 ], [ -77.06902, 38.73963 ], [ -77.06879, 38.74 ], [ -77.06785, 38.74013 ], [ -77.06737, 38.73995 ], [ -77.06735, 38.73929 ], [ -77.06648, 38.73954 ], [ -77.06565, 38.73913 ], [ -77.06617, 38.73848 ], [ -77.06757, 38.73811 ], [ -77.06705, 38.73678 ], [ -77.06382, 38.73598 ], [ -77.06246, 38.73734 ], [ -77.06149, 38.73724 ], [ -77.06135, 38.73684 ], [ -77.0625, 38.73566 ], [ -77.06025, 38.73507 ], [ -77.05988, 38.73439 ], [ -77.06025, 38.73375 ], [ -77.06091, 38.73362 ], [ -77.06267, 38.73456 ], [ -77.0631, 38.73343 ], [ -77.06105, 38.73287 ], [ -77.06061, 38.73338 ], [ -77.05964, 38.73328 ], [ -77.05973, 38.73254 ], [ -77.05598, 38.73122 ], [ -77.05595, 38.73081 ], [ -77.05663, 38.73048 ], [ -77.05626, 38.72985 ], [ -77.05792, 38.72598 ], [ -77.0595, 38.72406 ], [ -77.06012, 38.72189 ], [ -77.06086, 38.72148 ], [ -77.06152, 38.71965 ], [ -77.06249, 38.7196 ], [ -77.06247, 38.72066 ], [ -77.06435, 38.72031 ], [ -77.06347, 38.71923 ], [ -77.0639, 38.71854 ], [ -77.06745, 38.71949 ], [ -77.06947, 38.7195 ], [ -77.07037, 38.71825 ], [ -77.06973, 38.71777 ], [ -77.07021, 38.71711 ], [ -77.07139, 38.7175 ], [ -77.0724, 38.71848 ], [ -77.0725, 38.71916 ], [ -77.0751, 38.71817 ], [ -77.07552, 38.71842 ], [ -77.07559, 38.71883 ], [ -77.07498, 38.71929 ], [ -77.07546, 38.71986 ] ], [ [ -77.07004, 38.7303 ], [ -77.07053, 38.72999 ], [ -77.07019, 38.72942 ], [ -77.07053, 38.72839 ], [ -77.06876, 38.72803 ], [ -77.06797, 38.72969 ], [ -77.06857, 38.7295 ], [ -77.07004, 38.7303 ] ], [ [ -77.06694, 38.72847 ], [ -77.06692, 38.72845 ], [ -77.06689, 38.72845 ], [ -77.06694, 38.72847 ] ], [ [ -77.06745, 38.72622 ], [ -77.06803, 38.72373 ], [ -77.06721, 38.72507 ], [ -77.06669, 38.72514 ], [ -77.06616, 38.72449 ], [ -77.06644, 38.72347 ], [ -77.06293, 38.72291 ], [ -77.06264, 38.72346 ], [ -77.06367, 38.7233 ], [ -77.06596, 38.72372 ], [ -77.06584, 38.72575 ], [ -77.06745, 38.72622 ] ], [ [ -77.06636, 38.72028 ], [ -77.06577, 38.72022 ], [ -77.06563, 38.72086 ], [ -77.06584, 38.72086 ], [ -77.06636, 38.72028 ] ], [ [ -77.07531, 38.72452 ], [ -77.07469, 38.72472 ], [ -77.07542, 38.72481 ], [ -77.07531, 38.72452 ] ], [ [ -77.07735, 38.72832 ], [ -77.07739, 38.72834 ], [ -77.07739, 38.72829 ], [ -77.07735, 38.72832 ] ], [ [ -77.0762, 38.72769 ], [ -77.07621, 38.7277 ], [ -77.07622, 38.72769 ], [ -77.0762, 38.72769 ] ], [ [ -77.07881, 38.72947 ], [ -77.07878, 38.72928 ], [ -77.0786, 38.72954 ], [ -77.07881, 38.72947 ] ], [ [ -77.07305, 38.72854 ], [ -77.07321, 38.72853 ], [ -77.07338, 38.72845 ], [ -77.07305, 38.72854 ] ], [ [ -77.07172, 38.73245 ], [ -77.0714, 38.73247 ], [ -77.07143, 38.73261 ], [ -77.07172, 38.73245 ] ], [ [ -77.06956, 38.72512 ], [ -77.06914, 38.72496 ], [ -77.06888, 38.726 ], [ -77.0693, 38.72605 ], [ -77.06956, 38.72512 ] ], [ [ -77.0691, 38.72176 ], [ -77.06907, 38.72186 ], [ -77.06911, 38.72195 ], [ -77.0691, 38.72176 ] ], [ [ -77.07082, 38.72531 ], [ -77.07115, 38.7257 ], [ -77.07123, 38.72537 ], [ -77.07082, 38.72531 ] ], [ [ -77.06861, 38.72058 ], [ -77.06839, 38.72083 ], [ -77.06894, 38.72063 ], [ -77.06861, 38.72058 ] ], [ [ -77.06688, 38.73491 ], [ -77.06687, 38.73495 ], [ -77.06692, 38.73492 ], [ -77.06688, 38.73491 ] ], [ [ -77.06617, 38.73164 ], [ -77.0653, 38.73169 ], [ -77.06613, 38.73182 ], [ -77.06617, 38.73164 ] ], [ [ -77.06409, 38.73117 ], [ -77.06528, 38.72902 ], [ -77.0637, 38.72897 ], [ -77.06332, 38.72844 ], [ -77.05926, 38.72631 ], [ -77.05884, 38.7272 ], [ -77.06051, 38.72799 ], [ -77.06053, 38.7284 ], [ -77.05973, 38.72871 ], [ -77.06021, 38.72999 ], [ -77.06409, 38.73117 ] ], [ [ -77.06408, 38.72656 ], [ -77.06411, 38.72657 ], [ -77.06412, 38.72656 ], [ -77.06408, 38.72656 ] ], [ [ -77.06366, 38.72439 ], [ -77.06349, 38.72437 ], [ -77.06365, 38.72444 ], [ -77.06366, 38.72439 ] ], [ [ -77.06623, 38.73078 ], [ -77.06633, 38.73088 ], [ -77.06636, 38.73073 ], [ -77.06623, 38.73078 ] ], [ [ -77.0666, 38.72955 ], [ -77.06623, 38.72984 ], [ -77.06652, 38.73 ], [ -77.0666, 38.72955 ] ], [ [ -77.06807, 38.73467 ], [ -77.06845, 38.73449 ], [ -77.0682, 38.73391 ], [ -77.06807, 38.73467 ] ], [ [ -77.06412, 38.72143 ], [ -77.06393, 38.72146 ], [ -77.0641, 38.72149 ], [ -77.06412, 38.72143 ] ], [ [ -77.06524, 38.73438 ], [ -77.06498, 38.73514 ], [ -77.06542, 38.73525 ], [ -77.06569, 38.73403 ], [ -77.06412, 38.73369 ], [ -77.06524, 38.73438 ] ], [ [ -77.06421, 38.73258 ], [ -77.06593, 38.73289 ], [ -77.06426, 38.73246 ], [ -77.06421, 38.73258 ] ], [ [ -77.06107, 38.72352 ], [ -77.06088, 38.72426 ], [ -77.0617, 38.72384 ], [ -77.06107, 38.72352 ] ], [ [ -77.06122, 38.72301 ], [ -77.06155, 38.72279 ], [ -77.06158, 38.72268 ], [ -77.06133, 38.72264 ], [ -77.06122, 38.72301 ] ], [ [ -77.06298, 38.73203 ], [ -77.06239, 38.73207 ], [ -77.0629, 38.73223 ], [ -77.06298, 38.73203 ] ], [ [ -77.05795, 38.72928 ], [ -77.05698, 38.73051 ], [ -77.05851, 38.73101 ], [ -77.05904, 38.73057 ], [ -77.05908, 38.72962 ], [ -77.05795, 38.72928 ] ] ] } },
{ "type": "Feature", "properties": { "variant": "T2s", "miles": 1.5 }, "geometry": { "type": "Polygon", "coordinates": [ [ [ -77.07907, 38.72172 ], [ -77.07904, 38.72334 ], [ -77.07864, 38.72414 ], [ -77.07776, 38.72442 ], [ -77.07754, 38.72598 ], [ -77.07933, 38.72665 ], [ -77.08017, 38.72978 ], [ -77.07887, 38.73061 ], [ -77.07913, 38.73105 ], [ -77.07845, 38.7316 ], [ -77.07774, 38.73126 ], [ -77.0764, 38.72911 ], [ -77.07551, 38.72951 ], [ -77.07404, 38.72939 ], [ -77.07466, 38.72991 ], [ -77.07432, 38.73063 ], [ -77.07229, 38.73019 ], [ -77.07158, 38.72953 ], [ -77.07102, 38.73004 ], [ -77.07132, 38.73035 ], [ -77.07216, 38.73032 ], [ -77.07243, 38.73082 ], [ -77.07433, 38.73141 ], [ -77.07438, 38.73218 ], [ -77.0684, 38.73596 ], [ -77.07088, 38.73653 ], [ -77.07225, 38.73551 ], [ -77.0728, 38.73551 ], [ -77.07298, 38.7345 ], [ -77.075, 38.73385 ], [ -77.07616, 38.73472 ], [ -77.07685, 38.73656 ], [ -77.07364, 38.73753 ], [ -77.07419, 38.73823 ], [ -77.07589, 38.73704 ], [ -77.07697, 38.7373 ], [ -77.07679, 38.73669 ], [ -77.07823, 38.73595 ], [ -77.07904, 38.73651 ], [ -77.0787, 38.73743 ], [ -77.07993, 38.73764 ], [ -77.07994, 38.73837 ], [ -77.0791, 38.73875 ], [ -77.07723, 38.73847 ], [ -77.07513, 38.73951 ], [ -77.07751, 38.74303 ], [ -77.07717, 38.74374 ], [ -77.07625, 38.74347 ], [ -77.07387, 38.73995 ], [ -77.07205, 38.74044 ], [ -77.07369, 38.74252 ], [ -77.07337, 38.74314 ], [ -77.07231, 38.74342 ], [ -77.07256, 38.7443 ], [ -77.07218, 38.74459 ], [ -77.07104, 38.74486 ], [ -77.07039, 38.74451 ], [ -77.0698, 38.74136 ], [ -77.06871, 38.74232 ], [ -77.06946, 38.74252 ], [ -77.06925, 38.7433 ], [ -77.06345, 38.74412 ], [ -77.06135, 38.74196 ], [ -77.05997, 38.74254 ], [ -77.05906, 38.74227 ], [ -77.05914, 38.74177 ], [ -77.05814, 38.74148 ], [ -77.05881, 38.74068 ], [ -77.0579, 38.73968 ], [ -77.05797, 38.73927 ], [ -77.05983, 38.73809 ], [ -77.06059, 38.73804 ], [ -77.06088, 38.73732 ], [ -77.06162, 38.73742 ], [ -77.06135, 38.73684 ], [ -77.0625, 38.73566 ], [ -77.05812, 38.73451 ], [ -77.05785, 38.73514 ], [ -77.05885, 38.73587 ], [ -77.05851, 38.73661 ], [ -77.05669, 38.73678 ], [ -77.05536, 38.73622 ], [ -77.055, 38.73652 ], [ -77.05409, 38.73625 ], [ -77.05626, 38.72985 ], [ -77.05835, 38.72544 ], [ -77.05733, 38.72381 ], [ -77.05842, 38.71937 ], [ -77.05782, 38.71928 ], [ -77.05734, 38.72035 ], [ -77.05443, 38.72006 ], [ -77.05387, 38.71959 ], [ -77.05394, 38.71815 ], [ -77.05473, 38.71772 ], [ -77.05771, 38.71816 ], [ -77.05901, 38.7155 ], [ -77.06197, 38.7148 ], [ -77.06191, 38.71217 ], [ -77.06494, 38.71183 ], [ -77.06736, 38.71211 ], [ -77.06796, 38.71105 ], [ -77.06883, 38.71076 ], [ -77.07029, 38.71109 ], [ -77.07109, 38.71208 ], [ -77.07036, 38.71264 ], [ -77.07089, 38.71342 ], [ -77.07051, 38.71371 ], [ -77.0694, 38.71343 ], [ -77.06928, 38.71368 ], [ -77.0692, 38.71397 ], [ -77.07065, 38.71497 ], [ -77.06942, 38.71637 ], [ -77.07008, 38.71678 ], [ -77.07077, 38.71582 ], [ -77.07213, 38.71563 ], [ -77.07907, 38.72172 ] ], [ [ -77.0681, 38.73463 ], [ -77.06807, 38.73467 ], [ -77.06845, 38.73449 ], [ -77.0682, 38.73391 ], [ -77.0681, 38.73463 ] ], [ [ -77.07, 38.73038 ], [ -77.07053, 38.72999 ], [ -77.07019, 38.72942 ], [ -77.07053, 38.72839 ], [ -77.06876, 38.72803 ], [ -77.06797, 38.72969 ], [ -77.06857, 38.7295 ], [ -77.07, 38.73038 ] ], [ [ -77.06694, 38.72847 ], [ -77.06698, 38.72838 ], [ -77.06692, 38.72845 ], [ -77.06694, 38.72847 ] ], [ [ -77.06803, 38.72373 ], [ -77.06721, 38.72507 ], [ -77.06669, 38.72514 ], [ -77.06616, 38.72449 ], [ -77.06644, 38.72347 ], [ -77.06293, 38.72291 ], [ -77.06264, 38.72346 ], [ -77.06367, 38.7233 ], [ -77.06596, 38.72372 ], [ -77.06584, 38.72575 ], [ -77.06721, 38.72615 ], [ -77.06803, 38.72373 ] ], [ [ -77.06577, 38.72022 ], [ -77.06563, 38.72086 ], [ -77.06584, 38.72086 ], [ -77.06636, 38.72028 ], [ -77.06577, 38.72022 ] ], [ [ -77.06665, 38.71816 ], [ -77.06716, 38.71807 ], [ -77.06779, 38.7183 ], [ -77.06768, 38.71947 ], [ -77.06947, 38.7195 ], [ -77.06979, 38.7187 ], [ -77.06916, 38.71846 ], [ -77.06941, 38.71774 ], [ -77.06804, 38.7169 ], [ -77.0674, 38.7171 ], [ -77.06682, 38.7165 ], [ -77.06612, 38.71653 ], [ -77.0662, 38.71919 ], [ -77.06665, 38.71816 ] ], [ [ -77.07123, 38.72537 ], [ -77.07082, 38.72531 ], [ -77.07079, 38.72563 ], [ -77.07115, 38.7257 ], [ -77.07123, 38.72537 ] ], [ [ -77.07223, 38.718 ], [ -77.07176, 38.71805 ], [ -77.07259, 38.71848 ], [ -77.07332, 38.71819 ], [ -77.07223, 38.718 ] ], [ [ -77.07304, 38.72865 ], [ -77.07338, 38.72845 ], [ -77.07312, 38.72859 ], [ -77.07304, 38.72865 ] ], [ [ -77.07621, 38.7277 ], [ -77.07622, 38.72769 ], [ -77.0762, 38.72769 ], [ -77.07621, 38.7277 ] ], [ [ -77.07528, 38.72104 ], [ -77.07528, 38.7212 ], [ -77.07533, 38.72114 ], [ -77.07528, 38.72104 ] ], [ [ -77.07639, 38.72202 ], [ -77.07635, 38.72198 ], [ -77.07632, 38.72208 ], [ -77.07639, 38.72202 ] ], [ [ -77.07469, 38.72472 ], [ -77.07542, 38.72481 ], [ -77.07531, 38.72452 ], [ -77.07469, 38.72472 ] ], [ [ -77.07872, 38.7294 ], [ -77.0786, 38.72954 ], [ -77.07881, 38.72947 ], [ -77.07872, 38.7294 ] ], [ [ -77.07739, 38.72834 ], [ -77.07739, 38.72829 ], [ -77.07735, 38.72832 ], [ -77.07739, 38.72834 ] ], [ [ -77.07143, 38.717 ], [ -77.07205, 38.71693 ], [ -77.07189, 38.71671 ], [ -77.07143, 38.717 ] ], [ [ -77.0714, 38.73247 ], [ -77.07143, 38.73261 ], [ -77.07161, 38.73251 ], [ -77.0714, 38.73247 ] ], [ [ -77.06901, 38.71196 ], [ -77.06918, 38.71186 ], [ -77.06905, 38.71184 ], [ -77.06901, 38.71196 ] ], [ [ -77.06858, 38.72057 ], [ -77.06833, 38.72053 ], [ -77.06839, 38.72083 ], [ -77.06894, 38.72063 ], [ -77.06858, 38.72057 ] ], [ [ -77.06912, 38.72194 ], [ -77.0691, 38.72176 ], [ -77.06903, 38.72179 ], [ -77.06912, 38.72194 ] ], [ [ -77.06888, 38.726 ], [ -77.0693, 38.72605 ], [ -77.06956, 38.72512 ], [ -77.06914, 38.72496 ], [ -77.06888, 38.726 ] ], [ [ -77.07, 38.7403 ], [ -77.07011, 38.73747 ], [ -77.06862, 38.73712 ], [ -77.06911, 38.74035 ], [ -77.07, 38.7403 ] ], [ [ -77.07207, 38.74236 ], [ -77.07201, 38.74226 ], [ -77.07195, 38.74238 ], [ -77.07207, 38.74236 ] ], [ [ -77.07139, 38.74154 ], [ -77.07155, 38.74159 ], [ -77.07143, 38.74142 ], [ -77.07139, 38.74154 ] ], [ [ -77.07134, 38.7395 ], [ -77.07136, 38.73975 ], [ -77.07144, 38.73966 ], [ -77.07134, 38.7395 ] ], [ [ -77.07266, 38.73831 ], [ -77.0726, 38.73825 ], [ -77.0726, 38.73829 ], [ -77.07266, 38.73831 ] ], [ [ -77.07308, 38.73903 ], [ -77.07317, 38.739 ], [ -77.07312, 38.73894 ], [ -77.07308, 38.73903 ] ], [ [ -77.06319, 38.74147 ], [ -77.06352, 38.74148 ], [ -77.06341, 38.74126 ], [ -77.06319, 38.74147 ] ], [ [ -77.06283, 38.74048 ], [ -77.06301, 38.74048 ], [ -77.06299, 38.74044 ], [ -77.06283, 38.74048 ] ], [ [ -77.06501, 38.73685 ], [ -77.06613, 38.73759 ], [ -77.06627, 38.73702 ], [ -77.06708, 38.73692 ], [ -77.06382, 38.73598 ], [ -77.06265, 38.73722 ], [ -77.06501, 38.73685 ] ], [ [ -77.06498, 38.73514 ], [ -77.06542, 38.73525 ], [ -77.06569, 38.73403 ], [ -77.06412, 38.73369 ], [ -77.06504, 38.73399 ], [ -77.06498, 38.73514 ] ], [ [ -77.06592, 38.73295 ], [ -77.06426, 38.73246 ], [ -77.06421, 38.73258 ], [ -77.06592, 38.73295 ] ], [ [ -77.06528, 38.72902 ], [ -77.0637, 38.72897 ], [ -77.06332, 38.72844 ], [ -77.05926, 38.72631 ], [ -77.05884, 38.7272 ], [ -77.06051, 38.72799 ], [ -77.06053, 38.7284 ], [ -77.05973, 38.72871 ], [ -77.06019, 38.72997 ], [ -77.06414, 38.73111 ], [ -77.06528, 38.72902 ] ], [ [ -77.06411, 38.72657 ], [ -77.06412, 38.72656 ], [ -77.06408, 38.72656 ], [ -77.06411, 38.72657 ] ], [ [ -77.06349, 38.72437 ], [ -77.06365, 38.72444 ], [ -77.06366, 38.72439 ], [ -77.06349, 38.72437 ] ], [ [ -77.06692, 38.73492 ], [ -77.06688, 38.73491 ], [ -77.06687, 38.73495 ], [ -77.06692, 38.73492 ] ], [ [ -77.0653, 38.73169 ], [ -77.06613, 38.73182 ], [ -77.06617, 38.73164 ], [ -77.0653, 38.73169 ] ], [ [ -77.06633, 38.73088 ], [ -77.06636, 38.73073 ], [ -77.06623, 38.73078 ], [ -77.06633, 38.73088 ] ], [ [ -77.06623, 38.72984 ], [ -77.06652, 38.73 ], [ -77.0666, 38.72955 ], [ -77.06623, 38.72984 ] ], [ [ -77.06722, 38.73934 ], [ -77.06727, 38.73943 ], [ -77.06735, 38.73929 ], [ -77.06722, 38.73934 ] ], [ [ -77.06762, 38.74011 ], [ -77.06762, 38.74004 ], [ -77.06758, 38.74003 ], [ -77.06762, 38.74011 ] ], [ [ -77.06528, 38.7385 ], [ -77.06527, 38.73848 ], [ -77.0652, 38.73852 ], [ -77.06528, 38.7385 ] ], [ [ -77.06435, 38.72031 ], [ -77.06441, 38.72 ], [ -77.06371, 38.71963 ], [ -77.06269, 38.72004 ], [ -77.06247, 38.72066 ], [ -77.06435, 38.72031 ] ], [ [ -77.06371, 38.71846 ], [ -77.06373, 38.71866 ], [ -77.06377, 38.71856 ], [ -77.06371, 38.71846 ] ], [ [ -77.05992, 38.71633 ], [ -77.05942, 38.71744 ], [ -77.06038, 38.71758 ], [ -77.06084, 38.71725 ], [ -77.06092, 38.71604 ], [ -77.05992, 38.71633 ] ], [ [ -77.06464, 38.7171 ], [ -77.06473, 38.71618 ], [ -77.06409, 38.71637 ], [ -77.06347, 38.71579 ], [ -77.06359, 38.71674 ], [ -77.06464, 38.7171 ] ], [ [ -77.06449, 38.71863 ], [ -77.06462, 38.71874 ], [ -77.06462, 38.71871 ], [ -77.06449, 38.71863 ] ], [ [ -77.0641, 38.72149 ], [ -77.06412, 38.72143 ], [ -77.06393, 38.72146 ], [ -77.0641, 38.72149 ] ], [ [ -77.0617, 38.72384 ], [ -77.06107, 38.72352 ], [ -77.06088, 38.72426 ], [ -77.0617, 38.72384 ] ], [ [ -77.06133, 38.72264 ], [ -77.06122, 38.72301 ], [ -77.06155, 38.72279 ], [ -77.06133, 38.72264 ] ], [ [ -77.05977, 38.71958 ], [ -77.05871, 38.72382 ], [ -77.05914, 38.72449 ], [ -77.06062, 38.71972 ], [ -77.05977, 38.71958 ] ], [ [ -77.06078, 38.71862 ], [ -77.06071, 38.71863 ], [ -77.06086, 38.71865 ], [ -77.06078, 38.71862 ] ], [ [ -77.05642, 38.71926 ], [ -77.05646, 38.71909 ], [ -77.05522, 38.7189 ], [ -77.05642, 38.71926 ] ], [ [ -77.05993, 38.73341 ], [ -77.05963, 38.73324 ], [ -77.05943, 38.73374 ], [ -77.05993, 38.73341 ] ], [ [ -77.0629, 38.73223 ], [ -77.06298, 38.73203 ], [ -77.06238, 38.73189 ], [ -77.0629, 38.73223 ] ], [ [ -77.06187, 38.73436 ], [ -77.06267, 38.73456 ], [ -77.0631, 38.73343 ], [ -77.06213, 38.73315 ], [ -77.06187, 38.73436 ] ], [ [ -77.06202, 38.73854 ], [ -77.06203, 38.73853 ], [ -77.06202, 38.73853 ], [ -77.06202, 38.73854 ] ], [ [ -77.05651, 38.73299 ], [ -77.05748, 38.73322 ], [ -77.05832, 38.73212 ], [ -77.05701, 38.73169 ], [ -77.05651, 38.73299 ] ], [ [ -77.05676, 38.73493 ], [ -77.0568, 38.73419 ], [ -77.05616, 38.73404 ], [ -77.05593, 38.7347 ], [ -77.05676, 38.73493 ] ] ] } }
]
}
