{
"type": "FeatureCollection",
"name": "213",
"crs": { "type": "name", "properties": { "name": "urn:ogc:def:crs:OGC:1.3:CRS84" } },
"xy_coordinate_resolution": 1e-05,
"features": [
{ "type": "Feature", "properties": { "variant": "T0", "miles": 0.5 }, "geometry": { "type": "Polygon", "coordinates": [ [ [ -77.05861, 38.72337 ], [ -77.05965, 38.72498 ], [ -77.06126, 38.72424 ], [ -77.06183, 38.72486 ], [ -77.06009, 38.72624 ], [ -77.05929, 38.72627 ], [ -77.05884, 38.7272 ], [ -77.06051, 38.72799 ], [ -77.06053, 38.7284 ], [ -77.05973, 38.72871 ], [ -77.06001, 38.72928 ], [ -77.05914, 38.72963 ], [ -77.05795, 38.72928 ], [ -77.05717, 38.73061 ], [ -77.05357, 38.72968 ], [ -77.05383, 38.73052 ], [ -77.05297, 38.73088 ], [ -77.05113, 38.72979 ], [ -77.05111, 38.72938 ], [ -77.05157, 38.72907 ], [ -77.05167, 38.72779 ], [ -77.05203, 38.72749 ], [ -77.05284, 38.72768 ], [ -77.05355, 38.72574 ], [ -77.04919, 38.7244 ], [ -77.04881, 38.72412 ], [ -77.04886, 38.72287 ], [ -77.04974, 38.72255 ], [ -77.05016, 38.72353 ], [ -77.05077, 38.72371 ], [ -77.05199, 38.72156 ], [ -77.05524, 38.72231 ], [ -77.05521, 38.72189 ], [ -77.0561, 38.72157 ], [ -77.05705, 38.72283 ], [ -77.05861, 38.72337 ] ], [ [ -77.05526, 38.72497 ], [ -77.05802, 38.72583 ], [ -77.05835, 38.72544 ], [ -77.05736, 38.72407 ], [ -77.05572, 38.7236 ], [ -77.05526, 38.72497 ] ] ] } },
{ "type": "Feature", "properties": { "variant": "T0", "miles": 1.0 }, "geometry": { "type": "Polygon", "coordinates": [ [ [ -77.0628, 38.71678 ], [ -77.06356, 38.71715 ], [ -77.06376, 38.71947 ], [ -77.06313, 38.72004 ], [ -77.06197, 38.71993 ], [ -77.06156, 38.72157 ], [ -77.06203, 38.72081 ], [ -77.06435, 38.72031 ], [ -77.06452, 38.71949 ], [ -77.06531, 38.71904 ], [ -77.06588, 38.71966 ], [ -77.06563, 38.72086 ], [ -77.0665, 38.72028 ], [ -77.067, 38.72042 ], [ -77.06714, 38.72128 ], [ -77.06837, 38.72102 ], [ -77.06875, 38.72131 ], [ -77.06876, 38.72172 ], [ -77.06788, 38.7222 ], [ -77.06811, 38.72265 ], [ -77.06766, 38.72349 ], [ -77.06293, 38.72291 ], [ -77.06264, 38.72346 ], [ -77.06367, 38.7233 ], [ -77.06596, 38.72372 ], [ -77.06584, 38.72575 ], [ -77.06748, 38.72623 ], [ -77.06789, 38.72593 ], [ -77.06866, 38.72613 ], [ -77.06885, 38.72677 ], [ -77.06765, 38.73126 ], [ -77.06737, 38.73161 ], [ -77.06638, 38.73142 ], [ -77.06576, 38.73175 ], [ -77.06476, 38.73137 ], [ -77.06435, 38.73069 ], [ -77.06528, 38.72902 ], [ -77.0637, 38.72897 ], [ -77.06332, 38.72844 ], [ -77.05926, 38.72631 ], [ -77.05884, 38.7272 ], [ -77.06051, 38.72799 ], [ -77.06053, 38.7284 ], [ -77.05973, 38.72871 ], [ -77.05975, 38.72953 ], [ -77.0617, 38.73067 ], [ -77.06157, 38.7316 ], [ -77.06355, 38.73241 ], [ -77.06399, 38.73309 ], [ -77.06312, 38.73344 ], [ -77.06105, 38.73287 ], [ -77.06061, 38.73338 ], [ -77.05963, 38.73324 ], [ -77.05943, 38.73374 ], [ -77.06114, 38.73434 ], [ -77.06083, 38.73506 ], [ -77.05812, 38.73451 ], [ -77.05772, 38.73526 ], [ -77.05719, 38.73528 ], [ -77.05673, 38.73485 ], [ -77.0568, 38.73419 ], [ -77.05616, 38.73404 ], [ -77.05593, 38.7347 ], [ -77.05651, 38.73522 ], [ -77.05629, 38.7356 ], [ -77.05546, 38.73603 ], [ -77.05468, 38.73747 ], [ -77.05415, 38.73751 ], [ -77.05369, 38.73684 ], [ -77.0545, 38.73473 ], [ -77.0517, 38.73446 ], [ -77.05121, 38.7331 ], [ -77.04674, 38.73297 ], [ -77.04659, 38.73258 ], [ -77.0475, 38.73154 ], [ -77.04449, 38.72967 ], [ -77.04226, 38.72703 ], [ -77.04216, 38.72637 ], [ -77.04375, 38.72235 ], [ -77.04309, 38.72171 ], [ -77.04356, 38.72131 ], [ -77.04443, 38.7214 ], [ -77.04469, 38.71999 ], [ -77.04566, 38.72001 ], [ -77.04585, 38.72044 ], [ -77.04848, 38.71993 ], [ -77.04779, 38.71942 ], [ -77.04797, 38.71903 ], [ -77.0495, 38.71891 ], [ -77.04613, 38.71752 ], [ -77.04643, 38.71679 ], [ -77.04992, 38.71786 ], [ -77.05044, 38.71722 ], [ -77.05097, 38.7172 ], [ -77.05135, 38.71749 ], [ -77.05123, 38.7182 ], [ -77.05192, 38.71831 ], [ -77.05158, 38.71762 ], [ -77.05196, 38.71733 ], [ -77.05771, 38.71816 ], [ -77.05823, 38.71731 ], [ -77.05876, 38.71728 ], [ -77.05915, 38.71756 ], [ -77.05908, 38.71837 ], [ -77.06086, 38.71865 ], [ -77.0628, 38.71678 ] ], [ [ -77.05748, 38.73322 ], [ -77.05832, 38.73212 ], [ -77.05701, 38.73169 ], [ -77.05651, 38.73299 ], [ -77.05748, 38.73322 ] ], [ [ -77.05297, 38.72166 ], [ -77.05264, 38.72109 ], [ -77.05259, 38.721 ], [ -77.05238, 38.72149 ], [ -77.05297, 38.72166 ] ], [ [ -77.05367, 38.71898 ], [ -77.05385, 38.71869 ], [ -77.05325, 38.71859 ], [ -77.05367, 38.71898 ] ], [ [ -77.05914, 38.72449 ], [ -77.06062, 38.71972 ], [ -77.05977, 38.71958 ], [ -77.05871, 38.72382 ], [ -77.05914, 38.72449 ] ], [ [ -77.05782, 38.71928 ], [ -77.05673, 38.72226 ], [ -77.05752, 38.72297 ], [ -77.05842, 38.71937 ], [ -77.05782, 38.71928 ] ], [ [ -77.05646, 38.71909 ], [ -77.05522, 38.71907 ], [ -77.05642, 38.71926 ], [ -77.05646, 38.71909 ] ], [ [ -77.06412, 38.72143 ], [ -77.06393, 38.72146 ], [ -77.0641, 38.72149 ], [ -77.06412, 38.72143 ] ], [ [ -77.06408, 38.72656 ], [ -77.06411, 38.72657 ], [ -77.06412, 38.72656 ], [ -77.06408, 38.72656 ] ], [ [ -77.06366, 38.72439 ], [ -77.06349, 38.72437 ], [ -77.06365, 38.72444 ], [ -77.06366, 38.72439 ] ], [ [ -77.06654, 38.72953 ], [ -77.06652, 38.73 ], [ -77.0666, 38.72955 ], [ -77.06654, 38.72953 ] ], [ [ -77.06694, 38.72847 ], [ -77.06692, 38.72845 ], [ -77.06689, 38.72845 ], [ -77.06694, 38.72847 ] ], [ [ -77.06636, 38.73073 ], [ -77.06632, 38.73085 ], [ -77.06633, 38.73088 ], [ -77.06636, 38.73073 ] ], [ [ -77.05802, 38.72582 ], [ -77.05835, 38.72544 ], [ -77.05736, 38.72407 ], [ -77.05572, 38.7236 ], [ -77.05526, 38.72497 ], [ -77.05802, 38.72582 ] ], [ [ -77.06107, 38.72352 ], [ -77.06088, 38.72426 ], [ -77.0617, 38.72384 ], [ -77.06107, 38.72352 ] ], [ [ -77.06122, 38.72301 ], [ -77.06155, 38.72279 ], [ -77.06158, 38.72268 ], [ -77.06133, 38.72264 ], [ -77.06122, 38.72301 ] ], [ [ -77.06028, 38.73119 ], [ -77.05919, 38.73072 ], [ -77.05869, 38.73107 ], [ -77.06016, 38.73151 ], [ -77.06028, 38.73119 ] ], [ [ -77.05599, 38.721 ], [ -77.05615, 38.72032 ], [ -77.05554, 38.72022 ], [ -77.05567, 38.72047 ], [ -77.05599, 38.721 ] ], [ [ -77.05524, 38.72231 ], [ -77.05365, 38.72007 ], [ -77.05474, 38.72217 ], [ -77.05524, 38.72231 ] ], [ [ -77.05101, 38.72108 ], [ -77.05097, 38.72104 ], [ -77.05107, 38.72111 ], [ -77.05101, 38.72108 ] ], [ [ -77.05527, 38.73248 ], [ -77.05496, 38.73258 ], [ -77.05521, 38.73265 ], [ -77.05527, 38.73248 ] ], [ [ -77.05511, 38.73025 ], [ -77.05516, 38.73019 ], [ -77.05505, 38.73016 ], [ -77.05511, 38.73025 ] ], [ [ -77.05319, 38.73327 ], [ -77.05263, 38.73356 ], [ -77.0547, 38.73365 ], [ -77.05319, 38.73327 ] ], [ [ -77.05071, 38.71923 ], [ -77.05074, 38.71923 ], [ -77.05068, 38.71922 ], [ -77.05071, 38.71923 ] ], [ [ -77.05077, 38.72371 ], [ -77.05141, 38.72236 ], [ -77.05067, 38.72215 ], [ -77.05016, 38.72353 ], [ -77.05077, 38.72371 ] ], [ [ -77.05194, 38.72527 ], [ -77.05142, 38.7251 ], [ -77.05166, 38.72551 ], [ -77.05194, 38.72527 ] ], [ [ -77.04991, 38.7319 ], [ -77.04991, 38.73189 ], [ -77.04989, 38.7319 ], [ -77.04991, 38.7319 ] ], [ [ -77.05142, 38.73197 ], [ -77.05132, 38.73203 ], [ -77.0516, 38.73205 ], [ -77.05142, 38.73197 ] ], [ [ -77.04673, 38.72465 ], [ -77.04666, 38.72462 ], [ -77.04662, 38.72466 ], [ -77.04673, 38.72465 ] ], [ [ -77.04461, 38.72484 ], [ -77.04353, 38.72659 ], [ -77.04376, 38.72689 ], [ -77.04476, 38.72696 ], [ -77.04537, 38.72558 ], [ -77.0451, 38.72492 ], [ -77.04461, 38.72484 ] ], [ [ -77.04615, 38.7215 ], [ -77.04582, 38.72115 ], [ -77.04581, 38.72161 ], [ -77.04615, 38.7215 ] ], [ [ -77.04504, 38.7238 ], [ -77.04504, 38.72284 ], [ -77.04503, 38.72284 ], [ -77.04473, 38.72375 ], [ -77.04504, 38.7238 ] ], [ [ -77.04803, 38.72767 ], [ -77.04776, 38.72783 ], [ -77.04818, 38.72795 ], [ -77.04803, 38.72767 ] ], [ [ -77.04467, 38.72808 ], [ -77.0457, 38.7291 ], [ -77.04632, 38.72856 ], [ -77.04467, 38.72808 ] ], [ [ -77.04674, 38.72574 ], [ -77.04696, 38.72574 ], [ -77.04695, 38.72571 ], [ -77.04674, 38.72574 ] ], [ [ -77.04695, 38.72986 ], [ -77.04709, 38.72956 ], [ -77.0468, 38.72977 ], [ -77.04695, 38.72986 ] ] ] } },
{ "type": "Feature", "properties": { "variant": "T0", "miles": 1.5 }, "geometry": { "type": "Polygon", "coordinates": [ [ [ -77.07126, 38.71564 ], [ -77.07248, 38.71573 ], [ -77.07532, 38.7182 ], [ -77.07559, 38.71883 ], [ -77.07498, 38.71929 ], [ -77.07546, 38.71986 ], [ -77.07568, 38.72311 ], [ -77.07684, 38.72296 ], [ -77.07753, 38.7235 ], [ -77.07733, 38.72388 ], [ -77.07469, 38.72472 ], [ -77.07277, 38.72468 ], [ -77.07263, 38.72534 ], [ -77.07357, 38.72563 ], [ -77.07369, 38.72603 ], [ -77.07341, 38.72735 ], [ -77.0761, 38.72766 ], [ -77.07701, 38.72837 ], [ -77.07586, 38.72943 ], [ -77.07404, 38.7294 ], [ -77.07466, 38.72991 ], [ -77.07432, 38.73063 ], [ -77.07229, 38.73019 ], [ -77.07158, 38.72953 ], [ -77.07102, 38.73004 ], [ -77.07132, 38.73035 ], [ -77.07216, 38.73032 ], [ -77.07243, 38.73082 ], [ -77.07433, 38.73141 ], [ -77.07456, 38.73179 ], [ -77.07391, 38.73236 ], [ -77.0714, 38.73247 ], [ -77.07168, 38.73385 ], [ -77.0684, 38.73596 ], [ -77.07007, 38.73647 ], [ -77.06982, 38.73721 ], [ -77.06382, 38.73598 ], [ -77.06315, 38.73694 ], [ -77.06195, 38.73745 ], [ -77.06135, 38.73684 ], [ -77.0625, 38.73566 ], [ -77.05812, 38.73451 ], [ -77.05785, 38.73514 ], [ -77.05867, 38.73555 ], [ -77.05883, 38.73625 ], [ -77.05851, 38.73661 ], [ -77.05721, 38.73676 ], [ -77.0608, 38.73819 ], [ -77.06094, 38.73859 ], [ -77.06001, 38.73936 ], [ -77.06048, 38.73998 ], [ -77.06012, 38.74034 ], [ -77.06031, 38.74103 ], [ -77.05943, 38.74136 ], [ -77.05864, 38.74028 ], [ -77.05788, 38.74075 ], [ -77.05826, 38.74204 ], [ -77.05556, 38.74342 ], [ -77.05473, 38.74302 ], [ -77.05525, 38.74217 ], [ -77.05331, 38.73931 ], [ -77.05057, 38.73965 ], [ -77.05037, 38.74133 ], [ -77.04962, 38.74182 ], [ -77.04899, 38.74123 ], [ -77.04916, 38.73982 ], [ -77.0479, 38.7396 ], [ -77.04887, 38.74042 ], [ -77.04864, 38.74079 ], [ -77.04748, 38.74104 ], [ -77.04672, 38.74056 ], [ -77.04636, 38.739 ], [ -77.04513, 38.7395 ], [ -77.04416, 38.7393 ], [ -77.04393, 38.73848 ], [ -77.04232, 38.73774 ], [ -77.04244, 38.7365 ], [ -77.04335, 38.73599 ], [ -77.04304, 38.73553 ], [ -77.0434, 38.73464 ], [ -77.04605, 38.7347 ], [ -77.04662, 38.73284 ], [ -77.04393, 38.73115 ], [ -77.04351, 38.73185 ], [ -77.04298, 38.73191 ], [ -77.04256, 38.73167 ], [ -77.04266, 38.73063 ], [ -77.04323, 38.73009 ], [ -77.04407, 38.72999 ], [ -77.04747, 38.73188 ], [ -77.0475, 38.73154 ], [ -77.04418, 38.7294 ], [ -77.04212, 38.72656 ], [ -77.04373, 38.72244 ], [ -77.04322, 38.72211 ], [ -77.04337, 38.72135 ], [ -77.04443, 38.7214 ], [ -77.04469, 38.71999 ], [ -77.04566, 38.72001 ], [ -77.04585, 38.72044 ], [ -77.04765, 38.71997 ], [ -77.04642, 38.72001 ], [ -77.04482, 38.7194 ], [ -77.04454, 38.71879 ], [ -77.04492, 38.71782 ], [ -77.04419, 38.71764 ], [ -77.04409, 38.71723 ], [ -77.04449, 38.71664 ], [ -77.04627, 38.71565 ], [ -77.04632, 38.71403 ], [ -77.04737, 38.7133 ], [ -77.04836, 38.71353 ], [ -77.04838, 38.71434 ], [ -77.04759, 38.71458 ], [ -77.04769, 38.71547 ], [ -77.05003, 38.71595 ], [ -77.05058, 38.71696 ], [ -77.05771, 38.71816 ], [ -77.05862, 38.71595 ], [ -77.05939, 38.71526 ], [ -77.05848, 38.7148 ], [ -77.05902, 38.71415 ], [ -77.05851, 38.7117 ], [ -77.05727, 38.71113 ], [ -77.05718, 38.70996 ], [ -77.05815, 38.70988 ], [ -77.05844, 38.71051 ], [ -77.05918, 38.71074 ], [ -77.0606, 38.71071 ], [ -77.06154, 38.71058 ], [ -77.06174, 38.70975 ], [ -77.06223, 38.7096 ], [ -77.06271, 38.70976 ], [ -77.06293, 38.71084 ], [ -77.06378, 38.71134 ], [ -77.06306, 38.71193 ], [ -77.06511, 38.71184 ], [ -77.06795, 38.7123 ], [ -77.06829, 38.71261 ], [ -77.06797, 38.71357 ], [ -77.06899, 38.71394 ], [ -77.06899, 38.71508 ], [ -77.06988, 38.71589 ], [ -77.06942, 38.71637 ], [ -77.07008, 38.71678 ], [ -77.07126, 38.71564 ] ], [ [ -77.05988, 38.73385 ], [ -77.05963, 38.73324 ], [ -77.05943, 38.73374 ], [ -77.05988, 38.73385 ] ], [ [ -77.06024, 38.73 ], [ -77.06409, 38.73117 ], [ -77.06528, 38.72902 ], [ -77.0637, 38.72897 ], [ -77.06332, 38.72844 ], [ -77.05926, 38.72631 ], [ -77.05884, 38.7272 ], [ -77.06051, 38.72799 ], [ -77.06053, 38.7284 ], [ -77.05973, 38.72871 ], [ -77.05975, 38.72953 ], [ -77.06024, 38.73 ] ], [ [ -77.06062, 38.71972 ], [ -77.05977, 38.71958 ], [ -77.05871, 38.72382 ], [ -77.05914, 38.72449 ], [ -77.06062, 38.71972 ] ], [ [ -77.06687, 38.73495 ], [ -77.06692, 38.73492 ], [ -77.06688, 38.73491 ], [ -77.06687, 38.73495 ] ], [ [ -77.06632, 38.73085 ], [ -77.06633, 38.73088 ], [ -77.06636, 38.73073 ], [ -77.06632, 38.73085 ] ], [ [ -77.06623, 38.72984 ], [ -77.06652, 38.73 ], [ -77.0666, 38.72955 ], [ -77.06623, 38.72984 ] ], [ [ -77.06803, 38.72373 ], [ -77.06721, 38.72507 ], [ -77.06669, 38.72514 ], [ -77.06616, 38.72449 ], [ -77.06644, 38.72347 ], [ -77.06293, 38.72291 ], [ -77.06264, 38.72346 ], [ -77.06367, 38.7233 ], [ -77.06596, 38.72372 ], [ -77.06584, 38.72575 ], [ -77.06748, 38.72601 ], [ -77.06803, 38.72373 ] ], [ [ -77.06577, 38.72022 ], [ -77.06563, 38.72086 ], [ -77.0664, 38.72031 ], [ -77.06577, 38.72022 ] ], [ [ -77.06665, 38.71816 ], [ -77.06734, 38.71809 ], [ -77.06792, 38.71871 ], [ -77.06768, 38.71947 ], [ -77.06919, 38.71957 ], [ -77.06979, 38.7187 ], [ -77.06916, 38.71846 ], [ -77.06941, 38.71774 ], [ -77.06804, 38.7169 ], [ -77.0674, 38.7171 ], [ -77.06682, 38.7165 ], [ -77.06612, 38.71653 ], [ -77.06598, 38.71915 ], [ -77.06653, 38.71893 ], [ -77.06665, 38.71816 ] ], [ [ -77.07019, 38.72942 ], [ -77.07053, 38.72839 ], [ -77.06876, 38.72803 ], [ -77.06797, 38.72969 ], [ -77.06857, 38.7295 ], [ -77.07, 38.73038 ], [ -77.07053, 38.72999 ], [ -77.07019, 38.72942 ] ], [ [ -77.06914, 38.72496 ], [ -77.06888, 38.726 ], [ -77.0693, 38.72605 ], [ -77.06956, 38.72512 ], [ -77.06914, 38.72496 ] ], [ [ -77.0691, 38.72191 ], [ -77.06911, 38.72195 ], [ -77.0691, 38.72176 ], [ -77.0691, 38.72191 ] ], [ [ -77.07223, 38.718 ], [ -77.07176, 38.71805 ], [ -77.07259, 38.71848 ], [ -77.07332, 38.71819 ], [ -77.07223, 38.718 ] ], [ [ -77.07143, 38.717 ], [ -77.07205, 38.71693 ], [ -77.07189, 38.71671 ], [ -77.07143, 38.717 ] ], [ [ -77.07115, 38.7257 ], [ -77.07123, 38.72537 ], [ -77.07082, 38.72531 ], [ -77.07115, 38.7257 ] ], [ [ -77.07338, 38.72845 ], [ -77.07321, 38.72853 ], [ -77.07304, 38.72865 ], [ -77.07338, 38.72845 ] ], [ [ -77.06839, 38.72083 ], [ -77.06894, 38.72063 ], [ -77.06858, 38.72057 ], [ -77.06839, 38.72083 ] ], [ [ -77.06845, 38.73449 ], [ -77.0682, 38.73391 ], [ -77.06807, 38.73467 ], [ -77.06845, 38.73449 ] ], [ [ -77.06435, 38.72031 ], [ -77.06441, 38.72 ], [ -77.06371, 38.71963 ], [ -77.06269, 38.72004 ], [ -77.06247, 38.72066 ], [ -77.06435, 38.72031 ] ], [ [ -77.06373, 38.71866 ], [ -77.06385, 38.71858 ], [ -77.06371, 38.71846 ], [ -77.06373, 38.71866 ] ], [ [ -77.06197, 38.7148 ], [ -77.06197, 38.71473 ], [ -77.0614, 38.71483 ], [ -77.06072, 38.71495 ], [ -77.06197, 38.7148 ] ], [ [ -77.06347, 38.71579 ], [ -77.06359, 38.71674 ], [ -77.06464, 38.7171 ], [ -77.06473, 38.71618 ], [ -77.06409, 38.71637 ], [ -77.06347, 38.71579 ] ], [ [ -77.06462, 38.71871 ], [ -77.06461, 38.71858 ], [ -77.06449, 38.71863 ], [ -77.06462, 38.71871 ] ], [ [ -77.0641, 38.72149 ], [ -77.06412, 38.72143 ], [ -77.06393, 38.72146 ], [ -77.0641, 38.72149 ] ], [ [ -77.06569, 38.73403 ], [ -77.06412, 38.73369 ], [ -77.06504, 38.73399 ], [ -77.06498, 38.73514 ], [ -77.06542, 38.73525 ], [ -77.06569, 38.73403 ] ], [ [ -77.06213, 38.73315 ], [ -77.06219, 38.73367 ], [ -77.06175, 38.73393 ], [ -77.06187, 38.73436 ], [ -77.06267, 38.73456 ], [ -77.0631, 38.73343 ], [ -77.06213, 38.73315 ] ], [ [ -77.06246, 38.73192 ], [ -77.06238, 38.73189 ], [ -77.0629, 38.73223 ], [ -77.06246, 38.73192 ] ], [ [ -77.06412, 38.72656 ], [ -77.06408, 38.72656 ], [ -77.06411, 38.72657 ], [ -77.06412, 38.72656 ] ], [ [ -77.06366, 38.72439 ], [ -77.06349, 38.72437 ], [ -77.06365, 38.72444 ], [ -77.06366, 38.72439 ] ], [ [ -77.06613, 38.73182 ], [ -77.06617, 38.73164 ], [ -77.06536, 38.7316 ], [ -77.06613, 38.73182 ] ], [ [ -77.06421, 38.73258 ], [ -77.06509, 38.73279 ], [ -77.06592, 38.73295 ], [ -77.06421, 38.73258 ] ], [ [ -77.0605, 38.71388 ], [ -77.06023, 38.71182 ], [ -77.05991, 38.71184 ], [ -77.0605, 38.71388 ] ], [ [ -77.0616, 38.71167 ], [ -77.06186, 38.71364 ], [ -77.06186, 38.7135 ], [ -77.0616, 38.71167 ] ], [ [ -77.06086, 38.71714 ], [ -77.06081, 38.71728 ], [ -77.06097, 38.71698 ], [ -77.06086, 38.71714 ] ], [ [ -77.0595, 38.71727 ], [ -77.05942, 38.71744 ], [ -77.05965, 38.71748 ], [ -77.0595, 38.71727 ] ], [ [ -77.06088, 38.72426 ], [ -77.0617, 38.72384 ], [ -77.06107, 38.72352 ], [ -77.06088, 38.72426 ] ], [ [ -77.06155, 38.72279 ], [ -77.06158, 38.72268 ], [ -77.06133, 38.72264 ], [ -77.06122, 38.72301 ], [ -77.06155, 38.72279 ] ], [ [ -77.05653, 38.74101 ], [ -77.056, 38.74096 ], [ -77.05638, 38.74153 ], [ -77.05653, 38.74101 ] ], [ [ -77.04991, 38.7381 ], [ -77.04975, 38.73866 ], [ -77.04996, 38.73864 ], [ -77.05244, 38.73832 ], [ -77.04991, 38.7381 ] ], [ [ -77.0545, 38.73473 ], [ -77.05186, 38.73453 ], [ -77.05121, 38.7331 ], [ -77.0496, 38.73296 ], [ -77.05022, 38.73509 ], [ -77.05394, 38.73543 ], [ -77.0545, 38.73473 ] ], [ [ -77.05132, 38.73203 ], [ -77.0516, 38.73205 ], [ -77.05142, 38.73197 ], [ -77.05132, 38.73203 ] ], [ [ -77.05157, 38.72516 ], [ -77.05142, 38.7251 ], [ -77.05166, 38.72551 ], [ -77.05192, 38.72526 ], [ -77.05157, 38.72516 ] ], [ [ -77.05141, 38.72236 ], [ -77.05067, 38.72215 ], [ -77.05016, 38.72353 ], [ -77.05077, 38.72371 ], [ -77.05141, 38.72236 ] ], [ [ -77.05098, 38.72109 ], [ -77.05107, 38.72111 ], [ -77.05101, 38.72108 ], [ -77.05098, 38.72109 ] ], [ [ -77.05165, 38.71825 ], [ -77.05145, 38.71823 ], [ -77.05184, 38.71829 ], [ -77.05165, 38.71825 ] ], [ [ -77.05676, 38.73493 ], [ -77.0568, 38.73419 ], [ -77.05616, 38.73404 ], [ -77.05593, 38.7347 ], [ -77.05676, 38.73493 ] ], [ [ -77.05502, 38.73233 ], [ -77.05496, 38.73258 ], [ -77.05521, 38.73265 ], [ -77.05502, 38.73233 ] ], [ [ -77.05511, 38.73025 ], [ -77.0552, 38.73021 ], [ -77.05516, 38.73019 ], [ -77.05511, 38.73025 ] ], [ [ -77.05802, 38.72583 ], [ -77.05835, 38.72544 ], [ -77.05736, 38.72407 ], [ -77.05572, 38.7236 ], [ -77.05526, 38.72497 ], [ -77.05802, 38.72583 ] ], [ [ -77.05402, 38.72006 ], [ -77.05365, 38.72007 ], [ -77.05474, 38.72217 ], [ -77.05524, 38.72231 ], [ -77.05402, 38.72006 ] ], [ [ -77.05646, 38.71909 ], [ -77.05522, 38.7189 ], [ -77.05522, 38.71907 ], [ -77.05646, 38.71909 ] ], [ [ -77.05673, 38.72226 ], [ -77.05752, 38.72297 ], [ -77.05842, 38.71937 ], [ -77.05782, 38.71928 ], [ -77.05673, 38.72226 ] ], [ [ -77.05567, 38.72047 ], [ -77.05599, 38.721 ], [ -77.05615, 38.72032 ], [ -77.05567, 38.72047 ] ], [ [ -77.05832, 38.73212 ], [ -77.05701, 38.73169 ], [ -77.05651, 38.73299 ], [ -77.05748, 38.73322 ], [ -77.05832, 38.73212 ] ], [ [ -77.05385, 38.71869 ], [ -77.05325, 38.71859 ], [ -77.05351, 38.71876 ], [ -77.05367, 38.71898 ], [ -77.05385, 38.71869 ] ], [ [ -77.05264, 38.72109 ], [ -77.05259, 38.721 ], [ -77.05238, 38.72149 ], [ -77.05297, 38.72166 ], [ -77.05264, 38.72109 ] ], [ [ -77.05415, 38.73358 ], [ -77.0547, 38.73365 ], [ -77.05258, 38.73322 ], [ -77.05288, 38.73359 ], [ -77.05415, 38.73358 ] ], [ [ -77.0475, 38.73789 ], [ -77.04776, 38.73899 ], [ -77.04831, 38.73874 ], [ -77.04859, 38.73777 ], [ -77.0475, 38.73789 ] ], [ [ -77.04887, 38.73582 ], [ -77.04727, 38.7359 ], [ -77.0473, 38.7368 ], [ -77.04872, 38.73721 ], [ -77.04887, 38.73582 ] ], [ [ -77.0484, 38.73354 ], [ -77.04802, 38.73288 ], [ -77.04742, 38.73483 ], [ -77.04883, 38.73507 ], [ -77.0484, 38.73354 ] ], [ [ -77.0468, 38.72977 ], [ -77.04695, 38.72986 ], [ -77.04709, 38.72956 ], [ -77.0468, 38.72977 ] ], [ [ -77.04673, 38.72465 ], [ -77.04666, 38.72462 ], [ -77.04662, 38.72466 ], [ -77.04673, 38.72465 ] ], [ [ -77.04615, 38.7215 ], [ -77.04582, 38.72115 ], [ -77.04581, 38.72161 ], [ -77.04615, 38.7215 ] ], [ [ -77.04963, 38.71775 ], [ -77.04722, 38.71658 ], [ -77.04673, 38.71672 ], [ -77.04963, 38.71775 ] ], [ [ -77.05074, 38.71923 ], [ -77.05068, 38.71922 ], [ -77.05071, 38.71923 ], [ -77.05074, 38.71923 ] ], [ [ -77.0495, 38.71891 ], [ -77.04912, 38.71876 ], [ -77.04914, 38.71887 ], [ -77.0495, 38.71891 ] ], [ [ -77.04709, 38.71892 ], [ -77.04716, 38.71891 ], [ -77.04703, 38.71887 ], [ -77.04709, 38.71892 ] ], [ [ -77.04991, 38.73189 ], [ -77.04989, 38.7319 ], [ -77.04991, 38.7319 ], [ -77.04991, 38.73189 ] ], [ [ -77.04776, 38.72783 ], [ -77.04818, 38.72795 ], [ -77.04803, 38.72767 ], [ -77.04776, 38.72783 ] ], [ [ -77.04413, 38.73693 ], [ -77.04352, 38.73716 ], [ -77.04499, 38.73746 ], [ -77.04549, 38.73714 ], [ -77.04413, 38.73693 ] ], [ [ -77.04493, 38.73591 ], [ -77.04506, 38.7357 ], [ -77.04441, 38.73564 ], [ -77.04493, 38.73591 ] ], [ [ -77.04696, 38.72574 ], [ -77.04695, 38.72571 ], [ -77.04674, 38.72574 ], [ -77.04696, 38.72574 ] ], [ [ -77.04453, 38.72689 ], [ -77.04476, 38.72696 ], [ -77.04477, 38.72682 ], [ -77.04453, 38.72689 ] ], [ [ -77.04408, 38.72685 ], [ -77.04362, 38.72672 ], [ -77.04376, 38.72689 ], [ -77.04408, 38.72685 ] ], [ [ -77.04503, 38.72284 ], [ -77.04473, 38.72375 ], [ -77.04504, 38.7238 ], [ -77.04503, 38.72284 ] ], [ [ -77.04511, 38.726 ], [ -77.04491, 38.72605 ], [ -77.04503, 38.72613 ], [ -77.04511, 38.726 ] ], [ [ -77.04508, 38.72491 ], [ -77.04476, 38.72486 ], [ -77.04512, 38.72503 ], [ -77.04508, 38.72491 ] ], [ [ -77.04632, 38.72856 ], [ -77.04614, 38.72851 ], [ -77.04617, 38.72875 ], [ -77.04632, 38.72856 ] ], [ [ -77.0449, 38.72837 ], [ -77.04516, 38.72822 ], [ -77.04467, 38.72808 ], [ -77.0449, 38.72837 ] ] ] } },
{ "type": "Feature", "properties": { "variant": "T2s", "miles": 0.5 }, "geometry": { "type": "Polygon", "coordinates": [ [ [ -77.052, 38.72155 ], [ -77.05524, 38.72231 ], [ -77.05521, 38.72189 ], [ -77.0561, 38.72157 ], [ -77.05705, 38.72283 ], [ -77.05861, 38.72337 ], [ -77.05872, 38.72377 ], [ -77.05791, 38.7242 ], [ -77.05572, 38.7236 ], [ -77.05526, 38.72497 ], [ -77.05772, 38.72574 ], [ -77.0581, 38.72643 ], [ -77.05659, 38.73004 ], [ -77.0557, 38.73035 ], [ -77.05357, 38.72968 ], [ -77.05383, 38.73052 ], [ -77.05297, 38.73088 ], [ -77.05113, 38.72979 ], [ -77.05111, 38.72938 ], [ -77.05157, 38.72907 ], [ -77.05167, 38.72779 ], [ -77.05203, 38.72749 ], [ -77.05284, 38.72768 ], [ -77.05355, 38.72574 ], [ -77.04919, 38.7244 ], [ -77.04875, 38.72321 ], [ -77.04922, 38.72256 ], [ -77.04974, 38.72255 ], [ -77.05016, 38.72353 ], [ -77.05077, 38.72371 ], [ -77.052, 38.72155 ] ] ] } },
{ "type": "Feature", "properties": { "variant": "T2s", "miles": 1.0 }, "geometry": { "type": "Polygon", "coordinates": [ [ [ -77.0628, 38.71678 ], [ -77.06356, 38.71715 ], [ -77.06376, 38.71947 ], [ -77.06313, 38.72004 ], [ -77.06197, 38.71993 ], [ -77.06124, 38.72242 ], [ -77.06027, 38.72235 ], [ -77.06062, 38.71972 ], [ -77.05977, 38.71958 ], [ -77.05843, 38.72412 ], [ -77.05572, 38.7236 ], [ -77.05534, 38.7243 ], [ -77.05526, 38.72497 ], [ -77.05772, 38.72574 ], [ -77.0581, 38.72643 ], [ -77.05612, 38.73094 ], [ -77.05469, 38.73151 ], [ -77.05502, 38.73225 ], [ -77.05476, 38.73309 ], [ -77.05389, 38.73344 ], [ -77.04818, 38.73281 ], [ -77.0472, 38.73318 ], [ -77.04674, 38.73297 ], [ -77.04659, 38.73258 ], [ -77.0475, 38.73154 ], [ -77.04418, 38.7294 ], [ -77.04211, 38.7266 ], [ -77.04373, 38.72244 ], [ -77.04322, 38.72211 ], [ -77.04337, 38.72135 ], [ -77.04443, 38.7214 ], [ -77.04469, 38.71999 ], [ -77.04566, 38.72001 ], [ -77.04585, 38.72044 ], [ -77.04848, 38.71993 ], [ -77.04779, 38.71942 ], [ -77.04797, 38.71903 ], [ -77.0495, 38.71891 ], [ -77.04654, 38.71778 ], [ -77.04609, 38.71711 ], [ -77.04695, 38.71675 ], [ -77.04992, 38.71786 ], [ -77.05044, 38.71722 ], [ -77.05097, 38.7172 ], [ -77.05135, 38.71749 ], [ -77.05123, 38.7182 ], [ -77.05192, 38.71831 ], [ -77.05158, 38.71762 ], [ -77.05196, 38.71733 ], [ -77.05771, 38.71816 ], [ -77.05823, 38.71731 ], [ -77.05876, 38.71728 ], [ -77.05915, 38.71756 ], [ -77.05908, 38.71837 ], [ -77.06086, 38.71865 ], [ -77.0628, 38.71678 ] ], [ [ -77.05142, 38.73197 ], [ -77.05132, 38.73203 ], [ -77.0516, 38.73205 ], [ -77.05142, 38.73197 ] ], [ [ -77.05194, 38.72527 ], [ -77.05157, 38.72516 ], [ -77.05142, 38.7251 ], [ -77.05166, 38.72551 ], [ -77.05194, 38.72527 ] ], [ [ -77.05077, 38.72371 ], [ -77.05141, 38.72236 ], [ -77.05067, 38.72215 ], [ -77.05016, 38.72353 ], [ -77.05077, 38.72371 ] ], [ [ -77.05101, 38.72108 ], [ -77.05097, 38.72104 ], [ -77.05107, 38.72111 ], [ -77.05101, 38.72108 ] ], [ [ -77.05073, 38.71924 ], [ -77.05074, 38.71923 ], [ -77.05068, 38.71922 ], [ -77.05073, 38.71924 ] ], [ [ -77.05516, 38.73019 ], [ -77.05505, 38.73016 ], [ -77.05511, 38.73025 ], [ -77.05516, 38.73019 ] ], [ [ -77.05523, 38.7223 ], [ -77.05402, 38.72006 ], [ -77.05365, 38.72007 ], [ -77.05474, 38.72217 ], [ -77.05523, 38.7223 ] ], [ [ -77.05367, 38.71898 ], [ -77.05385, 38.71869 ], [ -77.05325, 38.71859 ], [ -77.05367, 38.71898 ] ], [ [ -77.05782, 38.71928 ], [ -77.05673, 38.72226 ], [ -77.05752, 38.72297 ], [ -77.05842, 38.71937 ], [ -77.05782, 38.71928 ] ], [ [ -77.05522, 38.7189 ], [ -77.05642, 38.71926 ], [ -77.05646, 38.71909 ], [ -77.05522, 38.7189 ] ], [ [ -77.05554, 38.72022 ], [ -77.05567, 38.72047 ], [ -77.05599, 38.721 ], [ -77.05615, 38.72032 ], [ -77.05554, 38.72022 ] ], [ [ -77.05259, 38.721 ], [ -77.05238, 38.72149 ], [ -77.05297, 38.72166 ], [ -77.05259, 38.721 ] ], [ [ -77.04989, 38.7319 ], [ -77.04991, 38.7319 ], [ -77.04991, 38.73189 ], [ -77.04989, 38.7319 ] ], [ [ -77.04818, 38.72795 ], [ -77.04803, 38.72767 ], [ -77.04776, 38.72783 ], [ -77.04818, 38.72795 ] ], [ [ -77.04581, 38.72161 ], [ -77.04615, 38.7215 ], [ -77.04582, 38.72115 ], [ -77.04581, 38.72161 ] ], [ [ -77.04662, 38.72466 ], [ -77.04673, 38.72465 ], [ -77.04666, 38.72462 ], [ -77.04662, 38.72466 ] ], [ [ -77.04476, 38.72696 ], [ -77.0451, 38.72492 ], [ -77.04438, 38.72479 ], [ -77.04353, 38.72659 ], [ -77.04376, 38.72689 ], [ -77.04476, 38.72696 ] ], [ [ -77.04504, 38.7238 ], [ -77.0449, 38.72339 ], [ -77.04503, 38.72284 ], [ -77.04473, 38.72375 ], [ -77.04504, 38.7238 ] ], [ [ -77.04467, 38.72808 ], [ -77.0457, 38.7291 ], [ -77.04632, 38.72856 ], [ -77.04467, 38.72808 ] ], [ [ -77.04695, 38.72571 ], [ -77.04672, 38.7258 ], [ -77.04696, 38.72574 ], [ -77.04695, 38.72571 ] ], [ [ -77.04709, 38.72956 ], [ -77.0468, 38.72977 ], [ -77.04695, 38.72986 ], [ -77.04709, 38.72956 ] ] ] } },
{ "type": "Feature", "properties": { "variant": "T2s", "miles": 1.5 }, "geometry": { "type": "Polygon", "coordinates": [ [ [ -77.06795, 38.7123 ], [ -77.06829, 38.71261 ], [ -77.06797, 38.71357 ], [ -77.06899, 38.71394 ], [ -77.06913, 38.71434 ], [ -77.06844, 38.71586 ], [ -77.06604, 38.71559 ], [ -77.06598, 38.71915 ], [ -77.06695, 38.71921 ], [ -77.06755, 38.71979 ], [ -77.06681, 38.72029 ], [ -77.06577, 38.72022 ], [ -77.06563, 38.72086 ], [ -77.0665, 38.72028 ], [ -77.06709, 38.72057 ], [ -77.06815, 38.72031 ], [ -77.06839, 38.72083 ], [ -77.06994, 38.72044 ], [ -77.07035, 38.72113 ], [ -77.06903, 38.72179 ], [ -77.06881, 38.72276 ], [ -77.07034, 38.72313 ], [ -77.0706, 38.72387 ], [ -77.06938, 38.72396 ], [ -77.06901, 38.72472 ], [ -77.06849, 38.72481 ], [ -77.06779, 38.72369 ], [ -77.06751, 38.72473 ], [ -77.06669, 38.72514 ], [ -77.06616, 38.72449 ], [ -77.06644, 38.72347 ], [ -77.06293, 38.72291 ], [ -77.06226, 38.72372 ], [ -77.06291, 38.72438 ], [ -77.05905, 38.7267 ], [ -77.05884, 38.7272 ], [ -77.06013, 38.7277 ], [ -77.06053, 38.7284 ], [ -77.05963, 38.72871 ], [ -77.05837, 38.72828 ], [ -77.05784, 38.72903 ], [ -77.05711, 38.72893 ], [ -77.0561, 38.73034 ], [ -77.05612, 38.73094 ], [ -77.05469, 38.73151 ], [ -77.05501, 38.7324 ], [ -77.05442, 38.73341 ], [ -77.0496, 38.73296 ], [ -77.05025, 38.73542 ], [ -77.04975, 38.73866 ], [ -77.05226, 38.7385 ], [ -77.05241, 38.73926 ], [ -77.05057, 38.73965 ], [ -77.05026, 38.7406 ], [ -77.04976, 38.74073 ], [ -77.04929, 38.74054 ], [ -77.04916, 38.73982 ], [ -77.0479, 38.7396 ], [ -77.04869, 38.74002 ], [ -77.04864, 38.74079 ], [ -77.04698, 38.74092 ], [ -77.04636, 38.739 ], [ -77.04439, 38.73944 ], [ -77.04379, 38.73901 ], [ -77.04393, 38.73848 ], [ -77.04272, 38.73806 ], [ -77.04215, 38.73735 ], [ -77.04244, 38.7365 ], [ -77.04335, 38.73599 ], [ -77.04304, 38.73553 ], [ -77.04337, 38.73466 ], [ -77.04605, 38.7347 ], [ -77.04663, 38.73298 ], [ -77.04393, 38.73115 ], [ -77.04351, 38.73185 ], [ -77.04256, 38.73167 ], [ -77.04287, 38.73033 ], [ -77.04434, 38.73006 ], [ -77.04749, 38.73186 ], [ -77.0475, 38.73154 ], [ -77.04416, 38.72938 ], [ -77.04214, 38.72679 ], [ -77.04373, 38.72244 ], [ -77.04322, 38.72211 ], [ -77.04337, 38.72135 ], [ -77.04443, 38.7214 ], [ -77.04469, 38.71999 ], [ -77.04566, 38.72001 ], [ -77.04585, 38.72044 ], [ -77.04765, 38.71997 ], [ -77.04642, 38.72001 ], [ -77.04482, 38.7194 ], [ -77.04454, 38.71879 ], [ -77.04492, 38.71782 ], [ -77.04419, 38.71764 ], [ -77.04409, 38.71723 ], [ -77.04449, 38.71664 ], [ -77.04627, 38.71565 ], [ -77.04617, 38.7142 ], [ -77.04772, 38.71328 ], [ -77.0486, 38.71396 ], [ -77.04759, 38.71458 ], [ -77.04769, 38.71547 ], [ -77.05003, 38.71595 ], [ -77.05056, 38.71695 ], [ -77.05771, 38.71816 ], [ -77.05862, 38.71595 ], [ -77.05939, 38.71526 ], [ -77.05848, 38.7148 ], [ -77.05902, 38.71415 ], [ -77.05851, 38.7117 ], [ -77.05727, 38.71113 ], [ -77.05718, 38.70996 ], [ -77.05815, 38.70988 ], [ -77.05844, 38.71051 ], [ -77.05918, 38.71074 ], [ -77.06128, 38.71081 ], [ -77.06186, 38.71364 ], [ -77.06249, 38.71292 ], [ -77.06431, 38.71281 ], [ -77.06451, 38.71196 ], [ -77.06795, 38.7123 ] ], [ [ -77.05157, 38.72516 ], [ -77.05142, 38.7251 ], [ -77.05166, 38.72551 ], [ -77.05192, 38.72526 ], [ -77.05157, 38.72516 ] ], [ [ -77.05264, 38.72109 ], [ -77.05259, 38.721 ], [ -77.05238, 38.72149 ], [ -77.05297, 38.72166 ], [ -77.05264, 38.72109 ] ], [ [ -77.05385, 38.71869 ], [ -77.05325, 38.71859 ], [ -77.05367, 38.71898 ], [ -77.05385, 38.71869 ] ], [ [ -77.0641, 38.72149 ], [ -77.06412, 38.72143 ], [ -77.06393, 38.72146 ], [ -77.0641, 38.72149 ] ], [ [ -77.06435, 38.72031 ], [ -77.06441, 38.72 ], [ -77.06371, 38.71963 ], [ -77.06269, 38.72004 ], [ -77.06247, 38.72066 ], [ -77.06435, 38.72031 ] ], [ [ -77.06371, 38.71846 ], [ -77.06373, 38.71866 ], [ -77.06377, 38.71856 ], [ -77.06371, 38.71846 ] ], [ [ -77.06461, 38.71858 ], [ -77.06449, 38.71863 ], [ -77.06462, 38.71874 ], [ -77.06461, 38.71858 ] ], [ [ -77.06409, 38.71637 ], [ -77.06347, 38.71579 ], [ -77.06359, 38.71674 ], [ -77.06464, 38.7171 ], [ -77.06474, 38.71636 ], [ -77.06409, 38.71637 ] ], [ [ -77.0605, 38.71388 ], [ -77.06023, 38.71182 ], [ -77.05991, 38.71184 ], [ -77.0605, 38.71388 ] ], [ [ -77.06197, 38.71473 ], [ -77.06072, 38.71495 ], [ -77.06072, 38.71497 ], [ -77.06197, 38.71473 ] ], [ [ -77.05942, 38.71744 ], [ -77.05965, 38.71748 ], [ -77.0595, 38.71727 ], [ -77.05942, 38.71744 ] ], [ [ -77.06087, 38.71707 ], [ -77.06081, 38.71728 ], [ -77.06092, 38.71711 ], [ -77.06087, 38.71707 ] ], [ [ -77.05835, 38.72544 ], [ -77.05736, 38.72407 ], [ -77.05572, 38.7236 ], [ -77.05526, 38.72497 ], [ -77.05814, 38.72567 ], [ -77.05835, 38.72544 ] ], [ [ -77.06062, 38.71972 ], [ -77.05977, 38.71958 ], [ -77.05871, 38.72382 ], [ -77.05914, 38.72449 ], [ -77.06062, 38.71972 ] ], [ [ -77.05673, 38.72226 ], [ -77.05752, 38.72297 ], [ -77.05842, 38.71937 ], [ -77.05782, 38.71928 ], [ -77.05673, 38.72226 ] ], [ [ -77.05642, 38.71926 ], [ -77.05646, 38.71909 ], [ -77.05522, 38.7189 ], [ -77.05642, 38.71926 ] ], [ [ -77.05474, 38.72217 ], [ -77.05524, 38.72231 ], [ -77.05402, 38.72006 ], [ -77.05365, 38.72007 ], [ -77.05474, 38.72217 ] ], [ [ -77.06133, 38.72264 ], [ -77.06122, 38.72301 ], [ -77.06137, 38.72286 ], [ -77.06133, 38.72264 ] ], [ [ -77.06088, 38.72426 ], [ -77.0617, 38.72384 ], [ -77.06107, 38.72352 ], [ -77.06088, 38.72426 ] ], [ [ -77.05567, 38.72047 ], [ -77.05599, 38.721 ], [ -77.05615, 38.72032 ], [ -77.05567, 38.72047 ] ], [ [ -77.05505, 38.73016 ], [ -77.05511, 38.73025 ], [ -77.05516, 38.73019 ], [ -77.05505, 38.73016 ] ], [ [ -77.04674, 38.72574 ], [ -77.04672, 38.7258 ], [ -77.04682, 38.72576 ], [ -77.04674, 38.72574 ] ], [ [ -77.04666, 38.72462 ], [ -77.04662, 38.72466 ], [ -77.04673, 38.72465 ], [ -77.04666, 38.72462 ] ], [ [ -77.04615, 38.7215 ], [ -77.04582, 38.72115 ], [ -77.04581, 38.72161 ], [ -77.04615, 38.7215 ] ], [ [ -77.04716, 38.71681 ], [ -77.04963, 38.71775 ], [ -77.04722, 38.71658 ], [ -77.04673, 38.71672 ], [ -77.04716, 38.71681 ] ], [ [ -77.05098, 38.72109 ], [ -77.05107, 38.72111 ], [ -77.05101, 38.72108 ], [ -77.05098, 38.72109 ] ], [ [ -77.0495, 38.71891 ], [ -77.04912, 38.71876 ], [ -77.04914, 38.71887 ], [ -77.0495, 38.71891 ] ], [ [ -77.05077, 38.72371 ], [ -77.05141, 38.72236 ], [ -77.05067, 38.72215 ], [ -77.05016, 38.72324 ], [ -77.05077, 38.72371 ] ], [ [ -77.05068, 38.71922 ], [ -77.05073, 38.71924 ], [ -77.05074, 38.71923 ], [ -77.05068, 38.71922 ] ], [ [ -77.05181, 38.71828 ], [ -77.0517, 38.71826 ], [ -77.05145, 38.71823 ], [ -77.05181, 38.71828 ] ], [ [ -77.04989, 38.7319 ], [ -77.04991, 38.7319 ], [ -77.04991, 38.73189 ], [ -77.04989, 38.7319 ] ], [ [ -77.0516, 38.73205 ], [ -77.05139, 38.73188 ], [ -77.05132, 38.73203 ], [ -77.0516, 38.73205 ] ], [ [ -77.04703, 38.71887 ], [ -77.047, 38.71893 ], [ -77.04709, 38.71892 ], [ -77.04703, 38.71887 ] ], [ [ -77.04887, 38.73582 ], [ -77.04727, 38.7359 ], [ -77.0473, 38.7368 ], [ -77.04872, 38.73721 ], [ -77.04887, 38.73582 ] ], [ [ -77.0468, 38.72977 ], [ -77.04695, 38.72986 ], [ -77.04709, 38.72956 ], [ -77.0468, 38.72977 ] ], [ [ -77.04632, 38.72856 ], [ -77.04614, 38.72851 ], [ -77.04622, 38.72867 ], [ -77.04632, 38.72856 ] ], [ [ -77.04802, 38.73288 ], [ -77.04742, 38.73483 ], [ -77.04883, 38.73507 ], [ -77.04802, 38.73288 ] ], [ [ -77.04803, 38.72767 ], [ -77.04776, 38.72783 ], [ -77.04818, 38.72795 ], [ -77.04803, 38.72767 ] ], [ [ -77.04756, 38.73811 ], [ -77.04776, 38.73899 ], [ -77.04831, 38.73874 ], [ -77.04859, 38.73777 ], [ -77.04756, 38.73811 ] ], [ [ -77.04516, 38.72822 ], [ -77.04467, 38.72808 ], [ -77.04485, 38.72831 ], [ -77.04516, 38.72822 ] ], [ [ -77.04489, 38.72492 ], [ -77.04512, 38.72503 ], [ -77.0451, 38.72492 ], [ -77.04489, 38.72492 ] ], [ [ -77.04503, 38.72284 ], [ -77.04473, 38.72375 ], [ -77.04504, 38.7238 ], [ -77.04503, 38.72284 ] ], [ [ -77.04476, 38.72696 ], [ -77.04477, 38.72682 ], [ -77.04443, 38.72687 ], [ -77.04476, 38.72696 ] ], [ [ -77.04408, 38.72685 ], [ -77.04362, 38.72672 ], [ -77.04376, 38.72689 ], [ -77.04408, 38.72685 ] ], [ [ -77.04511, 38.726 ], [ -77.04491, 38.72605 ], [ -77.04503, 38.72613 ], [ -77.04511, 38.726 ] ], [ [ -77.04427, 38.73585 ], [ -77.04506, 38.7357 ], [ -77.04479, 38.73568 ], [ -77.04427, 38.73585 ] ], [ [ -77.04413, 38.73693 ], [ -77.04352, 38.73716 ], [ -77.04499, 38.73746 ], [ -77.04549, 38.73714 ], [ -77.04413, 38.73693 ] ] ] } }
]
}
