{
"type": "FeatureCollection",
"name": "220",
"crs": { "type": "name", "properties": { "name": "urn:ogc:def:crs:OGC:1.3:CRS84" } },
"xy_coordinate_resolution": 1e-05,
"features": [
{ "type": "Feature", "properties": { "variant": "T0", "miles": 1.0 }, "geometry": { "type": "Polygon", "coordinates": [ [ [ -77.09672, 38.71693 ], [ -77.09782, 38.71744 ], [ -77.09781, 38.71786 ], [ -77.09742, 38.71814 ], [ -77.09655, 38.718 ], [ -77.09618, 38.72069 ], [ -77.09793, 38.72062 ], [ -77.09838, 38.72084 ], [ -77.0984, 38.72167 ], [ -77.09897, 38.7196 ], [ -77.09993, 38.71947 ], [ -77.1005, 38.72031 ], [ -77.09947, 38.72303 ], [ -77.10235, 38.72353 ], [ -77.10305, 38.72401 ], [ -77.10176, 38.7285 ], [ -77.10295, 38.72888 ], [ -77.10291, 38.7297 ], [ -77.10193, 38.73026 ], [ -77.10032, 38.72934 ], [ -77.10058, 38.72772 ], [ -77.09754, 38.72735 ], [ -77.09693, 38.7267 ], [ -77.09513, 38.72636 ], [ -77.09502, 38.72692 ], [ -77.09612, 38.72728 ], [ -77.09578, 38.72808 ], [ -77.09736, 38.7283 ], [ -77.09764, 38.72865 ], [ -77.09695, 38.72934 ], [ -77.09435, 38.72947 ], [ -77.09411, 38.73023 ], [ -77.09484, 38.73046 ], [ -77.09601, 38.73016 ], [ -77.09679, 38.7305 ], [ -77.09678, 38.7319 ], [ -77.09649, 38.73224 ], [ -77.09552, 38.73225 ], [ -77.09625, 38.73239 ], [ -77.09641, 38.73314 ], [ -77.09486, 38.73321 ], [ -77.09368, 38.73439 ], [ -77.09345, 38.73518 ], [ -77.09244, 38.73517 ], [ -77.09112, 38.73739 ], [ -77.08975, 38.73867 ], [ -77.08956, 38.73965 ], [ -77.08868, 38.73982 ], [ -77.08805, 38.73923 ], [ -77.08955, 38.73711 ], [ -77.08876, 38.73694 ], [ -77.08841, 38.73623 ], [ -77.08879, 38.73595 ], [ -77.09049, 38.73601 ], [ -77.08768, 38.73531 ], [ -77.08788, 38.734 ], [ -77.08871, 38.7336 ], [ -77.08914, 38.73384 ], [ -77.0891, 38.73465 ], [ -77.09029, 38.73486 ], [ -77.0902, 38.73424 ], [ -77.09138, 38.73412 ], [ -77.09176, 38.73255 ], [ -77.09131, 38.7323 ], [ -77.08921, 38.73274 ], [ -77.08865, 38.7332 ], [ -77.08787, 38.73257 ], [ -77.0853, 38.73292 ], [ -77.08525, 38.73369 ], [ -77.08432, 38.73412 ], [ -77.08352, 38.73368 ], [ -77.08389, 38.73301 ], [ -77.08222, 38.73277 ], [ -77.08188, 38.73209 ], [ -77.08239, 38.7308 ], [ -77.08207, 38.73007 ], [ -77.08234, 38.72938 ], [ -77.08397, 38.72829 ], [ -77.0848, 38.72829 ], [ -77.08566, 38.72884 ], [ -77.08597, 38.72842 ], [ -77.08533, 38.72779 ], [ -77.08272, 38.72794 ], [ -77.08234, 38.72766 ], [ -77.08254, 38.72707 ], [ -77.08194, 38.72647 ], [ -77.0822, 38.72611 ], [ -77.08494, 38.72574 ], [ -77.08499, 38.72471 ], [ -77.08235, 38.72506 ], [ -77.08212, 38.72432 ], [ -77.08553, 38.72368 ], [ -77.08647, 38.72288 ], [ -77.08769, 38.72308 ], [ -77.08733, 38.72211 ], [ -77.08617, 38.7219 ], [ -77.08601, 38.72151 ], [ -77.08625, 38.72114 ], [ -77.08928, 38.72065 ], [ -77.08845, 38.71739 ], [ -77.089, 38.71676 ], [ -77.08981, 38.71721 ], [ -77.09318, 38.71691 ], [ -77.09377, 38.71756 ], [ -77.09454, 38.71757 ], [ -77.09472, 38.71683 ], [ -77.09626, 38.71562 ], [ -77.09671, 38.71584 ], [ -77.09672, 38.71693 ] ], [ [ -77.09259, 38.73061 ], [ -77.09323, 38.72846 ], [ -77.09188, 38.72823 ], [ -77.09259, 38.73061 ] ], [ [ -77.09176, 38.72715 ], [ -77.09352, 38.7274 ], [ -77.09411, 38.72448 ], [ -77.09237, 38.72444 ], [ -77.09244, 38.7255 ], [ -77.0914, 38.72555 ], [ -77.09176, 38.72715 ] ], [ [ -77.09079, 38.72164 ], [ -77.09085, 38.72155 ], [ -77.09077, 38.72151 ], [ -77.09079, 38.72164 ] ], [ [ -77.09059, 38.72011 ], [ -77.09323, 38.72088 ], [ -77.0928, 38.72022 ], [ -77.09309, 38.71987 ], [ -77.09391, 38.71983 ], [ -77.09473, 38.72094 ], [ -77.09493, 38.7198 ], [ -77.09148, 38.71946 ], [ -77.09059, 38.72011 ] ], [ [ -77.09147, 38.71818 ], [ -77.09145, 38.71837 ], [ -77.09187, 38.71796 ], [ -77.09147, 38.71818 ] ], [ [ -77.09457, 38.71865 ], [ -77.09459, 38.71871 ], [ -77.09508, 38.71866 ], [ -77.09457, 38.71865 ] ], [ [ -77.09324, 38.71868 ], [ -77.09329, 38.71851 ], [ -77.0931, 38.71867 ], [ -77.09324, 38.71868 ] ], [ [ -77.09739, 38.72564 ], [ -77.09788, 38.725 ], [ -77.09549, 38.72458 ], [ -77.09534, 38.72529 ], [ -77.09739, 38.72564 ] ], [ [ -77.0957, 38.72351 ], [ -77.09834, 38.72393 ], [ -77.09571, 38.72349 ], [ -77.0957, 38.72351 ] ], [ [ -77.09589, 38.72242 ], [ -77.09812, 38.7228 ], [ -77.09821, 38.72203 ], [ -77.09716, 38.72238 ], [ -77.09595, 38.72201 ], [ -77.09589, 38.72242 ] ], [ [ -77.10153, 38.72448 ], [ -77.09959, 38.72415 ], [ -77.10043, 38.72488 ], [ -77.09897, 38.72576 ], [ -77.09973, 38.72622 ], [ -77.10041, 38.72558 ], [ -77.10107, 38.72604 ], [ -77.10153, 38.72448 ] ], [ [ -77.09476, 38.72798 ], [ -77.09472, 38.72808 ], [ -77.09519, 38.72806 ], [ -77.09476, 38.72798 ] ], [ [ -77.08927, 38.72317 ], [ -77.08952, 38.7224 ], [ -77.08941, 38.72173 ], [ -77.0887, 38.72198 ], [ -77.08866, 38.72307 ], [ -77.08927, 38.72317 ] ], [ [ -77.09127, 38.73093 ], [ -77.0906, 38.72924 ], [ -77.09029, 38.73005 ], [ -77.09127, 38.73093 ] ], [ [ -77.09281, 38.7341 ], [ -77.09281, 38.73413 ], [ -77.09289, 38.73415 ], [ -77.09281, 38.7341 ] ], [ [ -77.08962, 38.72542 ], [ -77.08994, 38.72673 ], [ -77.08955, 38.72424 ], [ -77.08962, 38.72542 ] ], [ [ -77.08946, 38.73101 ], [ -77.08956, 38.73103 ], [ -77.08949, 38.73097 ], [ -77.08946, 38.73101 ] ], [ [ -77.09016, 38.7316 ], [ -77.09018, 38.73159 ], [ -77.09017, 38.73158 ], [ -77.09016, 38.7316 ] ], [ [ -77.0865, 38.72945 ], [ -77.08642, 38.72944 ], [ -77.08647, 38.72949 ], [ -77.0865, 38.72945 ] ], [ [ -77.08331, 38.73196 ], [ -77.08335, 38.73195 ], [ -77.08331, 38.73193 ], [ -77.08331, 38.73196 ] ] ] } },
{ "type": "Feature", "properties": { "variant": "T0", "miles": 1.5 }, "geometry": { "type": "Polygon", "coordinates": [ [ [ -77.10438, 38.71857 ], [ -77.10402, 38.71933 ], [ -77.10075, 38.71873 ], [ -77.10556, 38.7199 ], [ -77.1045, 38.72212 ], [ -77.10398, 38.7222 ], [ -77.10344, 38.72158 ], [ -77.10295, 38.72197 ], [ -77.10243, 38.72189 ], [ -77.10159, 38.72088 ], [ -77.10142, 38.7217 ], [ -77.10047, 38.72152 ], [ -77.10012, 38.72094 ], [ -77.09986, 38.72164 ], [ -77.10265, 38.72211 ], [ -77.10674, 38.72339 ], [ -77.10614, 38.72303 ], [ -77.10649, 38.72232 ], [ -77.11015, 38.72341 ], [ -77.11016, 38.72383 ], [ -77.10929, 38.72414 ], [ -77.11067, 38.72454 ], [ -77.11107, 38.72524 ], [ -77.11018, 38.72556 ], [ -77.109, 38.72521 ], [ -77.1089, 38.72556 ], [ -77.11042, 38.72596 ], [ -77.11023, 38.72671 ], [ -77.10702, 38.72636 ], [ -77.10693, 38.7266 ], [ -77.10901, 38.72711 ], [ -77.10883, 38.72783 ], [ -77.10954, 38.72849 ], [ -77.10914, 38.72915 ], [ -77.10984, 38.72935 ], [ -77.10994, 38.72976 ], [ -77.10915, 38.73035 ], [ -77.10831, 38.73024 ], [ -77.10702, 38.73083 ], [ -77.1062, 38.73306 ], [ -77.1048, 38.73466 ], [ -77.10397, 38.73425 ], [ -77.1041, 38.73377 ], [ -77.10138, 38.735 ], [ -77.10017, 38.73386 ], [ -77.09484, 38.73698 ], [ -77.09629, 38.7367 ], [ -77.09773, 38.73778 ], [ -77.09788, 38.73828 ], [ -77.09724, 38.73875 ], [ -77.09764, 38.7395 ], [ -77.09699, 38.73976 ], [ -77.09693, 38.74039 ], [ -77.09634, 38.74052 ], [ -77.09597, 38.74126 ], [ -77.09545, 38.74132 ], [ -77.09386, 38.74015 ], [ -77.09334, 38.74044 ], [ -77.09126, 38.74034 ], [ -77.09271, 38.74146 ], [ -77.09251, 38.74184 ], [ -77.09105, 38.7421 ], [ -77.0921, 38.74382 ], [ -77.0917, 38.74451 ], [ -77.08925, 38.74503 ], [ -77.08834, 38.74369 ], [ -77.08899, 38.7424 ], [ -77.08739, 38.74132 ], [ -77.08568, 38.74317 ], [ -77.08507, 38.74445 ], [ -77.08472, 38.74476 ], [ -77.08384, 38.74469 ], [ -77.08346, 38.74402 ], [ -77.0843, 38.74262 ], [ -77.08321, 38.74134 ], [ -77.08353, 38.74079 ], [ -77.08436, 38.74054 ], [ -77.08416, 38.73992 ], [ -77.08553, 38.73824 ], [ -77.08387, 38.73724 ], [ -77.08389, 38.73682 ], [ -77.08427, 38.73654 ], [ -77.08716, 38.73686 ], [ -77.08715, 38.73775 ], [ -77.08795, 38.7391 ], [ -77.08955, 38.73711 ], [ -77.08876, 38.73694 ], [ -77.0884, 38.73634 ], [ -77.08724, 38.7364 ], [ -77.08496, 38.7349 ], [ -77.08496, 38.73414 ], [ -77.08638, 38.73285 ], [ -77.0853, 38.73292 ], [ -77.08525, 38.73369 ], [ -77.08432, 38.73412 ], [ -77.08352, 38.73368 ], [ -77.08389, 38.73301 ], [ -77.08266, 38.73299 ], [ -77.08196, 38.73244 ], [ -77.08239, 38.7308 ], [ -77.0821, 38.72981 ], [ -77.08295, 38.72875 ], [ -77.08446, 38.72823 ], [ -77.08566, 38.72884 ], [ -77.08597, 38.72842 ], [ -77.08533, 38.72779 ], [ -77.08272, 38.72794 ], [ -77.08234, 38.72766 ], [ -77.08254, 38.72707 ], [ -77.08194, 38.72647 ], [ -77.0822, 38.72611 ], [ -77.08494, 38.72574 ], [ -77.08499, 38.72471 ], [ -77.08235, 38.72506 ], [ -77.08212, 38.72432 ], [ -77.08585, 38.72349 ], [ -77.08277, 38.72392 ], [ -77.08157, 38.72348 ], [ -77.08119, 38.72251 ], [ -77.08153, 38.72184 ], [ -77.08411, 38.72178 ], [ -77.08497, 38.72132 ], [ -77.0842, 38.7209 ], [ -77.08451, 38.7203 ], [ -77.08337, 38.72107 ], [ -77.08286, 38.72099 ], [ -77.08263, 38.72034 ], [ -77.08175, 38.72096 ], [ -77.08124, 38.72087 ], [ -77.08108, 38.72012 ], [ -77.08216, 38.71918 ], [ -77.08072, 38.71991 ], [ -77.08002, 38.71937 ], [ -77.08022, 38.71899 ], [ -77.08127, 38.71828 ], [ -77.08326, 38.71794 ], [ -77.08539, 38.71688 ], [ -77.0882, 38.71684 ], [ -77.08765, 38.71487 ], [ -77.08606, 38.71363 ], [ -77.08676, 38.71108 ], [ -77.08878, 38.71033 ], [ -77.08945, 38.71066 ], [ -77.08886, 38.71146 ], [ -77.09435, 38.71513 ], [ -77.09555, 38.71551 ], [ -77.09654, 38.71038 ], [ -77.09747, 38.71034 ], [ -77.0999, 38.71136 ], [ -77.09938, 38.71318 ], [ -77.10065, 38.7135 ], [ -77.10129, 38.712 ], [ -77.10228, 38.71134 ], [ -77.10325, 38.71142 ], [ -77.10315, 38.71218 ], [ -77.10219, 38.7129 ], [ -77.1022, 38.71388 ], [ -77.10352, 38.71442 ], [ -77.10319, 38.71556 ], [ -77.1044, 38.71587 ], [ -77.10483, 38.71656 ], [ -77.10396, 38.7169 ], [ -77.1009, 38.7161 ], [ -77.10298, 38.71696 ], [ -77.10264, 38.71768 ], [ -77.1011, 38.7174 ], [ -77.10102, 38.71767 ], [ -77.10276, 38.71788 ], [ -77.1055, 38.71704 ], [ -77.10601, 38.71769 ], [ -77.10438, 38.71857 ] ], [ [ -77.09952, 38.73291 ], [ -77.0995, 38.73145 ], [ -77.09708, 38.73086 ], [ -77.0973, 38.73012 ], [ -77.09867, 38.72965 ], [ -77.09982, 38.73037 ], [ -77.10087, 38.72999 ], [ -77.10131, 38.73022 ], [ -77.10103, 38.73103 ], [ -77.10165, 38.73175 ], [ -77.10254, 38.73128 ], [ -77.10105, 38.72953 ], [ -77.10032, 38.72934 ], [ -77.10058, 38.72772 ], [ -77.09754, 38.72735 ], [ -77.09693, 38.7267 ], [ -77.09513, 38.72636 ], [ -77.09502, 38.72692 ], [ -77.09612, 38.72728 ], [ -77.09578, 38.72808 ], [ -77.09736, 38.7283 ], [ -77.09764, 38.72865 ], [ -77.09695, 38.72934 ], [ -77.09435, 38.72947 ], [ -77.09411, 38.73023 ], [ -77.09484, 38.73046 ], [ -77.09618, 38.73018 ], [ -77.09693, 38.73073 ], [ -77.09649, 38.73224 ], [ -77.09552, 38.73225 ], [ -77.09625, 38.73239 ], [ -77.09641, 38.73314 ], [ -77.09486, 38.73321 ], [ -77.09368, 38.73439 ], [ -77.0938, 38.73473 ], [ -77.09451, 38.73422 ], [ -77.09583, 38.73486 ], [ -77.09952, 38.73291 ] ], [ [ -77.09115, 38.73407 ], [ -77.09138, 38.73412 ], [ -77.09182, 38.73278 ], [ -77.09137, 38.73242 ], [ -77.09115, 38.73407 ] ], [ [ -77.09323, 38.72846 ], [ -77.09188, 38.72823 ], [ -77.09259, 38.73061 ], [ -77.09323, 38.72846 ] ], [ [ -77.09352, 38.7274 ], [ -77.09411, 38.72448 ], [ -77.09237, 38.72444 ], [ -77.09244, 38.7255 ], [ -77.0914, 38.72555 ], [ -77.09176, 38.72715 ], [ -77.09352, 38.7274 ] ], [ [ -77.09323, 38.72088 ], [ -77.0928, 38.72022 ], [ -77.0936, 38.71978 ], [ -77.09437, 38.72008 ], [ -77.09473, 38.72094 ], [ -77.09493, 38.7198 ], [ -77.09149, 38.71946 ], [ -77.09052, 38.71985 ], [ -77.09153, 38.7206 ], [ -77.09323, 38.72088 ] ], [ [ -77.09364, 38.7171 ], [ -77.09507, 38.71659 ], [ -77.09223, 38.71558 ], [ -77.09137, 38.71461 ], [ -77.08776, 38.71222 ], [ -77.08758, 38.71285 ], [ -77.08903, 38.71433 ], [ -77.08981, 38.71721 ], [ -77.09033, 38.71695 ], [ -77.09364, 38.7171 ] ], [ [ -77.10416, 38.73207 ], [ -77.10519, 38.73199 ], [ -77.10551, 38.73102 ], [ -77.10312, 38.73228 ], [ -77.10355, 38.73265 ], [ -77.10416, 38.73207 ] ], [ [ -77.10041, 38.72558 ], [ -77.10107, 38.72604 ], [ -77.10153, 38.72448 ], [ -77.09959, 38.72415 ], [ -77.10043, 38.72488 ], [ -77.09906, 38.72551 ], [ -77.09973, 38.72613 ], [ -77.10041, 38.72558 ] ], [ [ -77.09813, 38.7239 ], [ -77.09571, 38.72349 ], [ -77.0983, 38.72397 ], [ -77.09813, 38.7239 ] ], [ [ -77.10165, 38.72339 ], [ -77.10175, 38.72306 ], [ -77.09956, 38.72269 ], [ -77.09962, 38.72305 ], [ -77.10165, 38.72339 ] ], [ [ -77.09716, 38.72238 ], [ -77.09595, 38.72201 ], [ -77.09589, 38.72242 ], [ -77.09812, 38.7228 ], [ -77.09821, 38.72203 ], [ -77.09716, 38.72238 ] ], [ [ -77.09893, 38.71975 ], [ -77.09637, 38.71935 ], [ -77.09618, 38.72069 ], [ -77.09793, 38.72062 ], [ -77.09838, 38.72084 ], [ -77.0984, 38.72167 ], [ -77.09893, 38.71975 ] ], [ [ -77.09773, 38.71835 ], [ -77.09655, 38.718 ], [ -77.09651, 38.71826 ], [ -77.09931, 38.71851 ], [ -77.09773, 38.71835 ] ], [ [ -77.09971, 38.71668 ], [ -77.09819, 38.71732 ], [ -77.09967, 38.71746 ], [ -77.09971, 38.71668 ] ], [ [ -77.10187, 38.71522 ], [ -77.10201, 38.71497 ], [ -77.10096, 38.7147 ], [ -77.10058, 38.715 ], [ -77.10187, 38.71522 ] ], [ [ -77.10368, 38.72093 ], [ -77.10383, 38.72071 ], [ -77.10322, 38.721 ], [ -77.10349, 38.72133 ], [ -77.10368, 38.72093 ] ], [ [ -77.10511, 38.72991 ], [ -77.10458, 38.72927 ], [ -77.10425, 38.73037 ], [ -77.10511, 38.72991 ] ], [ [ -77.10437, 38.72516 ], [ -77.10429, 38.72514 ], [ -77.10319, 38.72876 ], [ -77.10437, 38.72516 ] ], [ [ -77.10551, 38.72613 ], [ -77.10484, 38.72837 ], [ -77.10512, 38.72823 ], [ -77.10551, 38.72613 ] ], [ [ -77.10736, 38.72531 ], [ -77.10755, 38.72534 ], [ -77.1077, 38.72483 ], [ -77.10736, 38.72531 ] ], [ [ -77.10601, 38.72511 ], [ -77.10622, 38.7244 ], [ -77.10603, 38.72434 ], [ -77.10601, 38.72511 ] ], [ [ -77.10459, 38.72409 ], [ -77.10468, 38.7241 ], [ -77.10473, 38.72395 ], [ -77.10459, 38.72409 ] ], [ [ -77.10185, 38.72852 ], [ -77.10293, 38.72495 ], [ -77.10282, 38.72494 ], [ -77.10185, 38.72852 ] ], [ [ -77.10332, 38.72354 ], [ -77.10306, 38.72343 ], [ -77.10293, 38.72383 ], [ -77.10332, 38.72354 ] ], [ [ -77.10299, 38.72985 ], [ -77.10299, 38.72983 ], [ -77.10297, 38.72983 ], [ -77.10299, 38.72985 ] ], [ [ -77.10172, 38.73372 ], [ -77.10239, 38.73336 ], [ -77.10197, 38.73288 ], [ -77.10147, 38.73343 ], [ -77.10172, 38.73372 ] ], [ [ -77.09737, 38.72568 ], [ -77.09788, 38.725 ], [ -77.09549, 38.72458 ], [ -77.09534, 38.72529 ], [ -77.09737, 38.72568 ] ], [ [ -77.09507, 38.71872 ], [ -77.09508, 38.71866 ], [ -77.09457, 38.71865 ], [ -77.09507, 38.71872 ] ], [ [ -77.09755, 38.7144 ], [ -77.09815, 38.71401 ], [ -77.09719, 38.71379 ], [ -77.09755, 38.7144 ] ], [ [ -77.09747, 38.71202 ], [ -77.09799, 38.71174 ], [ -77.09754, 38.71156 ], [ -77.09747, 38.71202 ] ], [ [ -77.09742, 38.7123 ], [ -77.09736, 38.7127 ], [ -77.09785, 38.71281 ], [ -77.09742, 38.7123 ] ], [ [ -77.09681, 38.71694 ], [ -77.09709, 38.71662 ], [ -77.09676, 38.71667 ], [ -77.09681, 38.71694 ] ], [ [ -77.09494, 38.72807 ], [ -77.09519, 38.72806 ], [ -77.09476, 38.72798 ], [ -77.09494, 38.72807 ] ], [ [ -77.09324, 38.71868 ], [ -77.09333, 38.71852 ], [ -77.09329, 38.71851 ], [ -77.09324, 38.71868 ] ], [ [ -77.09614, 38.738 ], [ -77.09594, 38.73783 ], [ -77.0957, 38.73796 ], [ -77.09614, 38.738 ] ], [ [ -77.08952, 38.73603 ], [ -77.09049, 38.73601 ], [ -77.08878, 38.7357 ], [ -77.08866, 38.73604 ], [ -77.08952, 38.73603 ] ], [ [ -77.08771, 38.73458 ], [ -77.08716, 38.73488 ], [ -77.08752, 38.73515 ], [ -77.08771, 38.73458 ] ], [ [ -77.08981, 38.7338 ], [ -77.09019, 38.73268 ], [ -77.08958, 38.73272 ], [ -77.08988, 38.73306 ], [ -77.08949, 38.73374 ], [ -77.08981, 38.7338 ] ], [ [ -77.09017, 38.73158 ], [ -77.09016, 38.7316 ], [ -77.09019, 38.7316 ], [ -77.09017, 38.73158 ] ], [ [ -77.08956, 38.73103 ], [ -77.08949, 38.73097 ], [ -77.08946, 38.73101 ], [ -77.08956, 38.73103 ] ], [ [ -77.08754, 38.72296 ], [ -77.08733, 38.72213 ], [ -77.08709, 38.72304 ], [ -77.08754, 38.72296 ] ], [ [ -77.08928, 38.72065 ], [ -77.08899, 38.71928 ], [ -77.08815, 38.72057 ], [ -77.0864, 38.72077 ], [ -77.08512, 38.72127 ], [ -77.08928, 38.72065 ] ], [ [ -77.08866, 38.71823 ], [ -77.08858, 38.7179 ], [ -77.08752, 38.71793 ], [ -77.08728, 38.71856 ], [ -77.08636, 38.71855 ], [ -77.08697, 38.71978 ], [ -77.08866, 38.71823 ] ], [ [ -77.08582, 38.71791 ], [ -77.08566, 38.71802 ], [ -77.08614, 38.71817 ], [ -77.08582, 38.71791 ] ], [ [ -77.09218, 38.73815 ], [ -77.09078, 38.73894 ], [ -77.09221, 38.73881 ], [ -77.09218, 38.73815 ] ], [ [ -77.09365, 38.73759 ], [ -77.09368, 38.73757 ], [ -77.09355, 38.73742 ], [ -77.09323, 38.73765 ], [ -77.09365, 38.73759 ] ], [ [ -77.0938, 38.73476 ], [ -77.09329, 38.73524 ], [ -77.09244, 38.73517 ], [ -77.09111, 38.73741 ], [ -77.09439, 38.73565 ], [ -77.0938, 38.73476 ] ], [ [ -77.09289, 38.73415 ], [ -77.09281, 38.7341 ], [ -77.09281, 38.73413 ], [ -77.09289, 38.73415 ] ], [ [ -77.09443, 38.73848 ], [ -77.09448, 38.73847 ], [ -77.09447, 38.73846 ], [ -77.09443, 38.73848 ] ], [ [ -77.08952, 38.7224 ], [ -77.08941, 38.72173 ], [ -77.0887, 38.72198 ], [ -77.08866, 38.72307 ], [ -77.0893, 38.72317 ], [ -77.08952, 38.7224 ] ], [ [ -77.09085, 38.72155 ], [ -77.09077, 38.72151 ], [ -77.09079, 38.72164 ], [ -77.09085, 38.72155 ] ], [ [ -77.08955, 38.72424 ], [ -77.08951, 38.72424 ], [ -77.08977, 38.72638 ], [ -77.08994, 38.72673 ], [ -77.08955, 38.72424 ] ], [ [ -77.09029, 38.73005 ], [ -77.09127, 38.73093 ], [ -77.0906, 38.72924 ], [ -77.09029, 38.73005 ] ], [ [ -77.08769, 38.73265 ], [ -77.0874, 38.73274 ], [ -77.08789, 38.73271 ], [ -77.08769, 38.73265 ] ], [ [ -77.0849, 38.71848 ], [ -77.08498, 38.71859 ], [ -77.08506, 38.7184 ], [ -77.0849, 38.71848 ] ], [ [ -77.08501, 38.71888 ], [ -77.08498, 38.71898 ], [ -77.08502, 38.71897 ], [ -77.08501, 38.71888 ] ], [ [ -77.08594, 38.72221 ], [ -77.08524, 38.72247 ], [ -77.08562, 38.72243 ], [ -77.08594, 38.72221 ] ], [ [ -77.08267, 38.72277 ], [ -77.08279, 38.72283 ], [ -77.08298, 38.72279 ], [ -77.08267, 38.72277 ] ], [ [ -77.08647, 38.72949 ], [ -77.0865, 38.72945 ], [ -77.08645, 38.72944 ], [ -77.08647, 38.72949 ] ], [ [ -77.08335, 38.73195 ], [ -77.08331, 38.73193 ], [ -77.08331, 38.73196 ], [ -77.08335, 38.73195 ] ], [ [ -77.08551, 38.74117 ], [ -77.08463, 38.74071 ], [ -77.08468, 38.74141 ], [ -77.08551, 38.74117 ] ], [ [ -77.08647, 38.74008 ], [ -77.08578, 38.73971 ], [ -77.08565, 38.73994 ], [ -77.08647, 38.74008 ] ] ] } },
{ "type": "Feature", "properties": { "variant": "T0", "miles": 2.0 }, "geometry": { "type": "Polygon", "coordinates": [ [ [ -77.10839, 38.71009 ], [ -77.10903, 38.71094 ], [ -77.1087, 38.71157 ], [ -77.10985, 38.71184 ], [ -77.1103, 38.71252 ], [ -77.10834, 38.71371 ], [ -77.10764, 38.7152 ], [ -77.10879, 38.71548 ], [ -77.10994, 38.71356 ], [ -77.11085, 38.7133 ], [ -77.11121, 38.7136 ], [ -77.11012, 38.71581 ], [ -77.11142, 38.7161 ], [ -77.11157, 38.71486 ], [ -77.11254, 38.71483 ], [ -77.1133, 38.71626 ], [ -77.1131, 38.71655 ], [ -77.11438, 38.71703 ], [ -77.11352, 38.71887 ], [ -77.1153, 38.71984 ], [ -77.11477, 38.72049 ], [ -77.11295, 38.71985 ], [ -77.11145, 38.72119 ], [ -77.11429, 38.72204 ], [ -77.11548, 38.72318 ], [ -77.11577, 38.72412 ], [ -77.11775, 38.72379 ], [ -77.11828, 38.72443 ], [ -77.11617, 38.72566 ], [ -77.11623, 38.7263 ], [ -77.11683, 38.72667 ], [ -77.11674, 38.72708 ], [ -77.11544, 38.72746 ], [ -77.11604, 38.72991 ], [ -77.11372, 38.73063 ], [ -77.11408, 38.73226 ], [ -77.11315, 38.73249 ], [ -77.11243, 38.73102 ], [ -77.11101, 38.73147 ], [ -77.11099, 38.7322 ], [ -77.11168, 38.73212 ], [ -77.1125, 38.7335 ], [ -77.11321, 38.73335 ], [ -77.11372, 38.73401 ], [ -77.11048, 38.73601 ], [ -77.10822, 38.73632 ], [ -77.10911, 38.73643 ], [ -77.10935, 38.7368 ], [ -77.10889, 38.73731 ], [ -77.10906, 38.73803 ], [ -77.10742, 38.73849 ], [ -77.10775, 38.73954 ], [ -77.10607, 38.74031 ], [ -77.10578, 38.74109 ], [ -77.10472, 38.74062 ], [ -77.10179, 38.74118 ], [ -77.10244, 38.74325 ], [ -77.10151, 38.74512 ], [ -77.10014, 38.74538 ], [ -77.0993, 38.74495 ], [ -77.09846, 38.74511 ], [ -77.09856, 38.74608 ], [ -77.09814, 38.74632 ], [ -77.09701, 38.74615 ], [ -77.09662, 38.74674 ], [ -77.0961, 38.7468 ], [ -77.09568, 38.74654 ], [ -77.09534, 38.74433 ], [ -77.09493, 38.74398 ], [ -77.09624, 38.7426 ], [ -77.09602, 38.74168 ], [ -77.09431, 38.74365 ], [ -77.09431, 38.74458 ], [ -77.09536, 38.74584 ], [ -77.09521, 38.74659 ], [ -77.09431, 38.74669 ], [ -77.09379, 38.74734 ], [ -77.09195, 38.74745 ], [ -77.09103, 38.74816 ], [ -77.08981, 38.74845 ], [ -77.08721, 38.74802 ], [ -77.0865, 38.74832 ], [ -77.08567, 38.74749 ], [ -77.086, 38.74708 ], [ -77.08417, 38.74712 ], [ -77.08385, 38.74904 ], [ -77.0845, 38.74969 ], [ -77.08392, 38.75008 ], [ -77.08384, 38.75165 ], [ -77.08196, 38.75172 ], [ -77.08174, 38.75134 ], [ -77.08239, 38.75079 ], [ -77.08234, 38.75011 ], [ -77.0798, 38.75007 ], [ -77.07579, 38.74422 ], [ -77.07433, 38.74474 ], [ -77.07342, 38.74446 ], [ -77.07377, 38.74375 ], [ -77.07596, 38.743 ], [ -77.07473, 38.74083 ], [ -77.07556, 38.74003 ], [ -77.07719, 38.74018 ], [ -77.07809, 38.73984 ], [ -77.07864, 38.73867 ], [ -77.0796, 38.73885 ], [ -77.07949, 38.73991 ], [ -77.08012, 38.74004 ], [ -77.08041, 38.73958 ], [ -77.07991, 38.73885 ], [ -77.08083, 38.73855 ], [ -77.08114, 38.73787 ], [ -77.08288, 38.73818 ], [ -77.08388, 38.7377 ], [ -77.08425, 38.73841 ], [ -77.08374, 38.73945 ], [ -77.0843, 38.73967 ], [ -77.08553, 38.73824 ], [ -77.08387, 38.73724 ], [ -77.08427, 38.73654 ], [ -77.08716, 38.73686 ], [ -77.08715, 38.73775 ], [ -77.08795, 38.7391 ], [ -77.08955, 38.73711 ], [ -77.08876, 38.73694 ], [ -77.0884, 38.73634 ], [ -77.08724, 38.7364 ], [ -77.08496, 38.7349 ], [ -77.08496, 38.73414 ], [ -77.08638, 38.73285 ], [ -77.0853, 38.73292 ], [ -77.08525, 38.73369 ], [ -77.08432, 38.73412 ], [ -77.08352, 38.73368 ], [ -77.08389, 38.73301 ], [ -77.08266, 38.73299 ], [ -77.08196, 38.73244 ], [ -77.08239, 38.7308 ], [ -77.0821, 38.72981 ], [ -77.08295, 38.72875 ], [ -77.08446, 38.72823 ], [ -77.08566, 38.72884 ], [ -77.08597, 38.72842 ], [ -77.08533, 38.72779 ], [ -77.08272, 38.72794 ], [ -77.08234, 38.72766 ], [ -77.08254, 38.72707 ], [ -77.08194, 38.72647 ], [ -77.0822, 38.72611 ], [ -77.08494, 38.72574 ], [ -77.08499, 38.72471 ], [ -77.08235, 38.72506 ], [ -77.08212, 38.72432 ], [ -77.08585, 38.72349 ], [ -77.08277, 38.72392 ], [ -77.08157, 38.72348 ], [ -77.08119, 38.72251 ], [ -77.08153, 38.72184 ], [ -77.08411, 38.72178 ], [ -77.08497, 38.72132 ], [ -77.0842, 38.7209 ], [ -77.08451, 38.7203 ], [ -77.08337, 38.72107 ], [ -77.08286, 38.72099 ], [ -77.08263, 38.72034 ], [ -77.08175, 38.72096 ], [ -77.08124, 38.72087 ], [ -77.08108, 38.72012 ], [ -77.08216, 38.71918 ], [ -77.08072, 38.71991 ], [ -77.08002, 38.71937 ], [ -77.08022, 38.71899 ], [ -77.08127, 38.71828 ], [ -77.08326, 38.71794 ], [ -77.08539, 38.71688 ], [ -77.0882, 38.71684 ], [ -77.08765, 38.71487 ], [ -77.08606, 38.71363 ], [ -77.08676, 38.71108 ], [ -77.08851, 38.71035 ], [ -77.08945, 38.71066 ], [ -77.08886, 38.71146 ], [ -77.09435, 38.71513 ], [ -77.09555, 38.71551 ], [ -77.09643, 38.70991 ], [ -77.09761, 38.70764 ], [ -77.09624, 38.70769 ], [ -77.09516, 38.70698 ], [ -77.09636, 38.70574 ], [ -77.09518, 38.7054 ], [ -77.09377, 38.7055 ], [ -77.09301, 38.70502 ], [ -77.09362, 38.70443 ], [ -77.09535, 38.70433 ], [ -77.09675, 38.70471 ], [ -77.09669, 38.70411 ], [ -77.09744, 38.7035 ], [ -77.09854, 38.70395 ], [ -77.09889, 38.70339 ], [ -77.09833, 38.70254 ], [ -77.09868, 38.70223 ], [ -77.10044, 38.70297 ], [ -77.09995, 38.70416 ], [ -77.10191, 38.70509 ], [ -77.10148, 38.70578 ], [ -77.09989, 38.70535 ], [ -77.10239, 38.70647 ], [ -77.10136, 38.70758 ], [ -77.10271, 38.70687 ], [ -77.10373, 38.70685 ], [ -77.10709, 38.70816 ], [ -77.1077, 38.70915 ], [ -77.11093, 38.70793 ], [ -77.11136, 38.70881 ], [ -77.10839, 38.71009 ] ], [ [ -77.09761, 38.73687 ], [ -77.09699, 38.73713 ], [ -77.09735, 38.73745 ], [ -77.09784, 38.73722 ], [ -77.09761, 38.73687 ] ], [ [ -77.09724, 38.73557 ], [ -77.09634, 38.73617 ], [ -77.09668, 38.73606 ], [ -77.09724, 38.73557 ] ], [ [ -77.0962, 38.73325 ], [ -77.09486, 38.73321 ], [ -77.09469, 38.73351 ], [ -77.09584, 38.73374 ], [ -77.0962, 38.73325 ] ], [ [ -77.09649, 38.73224 ], [ -77.09552, 38.73225 ], [ -77.09639, 38.73257 ], [ -77.09649, 38.73224 ] ], [ [ -77.09656, 38.73143 ], [ -77.09669, 38.73152 ], [ -77.09674, 38.73133 ], [ -77.09656, 38.73143 ] ], [ [ -77.09726, 38.72951 ], [ -77.09809, 38.7291 ], [ -77.09982, 38.73037 ], [ -77.10063, 38.72996 ], [ -77.10131, 38.73022 ], [ -77.10103, 38.73103 ], [ -77.10165, 38.73175 ], [ -77.10254, 38.73128 ], [ -77.10105, 38.72953 ], [ -77.10032, 38.72934 ], [ -77.10058, 38.72772 ], [ -77.09754, 38.72735 ], [ -77.09693, 38.7267 ], [ -77.09513, 38.72636 ], [ -77.09502, 38.72692 ], [ -77.09612, 38.72728 ], [ -77.09578, 38.72808 ], [ -77.09736, 38.7283 ], [ -77.09764, 38.72874 ], [ -77.09695, 38.72934 ], [ -77.09435, 38.72947 ], [ -77.09408, 38.73035 ], [ -77.09592, 38.73016 ], [ -77.09692, 38.7307 ], [ -77.09726, 38.72951 ] ], [ [ -77.09737, 38.72568 ], [ -77.09788, 38.725 ], [ -77.09549, 38.72458 ], [ -77.09534, 38.72529 ], [ -77.09737, 38.72568 ] ], [ [ -77.09834, 38.72393 ], [ -77.09571, 38.72349 ], [ -77.0957, 38.72351 ], [ -77.09834, 38.72393 ] ], [ [ -77.09812, 38.7228 ], [ -77.09821, 38.72203 ], [ -77.09716, 38.72238 ], [ -77.09595, 38.72201 ], [ -77.09589, 38.72242 ], [ -77.09812, 38.7228 ] ], [ [ -77.09493, 38.7198 ], [ -77.09149, 38.71946 ], [ -77.09052, 38.71985 ], [ -77.09153, 38.7206 ], [ -77.09323, 38.72088 ], [ -77.0928, 38.72022 ], [ -77.09309, 38.71987 ], [ -77.09391, 38.71983 ], [ -77.09476, 38.72075 ], [ -77.09493, 38.7198 ] ], [ [ -77.09457, 38.71865 ], [ -77.09459, 38.71871 ], [ -77.09508, 38.71866 ], [ -77.09457, 38.71865 ] ], [ [ -77.09507, 38.71659 ], [ -77.09223, 38.71558 ], [ -77.09137, 38.71461 ], [ -77.08776, 38.71222 ], [ -77.08758, 38.71285 ], [ -77.08903, 38.71433 ], [ -77.08981, 38.71721 ], [ -77.09507, 38.71659 ] ], [ [ -77.10811, 38.73632 ], [ -77.10731, 38.73596 ], [ -77.10732, 38.73633 ], [ -77.10811, 38.73632 ] ], [ [ -77.10416, 38.73207 ], [ -77.10519, 38.73199 ], [ -77.10551, 38.73102 ], [ -77.10312, 38.73228 ], [ -77.10355, 38.73265 ], [ -77.10416, 38.73207 ] ], [ [ -77.10299, 38.72985 ], [ -77.10299, 38.72983 ], [ -77.10297, 38.72983 ], [ -77.10299, 38.72985 ] ], [ [ -77.10437, 38.72516 ], [ -77.10429, 38.72514 ], [ -77.10319, 38.72876 ], [ -77.10437, 38.72516 ] ], [ [ -77.10176, 38.7285 ], [ -77.10185, 38.72852 ], [ -77.10293, 38.72495 ], [ -77.10176, 38.7285 ] ], [ [ -77.10332, 38.72354 ], [ -77.10306, 38.72343 ], [ -77.10293, 38.72383 ], [ -77.10332, 38.72354 ] ], [ [ -77.10393, 38.72257 ], [ -77.10674, 38.72339 ], [ -77.1054, 38.72286 ], [ -77.10504, 38.72193 ], [ -77.10669, 38.71977 ], [ -77.10832, 38.7165 ], [ -77.10704, 38.71618 ], [ -77.10578, 38.71938 ], [ -77.10481, 38.71928 ], [ -77.105, 38.71833 ], [ -77.10438, 38.71857 ], [ -77.10402, 38.71933 ], [ -77.10075, 38.71873 ], [ -77.10556, 38.7199 ], [ -77.1045, 38.72212 ], [ -77.10398, 38.7222 ], [ -77.10344, 38.72158 ], [ -77.10295, 38.72197 ], [ -77.10243, 38.72189 ], [ -77.10159, 38.72088 ], [ -77.10173, 38.72137 ], [ -77.1009, 38.72176 ], [ -77.10012, 38.72094 ], [ -77.09986, 38.72164 ], [ -77.10393, 38.72257 ] ], [ [ -77.1052, 38.71693 ], [ -77.10573, 38.71585 ], [ -77.10332, 38.71532 ], [ -77.10319, 38.71556 ], [ -77.1048, 38.71615 ], [ -77.10483, 38.71656 ], [ -77.10396, 38.7169 ], [ -77.1009, 38.7161 ], [ -77.10298, 38.71696 ], [ -77.10264, 38.71768 ], [ -77.1011, 38.7174 ], [ -77.10102, 38.71767 ], [ -77.10261, 38.71789 ], [ -77.1052, 38.71693 ] ], [ [ -77.10305, 38.71335 ], [ -77.10221, 38.71389 ], [ -77.10264, 38.714 ], [ -77.10305, 38.71335 ] ], [ [ -77.10124, 38.70973 ], [ -77.10125, 38.70922 ], [ -77.10092, 38.70934 ], [ -77.10053, 38.71032 ], [ -77.10122, 38.70987 ], [ -77.10169, 38.71005 ], [ -77.10162, 38.71117 ], [ -77.10233, 38.71078 ], [ -77.10279, 38.71099 ], [ -77.10201, 38.70994 ], [ -77.10124, 38.70973 ] ], [ [ -77.10391, 38.7081 ], [ -77.10349, 38.70795 ], [ -77.10348, 38.70868 ], [ -77.10273, 38.70876 ], [ -77.10316, 38.70933 ], [ -77.10391, 38.7081 ] ], [ [ -77.11153, 38.73019 ], [ -77.1112, 38.72985 ], [ -77.11078, 38.73006 ], [ -77.11119, 38.7304 ], [ -77.11153, 38.73019 ] ], [ [ -77.11108, 38.72861 ], [ -77.1114, 38.72839 ], [ -77.11108, 38.72855 ], [ -77.11108, 38.72861 ] ], [ [ -77.11166, 38.72662 ], [ -77.11107, 38.72514 ], [ -77.11071, 38.72554 ], [ -77.109, 38.72521 ], [ -77.1089, 38.72556 ], [ -77.11042, 38.72596 ], [ -77.11023, 38.72671 ], [ -77.10702, 38.72636 ], [ -77.10693, 38.7266 ], [ -77.10901, 38.72711 ], [ -77.10911, 38.7279 ], [ -77.11166, 38.72662 ] ], [ [ -77.10736, 38.72531 ], [ -77.10755, 38.72534 ], [ -77.1077, 38.72483 ], [ -77.10736, 38.72531 ] ], [ [ -77.10645, 38.72197 ], [ -77.10643, 38.72205 ], [ -77.10669, 38.72155 ], [ -77.10645, 38.72197 ] ], [ [ -77.10878, 38.7204 ], [ -77.10915, 38.71947 ], [ -77.10803, 38.72006 ], [ -77.10802, 38.72041 ], [ -77.10878, 38.7204 ] ], [ [ -77.10773, 38.71268 ], [ -77.10796, 38.71252 ], [ -77.10756, 38.71242 ], [ -77.10773, 38.71268 ] ], [ [ -77.11058, 38.72447 ], [ -77.11034, 38.72445 ], [ -77.11094, 38.72475 ], [ -77.11058, 38.72447 ] ], [ [ -77.11112, 38.72234 ], [ -77.11089, 38.72233 ], [ -77.11041, 38.72332 ], [ -77.11097, 38.72311 ], [ -77.11112, 38.72234 ] ], [ [ -77.11081, 38.71986 ], [ -77.11047, 38.71979 ], [ -77.11009, 38.72095 ], [ -77.11081, 38.71986 ] ], [ [ -77.10897, 38.71829 ], [ -77.10956, 38.71844 ], [ -77.11015, 38.71694 ], [ -77.10964, 38.71682 ], [ -77.10897, 38.71829 ] ], [ [ -77.11088, 38.71876 ], [ -77.11139, 38.7188 ], [ -77.11174, 38.71934 ], [ -77.1121, 38.7187 ], [ -77.11152, 38.7186 ], [ -77.1113, 38.71786 ], [ -77.11288, 38.71763 ], [ -77.11147, 38.71726 ], [ -77.11088, 38.71876 ] ], [ [ -77.11307, 38.72284 ], [ -77.11358, 38.72301 ], [ -77.11343, 38.7229 ], [ -77.11307, 38.72284 ] ], [ [ -77.10746, 38.71127 ], [ -77.10754, 38.71129 ], [ -77.1075, 38.71124 ], [ -77.10746, 38.71127 ] ], [ [ -77.10821, 38.72153 ], [ -77.10768, 38.72251 ], [ -77.10832, 38.7227 ], [ -77.10797, 38.72201 ], [ -77.10835, 38.72172 ], [ -77.10939, 38.72187 ], [ -77.10821, 38.72153 ] ], [ [ -77.10921, 38.73228 ], [ -77.1091, 38.73303 ], [ -77.11074, 38.73262 ], [ -77.10921, 38.73228 ] ], [ [ -77.10459, 38.72409 ], [ -77.10468, 38.7241 ], [ -77.10473, 38.72395 ], [ -77.10459, 38.72409 ] ], [ [ -77.10511, 38.72991 ], [ -77.10458, 38.72927 ], [ -77.10425, 38.73037 ], [ -77.10511, 38.72991 ] ], [ [ -77.10512, 38.72823 ], [ -77.10566, 38.72615 ], [ -77.10551, 38.72613 ], [ -77.10485, 38.72835 ], [ -77.10512, 38.72823 ] ], [ [ -77.10601, 38.72511 ], [ -77.10603, 38.72434 ], [ -77.10582, 38.72502 ], [ -77.10601, 38.72511 ] ], [ [ -77.10442, 38.71328 ], [ -77.10435, 38.71339 ], [ -77.1046, 38.71344 ], [ -77.10442, 38.71328 ] ], [ [ -77.10427, 38.71116 ], [ -77.10578, 38.71021 ], [ -77.10499, 38.70883 ], [ -77.10396, 38.71041 ], [ -77.10427, 38.71116 ] ], [ [ -77.10535, 38.71258 ], [ -77.10527, 38.71215 ], [ -77.10485, 38.71243 ], [ -77.10535, 38.71258 ] ], [ [ -77.10365, 38.72097 ], [ -77.10383, 38.72071 ], [ -77.10322, 38.721 ], [ -77.10365, 38.72097 ] ], [ [ -77.10044, 38.7414 ], [ -77.09964, 38.74101 ], [ -77.09937, 38.74139 ], [ -77.09995, 38.74316 ], [ -77.10093, 38.74298 ], [ -77.10044, 38.7414 ] ], [ [ -77.10156, 38.73551 ], [ -77.10017, 38.73386 ], [ -77.09951, 38.73422 ], [ -77.10088, 38.73582 ], [ -77.10156, 38.73551 ] ], [ [ -77.0995, 38.73145 ], [ -77.09818, 38.73122 ], [ -77.09781, 38.73257 ], [ -77.09949, 38.73292 ], [ -77.0995, 38.73145 ] ], [ [ -77.10041, 38.72558 ], [ -77.10107, 38.72604 ], [ -77.10153, 38.72448 ], [ -77.09959, 38.72415 ], [ -77.10043, 38.72488 ], [ -77.09897, 38.72576 ], [ -77.09973, 38.72622 ], [ -77.10041, 38.72558 ] ], [ [ -77.10165, 38.72339 ], [ -77.10175, 38.72306 ], [ -77.09956, 38.72269 ], [ -77.09947, 38.72303 ], [ -77.10165, 38.72339 ] ], [ [ -77.10266, 38.7399 ], [ -77.10283, 38.73987 ], [ -77.10278, 38.73985 ], [ -77.10266, 38.7399 ] ], [ [ -77.10361, 38.73631 ], [ -77.10362, 38.73633 ], [ -77.10368, 38.73631 ], [ -77.10361, 38.73631 ] ], [ [ -77.10411, 38.73378 ], [ -77.10248, 38.73463 ], [ -77.10277, 38.73498 ], [ -77.10411, 38.73378 ] ], [ [ -77.10482, 38.73496 ], [ -77.10436, 38.73546 ], [ -77.10441, 38.73601 ], [ -77.10549, 38.73618 ], [ -77.10527, 38.73684 ], [ -77.10562, 38.73741 ], [ -77.10589, 38.73591 ], [ -77.10482, 38.73496 ] ], [ [ -77.10351, 38.73869 ], [ -77.10354, 38.73878 ], [ -77.10356, 38.73877 ], [ -77.10351, 38.73869 ] ], [ [ -77.10172, 38.73372 ], [ -77.10239, 38.73336 ], [ -77.10197, 38.73288 ], [ -77.10172, 38.73372 ] ], [ [ -77.09773, 38.71835 ], [ -77.09655, 38.718 ], [ -77.09651, 38.71826 ], [ -77.09935, 38.71871 ], [ -77.09773, 38.71835 ] ], [ [ -77.09971, 38.71668 ], [ -77.09819, 38.71732 ], [ -77.09967, 38.71746 ], [ -77.09971, 38.71668 ] ], [ [ -77.10187, 38.71522 ], [ -77.10201, 38.71497 ], [ -77.10096, 38.7147 ], [ -77.10069, 38.71499 ], [ -77.10187, 38.71522 ] ], [ [ -77.10087, 38.71336 ], [ -77.10081, 38.71304 ], [ -77.09994, 38.71304 ], [ -77.09973, 38.7123 ], [ -77.09938, 38.71318 ], [ -77.10087, 38.71336 ] ], [ [ -77.10028, 38.70836 ], [ -77.09915, 38.70861 ], [ -77.0988, 38.70819 ], [ -77.09771, 38.71042 ], [ -77.09886, 38.71087 ], [ -77.09959, 38.70901 ], [ -77.10028, 38.70836 ] ], [ [ -77.09852, 38.70549 ], [ -77.0981, 38.70535 ], [ -77.09827, 38.70566 ], [ -77.09841, 38.7062 ], [ -77.09852, 38.70549 ] ], [ [ -77.09747, 38.7049 ], [ -77.09763, 38.70498 ], [ -77.09761, 38.70494 ], [ -77.09747, 38.7049 ] ], [ [ -77.09972, 38.70655 ], [ -77.09957, 38.7069 ], [ -77.10012, 38.7071 ], [ -77.10032, 38.70678 ], [ -77.09972, 38.70655 ] ], [ [ -77.10164, 38.71147 ], [ -77.10157, 38.71128 ], [ -77.10151, 38.71143 ], [ -77.10164, 38.71147 ] ], [ [ -77.09676, 38.71667 ], [ -77.09672, 38.71693 ], [ -77.09681, 38.71694 ], [ -77.09676, 38.71667 ] ], [ [ -77.09755, 38.7144 ], [ -77.09815, 38.71401 ], [ -77.09719, 38.71379 ], [ -77.09755, 38.7144 ] ], [ [ -77.09747, 38.71252 ], [ -77.09742, 38.7123 ], [ -77.09736, 38.7127 ], [ -77.09775, 38.71276 ], [ -77.09747, 38.71252 ] ], [ [ -77.09747, 38.71202 ], [ -77.09799, 38.71174 ], [ -77.09754, 38.71156 ], [ -77.09747, 38.71202 ] ], [ [ -77.09893, 38.71975 ], [ -77.09637, 38.71935 ], [ -77.09618, 38.72069 ], [ -77.09793, 38.72062 ], [ -77.09838, 38.72084 ], [ -77.0984, 38.72167 ], [ -77.09893, 38.71975 ] ], [ [ -77.08952, 38.73603 ], [ -77.09049, 38.73601 ], [ -77.08878, 38.7357 ], [ -77.08866, 38.73604 ], [ -77.08952, 38.73603 ] ], [ [ -77.08771, 38.73458 ], [ -77.08716, 38.73488 ], [ -77.08752, 38.73515 ], [ -77.08771, 38.73458 ] ], [ [ -77.08981, 38.7338 ], [ -77.09019, 38.73268 ], [ -77.08958, 38.73272 ], [ -77.08988, 38.73306 ], [ -77.08949, 38.73374 ], [ -77.08981, 38.7338 ] ], [ [ -77.09017, 38.73158 ], [ -77.09016, 38.7316 ], [ -77.09019, 38.7316 ], [ -77.09017, 38.73158 ] ], [ [ -77.08956, 38.73103 ], [ -77.08949, 38.73097 ], [ -77.08946, 38.73101 ], [ -77.08956, 38.73103 ] ], [ [ -77.08754, 38.72296 ], [ -77.08733, 38.72213 ], [ -77.08709, 38.72304 ], [ -77.08754, 38.72296 ] ], [ [ -77.08928, 38.72065 ], [ -77.08899, 38.71928 ], [ -77.08815, 38.72057 ], [ -77.0864, 38.72077 ], [ -77.08512, 38.72127 ], [ -77.08928, 38.72065 ] ], [ [ -77.08866, 38.71823 ], [ -77.08858, 38.7179 ], [ -77.08752, 38.71793 ], [ -77.08728, 38.71856 ], [ -77.08636, 38.71855 ], [ -77.08697, 38.71978 ], [ -77.08866, 38.71823 ] ], [ [ -77.09386, 38.74015 ], [ -77.09119, 38.74058 ], [ -77.09212, 38.74095 ], [ -77.09484, 38.74098 ], [ -77.09386, 38.74015 ] ], [ [ -77.09114, 38.7387 ], [ -77.09078, 38.73894 ], [ -77.09221, 38.73881 ], [ -77.09218, 38.73815 ], [ -77.09114, 38.7387 ] ], [ [ -77.09365, 38.73759 ], [ -77.09368, 38.73757 ], [ -77.09355, 38.73742 ], [ -77.09323, 38.73765 ], [ -77.09365, 38.73759 ] ], [ [ -77.09244, 38.73517 ], [ -77.09111, 38.73741 ], [ -77.09296, 38.73643 ], [ -77.09439, 38.73565 ], [ -77.09244, 38.73517 ] ], [ [ -77.09289, 38.73415 ], [ -77.09281, 38.7341 ], [ -77.09281, 38.73413 ], [ -77.09289, 38.73415 ] ], [ [ -77.09323, 38.72846 ], [ -77.09188, 38.72823 ], [ -77.09259, 38.73061 ], [ -77.09323, 38.72846 ] ], [ [ -77.09352, 38.7274 ], [ -77.09411, 38.72448 ], [ -77.09237, 38.72444 ], [ -77.09244, 38.7255 ], [ -77.0914, 38.72555 ], [ -77.09164, 38.72716 ], [ -77.09352, 38.7274 ] ], [ [ -77.09594, 38.73783 ], [ -77.0957, 38.73796 ], [ -77.0958, 38.73812 ], [ -77.09594, 38.73783 ] ], [ [ -77.09581, 38.73668 ], [ -77.09612, 38.73629 ], [ -77.09484, 38.73698 ], [ -77.09581, 38.73668 ] ], [ [ -77.09472, 38.72808 ], [ -77.09519, 38.72806 ], [ -77.09476, 38.72798 ], [ -77.09472, 38.72808 ] ], [ [ -77.09443, 38.73848 ], [ -77.09448, 38.73847 ], [ -77.09447, 38.73846 ], [ -77.09443, 38.73848 ] ], [ [ -77.09169, 38.71808 ], [ -77.09187, 38.71796 ], [ -77.09147, 38.71818 ], [ -77.09127, 38.71839 ], [ -77.09169, 38.71808 ] ], [ [ -77.09333, 38.71852 ], [ -77.09329, 38.71851 ], [ -77.0931, 38.71867 ], [ -77.09333, 38.71852 ] ], [ [ -77.09287, 38.74387 ], [ -77.0929, 38.74399 ], [ -77.09291, 38.74382 ], [ -77.09287, 38.74387 ] ], [ [ -77.09207, 38.74198 ], [ -77.09138, 38.74199 ], [ -77.09217, 38.74287 ], [ -77.09207, 38.74198 ] ], [ [ -77.09401, 38.74217 ], [ -77.09417, 38.74207 ], [ -77.09346, 38.74192 ], [ -77.09401, 38.74217 ] ], [ [ -77.08977, 38.72638 ], [ -77.08994, 38.72673 ], [ -77.08985, 38.72619 ], [ -77.08955, 38.72424 ], [ -77.08977, 38.72638 ] ], [ [ -77.08952, 38.7224 ], [ -77.08941, 38.72173 ], [ -77.08872, 38.72186 ], [ -77.08866, 38.72307 ], [ -77.08938, 38.72316 ], [ -77.08952, 38.7224 ] ], [ [ -77.09077, 38.72151 ], [ -77.09079, 38.72164 ], [ -77.09093, 38.72158 ], [ -77.09077, 38.72151 ] ], [ [ -77.09153, 38.73294 ], [ -77.09138, 38.73412 ], [ -77.09182, 38.73278 ], [ -77.09123, 38.73238 ], [ -77.09153, 38.73294 ] ], [ [ -77.09029, 38.73005 ], [ -77.09127, 38.73093 ], [ -77.0906, 38.72924 ], [ -77.09029, 38.73005 ] ], [ [ -77.0876, 38.73268 ], [ -77.0874, 38.73274 ], [ -77.08789, 38.73271 ], [ -77.0876, 38.73268 ] ], [ [ -77.08502, 38.71897 ], [ -77.08501, 38.71888 ], [ -77.08498, 38.71898 ], [ -77.08502, 38.71897 ] ], [ [ -77.08614, 38.71794 ], [ -77.08566, 38.71802 ], [ -77.08613, 38.71814 ], [ -77.08614, 38.71794 ] ], [ [ -77.08557, 38.72229 ], [ -77.08524, 38.72247 ], [ -77.08593, 38.72236 ], [ -77.08557, 38.72229 ] ], [ [ -77.08279, 38.72283 ], [ -77.083, 38.72279 ], [ -77.08267, 38.72277 ], [ -77.08279, 38.72283 ] ], [ [ -77.08645, 38.72944 ], [ -77.08642, 38.72944 ], [ -77.08647, 38.72949 ], [ -77.08645, 38.72944 ] ], [ [ -77.08331, 38.73196 ], [ -77.08335, 38.73195 ], [ -77.08331, 38.73193 ], [ -77.08331, 38.73196 ] ], [ [ -77.08899, 38.7424 ], [ -77.08739, 38.74132 ], [ -77.08554, 38.74339 ], [ -77.08562, 38.7439 ], [ -77.08729, 38.74444 ], [ -77.08899, 38.7424 ] ], [ [ -77.08468, 38.74141 ], [ -77.0849, 38.74158 ], [ -77.08551, 38.74117 ], [ -77.0848, 38.74086 ], [ -77.08468, 38.74141 ] ], [ [ -77.08295, 38.7411 ], [ -77.08323, 38.74129 ], [ -77.08373, 38.74066 ], [ -77.08324, 38.7405 ], [ -77.08295, 38.7411 ] ], [ [ -77.08578, 38.73971 ], [ -77.08565, 38.73994 ], [ -77.08626, 38.74026 ], [ -77.08647, 38.74008 ], [ -77.08578, 38.73971 ] ], [ [ -77.084, 38.74306 ], [ -77.08166, 38.74384 ], [ -77.0813, 38.74469 ], [ -77.08174, 38.74481 ], [ -77.08252, 38.74422 ], [ -77.08332, 38.74433 ], [ -77.084, 38.74306 ] ], [ [ -77.0809, 38.74181 ], [ -77.08084, 38.74196 ], [ -77.0809, 38.74192 ], [ -77.0809, 38.74181 ] ], [ [ -77.08076, 38.74212 ], [ -77.08073, 38.74221 ], [ -77.08076, 38.74219 ], [ -77.08076, 38.74212 ] ], [ [ -77.07985, 38.74105 ], [ -77.07918, 38.74096 ], [ -77.07879, 38.74236 ], [ -77.07985, 38.74105 ] ], [ [ -77.07663, 38.74166 ], [ -77.07747, 38.74134 ], [ -77.07632, 38.74113 ], [ -77.07663, 38.74166 ] ], [ [ -77.07961, 38.74412 ], [ -77.0799, 38.74407 ], [ -77.07976, 38.74403 ], [ -77.07961, 38.74412 ] ], [ [ -77.07734, 38.74368 ], [ -77.07706, 38.74379 ], [ -77.0785, 38.74591 ], [ -77.07884, 38.74512 ], [ -77.07825, 38.74517 ], [ -77.07734, 38.74368 ] ], [ [ -77.08062, 38.74292 ], [ -77.08051, 38.74283 ], [ -77.08042, 38.74306 ], [ -77.08062, 38.74292 ] ], [ [ -77.08156, 38.74832 ], [ -77.08094, 38.7484 ], [ -77.07994, 38.74778 ], [ -77.07951, 38.74663 ], [ -77.07907, 38.74675 ], [ -77.08066, 38.7491 ], [ -77.08213, 38.74904 ], [ -77.08156, 38.74832 ] ], [ [ -77.08241, 38.74723 ], [ -77.08232, 38.74718 ], [ -77.0824, 38.74729 ], [ -77.08241, 38.74723 ] ], [ [ -77.08013, 38.74584 ], [ -77.08006, 38.74566 ], [ -77.07995, 38.7459 ], [ -77.08013, 38.74584 ] ] ] } },
{ "type": "Feature", "properties": { "variant": "T2s", "miles": 1.0 }, "geometry": { "type": "Polygon", "coordinates": [ [ [ -77.09672, 38.71693 ], [ -77.09782, 38.71744 ], [ -77.09781, 38.71786 ], [ -77.09742, 38.71814 ], [ -77.09655, 38.718 ], [ -77.09618, 38.72069 ], [ -77.09793, 38.72062 ], [ -77.09838, 38.72084 ], [ -77.0984, 38.72167 ], [ -77.09897, 38.7196 ], [ -77.09993, 38.71947 ], [ -77.1005, 38.72031 ], [ -77.09947, 38.72303 ], [ -77.10235, 38.72353 ], [ -77.10305, 38.72401 ], [ -77.10176, 38.7285 ], [ -77.10295, 38.72888 ], [ -77.10291, 38.7297 ], [ -77.10193, 38.73026 ], [ -77.10032, 38.72934 ], [ -77.10058, 38.72772 ], [ -77.09754, 38.72735 ], [ -77.09693, 38.7267 ], [ -77.09513, 38.72636 ], [ -77.09502, 38.72692 ], [ -77.09612, 38.72728 ], [ -77.09578, 38.72808 ], [ -77.09736, 38.7283 ], [ -77.09764, 38.72865 ], [ -77.09695, 38.72934 ], [ -77.09435, 38.72947 ], [ -77.09411, 38.73023 ], [ -77.09484, 38.73046 ], [ -77.09601, 38.73016 ], [ -77.09679, 38.7305 ], [ -77.09678, 38.7319 ], [ -77.09649, 38.73224 ], [ -77.09552, 38.73225 ], [ -77.09625, 38.73239 ], [ -77.09641, 38.73314 ], [ -77.09486, 38.73321 ], [ -77.09368, 38.73439 ], [ -77.09345, 38.73518 ], [ -77.09244, 38.73517 ], [ -77.09112, 38.73739 ], [ -77.08983, 38.73854 ], [ -77.0896, 38.73938 ], [ -77.08865, 38.73956 ], [ -77.0884, 38.73841 ], [ -77.08955, 38.73711 ], [ -77.08876, 38.73694 ], [ -77.08841, 38.73623 ], [ -77.08879, 38.73595 ], [ -77.09049, 38.73601 ], [ -77.08768, 38.73531 ], [ -77.08788, 38.734 ], [ -77.08871, 38.7336 ], [ -77.08914, 38.73384 ], [ -77.0891, 38.73465 ], [ -77.09029, 38.73486 ], [ -77.0902, 38.73424 ], [ -77.09138, 38.73412 ], [ -77.09176, 38.73255 ], [ -77.09131, 38.7323 ], [ -77.08921, 38.73274 ], [ -77.08865, 38.7332 ], [ -77.08787, 38.73257 ], [ -77.0853, 38.73292 ], [ -77.08525, 38.73369 ], [ -77.08432, 38.73412 ], [ -77.08352, 38.73368 ], [ -77.08389, 38.73301 ], [ -77.08222, 38.73277 ], [ -77.08188, 38.73209 ], [ -77.08239, 38.7308 ], [ -77.08207, 38.73007 ], [ -77.08234, 38.72938 ], [ -77.08397, 38.72829 ], [ -77.0848, 38.72829 ], [ -77.08566, 38.72884 ], [ -77.08597, 38.72842 ], [ -77.08533, 38.72779 ], [ -77.08272, 38.72794 ], [ -77.08234, 38.72766 ], [ -77.08254, 38.72707 ], [ -77.08194, 38.72647 ], [ -77.0822, 38.72611 ], [ -77.08494, 38.72574 ], [ -77.08499, 38.72471 ], [ -77.08235, 38.72506 ], [ -77.08212, 38.72432 ], [ -77.08553, 38.72368 ], [ -77.08647, 38.72288 ], [ -77.08769, 38.72308 ], [ -77.08733, 38.72211 ], [ -77.08617, 38.7219 ], [ -77.08601, 38.72151 ], [ -77.08625, 38.72114 ], [ -77.08928, 38.72065 ], [ -77.08845, 38.71739 ], [ -77.089, 38.71676 ], [ -77.08981, 38.71721 ], [ -77.09318, 38.71691 ], [ -77.09377, 38.71756 ], [ -77.09454, 38.71757 ], [ -77.09472, 38.71683 ], [ -77.09626, 38.71562 ], [ -77.09671, 38.71584 ], [ -77.09672, 38.71693 ] ], [ [ -77.09323, 38.72846 ], [ -77.09188, 38.72823 ], [ -77.09259, 38.73061 ], [ -77.09269, 38.73032 ], [ -77.09323, 38.72846 ] ], [ [ -77.09176, 38.72715 ], [ -77.09352, 38.7274 ], [ -77.09411, 38.72448 ], [ -77.09237, 38.72444 ], [ -77.09244, 38.7255 ], [ -77.0914, 38.72555 ], [ -77.09176, 38.72715 ] ], [ [ -77.09079, 38.72164 ], [ -77.09085, 38.72155 ], [ -77.09077, 38.72151 ], [ -77.09079, 38.72164 ] ], [ [ -77.09059, 38.72011 ], [ -77.09323, 38.72088 ], [ -77.0928, 38.72022 ], [ -77.09309, 38.71987 ], [ -77.09391, 38.71983 ], [ -77.09473, 38.72094 ], [ -77.09493, 38.7198 ], [ -77.09148, 38.71946 ], [ -77.09059, 38.72011 ] ], [ [ -77.09147, 38.71818 ], [ -77.09145, 38.71837 ], [ -77.09187, 38.71796 ], [ -77.09147, 38.71818 ] ], [ [ -77.09457, 38.71865 ], [ -77.09507, 38.71872 ], [ -77.09508, 38.71866 ], [ -77.09457, 38.71865 ] ], [ [ -77.09324, 38.71868 ], [ -77.09329, 38.71851 ], [ -77.0931, 38.71867 ], [ -77.09324, 38.71868 ] ], [ [ -77.09739, 38.72564 ], [ -77.09788, 38.725 ], [ -77.09549, 38.72458 ], [ -77.09534, 38.72529 ], [ -77.09739, 38.72564 ] ], [ [ -77.0957, 38.72351 ], [ -77.09834, 38.72393 ], [ -77.09571, 38.72349 ], [ -77.0957, 38.72351 ] ], [ [ -77.09589, 38.72242 ], [ -77.09812, 38.7228 ], [ -77.09821, 38.72203 ], [ -77.09716, 38.72238 ], [ -77.09595, 38.72201 ], [ -77.09589, 38.72242 ] ], [ [ -77.09959, 38.72415 ], [ -77.10043, 38.72488 ], [ -77.09897, 38.72576 ], [ -77.09973, 38.72622 ], [ -77.10041, 38.72558 ], [ -77.10107, 38.72604 ], [ -77.10153, 38.72448 ], [ -77.09959, 38.72415 ] ], [ [ -77.09476, 38.72798 ], [ -77.09472, 38.72808 ], [ -77.09519, 38.72806 ], [ -77.09476, 38.72798 ] ], [ [ -77.09127, 38.73093 ], [ -77.09081, 38.72941 ], [ -77.0906, 38.72924 ], [ -77.09029, 38.73005 ], [ -77.09127, 38.73093 ] ], [ [ -77.09281, 38.73413 ], [ -77.09289, 38.73415 ], [ -77.09281, 38.7341 ], [ -77.09281, 38.73413 ] ], [ [ -77.08941, 38.72173 ], [ -77.08872, 38.72186 ], [ -77.08866, 38.72307 ], [ -77.08938, 38.72316 ], [ -77.08941, 38.72173 ] ], [ [ -77.08955, 38.72424 ], [ -77.08977, 38.72638 ], [ -77.08994, 38.72673 ], [ -77.08955, 38.72424 ] ], [ [ -77.08946, 38.73101 ], [ -77.08956, 38.73103 ], [ -77.08949, 38.73097 ], [ -77.08946, 38.73101 ] ], [ [ -77.09016, 38.7316 ], [ -77.09018, 38.73159 ], [ -77.09017, 38.73158 ], [ -77.09016, 38.7316 ] ], [ [ -77.08647, 38.72949 ], [ -77.08645, 38.72944 ], [ -77.08642, 38.72944 ], [ -77.08647, 38.72949 ] ], [ [ -77.08331, 38.73196 ], [ -77.08335, 38.73195 ], [ -77.08331, 38.73193 ], [ -77.08331, 38.73196 ] ] ] } },
{ "type": "Feature", "properties": { "variant": "T2s", "miles": 1.5 }, "geometry": { "type": "MultiPolygon", "coordinates": [ [ [ [ -77.10319, 38.71556 ], [ -77.1044, 38.71587 ], [ -77.10483, 38.71656 ], [ -77.10396, 38.7169 ], [ -77.1009, 38.7161 ], [ -77.10298, 38.71696 ], [ -77.10264, 38.71768 ], [ -77.1011, 38.7174 ], [ -77.10102, 38.71767 ], [ -77.10276, 38.71788 ], [ -77.1055, 38.71704 ], [ -77.10601, 38.71769 ], [ -77.10438, 38.71857 ], [ -77.10402, 38.71933 ], [ -77.10308, 38.71893 ], [ -77.1007, 38.71892 ], [ -77.10513, 38.71966 ], [ -77.10565, 38.72031 ], [ -77.1045, 38.72212 ], [ -77.10398, 38.7222 ], [ -77.10344, 38.72158 ], [ -77.10295, 38.72197 ], [ -77.10243, 38.72189 ], [ -77.10159, 38.72088 ], [ -77.10142, 38.7217 ], [ -77.10047, 38.72152 ], [ -77.10012, 38.72094 ], [ -77.09986, 38.72164 ], [ -77.10265, 38.72211 ], [ -77.10674, 38.72339 ], [ -77.10614, 38.72303 ], [ -77.10649, 38.72232 ], [ -77.10976, 38.72313 ], [ -77.11016, 38.72383 ], [ -77.10929, 38.72414 ], [ -77.11067, 38.72454 ], [ -77.11107, 38.72524 ], [ -77.11018, 38.72556 ], [ -77.109, 38.72521 ], [ -77.1089, 38.72556 ], [ -77.10998, 38.72573 ], [ -77.11052, 38.72636 ], [ -77.10971, 38.72679 ], [ -77.10702, 38.72636 ], [ -77.10693, 38.7266 ], [ -77.10901, 38.72711 ], [ -77.10883, 38.72783 ], [ -77.10954, 38.72849 ], [ -77.10767, 38.72961 ], [ -77.10672, 38.72943 ], [ -77.10618, 38.7302 ], [ -77.10523, 38.73005 ], [ -77.10458, 38.72927 ], [ -77.10398, 38.73134 ], [ -77.10316, 38.73174 ], [ -77.10105, 38.72953 ], [ -77.10032, 38.72934 ], [ -77.10058, 38.72772 ], [ -77.09754, 38.72735 ], [ -77.09693, 38.7267 ], [ -77.09513, 38.72636 ], [ -77.09502, 38.72692 ], [ -77.09612, 38.72728 ], [ -77.09578, 38.72808 ], [ -77.09736, 38.7283 ], [ -77.09764, 38.72865 ], [ -77.09695, 38.72934 ], [ -77.09435, 38.72947 ], [ -77.09411, 38.73023 ], [ -77.09484, 38.73046 ], [ -77.09618, 38.73018 ], [ -77.09693, 38.73073 ], [ -77.09649, 38.73224 ], [ -77.09552, 38.73225 ], [ -77.09625, 38.73239 ], [ -77.09641, 38.73314 ], [ -77.09486, 38.73321 ], [ -77.09368, 38.73439 ], [ -77.0938, 38.73473 ], [ -77.09451, 38.73422 ], [ -77.09499, 38.7344 ], [ -77.09585, 38.73559 ], [ -77.09505, 38.73603 ], [ -77.0938, 38.73476 ], [ -77.09329, 38.73524 ], [ -77.09244, 38.73517 ], [ -77.09112, 38.73739 ], [ -77.08983, 38.73854 ], [ -77.08977, 38.73934 ], [ -77.08797, 38.74057 ], [ -77.08568, 38.74317 ], [ -77.08507, 38.74445 ], [ -77.08472, 38.74476 ], [ -77.08384, 38.74469 ], [ -77.08346, 38.74402 ], [ -77.0843, 38.74262 ], [ -77.08321, 38.74134 ], [ -77.08353, 38.74079 ], [ -77.08436, 38.74054 ], [ -77.08416, 38.73992 ], [ -77.08553, 38.73824 ], [ -77.08387, 38.73724 ], [ -77.08389, 38.73682 ], [ -77.08427, 38.73654 ], [ -77.08716, 38.73686 ], [ -77.08715, 38.73775 ], [ -77.08795, 38.7391 ], [ -77.08955, 38.73711 ], [ -77.08876, 38.73694 ], [ -77.0884, 38.73634 ], [ -77.08724, 38.7364 ], [ -77.08496, 38.7349 ], [ -77.08496, 38.73414 ], [ -77.08638, 38.73285 ], [ -77.0853, 38.73292 ], [ -77.08525, 38.73369 ], [ -77.08432, 38.73412 ], [ -77.08352, 38.73368 ], [ -77.08389, 38.73301 ], [ -77.08266, 38.73299 ], [ -77.08196, 38.73244 ], [ -77.08239, 38.7308 ], [ -77.0821, 38.72981 ], [ -77.08295, 38.72875 ], [ -77.08446, 38.72823 ], [ -77.08566, 38.72884 ], [ -77.08597, 38.72842 ], [ -77.08533, 38.72779 ], [ -77.08272, 38.72794 ], [ -77.08234, 38.72766 ], [ -77.08254, 38.72707 ], [ -77.08194, 38.72647 ], [ -77.0822, 38.72611 ], [ -77.08494, 38.72574 ], [ -77.08499, 38.72471 ], [ -77.08235, 38.72506 ], [ -77.08212, 38.72432 ], [ -77.08585, 38.72349 ], [ -77.08277, 38.72392 ], [ -77.08157, 38.72348 ], [ -77.08119, 38.72251 ], [ -77.08153, 38.72184 ], [ -77.08411, 38.72178 ], [ -77.08497, 38.72132 ], [ -77.0842, 38.7209 ], [ -77.08451, 38.7203 ], [ -77.08337, 38.72107 ], [ -77.08286, 38.72099 ], [ -77.08263, 38.72034 ], [ -77.08175, 38.72096 ], [ -77.08124, 38.72087 ], [ -77.08108, 38.72012 ], [ -77.08216, 38.71918 ], [ -77.08072, 38.71991 ], [ -77.08002, 38.71937 ], [ -77.08022, 38.71899 ], [ -77.08127, 38.71828 ], [ -77.08326, 38.71794 ], [ -77.08539, 38.71688 ], [ -77.0882, 38.71684 ], [ -77.08765, 38.71487 ], [ -77.08606, 38.71363 ], [ -77.08685, 38.71299 ], [ -77.08776, 38.71317 ], [ -77.08861, 38.71398 ], [ -77.08981, 38.71721 ], [ -77.09474, 38.71682 ], [ -77.09507, 38.71659 ], [ -77.0921, 38.71549 ], [ -77.09125, 38.71412 ], [ -77.0921, 38.71374 ], [ -77.09555, 38.71551 ], [ -77.09628, 38.71074 ], [ -77.09705, 38.71027 ], [ -77.0999, 38.71136 ], [ -77.09938, 38.71318 ], [ -77.10065, 38.7135 ], [ -77.10129, 38.712 ], [ -77.10244, 38.71194 ], [ -77.1022, 38.71388 ], [ -77.10352, 38.71442 ], [ -77.10319, 38.71556 ] ], [ [ -77.09188, 38.72823 ], [ -77.09259, 38.73061 ], [ -77.09269, 38.73032 ], [ -77.09323, 38.72846 ], [ -77.09188, 38.72823 ] ], [ [ -77.09411, 38.72448 ], [ -77.09237, 38.72444 ], [ -77.09244, 38.7255 ], [ -77.0914, 38.72555 ], [ -77.09164, 38.72716 ], [ -77.09355, 38.72726 ], [ -77.09411, 38.72448 ] ], [ [ -77.0928, 38.72022 ], [ -77.0936, 38.71978 ], [ -77.09437, 38.72008 ], [ -77.09473, 38.72094 ], [ -77.09493, 38.7198 ], [ -77.09149, 38.71946 ], [ -77.09052, 38.71985 ], [ -77.09153, 38.7206 ], [ -77.09322, 38.72077 ], [ -77.0928, 38.72022 ] ], [ [ -77.09333, 38.71852 ], [ -77.09329, 38.71851 ], [ -77.0931, 38.71867 ], [ -77.09333, 38.71852 ] ], [ [ -77.09893, 38.71975 ], [ -77.09637, 38.71935 ], [ -77.09618, 38.72069 ], [ -77.09793, 38.72062 ], [ -77.09838, 38.72084 ], [ -77.0984, 38.72167 ], [ -77.09893, 38.71975 ] ], [ [ -77.0994, 38.71852 ], [ -77.09655, 38.718 ], [ -77.09651, 38.71826 ], [ -77.0994, 38.71852 ] ], [ [ -77.09697, 38.71674 ], [ -77.09709, 38.71662 ], [ -77.09676, 38.71667 ], [ -77.09697, 38.71674 ] ], [ [ -77.09755, 38.7144 ], [ -77.09815, 38.71401 ], [ -77.09719, 38.71379 ], [ -77.09755, 38.7144 ] ], [ [ -77.09785, 38.71281 ], [ -77.09742, 38.7123 ], [ -77.09736, 38.7127 ], [ -77.09785, 38.71281 ] ], [ [ -77.09754, 38.71156 ], [ -77.09747, 38.71202 ], [ -77.09769, 38.71178 ], [ -77.09799, 38.71174 ], [ -77.09754, 38.71156 ] ], [ [ -77.10048, 38.71501 ], [ -77.10187, 38.71522 ], [ -77.10201, 38.71497 ], [ -77.10096, 38.7147 ], [ -77.10048, 38.71501 ] ], [ [ -77.10349, 38.72133 ], [ -77.10383, 38.72071 ], [ -77.10364, 38.72084 ], [ -77.10349, 38.72133 ] ], [ [ -77.099, 38.71704 ], [ -77.09819, 38.71732 ], [ -77.09967, 38.71746 ], [ -77.09971, 38.71668 ], [ -77.099, 38.71704 ] ], [ [ -77.09956, 38.72269 ], [ -77.09947, 38.72303 ], [ -77.10165, 38.72339 ], [ -77.10175, 38.72306 ], [ -77.09956, 38.72269 ] ], [ [ -77.10176, 38.7285 ], [ -77.10185, 38.72852 ], [ -77.10293, 38.72495 ], [ -77.10176, 38.7285 ] ], [ [ -77.10551, 38.72613 ], [ -77.10484, 38.72837 ], [ -77.10512, 38.72823 ], [ -77.10551, 38.72613 ] ], [ [ -77.10437, 38.72516 ], [ -77.10429, 38.72514 ], [ -77.10319, 38.72876 ], [ -77.10437, 38.72516 ] ], [ [ -77.10323, 38.72389 ], [ -77.10332, 38.72354 ], [ -77.10306, 38.72343 ], [ -77.10323, 38.72389 ] ], [ [ -77.10601, 38.72511 ], [ -77.10622, 38.7244 ], [ -77.10603, 38.72434 ], [ -77.10601, 38.72511 ] ], [ [ -77.10463, 38.72392 ], [ -77.10459, 38.72409 ], [ -77.10468, 38.7241 ], [ -77.10463, 38.72392 ] ], [ [ -77.10752, 38.72477 ], [ -77.10736, 38.72531 ], [ -77.10755, 38.72534 ], [ -77.10752, 38.72477 ] ], [ [ -77.10299, 38.72985 ], [ -77.10299, 38.72983 ], [ -77.10297, 38.72983 ], [ -77.10299, 38.72985 ] ], [ [ -77.09788, 38.725 ], [ -77.09549, 38.72458 ], [ -77.09534, 38.72529 ], [ -77.09751, 38.72549 ], [ -77.09788, 38.725 ] ], [ [ -77.09658, 38.72364 ], [ -77.09571, 38.72349 ], [ -77.0983, 38.72397 ], [ -77.09658, 38.72364 ] ], [ [ -77.09821, 38.72203 ], [ -77.09701, 38.72238 ], [ -77.09595, 38.72201 ], [ -77.09589, 38.72242 ], [ -77.09812, 38.7228 ], [ -77.09821, 38.72203 ] ], [ [ -77.10043, 38.72488 ], [ -77.09897, 38.72576 ], [ -77.09973, 38.72622 ], [ -77.10041, 38.72558 ], [ -77.10107, 38.72604 ], [ -77.10153, 38.72448 ], [ -77.0996, 38.72419 ], [ -77.10043, 38.72488 ] ], [ [ -77.09508, 38.71866 ], [ -77.09457, 38.71865 ], [ -77.09459, 38.71871 ], [ -77.09508, 38.71866 ] ], [ [ -77.09476, 38.72798 ], [ -77.09472, 38.72808 ], [ -77.09494, 38.72807 ], [ -77.09476, 38.72798 ] ], [ [ -77.08878, 38.7357 ], [ -77.08866, 38.73604 ], [ -77.09049, 38.73601 ], [ -77.08878, 38.7357 ] ], [ [ -77.08771, 38.73458 ], [ -77.08716, 38.73488 ], [ -77.08752, 38.73515 ], [ -77.08771, 38.73458 ] ], [ [ -77.09182, 38.73278 ], [ -77.09131, 38.7323 ], [ -77.09115, 38.73407 ], [ -77.09182, 38.73278 ] ], [ [ -77.08958, 38.73272 ], [ -77.08978, 38.73347 ], [ -77.0893, 38.73371 ], [ -77.08981, 38.7338 ], [ -77.09019, 38.73268 ], [ -77.08958, 38.73272 ] ], [ [ -77.08645, 38.72944 ], [ -77.08642, 38.72944 ], [ -77.08647, 38.72949 ], [ -77.08645, 38.72944 ] ], [ [ -77.08769, 38.72308 ], [ -77.08733, 38.72213 ], [ -77.08709, 38.72304 ], [ -77.08769, 38.72308 ] ], [ [ -77.08928, 38.72065 ], [ -77.08899, 38.71928 ], [ -77.08815, 38.72057 ], [ -77.0864, 38.72077 ], [ -77.08512, 38.72127 ], [ -77.08928, 38.72065 ] ], [ [ -77.08697, 38.71978 ], [ -77.08736, 38.71968 ], [ -77.08858, 38.7179 ], [ -77.08752, 38.71793 ], [ -77.08728, 38.71856 ], [ -77.08636, 38.71855 ], [ -77.08697, 38.71978 ] ], [ [ -77.08582, 38.71791 ], [ -77.08566, 38.71802 ], [ -77.08614, 38.71817 ], [ -77.08582, 38.71791 ] ], [ [ -77.09017, 38.73158 ], [ -77.09016, 38.7316 ], [ -77.09019, 38.7316 ], [ -77.09017, 38.73158 ] ], [ [ -77.08956, 38.73103 ], [ -77.08949, 38.73097 ], [ -77.08946, 38.73101 ], [ -77.08956, 38.73103 ] ], [ [ -77.09127, 38.73093 ], [ -77.0906, 38.72924 ], [ -77.09029, 38.73005 ], [ -77.09127, 38.73093 ] ], [ [ -77.08955, 38.72424 ], [ -77.08951, 38.72424 ], [ -77.08994, 38.72673 ], [ -77.08955, 38.72424 ] ], [ [ -77.08952, 38.7224 ], [ -77.08941, 38.72173 ], [ -77.0887, 38.72198 ], [ -77.08866, 38.72307 ], [ -77.0893, 38.72317 ], [ -77.08952, 38.7224 ] ], [ [ -77.09145, 38.71837 ], [ -77.09187, 38.71796 ], [ -77.09147, 38.71818 ], [ -77.09145, 38.71837 ] ], [ [ -77.09085, 38.72155 ], [ -77.09077, 38.72151 ], [ -77.09079, 38.72164 ], [ -77.09085, 38.72155 ] ], [ [ -77.09289, 38.73415 ], [ -77.09281, 38.7341 ], [ -77.09281, 38.73413 ], [ -77.09289, 38.73415 ] ], [ [ -77.08578, 38.73971 ], [ -77.08565, 38.73994 ], [ -77.08626, 38.74026 ], [ -77.08578, 38.73971 ] ], [ [ -77.08756, 38.7327 ], [ -77.0874, 38.73274 ], [ -77.08789, 38.73271 ], [ -77.08756, 38.7327 ] ], [ [ -77.08331, 38.73193 ], [ -77.08331, 38.73196 ], [ -77.08335, 38.73195 ], [ -77.08331, 38.73193 ] ], [ [ -77.08551, 38.74117 ], [ -77.08463, 38.74071 ], [ -77.08468, 38.74141 ], [ -77.08551, 38.74117 ] ], [ [ -77.08506, 38.7184 ], [ -77.0849, 38.71848 ], [ -77.08498, 38.71858 ], [ -77.08506, 38.7184 ] ], [ [ -77.08502, 38.71897 ], [ -77.08501, 38.71888 ], [ -77.08498, 38.71898 ], [ -77.08502, 38.71897 ] ], [ [ -77.08594, 38.72221 ], [ -77.08524, 38.72247 ], [ -77.08562, 38.72243 ], [ -77.08594, 38.72221 ] ], [ [ -77.08267, 38.72277 ], [ -77.08279, 38.72283 ], [ -77.08298, 38.72279 ], [ -77.08267, 38.72277 ] ] ], [ [ [ -77.09982, 38.73037 ], [ -77.10063, 38.72996 ], [ -77.10131, 38.73022 ], [ -77.10065, 38.73169 ], [ -77.09708, 38.73086 ], [ -77.0973, 38.73012 ], [ -77.09815, 38.72971 ], [ -77.09955, 38.72999 ], [ -77.09982, 38.73037 ] ] ] ] } },
{ "type": "Feature", "properties": { "variant": "T2s", "miles": 2.0 }, "geometry": { "type": "Polygon", "coordinates": [ [ [ -77.10839, 38.71009 ], [ -77.10903, 38.71094 ], [ -77.1087, 38.71157 ], [ -77.10985, 38.71184 ], [ -77.1103, 38.71252 ], [ -77.10834, 38.71371 ], [ -77.10764, 38.7152 ], [ -77.10879, 38.71548 ], [ -77.11033, 38.71328 ], [ -77.11121, 38.7136 ], [ -77.11119, 38.71401 ], [ -77.11012, 38.71581 ], [ -77.11142, 38.7161 ], [ -77.11157, 38.71486 ], [ -77.11254, 38.71483 ], [ -77.1133, 38.71626 ], [ -77.1131, 38.71655 ], [ -77.11438, 38.71703 ], [ -77.11352, 38.71887 ], [ -77.1153, 38.71984 ], [ -77.11477, 38.72049 ], [ -77.11295, 38.71985 ], [ -77.11145, 38.72119 ], [ -77.11429, 38.72204 ], [ -77.11548, 38.72318 ], [ -77.11577, 38.72412 ], [ -77.11665, 38.72411 ], [ -77.11683, 38.72486 ], [ -77.11468, 38.72597 ], [ -77.11325, 38.72535 ], [ -77.11198, 38.72542 ], [ -77.11145, 38.72426 ], [ -77.11034, 38.72445 ], [ -77.11105, 38.72483 ], [ -77.11071, 38.72554 ], [ -77.109, 38.72521 ], [ -77.1089, 38.72556 ], [ -77.11042, 38.72596 ], [ -77.11023, 38.72671 ], [ -77.10702, 38.72636 ], [ -77.10693, 38.7266 ], [ -77.10901, 38.72711 ], [ -77.10883, 38.72783 ], [ -77.10954, 38.72849 ], [ -77.10924, 38.72883 ], [ -77.10767, 38.72961 ], [ -77.10672, 38.72943 ], [ -77.10618, 38.7302 ], [ -77.10567, 38.73028 ], [ -77.10458, 38.72927 ], [ -77.10398, 38.73134 ], [ -77.10316, 38.73174 ], [ -77.10105, 38.72953 ], [ -77.10032, 38.72934 ], [ -77.10058, 38.72772 ], [ -77.09754, 38.72735 ], [ -77.09693, 38.7267 ], [ -77.09513, 38.72636 ], [ -77.09502, 38.72692 ], [ -77.09612, 38.72728 ], [ -77.09578, 38.72808 ], [ -77.09736, 38.7283 ], [ -77.09764, 38.72874 ], [ -77.09695, 38.72934 ], [ -77.09435, 38.72947 ], [ -77.09408, 38.73035 ], [ -77.09609, 38.73017 ], [ -77.09692, 38.7307 ], [ -77.09726, 38.72951 ], [ -77.09809, 38.7291 ], [ -77.09982, 38.73037 ], [ -77.10087, 38.72999 ], [ -77.10142, 38.73062 ], [ -77.10065, 38.73169 ], [ -77.09818, 38.73122 ], [ -77.09781, 38.73257 ], [ -77.09918, 38.73275 ], [ -77.0997, 38.73339 ], [ -77.0994, 38.73373 ], [ -77.09838, 38.73372 ], [ -77.09823, 38.73449 ], [ -77.09586, 38.73539 ], [ -77.09571, 38.7361 ], [ -77.09468, 38.73681 ], [ -77.09532, 38.73781 ], [ -77.09503, 38.73815 ], [ -77.09452, 38.73824 ], [ -77.09355, 38.73742 ], [ -77.09078, 38.73894 ], [ -77.09515, 38.73828 ], [ -77.09607, 38.73874 ], [ -77.09559, 38.74023 ], [ -77.09514, 38.74044 ], [ -77.09386, 38.74015 ], [ -77.09334, 38.74044 ], [ -77.09126, 38.74034 ], [ -77.09271, 38.74146 ], [ -77.09251, 38.74184 ], [ -77.09138, 38.74199 ], [ -77.09365, 38.74491 ], [ -77.09347, 38.74583 ], [ -77.09167, 38.74714 ], [ -77.08989, 38.74607 ], [ -77.08926, 38.74669 ], [ -77.0884, 38.74636 ], [ -77.08784, 38.74685 ], [ -77.08731, 38.74681 ], [ -77.08702, 38.74611 ], [ -77.08662, 38.74709 ], [ -77.08417, 38.74712 ], [ -77.08385, 38.74904 ], [ -77.0845, 38.74969 ], [ -77.08392, 38.75008 ], [ -77.08384, 38.75165 ], [ -77.08196, 38.75172 ], [ -77.08174, 38.75134 ], [ -77.08239, 38.75079 ], [ -77.08234, 38.75011 ], [ -77.0798, 38.75007 ], [ -77.07579, 38.74422 ], [ -77.07433, 38.74474 ], [ -77.07342, 38.74446 ], [ -77.07377, 38.74375 ], [ -77.07596, 38.743 ], [ -77.07473, 38.74083 ], [ -77.07556, 38.74003 ], [ -77.07719, 38.74018 ], [ -77.07809, 38.73984 ], [ -77.07864, 38.73867 ], [ -77.0796, 38.73885 ], [ -77.07949, 38.73991 ], [ -77.08012, 38.74004 ], [ -77.08041, 38.73958 ], [ -77.07991, 38.73885 ], [ -77.08083, 38.73855 ], [ -77.08114, 38.73787 ], [ -77.08288, 38.73818 ], [ -77.08388, 38.7377 ], [ -77.08425, 38.73841 ], [ -77.08374, 38.73945 ], [ -77.0843, 38.73967 ], [ -77.08553, 38.73824 ], [ -77.08387, 38.73724 ], [ -77.08427, 38.73654 ], [ -77.08716, 38.73686 ], [ -77.08715, 38.73775 ], [ -77.08795, 38.7391 ], [ -77.08955, 38.73711 ], [ -77.08876, 38.73694 ], [ -77.0884, 38.73634 ], [ -77.08724, 38.7364 ], [ -77.08496, 38.7349 ], [ -77.08496, 38.73414 ], [ -77.08638, 38.73285 ], [ -77.0853, 38.73292 ], [ -77.08525, 38.73369 ], [ -77.08432, 38.73412 ], [ -77.08352, 38.73368 ], [ -77.08389, 38.73301 ], [ -77.08266, 38.73299 ], [ -77.08196, 38.73244 ], [ -77.08239, 38.7308 ], [ -77.0821, 38.72981 ], [ -77.08295, 38.72875 ], [ -77.08446, 38.72823 ], [ -77.08566, 38.72884 ], [ -77.08597, 38.72842 ], [ -77.08533, 38.72779 ], [ -77.08272, 38.72794 ], [ -77.08234, 38.72766 ], [ -77.08254, 38.72707 ], [ -77.08194, 38.72647 ], [ -77.0822, 38.72611 ], [ -77.08494, 38.72574 ], [ -77.08499, 38.72471 ], [ -77.08235, 38.72506 ], [ -77.08212, 38.72432 ], [ -77.08585, 38.72349 ], [ -77.08277, 38.72392 ], [ -77.08157, 38.72348 ], [ -77.08119, 38.72251 ], [ -77.08153, 38.72184 ], [ -77.08411, 38.72178 ], [ -77.08497, 38.72132 ], [ -77.0842, 38.7209 ], [ -77.08451, 38.7203 ], [ -77.08337, 38.72107 ], [ -77.08286, 38.72099 ], [ -77.08263, 38.72034 ], [ -77.08175, 38.72096 ], [ -77.08124, 38.72087 ], [ -77.08108, 38.72012 ], [ -77.08216, 38.71918 ], [ -77.08072, 38.71991 ], [ -77.08002, 38.71937 ], [ -77.08022, 38.71899 ], [ -77.08127, 38.71828 ], [ -77.08326, 38.71794 ], [ -77.08539, 38.71688 ], [ -77.0882, 38.71684 ], [ -77.08765, 38.71487 ], [ -77.08606, 38.71363 ], [ -77.08676, 38.71108 ], [ -77.08851, 38.71035 ], [ -77.08945, 38.71066 ], [ -77.08886, 38.71146 ], [ -77.09435, 38.71513 ], [ -77.09555, 38.71551 ], [ -77.09643, 38.70991 ], [ -77.09761, 38.70764 ], [ -77.09624, 38.70769 ], [ -77.09516, 38.70698 ], [ -77.09636, 38.70574 ], [ -77.09518, 38.7054 ], [ -77.09377, 38.7055 ], [ -77.09301, 38.70502 ], [ -77.09362, 38.70443 ], [ -77.09535, 38.70433 ], [ -77.09675, 38.70471 ], [ -77.09669, 38.70411 ], [ -77.09744, 38.7035 ], [ -77.09854, 38.70395 ], [ -77.09889, 38.70339 ], [ -77.09833, 38.70254 ], [ -77.09868, 38.70223 ], [ -77.10044, 38.70297 ], [ -77.09995, 38.70416 ], [ -77.10191, 38.70509 ], [ -77.10148, 38.70578 ], [ -77.09989, 38.70535 ], [ -77.10239, 38.70647 ], [ -77.10153, 38.70767 ], [ -77.10254, 38.70693 ], [ -77.10348, 38.7068 ], [ -77.10709, 38.70816 ], [ -77.1077, 38.70915 ], [ -77.1104, 38.70792 ], [ -77.11129, 38.70824 ], [ -77.11135, 38.70882 ], [ -77.10839, 38.71009 ] ], [ [ -77.09443, 38.7356 ], [ -77.09244, 38.73517 ], [ -77.09111, 38.73741 ], [ -77.09443, 38.7356 ] ], [ [ -77.09123, 38.73238 ], [ -77.09138, 38.73412 ], [ -77.09181, 38.73282 ], [ -77.09123, 38.73238 ] ], [ [ -77.09081, 38.72941 ], [ -77.0906, 38.72924 ], [ -77.09029, 38.73005 ], [ -77.09127, 38.73093 ], [ -77.09081, 38.72941 ] ], [ [ -77.08955, 38.72424 ], [ -77.08951, 38.72424 ], [ -77.08994, 38.72673 ], [ -77.08955, 38.72424 ] ], [ [ -77.08872, 38.72186 ], [ -77.08866, 38.72307 ], [ -77.08938, 38.72316 ], [ -77.08941, 38.72173 ], [ -77.08872, 38.72186 ] ], [ [ -77.09323, 38.72088 ], [ -77.0928, 38.72022 ], [ -77.09309, 38.71987 ], [ -77.09391, 38.71983 ], [ -77.09473, 38.72094 ], [ -77.09493, 38.7198 ], [ -77.09148, 38.71946 ], [ -77.09059, 38.72011 ], [ -77.09323, 38.72088 ] ], [ [ -77.09183, 38.71688 ], [ -77.09364, 38.7171 ], [ -77.09507, 38.71659 ], [ -77.09223, 38.71558 ], [ -77.09137, 38.71461 ], [ -77.08776, 38.71222 ], [ -77.08758, 38.71285 ], [ -77.08903, 38.71433 ], [ -77.08985, 38.71713 ], [ -77.09183, 38.71688 ] ], [ [ -77.10176, 38.7285 ], [ -77.10185, 38.72852 ], [ -77.10293, 38.72495 ], [ -77.10176, 38.7285 ] ], [ [ -77.09956, 38.72269 ], [ -77.09947, 38.72303 ], [ -77.10165, 38.72339 ], [ -77.10175, 38.72306 ], [ -77.09956, 38.72269 ] ], [ [ -77.10393, 38.72257 ], [ -77.10674, 38.72339 ], [ -77.1054, 38.72286 ], [ -77.10504, 38.72193 ], [ -77.10669, 38.71977 ], [ -77.10832, 38.7165 ], [ -77.10704, 38.71618 ], [ -77.10578, 38.71938 ], [ -77.10481, 38.71928 ], [ -77.105, 38.71833 ], [ -77.10438, 38.71857 ], [ -77.10402, 38.71933 ], [ -77.10075, 38.71873 ], [ -77.10556, 38.7199 ], [ -77.1045, 38.72212 ], [ -77.10398, 38.7222 ], [ -77.10344, 38.72158 ], [ -77.10295, 38.72197 ], [ -77.10243, 38.72189 ], [ -77.10159, 38.72088 ], [ -77.10173, 38.72137 ], [ -77.1009, 38.72176 ], [ -77.10012, 38.72094 ], [ -77.09986, 38.72164 ], [ -77.10393, 38.72257 ] ], [ [ -77.10494, 38.71712 ], [ -77.10573, 38.71585 ], [ -77.10332, 38.71532 ], [ -77.10319, 38.71556 ], [ -77.1048, 38.71615 ], [ -77.10483, 38.71656 ], [ -77.10396, 38.7169 ], [ -77.1009, 38.7161 ], [ -77.10298, 38.71696 ], [ -77.10264, 38.71768 ], [ -77.1011, 38.7174 ], [ -77.10102, 38.71767 ], [ -77.10234, 38.71788 ], [ -77.10494, 38.71712 ] ], [ [ -77.10048, 38.71501 ], [ -77.10187, 38.71522 ], [ -77.10201, 38.71497 ], [ -77.10096, 38.7147 ], [ -77.10048, 38.71501 ] ], [ [ -77.09994, 38.71304 ], [ -77.09973, 38.7123 ], [ -77.09938, 38.71318 ], [ -77.10065, 38.7135 ], [ -77.10083, 38.71319 ], [ -77.09994, 38.71304 ] ], [ [ -77.10164, 38.71147 ], [ -77.10157, 38.71128 ], [ -77.10151, 38.71143 ], [ -77.10164, 38.71147 ] ], [ [ -77.10279, 38.71099 ], [ -77.10098, 38.70929 ], [ -77.10053, 38.71032 ], [ -77.10122, 38.70987 ], [ -77.10187, 38.71044 ], [ -77.10162, 38.71117 ], [ -77.10233, 38.71078 ], [ -77.10279, 38.71099 ] ], [ [ -77.10755, 38.72534 ], [ -77.1077, 38.72483 ], [ -77.10752, 38.72477 ], [ -77.10755, 38.72534 ] ], [ [ -77.10645, 38.72197 ], [ -77.10643, 38.72205 ], [ -77.10669, 38.72155 ], [ -77.10645, 38.72197 ] ], [ [ -77.10878, 38.7204 ], [ -77.10915, 38.71947 ], [ -77.10803, 38.72006 ], [ -77.10802, 38.72041 ], [ -77.10878, 38.7204 ] ], [ [ -77.10773, 38.71268 ], [ -77.10796, 38.71252 ], [ -77.10756, 38.71242 ], [ -77.10773, 38.71268 ] ], [ [ -77.11327, 38.72281 ], [ -77.11307, 38.72284 ], [ -77.11341, 38.72306 ], [ -77.11327, 38.72281 ] ], [ [ -77.11087, 38.72264 ], [ -77.11112, 38.72234 ], [ -77.11089, 38.72233 ], [ -77.11041, 38.72332 ], [ -77.11087, 38.72264 ] ], [ [ -77.10939, 38.72187 ], [ -77.10825, 38.72149 ], [ -77.10768, 38.72251 ], [ -77.10832, 38.7227 ], [ -77.10797, 38.72201 ], [ -77.10939, 38.72187 ] ], [ [ -77.11088, 38.71876 ], [ -77.11139, 38.7188 ], [ -77.11174, 38.71934 ], [ -77.1121, 38.7187 ], [ -77.11152, 38.7186 ], [ -77.1113, 38.71786 ], [ -77.11288, 38.71763 ], [ -77.11147, 38.71726 ], [ -77.11088, 38.71876 ] ], [ [ -77.10897, 38.71829 ], [ -77.10956, 38.71844 ], [ -77.11015, 38.71694 ], [ -77.10956, 38.71702 ], [ -77.10897, 38.71829 ] ], [ [ -77.10746, 38.71127 ], [ -77.10754, 38.71129 ], [ -77.1075, 38.71124 ], [ -77.10746, 38.71127 ] ], [ [ -77.11009, 38.72095 ], [ -77.11081, 38.71986 ], [ -77.11047, 38.71979 ], [ -77.11009, 38.72095 ] ], [ [ -77.10427, 38.71116 ], [ -77.10578, 38.71021 ], [ -77.10499, 38.70883 ], [ -77.10409, 38.71028 ], [ -77.10427, 38.71116 ] ], [ [ -77.10348, 38.70868 ], [ -77.10273, 38.70876 ], [ -77.10316, 38.70933 ], [ -77.10391, 38.7081 ], [ -77.10349, 38.70795 ], [ -77.10348, 38.70868 ] ], [ [ -77.10527, 38.71215 ], [ -77.10483, 38.71253 ], [ -77.10535, 38.71258 ], [ -77.10527, 38.71215 ] ], [ [ -77.10305, 38.71335 ], [ -77.10221, 38.71389 ], [ -77.10264, 38.714 ], [ -77.10305, 38.71335 ] ], [ [ -77.1046, 38.71344 ], [ -77.10442, 38.71328 ], [ -77.10435, 38.71339 ], [ -77.1046, 38.71344 ] ], [ [ -77.10601, 38.72511 ], [ -77.10622, 38.7244 ], [ -77.10603, 38.72434 ], [ -77.10601, 38.72511 ] ], [ [ -77.10463, 38.72392 ], [ -77.10459, 38.72409 ], [ -77.10468, 38.7241 ], [ -77.10463, 38.72392 ] ], [ [ -77.10323, 38.72389 ], [ -77.10332, 38.72354 ], [ -77.10306, 38.72343 ], [ -77.10323, 38.72389 ] ], [ [ -77.10429, 38.72514 ], [ -77.10319, 38.72876 ], [ -77.10331, 38.72878 ], [ -77.10429, 38.72514 ] ], [ [ -77.10512, 38.72823 ], [ -77.10566, 38.72615 ], [ -77.10551, 38.72613 ], [ -77.10486, 38.72833 ], [ -77.10512, 38.72823 ] ], [ [ -77.10299, 38.72983 ], [ -77.10297, 38.72983 ], [ -77.10299, 38.72985 ], [ -77.10299, 38.72983 ] ], [ [ -77.10322, 38.721 ], [ -77.10349, 38.72133 ], [ -77.10383, 38.72071 ], [ -77.10322, 38.721 ] ], [ [ -77.09852, 38.70549 ], [ -77.0981, 38.70535 ], [ -77.09827, 38.70566 ], [ -77.09838, 38.70612 ], [ -77.09852, 38.70549 ] ], [ [ -77.09747, 38.7049 ], [ -77.09763, 38.70498 ], [ -77.09761, 38.70494 ], [ -77.09747, 38.7049 ] ], [ [ -77.10036, 38.7068 ], [ -77.09972, 38.70655 ], [ -77.09957, 38.7069 ], [ -77.10008, 38.70709 ], [ -77.10036, 38.7068 ] ], [ [ -77.09788, 38.725 ], [ -77.09549, 38.72458 ], [ -77.09534, 38.72529 ], [ -77.09751, 38.72549 ], [ -77.09788, 38.725 ] ], [ [ -77.09658, 38.72364 ], [ -77.09571, 38.72349 ], [ -77.0983, 38.72397 ], [ -77.09658, 38.72364 ] ], [ [ -77.09821, 38.72203 ], [ -77.09701, 38.72238 ], [ -77.09595, 38.72201 ], [ -77.09589, 38.72242 ], [ -77.09812, 38.7228 ], [ -77.09821, 38.72203 ] ], [ [ -77.09893, 38.71975 ], [ -77.09637, 38.71935 ], [ -77.09618, 38.72069 ], [ -77.09793, 38.72062 ], [ -77.09838, 38.72084 ], [ -77.0984, 38.72167 ], [ -77.09893, 38.71975 ] ], [ [ -77.09324, 38.71856 ], [ -77.0931, 38.71867 ], [ -77.09324, 38.71868 ], [ -77.09324, 38.71856 ] ], [ [ -77.10043, 38.72488 ], [ -77.09897, 38.72576 ], [ -77.09973, 38.72622 ], [ -77.10041, 38.72558 ], [ -77.10107, 38.72604 ], [ -77.10153, 38.72448 ], [ -77.09959, 38.72415 ], [ -77.10043, 38.72488 ] ], [ [ -77.09773, 38.71835 ], [ -77.09655, 38.718 ], [ -77.09651, 38.71826 ], [ -77.09931, 38.71851 ], [ -77.09773, 38.71835 ] ], [ [ -77.09676, 38.71667 ], [ -77.09672, 38.71693 ], [ -77.09681, 38.71694 ], [ -77.09676, 38.71667 ] ], [ [ -77.09755, 38.7144 ], [ -77.09815, 38.71401 ], [ -77.09719, 38.71379 ], [ -77.09755, 38.7144 ] ], [ [ -77.09747, 38.71252 ], [ -77.09742, 38.7123 ], [ -77.09736, 38.7127 ], [ -77.09775, 38.71276 ], [ -77.09747, 38.71252 ] ], [ [ -77.09747, 38.71202 ], [ -77.09799, 38.71174 ], [ -77.09754, 38.71156 ], [ -77.09747, 38.71202 ] ], [ [ -77.09897, 38.71705 ], [ -77.09819, 38.71732 ], [ -77.09967, 38.71746 ], [ -77.09966, 38.7167 ], [ -77.09897, 38.71705 ] ], [ [ -77.10028, 38.70836 ], [ -77.09915, 38.70861 ], [ -77.0988, 38.70819 ], [ -77.09771, 38.71042 ], [ -77.09886, 38.71087 ], [ -77.10028, 38.70836 ] ], [ [ -77.09507, 38.71872 ], [ -77.09508, 38.71866 ], [ -77.09457, 38.71865 ], [ -77.09507, 38.71872 ] ], [ [ -77.0925, 38.73032 ], [ -77.09259, 38.73061 ], [ -77.09323, 38.72846 ], [ -77.09188, 38.72823 ], [ -77.0925, 38.73032 ] ], [ [ -77.09411, 38.72448 ], [ -77.09237, 38.72444 ], [ -77.09244, 38.7255 ], [ -77.0914, 38.72555 ], [ -77.09164, 38.72716 ], [ -77.09352, 38.7274 ], [ -77.09411, 38.72448 ] ], [ [ -77.09476, 38.72798 ], [ -77.09472, 38.72808 ], [ -77.09494, 38.72807 ], [ -77.09476, 38.72798 ] ], [ [ -77.09486, 38.73321 ], [ -77.09469, 38.73351 ], [ -77.09605, 38.7338 ], [ -77.0962, 38.73325 ], [ -77.09486, 38.73321 ] ], [ [ -77.09674, 38.73133 ], [ -77.09656, 38.73143 ], [ -77.09669, 38.73152 ], [ -77.09674, 38.73133 ] ], [ [ -77.09639, 38.73257 ], [ -77.09649, 38.73224 ], [ -77.09552, 38.73225 ], [ -77.09639, 38.73257 ] ], [ [ -77.09093, 38.72158 ], [ -77.09077, 38.72151 ], [ -77.09079, 38.72164 ], [ -77.09093, 38.72158 ] ], [ [ -77.09145, 38.71837 ], [ -77.09187, 38.71796 ], [ -77.0914, 38.71823 ], [ -77.09145, 38.71837 ] ], [ [ -77.08899, 38.7424 ], [ -77.08739, 38.74132 ], [ -77.08568, 38.74317 ], [ -77.08562, 38.7439 ], [ -77.08729, 38.74444 ], [ -77.08899, 38.7424 ] ], [ [ -77.08578, 38.73971 ], [ -77.08565, 38.73994 ], [ -77.08626, 38.74026 ], [ -77.08578, 38.73971 ] ], [ [ -77.08468, 38.74141 ], [ -77.0849, 38.74158 ], [ -77.08551, 38.74117 ], [ -77.08466, 38.74073 ], [ -77.08468, 38.74141 ] ], [ [ -77.08645, 38.72944 ], [ -77.08642, 38.72944 ], [ -77.08647, 38.72949 ], [ -77.08645, 38.72944 ] ], [ [ -77.08769, 38.72308 ], [ -77.08733, 38.72213 ], [ -77.08709, 38.72304 ], [ -77.08769, 38.72308 ] ], [ [ -77.08928, 38.72065 ], [ -77.08899, 38.71928 ], [ -77.08815, 38.72057 ], [ -77.0864, 38.72077 ], [ -77.08512, 38.72127 ], [ -77.08928, 38.72065 ] ], [ [ -77.08502, 38.71897 ], [ -77.08501, 38.71888 ], [ -77.08498, 38.71898 ], [ -77.08502, 38.71897 ] ], [ [ -77.08614, 38.71794 ], [ -77.08566, 38.71802 ], [ -77.08613, 38.71814 ], [ -77.08614, 38.71794 ] ], [ [ -77.09045, 38.73607 ], [ -77.09049, 38.73601 ], [ -77.08878, 38.7357 ], [ -77.08866, 38.73604 ], [ -77.09045, 38.73607 ] ], [ [ -77.08771, 38.73458 ], [ -77.08716, 38.73488 ], [ -77.08752, 38.73515 ], [ -77.08771, 38.73458 ] ], [ [ -77.09289, 38.73415 ], [ -77.09281, 38.7341 ], [ -77.09281, 38.73413 ], [ -77.09289, 38.73415 ] ], [ [ -77.08978, 38.73347 ], [ -77.0893, 38.73371 ], [ -77.08981, 38.7338 ], [ -77.09019, 38.73268 ], [ -77.08959, 38.73272 ], [ -77.08978, 38.73347 ] ], [ [ -77.08956, 38.73103 ], [ -77.08949, 38.73097 ], [ -77.08946, 38.73101 ], [ -77.08956, 38.73103 ] ], [ [ -77.09017, 38.73158 ], [ -77.09016, 38.7316 ], [ -77.09019, 38.7316 ], [ -77.09017, 38.73158 ] ], [ [ -77.08752, 38.71793 ], [ -77.08728, 38.71856 ], [ -77.08636, 38.71855 ], [ -77.08697, 38.71978 ], [ -77.08866, 38.71823 ], [ -77.08752, 38.71793 ] ], [ [ -77.08787, 38.73257 ], [ -77.0874, 38.73274 ], [ -77.08789, 38.73271 ], [ -77.08787, 38.73257 ] ], [ [ -77.084, 38.74306 ], [ -77.08166, 38.74384 ], [ -77.0813, 38.74469 ], [ -77.08174, 38.74481 ], [ -77.08252, 38.74422 ], [ -77.08332, 38.74433 ], [ -77.084, 38.74306 ] ], [ [ -77.0871, 38.74595 ], [ -77.08709, 38.74599 ], [ -77.08711, 38.74596 ], [ -77.0871, 38.74595 ] ], [ [ -77.08323, 38.74129 ], [ -77.08373, 38.74066 ], [ -77.08325, 38.74047 ], [ -77.08323, 38.74129 ] ], [ [ -77.08005, 38.74787 ], [ -77.07951, 38.74663 ], [ -77.07907, 38.74675 ], [ -77.08066, 38.7491 ], [ -77.08229, 38.74903 ], [ -77.08005, 38.74787 ] ], [ [ -77.08232, 38.74718 ], [ -77.0824, 38.74729 ], [ -77.08241, 38.74723 ], [ -77.08232, 38.74718 ] ], [ [ -77.08077, 38.74212 ], [ -77.08073, 38.74221 ], [ -77.08076, 38.74219 ], [ -77.08077, 38.74212 ] ], [ [ -77.07985, 38.74105 ], [ -77.07918, 38.74096 ], [ -77.07879, 38.74236 ], [ -77.07985, 38.74105 ] ], [ [ -77.07747, 38.74134 ], [ -77.07629, 38.74116 ], [ -77.07663, 38.74166 ], [ -77.07747, 38.74134 ] ], [ [ -77.0809, 38.74181 ], [ -77.08084, 38.74196 ], [ -77.0809, 38.74192 ], [ -77.0809, 38.74181 ] ], [ [ -77.07961, 38.74412 ], [ -77.0799, 38.74407 ], [ -77.07976, 38.74403 ], [ -77.07961, 38.74412 ] ], [ [ -77.07722, 38.74403 ], [ -77.0785, 38.74591 ], [ -77.07884, 38.74512 ], [ -77.07825, 38.74517 ], [ -77.07734, 38.74368 ], [ -77.07722, 38.74403 ] ], [ [ -77.08062, 38.74292 ], [ -77.08051, 38.74283 ], [ -77.08042, 38.74306 ], [ -77.08062, 38.74292 ] ], [ [ -77.08009, 38.74572 ], [ -77.08006, 38.74566 ], [ -77.07993, 38.74595 ], [ -77.08009, 38.74572 ] ], [ [ -77.08557, 38.72229 ], [ -77.08524, 38.72247 ], [ -77.08593, 38.72236 ], [ -77.08557, 38.72229 ] ], [ [ -77.08331, 38.73193 ], [ -77.08331, 38.73196 ], [ -77.08335, 38.73195 ], [ -77.08331, 38.73193 ] ] ] } }
]
}
