{
"type": "FeatureCollection",
"name": "223",
"crs": { "type": "name", "properties": { "name": "urn:ogc:def:crs:OGC:1.3:CRS84" } },
"xy_coordinate_resolution": 1e-05,
"features": [
{ "type": "Feature", "properties": { "variant": "T0", "miles": 0.5 }, "geometry": { "type": "Polygon", "coordinates": [ [ [ -77.10147, 38.74048 ], [ -77.10227, 38.74272 ], [ -77.10447, 38.74247 ], [ -77.10503, 38.74429 ], [ -77.10408, 38.74447 ], [ -77.1036, 38.74358 ], [ -77.1026, 38.74377 ], [ -77.10319, 38.7457 ], [ -77.10254, 38.74638 ], [ -77.1017, 38.74598 ], [ -77.10158, 38.74508 ], [ -77.10014, 38.74538 ], [ -77.0993, 38.74495 ], [ -77.09846, 38.74511 ], [ -77.09878, 38.74685 ], [ -77.09796, 38.74723 ], [ -77.0965, 38.7472 ], [ -77.09568, 38.74654 ], [ -77.09534, 38.74433 ], [ -77.09493, 38.74398 ], [ -77.09624, 38.7426 ], [ -77.09631, 38.74191 ], [ -77.09602, 38.74168 ], [ -77.09536, 38.74238 ], [ -77.09449, 38.74203 ], [ -77.0949, 38.7408 ], [ -77.09419, 38.74035 ], [ -77.09484, 38.73974 ], [ -77.0943, 38.73883 ], [ -77.09568, 38.73831 ], [ -77.09618, 38.73936 ], [ -77.09743, 38.73963 ], [ -77.09655, 38.738 ], [ -77.09922, 38.73673 ], [ -77.09986, 38.7374 ], [ -77.09962, 38.73785 ], [ -77.10039, 38.73908 ], [ -77.10026, 38.73989 ], [ -77.10147, 38.74048 ] ], [ [ -77.10013, 38.74312 ], [ -77.10093, 38.74298 ], [ -77.10044, 38.7414 ], [ -77.09964, 38.74101 ], [ -77.09937, 38.74139 ], [ -77.10013, 38.74312 ] ] ] } },
{ "type": "Feature", "properties": { "variant": "T0", "miles": 1.0 }, "geometry": { "type": "Polygon", "coordinates": [ [ [ -77.10654, 38.73222 ], [ -77.10555, 38.73402 ], [ -77.1072, 38.73557 ], [ -77.107, 38.73759 ], [ -77.10748, 38.73861 ], [ -77.11006, 38.73789 ], [ -77.11088, 38.73829 ], [ -77.10969, 38.73987 ], [ -77.10892, 38.73952 ], [ -77.10719, 38.73991 ], [ -77.10791, 38.74169 ], [ -77.10861, 38.74208 ], [ -77.10829, 38.74262 ], [ -77.10918, 38.74329 ], [ -77.10955, 38.74445 ], [ -77.10903, 38.7451 ], [ -77.10831, 38.74481 ], [ -77.10553, 38.74535 ], [ -77.10505, 38.74588 ], [ -77.10254, 38.74638 ], [ -77.1017, 38.74598 ], [ -77.10158, 38.74508 ], [ -77.10014, 38.74538 ], [ -77.0993, 38.74495 ], [ -77.09846, 38.74511 ], [ -77.09878, 38.74685 ], [ -77.09796, 38.74723 ], [ -77.0965, 38.7472 ], [ -77.09568, 38.74654 ], [ -77.09534, 38.74433 ], [ -77.09493, 38.74398 ], [ -77.09624, 38.7426 ], [ -77.09631, 38.74191 ], [ -77.09602, 38.74168 ], [ -77.09435, 38.74345 ], [ -77.0943, 38.74455 ], [ -77.09548, 38.74624 ], [ -77.09521, 38.74659 ], [ -77.09424, 38.74647 ], [ -77.09302, 38.74496 ], [ -77.09291, 38.74382 ], [ -77.09211, 38.74365 ], [ -77.09192, 38.74326 ], [ -77.09171, 38.74106 ], [ -77.09354, 38.74084 ], [ -77.09479, 38.74111 ], [ -77.0949, 38.7408 ], [ -77.09386, 38.74015 ], [ -77.09324, 38.74045 ], [ -77.09033, 38.74023 ], [ -77.09021, 38.74128 ], [ -77.08973, 38.74145 ], [ -77.08824, 38.74057 ], [ -77.08732, 38.7411 ], [ -77.08647, 38.74057 ], [ -77.08691, 38.73984 ], [ -77.08635, 38.73864 ], [ -77.0873, 38.73845 ], [ -77.08795, 38.7391 ], [ -77.08861, 38.73827 ], [ -77.09038, 38.7378 ], [ -77.09437, 38.73567 ], [ -77.0933, 38.73525 ], [ -77.09342, 38.73345 ], [ -77.09383, 38.7332 ], [ -77.09612, 38.73382 ], [ -77.09773, 38.73328 ], [ -77.09825, 38.73358 ], [ -77.10157, 38.73197 ], [ -77.10214, 38.73259 ], [ -77.10147, 38.73343 ], [ -77.10172, 38.73372 ], [ -77.10416, 38.73207 ], [ -77.10605, 38.73156 ], [ -77.10654, 38.73222 ] ], [ [ -77.09784, 38.73722 ], [ -77.09761, 38.73687 ], [ -77.09699, 38.73713 ], [ -77.09735, 38.73745 ], [ -77.09784, 38.73722 ] ], [ [ -77.09668, 38.73606 ], [ -77.09724, 38.73557 ], [ -77.09634, 38.73617 ], [ -77.09668, 38.73606 ] ], [ [ -77.10013, 38.74312 ], [ -77.10093, 38.74298 ], [ -77.10044, 38.7414 ], [ -77.09964, 38.74101 ], [ -77.09937, 38.74139 ], [ -77.10013, 38.74312 ] ], [ [ -77.10088, 38.73582 ], [ -77.10156, 38.73551 ], [ -77.10017, 38.73386 ], [ -77.09951, 38.73422 ], [ -77.10088, 38.73582 ] ], [ [ -77.1035, 38.74242 ], [ -77.10346, 38.7425 ], [ -77.1036, 38.74247 ], [ -77.1035, 38.74242 ] ], [ [ -77.10298, 38.74095 ], [ -77.10312, 38.74095 ], [ -77.10315, 38.74092 ], [ -77.10298, 38.74095 ] ], [ [ -77.10266, 38.7399 ], [ -77.10267, 38.73979 ], [ -77.10261, 38.73975 ], [ -77.10266, 38.7399 ] ], [ [ -77.10277, 38.73498 ], [ -77.10351, 38.73458 ], [ -77.1041, 38.73377 ], [ -77.10248, 38.73463 ], [ -77.10277, 38.73498 ] ], [ [ -77.10562, 38.73741 ], [ -77.10577, 38.7357 ], [ -77.10482, 38.73496 ], [ -77.10441, 38.73601 ], [ -77.10549, 38.73618 ], [ -77.10527, 38.73684 ], [ -77.10562, 38.73741 ] ], [ [ -77.10368, 38.73631 ], [ -77.10361, 38.73631 ], [ -77.10362, 38.73633 ], [ -77.10368, 38.73631 ] ], [ [ -77.10351, 38.73869 ], [ -77.10354, 38.73878 ], [ -77.10356, 38.73877 ], [ -77.10351, 38.73869 ] ], [ [ -77.10791, 38.74378 ], [ -77.10789, 38.7437 ], [ -77.10744, 38.74387 ], [ -77.10791, 38.74378 ] ], [ [ -77.10495, 38.74335 ], [ -77.10656, 38.74302 ], [ -77.10494, 38.74333 ], [ -77.10495, 38.74335 ] ], [ [ -77.09443, 38.73848 ], [ -77.09448, 38.73847 ], [ -77.09447, 38.73846 ], [ -77.09443, 38.73848 ] ], [ [ -77.09303, 38.73769 ], [ -77.09365, 38.73759 ], [ -77.09368, 38.73757 ], [ -77.09355, 38.73742 ], [ -77.09303, 38.73769 ] ], [ [ -77.09612, 38.73629 ], [ -77.09484, 38.73698 ], [ -77.09491, 38.73707 ], [ -77.09581, 38.73668 ], [ -77.09612, 38.73629 ] ], [ [ -77.0958, 38.73812 ], [ -77.09594, 38.73783 ], [ -77.0957, 38.73796 ], [ -77.0958, 38.73812 ] ], [ [ -77.09401, 38.74217 ], [ -77.09346, 38.74192 ], [ -77.09344, 38.74213 ], [ -77.09401, 38.74217 ] ], [ [ -77.09218, 38.73815 ], [ -77.09114, 38.7387 ], [ -77.09078, 38.73894 ], [ -77.09221, 38.73881 ], [ -77.09218, 38.73815 ] ] ] } },
{ "type": "Feature", "properties": { "variant": "T0", "miles": 1.5 }, "geometry": { "type": "Polygon", "coordinates": [ [ [ -77.11253, 38.72683 ], [ -77.1123, 38.72795 ], [ -77.11108, 38.72855 ], [ -77.11128, 38.72962 ], [ -77.11053, 38.73003 ], [ -77.11099, 38.7322 ], [ -77.11168, 38.73212 ], [ -77.1125, 38.7335 ], [ -77.11443, 38.73306 ], [ -77.11526, 38.73459 ], [ -77.11607, 38.73429 ], [ -77.11648, 38.73456 ], [ -77.11647, 38.73593 ], [ -77.11576, 38.73622 ], [ -77.11599, 38.73705 ], [ -77.11855, 38.73603 ], [ -77.11949, 38.73624 ], [ -77.11955, 38.73665 ], [ -77.11738, 38.73791 ], [ -77.11742, 38.73879 ], [ -77.11653, 38.73896 ], [ -77.11672, 38.73963 ], [ -77.11768, 38.73998 ], [ -77.11762, 38.74039 ], [ -77.11566, 38.74089 ], [ -77.1155, 38.7415 ], [ -77.11423, 38.74189 ], [ -77.11414, 38.74244 ], [ -77.1131, 38.74241 ], [ -77.11231, 38.74303 ], [ -77.11119, 38.74283 ], [ -77.11073, 38.74364 ], [ -77.10985, 38.74309 ], [ -77.10915, 38.74321 ], [ -77.10955, 38.74445 ], [ -77.10903, 38.7451 ], [ -77.10831, 38.74481 ], [ -77.10553, 38.74535 ], [ -77.10505, 38.74588 ], [ -77.10254, 38.74638 ], [ -77.1017, 38.74598 ], [ -77.10158, 38.74508 ], [ -77.10014, 38.74538 ], [ -77.0993, 38.74495 ], [ -77.09846, 38.74511 ], [ -77.09878, 38.74685 ], [ -77.09796, 38.74723 ], [ -77.0965, 38.7472 ], [ -77.09568, 38.74654 ], [ -77.09534, 38.74433 ], [ -77.09493, 38.74398 ], [ -77.09624, 38.7426 ], [ -77.09602, 38.74168 ], [ -77.09431, 38.74365 ], [ -77.09431, 38.74458 ], [ -77.09536, 38.74584 ], [ -77.09521, 38.74659 ], [ -77.09424, 38.74647 ], [ -77.09358, 38.74567 ], [ -77.09278, 38.74606 ], [ -77.09217, 38.74706 ], [ -77.09131, 38.74705 ], [ -77.09033, 38.74639 ], [ -77.09023, 38.74691 ], [ -77.0889, 38.74717 ], [ -77.08817, 38.74664 ], [ -77.08731, 38.74681 ], [ -77.08711, 38.74596 ], [ -77.08636, 38.74589 ], [ -77.08564, 38.74709 ], [ -77.08411, 38.74711 ], [ -77.08341, 38.74745 ], [ -77.0828, 38.74723 ], [ -77.08282, 38.74613 ], [ -77.0816, 38.74632 ], [ -77.08128, 38.7456 ], [ -77.08194, 38.74484 ], [ -77.083, 38.74502 ], [ -77.084, 38.74306 ], [ -77.08166, 38.74384 ], [ -77.08121, 38.7449 ], [ -77.08034, 38.74525 ], [ -77.07994, 38.74498 ], [ -77.08009, 38.74411 ], [ -77.07819, 38.74324 ], [ -77.07862, 38.74256 ], [ -77.08058, 38.74302 ], [ -77.08049, 38.74238 ], [ -77.0817, 38.74111 ], [ -77.08261, 38.74137 ], [ -77.08233, 38.74245 ], [ -77.08352, 38.74205 ], [ -77.08327, 38.7412 ], [ -77.08436, 38.74054 ], [ -77.08416, 38.73992 ], [ -77.08553, 38.73824 ], [ -77.08387, 38.73724 ], [ -77.08427, 38.73654 ], [ -77.08716, 38.73686 ], [ -77.08765, 38.7389 ], [ -77.08829, 38.73887 ], [ -77.08955, 38.73711 ], [ -77.08876, 38.73694 ], [ -77.0884, 38.73634 ], [ -77.08724, 38.7364 ], [ -77.08484, 38.73469 ], [ -77.08615, 38.73294 ], [ -77.0878, 38.73288 ], [ -77.08806, 38.7335 ], [ -77.08915, 38.73385 ], [ -77.0891, 38.73465 ], [ -77.09029, 38.73486 ], [ -77.0902, 38.73424 ], [ -77.09138, 38.73412 ], [ -77.09164, 38.73344 ], [ -77.09138, 38.73166 ], [ -77.09226, 38.7315 ], [ -77.0926, 38.73058 ], [ -77.09347, 38.73023 ], [ -77.09385, 38.73109 ], [ -77.09487, 38.73118 ], [ -77.09469, 38.73351 ], [ -77.09605, 38.7338 ], [ -77.09726, 38.72951 ], [ -77.09809, 38.7291 ], [ -77.09982, 38.73037 ], [ -77.10063, 38.72996 ], [ -77.10131, 38.73022 ], [ -77.10103, 38.73103 ], [ -77.10165, 38.73175 ], [ -77.10254, 38.73128 ], [ -77.10022, 38.72894 ], [ -77.10104, 38.72686 ], [ -77.10199, 38.72703 ], [ -77.10176, 38.7285 ], [ -77.10441, 38.72915 ], [ -77.10425, 38.73037 ], [ -77.10511, 38.72991 ], [ -77.10441, 38.72879 ], [ -77.10512, 38.72823 ], [ -77.10573, 38.72656 ], [ -77.10668, 38.72674 ], [ -77.10726, 38.72789 ], [ -77.10807, 38.72758 ], [ -77.10911, 38.7279 ], [ -77.1121, 38.72659 ], [ -77.11253, 38.72683 ] ], [ [ -77.09784, 38.73722 ], [ -77.09761, 38.73687 ], [ -77.09699, 38.73713 ], [ -77.09735, 38.73745 ], [ -77.09784, 38.73722 ] ], [ [ -77.09797, 38.73255 ], [ -77.09952, 38.73291 ], [ -77.0995, 38.73145 ], [ -77.09818, 38.73122 ], [ -77.09797, 38.73255 ] ], [ [ -77.10791, 38.74378 ], [ -77.1077, 38.74375 ], [ -77.10744, 38.74387 ], [ -77.10791, 38.74378 ] ], [ [ -77.10656, 38.74302 ], [ -77.10494, 38.74333 ], [ -77.10495, 38.74335 ], [ -77.10656, 38.74302 ] ], [ [ -77.10565, 38.73728 ], [ -77.10591, 38.73596 ], [ -77.10482, 38.73496 ], [ -77.10441, 38.73601 ], [ -77.10549, 38.73618 ], [ -77.10527, 38.73684 ], [ -77.10565, 38.73728 ] ], [ [ -77.10551, 38.73102 ], [ -77.10312, 38.73228 ], [ -77.10351, 38.73273 ], [ -77.10416, 38.73207 ], [ -77.10519, 38.73199 ], [ -77.10551, 38.73102 ] ], [ [ -77.10889, 38.73731 ], [ -77.10914, 38.73733 ], [ -77.10911, 38.73722 ], [ -77.10889, 38.73731 ] ], [ [ -77.10822, 38.73632 ], [ -77.11054, 38.73719 ], [ -77.1115, 38.73677 ], [ -77.114, 38.73511 ], [ -77.1137, 38.73424 ], [ -77.1104, 38.73604 ], [ -77.10822, 38.73632 ] ], [ [ -77.1091, 38.73303 ], [ -77.11076, 38.73239 ], [ -77.10921, 38.73228 ], [ -77.1091, 38.73303 ] ], [ [ -77.10953, 38.72918 ], [ -77.10957, 38.7292 ], [ -77.10955, 38.72917 ], [ -77.10953, 38.72918 ] ], [ [ -77.10713, 38.73743 ], [ -77.10703, 38.7374 ], [ -77.10701, 38.73746 ], [ -77.10713, 38.73743 ] ], [ [ -77.10732, 38.73633 ], [ -77.10784, 38.73633 ], [ -77.10811, 38.73632 ], [ -77.10731, 38.73596 ], [ -77.10732, 38.73633 ] ], [ [ -77.10797, 38.7417 ], [ -77.10756, 38.73977 ], [ -77.10719, 38.73991 ], [ -77.10797, 38.7417 ] ], [ [ -77.10742, 38.73849 ], [ -77.1086, 38.73847 ], [ -77.10854, 38.73828 ], [ -77.10742, 38.73849 ] ], [ [ -77.09973, 38.74102 ], [ -77.09937, 38.74139 ], [ -77.09995, 38.74316 ], [ -77.10093, 38.74298 ], [ -77.10044, 38.7414 ], [ -77.09973, 38.74102 ] ], [ [ -77.10088, 38.73582 ], [ -77.10156, 38.73551 ], [ -77.10017, 38.73386 ], [ -77.09951, 38.73422 ], [ -77.10088, 38.73582 ] ], [ [ -77.10299, 38.72983 ], [ -77.10297, 38.72983 ], [ -77.10299, 38.72985 ], [ -77.10299, 38.72983 ] ], [ [ -77.10197, 38.73288 ], [ -77.10172, 38.73372 ], [ -77.10239, 38.73336 ], [ -77.10197, 38.73288 ] ], [ [ -77.10277, 38.73498 ], [ -77.10349, 38.73462 ], [ -77.10411, 38.73378 ], [ -77.10248, 38.73463 ], [ -77.10277, 38.73498 ] ], [ [ -77.10298, 38.74095 ], [ -77.10312, 38.74095 ], [ -77.10315, 38.74092 ], [ -77.10298, 38.74095 ] ], [ [ -77.10361, 38.73631 ], [ -77.10362, 38.73633 ], [ -77.10368, 38.73631 ], [ -77.10361, 38.73631 ] ], [ [ -77.10266, 38.7399 ], [ -77.10271, 38.73981 ], [ -77.10261, 38.73975 ], [ -77.10266, 38.7399 ] ], [ [ -77.10354, 38.73878 ], [ -77.10356, 38.73877 ], [ -77.10351, 38.73869 ], [ -77.10354, 38.73878 ] ], [ [ -77.10346, 38.7425 ], [ -77.1035, 38.74242 ], [ -77.10342, 38.74237 ], [ -77.10346, 38.7425 ] ], [ [ -77.09217, 38.74287 ], [ -77.09207, 38.74198 ], [ -77.09138, 38.74199 ], [ -77.09217, 38.74287 ] ], [ [ -77.09186, 38.74091 ], [ -77.09479, 38.74111 ], [ -77.0949, 38.7408 ], [ -77.09386, 38.74015 ], [ -77.09334, 38.74044 ], [ -77.09126, 38.74034 ], [ -77.09186, 38.74091 ] ], [ [ -77.09078, 38.73894 ], [ -77.09221, 38.73881 ], [ -77.09218, 38.73815 ], [ -77.09078, 38.73894 ] ], [ [ -77.09111, 38.73741 ], [ -77.09437, 38.73567 ], [ -77.09437, 38.73554 ], [ -77.09244, 38.73517 ], [ -77.09111, 38.73741 ] ], [ [ -77.0958, 38.73812 ], [ -77.09594, 38.73783 ], [ -77.0957, 38.73796 ], [ -77.0958, 38.73812 ] ], [ [ -77.09484, 38.73698 ], [ -77.09581, 38.73668 ], [ -77.09612, 38.73629 ], [ -77.09484, 38.73698 ] ], [ [ -77.09753, 38.73563 ], [ -77.09681, 38.7359 ], [ -77.09634, 38.73617 ], [ -77.09753, 38.73563 ] ], [ [ -77.09447, 38.73846 ], [ -77.09443, 38.73848 ], [ -77.09448, 38.73847 ], [ -77.09447, 38.73846 ] ], [ [ -77.09281, 38.7341 ], [ -77.09281, 38.73413 ], [ -77.09289, 38.73415 ], [ -77.09281, 38.7341 ] ], [ [ -77.09365, 38.73759 ], [ -77.09355, 38.73742 ], [ -77.09303, 38.73769 ], [ -77.09365, 38.73759 ] ], [ [ -77.0929, 38.74385 ], [ -77.09285, 38.74382 ], [ -77.0929, 38.74399 ], [ -77.0929, 38.74385 ] ], [ [ -77.09346, 38.74192 ], [ -77.09401, 38.74217 ], [ -77.09417, 38.74207 ], [ -77.09346, 38.74192 ] ], [ [ -77.08752, 38.73515 ], [ -77.08771, 38.73458 ], [ -77.08716, 38.73488 ], [ -77.08752, 38.73515 ] ], [ [ -77.08729, 38.74444 ], [ -77.08899, 38.7424 ], [ -77.08739, 38.74132 ], [ -77.08568, 38.74317 ], [ -77.08562, 38.7439 ], [ -77.08729, 38.74444 ] ], [ [ -77.08866, 38.73604 ], [ -77.09045, 38.73607 ], [ -77.09049, 38.73601 ], [ -77.08878, 38.7357 ], [ -77.08866, 38.73604 ] ], [ [ -77.08468, 38.74141 ], [ -77.08551, 38.74117 ], [ -77.08463, 38.74071 ], [ -77.08468, 38.74141 ] ], [ [ -77.08578, 38.73971 ], [ -77.08565, 38.73994 ], [ -77.08626, 38.74026 ], [ -77.08647, 38.74008 ], [ -77.08578, 38.73971 ] ] ] } },
{ "type": "Feature", "properties": { "variant": "T2s", "miles": 0.5 }, "geometry": { "type": "Polygon", "coordinates": [ [ [ -77.10147, 38.74048 ], [ -77.10227, 38.74272 ], [ -77.10447, 38.74247 ], [ -77.10503, 38.74429 ], [ -77.10408, 38.74447 ], [ -77.1036, 38.74358 ], [ -77.1026, 38.74377 ], [ -77.10319, 38.7457 ], [ -77.10254, 38.74638 ], [ -77.1017, 38.74598 ], [ -77.10158, 38.74508 ], [ -77.10014, 38.74538 ], [ -77.0993, 38.74495 ], [ -77.09846, 38.74511 ], [ -77.09878, 38.74685 ], [ -77.09796, 38.74723 ], [ -77.0965, 38.7472 ], [ -77.09568, 38.74654 ], [ -77.09534, 38.74433 ], [ -77.09493, 38.74398 ], [ -77.09624, 38.7426 ], [ -77.09631, 38.74191 ], [ -77.09602, 38.74168 ], [ -77.09536, 38.74238 ], [ -77.09449, 38.74203 ], [ -77.0949, 38.7408 ], [ -77.09419, 38.74035 ], [ -77.09484, 38.73974 ], [ -77.0943, 38.73883 ], [ -77.09568, 38.73831 ], [ -77.09618, 38.73936 ], [ -77.09743, 38.73963 ], [ -77.09655, 38.738 ], [ -77.09922, 38.73673 ], [ -77.09986, 38.7374 ], [ -77.09962, 38.73785 ], [ -77.10039, 38.73908 ], [ -77.10026, 38.73989 ], [ -77.10147, 38.74048 ] ], [ [ -77.10013, 38.74312 ], [ -77.10093, 38.74298 ], [ -77.10044, 38.7414 ], [ -77.09964, 38.74101 ], [ -77.09937, 38.74139 ], [ -77.10013, 38.74312 ] ] ] } },
{ "type": "Feature", "properties": { "variant": "T2s", "miles": 1.0 }, "geometry": { "type": "Polygon", "coordinates": [ [ [ -77.10647, 38.73181 ], [ -77.10555, 38.73402 ], [ -77.1072, 38.73557 ], [ -77.107, 38.73759 ], [ -77.10748, 38.73861 ], [ -77.11006, 38.73789 ], [ -77.11088, 38.73829 ], [ -77.10969, 38.73987 ], [ -77.10892, 38.73952 ], [ -77.10719, 38.73991 ], [ -77.10791, 38.74169 ], [ -77.10861, 38.74208 ], [ -77.10829, 38.74262 ], [ -77.10918, 38.74329 ], [ -77.10955, 38.74445 ], [ -77.10903, 38.7451 ], [ -77.10831, 38.74481 ], [ -77.10553, 38.74535 ], [ -77.10505, 38.74588 ], [ -77.10254, 38.74638 ], [ -77.1017, 38.74598 ], [ -77.10158, 38.74508 ], [ -77.10014, 38.74538 ], [ -77.0993, 38.74495 ], [ -77.09846, 38.74511 ], [ -77.09878, 38.74685 ], [ -77.09796, 38.74723 ], [ -77.0965, 38.7472 ], [ -77.09568, 38.74654 ], [ -77.09534, 38.74433 ], [ -77.09493, 38.74398 ], [ -77.09624, 38.7426 ], [ -77.09631, 38.74191 ], [ -77.09602, 38.74168 ], [ -77.09435, 38.74345 ], [ -77.0943, 38.74455 ], [ -77.09548, 38.74624 ], [ -77.09521, 38.74659 ], [ -77.09424, 38.74647 ], [ -77.09302, 38.74496 ], [ -77.09291, 38.74382 ], [ -77.09211, 38.74365 ], [ -77.09192, 38.74326 ], [ -77.09171, 38.74106 ], [ -77.09354, 38.74084 ], [ -77.09479, 38.74111 ], [ -77.0949, 38.7408 ], [ -77.09386, 38.74015 ], [ -77.09324, 38.74045 ], [ -77.09093, 38.74016 ], [ -77.09033, 38.74023 ], [ -77.09021, 38.74128 ], [ -77.08973, 38.74145 ], [ -77.08824, 38.74057 ], [ -77.08732, 38.7411 ], [ -77.08683, 38.74096 ], [ -77.0868, 38.74019 ], [ -77.0881, 38.73918 ], [ -77.10106, 38.73206 ], [ -77.10202, 38.73219 ], [ -77.10147, 38.73343 ], [ -77.10172, 38.73372 ], [ -77.10416, 38.73207 ], [ -77.10472, 38.73215 ], [ -77.10553, 38.73162 ], [ -77.10647, 38.73181 ] ], [ [ -77.09784, 38.73722 ], [ -77.09761, 38.73687 ], [ -77.09699, 38.73713 ], [ -77.09735, 38.73745 ], [ -77.09784, 38.73722 ] ], [ [ -77.10044, 38.7414 ], [ -77.09974, 38.741 ], [ -77.09937, 38.74139 ], [ -77.09995, 38.74316 ], [ -77.10093, 38.74298 ], [ -77.10044, 38.7414 ] ], [ [ -77.10088, 38.73582 ], [ -77.10156, 38.73551 ], [ -77.10017, 38.73386 ], [ -77.09951, 38.73422 ], [ -77.10088, 38.73582 ] ], [ [ -77.1035, 38.74242 ], [ -77.10346, 38.7425 ], [ -77.1036, 38.74247 ], [ -77.1035, 38.74242 ] ], [ [ -77.10298, 38.74095 ], [ -77.10312, 38.74095 ], [ -77.10315, 38.74092 ], [ -77.10298, 38.74095 ] ], [ [ -77.10266, 38.7399 ], [ -77.10267, 38.73979 ], [ -77.10261, 38.73975 ], [ -77.10266, 38.7399 ] ], [ [ -77.10356, 38.73877 ], [ -77.10351, 38.73869 ], [ -77.10354, 38.73878 ], [ -77.10356, 38.73877 ] ], [ [ -77.10362, 38.73633 ], [ -77.10368, 38.73631 ], [ -77.10361, 38.73631 ], [ -77.10362, 38.73633 ] ], [ [ -77.10277, 38.73498 ], [ -77.10411, 38.73378 ], [ -77.10248, 38.73463 ], [ -77.10277, 38.73498 ] ], [ [ -77.10562, 38.73741 ], [ -77.10577, 38.7357 ], [ -77.10482, 38.73496 ], [ -77.10441, 38.73601 ], [ -77.10549, 38.73618 ], [ -77.10527, 38.73684 ], [ -77.10562, 38.73741 ] ], [ [ -77.10791, 38.74378 ], [ -77.10789, 38.7437 ], [ -77.10744, 38.74387 ], [ -77.10791, 38.74378 ] ], [ [ -77.10495, 38.74335 ], [ -77.10656, 38.74302 ], [ -77.10494, 38.74333 ], [ -77.10495, 38.74335 ] ], [ [ -77.09443, 38.73848 ], [ -77.09448, 38.73847 ], [ -77.09447, 38.73846 ], [ -77.09443, 38.73848 ] ], [ [ -77.09484, 38.73698 ], [ -77.09581, 38.73668 ], [ -77.09612, 38.73629 ], [ -77.09484, 38.73698 ] ], [ [ -77.09634, 38.73617 ], [ -77.09753, 38.73563 ], [ -77.09745, 38.73554 ], [ -77.09634, 38.73617 ] ], [ [ -77.0958, 38.73812 ], [ -77.09594, 38.73783 ], [ -77.0957, 38.73796 ], [ -77.0958, 38.73812 ] ], [ [ -77.09346, 38.74192 ], [ -77.09401, 38.74217 ], [ -77.09417, 38.74207 ], [ -77.09346, 38.74192 ] ], [ [ -77.09218, 38.73815 ], [ -77.09114, 38.7387 ], [ -77.09078, 38.73894 ], [ -77.09221, 38.73881 ], [ -77.09218, 38.73815 ] ], [ [ -77.09323, 38.73765 ], [ -77.09355, 38.73742 ], [ -77.09303, 38.73769 ], [ -77.09323, 38.73765 ] ] ] } },
{ "type": "Feature", "properties": { "variant": "T2s", "miles": 1.5 }, "geometry": { "type": "Polygon", "coordinates": [ [ [ -77.11263, 38.72723 ], [ -77.1123, 38.72795 ], [ -77.11108, 38.72855 ], [ -77.11128, 38.72962 ], [ -77.11053, 38.73003 ], [ -77.11099, 38.7322 ], [ -77.11168, 38.73212 ], [ -77.1125, 38.7335 ], [ -77.11443, 38.73306 ], [ -77.11526, 38.73459 ], [ -77.11607, 38.73429 ], [ -77.11648, 38.73456 ], [ -77.11647, 38.73593 ], [ -77.11576, 38.73622 ], [ -77.11599, 38.73705 ], [ -77.11855, 38.73603 ], [ -77.11949, 38.73624 ], [ -77.11955, 38.73665 ], [ -77.11738, 38.73791 ], [ -77.11742, 38.73879 ], [ -77.11653, 38.73896 ], [ -77.11672, 38.73963 ], [ -77.11768, 38.73998 ], [ -77.11762, 38.74039 ], [ -77.11566, 38.74089 ], [ -77.1155, 38.7415 ], [ -77.11423, 38.74189 ], [ -77.11414, 38.74244 ], [ -77.1131, 38.74241 ], [ -77.11231, 38.74303 ], [ -77.11119, 38.74283 ], [ -77.11073, 38.74364 ], [ -77.10985, 38.74309 ], [ -77.10915, 38.74321 ], [ -77.10955, 38.74445 ], [ -77.10903, 38.7451 ], [ -77.10831, 38.74481 ], [ -77.10553, 38.74535 ], [ -77.10505, 38.74588 ], [ -77.10254, 38.74638 ], [ -77.1017, 38.74598 ], [ -77.10158, 38.74508 ], [ -77.10014, 38.74538 ], [ -77.0993, 38.74495 ], [ -77.09846, 38.74511 ], [ -77.09878, 38.74685 ], [ -77.09796, 38.74723 ], [ -77.0965, 38.7472 ], [ -77.09568, 38.74654 ], [ -77.09534, 38.74433 ], [ -77.09493, 38.74398 ], [ -77.09624, 38.7426 ], [ -77.09602, 38.74168 ], [ -77.09431, 38.74365 ], [ -77.09431, 38.74458 ], [ -77.09536, 38.74584 ], [ -77.09521, 38.74659 ], [ -77.09424, 38.74647 ], [ -77.09358, 38.74567 ], [ -77.09278, 38.74606 ], [ -77.09217, 38.74706 ], [ -77.09131, 38.74705 ], [ -77.09033, 38.74639 ], [ -77.09023, 38.74691 ], [ -77.0889, 38.74717 ], [ -77.08817, 38.74664 ], [ -77.08731, 38.74681 ], [ -77.08711, 38.74596 ], [ -77.08636, 38.74589 ], [ -77.08564, 38.74709 ], [ -77.08326, 38.74744 ], [ -77.0828, 38.74723 ], [ -77.08282, 38.74613 ], [ -77.08156, 38.74554 ], [ -77.08156, 38.74513 ], [ -77.08194, 38.74484 ], [ -77.083, 38.74502 ], [ -77.084, 38.74306 ], [ -77.08166, 38.74384 ], [ -77.08087, 38.74521 ], [ -77.07994, 38.74498 ], [ -77.08049, 38.74322 ], [ -77.08352, 38.74205 ], [ -77.08327, 38.7412 ], [ -77.08436, 38.74054 ], [ -77.08416, 38.73992 ], [ -77.08535, 38.73832 ], [ -77.08635, 38.73864 ], [ -77.0873, 38.73845 ], [ -77.08795, 38.7391 ], [ -77.08861, 38.73827 ], [ -77.09038, 38.7378 ], [ -77.11158, 38.72667 ], [ -77.1121, 38.72659 ], [ -77.11263, 38.72723 ] ], [ [ -77.10013, 38.74313 ], [ -77.10093, 38.74298 ], [ -77.10044, 38.7414 ], [ -77.09964, 38.74101 ], [ -77.09937, 38.74139 ], [ -77.10013, 38.74313 ] ], [ [ -77.10791, 38.74378 ], [ -77.10763, 38.74377 ], [ -77.10744, 38.74387 ], [ -77.10791, 38.74378 ] ], [ [ -77.10792, 38.74162 ], [ -77.10796, 38.74086 ], [ -77.10756, 38.73977 ], [ -77.10719, 38.73991 ], [ -77.10792, 38.74162 ] ], [ [ -77.10742, 38.73849 ], [ -77.1086, 38.73847 ], [ -77.10854, 38.73828 ], [ -77.10742, 38.73849 ] ], [ [ -77.10713, 38.73743 ], [ -77.10722, 38.73741 ], [ -77.10701, 38.73746 ], [ -77.10713, 38.73743 ] ], [ [ -77.10732, 38.73633 ], [ -77.10811, 38.73632 ], [ -77.10731, 38.73596 ], [ -77.10732, 38.73633 ] ], [ [ -77.10953, 38.72918 ], [ -77.10957, 38.7292 ], [ -77.10955, 38.72917 ], [ -77.10953, 38.72918 ] ], [ [ -77.1106, 38.73712 ], [ -77.114, 38.73511 ], [ -77.1137, 38.73424 ], [ -77.1104, 38.73604 ], [ -77.10822, 38.73632 ], [ -77.1106, 38.73712 ] ], [ [ -77.1091, 38.73303 ], [ -77.11076, 38.73239 ], [ -77.10921, 38.73228 ], [ -77.1091, 38.73303 ] ], [ [ -77.10889, 38.73731 ], [ -77.10914, 38.73733 ], [ -77.10911, 38.73722 ], [ -77.10889, 38.73731 ] ], [ [ -77.10266, 38.7399 ], [ -77.10267, 38.73979 ], [ -77.10261, 38.73975 ], [ -77.10266, 38.7399 ] ], [ [ -77.10156, 38.73551 ], [ -77.10017, 38.73386 ], [ -77.09951, 38.73422 ], [ -77.10088, 38.73582 ], [ -77.10156, 38.73551 ] ], [ [ -77.10239, 38.73336 ], [ -77.10197, 38.73288 ], [ -77.10147, 38.73343 ], [ -77.10172, 38.73372 ], [ -77.10239, 38.73336 ] ], [ [ -77.10594, 38.73607 ], [ -77.10565, 38.73556 ], [ -77.10482, 38.73496 ], [ -77.10441, 38.73601 ], [ -77.10549, 38.73618 ], [ -77.10527, 38.73684 ], [ -77.10562, 38.73741 ], [ -77.10594, 38.73607 ] ], [ [ -77.1055, 38.73104 ], [ -77.10312, 38.73228 ], [ -77.10351, 38.73273 ], [ -77.10416, 38.73207 ], [ -77.10519, 38.73199 ], [ -77.1055, 38.73104 ] ], [ [ -77.10277, 38.73498 ], [ -77.1041, 38.73377 ], [ -77.10248, 38.73463 ], [ -77.10277, 38.73498 ] ], [ [ -77.10361, 38.73631 ], [ -77.10362, 38.73633 ], [ -77.10368, 38.73631 ], [ -77.10361, 38.73631 ] ], [ [ -77.10298, 38.74095 ], [ -77.10312, 38.74095 ], [ -77.10315, 38.74092 ], [ -77.10298, 38.74095 ] ], [ [ -77.10354, 38.73878 ], [ -77.10356, 38.73877 ], [ -77.10351, 38.73869 ], [ -77.10354, 38.73878 ] ], [ [ -77.10495, 38.74335 ], [ -77.10656, 38.74302 ], [ -77.10494, 38.74333 ], [ -77.10495, 38.74335 ] ], [ [ -77.10346, 38.7425 ], [ -77.1035, 38.74242 ], [ -77.10342, 38.74237 ], [ -77.10346, 38.7425 ] ], [ [ -77.09217, 38.74287 ], [ -77.09207, 38.74198 ], [ -77.09138, 38.74199 ], [ -77.09217, 38.74287 ] ], [ [ -77.09186, 38.74091 ], [ -77.09479, 38.74111 ], [ -77.0949, 38.7408 ], [ -77.09386, 38.74015 ], [ -77.09334, 38.74044 ], [ -77.09126, 38.74034 ], [ -77.09186, 38.74091 ] ], [ [ -77.09221, 38.73881 ], [ -77.09218, 38.73815 ], [ -77.09078, 38.73894 ], [ -77.09221, 38.73881 ] ], [ [ -77.0958, 38.73812 ], [ -77.09594, 38.73783 ], [ -77.0957, 38.73796 ], [ -77.0958, 38.73812 ] ], [ [ -77.09784, 38.73722 ], [ -77.09761, 38.73687 ], [ -77.09699, 38.73713 ], [ -77.09735, 38.73745 ], [ -77.09784, 38.73722 ] ], [ [ -77.09612, 38.73629 ], [ -77.09484, 38.73698 ], [ -77.09491, 38.73707 ], [ -77.09581, 38.73668 ], [ -77.09612, 38.73629 ] ], [ [ -77.09634, 38.73617 ], [ -77.09753, 38.73563 ], [ -77.09745, 38.73554 ], [ -77.09634, 38.73617 ] ], [ [ -77.09443, 38.73848 ], [ -77.09448, 38.73847 ], [ -77.09447, 38.73846 ], [ -77.09443, 38.73848 ] ], [ [ -77.09365, 38.73759 ], [ -77.09355, 38.73742 ], [ -77.09303, 38.73769 ], [ -77.09365, 38.73759 ] ], [ [ -77.0929, 38.74385 ], [ -77.09285, 38.74382 ], [ -77.0929, 38.74399 ], [ -77.0929, 38.74385 ] ], [ [ -77.09346, 38.74192 ], [ -77.09401, 38.74217 ], [ -77.09417, 38.74207 ], [ -77.09346, 38.74192 ] ], [ [ -77.08729, 38.74444 ], [ -77.08899, 38.7424 ], [ -77.08739, 38.74132 ], [ -77.08568, 38.74317 ], [ -77.08562, 38.7439 ], [ -77.08729, 38.74444 ] ], [ [ -77.08468, 38.74141 ], [ -77.08551, 38.74117 ], [ -77.08463, 38.74071 ], [ -77.08468, 38.74141 ] ], [ [ -77.08578, 38.73971 ], [ -77.08626, 38.74026 ], [ -77.08647, 38.74008 ], [ -77.08578, 38.73971 ] ] ] } }
]
}
