{
"type": "FeatureCollection",
"name": "231",
"crs": { "type": "name", "properties": { "name": "urn:ogc:def:crs:OGC:1.3:CRS84" } },
"xy_coordinate_resolution": 1e-05,
"features": [
{ "type": "Feature", "properties": { "variant": "T0", "miles": 1.0 }, "geometry": { "type": "Polygon", "coordinates": [ [ [ -77.07039, 38.7209 ], [ -77.0709, 38.72333 ], [ -77.07395, 38.72389 ], [ -77.07379, 38.72465 ], [ -77.07277, 38.72468 ], [ -77.07263, 38.72534 ], [ -77.07357, 38.72563 ], [ -77.07369, 38.72603 ], [ -77.0729, 38.72922 ], [ -77.07427, 38.72963 ], [ -77.07468, 38.73032 ], [ -77.07379, 38.73064 ], [ -77.07213, 38.73012 ], [ -77.07158, 38.72953 ], [ -77.07102, 38.73004 ], [ -77.07132, 38.73035 ], [ -77.07216, 38.73032 ], [ -77.07243, 38.73082 ], [ -77.07433, 38.73141 ], [ -77.07456, 38.73179 ], [ -77.0736, 38.73287 ], [ -77.0684, 38.73596 ], [ -77.07007, 38.73647 ], [ -77.06982, 38.73721 ], [ -77.06689, 38.73674 ], [ -77.06274, 38.7355 ], [ -77.06273, 38.73509 ], [ -77.06365, 38.73479 ], [ -77.06398, 38.73405 ], [ -77.06456, 38.73383 ], [ -77.06504, 38.73399 ], [ -77.06498, 38.73514 ], [ -77.06542, 38.73525 ], [ -77.06569, 38.73403 ], [ -77.06105, 38.73287 ], [ -77.0601, 38.73349 ], [ -77.05964, 38.73328 ], [ -77.05973, 38.73254 ], [ -77.05701, 38.73169 ], [ -77.05644, 38.73262 ], [ -77.05551, 38.73241 ], [ -77.05604, 38.73045 ], [ -77.05335, 38.72944 ], [ -77.05458, 38.72596 ], [ -77.05054, 38.72461 ], [ -77.05141, 38.72236 ], [ -77.05088, 38.72204 ], [ -77.05122, 38.72132 ], [ -77.05524, 38.72231 ], [ -77.05388, 38.71964 ], [ -77.0544, 38.719 ], [ -77.05754, 38.7196 ], [ -77.05724, 38.72158 ], [ -77.05673, 38.72226 ], [ -77.05752, 38.72297 ], [ -77.05842, 38.71937 ], [ -77.05765, 38.7187 ], [ -77.05846, 38.71827 ], [ -77.06086, 38.71865 ], [ -77.06162, 38.71792 ], [ -77.06275, 38.71835 ], [ -77.06296, 38.71909 ], [ -77.06212, 38.71941 ], [ -77.06156, 38.72157 ], [ -77.06403, 38.72199 ], [ -77.06478, 38.7216 ], [ -77.06533, 38.72217 ], [ -77.06881, 38.72276 ], [ -77.06902, 38.72099 ], [ -77.06965, 38.72041 ], [ -77.07039, 38.7209 ] ], [ [ -77.06692, 38.73492 ], [ -77.06688, 38.73491 ], [ -77.06687, 38.73495 ], [ -77.06692, 38.73492 ] ], [ [ -77.06636, 38.73073 ], [ -77.06623, 38.73078 ], [ -77.06633, 38.73088 ], [ -77.06636, 38.73073 ] ], [ [ -77.0666, 38.72955 ], [ -77.06623, 38.72984 ], [ -77.06652, 38.73 ], [ -77.0666, 38.72955 ] ], [ [ -77.06412, 38.72656 ], [ -77.06408, 38.72656 ], [ -77.06411, 38.72657 ], [ -77.06412, 38.72656 ] ], [ [ -77.06278, 38.72341 ], [ -77.06596, 38.72372 ], [ -77.06584, 38.72575 ], [ -77.06745, 38.72622 ], [ -77.06803, 38.72373 ], [ -77.06721, 38.72507 ], [ -77.06669, 38.72514 ], [ -77.06616, 38.72449 ], [ -77.06644, 38.72347 ], [ -77.06293, 38.72291 ], [ -77.06278, 38.72341 ] ], [ [ -77.07, 38.73038 ], [ -77.07053, 38.72839 ], [ -77.06876, 38.72803 ], [ -77.06797, 38.72969 ], [ -77.06857, 38.7295 ], [ -77.07, 38.73038 ] ], [ [ -77.06948, 38.72522 ], [ -77.06914, 38.72496 ], [ -77.06888, 38.726 ], [ -77.0693, 38.72605 ], [ -77.06948, 38.72522 ] ], [ [ -77.07123, 38.72537 ], [ -77.07082, 38.72531 ], [ -77.07079, 38.72563 ], [ -77.07115, 38.7257 ], [ -77.07123, 38.72537 ] ], [ [ -77.07157, 38.73246 ], [ -77.07143, 38.73261 ], [ -77.07172, 38.73245 ], [ -77.07157, 38.73246 ] ], [ [ -77.06694, 38.72847 ], [ -77.06692, 38.72845 ], [ -77.06689, 38.72845 ], [ -77.06694, 38.72847 ] ], [ [ -77.06807, 38.73467 ], [ -77.06845, 38.73449 ], [ -77.0682, 38.73391 ], [ -77.06807, 38.73467 ] ], [ [ -77.06365, 38.72444 ], [ -77.06353, 38.72437 ], [ -77.06349, 38.72437 ], [ -77.06365, 38.72444 ] ], [ [ -77.0629, 38.73223 ], [ -77.06246, 38.73192 ], [ -77.06238, 38.73189 ], [ -77.0629, 38.73223 ] ], [ [ -77.06414, 38.73111 ], [ -77.06528, 38.72902 ], [ -77.0637, 38.72897 ], [ -77.06332, 38.72844 ], [ -77.05926, 38.72631 ], [ -77.05884, 38.7272 ], [ -77.06051, 38.72799 ], [ -77.06053, 38.7284 ], [ -77.05973, 38.72871 ], [ -77.06019, 38.72997 ], [ -77.06414, 38.73111 ] ], [ [ -77.05802, 38.72583 ], [ -77.05835, 38.72544 ], [ -77.05736, 38.72407 ], [ -77.05572, 38.7236 ], [ -77.05526, 38.72497 ], [ -77.05802, 38.72583 ] ], [ [ -77.06531, 38.73167 ], [ -77.06613, 38.73182 ], [ -77.06617, 38.73164 ], [ -77.06576, 38.73175 ], [ -77.06531, 38.73167 ] ], [ [ -77.06592, 38.73295 ], [ -77.06426, 38.73246 ], [ -77.06421, 38.73258 ], [ -77.06509, 38.73279 ], [ -77.06592, 38.73295 ] ], [ [ -77.05977, 38.71958 ], [ -77.05871, 38.72382 ], [ -77.05914, 38.72449 ], [ -77.06062, 38.71972 ], [ -77.05977, 38.71958 ] ], [ [ -77.06107, 38.72352 ], [ -77.06088, 38.72426 ], [ -77.0617, 38.72384 ], [ -77.06107, 38.72352 ] ], [ [ -77.06122, 38.72301 ], [ -77.06155, 38.72279 ], [ -77.06158, 38.72268 ], [ -77.06133, 38.72264 ], [ -77.06122, 38.72301 ] ], [ [ -77.05554, 38.72022 ], [ -77.05567, 38.72047 ], [ -77.05599, 38.721 ], [ -77.05615, 38.72032 ], [ -77.05554, 38.72022 ] ] ] } },
{ "type": "Feature", "properties": { "variant": "T0", "miles": 1.5 }, "geometry": { "type": "Polygon", "coordinates": [ [ [ -77.07907, 38.72172 ], [ -77.07904, 38.72334 ], [ -77.07864, 38.72414 ], [ -77.07776, 38.72442 ], [ -77.07754, 38.72598 ], [ -77.07933, 38.72665 ], [ -77.08017, 38.72978 ], [ -77.07887, 38.73061 ], [ -77.07913, 38.73105 ], [ -77.07845, 38.7316 ], [ -77.07774, 38.73126 ], [ -77.0764, 38.72911 ], [ -77.07551, 38.72951 ], [ -77.07404, 38.72939 ], [ -77.07466, 38.72991 ], [ -77.07432, 38.73063 ], [ -77.07229, 38.73019 ], [ -77.07158, 38.72953 ], [ -77.07102, 38.73004 ], [ -77.07132, 38.73035 ], [ -77.07216, 38.73032 ], [ -77.07243, 38.73082 ], [ -77.07433, 38.73141 ], [ -77.07438, 38.73218 ], [ -77.0684, 38.73596 ], [ -77.07088, 38.73653 ], [ -77.07225, 38.73551 ], [ -77.0728, 38.73551 ], [ -77.07307, 38.73444 ], [ -77.07443, 38.73385 ], [ -77.07553, 38.73407 ], [ -77.07638, 38.73507 ], [ -77.07685, 38.73656 ], [ -77.07364, 38.73753 ], [ -77.07438, 38.73848 ], [ -77.07524, 38.73805 ], [ -77.07543, 38.73727 ], [ -77.07595, 38.7372 ], [ -77.07683, 38.73801 ], [ -77.07664, 38.73875 ], [ -77.07513, 38.73951 ], [ -77.07605, 38.74115 ], [ -77.07519, 38.74152 ], [ -77.07387, 38.73995 ], [ -77.07182, 38.74048 ], [ -77.07138, 38.74024 ], [ -77.07136, 38.74154 ], [ -77.0721, 38.74206 ], [ -77.07141, 38.74262 ], [ -77.07124, 38.74356 ], [ -77.07027, 38.74358 ], [ -77.06997, 38.74138 ], [ -77.06965, 38.74136 ], [ -77.06933, 38.74207 ], [ -77.06871, 38.74232 ], [ -77.06946, 38.74252 ], [ -77.0693, 38.74327 ], [ -77.06661, 38.7435 ], [ -77.06632, 38.74277 ], [ -77.06729, 38.74234 ], [ -77.06678, 38.74136 ], [ -77.06573, 38.74114 ], [ -77.06577, 38.74067 ], [ -77.06454, 38.74062 ], [ -77.06404, 38.74008 ], [ -77.06039, 38.74085 ], [ -77.05997, 38.74016 ], [ -77.06104, 38.73962 ], [ -77.06121, 38.73873 ], [ -77.06329, 38.73814 ], [ -77.06277, 38.73756 ], [ -77.06304, 38.7372 ], [ -77.06499, 38.73685 ], [ -77.06613, 38.73759 ], [ -77.06627, 38.73702 ], [ -77.06705, 38.73678 ], [ -77.06382, 38.73598 ], [ -77.06315, 38.73694 ], [ -77.06195, 38.73745 ], [ -77.06135, 38.73684 ], [ -77.0625, 38.73566 ], [ -77.05812, 38.73451 ], [ -77.05785, 38.73514 ], [ -77.05885, 38.73587 ], [ -77.05857, 38.73657 ], [ -77.05663, 38.73678 ], [ -77.05536, 38.73622 ], [ -77.05465, 38.7381 ], [ -77.05519, 38.73822 ], [ -77.05528, 38.73898 ], [ -77.05332, 38.73914 ], [ -77.05312, 38.73838 ], [ -77.0545, 38.73473 ], [ -77.0517, 38.73446 ], [ -77.05121, 38.7331 ], [ -77.04707, 38.73272 ], [ -77.04856, 38.72921 ], [ -77.0462, 38.72853 ], [ -77.04581, 38.72824 ], [ -77.04594, 38.7275 ], [ -77.04478, 38.72699 ], [ -77.04476, 38.72657 ], [ -77.04512, 38.72627 ], [ -77.0463, 38.72646 ], [ -77.04637, 38.72598 ], [ -77.04798, 38.72554 ], [ -77.0477, 38.72494 ], [ -77.04666, 38.72462 ], [ -77.04547, 38.725 ], [ -77.04504, 38.72284 ], [ -77.04322, 38.72211 ], [ -77.04309, 38.72171 ], [ -77.04356, 38.72131 ], [ -77.04443, 38.7214 ], [ -77.04469, 38.71999 ], [ -77.04566, 38.72001 ], [ -77.04585, 38.72044 ], [ -77.04848, 38.71993 ], [ -77.04779, 38.71942 ], [ -77.04797, 38.71903 ], [ -77.0495, 38.71891 ], [ -77.04613, 38.71752 ], [ -77.04643, 38.71679 ], [ -77.04695, 38.71675 ], [ -77.04963, 38.71775 ], [ -77.04681, 38.71641 ], [ -77.04685, 38.71565 ], [ -77.04797, 38.71559 ], [ -77.05094, 38.71707 ], [ -77.05771, 38.71816 ], [ -77.05862, 38.71595 ], [ -77.05939, 38.71526 ], [ -77.05879, 38.71514 ], [ -77.05857, 38.71439 ], [ -77.06187, 38.71363 ], [ -77.06162, 38.71146 ], [ -77.06224, 38.71087 ], [ -77.06299, 38.71136 ], [ -77.06317, 38.71288 ], [ -77.06501, 38.71277 ], [ -77.06551, 38.7129 ], [ -77.06579, 38.71359 ], [ -77.06702, 38.71368 ], [ -77.06709, 38.71444 ], [ -77.06592, 38.71467 ], [ -77.06602, 38.71545 ], [ -77.06816, 38.7157 ], [ -77.07008, 38.71678 ], [ -77.07088, 38.71577 ], [ -77.07222, 38.71564 ], [ -77.07907, 38.72172 ] ], [ [ -77.06569, 38.73403 ], [ -77.06412, 38.73369 ], [ -77.06504, 38.73399 ], [ -77.06498, 38.73514 ], [ -77.06543, 38.7352 ], [ -77.06569, 38.73403 ] ], [ [ -77.06426, 38.73246 ], [ -77.06421, 38.73258 ], [ -77.06592, 38.73295 ], [ -77.06426, 38.73246 ] ], [ [ -77.06536, 38.7316 ], [ -77.0653, 38.73169 ], [ -77.06613, 38.73182 ], [ -77.06536, 38.7316 ] ], [ [ -77.06623, 38.73078 ], [ -77.06633, 38.73088 ], [ -77.06636, 38.73073 ], [ -77.06623, 38.73078 ] ], [ [ -77.06623, 38.72984 ], [ -77.06652, 38.73 ], [ -77.0666, 38.72955 ], [ -77.06623, 38.72984 ] ], [ [ -77.06803, 38.72373 ], [ -77.06721, 38.72507 ], [ -77.06669, 38.72514 ], [ -77.06616, 38.72449 ], [ -77.06644, 38.72347 ], [ -77.06293, 38.72291 ], [ -77.06264, 38.72346 ], [ -77.06367, 38.7233 ], [ -77.06596, 38.72372 ], [ -77.06584, 38.72575 ], [ -77.06721, 38.72615 ], [ -77.06803, 38.72373 ] ], [ [ -77.06435, 38.72031 ], [ -77.06441, 38.72 ], [ -77.06371, 38.71963 ], [ -77.06269, 38.72004 ], [ -77.06252, 38.72064 ], [ -77.06435, 38.72031 ] ], [ [ -77.06072, 38.71495 ], [ -77.06072, 38.71497 ], [ -77.06197, 38.7148 ], [ -77.06072, 38.71495 ] ], [ [ -77.07, 38.73038 ], [ -77.07053, 38.72999 ], [ -77.07019, 38.72942 ], [ -77.07053, 38.72839 ], [ -77.06876, 38.72803 ], [ -77.06797, 38.72969 ], [ -77.06857, 38.7295 ], [ -77.07, 38.73038 ] ], [ [ -77.06914, 38.72496 ], [ -77.06888, 38.726 ], [ -77.0693, 38.72605 ], [ -77.06948, 38.72522 ], [ -77.06914, 38.72496 ] ], [ [ -77.06903, 38.72179 ], [ -77.06911, 38.72195 ], [ -77.06912, 38.72194 ], [ -77.06903, 38.72179 ] ], [ [ -77.06894, 38.72063 ], [ -77.06833, 38.72053 ], [ -77.06858, 38.72076 ], [ -77.06894, 38.72063 ] ], [ [ -77.06979, 38.7187 ], [ -77.06916, 38.71846 ], [ -77.06941, 38.71774 ], [ -77.06804, 38.7169 ], [ -77.0674, 38.7171 ], [ -77.06682, 38.7165 ], [ -77.06612, 38.71653 ], [ -77.06598, 38.71915 ], [ -77.06653, 38.71893 ], [ -77.06665, 38.71816 ], [ -77.06716, 38.71807 ], [ -77.06779, 38.7183 ], [ -77.06768, 38.71947 ], [ -77.06947, 38.7195 ], [ -77.06979, 38.7187 ] ], [ [ -77.07332, 38.71819 ], [ -77.07176, 38.71805 ], [ -77.07192, 38.71834 ], [ -77.07332, 38.71819 ] ], [ [ -77.07492, 38.72466 ], [ -77.07469, 38.72472 ], [ -77.07542, 38.72481 ], [ -77.07492, 38.72466 ] ], [ [ -77.07639, 38.72202 ], [ -77.07635, 38.72198 ], [ -77.07632, 38.72208 ], [ -77.07639, 38.72202 ] ], [ [ -77.07881, 38.72947 ], [ -77.07878, 38.72928 ], [ -77.07872, 38.7294 ], [ -77.07881, 38.72947 ] ], [ [ -77.07321, 38.72853 ], [ -77.07338, 38.72845 ], [ -77.07305, 38.72854 ], [ -77.07321, 38.72853 ] ], [ [ -77.0762, 38.72769 ], [ -77.07621, 38.7277 ], [ -77.07622, 38.72769 ], [ -77.0762, 38.72769 ] ], [ [ -77.07739, 38.72829 ], [ -77.07735, 38.72832 ], [ -77.07739, 38.72834 ], [ -77.07739, 38.72829 ] ], [ [ -77.07143, 38.717 ], [ -77.07205, 38.71693 ], [ -77.07189, 38.71671 ], [ -77.07143, 38.717 ] ], [ [ -77.07123, 38.72537 ], [ -77.07082, 38.72531 ], [ -77.07079, 38.72563 ], [ -77.07115, 38.7257 ], [ -77.07123, 38.72537 ] ], [ [ -77.07143, 38.73261 ], [ -77.07172, 38.73245 ], [ -77.07157, 38.73246 ], [ -77.07143, 38.73261 ] ], [ [ -77.07308, 38.73903 ], [ -77.07317, 38.739 ], [ -77.07312, 38.73894 ], [ -77.07308, 38.73903 ] ], [ [ -77.0726, 38.73829 ], [ -77.07266, 38.73831 ], [ -77.07265, 38.7383 ], [ -77.0726, 38.73829 ] ], [ [ -77.07011, 38.73747 ], [ -77.06862, 38.73712 ], [ -77.06907, 38.73834 ], [ -77.06905, 38.74037 ], [ -77.07, 38.7403 ], [ -77.07011, 38.73747 ] ], [ [ -77.0714, 38.73961 ], [ -77.07134, 38.7395 ], [ -77.07136, 38.73975 ], [ -77.0714, 38.73961 ] ], [ [ -77.06845, 38.73449 ], [ -77.0682, 38.73391 ], [ -77.0681, 38.73463 ], [ -77.06845, 38.73449 ] ], [ [ -77.06688, 38.73491 ], [ -77.06687, 38.73495 ], [ -77.06692, 38.73492 ], [ -77.06688, 38.73491 ] ], [ [ -77.06563, 38.72086 ], [ -77.0664, 38.72031 ], [ -77.06577, 38.72022 ], [ -77.06563, 38.72086 ] ], [ [ -77.06694, 38.72847 ], [ -77.06698, 38.72838 ], [ -77.06692, 38.72845 ], [ -77.06694, 38.72847 ] ], [ [ -77.06762, 38.74004 ], [ -77.06758, 38.74003 ], [ -77.06762, 38.74011 ], [ -77.06762, 38.74004 ] ], [ [ -77.06727, 38.73943 ], [ -77.06735, 38.73929 ], [ -77.06722, 38.73934 ], [ -77.06727, 38.73943 ] ], [ [ -77.06347, 38.71579 ], [ -77.06359, 38.71674 ], [ -77.06464, 38.7171 ], [ -77.06473, 38.71618 ], [ -77.06409, 38.71637 ], [ -77.06347, 38.71579 ] ], [ [ -77.06462, 38.71874 ], [ -77.06461, 38.71858 ], [ -77.06449, 38.71863 ], [ -77.06462, 38.71874 ] ], [ [ -77.06385, 38.71858 ], [ -77.06371, 38.71846 ], [ -77.06373, 38.71866 ], [ -77.06385, 38.71858 ] ], [ [ -77.0641, 38.72149 ], [ -77.06412, 38.72143 ], [ -77.06393, 38.72146 ], [ -77.0641, 38.72149 ] ], [ [ -77.05832, 38.73212 ], [ -77.05701, 38.73169 ], [ -77.05651, 38.73299 ], [ -77.05748, 38.73322 ], [ -77.05832, 38.73212 ] ], [ [ -77.05835, 38.72544 ], [ -77.05736, 38.72407 ], [ -77.05572, 38.7236 ], [ -77.05526, 38.72497 ], [ -77.05802, 38.72583 ], [ -77.05835, 38.72544 ] ], [ [ -77.05842, 38.71937 ], [ -77.05782, 38.71928 ], [ -77.05673, 38.72226 ], [ -77.05705, 38.72283 ], [ -77.05752, 38.72297 ], [ -77.05842, 38.71937 ] ], [ [ -77.05402, 38.72006 ], [ -77.05365, 38.72007 ], [ -77.05474, 38.72217 ], [ -77.05524, 38.72231 ], [ -77.05402, 38.72006 ] ], [ [ -77.05238, 38.72149 ], [ -77.05297, 38.72166 ], [ -77.05264, 38.72109 ], [ -77.05238, 38.72149 ] ], [ [ -77.05165, 38.71825 ], [ -77.05145, 38.71823 ], [ -77.05184, 38.71829 ], [ -77.05165, 38.71825 ] ], [ [ -77.06213, 38.73315 ], [ -77.06219, 38.73367 ], [ -77.06175, 38.73393 ], [ -77.06187, 38.73436 ], [ -77.06267, 38.73456 ], [ -77.0631, 38.73343 ], [ -77.06213, 38.73315 ] ], [ [ -77.06246, 38.73192 ], [ -77.06238, 38.73189 ], [ -77.0629, 38.73223 ], [ -77.06246, 38.73192 ] ], [ [ -77.06528, 38.72902 ], [ -77.0637, 38.72897 ], [ -77.06332, 38.72844 ], [ -77.05926, 38.72631 ], [ -77.05884, 38.7272 ], [ -77.06051, 38.72799 ], [ -77.06053, 38.7284 ], [ -77.05973, 38.72871 ], [ -77.06019, 38.72997 ], [ -77.0629, 38.73089 ], [ -77.06421, 38.73098 ], [ -77.06528, 38.72902 ] ], [ [ -77.06412, 38.72656 ], [ -77.06408, 38.72656 ], [ -77.06411, 38.72657 ], [ -77.06412, 38.72656 ] ], [ [ -77.06365, 38.72444 ], [ -77.06366, 38.72439 ], [ -77.06349, 38.72437 ], [ -77.06365, 38.72444 ] ], [ [ -77.05977, 38.71958 ], [ -77.05871, 38.72382 ], [ -77.05914, 38.72449 ], [ -77.06062, 38.71972 ], [ -77.05977, 38.71958 ] ], [ [ -77.06078, 38.71862 ], [ -77.06071, 38.71863 ], [ -77.06086, 38.71865 ], [ -77.06078, 38.71862 ] ], [ [ -77.0595, 38.71727 ], [ -77.05942, 38.71744 ], [ -77.05965, 38.71748 ], [ -77.0595, 38.71727 ] ], [ [ -77.06087, 38.71707 ], [ -77.06081, 38.71728 ], [ -77.06092, 38.71711 ], [ -77.06087, 38.71707 ] ], [ [ -77.05988, 38.73385 ], [ -77.05963, 38.73324 ], [ -77.05943, 38.73374 ], [ -77.05988, 38.73385 ] ], [ [ -77.06088, 38.72426 ], [ -77.0617, 38.72384 ], [ -77.06107, 38.72352 ], [ -77.06088, 38.72426 ] ], [ [ -77.06133, 38.72264 ], [ -77.06122, 38.72301 ], [ -77.06137, 38.72286 ], [ -77.06133, 38.72264 ] ], [ [ -77.05646, 38.71909 ], [ -77.05522, 38.7189 ], [ -77.05522, 38.71907 ], [ -77.05646, 38.71909 ] ], [ [ -77.05367, 38.71898 ], [ -77.05384, 38.71898 ], [ -77.05385, 38.71869 ], [ -77.05325, 38.71859 ], [ -77.05367, 38.71898 ] ], [ [ -77.05567, 38.72047 ], [ -77.05599, 38.721 ], [ -77.05615, 38.72032 ], [ -77.05567, 38.72047 ] ], [ [ -77.05157, 38.72516 ], [ -77.05142, 38.7251 ], [ -77.05166, 38.72551 ], [ -77.05191, 38.72526 ], [ -77.05157, 38.72516 ] ], [ [ -77.0552, 38.73021 ], [ -77.05505, 38.73016 ], [ -77.05511, 38.73025 ], [ -77.0552, 38.73021 ] ], [ [ -77.05676, 38.73493 ], [ -77.0568, 38.73419 ], [ -77.05616, 38.73404 ], [ -77.05596, 38.7346 ], [ -77.05676, 38.73493 ] ], [ [ -77.05496, 38.73258 ], [ -77.05521, 38.73265 ], [ -77.05527, 38.73248 ], [ -77.05496, 38.73258 ] ], [ [ -77.05263, 38.73356 ], [ -77.0547, 38.73365 ], [ -77.05319, 38.73327 ], [ -77.05263, 38.73356 ] ], [ [ -77.05077, 38.72371 ], [ -77.05141, 38.72236 ], [ -77.05067, 38.72215 ], [ -77.05013, 38.72331 ], [ -77.05077, 38.72371 ] ], [ [ -77.04582, 38.72115 ], [ -77.04581, 38.72161 ], [ -77.04615, 38.7215 ], [ -77.04582, 38.72115 ] ], [ [ -77.05098, 38.72109 ], [ -77.05107, 38.72111 ], [ -77.05101, 38.72108 ], [ -77.05098, 38.72109 ] ], [ [ -77.05074, 38.71923 ], [ -77.05068, 38.71922 ], [ -77.05071, 38.71923 ], [ -77.05074, 38.71923 ] ], [ [ -77.04803, 38.72767 ], [ -77.04776, 38.72783 ], [ -77.04818, 38.72795 ], [ -77.04803, 38.72767 ] ], [ [ -77.04989, 38.7319 ], [ -77.04991, 38.7319 ], [ -77.04991, 38.73189 ], [ -77.04989, 38.7319 ] ], [ [ -77.0516, 38.73205 ], [ -77.05139, 38.73188 ], [ -77.05132, 38.73203 ], [ -77.0516, 38.73205 ] ], [ [ -77.06528, 38.7385 ], [ -77.06527, 38.73848 ], [ -77.0652, 38.73852 ], [ -77.06528, 38.7385 ] ] ] } },
{ "type": "Feature", "properties": { "variant": "T0", "miles": 2.0 }, "geometry": { "type": "Polygon", "coordinates": [ [ [ -77.07919, 38.72291 ], [ -77.07864, 38.72414 ], [ -77.07776, 38.72442 ], [ -77.07754, 38.72598 ], [ -77.07874, 38.72619 ], [ -77.07937, 38.7267 ], [ -77.0794, 38.7276 ], [ -77.08006, 38.72843 ], [ -77.08006, 38.73 ], [ -77.07887, 38.73061 ], [ -77.07913, 38.73105 ], [ -77.07845, 38.7316 ], [ -77.07774, 38.73126 ], [ -77.0764, 38.72911 ], [ -77.07551, 38.72951 ], [ -77.07404, 38.72939 ], [ -77.07466, 38.72991 ], [ -77.07432, 38.73063 ], [ -77.07229, 38.73019 ], [ -77.07158, 38.72953 ], [ -77.07102, 38.73004 ], [ -77.07132, 38.73035 ], [ -77.07216, 38.73032 ], [ -77.07243, 38.73082 ], [ -77.07433, 38.73141 ], [ -77.07438, 38.73218 ], [ -77.0684, 38.73596 ], [ -77.07088, 38.73653 ], [ -77.07225, 38.73551 ], [ -77.0728, 38.73551 ], [ -77.07298, 38.7345 ], [ -77.07472, 38.73382 ], [ -77.07597, 38.73448 ], [ -77.07671, 38.73595 ], [ -77.07616, 38.73377 ], [ -77.07655, 38.73317 ], [ -77.07847, 38.73286 ], [ -77.08025, 38.7333 ], [ -77.08106, 38.73288 ], [ -77.08186, 38.73342 ], [ -77.0811, 38.73519 ], [ -77.08176, 38.73547 ], [ -77.08182, 38.73656 ], [ -77.08156, 38.73692 ], [ -77.08032, 38.73709 ], [ -77.0816, 38.73733 ], [ -77.08185, 38.7377 ], [ -77.08092, 38.73875 ], [ -77.07983, 38.73873 ], [ -77.08108, 38.73896 ], [ -77.08159, 38.73961 ], [ -77.08128, 38.73995 ], [ -77.07949, 38.73991 ], [ -77.0805, 38.74025 ], [ -77.08046, 38.7408 ], [ -77.08125, 38.74113 ], [ -77.08084, 38.74196 ], [ -77.08154, 38.74146 ], [ -77.08246, 38.74173 ], [ -77.08121, 38.7449 ], [ -77.08034, 38.74525 ], [ -77.07994, 38.74498 ], [ -77.08009, 38.74411 ], [ -77.07956, 38.74396 ], [ -77.07915, 38.74487 ], [ -77.07825, 38.74517 ], [ -77.07734, 38.74368 ], [ -77.07254, 38.74537 ], [ -77.07474, 38.74665 ], [ -77.07532, 38.74776 ], [ -77.0749, 38.74845 ], [ -77.07437, 38.74843 ], [ -77.07372, 38.74752 ], [ -77.07299, 38.74796 ], [ -77.07231, 38.74757 ], [ -77.07147, 38.74781 ], [ -77.07087, 38.74707 ], [ -77.07014, 38.74826 ], [ -77.06928, 38.7479 ], [ -77.06881, 38.74671 ], [ -77.06719, 38.74727 ], [ -77.06628, 38.74701 ], [ -77.06662, 38.74629 ], [ -77.07083, 38.74482 ], [ -77.07011, 38.74391 ], [ -77.06997, 38.74138 ], [ -77.06871, 38.74232 ], [ -77.06946, 38.74252 ], [ -77.06925, 38.7433 ], [ -77.06484, 38.74372 ], [ -77.06302, 38.74527 ], [ -77.05973, 38.74686 ], [ -77.05895, 38.7464 ], [ -77.05942, 38.74567 ], [ -77.05882, 38.74531 ], [ -77.05878, 38.74637 ], [ -77.0578, 38.74638 ], [ -77.05678, 38.7445 ], [ -77.05573, 38.74433 ], [ -77.05593, 38.74321 ], [ -77.05451, 38.74319 ], [ -77.05297, 38.7443 ], [ -77.05022, 38.74243 ], [ -77.05065, 38.74331 ], [ -77.04997, 38.74387 ], [ -77.04794, 38.74265 ], [ -77.04804, 38.7397 ], [ -77.04768, 38.73906 ], [ -77.04831, 38.73874 ], [ -77.04859, 38.73777 ], [ -77.0475, 38.73789 ], [ -77.04701, 38.73874 ], [ -77.0462, 38.73831 ], [ -77.04597, 38.7372 ], [ -77.04413, 38.73693 ], [ -77.04309, 38.73736 ], [ -77.04231, 38.7369 ], [ -77.04335, 38.73599 ], [ -77.04304, 38.73553 ], [ -77.04337, 38.73466 ], [ -77.04605, 38.7347 ], [ -77.04663, 38.73298 ], [ -77.04393, 38.73115 ], [ -77.04351, 38.73185 ], [ -77.04256, 38.73167 ], [ -77.04287, 38.73033 ], [ -77.04434, 38.73006 ], [ -77.04749, 38.73186 ], [ -77.0475, 38.73154 ], [ -77.04416, 38.72938 ], [ -77.04211, 38.7266 ], [ -77.04373, 38.72244 ], [ -77.04322, 38.72211 ], [ -77.04337, 38.72135 ], [ -77.04443, 38.7214 ], [ -77.04469, 38.71999 ], [ -77.04566, 38.72001 ], [ -77.04585, 38.72044 ], [ -77.04765, 38.71997 ], [ -77.04642, 38.72001 ], [ -77.04482, 38.7194 ], [ -77.04454, 38.71879 ], [ -77.04492, 38.71782 ], [ -77.04419, 38.71764 ], [ -77.04409, 38.71723 ], [ -77.04449, 38.71664 ], [ -77.04627, 38.71565 ], [ -77.0461, 38.71433 ], [ -77.04716, 38.71336 ], [ -77.04812, 38.71339 ], [ -77.0486, 38.71396 ], [ -77.04759, 38.71458 ], [ -77.04769, 38.71547 ], [ -77.05003, 38.71595 ], [ -77.05058, 38.71696 ], [ -77.05771, 38.71816 ], [ -77.05862, 38.71595 ], [ -77.05939, 38.71526 ], [ -77.05848, 38.7148 ], [ -77.05902, 38.71415 ], [ -77.05851, 38.7117 ], [ -77.05727, 38.71113 ], [ -77.05718, 38.70996 ], [ -77.05815, 38.70988 ], [ -77.05844, 38.71051 ], [ -77.05918, 38.71074 ], [ -77.0606, 38.71071 ], [ -77.06154, 38.71058 ], [ -77.06174, 38.70975 ], [ -77.06223, 38.7096 ], [ -77.06271, 38.70976 ], [ -77.06293, 38.71084 ], [ -77.06378, 38.71134 ], [ -77.06306, 38.71193 ], [ -77.06475, 38.71183 ], [ -77.06692, 38.71063 ], [ -77.06778, 38.71099 ], [ -77.06683, 38.71201 ], [ -77.06736, 38.71211 ], [ -77.06839, 38.71081 ], [ -77.07039, 38.71115 ], [ -77.07106, 38.71056 ], [ -77.07158, 38.71061 ], [ -77.07198, 38.71096 ], [ -77.07145, 38.71198 ], [ -77.07224, 38.71276 ], [ -77.07175, 38.71446 ], [ -77.07123, 38.71485 ], [ -77.07071, 38.71478 ], [ -77.0704, 38.71419 ], [ -77.07012, 38.71436 ], [ -77.07062, 38.71516 ], [ -77.06973, 38.71562 ], [ -77.06942, 38.71637 ], [ -77.07008, 38.71678 ], [ -77.07098, 38.71572 ], [ -77.07264, 38.71581 ], [ -77.07362, 38.71704 ], [ -77.07885, 38.72139 ], [ -77.07919, 38.72291 ] ], [ [ -77.06627, 38.73702 ], [ -77.06705, 38.73678 ], [ -77.06382, 38.73598 ], [ -77.06265, 38.73722 ], [ -77.06493, 38.73684 ], [ -77.06613, 38.73758 ], [ -77.06627, 38.73702 ] ], [ [ -77.06569, 38.73403 ], [ -77.06412, 38.73369 ], [ -77.06504, 38.73399 ], [ -77.06498, 38.73514 ], [ -77.06543, 38.7352 ], [ -77.06569, 38.73403 ] ], [ [ -77.06426, 38.73246 ], [ -77.06421, 38.73258 ], [ -77.06592, 38.73295 ], [ -77.06426, 38.73246 ] ], [ [ -77.06536, 38.7316 ], [ -77.0653, 38.73169 ], [ -77.06613, 38.73182 ], [ -77.06536, 38.7316 ] ], [ [ -77.06623, 38.73078 ], [ -77.06633, 38.73088 ], [ -77.06636, 38.73073 ], [ -77.06623, 38.73078 ] ], [ [ -77.06528, 38.72902 ], [ -77.0637, 38.72897 ], [ -77.06332, 38.72844 ], [ -77.05926, 38.72631 ], [ -77.05884, 38.7272 ], [ -77.06051, 38.72799 ], [ -77.06053, 38.7284 ], [ -77.05973, 38.72871 ], [ -77.06021, 38.72999 ], [ -77.06409, 38.73117 ], [ -77.06528, 38.72902 ] ], [ [ -77.06803, 38.72373 ], [ -77.06721, 38.72507 ], [ -77.06669, 38.72514 ], [ -77.06616, 38.72449 ], [ -77.06644, 38.72347 ], [ -77.06293, 38.72291 ], [ -77.06264, 38.72346 ], [ -77.06367, 38.7233 ], [ -77.06596, 38.72372 ], [ -77.06584, 38.72575 ], [ -77.06721, 38.72615 ], [ -77.06803, 38.72373 ] ], [ [ -77.06435, 38.72031 ], [ -77.06441, 38.72 ], [ -77.06371, 38.71963 ], [ -77.06269, 38.72004 ], [ -77.06252, 38.72064 ], [ -77.06435, 38.72031 ] ], [ [ -77.06197, 38.71473 ], [ -77.06072, 38.71495 ], [ -77.06072, 38.71497 ], [ -77.06197, 38.71473 ] ], [ [ -77.06175, 38.71257 ], [ -77.06164, 38.71167 ], [ -77.0616, 38.71167 ], [ -77.06187, 38.71363 ], [ -77.06175, 38.71257 ] ], [ [ -77.07079, 38.72563 ], [ -77.07115, 38.7257 ], [ -77.07123, 38.72537 ], [ -77.07082, 38.72531 ], [ -77.07079, 38.72563 ] ], [ [ -77.07259, 38.71848 ], [ -77.07332, 38.71819 ], [ -77.07176, 38.71805 ], [ -77.07259, 38.71848 ] ], [ [ -77.0674, 38.7171 ], [ -77.06682, 38.7165 ], [ -77.06612, 38.71653 ], [ -77.06598, 38.71915 ], [ -77.06653, 38.71893 ], [ -77.06665, 38.71816 ], [ -77.06716, 38.71807 ], [ -77.06779, 38.7183 ], [ -77.06768, 38.71947 ], [ -77.06947, 38.7195 ], [ -77.06979, 38.7187 ], [ -77.06916, 38.71846 ], [ -77.06941, 38.71774 ], [ -77.06804, 38.7169 ], [ -77.0674, 38.7171 ] ], [ [ -77.07622, 38.72769 ], [ -77.0762, 38.72769 ], [ -77.07621, 38.7277 ], [ -77.07622, 38.72769 ] ], [ [ -77.07632, 38.72208 ], [ -77.07644, 38.72206 ], [ -77.07639, 38.72202 ], [ -77.07632, 38.72208 ] ], [ [ -77.07739, 38.72832 ], [ -77.07739, 38.72829 ], [ -77.07735, 38.72832 ], [ -77.07739, 38.72832 ] ], [ [ -77.07866, 38.72948 ], [ -77.0786, 38.72954 ], [ -77.07881, 38.72947 ], [ -77.07866, 38.72948 ] ], [ [ -77.07143, 38.717 ], [ -77.07205, 38.71693 ], [ -77.07189, 38.71671 ], [ -77.07143, 38.717 ] ], [ [ -77.07536, 38.72111 ], [ -77.07528, 38.72104 ], [ -77.07528, 38.7212 ], [ -77.07536, 38.72111 ] ], [ [ -77.07531, 38.72452 ], [ -77.07469, 38.72472 ], [ -77.07542, 38.72481 ], [ -77.07531, 38.72452 ] ], [ [ -77.07304, 38.72865 ], [ -77.07338, 38.72845 ], [ -77.07312, 38.72859 ], [ -77.07304, 38.72865 ] ], [ [ -77.06905, 38.71184 ], [ -77.06899, 38.71197 ], [ -77.06918, 38.71186 ], [ -77.06905, 38.71184 ] ], [ [ -77.07439, 38.74353 ], [ -77.07596, 38.743 ], [ -77.07387, 38.73995 ], [ -77.07205, 38.74044 ], [ -77.07439, 38.74353 ] ], [ [ -77.07138, 38.74034 ], [ -77.07155, 38.74034 ], [ -77.07138, 38.74025 ], [ -77.07138, 38.74034 ] ], [ [ -77.07134, 38.7395 ], [ -77.07136, 38.73975 ], [ -77.07144, 38.73966 ], [ -77.07134, 38.7395 ] ], [ [ -77.07513, 38.73951 ], [ -77.07552, 38.74007 ], [ -77.07719, 38.74018 ], [ -77.07809, 38.73984 ], [ -77.07845, 38.73862 ], [ -77.07769, 38.73847 ], [ -77.07513, 38.73951 ] ], [ [ -77.07662, 38.73676 ], [ -77.07572, 38.73671 ], [ -77.07364, 38.73753 ], [ -77.07419, 38.73823 ], [ -77.07589, 38.73704 ], [ -77.07697, 38.7373 ], [ -77.07662, 38.73676 ] ], [ [ -77.0788, 38.73745 ], [ -77.0789, 38.73711 ], [ -77.07883, 38.73723 ], [ -77.0788, 38.73745 ] ], [ [ -77.07904, 38.73651 ], [ -77.07903, 38.73668 ], [ -77.07909, 38.73646 ], [ -77.07904, 38.73651 ] ], [ [ -77.08076, 38.74212 ], [ -77.08073, 38.74221 ], [ -77.08076, 38.74219 ], [ -77.08076, 38.74212 ] ], [ [ -77.07985, 38.74105 ], [ -77.07918, 38.74096 ], [ -77.07879, 38.74236 ], [ -77.07985, 38.74105 ] ], [ [ -77.08062, 38.74292 ], [ -77.08051, 38.74283 ], [ -77.08042, 38.74306 ], [ -77.08062, 38.74292 ] ], [ [ -77.0726, 38.73829 ], [ -77.07266, 38.73831 ], [ -77.07265, 38.7383 ], [ -77.0726, 38.73829 ] ], [ [ -77.07267, 38.74411 ], [ -77.07269, 38.74414 ], [ -77.07272, 38.74411 ], [ -77.07267, 38.74411 ] ], [ [ -77.07312, 38.73894 ], [ -77.07308, 38.73903 ], [ -77.07317, 38.739 ], [ -77.07312, 38.73894 ] ], [ [ -77.07632, 38.74113 ], [ -77.07629, 38.74116 ], [ -77.07663, 38.74166 ], [ -77.07738, 38.74132 ], [ -77.07632, 38.74113 ] ], [ [ -77.0714, 38.73247 ], [ -77.07143, 38.73261 ], [ -77.07161, 38.73251 ], [ -77.0714, 38.73247 ] ], [ [ -77.0723, 38.74696 ], [ -77.07237, 38.74713 ], [ -77.0724, 38.74708 ], [ -77.0723, 38.74696 ] ], [ [ -77.06845, 38.73449 ], [ -77.0682, 38.73391 ], [ -77.0681, 38.73463 ], [ -77.06845, 38.73449 ] ], [ [ -77.07053, 38.72999 ], [ -77.07019, 38.72942 ], [ -77.07053, 38.72839 ], [ -77.06876, 38.72803 ], [ -77.06797, 38.72969 ], [ -77.06857, 38.7295 ], [ -77.06993, 38.73026 ], [ -77.07053, 38.72999 ] ], [ [ -77.06914, 38.72496 ], [ -77.06888, 38.726 ], [ -77.0693, 38.72605 ], [ -77.06948, 38.72522 ], [ -77.06914, 38.72496 ] ], [ [ -77.06907, 38.72186 ], [ -77.06911, 38.72195 ], [ -77.0691, 38.72176 ], [ -77.06907, 38.72186 ] ], [ [ -77.0664, 38.72031 ], [ -77.06577, 38.72022 ], [ -77.06563, 38.72086 ], [ -77.0664, 38.72031 ] ], [ [ -77.06858, 38.72057 ], [ -77.06833, 38.72053 ], [ -77.06839, 38.72083 ], [ -77.06893, 38.72063 ], [ -77.06858, 38.72057 ] ], [ [ -77.07, 38.7403 ], [ -77.07011, 38.73747 ], [ -77.06862, 38.73712 ], [ -77.06907, 38.73834 ], [ -77.06905, 38.74037 ], [ -77.07, 38.7403 ] ], [ [ -77.07155, 38.74159 ], [ -77.07143, 38.74142 ], [ -77.07139, 38.74154 ], [ -77.07155, 38.74159 ] ], [ [ -77.07201, 38.74226 ], [ -77.07195, 38.74238 ], [ -77.07207, 38.74236 ], [ -77.07201, 38.74226 ] ], [ [ -77.07145, 38.74606 ], [ -77.07129, 38.74584 ], [ -77.07008, 38.74627 ], [ -77.07085, 38.74646 ], [ -77.07145, 38.74606 ] ], [ [ -77.06652, 38.73 ], [ -77.06654, 38.72953 ], [ -77.06623, 38.72984 ], [ -77.06652, 38.73 ] ], [ [ -77.06692, 38.73492 ], [ -77.06688, 38.73491 ], [ -77.06687, 38.73495 ], [ -77.06692, 38.73492 ] ], [ [ -77.06762, 38.74011 ], [ -77.06762, 38.74004 ], [ -77.06758, 38.74003 ], [ -77.06762, 38.74011 ] ], [ [ -77.06722, 38.73934 ], [ -77.06727, 38.73943 ], [ -77.06735, 38.73929 ], [ -77.06722, 38.73934 ] ], [ [ -77.06449, 38.71863 ], [ -77.06462, 38.71874 ], [ -77.06462, 38.71871 ], [ -77.06449, 38.71863 ] ], [ [ -77.06373, 38.71866 ], [ -77.06385, 38.71858 ], [ -77.06371, 38.71846 ], [ -77.06373, 38.71866 ] ], [ [ -77.06359, 38.71674 ], [ -77.06464, 38.7171 ], [ -77.06473, 38.71618 ], [ -77.06409, 38.71637 ], [ -77.06351, 38.7159 ], [ -77.06359, 38.71674 ] ], [ [ -77.0641, 38.72149 ], [ -77.06412, 38.72143 ], [ -77.06393, 38.72146 ], [ -77.0641, 38.72149 ] ], [ [ -77.06349, 38.72437 ], [ -77.06365, 38.72444 ], [ -77.06366, 38.72439 ], [ -77.06349, 38.72437 ] ], [ [ -77.06004, 38.74262 ], [ -77.05906, 38.74227 ], [ -77.05903, 38.74187 ], [ -77.05709, 38.74261 ], [ -77.05796, 38.74391 ], [ -77.05933, 38.74337 ], [ -77.06004, 38.74262 ] ], [ [ -77.05186, 38.73453 ], [ -77.05121, 38.7331 ], [ -77.0496, 38.73296 ], [ -77.05022, 38.73509 ], [ -77.05424, 38.73545 ], [ -77.05447, 38.73485 ], [ -77.05186, 38.73453 ] ], [ [ -77.05258, 38.73322 ], [ -77.05263, 38.73356 ], [ -77.0547, 38.73365 ], [ -77.05258, 38.73322 ] ], [ [ -77.05502, 38.73233 ], [ -77.05496, 38.73258 ], [ -77.05521, 38.73265 ], [ -77.05502, 38.73233 ] ], [ [ -77.05516, 38.73019 ], [ -77.05505, 38.73016 ], [ -77.05511, 38.73025 ], [ -77.05516, 38.73019 ] ], [ [ -77.05402, 38.72006 ], [ -77.05365, 38.72007 ], [ -77.05474, 38.72217 ], [ -77.05523, 38.7223 ], [ -77.05402, 38.72006 ] ], [ [ -77.05385, 38.71869 ], [ -77.05325, 38.71859 ], [ -77.05367, 38.71898 ], [ -77.05385, 38.71869 ] ], [ [ -77.05835, 38.72544 ], [ -77.05736, 38.72407 ], [ -77.05572, 38.7236 ], [ -77.05526, 38.72497 ], [ -77.05814, 38.72567 ], [ -77.05835, 38.72544 ] ], [ [ -77.05782, 38.71928 ], [ -77.05673, 38.72226 ], [ -77.05752, 38.72297 ], [ -77.05842, 38.71937 ], [ -77.05782, 38.71928 ] ], [ [ -77.06411, 38.72657 ], [ -77.06412, 38.72656 ], [ -77.06408, 38.72656 ], [ -77.06411, 38.72657 ] ], [ [ -77.06133, 38.72264 ], [ -77.06122, 38.72301 ], [ -77.06155, 38.72279 ], [ -77.06133, 38.72264 ] ], [ [ -77.05871, 38.72382 ], [ -77.05914, 38.72449 ], [ -77.06062, 38.71972 ], [ -77.05977, 38.71958 ], [ -77.05871, 38.72382 ] ], [ [ -77.06078, 38.71862 ], [ -77.06071, 38.71863 ], [ -77.06086, 38.71865 ], [ -77.06078, 38.71862 ] ], [ [ -77.06023, 38.71182 ], [ -77.05991, 38.71184 ], [ -77.06013, 38.7135 ], [ -77.06038, 38.71381 ], [ -77.06023, 38.71182 ] ], [ [ -77.05942, 38.71744 ], [ -77.05965, 38.71748 ], [ -77.0595, 38.71727 ], [ -77.05942, 38.71744 ] ], [ [ -77.06086, 38.7171 ], [ -77.06081, 38.71728 ], [ -77.06097, 38.71698 ], [ -77.06086, 38.7171 ] ], [ [ -77.0613, 38.72403 ], [ -77.0617, 38.72384 ], [ -77.06107, 38.72352 ], [ -77.06088, 38.72426 ], [ -77.0613, 38.72403 ] ], [ [ -77.0625, 38.73566 ], [ -77.05812, 38.73451 ], [ -77.05785, 38.73514 ], [ -77.05867, 38.73555 ], [ -77.05883, 38.73625 ], [ -77.05851, 38.73661 ], [ -77.05721, 38.73676 ], [ -77.06059, 38.73804 ], [ -77.06088, 38.73732 ], [ -77.0617, 38.73734 ], [ -77.06135, 38.73684 ], [ -77.0625, 38.73566 ] ], [ [ -77.05651, 38.73299 ], [ -77.05748, 38.73322 ], [ -77.05832, 38.73212 ], [ -77.05701, 38.73169 ], [ -77.05651, 38.73299 ] ], [ [ -77.06213, 38.73315 ], [ -77.06219, 38.73367 ], [ -77.06175, 38.73393 ], [ -77.06187, 38.73436 ], [ -77.06267, 38.73456 ], [ -77.0631, 38.73343 ], [ -77.06213, 38.73315 ] ], [ [ -77.06298, 38.73203 ], [ -77.06238, 38.73189 ], [ -77.06239, 38.73207 ], [ -77.06298, 38.73203 ] ], [ [ -77.05993, 38.73341 ], [ -77.05963, 38.73324 ], [ -77.05943, 38.73374 ], [ -77.05987, 38.73377 ], [ -77.05993, 38.73341 ] ], [ [ -77.06216, 38.74261 ], [ -77.06217, 38.74262 ], [ -77.06217, 38.7426 ], [ -77.06216, 38.74261 ] ], [ [ -77.06319, 38.74147 ], [ -77.06352, 38.74148 ], [ -77.06341, 38.74126 ], [ -77.06319, 38.74147 ] ], [ [ -77.06283, 38.74048 ], [ -77.06301, 38.74048 ], [ -77.06299, 38.74044 ], [ -77.06283, 38.74048 ] ], [ [ -77.06527, 38.73848 ], [ -77.0652, 38.73852 ], [ -77.06528, 38.7385 ], [ -77.06527, 38.73848 ] ], [ [ -77.06135, 38.74196 ], [ -77.06113, 38.74196 ], [ -77.06126, 38.7421 ], [ -77.06135, 38.74196 ] ], [ [ -77.06043, 38.74406 ], [ -77.06051, 38.74404 ], [ -77.06048, 38.74402 ], [ -77.06043, 38.74406 ] ], [ [ -77.05567, 38.72047 ], [ -77.05599, 38.721 ], [ -77.05615, 38.72032 ], [ -77.05567, 38.72047 ] ], [ [ -77.05642, 38.71926 ], [ -77.05646, 38.71909 ], [ -77.05522, 38.7189 ], [ -77.05642, 38.71926 ] ], [ [ -77.0568, 38.73419 ], [ -77.05616, 38.73404 ], [ -77.05593, 38.7347 ], [ -77.05676, 38.73493 ], [ -77.0568, 38.73419 ] ], [ [ -77.05525, 38.74217 ], [ -77.05522, 38.74213 ], [ -77.05521, 38.7422 ], [ -77.05525, 38.74217 ] ], [ [ -77.05653, 38.74101 ], [ -77.056, 38.74096 ], [ -77.05638, 38.74153 ], [ -77.05653, 38.74101 ] ], [ [ -77.05098, 38.72109 ], [ -77.05107, 38.72111 ], [ -77.05101, 38.72108 ], [ -77.05098, 38.72109 ] ], [ [ -77.0495, 38.71891 ], [ -77.04912, 38.71876 ], [ -77.04914, 38.71887 ], [ -77.0495, 38.71891 ] ], [ [ -77.04722, 38.71658 ], [ -77.04673, 38.71672 ], [ -77.04963, 38.71775 ], [ -77.04722, 38.71658 ] ], [ [ -77.05141, 38.72236 ], [ -77.05067, 38.72215 ], [ -77.05016, 38.72353 ], [ -77.05077, 38.72371 ], [ -77.05141, 38.72236 ] ], [ [ -77.05297, 38.72166 ], [ -77.05259, 38.721 ], [ -77.05238, 38.72149 ], [ -77.05297, 38.72166 ] ], [ [ -77.05073, 38.71924 ], [ -77.05074, 38.71923 ], [ -77.05068, 38.71922 ], [ -77.05073, 38.71924 ] ], [ [ -77.05194, 38.72527 ], [ -77.05142, 38.7251 ], [ -77.05148, 38.7253 ], [ -77.05194, 38.72527 ] ], [ [ -77.05132, 38.73203 ], [ -77.0516, 38.73205 ], [ -77.05142, 38.73197 ], [ -77.05132, 38.73203 ] ], [ [ -77.04989, 38.7319 ], [ -77.04991, 38.7319 ], [ -77.04991, 38.73189 ], [ -77.04989, 38.7319 ] ], [ [ -77.05342, 38.73981 ], [ -77.05384, 38.74012 ], [ -77.05331, 38.73931 ], [ -77.05285, 38.73939 ], [ -77.05342, 38.73981 ] ], [ [ -77.04991, 38.7381 ], [ -77.04975, 38.73866 ], [ -77.05244, 38.73832 ], [ -77.04991, 38.7381 ] ], [ [ -77.04887, 38.73582 ], [ -77.04727, 38.7359 ], [ -77.0473, 38.7368 ], [ -77.04872, 38.73721 ], [ -77.04887, 38.73582 ] ], [ [ -77.05306, 38.74301 ], [ -77.05308, 38.74299 ], [ -77.05306, 38.74299 ], [ -77.05306, 38.74301 ] ], [ [ -77.04696, 38.72574 ], [ -77.04695, 38.72571 ], [ -77.04674, 38.72574 ], [ -77.04696, 38.72574 ] ], [ [ -77.045, 38.72606 ], [ -77.04491, 38.72605 ], [ -77.04503, 38.72613 ], [ -77.045, 38.72606 ] ], [ [ -77.04582, 38.72115 ], [ -77.04581, 38.72161 ], [ -77.04615, 38.7215 ], [ -77.04582, 38.72115 ] ], [ [ -77.04703, 38.71887 ], [ -77.047, 38.71893 ], [ -77.04709, 38.71892 ], [ -77.04703, 38.71887 ] ], [ [ -77.04666, 38.72462 ], [ -77.04662, 38.72466 ], [ -77.04673, 38.72465 ], [ -77.04666, 38.72462 ] ], [ [ -77.04473, 38.72375 ], [ -77.04504, 38.7238 ], [ -77.0449, 38.72339 ], [ -77.04503, 38.72284 ], [ -77.04473, 38.72375 ] ], [ [ -77.0451, 38.72492 ], [ -77.04476, 38.72486 ], [ -77.04489, 38.72492 ], [ -77.0451, 38.72492 ] ], [ [ -77.04803, 38.72767 ], [ -77.04776, 38.72783 ], [ -77.04818, 38.72795 ], [ -77.04803, 38.72767 ] ], [ [ -77.04632, 38.72856 ], [ -77.04614, 38.72851 ], [ -77.04617, 38.72875 ], [ -77.04632, 38.72856 ] ], [ [ -77.04516, 38.72822 ], [ -77.04467, 38.72808 ], [ -77.0449, 38.72837 ], [ -77.04516, 38.72822 ] ], [ [ -77.04476, 38.72696 ], [ -77.04477, 38.72682 ], [ -77.04443, 38.72687 ], [ -77.04476, 38.72696 ] ], [ [ -77.04362, 38.72672 ], [ -77.04376, 38.72689 ], [ -77.04408, 38.72685 ], [ -77.04362, 38.72672 ] ], [ [ -77.0468, 38.72977 ], [ -77.04695, 38.72986 ], [ -77.04709, 38.72956 ], [ -77.0468, 38.72977 ] ], [ [ -77.04493, 38.73591 ], [ -77.04506, 38.7357 ], [ -77.04441, 38.73564 ], [ -77.04427, 38.73585 ], [ -77.04493, 38.73591 ] ], [ [ -77.04802, 38.73288 ], [ -77.04742, 38.73483 ], [ -77.04883, 38.73507 ], [ -77.04802, 38.73288 ] ] ] } },
{ "type": "Feature", "properties": { "variant": "T2s", "miles": 1.0 }, "geometry": { "type": "Polygon", "coordinates": [ [ [ -77.07039, 38.7209 ], [ -77.0709, 38.72333 ], [ -77.07395, 38.72389 ], [ -77.07379, 38.72465 ], [ -77.07277, 38.72468 ], [ -77.07263, 38.72534 ], [ -77.07357, 38.72563 ], [ -77.07369, 38.72603 ], [ -77.0729, 38.72922 ], [ -77.07427, 38.72963 ], [ -77.07468, 38.73032 ], [ -77.07379, 38.73064 ], [ -77.07213, 38.73012 ], [ -77.07158, 38.72953 ], [ -77.07102, 38.73004 ], [ -77.07132, 38.73035 ], [ -77.07216, 38.73032 ], [ -77.07243, 38.73082 ], [ -77.07433, 38.73141 ], [ -77.07456, 38.73179 ], [ -77.0736, 38.73287 ], [ -77.0684, 38.73596 ], [ -77.07007, 38.73647 ], [ -77.06982, 38.73721 ], [ -77.06689, 38.73674 ], [ -77.06274, 38.7355 ], [ -77.06273, 38.73509 ], [ -77.06365, 38.73479 ], [ -77.06398, 38.73405 ], [ -77.06456, 38.73383 ], [ -77.06504, 38.73399 ], [ -77.06498, 38.73514 ], [ -77.06542, 38.73525 ], [ -77.06569, 38.73403 ], [ -77.06105, 38.73287 ], [ -77.0601, 38.73349 ], [ -77.05964, 38.73328 ], [ -77.05973, 38.73254 ], [ -77.05701, 38.73169 ], [ -77.05644, 38.73262 ], [ -77.05551, 38.73241 ], [ -77.05775, 38.72632 ], [ -77.05954, 38.724 ], [ -77.06118, 38.71815 ], [ -77.06208, 38.71798 ], [ -77.06305, 38.71869 ], [ -77.06296, 38.71909 ], [ -77.06212, 38.71941 ], [ -77.06156, 38.72157 ], [ -77.06403, 38.72199 ], [ -77.06478, 38.7216 ], [ -77.06533, 38.72217 ], [ -77.06881, 38.72276 ], [ -77.06902, 38.72099 ], [ -77.06965, 38.72041 ], [ -77.07039, 38.7209 ] ], [ [ -77.06692, 38.73492 ], [ -77.06688, 38.73491 ], [ -77.06687, 38.73495 ], [ -77.06692, 38.73492 ] ], [ [ -77.06613, 38.73182 ], [ -77.06536, 38.7316 ], [ -77.0653, 38.73169 ], [ -77.06613, 38.73182 ] ], [ [ -77.06636, 38.73073 ], [ -77.06623, 38.73078 ], [ -77.06633, 38.73088 ], [ -77.06636, 38.73073 ] ], [ [ -77.0666, 38.72955 ], [ -77.06623, 38.72984 ], [ -77.06652, 38.73 ], [ -77.0666, 38.72955 ] ], [ [ -77.06721, 38.72615 ], [ -77.06803, 38.72373 ], [ -77.06721, 38.72507 ], [ -77.06669, 38.72514 ], [ -77.06616, 38.72449 ], [ -77.06644, 38.72347 ], [ -77.06293, 38.72291 ], [ -77.06264, 38.72346 ], [ -77.06367, 38.7233 ], [ -77.06596, 38.72372 ], [ -77.06584, 38.72575 ], [ -77.06721, 38.72615 ] ], [ [ -77.07, 38.73038 ], [ -77.07053, 38.72839 ], [ -77.06876, 38.72803 ], [ -77.06797, 38.72969 ], [ -77.06857, 38.7295 ], [ -77.07, 38.73038 ] ], [ [ -77.06948, 38.72522 ], [ -77.06914, 38.72496 ], [ -77.06888, 38.726 ], [ -77.0693, 38.72605 ], [ -77.06948, 38.72522 ] ], [ [ -77.07082, 38.72531 ], [ -77.07115, 38.7257 ], [ -77.07123, 38.72537 ], [ -77.07082, 38.72531 ] ], [ [ -77.0714, 38.73247 ], [ -77.07161, 38.73251 ], [ -77.07172, 38.73245 ], [ -77.0714, 38.73247 ] ], [ [ -77.06692, 38.72845 ], [ -77.06694, 38.72847 ], [ -77.06698, 38.72838 ], [ -77.06692, 38.72845 ] ], [ [ -77.06807, 38.73467 ], [ -77.06845, 38.73449 ], [ -77.0682, 38.73391 ], [ -77.06807, 38.73467 ] ], [ [ -77.0629, 38.73223 ], [ -77.06246, 38.73192 ], [ -77.06238, 38.73189 ], [ -77.0629, 38.73223 ] ], [ [ -77.06024, 38.73 ], [ -77.06409, 38.73117 ], [ -77.06528, 38.72902 ], [ -77.0637, 38.72897 ], [ -77.06332, 38.72844 ], [ -77.05926, 38.72631 ], [ -77.05884, 38.7272 ], [ -77.06051, 38.72799 ], [ -77.06053, 38.7284 ], [ -77.05973, 38.72871 ], [ -77.05975, 38.72953 ], [ -77.06024, 38.73 ] ], [ [ -77.06412, 38.72656 ], [ -77.06408, 38.72656 ], [ -77.06411, 38.72657 ], [ -77.06412, 38.72656 ] ], [ [ -77.06365, 38.72444 ], [ -77.06353, 38.72437 ], [ -77.06349, 38.72437 ], [ -77.06365, 38.72444 ] ], [ [ -77.06592, 38.73295 ], [ -77.06426, 38.73246 ], [ -77.06421, 38.73258 ], [ -77.06509, 38.73279 ], [ -77.06592, 38.73295 ] ], [ [ -77.06107, 38.72352 ], [ -77.06088, 38.72426 ], [ -77.0617, 38.72384 ], [ -77.06107, 38.72352 ] ], [ [ -77.06133, 38.72264 ], [ -77.06122, 38.72301 ], [ -77.06155, 38.72279 ], [ -77.06133, 38.72264 ] ] ] } },
{ "type": "Feature", "properties": { "variant": "T2s", "miles": 1.5 }, "geometry": { "type": "Polygon", "coordinates": [ [ [ -77.07222, 38.71564 ], [ -77.07907, 38.72172 ], [ -77.07904, 38.72334 ], [ -77.07864, 38.72414 ], [ -77.07776, 38.72442 ], [ -77.07754, 38.72598 ], [ -77.07933, 38.72665 ], [ -77.08017, 38.72978 ], [ -77.07887, 38.73061 ], [ -77.07913, 38.73105 ], [ -77.07845, 38.7316 ], [ -77.07774, 38.73126 ], [ -77.0764, 38.72911 ], [ -77.07551, 38.72951 ], [ -77.07404, 38.72939 ], [ -77.07466, 38.72991 ], [ -77.07432, 38.73063 ], [ -77.07229, 38.73019 ], [ -77.07158, 38.72953 ], [ -77.07102, 38.73004 ], [ -77.07132, 38.73035 ], [ -77.07216, 38.73032 ], [ -77.07243, 38.73082 ], [ -77.07433, 38.73141 ], [ -77.07456, 38.73179 ], [ -77.0736, 38.73287 ], [ -77.0684, 38.73596 ], [ -77.07088, 38.73653 ], [ -77.07225, 38.73551 ], [ -77.0728, 38.73551 ], [ -77.07307, 38.73444 ], [ -77.07443, 38.73385 ], [ -77.07553, 38.73407 ], [ -77.07638, 38.73507 ], [ -77.07685, 38.73656 ], [ -77.07364, 38.73753 ], [ -77.07438, 38.73848 ], [ -77.07581, 38.73776 ], [ -77.07683, 38.73801 ], [ -77.07664, 38.73875 ], [ -77.07513, 38.73951 ], [ -77.07605, 38.74115 ], [ -77.07519, 38.74152 ], [ -77.07387, 38.73995 ], [ -77.07182, 38.74048 ], [ -77.07138, 38.74024 ], [ -77.07136, 38.74154 ], [ -77.0721, 38.74206 ], [ -77.07141, 38.74262 ], [ -77.07124, 38.74356 ], [ -77.07027, 38.74358 ], [ -77.06997, 38.74138 ], [ -77.06965, 38.74136 ], [ -77.06933, 38.74207 ], [ -77.06871, 38.74232 ], [ -77.06946, 38.74252 ], [ -77.0693, 38.74327 ], [ -77.06661, 38.7435 ], [ -77.06632, 38.74277 ], [ -77.06729, 38.74234 ], [ -77.06678, 38.74136 ], [ -77.06573, 38.74114 ], [ -77.06577, 38.74067 ], [ -77.06454, 38.74062 ], [ -77.06404, 38.74008 ], [ -77.06039, 38.74085 ], [ -77.05997, 38.74016 ], [ -77.06104, 38.73962 ], [ -77.06121, 38.73873 ], [ -77.06329, 38.73814 ], [ -77.06277, 38.73756 ], [ -77.06304, 38.7372 ], [ -77.06499, 38.73685 ], [ -77.06613, 38.73759 ], [ -77.06627, 38.73702 ], [ -77.06705, 38.73678 ], [ -77.06382, 38.73598 ], [ -77.06315, 38.73694 ], [ -77.06195, 38.73745 ], [ -77.06135, 38.73684 ], [ -77.0625, 38.73566 ], [ -77.05812, 38.73451 ], [ -77.05785, 38.73514 ], [ -77.05885, 38.73587 ], [ -77.05851, 38.73661 ], [ -77.05669, 38.73678 ], [ -77.05536, 38.73622 ], [ -77.055, 38.73652 ], [ -77.05409, 38.73625 ], [ -77.05626, 38.72985 ], [ -77.05835, 38.72544 ], [ -77.05736, 38.72407 ], [ -77.05575, 38.72348 ], [ -77.05402, 38.72006 ], [ -77.05251, 38.7199 ], [ -77.05251, 38.71914 ], [ -77.05384, 38.71898 ], [ -77.05385, 38.71869 ], [ -77.05194, 38.71833 ], [ -77.05158, 38.71762 ], [ -77.05249, 38.71734 ], [ -77.05771, 38.71816 ], [ -77.05862, 38.71595 ], [ -77.05939, 38.71526 ], [ -77.05879, 38.71514 ], [ -77.05857, 38.71439 ], [ -77.06248, 38.71354 ], [ -77.06442, 38.71368 ], [ -77.06453, 38.71297 ], [ -77.065, 38.71277 ], [ -77.0655, 38.71289 ], [ -77.06579, 38.71359 ], [ -77.06702, 38.71368 ], [ -77.06726, 38.71405 ], [ -77.06709, 38.71444 ], [ -77.06592, 38.71467 ], [ -77.06602, 38.71545 ], [ -77.06816, 38.7157 ], [ -77.07008, 38.71678 ], [ -77.07088, 38.71577 ], [ -77.07222, 38.71564 ] ], [ [ -77.06762, 38.74004 ], [ -77.06758, 38.74003 ], [ -77.06762, 38.74011 ], [ -77.06762, 38.74004 ] ], [ [ -77.06735, 38.73929 ], [ -77.06722, 38.73934 ], [ -77.06727, 38.73943 ], [ -77.06735, 38.73929 ] ], [ [ -77.06807, 38.73467 ], [ -77.06845, 38.73449 ], [ -77.0682, 38.73391 ], [ -77.06807, 38.73467 ] ], [ [ -77.06636, 38.73073 ], [ -77.06623, 38.73078 ], [ -77.06633, 38.73088 ], [ -77.06636, 38.73073 ] ], [ [ -77.0666, 38.72955 ], [ -77.06623, 38.72984 ], [ -77.06652, 38.73 ], [ -77.0666, 38.72955 ] ], [ [ -77.06694, 38.72847 ], [ -77.06692, 38.72845 ], [ -77.06689, 38.72845 ], [ -77.06694, 38.72847 ] ], [ [ -77.06745, 38.72622 ], [ -77.06803, 38.72373 ], [ -77.06721, 38.72507 ], [ -77.06669, 38.72514 ], [ -77.06616, 38.72449 ], [ -77.06644, 38.72347 ], [ -77.06293, 38.72291 ], [ -77.06264, 38.72346 ], [ -77.06367, 38.7233 ], [ -77.06596, 38.72372 ], [ -77.06584, 38.72575 ], [ -77.06745, 38.72622 ] ], [ [ -77.06636, 38.72028 ], [ -77.06577, 38.72022 ], [ -77.06563, 38.72086 ], [ -77.06584, 38.72086 ], [ -77.06636, 38.72028 ] ], [ [ -77.06779, 38.71946 ], [ -77.06947, 38.7195 ], [ -77.06979, 38.7187 ], [ -77.06916, 38.71846 ], [ -77.06941, 38.71774 ], [ -77.06804, 38.7169 ], [ -77.0674, 38.7171 ], [ -77.06682, 38.7165 ], [ -77.06612, 38.71653 ], [ -77.06598, 38.71915 ], [ -77.06653, 38.71893 ], [ -77.06665, 38.71816 ], [ -77.06734, 38.71809 ], [ -77.06779, 38.7183 ], [ -77.06779, 38.71946 ] ], [ [ -77.07304, 38.72865 ], [ -77.07321, 38.72853 ], [ -77.07338, 38.72845 ], [ -77.07304, 38.72865 ] ], [ [ -77.06948, 38.72522 ], [ -77.06914, 38.72496 ], [ -77.06888, 38.726 ], [ -77.0693, 38.72605 ], [ -77.06948, 38.72522 ] ], [ [ -77.07192, 38.71834 ], [ -77.07332, 38.71819 ], [ -77.07176, 38.71805 ], [ -77.07192, 38.71834 ] ], [ [ -77.07531, 38.72452 ], [ -77.07469, 38.72472 ], [ -77.07542, 38.72481 ], [ -77.07531, 38.72452 ] ], [ [ -77.07639, 38.72202 ], [ -77.07632, 38.72208 ], [ -77.07644, 38.72206 ], [ -77.07639, 38.72202 ] ], [ [ -77.07528, 38.7212 ], [ -77.07536, 38.72111 ], [ -77.07528, 38.72104 ], [ -77.07528, 38.7212 ] ], [ [ -77.07621, 38.7277 ], [ -77.07622, 38.72769 ], [ -77.0762, 38.72769 ], [ -77.07621, 38.7277 ] ], [ [ -77.07881, 38.72947 ], [ -77.07878, 38.72928 ], [ -77.0786, 38.72954 ], [ -77.07881, 38.72947 ] ], [ [ -77.07739, 38.72832 ], [ -77.07735, 38.72832 ], [ -77.07739, 38.72834 ], [ -77.07739, 38.72832 ] ], [ [ -77.07189, 38.71671 ], [ -77.07143, 38.717 ], [ -77.07205, 38.71693 ], [ -77.07189, 38.71671 ] ], [ [ -77.07082, 38.72531 ], [ -77.07115, 38.7257 ], [ -77.07123, 38.72537 ], [ -77.07082, 38.72531 ] ], [ [ -77.07312, 38.73894 ], [ -77.07308, 38.73903 ], [ -77.07317, 38.739 ], [ -77.07312, 38.73894 ] ], [ [ -77.07265, 38.7383 ], [ -77.0726, 38.73829 ], [ -77.07266, 38.73831 ], [ -77.07265, 38.7383 ] ], [ [ -77.07053, 38.72999 ], [ -77.07019, 38.72942 ], [ -77.07053, 38.72839 ], [ -77.06876, 38.72803 ], [ -77.06797, 38.72969 ], [ -77.06857, 38.7295 ], [ -77.07, 38.73038 ], [ -77.07053, 38.72999 ] ], [ [ -77.07161, 38.73251 ], [ -77.0714, 38.73247 ], [ -77.07143, 38.73261 ], [ -77.07161, 38.73251 ] ], [ [ -77.07, 38.7403 ], [ -77.07011, 38.73747 ], [ -77.06862, 38.73712 ], [ -77.06907, 38.73834 ], [ -77.06905, 38.74037 ], [ -77.07, 38.7403 ] ], [ [ -77.07144, 38.73966 ], [ -77.07134, 38.7395 ], [ -77.07136, 38.73975 ], [ -77.07144, 38.73966 ] ], [ [ -77.06861, 38.72058 ], [ -77.06839, 38.72083 ], [ -77.06894, 38.72063 ], [ -77.06861, 38.72058 ] ], [ [ -77.06903, 38.72179 ], [ -77.06912, 38.72194 ], [ -77.0691, 38.72176 ], [ -77.06903, 38.72179 ] ], [ [ -77.06122, 38.72301 ], [ -77.06155, 38.72279 ], [ -77.06158, 38.72268 ], [ -77.06133, 38.72264 ], [ -77.06122, 38.72301 ] ], [ [ -77.05914, 38.72449 ], [ -77.06062, 38.71972 ], [ -77.05977, 38.71958 ], [ -77.05871, 38.72382 ], [ -77.05914, 38.72449 ] ], [ [ -77.06086, 38.71865 ], [ -77.06078, 38.71862 ], [ -77.06071, 38.71863 ], [ -77.06086, 38.71865 ] ], [ [ -77.06097, 38.71698 ], [ -77.06086, 38.7171 ], [ -77.06081, 38.71728 ], [ -77.06097, 38.71698 ] ], [ [ -77.05942, 38.71744 ], [ -77.05965, 38.71748 ], [ -77.0595, 38.71727 ], [ -77.05942, 38.71744 ] ], [ [ -77.06072, 38.71497 ], [ -77.06197, 38.71473 ], [ -77.06072, 38.71495 ], [ -77.06072, 38.71497 ] ], [ [ -77.0641, 38.72149 ], [ -77.06412, 38.72143 ], [ -77.06393, 38.72146 ], [ -77.0641, 38.72149 ] ], [ [ -77.06435, 38.72031 ], [ -77.06371, 38.71963 ], [ -77.06269, 38.72004 ], [ -77.06247, 38.72066 ], [ -77.06435, 38.72031 ] ], [ [ -77.06371, 38.71846 ], [ -77.06373, 38.71866 ], [ -77.06385, 38.71858 ], [ -77.06371, 38.71846 ] ], [ [ -77.06462, 38.71871 ], [ -77.06449, 38.71863 ], [ -77.06462, 38.71874 ], [ -77.06462, 38.71871 ] ], [ [ -77.06474, 38.71626 ], [ -77.06409, 38.71637 ], [ -77.06347, 38.71579 ], [ -77.06359, 38.71674 ], [ -77.06464, 38.7171 ], [ -77.06474, 38.71626 ] ], [ [ -77.06504, 38.73399 ], [ -77.06498, 38.73514 ], [ -77.06542, 38.73525 ], [ -77.06569, 38.73403 ], [ -77.06412, 38.73369 ], [ -77.06504, 38.73399 ] ], [ [ -77.06421, 38.73258 ], [ -77.06592, 38.73295 ], [ -77.06426, 38.73246 ], [ -77.06421, 38.73258 ] ], [ [ -77.06414, 38.73111 ], [ -77.06528, 38.72902 ], [ -77.0637, 38.72897 ], [ -77.06332, 38.72844 ], [ -77.05926, 38.72631 ], [ -77.05884, 38.7272 ], [ -77.06051, 38.72799 ], [ -77.06053, 38.7284 ], [ -77.05973, 38.72871 ], [ -77.06019, 38.72997 ], [ -77.06414, 38.73111 ] ], [ [ -77.06408, 38.72656 ], [ -77.06411, 38.72657 ], [ -77.06412, 38.72656 ], [ -77.06408, 38.72656 ] ], [ [ -77.06366, 38.72439 ], [ -77.06349, 38.72437 ], [ -77.06365, 38.72444 ], [ -77.06366, 38.72439 ] ], [ [ -77.06692, 38.73492 ], [ -77.06688, 38.73491 ], [ -77.06687, 38.73495 ], [ -77.06692, 38.73492 ] ], [ [ -77.06536, 38.7316 ], [ -77.06613, 38.73182 ], [ -77.06617, 38.73164 ], [ -77.06536, 38.7316 ] ], [ [ -77.06088, 38.72426 ], [ -77.0617, 38.72384 ], [ -77.06107, 38.72352 ], [ -77.06088, 38.72426 ] ], [ [ -77.05943, 38.73374 ], [ -77.05993, 38.73341 ], [ -77.05963, 38.73324 ], [ -77.05943, 38.73374 ] ], [ [ -77.06298, 38.73203 ], [ -77.06239, 38.73207 ], [ -77.0629, 38.73223 ], [ -77.06298, 38.73203 ] ], [ [ -77.06219, 38.73367 ], [ -77.06175, 38.73393 ], [ -77.06187, 38.73436 ], [ -77.06267, 38.73456 ], [ -77.0631, 38.73343 ], [ -77.06213, 38.73315 ], [ -77.06219, 38.73367 ] ], [ [ -77.05782, 38.71928 ], [ -77.05673, 38.72226 ], [ -77.05752, 38.72297 ], [ -77.05842, 38.71937 ], [ -77.05782, 38.71928 ] ], [ [ -77.05554, 38.72022 ], [ -77.05599, 38.721 ], [ -77.05615, 38.72032 ], [ -77.05554, 38.72022 ] ], [ [ -77.05646, 38.71909 ], [ -77.05522, 38.7189 ], [ -77.05642, 38.71926 ], [ -77.05646, 38.71909 ] ], [ [ -77.05596, 38.7346 ], [ -77.05676, 38.73493 ], [ -77.0568, 38.73419 ], [ -77.05616, 38.73404 ], [ -77.05596, 38.7346 ] ], [ [ -77.05651, 38.73299 ], [ -77.05748, 38.73322 ], [ -77.05832, 38.73212 ], [ -77.05701, 38.73169 ], [ -77.05651, 38.73299 ] ], [ [ -77.06528, 38.7385 ], [ -77.06524, 38.7385 ], [ -77.0652, 38.73852 ], [ -77.06528, 38.7385 ] ] ] } },
{ "type": "Feature", "properties": { "variant": "T2s", "miles": 2.0 }, "geometry": { "type": "Polygon", "coordinates": [ [ [ -77.07919, 38.72289 ], [ -77.07864, 38.72414 ], [ -77.07776, 38.72442 ], [ -77.07754, 38.72598 ], [ -77.07874, 38.72619 ], [ -77.07937, 38.7267 ], [ -77.0794, 38.7276 ], [ -77.08006, 38.72843 ], [ -77.08006, 38.73 ], [ -77.07887, 38.73061 ], [ -77.07913, 38.73105 ], [ -77.07845, 38.7316 ], [ -77.07774, 38.73126 ], [ -77.0764, 38.72911 ], [ -77.07551, 38.72951 ], [ -77.07404, 38.72939 ], [ -77.07466, 38.72991 ], [ -77.07432, 38.73063 ], [ -77.07229, 38.73019 ], [ -77.07158, 38.72953 ], [ -77.07102, 38.73004 ], [ -77.07132, 38.73035 ], [ -77.07216, 38.73032 ], [ -77.07243, 38.73082 ], [ -77.07433, 38.73141 ], [ -77.07438, 38.73218 ], [ -77.0684, 38.73596 ], [ -77.07088, 38.73653 ], [ -77.07225, 38.73551 ], [ -77.0728, 38.73551 ], [ -77.07298, 38.7345 ], [ -77.07472, 38.73382 ], [ -77.07597, 38.73448 ], [ -77.07671, 38.73595 ], [ -77.07616, 38.73377 ], [ -77.07655, 38.73317 ], [ -77.07847, 38.73286 ], [ -77.0804, 38.73334 ], [ -77.08087, 38.73381 ], [ -77.08089, 38.73515 ], [ -77.08176, 38.73547 ], [ -77.08185, 38.73587 ], [ -77.08156, 38.73692 ], [ -77.08032, 38.73709 ], [ -77.0816, 38.73733 ], [ -77.08185, 38.7377 ], [ -77.08092, 38.73875 ], [ -77.07983, 38.73873 ], [ -77.08108, 38.73896 ], [ -77.08159, 38.73961 ], [ -77.08128, 38.73995 ], [ -77.07949, 38.73991 ], [ -77.0805, 38.74025 ], [ -77.08046, 38.7408 ], [ -77.08125, 38.74113 ], [ -77.08084, 38.74196 ], [ -77.08168, 38.74174 ], [ -77.08222, 38.74221 ], [ -77.08176, 38.74364 ], [ -77.08075, 38.74411 ], [ -77.07956, 38.74396 ], [ -77.07965, 38.74438 ], [ -77.07878, 38.74517 ], [ -77.07788, 38.74488 ], [ -77.07734, 38.74368 ], [ -77.07136, 38.74563 ], [ -77.07016, 38.74407 ], [ -77.06997, 38.74138 ], [ -77.06965, 38.74136 ], [ -77.06933, 38.74207 ], [ -77.06871, 38.74232 ], [ -77.06946, 38.74252 ], [ -77.06925, 38.7433 ], [ -77.06484, 38.74372 ], [ -77.06285, 38.74537 ], [ -77.05973, 38.74686 ], [ -77.05922, 38.74676 ], [ -77.05895, 38.7464 ], [ -77.05942, 38.74567 ], [ -77.05841, 38.74494 ], [ -77.0574, 38.74512 ], [ -77.057, 38.74485 ], [ -77.05312, 38.73848 ], [ -77.05419, 38.73813 ], [ -77.05447, 38.73738 ], [ -77.05531, 38.73701 ], [ -77.05858, 38.7381 ], [ -77.05906, 38.73765 ], [ -77.06059, 38.73804 ], [ -77.06088, 38.73732 ], [ -77.0617, 38.73734 ], [ -77.06135, 38.73684 ], [ -77.0625, 38.73566 ], [ -77.05812, 38.73451 ], [ -77.05785, 38.73514 ], [ -77.05885, 38.73587 ], [ -77.05851, 38.73661 ], [ -77.05669, 38.73678 ], [ -77.05536, 38.73622 ], [ -77.055, 38.73652 ], [ -77.05409, 38.73625 ], [ -77.05527, 38.73248 ], [ -77.05417, 38.73083 ], [ -77.05504, 38.73049 ], [ -77.05574, 38.73123 ], [ -77.05604, 38.73045 ], [ -77.05357, 38.72968 ], [ -77.05299, 38.73036 ], [ -77.0521, 38.73004 ], [ -77.05226, 38.72935 ], [ -77.05135, 38.72892 ], [ -77.05133, 38.7285 ], [ -77.05169, 38.7282 ], [ -77.05257, 38.72829 ], [ -77.05355, 38.72574 ], [ -77.04919, 38.7244 ], [ -77.04876, 38.72379 ], [ -77.04897, 38.72264 ], [ -77.04584, 38.72118 ], [ -77.04611, 38.72024 ], [ -77.04848, 38.71993 ], [ -77.04779, 38.71942 ], [ -77.04797, 38.71903 ], [ -77.0495, 38.71891 ], [ -77.04654, 38.71778 ], [ -77.04611, 38.71731 ], [ -77.04515, 38.71779 ], [ -77.04419, 38.71764 ], [ -77.04449, 38.71664 ], [ -77.04627, 38.71565 ], [ -77.0462, 38.71415 ], [ -77.04716, 38.71336 ], [ -77.04805, 38.71336 ], [ -77.0486, 38.71396 ], [ -77.04759, 38.71458 ], [ -77.04769, 38.71547 ], [ -77.05003, 38.71595 ], [ -77.05056, 38.71695 ], [ -77.05771, 38.71816 ], [ -77.05862, 38.71595 ], [ -77.05939, 38.71526 ], [ -77.05848, 38.7148 ], [ -77.05902, 38.71415 ], [ -77.05851, 38.7117 ], [ -77.05727, 38.71113 ], [ -77.05718, 38.70996 ], [ -77.05815, 38.70988 ], [ -77.05844, 38.71051 ], [ -77.05918, 38.71074 ], [ -77.06128, 38.71081 ], [ -77.06186, 38.71364 ], [ -77.06175, 38.71256 ], [ -77.06237, 38.71198 ], [ -77.06475, 38.71183 ], [ -77.06692, 38.71063 ], [ -77.06778, 38.71099 ], [ -77.06683, 38.71201 ], [ -77.06736, 38.71211 ], [ -77.06839, 38.71081 ], [ -77.07039, 38.71115 ], [ -77.07106, 38.71056 ], [ -77.07158, 38.71061 ], [ -77.07198, 38.71096 ], [ -77.07145, 38.71198 ], [ -77.07224, 38.71276 ], [ -77.07175, 38.71446 ], [ -77.07123, 38.71485 ], [ -77.07071, 38.71478 ], [ -77.0704, 38.71419 ], [ -77.07012, 38.71436 ], [ -77.07062, 38.71516 ], [ -77.06973, 38.71562 ], [ -77.06942, 38.71637 ], [ -77.07008, 38.71678 ], [ -77.07098, 38.71572 ], [ -77.07264, 38.71581 ], [ -77.07362, 38.71704 ], [ -77.0788, 38.72133 ], [ -77.07919, 38.72289 ] ], [ [ -77.06758, 38.74003 ], [ -77.06762, 38.74011 ], [ -77.06762, 38.74004 ], [ -77.06758, 38.74003 ] ], [ [ -77.06722, 38.73934 ], [ -77.06727, 38.73943 ], [ -77.06735, 38.73929 ], [ -77.06722, 38.73934 ] ], [ [ -77.06627, 38.73702 ], [ -77.06705, 38.73678 ], [ -77.06382, 38.73598 ], [ -77.06265, 38.73722 ], [ -77.06493, 38.73684 ], [ -77.06613, 38.73758 ], [ -77.06627, 38.73702 ] ], [ [ -77.06688, 38.73491 ], [ -77.06687, 38.73495 ], [ -77.06692, 38.73492 ], [ -77.06688, 38.73491 ] ], [ [ -77.06536, 38.7316 ], [ -77.0653, 38.73169 ], [ -77.06613, 38.73182 ], [ -77.06536, 38.7316 ] ], [ [ -77.06623, 38.73078 ], [ -77.06633, 38.73088 ], [ -77.06636, 38.73073 ], [ -77.06623, 38.73078 ] ], [ [ -77.06623, 38.72984 ], [ -77.06652, 38.73 ], [ -77.0666, 38.72955 ], [ -77.06623, 38.72984 ] ], [ [ -77.06803, 38.72373 ], [ -77.06721, 38.72507 ], [ -77.06669, 38.72514 ], [ -77.06616, 38.72449 ], [ -77.06644, 38.72347 ], [ -77.06293, 38.72291 ], [ -77.06264, 38.72346 ], [ -77.06367, 38.7233 ], [ -77.06596, 38.72372 ], [ -77.06584, 38.72575 ], [ -77.06721, 38.72615 ], [ -77.06803, 38.72373 ] ], [ [ -77.06577, 38.72022 ], [ -77.06563, 38.72086 ], [ -77.06584, 38.72086 ], [ -77.06636, 38.72028 ], [ -77.06577, 38.72022 ] ], [ [ -77.06665, 38.71816 ], [ -77.06716, 38.71807 ], [ -77.06779, 38.7183 ], [ -77.06768, 38.71947 ], [ -77.06947, 38.7195 ], [ -77.06979, 38.7187 ], [ -77.06916, 38.71846 ], [ -77.06941, 38.71774 ], [ -77.06804, 38.7169 ], [ -77.06717, 38.71703 ], [ -77.06658, 38.7165 ], [ -77.06612, 38.71653 ], [ -77.06593, 38.71781 ], [ -77.06598, 38.71915 ], [ -77.06665, 38.71816 ] ], [ [ -77.07079, 38.72563 ], [ -77.07115, 38.7257 ], [ -77.07123, 38.72537 ], [ -77.07082, 38.72531 ], [ -77.07079, 38.72563 ] ], [ [ -77.07259, 38.71848 ], [ -77.07332, 38.71819 ], [ -77.07176, 38.71805 ], [ -77.07259, 38.71848 ] ], [ [ -77.07639, 38.72202 ], [ -77.07635, 38.72198 ], [ -77.07632, 38.72208 ], [ -77.07639, 38.72202 ] ], [ [ -77.07739, 38.72834 ], [ -77.07739, 38.72829 ], [ -77.07735, 38.72832 ], [ -77.07739, 38.72834 ] ], [ [ -77.07622, 38.72769 ], [ -77.0762, 38.72769 ], [ -77.07621, 38.7277 ], [ -77.07622, 38.72769 ] ], [ [ -77.07872, 38.7294 ], [ -77.0786, 38.72954 ], [ -77.07881, 38.72947 ], [ -77.07872, 38.7294 ] ], [ [ -77.07304, 38.72865 ], [ -77.07338, 38.72845 ], [ -77.07305, 38.72854 ], [ -77.07304, 38.72865 ] ], [ [ -77.07143, 38.717 ], [ -77.07205, 38.71693 ], [ -77.07189, 38.71671 ], [ -77.07143, 38.717 ] ], [ [ -77.07531, 38.72452 ], [ -77.07469, 38.72472 ], [ -77.07542, 38.72481 ], [ -77.07531, 38.72452 ] ], [ [ -77.07269, 38.74414 ], [ -77.07275, 38.74411 ], [ -77.07272, 38.74411 ], [ -77.07269, 38.74414 ] ], [ [ -77.07439, 38.74353 ], [ -77.07596, 38.743 ], [ -77.07387, 38.73995 ], [ -77.07205, 38.74044 ], [ -77.07439, 38.74353 ] ], [ [ -77.07262, 38.73827 ], [ -77.0726, 38.73825 ], [ -77.0726, 38.73829 ], [ -77.07262, 38.73827 ] ], [ [ -77.07513, 38.73951 ], [ -77.07552, 38.74007 ], [ -77.07719, 38.74018 ], [ -77.07809, 38.73984 ], [ -77.07845, 38.73862 ], [ -77.07769, 38.73847 ], [ -77.07513, 38.73951 ] ], [ [ -77.07662, 38.73676 ], [ -77.07572, 38.73671 ], [ -77.07364, 38.73753 ], [ -77.07419, 38.73823 ], [ -77.07589, 38.73704 ], [ -77.07697, 38.7373 ], [ -77.07662, 38.73676 ] ], [ [ -77.07903, 38.7366 ], [ -77.07903, 38.73668 ], [ -77.07909, 38.73646 ], [ -77.07903, 38.7366 ] ], [ [ -77.07882, 38.73738 ], [ -77.0789, 38.73711 ], [ -77.0787, 38.73743 ], [ -77.07882, 38.73738 ] ], [ [ -77.08056, 38.74263 ], [ -77.08042, 38.74306 ], [ -77.08081, 38.74254 ], [ -77.08077, 38.74212 ], [ -77.08056, 38.74263 ] ], [ [ -77.07985, 38.74105 ], [ -77.07918, 38.74096 ], [ -77.07879, 38.74236 ], [ -77.07985, 38.74105 ] ], [ [ -77.07308, 38.73903 ], [ -77.07317, 38.739 ], [ -77.07312, 38.73894 ], [ -77.07308, 38.73903 ] ], [ [ -77.07632, 38.74113 ], [ -77.07629, 38.74116 ], [ -77.07663, 38.74166 ], [ -77.07743, 38.74133 ], [ -77.07632, 38.74113 ] ], [ [ -77.0714, 38.73247 ], [ -77.07143, 38.73261 ], [ -77.07161, 38.73251 ], [ -77.0714, 38.73247 ] ], [ [ -77.07011, 38.73747 ], [ -77.06862, 38.73712 ], [ -77.06907, 38.73834 ], [ -77.06905, 38.74037 ], [ -77.07, 38.7403 ], [ -77.07011, 38.73747 ] ], [ [ -77.07155, 38.74034 ], [ -77.07138, 38.74024 ], [ -77.07138, 38.74034 ], [ -77.07155, 38.74034 ] ], [ [ -77.07134, 38.7395 ], [ -77.07136, 38.73975 ], [ -77.07144, 38.73966 ], [ -77.07134, 38.7395 ] ], [ [ -77.07136, 38.74154 ], [ -77.07155, 38.74159 ], [ -77.07143, 38.74142 ], [ -77.07136, 38.74154 ] ], [ [ -77.07195, 38.74238 ], [ -77.07207, 38.74236 ], [ -77.07201, 38.74226 ], [ -77.07195, 38.74238 ] ], [ [ -77.06901, 38.71196 ], [ -77.06918, 38.71186 ], [ -77.06905, 38.71184 ], [ -77.06901, 38.71196 ] ], [ [ -77.06923, 38.71384 ], [ -77.0692, 38.71397 ], [ -77.06927, 38.71399 ], [ -77.06923, 38.71384 ] ], [ [ -77.07019, 38.72942 ], [ -77.07053, 38.72839 ], [ -77.06876, 38.72803 ], [ -77.06797, 38.72969 ], [ -77.06857, 38.7295 ], [ -77.07, 38.73038 ], [ -77.07053, 38.72999 ], [ -77.07019, 38.72942 ] ], [ [ -77.06914, 38.72496 ], [ -77.06888, 38.726 ], [ -77.0693, 38.72605 ], [ -77.06956, 38.72512 ], [ -77.06914, 38.72496 ] ], [ [ -77.06907, 38.72186 ], [ -77.06911, 38.72195 ], [ -77.0691, 38.72176 ], [ -77.06907, 38.72186 ] ], [ [ -77.06839, 38.72083 ], [ -77.06894, 38.72063 ], [ -77.06861, 38.72058 ], [ -77.06839, 38.72083 ] ], [ [ -77.06694, 38.72847 ], [ -77.06698, 38.72838 ], [ -77.06692, 38.72845 ], [ -77.06694, 38.72847 ] ], [ [ -77.06845, 38.73449 ], [ -77.0682, 38.73391 ], [ -77.06807, 38.73467 ], [ -77.06845, 38.73449 ] ], [ [ -77.06043, 38.74406 ], [ -77.06051, 38.74404 ], [ -77.06048, 38.74402 ], [ -77.06043, 38.74406 ] ], [ [ -77.05906, 38.74227 ], [ -77.05903, 38.74187 ], [ -77.05709, 38.74261 ], [ -77.05796, 38.74391 ], [ -77.05992, 38.74275 ], [ -77.05906, 38.74227 ] ], [ [ -77.05993, 38.73341 ], [ -77.05963, 38.73324 ], [ -77.05943, 38.73374 ], [ -77.05987, 38.73377 ], [ -77.05993, 38.73341 ] ], [ [ -77.06409, 38.73117 ], [ -77.06528, 38.72902 ], [ -77.0637, 38.72897 ], [ -77.06332, 38.72844 ], [ -77.05926, 38.72631 ], [ -77.05884, 38.7272 ], [ -77.06051, 38.72799 ], [ -77.06053, 38.7284 ], [ -77.05973, 38.72871 ], [ -77.06011, 38.72983 ], [ -77.06409, 38.73117 ] ], [ [ -77.06062, 38.71972 ], [ -77.05977, 38.71958 ], [ -77.05871, 38.72382 ], [ -77.05914, 38.72449 ], [ -77.06062, 38.71972 ] ], [ [ -77.05942, 38.71744 ], [ -77.05965, 38.71748 ], [ -77.0595, 38.71727 ], [ -77.05942, 38.71744 ] ], [ [ -77.06352, 38.74148 ], [ -77.06341, 38.74126 ], [ -77.06317, 38.74143 ], [ -77.06352, 38.74148 ] ], [ [ -77.06283, 38.74048 ], [ -77.06301, 38.74048 ], [ -77.06299, 38.74044 ], [ -77.06283, 38.74048 ] ], [ [ -77.06527, 38.73848 ], [ -77.0652, 38.73852 ], [ -77.06528, 38.7385 ], [ -77.06527, 38.73848 ] ], [ [ -77.06435, 38.72031 ], [ -77.06441, 38.72 ], [ -77.06371, 38.71963 ], [ -77.06269, 38.72004 ], [ -77.06247, 38.72066 ], [ -77.06435, 38.72031 ] ], [ [ -77.06373, 38.71866 ], [ -77.06385, 38.71858 ], [ -77.06371, 38.71846 ], [ -77.06373, 38.71866 ] ], [ [ -77.06197, 38.7148 ], [ -77.06197, 38.71473 ], [ -77.0614, 38.71483 ], [ -77.06072, 38.71495 ], [ -77.06197, 38.7148 ] ], [ [ -77.06347, 38.71579 ], [ -77.06359, 38.71674 ], [ -77.06464, 38.7171 ], [ -77.06473, 38.71618 ], [ -77.06409, 38.71637 ], [ -77.06347, 38.71579 ] ], [ [ -77.06462, 38.71874 ], [ -77.06461, 38.71858 ], [ -77.06449, 38.71863 ], [ -77.06462, 38.71874 ] ], [ [ -77.0641, 38.72149 ], [ -77.06412, 38.72143 ], [ -77.06393, 38.72146 ], [ -77.0641, 38.72149 ] ], [ [ -77.06213, 38.73315 ], [ -77.06219, 38.73367 ], [ -77.06175, 38.73393 ], [ -77.06187, 38.73436 ], [ -77.06267, 38.73456 ], [ -77.0631, 38.73343 ], [ -77.06213, 38.73315 ] ], [ [ -77.06246, 38.73192 ], [ -77.06238, 38.73189 ], [ -77.0629, 38.73223 ], [ -77.06246, 38.73192 ] ], [ [ -77.06412, 38.72656 ], [ -77.06408, 38.72656 ], [ -77.06411, 38.72657 ], [ -77.06412, 38.72656 ] ], [ [ -77.06366, 38.72439 ], [ -77.06349, 38.72437 ], [ -77.06365, 38.72444 ], [ -77.06366, 38.72439 ] ], [ [ -77.06569, 38.73403 ], [ -77.06412, 38.73369 ], [ -77.06504, 38.73399 ], [ -77.06498, 38.73514 ], [ -77.06542, 38.73525 ], [ -77.06569, 38.73403 ] ], [ [ -77.06426, 38.73246 ], [ -77.06421, 38.73258 ], [ -77.06509, 38.73279 ], [ -77.06592, 38.73295 ], [ -77.06426, 38.73246 ] ], [ [ -77.06216, 38.74261 ], [ -77.06217, 38.74262 ], [ -77.06217, 38.7426 ], [ -77.06216, 38.74261 ] ], [ [ -77.06135, 38.74196 ], [ -77.06113, 38.74196 ], [ -77.06126, 38.7421 ], [ -77.06135, 38.74196 ] ], [ [ -77.06089, 38.71859 ], [ -77.06071, 38.71863 ], [ -77.06086, 38.71865 ], [ -77.06089, 38.71859 ] ], [ [ -77.06023, 38.71182 ], [ -77.05991, 38.71184 ], [ -77.06013, 38.7135 ], [ -77.06035, 38.71376 ], [ -77.06023, 38.71182 ] ], [ [ -77.06087, 38.71707 ], [ -77.06081, 38.71728 ], [ -77.06092, 38.71711 ], [ -77.06087, 38.71707 ] ], [ [ -77.06122, 38.72301 ], [ -77.06155, 38.72279 ], [ -77.06133, 38.72264 ], [ -77.06122, 38.72301 ] ], [ [ -77.0613, 38.72403 ], [ -77.0617, 38.72384 ], [ -77.06107, 38.72352 ], [ -77.06088, 38.72426 ], [ -77.0613, 38.72403 ] ], [ [ -77.05653, 38.74101 ], [ -77.056, 38.74096 ], [ -77.05638, 38.74153 ], [ -77.05653, 38.74101 ] ], [ [ -77.0568, 38.73419 ], [ -77.05616, 38.73404 ], [ -77.05593, 38.7347 ], [ -77.05673, 38.73485 ], [ -77.0568, 38.73419 ] ], [ [ -77.05832, 38.73212 ], [ -77.05701, 38.73169 ], [ -77.05651, 38.73299 ], [ -77.05748, 38.73322 ], [ -77.05832, 38.73212 ] ], [ [ -77.05802, 38.72583 ], [ -77.05835, 38.72544 ], [ -77.05736, 38.72407 ], [ -77.05572, 38.7236 ], [ -77.05526, 38.72497 ], [ -77.05802, 38.72583 ] ], [ [ -77.05402, 38.72006 ], [ -77.05365, 38.72007 ], [ -77.05474, 38.72217 ], [ -77.05524, 38.72231 ], [ -77.05402, 38.72006 ] ], [ [ -77.05567, 38.72047 ], [ -77.05599, 38.721 ], [ -77.05615, 38.72032 ], [ -77.05567, 38.72047 ] ], [ [ -77.05646, 38.71909 ], [ -77.05522, 38.7189 ], [ -77.05522, 38.71907 ], [ -77.05646, 38.71909 ] ], [ [ -77.05673, 38.72226 ], [ -77.05752, 38.72297 ], [ -77.05842, 38.71937 ], [ -77.05782, 38.71928 ], [ -77.05673, 38.72226 ] ], [ [ -77.05077, 38.72371 ], [ -77.05141, 38.72236 ], [ -77.05067, 38.72215 ], [ -77.05016, 38.72324 ], [ -77.05077, 38.72371 ] ], [ [ -77.05325, 38.71859 ], [ -77.05384, 38.71898 ], [ -77.05385, 38.71869 ], [ -77.05325, 38.71859 ] ], [ [ -77.05068, 38.71922 ], [ -77.05073, 38.71924 ], [ -77.05074, 38.71923 ], [ -77.05068, 38.71922 ] ], [ [ -77.04667, 38.71677 ], [ -77.04963, 38.71775 ], [ -77.04926, 38.7174 ], [ -77.04702, 38.71658 ], [ -77.04667, 38.71677 ] ], [ [ -77.05238, 38.72149 ], [ -77.05297, 38.72166 ], [ -77.05259, 38.721 ], [ -77.05238, 38.72149 ] ], [ [ -77.05098, 38.72109 ], [ -77.05107, 38.72111 ], [ -77.05101, 38.72108 ], [ -77.05098, 38.72109 ] ] ] } }
]
}
