{
"type": "FeatureCollection",
"name": "232",
"crs": { "type": "name", "properties": { "name": "urn:ogc:def:crs:OGC:1.3:CRS84" } },
"xy_coordinate_resolution": 1e-05,
"features": [
{ "type": "Feature", "properties": { "variant": "T0", "miles": 0.5 }, "geometry": { "type": "Polygon", "coordinates": [ [ [ -77.48522, 38.84774 ], [ -77.48764, 38.84822 ], [ -77.48816, 38.84769 ], [ -77.48869, 38.8477 ], [ -77.48906, 38.848 ], [ -77.48879, 38.84926 ], [ -77.48972, 38.84853 ], [ -77.49161, 38.85014 ], [ -77.49099, 38.85073 ], [ -77.48902, 38.85033 ], [ -77.48842, 38.85097 ], [ -77.48863, 38.85152 ], [ -77.48806, 38.8519 ], [ -77.48946, 38.85355 ], [ -77.48926, 38.8543 ], [ -77.48836, 38.85475 ], [ -77.48741, 38.8546 ], [ -77.4873, 38.85419 ], [ -77.48792, 38.85369 ], [ -77.4862, 38.85165 ], [ -77.48537, 38.8518 ], [ -77.48392, 38.8525 ], [ -77.48425, 38.85479 ], [ -77.48316, 38.85602 ], [ -77.48221, 38.85623 ], [ -77.48186, 38.85535 ], [ -77.483, 38.85429 ], [ -77.48283, 38.85365 ], [ -77.48137, 38.85391 ], [ -77.48172, 38.8545 ], [ -77.4809, 38.85492 ], [ -77.47998, 38.85392 ], [ -77.48063, 38.853 ], [ -77.48253, 38.8526 ], [ -77.48226, 38.85164 ], [ -77.48061, 38.85202 ], [ -77.48018, 38.85133 ], [ -77.4809, 38.85089 ], [ -77.48009, 38.85034 ], [ -77.48161, 38.84934 ], [ -77.48207, 38.84847 ], [ -77.48522, 38.84774 ] ], [ [ -77.48544, 38.85069 ], [ -77.48453, 38.84913 ], [ -77.48304, 38.8494 ], [ -77.48361, 38.85142 ], [ -77.48544, 38.85069 ] ], [ [ -77.48766, 38.85007 ], [ -77.48698, 38.84918 ], [ -77.48588, 38.84883 ], [ -77.48668, 38.85022 ], [ -77.48766, 38.85007 ] ], [ [ -77.48196, 38.85059 ], [ -77.48139, 38.8507 ], [ -77.48132, 38.85074 ], [ -77.48196, 38.85059 ] ] ] } },
{ "type": "Feature", "properties": { "variant": "T0", "miles": 1.0 }, "geometry": { "type": "Polygon", "coordinates": [ [ [ -77.48113, 38.841 ], [ -77.4852, 38.84774 ], [ -77.48764, 38.84822 ], [ -77.48816, 38.84769 ], [ -77.48869, 38.8477 ], [ -77.48906, 38.848 ], [ -77.48879, 38.84926 ], [ -77.48972, 38.84853 ], [ -77.49161, 38.85014 ], [ -77.49099, 38.85073 ], [ -77.48902, 38.85033 ], [ -77.48842, 38.85097 ], [ -77.48863, 38.85152 ], [ -77.48806, 38.8519 ], [ -77.48906, 38.85308 ], [ -77.48936, 38.85159 ], [ -77.49044, 38.85167 ], [ -77.49041, 38.8533 ], [ -77.48982, 38.85402 ], [ -77.49346, 38.85867 ], [ -77.49421, 38.86138 ], [ -77.49367, 38.86202 ], [ -77.49285, 38.8616 ], [ -77.49216, 38.85905 ], [ -77.48886, 38.85485 ], [ -77.4883, 38.85672 ], [ -77.48781, 38.85687 ], [ -77.48699, 38.85639 ], [ -77.48687, 38.85565 ], [ -77.48743, 38.85499 ], [ -77.48708, 38.855 ], [ -77.48652, 38.85546 ], [ -77.48695, 38.85694 ], [ -77.48645, 38.85725 ], [ -77.48557, 38.85692 ], [ -77.48514, 38.85557 ], [ -77.48542, 38.85469 ], [ -77.48624, 38.85409 ], [ -77.48792, 38.85369 ], [ -77.4862, 38.85165 ], [ -77.48392, 38.8525 ], [ -77.4844, 38.85441 ], [ -77.48358, 38.85532 ], [ -77.48471, 38.85657 ], [ -77.48425, 38.85823 ], [ -77.48226, 38.859 ], [ -77.48074, 38.85863 ], [ -77.48011, 38.85807 ], [ -77.48021, 38.85693 ], [ -77.48129, 38.85626 ], [ -77.483, 38.85429 ], [ -77.48283, 38.85365 ], [ -77.48137, 38.85391 ], [ -77.48172, 38.8545 ], [ -77.48076, 38.85489 ], [ -77.48127, 38.85582 ], [ -77.48055, 38.85633 ], [ -77.47985, 38.85594 ], [ -77.47882, 38.85438 ], [ -77.47906, 38.85302 ], [ -77.48059, 38.85201 ], [ -77.48021, 38.85175 ], [ -77.48037, 38.85117 ], [ -77.47975, 38.85147 ], [ -77.47949, 38.85245 ], [ -77.47851, 38.85243 ], [ -77.47847, 38.85107 ], [ -77.47953, 38.85028 ], [ -77.47893, 38.84984 ], [ -77.47908, 38.84945 ], [ -77.47986, 38.84922 ], [ -77.48086, 38.84963 ], [ -77.48161, 38.84934 ], [ -77.48107, 38.84747 ], [ -77.48041, 38.84786 ], [ -77.4799, 38.84774 ], [ -77.47965, 38.84738 ], [ -77.48011, 38.84668 ], [ -77.4789, 38.84592 ], [ -77.47715, 38.84626 ], [ -77.4768, 38.84595 ], [ -77.47717, 38.84531 ], [ -77.47595, 38.844 ], [ -77.47608, 38.8436 ], [ -77.47847, 38.84281 ], [ -77.48059, 38.84269 ], [ -77.48017, 38.84194 ], [ -77.47833, 38.84181 ], [ -77.47847, 38.84106 ], [ -77.48074, 38.84072 ], [ -77.48113, 38.841 ] ], [ [ -77.48372, 38.85136 ], [ -77.48544, 38.85069 ], [ -77.48453, 38.84913 ], [ -77.48304, 38.8494 ], [ -77.48372, 38.85136 ] ], [ [ -77.48068, 38.84566 ], [ -77.4812, 38.84572 ], [ -77.48138, 38.84562 ], [ -77.48068, 38.84566 ] ], [ [ -77.48049, 38.8441 ], [ -77.48035, 38.84378 ], [ -77.47884, 38.84386 ], [ -77.47947, 38.84424 ], [ -77.47934, 38.8447 ], [ -77.47981, 38.84511 ], [ -77.47957, 38.84446 ], [ -77.48049, 38.8441 ] ], [ [ -77.48352, 38.84752 ], [ -77.48243, 38.84727 ], [ -77.48274, 38.84835 ], [ -77.48391, 38.84815 ], [ -77.48352, 38.84752 ] ], [ [ -77.48768, 38.85005 ], [ -77.48698, 38.84918 ], [ -77.48588, 38.84883 ], [ -77.48668, 38.85022 ], [ -77.48768, 38.85005 ] ], [ [ -77.48213, 38.8579 ], [ -77.48323, 38.85744 ], [ -77.48305, 38.85632 ], [ -77.48136, 38.85754 ], [ -77.48213, 38.8579 ] ], [ [ -77.48227, 38.85171 ], [ -77.48198, 38.8517 ], [ -77.48162, 38.85182 ], [ -77.48227, 38.85171 ] ], [ [ -77.48139, 38.8507 ], [ -77.48196, 38.85059 ], [ -77.4819, 38.8504 ], [ -77.48169, 38.85049 ], [ -77.48139, 38.8507 ] ], [ [ -77.47814, 38.8441 ], [ -77.47821, 38.84408 ], [ -77.47822, 38.84407 ], [ -77.47814, 38.8441 ] ] ] } },
{ "type": "Feature", "properties": { "variant": "T0", "miles": 1.5 }, "geometry": { "type": "Polygon", "coordinates": [ [ [ -77.48083, 38.83725 ], [ -77.48146, 38.8385 ], [ -77.48057, 38.83881 ], [ -77.47939, 38.83715 ], [ -77.4788, 38.83729 ], [ -77.48189, 38.8423 ], [ -77.48292, 38.8426 ], [ -77.48425, 38.84429 ], [ -77.4861, 38.8451 ], [ -77.4858, 38.84583 ], [ -77.48373, 38.84532 ], [ -77.4852, 38.84774 ], [ -77.48764, 38.84822 ], [ -77.48816, 38.84769 ], [ -77.48869, 38.8477 ], [ -77.48906, 38.848 ], [ -77.48879, 38.84926 ], [ -77.48972, 38.84853 ], [ -77.49161, 38.85014 ], [ -77.49099, 38.85073 ], [ -77.48902, 38.85033 ], [ -77.48842, 38.85097 ], [ -77.48863, 38.85152 ], [ -77.48806, 38.8519 ], [ -77.48906, 38.85308 ], [ -77.48936, 38.85159 ], [ -77.49044, 38.85167 ], [ -77.49041, 38.8533 ], [ -77.48982, 38.85402 ], [ -77.49352, 38.85881 ], [ -77.49539, 38.86608 ], [ -77.49485, 38.86671 ], [ -77.49335, 38.86689 ], [ -77.49269, 38.86646 ], [ -77.49317, 38.86579 ], [ -77.4939, 38.86575 ], [ -77.49307, 38.86246 ], [ -77.49141, 38.86462 ], [ -77.4877, 38.86599 ], [ -77.4867, 38.86577 ], [ -77.48689, 38.86502 ], [ -77.49071, 38.86367 ], [ -77.49198, 38.8615 ], [ -77.49271, 38.86107 ], [ -77.49216, 38.85905 ], [ -77.48886, 38.85485 ], [ -77.4883, 38.85672 ], [ -77.48781, 38.85687 ], [ -77.48699, 38.85639 ], [ -77.48687, 38.85565 ], [ -77.48743, 38.85499 ], [ -77.48708, 38.855 ], [ -77.48652, 38.85546 ], [ -77.48695, 38.85694 ], [ -77.48645, 38.85725 ], [ -77.48557, 38.85692 ], [ -77.48514, 38.85557 ], [ -77.48542, 38.85469 ], [ -77.48624, 38.85409 ], [ -77.48792, 38.85369 ], [ -77.4862, 38.85165 ], [ -77.48392, 38.8525 ], [ -77.4844, 38.85441 ], [ -77.48358, 38.85532 ], [ -77.48467, 38.85635 ], [ -77.48436, 38.85809 ], [ -77.48287, 38.85894 ], [ -77.48094, 38.85871 ], [ -77.48011, 38.85807 ], [ -77.48001, 38.8573 ], [ -77.483, 38.85429 ], [ -77.48283, 38.85365 ], [ -77.48137, 38.85391 ], [ -77.48172, 38.8545 ], [ -77.48076, 38.85489 ], [ -77.48127, 38.85582 ], [ -77.48055, 38.85633 ], [ -77.48007, 38.85615 ], [ -77.47874, 38.85387 ], [ -77.47926, 38.85278 ], [ -77.48059, 38.85201 ], [ -77.48021, 38.85175 ], [ -77.48037, 38.85117 ], [ -77.47975, 38.85147 ], [ -77.47949, 38.85245 ], [ -77.47851, 38.85243 ], [ -77.47839, 38.85128 ], [ -77.47953, 38.85028 ], [ -77.47893, 38.84984 ], [ -77.47955, 38.84924 ], [ -77.47796, 38.84935 ], [ -77.47709, 38.84886 ], [ -77.47664, 38.84713 ], [ -77.47726, 38.84626 ], [ -77.47683, 38.84559 ], [ -77.47601, 38.84578 ], [ -77.47544, 38.84472 ], [ -77.47359, 38.84384 ], [ -77.47349, 38.8448 ], [ -77.47281, 38.84553 ], [ -77.4744, 38.84493 ], [ -77.47494, 38.84555 ], [ -77.47361, 38.84642 ], [ -77.47287, 38.84785 ], [ -77.47235, 38.84792 ], [ -77.47191, 38.84768 ], [ -77.47211, 38.84652 ], [ -77.47164, 38.84632 ], [ -77.47146, 38.84601 ], [ -77.4714, 38.84534 ], [ -77.47078, 38.8459 ], [ -77.46986, 38.84606 ], [ -77.46785, 38.84496 ], [ -77.46825, 38.84155 ], [ -77.4691, 38.84117 ], [ -77.46953, 38.84155 ], [ -77.47294, 38.83929 ], [ -77.47412, 38.83893 ], [ -77.47397, 38.83745 ], [ -77.47532, 38.83762 ], [ -77.4755, 38.83886 ], [ -77.47735, 38.83887 ], [ -77.47769, 38.83964 ], [ -77.47887, 38.83977 ], [ -77.47751, 38.8377 ], [ -77.47586, 38.83723 ], [ -77.47533, 38.83664 ], [ -77.47556, 38.83583 ], [ -77.47653, 38.83542 ], [ -77.47616, 38.83415 ], [ -77.47667, 38.8335 ], [ -77.47807, 38.83333 ], [ -77.47827, 38.83371 ], [ -77.47764, 38.83436 ], [ -77.47792, 38.83532 ], [ -77.47941, 38.83529 ], [ -77.48026, 38.83601 ], [ -77.4818, 38.8364 ], [ -77.48273, 38.83607 ], [ -77.48306, 38.83683 ], [ -77.48393, 38.8373 ], [ -77.48354, 38.838 ], [ -77.48083, 38.83725 ] ], [ [ -77.47914, 38.84726 ], [ -77.47926, 38.84744 ], [ -77.47933, 38.84738 ], [ -77.47914, 38.84726 ] ], [ [ -77.47888, 38.84593 ], [ -77.47891, 38.84593 ], [ -77.4789, 38.84592 ], [ -77.47888, 38.84593 ] ], [ [ -77.47989, 38.84414 ], [ -77.48052, 38.84415 ], [ -77.48035, 38.84378 ], [ -77.47884, 38.84386 ], [ -77.47947, 38.84424 ], [ -77.47961, 38.84496 ], [ -77.47989, 38.84414 ] ], [ [ -77.47844, 38.84281 ], [ -77.47615, 38.84296 ], [ -77.47691, 38.8434 ], [ -77.47869, 38.84277 ], [ -77.48059, 38.84269 ], [ -77.48017, 38.84194 ], [ -77.47844, 38.84281 ] ], [ [ -77.47957, 38.84095 ], [ -77.47951, 38.84084 ], [ -77.47935, 38.84097 ], [ -77.47957, 38.84095 ] ], [ [ -77.48198, 38.8517 ], [ -77.48162, 38.85182 ], [ -77.48227, 38.85171 ], [ -77.48198, 38.8517 ] ], [ [ -77.48544, 38.85069 ], [ -77.48453, 38.84913 ], [ -77.48304, 38.8494 ], [ -77.48372, 38.85136 ], [ -77.48544, 38.85069 ] ], [ [ -77.48391, 38.84815 ], [ -77.48349, 38.84748 ], [ -77.48285, 38.8476 ], [ -77.48243, 38.84727 ], [ -77.48279, 38.84834 ], [ -77.48391, 38.84815 ] ], [ [ -77.48588, 38.84883 ], [ -77.48668, 38.85022 ], [ -77.48769, 38.85002 ], [ -77.48698, 38.84918 ], [ -77.48588, 38.84883 ] ], [ [ -77.48068, 38.84566 ], [ -77.48087, 38.84568 ], [ -77.48138, 38.84562 ], [ -77.48068, 38.84566 ] ], [ [ -77.48037, 38.8481 ], [ -77.48121, 38.84825 ], [ -77.48132, 38.84865 ], [ -77.48023, 38.84929 ], [ -77.48086, 38.84963 ], [ -77.48161, 38.84934 ], [ -77.48107, 38.84747 ], [ -77.48037, 38.8481 ] ], [ [ -77.48139, 38.8507 ], [ -77.48132, 38.85074 ], [ -77.48196, 38.85059 ], [ -77.48139, 38.8507 ] ], [ [ -77.48141, 38.85748 ], [ -77.48141, 38.85768 ], [ -77.48236, 38.85792 ], [ -77.48309, 38.85763 ], [ -77.48326, 38.85646 ], [ -77.48279, 38.85628 ], [ -77.48141, 38.85748 ] ], [ [ -77.47693, 38.84547 ], [ -77.47717, 38.84531 ], [ -77.47694, 38.84522 ], [ -77.47693, 38.84547 ] ], [ [ -77.47522, 38.84061 ], [ -77.47444, 38.84046 ], [ -77.4741, 38.84112 ], [ -77.47307, 38.84147 ], [ -77.47242, 38.84112 ], [ -77.46991, 38.84269 ], [ -77.47414, 38.8427 ], [ -77.47522, 38.84061 ] ], [ [ -77.47424, 38.84001 ], [ -77.47382, 38.84013 ], [ -77.47437, 38.84035 ], [ -77.47424, 38.84001 ] ], [ [ -77.47653, 38.84098 ], [ -77.47672, 38.84099 ], [ -77.47662, 38.84089 ], [ -77.47653, 38.84098 ] ], [ [ -77.47564, 38.84011 ], [ -77.47563, 38.84014 ], [ -77.47578, 38.84003 ], [ -77.47564, 38.84011 ] ], [ [ -77.47814, 38.8441 ], [ -77.47818, 38.84411 ], [ -77.47822, 38.84407 ], [ -77.47814, 38.8441 ] ], [ [ -77.47597, 38.84186 ], [ -77.47633, 38.84188 ], [ -77.4761, 38.84151 ], [ -77.47597, 38.84186 ] ], [ [ -77.47869, 38.847 ], [ -77.47864, 38.84701 ], [ -77.47879, 38.84704 ], [ -77.47869, 38.847 ] ], [ [ -77.47803, 38.84725 ], [ -77.47818, 38.84712 ], [ -77.47805, 38.84715 ], [ -77.47803, 38.84725 ] ], [ [ -77.46915, 38.84457 ], [ -77.46949, 38.84475 ], [ -77.46966, 38.84377 ], [ -77.46915, 38.84457 ] ], [ [ -77.4701, 38.84494 ], [ -77.46981, 38.8449 ], [ -77.47, 38.84498 ], [ -77.4701, 38.84494 ] ], [ [ -77.47213, 38.84434 ], [ -77.47217, 38.84433 ], [ -77.47218, 38.84426 ], [ -77.47213, 38.84434 ] ], [ [ -77.4738, 38.84622 ], [ -77.47376, 38.84624 ], [ -77.47379, 38.84624 ], [ -77.4738, 38.84622 ] ] ] } },
{ "type": "Feature", "properties": { "variant": "T2s", "miles": 0.5 }, "geometry": { "type": "Polygon", "coordinates": [ [ [ -77.48522, 38.84774 ], [ -77.48764, 38.84822 ], [ -77.48816, 38.84769 ], [ -77.48869, 38.8477 ], [ -77.48906, 38.848 ], [ -77.48879, 38.84926 ], [ -77.48972, 38.84853 ], [ -77.49161, 38.85014 ], [ -77.49099, 38.85073 ], [ -77.48902, 38.85033 ], [ -77.48842, 38.85097 ], [ -77.48863, 38.85152 ], [ -77.48806, 38.8519 ], [ -77.48946, 38.85355 ], [ -77.48926, 38.8543 ], [ -77.48836, 38.85475 ], [ -77.48741, 38.8546 ], [ -77.4873, 38.85419 ], [ -77.48792, 38.85369 ], [ -77.4862, 38.85165 ], [ -77.48537, 38.8518 ], [ -77.48392, 38.8525 ], [ -77.48425, 38.85479 ], [ -77.48316, 38.85602 ], [ -77.48221, 38.85623 ], [ -77.48186, 38.85535 ], [ -77.483, 38.85429 ], [ -77.48283, 38.85365 ], [ -77.48137, 38.85391 ], [ -77.48172, 38.8545 ], [ -77.4809, 38.85492 ], [ -77.47998, 38.85392 ], [ -77.48063, 38.853 ], [ -77.48253, 38.8526 ], [ -77.48226, 38.85164 ], [ -77.48061, 38.85202 ], [ -77.48018, 38.85133 ], [ -77.4809, 38.85089 ], [ -77.48009, 38.85034 ], [ -77.48161, 38.84934 ], [ -77.48207, 38.84847 ], [ -77.48522, 38.84774 ] ], [ [ -77.48544, 38.85069 ], [ -77.48453, 38.84913 ], [ -77.48304, 38.8494 ], [ -77.48361, 38.85142 ], [ -77.48544, 38.85069 ] ], [ [ -77.48766, 38.85007 ], [ -77.48698, 38.84918 ], [ -77.48588, 38.84883 ], [ -77.48668, 38.85022 ], [ -77.48766, 38.85007 ] ], [ [ -77.48196, 38.85059 ], [ -77.48139, 38.8507 ], [ -77.48132, 38.85074 ], [ -77.48196, 38.85059 ] ] ] } },
{ "type": "Feature", "properties": { "variant": "T2s", "miles": 1.0 }, "geometry": { "type": "Polygon", "coordinates": [ [ [ -77.48113, 38.841 ], [ -77.4852, 38.84774 ], [ -77.48764, 38.84822 ], [ -77.48816, 38.84769 ], [ -77.48869, 38.8477 ], [ -77.48906, 38.848 ], [ -77.48879, 38.84926 ], [ -77.48972, 38.84853 ], [ -77.49161, 38.85014 ], [ -77.49099, 38.85073 ], [ -77.48902, 38.85033 ], [ -77.48842, 38.85097 ], [ -77.48863, 38.85152 ], [ -77.48806, 38.8519 ], [ -77.48906, 38.85308 ], [ -77.48936, 38.85159 ], [ -77.49044, 38.85167 ], [ -77.49041, 38.8533 ], [ -77.48982, 38.85402 ], [ -77.49346, 38.85867 ], [ -77.49421, 38.86138 ], [ -77.49367, 38.86202 ], [ -77.49285, 38.8616 ], [ -77.49216, 38.85905 ], [ -77.48886, 38.85485 ], [ -77.4883, 38.85672 ], [ -77.48781, 38.85687 ], [ -77.48699, 38.85639 ], [ -77.48687, 38.85565 ], [ -77.48743, 38.85499 ], [ -77.48708, 38.855 ], [ -77.48652, 38.85546 ], [ -77.48695, 38.85694 ], [ -77.48645, 38.85725 ], [ -77.48557, 38.85692 ], [ -77.48514, 38.85557 ], [ -77.48542, 38.85469 ], [ -77.48624, 38.85409 ], [ -77.48792, 38.85369 ], [ -77.4862, 38.85165 ], [ -77.48392, 38.8525 ], [ -77.4844, 38.85441 ], [ -77.48358, 38.85532 ], [ -77.48471, 38.85657 ], [ -77.48425, 38.85823 ], [ -77.48226, 38.859 ], [ -77.48074, 38.85863 ], [ -77.48011, 38.85807 ], [ -77.48021, 38.85693 ], [ -77.48129, 38.85626 ], [ -77.483, 38.85429 ], [ -77.48283, 38.85365 ], [ -77.48137, 38.85391 ], [ -77.48172, 38.8545 ], [ -77.48076, 38.85489 ], [ -77.48127, 38.85582 ], [ -77.48055, 38.85633 ], [ -77.47985, 38.85594 ], [ -77.47882, 38.85438 ], [ -77.47906, 38.85302 ], [ -77.48059, 38.85201 ], [ -77.48021, 38.85175 ], [ -77.48037, 38.85117 ], [ -77.47975, 38.85147 ], [ -77.47949, 38.85245 ], [ -77.47851, 38.85243 ], [ -77.47847, 38.85107 ], [ -77.47953, 38.85028 ], [ -77.47893, 38.84984 ], [ -77.47908, 38.84945 ], [ -77.47986, 38.84922 ], [ -77.48086, 38.84963 ], [ -77.48161, 38.84934 ], [ -77.48107, 38.84747 ], [ -77.48041, 38.84786 ], [ -77.4799, 38.84774 ], [ -77.47965, 38.84738 ], [ -77.48011, 38.84668 ], [ -77.4789, 38.84592 ], [ -77.47715, 38.84626 ], [ -77.4768, 38.84595 ], [ -77.47717, 38.84531 ], [ -77.47595, 38.844 ], [ -77.47608, 38.8436 ], [ -77.47847, 38.84281 ], [ -77.48059, 38.84269 ], [ -77.48017, 38.84194 ], [ -77.47833, 38.84181 ], [ -77.47847, 38.84106 ], [ -77.48074, 38.84072 ], [ -77.48113, 38.841 ] ], [ [ -77.48372, 38.85136 ], [ -77.48544, 38.85069 ], [ -77.48453, 38.84913 ], [ -77.48304, 38.8494 ], [ -77.48372, 38.85136 ] ], [ [ -77.48068, 38.84566 ], [ -77.4812, 38.84572 ], [ -77.48138, 38.84562 ], [ -77.48068, 38.84566 ] ], [ [ -77.48049, 38.8441 ], [ -77.48035, 38.84378 ], [ -77.47884, 38.84386 ], [ -77.47947, 38.84424 ], [ -77.47934, 38.8447 ], [ -77.47981, 38.84511 ], [ -77.47957, 38.84446 ], [ -77.48049, 38.8441 ] ], [ [ -77.48352, 38.84752 ], [ -77.48243, 38.84727 ], [ -77.48274, 38.84835 ], [ -77.48391, 38.84815 ], [ -77.48352, 38.84752 ] ], [ [ -77.48768, 38.85005 ], [ -77.48698, 38.84918 ], [ -77.48588, 38.84883 ], [ -77.48668, 38.85022 ], [ -77.48768, 38.85005 ] ], [ [ -77.48213, 38.8579 ], [ -77.48323, 38.85744 ], [ -77.48305, 38.85632 ], [ -77.48136, 38.85754 ], [ -77.48213, 38.8579 ] ], [ [ -77.48227, 38.85171 ], [ -77.48198, 38.8517 ], [ -77.48162, 38.85182 ], [ -77.48227, 38.85171 ] ], [ [ -77.48139, 38.8507 ], [ -77.48196, 38.85059 ], [ -77.4819, 38.8504 ], [ -77.48169, 38.85049 ], [ -77.48139, 38.8507 ] ], [ [ -77.47814, 38.8441 ], [ -77.47821, 38.84408 ], [ -77.47822, 38.84407 ], [ -77.47814, 38.8441 ] ] ] } },
{ "type": "Feature", "properties": { "variant": "T2s", "miles": 1.5 }, "geometry": { "type": "Polygon", "coordinates": [ [ [ -77.48083, 38.83725 ], [ -77.48146, 38.8385 ], [ -77.48057, 38.83881 ], [ -77.47939, 38.83715 ], [ -77.4788, 38.83729 ], [ -77.48189, 38.8423 ], [ -77.48292, 38.8426 ], [ -77.48425, 38.84429 ], [ -77.4861, 38.8451 ], [ -77.4858, 38.84583 ], [ -77.48373, 38.84532 ], [ -77.4852, 38.84774 ], [ -77.48764, 38.84822 ], [ -77.48816, 38.84769 ], [ -77.48869, 38.8477 ], [ -77.48906, 38.848 ], [ -77.48879, 38.84926 ], [ -77.48972, 38.84853 ], [ -77.49161, 38.85014 ], [ -77.49099, 38.85073 ], [ -77.48902, 38.85033 ], [ -77.48842, 38.85097 ], [ -77.48863, 38.85152 ], [ -77.48806, 38.8519 ], [ -77.48906, 38.85308 ], [ -77.48936, 38.85159 ], [ -77.49044, 38.85167 ], [ -77.49041, 38.8533 ], [ -77.48982, 38.85402 ], [ -77.49342, 38.8586 ], [ -77.49422, 38.86143 ], [ -77.49407, 38.86183 ], [ -77.49314, 38.8621 ], [ -77.49286, 38.86313 ], [ -77.49152, 38.86455 ], [ -77.48719, 38.86606 ], [ -77.4867, 38.86577 ], [ -77.48689, 38.86502 ], [ -77.49064, 38.86372 ], [ -77.49165, 38.86259 ], [ -77.49198, 38.8615 ], [ -77.49271, 38.86107 ], [ -77.49216, 38.85905 ], [ -77.48886, 38.85485 ], [ -77.4883, 38.85672 ], [ -77.48781, 38.85687 ], [ -77.48699, 38.85639 ], [ -77.48687, 38.85565 ], [ -77.48743, 38.85499 ], [ -77.48708, 38.855 ], [ -77.48652, 38.85546 ], [ -77.48695, 38.85694 ], [ -77.48645, 38.85725 ], [ -77.48557, 38.85692 ], [ -77.48514, 38.85557 ], [ -77.48542, 38.85469 ], [ -77.48624, 38.85409 ], [ -77.48792, 38.85369 ], [ -77.4862, 38.85165 ], [ -77.48392, 38.8525 ], [ -77.4844, 38.85441 ], [ -77.48358, 38.85532 ], [ -77.48467, 38.85635 ], [ -77.48436, 38.85809 ], [ -77.48287, 38.85894 ], [ -77.48094, 38.85871 ], [ -77.48011, 38.85807 ], [ -77.48001, 38.8573 ], [ -77.483, 38.85429 ], [ -77.48283, 38.85365 ], [ -77.48137, 38.85391 ], [ -77.48172, 38.8545 ], [ -77.48076, 38.85489 ], [ -77.48127, 38.85582 ], [ -77.48055, 38.85633 ], [ -77.48007, 38.85615 ], [ -77.47874, 38.85387 ], [ -77.47926, 38.85278 ], [ -77.48059, 38.85201 ], [ -77.48021, 38.85175 ], [ -77.48037, 38.85117 ], [ -77.47975, 38.85147 ], [ -77.47949, 38.85245 ], [ -77.47851, 38.85243 ], [ -77.47839, 38.85128 ], [ -77.47953, 38.85028 ], [ -77.47893, 38.84984 ], [ -77.47955, 38.84924 ], [ -77.47796, 38.84935 ], [ -77.47709, 38.84886 ], [ -77.47664, 38.84713 ], [ -77.47726, 38.84626 ], [ -77.47683, 38.84559 ], [ -77.47601, 38.84578 ], [ -77.47544, 38.84472 ], [ -77.47359, 38.84384 ], [ -77.47349, 38.8448 ], [ -77.47281, 38.84553 ], [ -77.4744, 38.84493 ], [ -77.47494, 38.84555 ], [ -77.47361, 38.84642 ], [ -77.47287, 38.84785 ], [ -77.47235, 38.84792 ], [ -77.47191, 38.84768 ], [ -77.47211, 38.84652 ], [ -77.47164, 38.84632 ], [ -77.47146, 38.84601 ], [ -77.4714, 38.84534 ], [ -77.47071, 38.84593 ], [ -77.46969, 38.84603 ], [ -77.46827, 38.84543 ], [ -77.46778, 38.84473 ], [ -77.46831, 38.84328 ], [ -77.46825, 38.84155 ], [ -77.4691, 38.84117 ], [ -77.46953, 38.84155 ], [ -77.47294, 38.83929 ], [ -77.47412, 38.83893 ], [ -77.47397, 38.83745 ], [ -77.47532, 38.83762 ], [ -77.4755, 38.83886 ], [ -77.47735, 38.83887 ], [ -77.47769, 38.83964 ], [ -77.47887, 38.83977 ], [ -77.47751, 38.8377 ], [ -77.47586, 38.83723 ], [ -77.47533, 38.83664 ], [ -77.47556, 38.83583 ], [ -77.47653, 38.83542 ], [ -77.47616, 38.83415 ], [ -77.47667, 38.8335 ], [ -77.47807, 38.83333 ], [ -77.47827, 38.83371 ], [ -77.47764, 38.83436 ], [ -77.47792, 38.83532 ], [ -77.47941, 38.83529 ], [ -77.48026, 38.83601 ], [ -77.4818, 38.8364 ], [ -77.48273, 38.83607 ], [ -77.48306, 38.83683 ], [ -77.48393, 38.8373 ], [ -77.48354, 38.838 ], [ -77.48083, 38.83725 ] ], [ [ -77.48139, 38.85751 ], [ -77.48146, 38.85771 ], [ -77.48236, 38.85792 ], [ -77.48312, 38.8576 ], [ -77.48332, 38.85658 ], [ -77.48272, 38.8564 ], [ -77.48139, 38.85751 ] ], [ [ -77.47914, 38.84726 ], [ -77.47926, 38.84744 ], [ -77.47933, 38.84738 ], [ -77.47914, 38.84726 ] ], [ [ -77.47888, 38.84593 ], [ -77.47891, 38.84593 ], [ -77.4789, 38.84592 ], [ -77.47888, 38.84593 ] ], [ [ -77.47989, 38.84414 ], [ -77.48052, 38.84415 ], [ -77.48035, 38.84378 ], [ -77.47884, 38.84386 ], [ -77.47947, 38.84424 ], [ -77.47961, 38.84496 ], [ -77.47989, 38.84414 ] ], [ [ -77.47844, 38.84281 ], [ -77.47615, 38.84296 ], [ -77.47691, 38.8434 ], [ -77.47869, 38.84277 ], [ -77.48059, 38.84269 ], [ -77.48017, 38.84194 ], [ -77.47844, 38.84281 ] ], [ [ -77.47957, 38.84095 ], [ -77.47951, 38.84084 ], [ -77.47935, 38.84097 ], [ -77.47957, 38.84095 ] ], [ [ -77.48198, 38.8517 ], [ -77.48162, 38.85182 ], [ -77.48227, 38.85171 ], [ -77.48198, 38.8517 ] ], [ [ -77.48544, 38.85069 ], [ -77.48453, 38.84913 ], [ -77.48304, 38.8494 ], [ -77.48372, 38.85136 ], [ -77.48544, 38.85069 ] ], [ [ -77.48391, 38.84815 ], [ -77.48349, 38.84748 ], [ -77.48285, 38.8476 ], [ -77.48243, 38.84727 ], [ -77.48279, 38.84834 ], [ -77.48391, 38.84815 ] ], [ [ -77.48698, 38.84918 ], [ -77.48588, 38.84883 ], [ -77.48668, 38.85022 ], [ -77.48768, 38.85005 ], [ -77.48698, 38.84918 ] ], [ [ -77.48068, 38.84566 ], [ -77.48087, 38.84568 ], [ -77.48138, 38.84562 ], [ -77.48068, 38.84566 ] ], [ [ -77.48037, 38.8481 ], [ -77.48121, 38.84825 ], [ -77.48132, 38.84865 ], [ -77.48023, 38.84929 ], [ -77.48086, 38.84963 ], [ -77.48161, 38.84934 ], [ -77.48107, 38.84747 ], [ -77.48037, 38.8481 ] ], [ [ -77.48139, 38.8507 ], [ -77.48132, 38.85074 ], [ -77.48196, 38.85059 ], [ -77.48139, 38.8507 ] ], [ [ -77.47864, 38.84701 ], [ -77.47879, 38.84704 ], [ -77.47873, 38.84701 ], [ -77.47864, 38.84701 ] ], [ [ -77.47803, 38.84725 ], [ -77.47818, 38.84712 ], [ -77.47806, 38.84715 ], [ -77.47803, 38.84725 ] ], [ [ -77.47522, 38.84061 ], [ -77.47444, 38.84046 ], [ -77.4741, 38.84112 ], [ -77.47307, 38.84147 ], [ -77.47242, 38.84112 ], [ -77.46991, 38.84269 ], [ -77.47414, 38.8427 ], [ -77.47522, 38.84061 ] ], [ [ -77.47563, 38.83997 ], [ -77.47563, 38.84014 ], [ -77.47569, 38.84009 ], [ -77.47563, 38.83997 ] ], [ [ -77.47653, 38.84098 ], [ -77.47672, 38.84099 ], [ -77.47662, 38.84089 ], [ -77.47653, 38.84098 ] ], [ [ -77.47597, 38.84186 ], [ -77.47633, 38.84188 ], [ -77.4761, 38.84151 ], [ -77.47597, 38.84186 ] ], [ [ -77.47814, 38.8441 ], [ -77.47818, 38.84411 ], [ -77.47822, 38.84407 ], [ -77.47814, 38.8441 ] ], [ [ -77.47717, 38.84531 ], [ -77.47694, 38.84522 ], [ -77.47693, 38.84547 ], [ -77.47717, 38.84531 ] ], [ [ -77.46915, 38.84457 ], [ -77.46949, 38.84475 ], [ -77.46966, 38.84377 ], [ -77.46915, 38.84457 ] ], [ [ -77.47382, 38.84013 ], [ -77.47437, 38.84035 ], [ -77.47424, 38.84001 ], [ -77.47382, 38.84013 ] ], [ [ -77.4701, 38.84494 ], [ -77.46981, 38.8449 ], [ -77.47, 38.84498 ], [ -77.4701, 38.84494 ] ], [ [ -77.47218, 38.84426 ], [ -77.47213, 38.84434 ], [ -77.47217, 38.84433 ], [ -77.47218, 38.84426 ] ], [ [ -77.4738, 38.84622 ], [ -77.47376, 38.84624 ], [ -77.47379, 38.84624 ], [ -77.4738, 38.84622 ] ] ] } }
]
}
