{
"type": "FeatureCollection",
"name": "242",
"crs": { "type": "name", "properties": { "name": "urn:ogc:def:crs:OGC:1.3:CRS84" } },
"xy_coordinate_resolution": 1e-05,
"features": [
{ "type": "Feature", "properties": { "variant": "T0", "miles": 0.5 }, "geometry": { "type": "Polygon", "coordinates": [ [ [ -77.47321, 38.85415 ], [ -77.4748, 38.85528 ], [ -77.47446, 38.85687 ], [ -77.47511, 38.85722 ], [ -77.47486, 38.85803 ], [ -77.47555, 38.85837 ], [ -77.47537, 38.85983 ], [ -77.4734, 38.86058 ], [ -77.47251, 38.86056 ], [ -77.47184, 38.86001 ], [ -77.47122, 38.85804 ], [ -77.46986, 38.85803 ], [ -77.46998, 38.86087 ], [ -77.4691, 38.86144 ], [ -77.46867, 38.8612 ], [ -77.46854, 38.85907 ], [ -77.46654, 38.85913 ], [ -77.46565, 38.85825 ], [ -77.46468, 38.85824 ], [ -77.46471, 38.85569 ], [ -77.46568, 38.85569 ], [ -77.46582, 38.85389 ], [ -77.46856, 38.85356 ], [ -77.46925, 38.85187 ], [ -77.47212, 38.85268 ], [ -77.47321, 38.85415 ] ], [ [ -77.47189, 38.85599 ], [ -77.47173, 38.85445 ], [ -77.47004, 38.85455 ], [ -77.47021, 38.8561 ], [ -77.47189, 38.85599 ] ], [ [ -77.46998, 38.85339 ], [ -77.46995, 38.85348 ], [ -77.4703, 38.85345 ], [ -77.46998, 38.85339 ] ] ] } },
{ "type": "Feature", "properties": { "variant": "T0", "miles": 1.0 }, "geometry": { "type": "Polygon", "coordinates": [ [ [ -77.47263, 38.85302 ], [ -77.47308, 38.85414 ], [ -77.4748, 38.85528 ], [ -77.47446, 38.85687 ], [ -77.47511, 38.85722 ], [ -77.47478, 38.8578 ], [ -77.47555, 38.85837 ], [ -77.4754, 38.85885 ], [ -77.47676, 38.85841 ], [ -77.47837, 38.85884 ], [ -77.47948, 38.86115 ], [ -77.47843, 38.8626 ], [ -77.47654, 38.86344 ], [ -77.47604, 38.86332 ], [ -77.47601, 38.86228 ], [ -77.47763, 38.86172 ], [ -77.47809, 38.86119 ], [ -77.47711, 38.85955 ], [ -77.47257, 38.86057 ], [ -77.47184, 38.86001 ], [ -77.47122, 38.85804 ], [ -77.46986, 38.85803 ], [ -77.47001, 38.86075 ], [ -77.46962, 38.86137 ], [ -77.46867, 38.8612 ], [ -77.46859, 38.85994 ], [ -77.46661, 38.86002 ], [ -77.46403, 38.85936 ], [ -77.46417, 38.85848 ], [ -77.4633, 38.8583 ], [ -77.46346, 38.85761 ], [ -77.46251, 38.85767 ], [ -77.46043, 38.85959 ], [ -77.46033, 38.86025 ], [ -77.45822, 38.86049 ], [ -77.45784, 38.86115 ], [ -77.45685, 38.86093 ], [ -77.45596, 38.86134 ], [ -77.45548, 38.86117 ], [ -77.4553, 38.86078 ], [ -77.45599, 38.86008 ], [ -77.45538, 38.85953 ], [ -77.45867, 38.85695 ], [ -77.45903, 38.8559 ], [ -77.45861, 38.85529 ], [ -77.45942, 38.85467 ], [ -77.45725, 38.85508 ], [ -77.45706, 38.85433 ], [ -77.45862, 38.85378 ], [ -77.45675, 38.85287 ], [ -77.45724, 38.85221 ], [ -77.45909, 38.85277 ], [ -77.4611, 38.85176 ], [ -77.46165, 38.85243 ], [ -77.46187, 38.85154 ], [ -77.46296, 38.85157 ], [ -77.46338, 38.85102 ], [ -77.46416, 38.85086 ], [ -77.46639, 38.85141 ], [ -77.46854, 38.85129 ], [ -77.47263, 38.85302 ] ], [ [ -77.46569, 38.85483 ], [ -77.46537, 38.85485 ], [ -77.46569, 38.85511 ], [ -77.46569, 38.85483 ] ], [ [ -77.46578, 38.85241 ], [ -77.46509, 38.8523 ], [ -77.46507, 38.85234 ], [ -77.46559, 38.85268 ], [ -77.46578, 38.85241 ] ], [ [ -77.47173, 38.85445 ], [ -77.47004, 38.85455 ], [ -77.47021, 38.8561 ], [ -77.47189, 38.85599 ], [ -77.47173, 38.85445 ] ], [ [ -77.46995, 38.85348 ], [ -77.4703, 38.85345 ], [ -77.46998, 38.85339 ], [ -77.46995, 38.85348 ] ], [ [ -77.46346, 38.8537 ], [ -77.46325, 38.8539 ], [ -77.46358, 38.85388 ], [ -77.46346, 38.8537 ] ], [ [ -77.46072, 38.85513 ], [ -77.46085, 38.85506 ], [ -77.46073, 38.85502 ], [ -77.46072, 38.85513 ] ] ] } },
{ "type": "Feature", "properties": { "variant": "T0", "miles": 1.5 }, "geometry": { "type": "Polygon", "coordinates": [ [ [ -77.47653, 38.84909 ], [ -77.47748, 38.8505 ], [ -77.47849, 38.85938 ], [ -77.47947, 38.86105 ], [ -77.47869, 38.86242 ], [ -77.47654, 38.86344 ], [ -77.47579, 38.86295 ], [ -77.47613, 38.86217 ], [ -77.47763, 38.86172 ], [ -77.47808, 38.86121 ], [ -77.47711, 38.85955 ], [ -77.47266, 38.8606 ], [ -77.47187, 38.86007 ], [ -77.47122, 38.85804 ], [ -77.46986, 38.85803 ], [ -77.46998, 38.86087 ], [ -77.4691, 38.86144 ], [ -77.46867, 38.8612 ], [ -77.46859, 38.85994 ], [ -77.46661, 38.86002 ], [ -77.46403, 38.85936 ], [ -77.46417, 38.85848 ], [ -77.4633, 38.8583 ], [ -77.46346, 38.85761 ], [ -77.46251, 38.85767 ], [ -77.46043, 38.85959 ], [ -77.46033, 38.86025 ], [ -77.45822, 38.86049 ], [ -77.45784, 38.86115 ], [ -77.45734, 38.86115 ], [ -77.45964, 38.86305 ], [ -77.46132, 38.8618 ], [ -77.46203, 38.86233 ], [ -77.46178, 38.86391 ], [ -77.46042, 38.86513 ], [ -77.45953, 38.86724 ], [ -77.45861, 38.867 ], [ -77.45939, 38.8644 ], [ -77.45868, 38.86383 ], [ -77.45747, 38.86478 ], [ -77.45791, 38.86538 ], [ -77.45769, 38.86575 ], [ -77.45672, 38.86573 ], [ -77.45559, 38.86479 ], [ -77.45516, 38.8651 ], [ -77.45611, 38.86589 ], [ -77.45606, 38.86666 ], [ -77.45508, 38.86661 ], [ -77.45415, 38.86584 ], [ -77.45297, 38.86598 ], [ -77.45298, 38.86522 ], [ -77.45537, 38.86347 ], [ -77.45231, 38.86115 ], [ -77.4525, 38.86029 ], [ -77.45153, 38.86044 ], [ -77.45118, 38.86013 ], [ -77.45096, 38.85933 ], [ -77.44958, 38.85792 ], [ -77.44923, 38.85665 ], [ -77.44955, 38.85538 ], [ -77.45198, 38.85558 ], [ -77.45265, 38.8551 ], [ -77.45354, 38.85521 ], [ -77.45437, 38.85377 ], [ -77.4569, 38.85232 ], [ -77.45616, 38.85211 ], [ -77.45462, 38.85246 ], [ -77.45379, 38.85204 ], [ -77.45317, 38.85232 ], [ -77.45181, 38.85191 ], [ -77.45173, 38.85019 ], [ -77.4526, 38.84976 ], [ -77.45237, 38.84927 ], [ -77.4533, 38.84716 ], [ -77.4552, 38.84747 ], [ -77.4559, 38.84676 ], [ -77.45642, 38.84683 ], [ -77.45754, 38.84776 ], [ -77.45897, 38.8474 ], [ -77.45974, 38.84815 ], [ -77.45967, 38.84755 ], [ -77.4604, 38.84705 ], [ -77.46246, 38.84955 ], [ -77.46341, 38.84942 ], [ -77.46377, 38.84972 ], [ -77.46376, 38.85014 ], [ -77.46226, 38.85093 ], [ -77.46118, 38.85074 ], [ -77.46091, 38.85141 ], [ -77.45837, 38.85219 ], [ -77.45828, 38.8525 ], [ -77.45909, 38.85277 ], [ -77.4611, 38.85176 ], [ -77.46165, 38.85243 ], [ -77.46187, 38.85154 ], [ -77.46296, 38.85157 ], [ -77.46338, 38.85102 ], [ -77.46416, 38.85086 ], [ -77.46639, 38.85141 ], [ -77.46847, 38.85127 ], [ -77.46993, 38.85178 ], [ -77.47031, 38.85234 ], [ -77.47212, 38.85268 ], [ -77.47292, 38.85332 ], [ -77.47308, 38.85414 ], [ -77.4748, 38.85528 ], [ -77.47446, 38.85687 ], [ -77.47511, 38.85722 ], [ -77.47478, 38.8578 ], [ -77.47555, 38.85837 ], [ -77.4754, 38.85885 ], [ -77.47702, 38.85842 ], [ -77.47614, 38.85077 ], [ -77.47553, 38.84983 ], [ -77.47242, 38.84813 ], [ -77.47241, 38.84737 ], [ -77.47351, 38.84733 ], [ -77.47653, 38.84909 ] ], [ [ -77.45942, 38.85467 ], [ -77.45844, 38.85505 ], [ -77.45819, 38.85578 ], [ -77.45768, 38.8559 ], [ -77.45647, 38.85568 ], [ -77.45581, 38.85608 ], [ -77.45484, 38.85558 ], [ -77.45409, 38.85846 ], [ -77.45529, 38.8582 ], [ -77.45867, 38.85565 ], [ -77.45861, 38.85529 ], [ -77.45942, 38.85467 ] ], [ [ -77.46358, 38.85388 ], [ -77.46346, 38.8537 ], [ -77.46325, 38.8539 ], [ -77.46358, 38.85388 ] ], [ [ -77.47021, 38.8561 ], [ -77.47189, 38.85599 ], [ -77.47173, 38.85445 ], [ -77.47004, 38.85455 ], [ -77.47021, 38.8561 ] ], [ [ -77.46995, 38.85348 ], [ -77.4703, 38.85345 ], [ -77.46998, 38.85339 ], [ -77.46995, 38.85348 ] ], [ [ -77.46509, 38.8523 ], [ -77.46507, 38.85234 ], [ -77.46559, 38.85269 ], [ -77.46561, 38.85237 ], [ -77.46509, 38.8523 ] ], [ [ -77.4656, 38.85502 ], [ -77.46569, 38.85511 ], [ -77.46569, 38.85483 ], [ -77.4656, 38.85502 ] ], [ [ -77.46079, 38.85509 ], [ -77.46085, 38.85506 ], [ -77.46073, 38.85502 ], [ -77.46079, 38.85509 ] ], [ [ -77.46042, 38.84962 ], [ -77.46066, 38.8496 ], [ -77.46042, 38.84947 ], [ -77.46042, 38.84962 ] ], [ [ -77.45693, 38.85426 ], [ -77.45675, 38.85391 ], [ -77.45657, 38.8541 ], [ -77.45693, 38.85426 ] ], [ [ -77.45672, 38.84972 ], [ -77.45646, 38.84978 ], [ -77.45659, 38.84982 ], [ -77.45672, 38.84972 ] ], [ [ -77.45354, 38.85975 ], [ -77.45376, 38.85975 ], [ -77.45342, 38.85946 ], [ -77.45354, 38.85975 ] ], [ [ -77.45076, 38.85731 ], [ -77.45224, 38.8589 ], [ -77.45242, 38.85866 ], [ -77.45076, 38.85731 ] ] ] } },
{ "type": "Feature", "properties": { "variant": "T2s", "miles": 0.5 }, "geometry": { "type": "Polygon", "coordinates": [ [ [ -77.47321, 38.85415 ], [ -77.4748, 38.85528 ], [ -77.47446, 38.85687 ], [ -77.47511, 38.85722 ], [ -77.47486, 38.85803 ], [ -77.47555, 38.85837 ], [ -77.47537, 38.85983 ], [ -77.4734, 38.86058 ], [ -77.47251, 38.86056 ], [ -77.47184, 38.86001 ], [ -77.47122, 38.85804 ], [ -77.46986, 38.85803 ], [ -77.46998, 38.86087 ], [ -77.4691, 38.86144 ], [ -77.46867, 38.8612 ], [ -77.46854, 38.85907 ], [ -77.46654, 38.85913 ], [ -77.46565, 38.85825 ], [ -77.46468, 38.85824 ], [ -77.46471, 38.85569 ], [ -77.46568, 38.85569 ], [ -77.46582, 38.85389 ], [ -77.46856, 38.85356 ], [ -77.46925, 38.85187 ], [ -77.47212, 38.85268 ], [ -77.47321, 38.85415 ] ], [ [ -77.47189, 38.85599 ], [ -77.47173, 38.85445 ], [ -77.47004, 38.85455 ], [ -77.47021, 38.8561 ], [ -77.47189, 38.85599 ] ], [ [ -77.46998, 38.85339 ], [ -77.46995, 38.85348 ], [ -77.4703, 38.85345 ], [ -77.46998, 38.85339 ] ] ] } },
{ "type": "Feature", "properties": { "variant": "T2s", "miles": 1.0 }, "geometry": { "type": "Polygon", "coordinates": [ [ [ -77.47263, 38.85302 ], [ -77.47308, 38.85414 ], [ -77.4748, 38.85528 ], [ -77.47446, 38.85687 ], [ -77.47511, 38.85722 ], [ -77.47478, 38.8578 ], [ -77.47555, 38.85837 ], [ -77.4754, 38.85885 ], [ -77.47676, 38.85841 ], [ -77.47837, 38.85884 ], [ -77.47948, 38.86115 ], [ -77.47843, 38.8626 ], [ -77.47654, 38.86344 ], [ -77.47604, 38.86332 ], [ -77.47601, 38.86228 ], [ -77.47763, 38.86172 ], [ -77.47809, 38.86119 ], [ -77.47711, 38.85955 ], [ -77.47257, 38.86057 ], [ -77.47184, 38.86001 ], [ -77.47122, 38.85804 ], [ -77.46986, 38.85803 ], [ -77.47001, 38.86075 ], [ -77.46962, 38.86137 ], [ -77.46867, 38.8612 ], [ -77.46859, 38.85994 ], [ -77.46661, 38.86002 ], [ -77.46403, 38.85936 ], [ -77.46417, 38.85848 ], [ -77.4633, 38.8583 ], [ -77.46346, 38.85761 ], [ -77.46251, 38.85767 ], [ -77.46043, 38.85959 ], [ -77.46033, 38.86025 ], [ -77.45822, 38.86049 ], [ -77.45784, 38.86115 ], [ -77.45685, 38.86093 ], [ -77.45596, 38.86134 ], [ -77.45548, 38.86117 ], [ -77.4553, 38.86078 ], [ -77.45599, 38.86008 ], [ -77.45538, 38.85953 ], [ -77.45867, 38.85695 ], [ -77.45903, 38.8559 ], [ -77.45861, 38.85529 ], [ -77.45942, 38.85467 ], [ -77.45725, 38.85508 ], [ -77.45706, 38.85433 ], [ -77.45862, 38.85378 ], [ -77.45675, 38.85287 ], [ -77.45724, 38.85221 ], [ -77.45909, 38.85277 ], [ -77.4611, 38.85176 ], [ -77.46165, 38.85243 ], [ -77.46187, 38.85154 ], [ -77.46296, 38.85157 ], [ -77.46338, 38.85102 ], [ -77.46416, 38.85086 ], [ -77.46639, 38.85141 ], [ -77.46854, 38.85129 ], [ -77.47263, 38.85302 ] ], [ [ -77.46569, 38.85483 ], [ -77.46537, 38.85485 ], [ -77.46569, 38.85511 ], [ -77.46569, 38.85483 ] ], [ [ -77.46578, 38.85241 ], [ -77.46509, 38.8523 ], [ -77.46507, 38.85234 ], [ -77.46559, 38.85268 ], [ -77.46578, 38.85241 ] ], [ [ -77.47173, 38.85445 ], [ -77.47004, 38.85455 ], [ -77.47021, 38.8561 ], [ -77.47189, 38.85599 ], [ -77.47173, 38.85445 ] ], [ [ -77.46995, 38.85348 ], [ -77.4703, 38.85345 ], [ -77.46998, 38.85339 ], [ -77.46995, 38.85348 ] ], [ [ -77.46346, 38.8537 ], [ -77.46325, 38.8539 ], [ -77.46358, 38.85388 ], [ -77.46346, 38.8537 ] ], [ [ -77.46072, 38.85513 ], [ -77.46085, 38.85506 ], [ -77.46073, 38.85502 ], [ -77.46072, 38.85513 ] ] ] } },
{ "type": "Feature", "properties": { "variant": "T2s", "miles": 1.5 }, "geometry": { "type": "Polygon", "coordinates": [ [ [ -77.47653, 38.84909 ], [ -77.47752, 38.85064 ], [ -77.47849, 38.85938 ], [ -77.47947, 38.86121 ], [ -77.4786, 38.86249 ], [ -77.47654, 38.86344 ], [ -77.47579, 38.86295 ], [ -77.47591, 38.8624 ], [ -77.47763, 38.86172 ], [ -77.47809, 38.86118 ], [ -77.47711, 38.85955 ], [ -77.47266, 38.8606 ], [ -77.47187, 38.86007 ], [ -77.47122, 38.85804 ], [ -77.46986, 38.85803 ], [ -77.46998, 38.86087 ], [ -77.4691, 38.86144 ], [ -77.46867, 38.8612 ], [ -77.46859, 38.85994 ], [ -77.46661, 38.86002 ], [ -77.46403, 38.85936 ], [ -77.46417, 38.85848 ], [ -77.4633, 38.8583 ], [ -77.46346, 38.85761 ], [ -77.46251, 38.85767 ], [ -77.46043, 38.85959 ], [ -77.46033, 38.86025 ], [ -77.45822, 38.86049 ], [ -77.45784, 38.86115 ], [ -77.45734, 38.86115 ], [ -77.45964, 38.86305 ], [ -77.46083, 38.86197 ], [ -77.46181, 38.86195 ], [ -77.46178, 38.86391 ], [ -77.46032, 38.86492 ], [ -77.44947, 38.85614 ], [ -77.44931, 38.85575 ], [ -77.45006, 38.85525 ], [ -77.45198, 38.85558 ], [ -77.45265, 38.8551 ], [ -77.45354, 38.85521 ], [ -77.45437, 38.85377 ], [ -77.4569, 38.85232 ], [ -77.45616, 38.85211 ], [ -77.45462, 38.85246 ], [ -77.45379, 38.85204 ], [ -77.45317, 38.85232 ], [ -77.45181, 38.85191 ], [ -77.45185, 38.85034 ], [ -77.4526, 38.84976 ], [ -77.45237, 38.84927 ], [ -77.4533, 38.84716 ], [ -77.4552, 38.84747 ], [ -77.4559, 38.84676 ], [ -77.45642, 38.84683 ], [ -77.45754, 38.84776 ], [ -77.45897, 38.8474 ], [ -77.45974, 38.84815 ], [ -77.45967, 38.84755 ], [ -77.4604, 38.84705 ], [ -77.46246, 38.84955 ], [ -77.46341, 38.84942 ], [ -77.46376, 38.85014 ], [ -77.46226, 38.85093 ], [ -77.46118, 38.85074 ], [ -77.46091, 38.85141 ], [ -77.45837, 38.85219 ], [ -77.45828, 38.8525 ], [ -77.45909, 38.85277 ], [ -77.4611, 38.85176 ], [ -77.46165, 38.85243 ], [ -77.46187, 38.85154 ], [ -77.46315, 38.85152 ], [ -77.46388, 38.85088 ], [ -77.46639, 38.85141 ], [ -77.46875, 38.85135 ], [ -77.47, 38.85182 ], [ -77.47031, 38.85234 ], [ -77.47223, 38.85275 ], [ -77.47292, 38.85332 ], [ -77.47308, 38.85414 ], [ -77.4748, 38.85528 ], [ -77.47446, 38.85687 ], [ -77.47511, 38.85722 ], [ -77.47478, 38.8578 ], [ -77.47555, 38.85837 ], [ -77.4754, 38.85885 ], [ -77.47702, 38.85842 ], [ -77.47614, 38.85077 ], [ -77.47553, 38.84983 ], [ -77.47242, 38.84813 ], [ -77.47241, 38.84737 ], [ -77.47346, 38.84732 ], [ -77.47653, 38.84909 ] ], [ [ -77.46079, 38.85509 ], [ -77.46085, 38.85506 ], [ -77.46073, 38.85502 ], [ -77.46079, 38.85509 ] ], [ [ -77.47021, 38.8561 ], [ -77.47189, 38.85599 ], [ -77.47173, 38.85445 ], [ -77.47004, 38.85455 ], [ -77.47021, 38.8561 ] ], [ [ -77.4703, 38.85345 ], [ -77.46998, 38.85339 ], [ -77.46995, 38.85348 ], [ -77.4703, 38.85345 ] ], [ [ -77.46325, 38.8539 ], [ -77.46358, 38.85388 ], [ -77.46346, 38.8537 ], [ -77.46325, 38.8539 ] ], [ [ -77.46509, 38.8523 ], [ -77.46507, 38.85234 ], [ -77.46559, 38.85269 ], [ -77.46561, 38.85237 ], [ -77.46509, 38.8523 ] ], [ [ -77.46537, 38.85485 ], [ -77.46569, 38.85511 ], [ -77.46549, 38.85493 ], [ -77.46537, 38.85485 ] ], [ [ -77.46025, 38.84927 ], [ -77.46031, 38.84934 ], [ -77.46066, 38.8496 ], [ -77.46025, 38.84927 ] ], [ [ -77.45666, 38.84977 ], [ -77.45672, 38.84972 ], [ -77.45646, 38.84978 ], [ -77.45666, 38.84977 ] ], [ [ -77.45942, 38.85467 ], [ -77.45844, 38.85505 ], [ -77.45819, 38.85578 ], [ -77.45768, 38.8559 ], [ -77.45647, 38.85568 ], [ -77.45581, 38.85608 ], [ -77.45484, 38.85558 ], [ -77.45409, 38.85846 ], [ -77.45529, 38.8582 ], [ -77.45867, 38.85565 ], [ -77.45942, 38.85467 ] ], [ [ -77.45657, 38.8541 ], [ -77.45674, 38.85435 ], [ -77.45693, 38.85426 ], [ -77.45675, 38.85391 ], [ -77.45657, 38.8541 ] ], [ [ -77.45282, 38.85743 ], [ -77.45286, 38.85746 ], [ -77.45288, 38.85725 ], [ -77.45187, 38.85666 ], [ -77.45282, 38.85743 ] ] ] } }
]
}
