{
"type": "FeatureCollection",
"name": "244",
"crs": { "type": "name", "properties": { "name": "urn:ogc:def:crs:OGC:1.3:CRS84" } },
"xy_coordinate_resolution": 1e-05,
"features": [
{ "type": "Feature", "properties": { "variant": "T0", "miles": 0.5 }, "geometry": { "type": "Polygon", "coordinates": [ [ [ -77.46121, 38.86168 ], [ -77.46258, 38.86159 ], [ -77.46282, 38.86235 ], [ -77.46371, 38.86272 ], [ -77.46383, 38.86449 ], [ -77.46241, 38.86526 ], [ -77.46405, 38.86666 ], [ -77.46456, 38.86836 ], [ -77.46362, 38.86856 ], [ -77.46304, 38.86753 ], [ -77.46197, 38.86727 ], [ -77.46134, 38.8677 ], [ -77.46111, 38.8685 ], [ -77.45985, 38.86825 ], [ -77.4596, 38.869 ], [ -77.4591, 38.86915 ], [ -77.45843, 38.86855 ], [ -77.4578, 38.86895 ], [ -77.45785, 38.86995 ], [ -77.45737, 38.87012 ], [ -77.45634, 38.86979 ], [ -77.4553, 38.87006 ], [ -77.45303, 38.86933 ], [ -77.45319, 38.86858 ], [ -77.45571, 38.8685 ], [ -77.45354, 38.86773 ], [ -77.45194, 38.86621 ], [ -77.45321, 38.86505 ], [ -77.45116, 38.86361 ], [ -77.45114, 38.8632 ], [ -77.45264, 38.86011 ], [ -77.45376, 38.85975 ], [ -77.45533, 38.86073 ], [ -77.45602, 38.86026 ], [ -77.4565, 38.86044 ], [ -77.45964, 38.86305 ], [ -77.46121, 38.86168 ] ], [ [ -77.45767, 38.86759 ], [ -77.45751, 38.86736 ], [ -77.45732, 38.86736 ], [ -77.45767, 38.86759 ] ], [ [ -77.45624, 38.86646 ], [ -77.45674, 38.8674 ], [ -77.45728, 38.86735 ], [ -77.45692, 38.86723 ], [ -77.45624, 38.86646 ] ], [ [ -77.45852, 38.86668 ], [ -77.45939, 38.8644 ], [ -77.45868, 38.86383 ], [ -77.45747, 38.86478 ], [ -77.45791, 38.86538 ], [ -77.4574, 38.86584 ], [ -77.45852, 38.86668 ] ] ] } },
{ "type": "Feature", "properties": { "variant": "T0", "miles": 1.0 }, "geometry": { "type": "Polygon", "coordinates": [ [ [ -77.46043, 38.85526 ], [ -77.46207, 38.85498 ], [ -77.46219, 38.85574 ], [ -77.46155, 38.856 ], [ -77.46137, 38.85668 ], [ -77.46239, 38.8568 ], [ -77.4624, 38.85795 ], [ -77.46043, 38.85959 ], [ -77.46033, 38.86025 ], [ -77.45822, 38.86049 ], [ -77.45784, 38.86115 ], [ -77.45734, 38.86115 ], [ -77.45964, 38.86305 ], [ -77.46172, 38.86148 ], [ -77.46258, 38.86159 ], [ -77.46282, 38.86235 ], [ -77.4634, 38.86238 ], [ -77.4639, 38.86433 ], [ -77.46241, 38.86526 ], [ -77.46405, 38.86666 ], [ -77.46494, 38.86866 ], [ -77.46659, 38.87029 ], [ -77.46651, 38.87105 ], [ -77.46553, 38.87099 ], [ -77.46373, 38.86918 ], [ -77.46304, 38.86753 ], [ -77.46197, 38.86727 ], [ -77.46134, 38.8677 ], [ -77.46111, 38.8685 ], [ -77.45985, 38.86825 ], [ -77.4596, 38.869 ], [ -77.45862, 38.86898 ], [ -77.45843, 38.86855 ], [ -77.4578, 38.86895 ], [ -77.45841, 38.86922 ], [ -77.4586, 38.86982 ], [ -77.45838, 38.8702 ], [ -77.4569, 38.87071 ], [ -77.45497, 38.87056 ], [ -77.45434, 38.86961 ], [ -77.45432, 38.87101 ], [ -77.45335, 38.87109 ], [ -77.45232, 38.87009 ], [ -77.451, 38.86986 ], [ -77.45129, 38.869 ], [ -77.45081, 38.86832 ], [ -77.45063, 38.86923 ], [ -77.45015, 38.8694 ], [ -77.4493, 38.86891 ], [ -77.44901, 38.87078 ], [ -77.44788, 38.871 ], [ -77.44753, 38.87069 ], [ -77.44762, 38.86693 ], [ -77.44642, 38.86631 ], [ -77.4466, 38.86744 ], [ -77.44585, 38.86793 ], [ -77.44523, 38.86735 ], [ -77.44323, 38.86686 ], [ -77.44312, 38.86646 ], [ -77.44559, 38.86543 ], [ -77.44514, 38.86497 ], [ -77.44409, 38.86505 ], [ -77.44373, 38.86426 ], [ -77.44399, 38.86366 ], [ -77.4453, 38.86365 ], [ -77.44604, 38.86413 ], [ -77.44647, 38.86321 ], [ -77.44739, 38.86297 ], [ -77.4477, 38.86369 ], [ -77.44692, 38.86502 ], [ -77.44767, 38.86576 ], [ -77.44977, 38.86335 ], [ -77.45121, 38.85972 ], [ -77.45242, 38.85866 ], [ -77.44947, 38.85614 ], [ -77.44955, 38.85538 ], [ -77.45053, 38.85544 ], [ -77.45286, 38.85746 ], [ -77.45372, 38.8547 ], [ -77.45405, 38.85438 ], [ -77.45499, 38.85458 ], [ -77.45428, 38.8586 ], [ -77.45867, 38.85565 ], [ -77.45893, 38.85496 ], [ -77.46043, 38.85526 ] ], [ [ -77.45548, 38.86853 ], [ -77.45544, 38.86823 ], [ -77.45381, 38.86787 ], [ -77.45171, 38.86647 ], [ -77.45324, 38.86765 ], [ -77.45305, 38.86825 ], [ -77.45548, 38.86853 ] ], [ [ -77.45605, 38.86666 ], [ -77.45674, 38.8674 ], [ -77.45728, 38.86735 ], [ -77.45624, 38.86646 ], [ -77.45605, 38.86666 ] ], [ [ -77.45162, 38.86486 ], [ -77.45108, 38.86546 ], [ -77.45235, 38.86548 ], [ -77.45162, 38.86486 ] ], [ [ -77.45857, 38.86658 ], [ -77.45939, 38.8644 ], [ -77.45868, 38.86383 ], [ -77.45747, 38.86478 ], [ -77.45791, 38.86538 ], [ -77.4574, 38.86584 ], [ -77.45857, 38.86658 ] ], [ [ -77.45751, 38.86736 ], [ -77.45732, 38.86736 ], [ -77.45767, 38.86759 ], [ -77.45751, 38.86736 ] ], [ [ -77.45314, 38.85981 ], [ -77.45343, 38.85976 ], [ -77.45376, 38.85975 ], [ -77.45342, 38.85946 ], [ -77.45314, 38.85981 ] ], [ [ -77.4499, 38.86613 ], [ -77.44983, 38.86615 ], [ -77.44986, 38.86616 ], [ -77.4499, 38.86613 ] ], [ [ -77.44918, 38.86598 ], [ -77.4492, 38.86598 ], [ -77.44918, 38.86595 ], [ -77.44918, 38.86598 ] ] ] } },
{ "type": "Feature", "properties": { "variant": "T0", "miles": 1.5 }, "geometry": { "type": "Polygon", "coordinates": [ [ [ -77.46187, 38.85154 ], [ -77.4651, 38.85158 ], [ -77.46507, 38.85234 ], [ -77.46559, 38.85269 ], [ -77.46665, 38.85209 ], [ -77.46709, 38.85283 ], [ -77.46857, 38.8529 ], [ -77.46869, 38.85356 ], [ -77.46974, 38.85365 ], [ -77.46999, 38.85401 ], [ -77.47021, 38.8561 ], [ -77.47258, 38.85595 ], [ -77.47333, 38.85644 ], [ -77.47317, 38.85683 ], [ -77.4723, 38.85705 ], [ -77.47238, 38.85781 ], [ -77.47191, 38.858 ], [ -77.46986, 38.85803 ], [ -77.46993, 38.85934 ], [ -77.46929, 38.8599 ], [ -77.46674, 38.86003 ], [ -77.46403, 38.85936 ], [ -77.46417, 38.85848 ], [ -77.4633, 38.8583 ], [ -77.46346, 38.85761 ], [ -77.46251, 38.85767 ], [ -77.46043, 38.85959 ], [ -77.46033, 38.86025 ], [ -77.45822, 38.86049 ], [ -77.45784, 38.86115 ], [ -77.45734, 38.86115 ], [ -77.45964, 38.86305 ], [ -77.46137, 38.86159 ], [ -77.46271, 38.86168 ], [ -77.46282, 38.86235 ], [ -77.46371, 38.86272 ], [ -77.46392, 38.86421 ], [ -77.46349, 38.86485 ], [ -77.46241, 38.86526 ], [ -77.46401, 38.86661 ], [ -77.46494, 38.86866 ], [ -77.46598, 38.86971 ], [ -77.46918, 38.86751 ], [ -77.47182, 38.86748 ], [ -77.47298, 38.86652 ], [ -77.4735, 38.86658 ], [ -77.47374, 38.86732 ], [ -77.47273, 38.86834 ], [ -77.4696, 38.86861 ], [ -77.47193, 38.87042 ], [ -77.47192, 38.87119 ], [ -77.47095, 38.87118 ], [ -77.46896, 38.86959 ], [ -77.46705, 38.87073 ], [ -77.4698, 38.87311 ], [ -77.47641, 38.87665 ], [ -77.47664, 38.87739 ], [ -77.47568, 38.87757 ], [ -77.46856, 38.87372 ], [ -77.46407, 38.86961 ], [ -77.46304, 38.86753 ], [ -77.46197, 38.86727 ], [ -77.46134, 38.8677 ], [ -77.46111, 38.8685 ], [ -77.45985, 38.86825 ], [ -77.4596, 38.869 ], [ -77.45862, 38.86898 ], [ -77.45843, 38.86855 ], [ -77.4578, 38.86895 ], [ -77.45841, 38.86922 ], [ -77.4586, 38.86982 ], [ -77.45711, 38.87066 ], [ -77.45533, 38.8707 ], [ -77.45434, 38.86961 ], [ -77.45447, 38.87061 ], [ -77.45385, 38.87121 ], [ -77.45232, 38.87009 ], [ -77.451, 38.86986 ], [ -77.45129, 38.869 ], [ -77.45081, 38.86832 ], [ -77.45063, 38.86923 ], [ -77.45015, 38.8694 ], [ -77.4493, 38.86891 ], [ -77.44927, 38.87012 ], [ -77.45062, 38.87001 ], [ -77.45163, 38.87059 ], [ -77.45161, 38.87096 ], [ -77.45202, 38.87064 ], [ -77.4529, 38.87096 ], [ -77.45282, 38.87148 ], [ -77.45545, 38.87375 ], [ -77.45511, 38.87447 ], [ -77.4536, 38.87461 ], [ -77.45303, 38.87324 ], [ -77.45223, 38.87261 ], [ -77.45149, 38.87367 ], [ -77.45017, 38.87441 ], [ -77.44972, 38.87579 ], [ -77.44885, 38.87654 ], [ -77.44788, 38.87659 ], [ -77.44742, 38.87586 ], [ -77.44761, 38.87526 ], [ -77.44659, 38.87412 ], [ -77.44694, 38.87313 ], [ -77.44744, 38.87299 ], [ -77.44897, 38.87386 ], [ -77.44932, 38.87223 ], [ -77.44834, 38.87163 ], [ -77.44281, 38.87611 ], [ -77.44167, 38.87595 ], [ -77.44156, 38.87505 ], [ -77.44666, 38.87119 ], [ -77.44535, 38.8707 ], [ -77.44419, 38.87103 ], [ -77.44299, 38.86918 ], [ -77.43999, 38.86928 ], [ -77.43936, 38.8698 ], [ -77.43863, 38.86929 ], [ -77.43877, 38.86841 ], [ -77.43924, 38.86823 ], [ -77.44515, 38.86816 ], [ -77.44402, 38.86737 ], [ -77.44301, 38.86723 ], [ -77.44213, 38.86606 ], [ -77.44131, 38.86577 ], [ -77.44065, 38.86474 ], [ -77.4398, 38.86436 ], [ -77.43988, 38.86334 ], [ -77.44136, 38.86244 ], [ -77.43994, 38.86233 ], [ -77.43972, 38.86195 ], [ -77.44125, 38.86059 ], [ -77.44119, 38.86033 ], [ -77.44039, 38.86084 ], [ -77.43964, 38.86068 ], [ -77.43946, 38.86029 ], [ -77.44006, 38.8597 ], [ -77.43941, 38.85932 ], [ -77.4395, 38.85891 ], [ -77.44246, 38.85779 ], [ -77.4432, 38.8583 ], [ -77.44226, 38.8592 ], [ -77.44239, 38.85962 ], [ -77.44286, 38.85962 ], [ -77.44322, 38.85883 ], [ -77.44373, 38.85874 ], [ -77.44464, 38.85897 ], [ -77.44495, 38.85969 ], [ -77.4456, 38.8598 ], [ -77.44657, 38.85611 ], [ -77.44729, 38.8549 ], [ -77.4454, 38.85635 ], [ -77.44376, 38.85562 ], [ -77.44352, 38.85488 ], [ -77.4442, 38.85398 ], [ -77.44376, 38.85316 ], [ -77.44431, 38.85292 ], [ -77.44373, 38.85188 ], [ -77.44264, 38.8521 ], [ -77.44252, 38.85134 ], [ -77.4437, 38.85029 ], [ -77.44423, 38.85033 ], [ -77.44508, 38.85126 ], [ -77.44603, 38.85044 ], [ -77.44723, 38.85061 ], [ -77.44767, 38.84966 ], [ -77.44891, 38.84869 ], [ -77.45332, 38.85006 ], [ -77.45572, 38.84944 ], [ -77.45659, 38.84982 ], [ -77.45753, 38.84892 ], [ -77.45805, 38.84888 ], [ -77.45924, 38.8499 ], [ -77.45821, 38.85111 ], [ -77.45908, 38.85082 ], [ -77.45941, 38.84988 ], [ -77.46038, 38.84981 ], [ -77.46124, 38.85108 ], [ -77.45837, 38.85219 ], [ -77.45828, 38.8525 ], [ -77.45909, 38.85277 ], [ -77.46058, 38.85185 ], [ -77.46155, 38.85198 ], [ -77.46165, 38.85243 ], [ -77.46187, 38.85154 ] ], [ [ -77.45307, 38.86826 ], [ -77.45571, 38.8685 ], [ -77.45376, 38.86785 ], [ -77.45171, 38.86647 ], [ -77.45324, 38.86765 ], [ -77.45307, 38.86826 ] ], [ [ -77.45342, 38.85946 ], [ -77.45343, 38.85976 ], [ -77.45376, 38.85975 ], [ -77.45342, 38.85946 ] ], [ [ -77.44978, 38.85469 ], [ -77.4515, 38.85074 ], [ -77.44912, 38.84996 ], [ -77.44861, 38.85069 ], [ -77.44866, 38.85202 ], [ -77.44928, 38.85166 ], [ -77.45009, 38.85209 ], [ -77.44874, 38.85382 ], [ -77.44978, 38.85469 ] ], [ [ -77.45852, 38.86668 ], [ -77.45939, 38.8644 ], [ -77.45868, 38.86383 ], [ -77.45747, 38.86478 ], [ -77.45791, 38.86538 ], [ -77.4574, 38.86584 ], [ -77.45852, 38.86668 ] ], [ [ -77.45529, 38.8582 ], [ -77.45867, 38.85565 ], [ -77.45861, 38.85529 ], [ -77.45942, 38.85467 ], [ -77.45844, 38.85505 ], [ -77.45819, 38.85578 ], [ -77.45768, 38.8559 ], [ -77.45647, 38.85568 ], [ -77.45581, 38.85608 ], [ -77.45484, 38.85558 ], [ -77.45409, 38.85846 ], [ -77.45529, 38.8582 ] ], [ [ -77.45657, 38.8541 ], [ -77.45693, 38.85426 ], [ -77.45675, 38.85391 ], [ -77.45657, 38.8541 ] ], [ [ -77.45482, 38.85344 ], [ -77.4569, 38.85232 ], [ -77.4564, 38.85231 ], [ -77.45586, 38.85125 ], [ -77.45523, 38.85105 ], [ -77.454, 38.85128 ], [ -77.45446, 38.85272 ], [ -77.45419, 38.85307 ], [ -77.45307, 38.85312 ], [ -77.45287, 38.85349 ], [ -77.45344, 38.85358 ], [ -77.45389, 38.85433 ], [ -77.45482, 38.85344 ] ], [ [ -77.46072, 38.85513 ], [ -77.46073, 38.85502 ], [ -77.46067, 38.85516 ], [ -77.46072, 38.85513 ] ], [ [ -77.46325, 38.8539 ], [ -77.46358, 38.85388 ], [ -77.46346, 38.8537 ], [ -77.46325, 38.8539 ] ], [ [ -77.46549, 38.85493 ], [ -77.46569, 38.85483 ], [ -77.46537, 38.85485 ], [ -77.46549, 38.85493 ] ], [ [ -77.45728, 38.86735 ], [ -77.45674, 38.86687 ], [ -77.45624, 38.86646 ], [ -77.45674, 38.8674 ], [ -77.45728, 38.86735 ] ], [ [ -77.45751, 38.86736 ], [ -77.45767, 38.86759 ], [ -77.45768, 38.86759 ], [ -77.45751, 38.86736 ] ], [ [ -77.45231, 38.85407 ], [ -77.45224, 38.85421 ], [ -77.45239, 38.85424 ], [ -77.45231, 38.85407 ] ], [ [ -77.44767, 38.86932 ], [ -77.44762, 38.86693 ], [ -77.44709, 38.86676 ], [ -77.44727, 38.86787 ], [ -77.44686, 38.8688 ], [ -77.44767, 38.86932 ] ], [ [ -77.44767, 38.86576 ], [ -77.44809, 38.86491 ], [ -77.44886, 38.86416 ], [ -77.44746, 38.86421 ], [ -77.44692, 38.86502 ], [ -77.44767, 38.86576 ] ], [ [ -77.44707, 38.86268 ], [ -77.44893, 38.86241 ], [ -77.44942, 38.86324 ], [ -77.44886, 38.86354 ], [ -77.4489, 38.86413 ], [ -77.44952, 38.86364 ], [ -77.45108, 38.86052 ], [ -77.45088, 38.85934 ], [ -77.44729, 38.86045 ], [ -77.44831, 38.86084 ], [ -77.44736, 38.86218 ], [ -77.44654, 38.86224 ], [ -77.44707, 38.86268 ] ], [ [ -77.44986, 38.86616 ], [ -77.4499, 38.86613 ], [ -77.44983, 38.86615 ], [ -77.44986, 38.86616 ] ], [ [ -77.44784, 38.85603 ], [ -77.44861, 38.85606 ], [ -77.44825, 38.85577 ], [ -77.44784, 38.85603 ] ], [ [ -77.44729, 38.85179 ], [ -77.44692, 38.85149 ], [ -77.44704, 38.85183 ], [ -77.44729, 38.85179 ] ], [ [ -77.45224, 38.8589 ], [ -77.45242, 38.85866 ], [ -77.45221, 38.8585 ], [ -77.45203, 38.85863 ], [ -77.45224, 38.8589 ] ], [ [ -77.4513, 38.86542 ], [ -77.45184, 38.86539 ], [ -77.45235, 38.86548 ], [ -77.45162, 38.86486 ], [ -77.4513, 38.86542 ] ], [ [ -77.44792, 38.85798 ], [ -77.44785, 38.85795 ], [ -77.44775, 38.85797 ], [ -77.44792, 38.85798 ] ], [ [ -77.45044, 38.87296 ], [ -77.45062, 38.87272 ], [ -77.45057, 38.8727 ], [ -77.45044, 38.87296 ] ], [ [ -77.44918, 38.86598 ], [ -77.4492, 38.86598 ], [ -77.44918, 38.86595 ], [ -77.44918, 38.86598 ] ], [ [ -77.44443, 38.8633 ], [ -77.44435, 38.86322 ], [ -77.44428, 38.86325 ], [ -77.44443, 38.8633 ] ], [ [ -77.44443, 38.86199 ], [ -77.44635, 38.86214 ], [ -77.446, 38.86084 ], [ -77.44419, 38.86078 ], [ -77.44331, 38.86121 ], [ -77.44264, 38.86069 ], [ -77.44249, 38.86174 ], [ -77.44311, 38.86252 ], [ -77.44443, 38.86199 ] ], [ [ -77.44718, 38.87079 ], [ -77.44722, 38.87075 ], [ -77.44719, 38.87073 ], [ -77.44718, 38.87079 ] ], [ [ -77.44501, 38.86936 ], [ -77.44493, 38.86932 ], [ -77.44498, 38.86939 ], [ -77.44501, 38.86936 ] ] ] } },
{ "type": "Feature", "properties": { "variant": "T2s", "miles": 0.5 }, "geometry": { "type": "Polygon", "coordinates": [ [ [ -77.46121, 38.86168 ], [ -77.46258, 38.86159 ], [ -77.46282, 38.86235 ], [ -77.46371, 38.86272 ], [ -77.46392, 38.86421 ], [ -77.46354, 38.86482 ], [ -77.46212, 38.86529 ], [ -77.46082, 38.86478 ], [ -77.46067, 38.86488 ], [ -77.46321, 38.86672 ], [ -77.46319, 38.86749 ], [ -77.4627, 38.86764 ], [ -77.46197, 38.86727 ], [ -77.46134, 38.8677 ], [ -77.46111, 38.8685 ], [ -77.45985, 38.86825 ], [ -77.4596, 38.869 ], [ -77.4591, 38.86915 ], [ -77.45843, 38.86855 ], [ -77.4578, 38.86895 ], [ -77.45785, 38.86995 ], [ -77.45737, 38.87012 ], [ -77.45634, 38.86979 ], [ -77.4553, 38.87006 ], [ -77.45303, 38.86933 ], [ -77.45319, 38.86858 ], [ -77.45571, 38.8685 ], [ -77.45354, 38.86773 ], [ -77.45194, 38.86621 ], [ -77.45321, 38.86505 ], [ -77.45116, 38.86361 ], [ -77.45114, 38.8632 ], [ -77.45264, 38.86011 ], [ -77.45376, 38.85975 ], [ -77.45533, 38.86073 ], [ -77.45602, 38.86026 ], [ -77.4565, 38.86044 ], [ -77.45964, 38.86305 ], [ -77.46121, 38.86168 ] ], [ [ -77.45767, 38.86759 ], [ -77.45751, 38.86736 ], [ -77.45732, 38.86736 ], [ -77.45767, 38.86759 ] ], [ [ -77.45624, 38.86646 ], [ -77.45674, 38.8674 ], [ -77.45728, 38.86735 ], [ -77.45692, 38.86723 ], [ -77.45624, 38.86646 ] ], [ [ -77.45852, 38.86668 ], [ -77.45939, 38.8644 ], [ -77.45868, 38.86383 ], [ -77.45747, 38.86478 ], [ -77.45791, 38.86538 ], [ -77.4574, 38.86584 ], [ -77.45852, 38.86668 ] ] ] } },
{ "type": "Feature", "properties": { "variant": "T2s", "miles": 1.0 }, "geometry": { "type": "Polygon", "coordinates": [ [ [ -77.46043, 38.85526 ], [ -77.46207, 38.85498 ], [ -77.46219, 38.85574 ], [ -77.46155, 38.856 ], [ -77.46137, 38.85668 ], [ -77.46239, 38.8568 ], [ -77.4624, 38.85795 ], [ -77.46043, 38.85959 ], [ -77.46033, 38.86025 ], [ -77.45822, 38.86049 ], [ -77.45784, 38.86115 ], [ -77.45734, 38.86115 ], [ -77.45964, 38.86305 ], [ -77.46172, 38.86148 ], [ -77.46258, 38.86159 ], [ -77.46282, 38.86235 ], [ -77.4634, 38.86238 ], [ -77.46392, 38.86399 ], [ -77.46367, 38.86471 ], [ -77.46221, 38.86529 ], [ -77.46067, 38.86488 ], [ -77.46321, 38.86672 ], [ -77.46319, 38.86749 ], [ -77.4627, 38.86764 ], [ -77.46197, 38.86727 ], [ -77.46134, 38.8677 ], [ -77.46111, 38.8685 ], [ -77.45985, 38.86825 ], [ -77.4596, 38.869 ], [ -77.4591, 38.86915 ], [ -77.45843, 38.86855 ], [ -77.4578, 38.86895 ], [ -77.4586, 38.8696 ], [ -77.45838, 38.8702 ], [ -77.4569, 38.87071 ], [ -77.45497, 38.87056 ], [ -77.45434, 38.86961 ], [ -77.45447, 38.87061 ], [ -77.45385, 38.87121 ], [ -77.45232, 38.87009 ], [ -77.451, 38.86986 ], [ -77.45129, 38.869 ], [ -77.45081, 38.86832 ], [ -77.45063, 38.86923 ], [ -77.45015, 38.8694 ], [ -77.4493, 38.86891 ], [ -77.44901, 38.87078 ], [ -77.44788, 38.871 ], [ -77.44753, 38.87069 ], [ -77.44795, 38.86974 ], [ -77.44786, 38.86562 ], [ -77.44975, 38.86346 ], [ -77.45124, 38.85978 ], [ -77.45242, 38.85866 ], [ -77.44947, 38.85614 ], [ -77.44955, 38.85538 ], [ -77.45053, 38.85544 ], [ -77.45286, 38.85746 ], [ -77.45372, 38.8547 ], [ -77.45405, 38.85438 ], [ -77.45499, 38.85458 ], [ -77.45428, 38.8586 ], [ -77.45867, 38.85565 ], [ -77.45893, 38.85496 ], [ -77.46043, 38.85526 ] ], [ [ -77.45548, 38.86853 ], [ -77.45544, 38.86823 ], [ -77.45381, 38.86787 ], [ -77.45171, 38.86647 ], [ -77.45324, 38.86765 ], [ -77.45305, 38.86825 ], [ -77.45548, 38.86853 ] ], [ [ -77.45768, 38.86759 ], [ -77.45732, 38.86736 ], [ -77.45767, 38.86759 ], [ -77.45768, 38.86759 ] ], [ [ -77.45852, 38.86668 ], [ -77.45939, 38.8644 ], [ -77.45868, 38.86383 ], [ -77.45747, 38.86478 ], [ -77.45791, 38.86538 ], [ -77.4574, 38.86584 ], [ -77.45852, 38.86668 ] ], [ [ -77.45624, 38.86646 ], [ -77.45674, 38.8674 ], [ -77.45728, 38.86735 ], [ -77.45624, 38.86646 ] ], [ [ -77.45162, 38.86486 ], [ -77.45108, 38.86546 ], [ -77.45235, 38.86548 ], [ -77.45162, 38.86486 ] ], [ [ -77.45314, 38.85982 ], [ -77.45343, 38.85976 ], [ -77.45376, 38.85975 ], [ -77.45342, 38.85946 ], [ -77.45314, 38.85982 ] ], [ [ -77.44983, 38.86615 ], [ -77.44986, 38.86616 ], [ -77.4499, 38.86613 ], [ -77.44983, 38.86615 ] ], [ [ -77.44918, 38.86595 ], [ -77.44918, 38.86598 ], [ -77.4492, 38.86598 ], [ -77.44918, 38.86595 ] ] ] } },
{ "type": "Feature", "properties": { "variant": "T2s", "miles": 1.5 }, "geometry": { "type": "Polygon", "coordinates": [ [ [ -77.46187, 38.85154 ], [ -77.46462, 38.85141 ], [ -77.4651, 38.85158 ], [ -77.46507, 38.85234 ], [ -77.46559, 38.85269 ], [ -77.46665, 38.85209 ], [ -77.46709, 38.85283 ], [ -77.46857, 38.8529 ], [ -77.46869, 38.85356 ], [ -77.46975, 38.85365 ], [ -77.47021, 38.8561 ], [ -77.47258, 38.85595 ], [ -77.47333, 38.85644 ], [ -77.47317, 38.85683 ], [ -77.4723, 38.85705 ], [ -77.47238, 38.85781 ], [ -77.46986, 38.85803 ], [ -77.46975, 38.85973 ], [ -77.46698, 38.86004 ], [ -77.46403, 38.85936 ], [ -77.46417, 38.85848 ], [ -77.4633, 38.8583 ], [ -77.46346, 38.85761 ], [ -77.46251, 38.85767 ], [ -77.46043, 38.85959 ], [ -77.46033, 38.86025 ], [ -77.45822, 38.86049 ], [ -77.45784, 38.86115 ], [ -77.45734, 38.86115 ], [ -77.45964, 38.86305 ], [ -77.46137, 38.86159 ], [ -77.46271, 38.86168 ], [ -77.46282, 38.86235 ], [ -77.46371, 38.86272 ], [ -77.46381, 38.86453 ], [ -77.4623, 38.86528 ], [ -77.46067, 38.86488 ], [ -77.46341, 38.86711 ], [ -77.4627, 38.86764 ], [ -77.46197, 38.86727 ], [ -77.46106, 38.86852 ], [ -77.45985, 38.86825 ], [ -77.4596, 38.869 ], [ -77.4591, 38.86915 ], [ -77.45843, 38.86855 ], [ -77.4578, 38.86895 ], [ -77.4586, 38.8696 ], [ -77.45838, 38.8702 ], [ -77.45711, 38.87066 ], [ -77.45533, 38.8707 ], [ -77.45434, 38.86961 ], [ -77.45447, 38.87061 ], [ -77.45385, 38.87121 ], [ -77.45232, 38.87009 ], [ -77.451, 38.86986 ], [ -77.45129, 38.869 ], [ -77.45081, 38.86832 ], [ -77.45063, 38.86923 ], [ -77.45015, 38.8694 ], [ -77.44944, 38.86878 ], [ -77.44927, 38.87012 ], [ -77.45062, 38.87001 ], [ -77.45163, 38.87059 ], [ -77.45161, 38.87096 ], [ -77.45202, 38.87064 ], [ -77.4529, 38.87096 ], [ -77.45275, 38.8716 ], [ -77.45443, 38.87304 ], [ -77.45457, 38.87452 ], [ -77.4536, 38.87461 ], [ -77.45303, 38.87324 ], [ -77.45223, 38.87261 ], [ -77.45149, 38.87367 ], [ -77.45023, 38.87433 ], [ -77.44987, 38.87522 ], [ -77.44858, 38.8758 ], [ -77.44808, 38.87566 ], [ -77.44659, 38.87412 ], [ -77.44767, 38.87318 ], [ -77.44897, 38.87386 ], [ -77.44932, 38.87223 ], [ -77.44834, 38.87163 ], [ -77.44281, 38.87611 ], [ -77.44167, 38.87595 ], [ -77.44156, 38.87505 ], [ -77.44666, 38.87119 ], [ -77.44535, 38.8707 ], [ -77.44419, 38.87103 ], [ -77.44299, 38.86918 ], [ -77.44119, 38.86904 ], [ -77.44118, 38.86828 ], [ -77.44421, 38.86801 ], [ -77.44561, 38.86831 ], [ -77.44568, 38.8672 ], [ -77.44518, 38.86723 ], [ -77.44452, 38.86655 ], [ -77.44453, 38.86614 ], [ -77.44559, 38.86543 ], [ -77.4453, 38.86485 ], [ -77.44609, 38.8644 ], [ -77.44767, 38.86576 ], [ -77.44977, 38.86335 ], [ -77.45114, 38.86019 ], [ -77.45088, 38.85934 ], [ -77.44662, 38.86063 ], [ -77.44578, 38.86029 ], [ -77.44561, 38.85912 ], [ -77.44728, 38.8549 ], [ -77.4454, 38.85635 ], [ -77.44376, 38.85562 ], [ -77.44352, 38.85488 ], [ -77.4442, 38.85398 ], [ -77.44376, 38.85316 ], [ -77.44431, 38.85292 ], [ -77.44373, 38.85188 ], [ -77.44264, 38.8521 ], [ -77.44252, 38.85134 ], [ -77.4437, 38.85029 ], [ -77.44423, 38.85033 ], [ -77.44508, 38.85126 ], [ -77.4457, 38.85059 ], [ -77.44658, 38.85036 ], [ -77.44745, 38.85083 ], [ -77.44704, 38.85183 ], [ -77.44822, 38.85243 ], [ -77.44928, 38.85166 ], [ -77.4498, 38.85174 ], [ -77.44999, 38.85249 ], [ -77.44874, 38.85382 ], [ -77.44975, 38.85476 ], [ -77.45066, 38.85216 ], [ -77.45213, 38.84991 ], [ -77.4537, 38.85004 ], [ -77.45572, 38.84944 ], [ -77.45659, 38.84982 ], [ -77.45753, 38.84892 ], [ -77.45805, 38.84888 ], [ -77.45924, 38.8499 ], [ -77.45821, 38.85111 ], [ -77.45903, 38.85087 ], [ -77.45987, 38.84969 ], [ -77.46038, 38.84981 ], [ -77.46124, 38.85108 ], [ -77.45837, 38.85219 ], [ -77.45828, 38.8525 ], [ -77.45909, 38.85277 ], [ -77.4611, 38.85176 ], [ -77.46165, 38.85243 ], [ -77.46187, 38.85154 ] ], [ [ -77.45305, 38.86825 ], [ -77.45571, 38.8685 ], [ -77.45376, 38.86785 ], [ -77.45171, 38.86647 ], [ -77.45324, 38.86765 ], [ -77.45305, 38.86825 ] ], [ [ -77.45342, 38.85946 ], [ -77.45343, 38.85976 ], [ -77.45376, 38.85975 ], [ -77.45342, 38.85946 ] ], [ [ -77.45428, 38.8586 ], [ -77.45639, 38.85741 ], [ -77.45942, 38.85467 ], [ -77.45844, 38.85505 ], [ -77.45819, 38.85578 ], [ -77.45768, 38.8559 ], [ -77.45647, 38.85568 ], [ -77.45581, 38.85608 ], [ -77.45484, 38.85558 ], [ -77.45428, 38.8586 ] ], [ [ -77.45657, 38.8541 ], [ -77.45693, 38.85426 ], [ -77.45675, 38.85391 ], [ -77.45657, 38.8541 ] ], [ [ -77.45686, 38.85239 ], [ -77.45603, 38.85201 ], [ -77.45586, 38.85125 ], [ -77.454, 38.85128 ], [ -77.45446, 38.85272 ], [ -77.45419, 38.85307 ], [ -77.45307, 38.85312 ], [ -77.45287, 38.85349 ], [ -77.45344, 38.85358 ], [ -77.45389, 38.85433 ], [ -77.45686, 38.85239 ] ], [ [ -77.46072, 38.85513 ], [ -77.46073, 38.85502 ], [ -77.46067, 38.85516 ], [ -77.46072, 38.85513 ] ], [ [ -77.46569, 38.85483 ], [ -77.4656, 38.85502 ], [ -77.46569, 38.85511 ], [ -77.46569, 38.85483 ] ], [ [ -77.46325, 38.8539 ], [ -77.46358, 38.85388 ], [ -77.46346, 38.8537 ], [ -77.46325, 38.8539 ] ], [ [ -77.45868, 38.86383 ], [ -77.45747, 38.86478 ], [ -77.45791, 38.86538 ], [ -77.4574, 38.86584 ], [ -77.45852, 38.86668 ], [ -77.45939, 38.8644 ], [ -77.45868, 38.86383 ] ], [ [ -77.45768, 38.86759 ], [ -77.45732, 38.86736 ], [ -77.45767, 38.86759 ], [ -77.45768, 38.86759 ] ], [ [ -77.45624, 38.86646 ], [ -77.45674, 38.8674 ], [ -77.45728, 38.86735 ], [ -77.45624, 38.86646 ] ], [ [ -77.45231, 38.85407 ], [ -77.45224, 38.85421 ], [ -77.45239, 38.85424 ], [ -77.45231, 38.85407 ] ], [ [ -77.44983, 38.86615 ], [ -77.44986, 38.86616 ], [ -77.4499, 38.86613 ], [ -77.44983, 38.86615 ] ], [ [ -77.44918, 38.86598 ], [ -77.4492, 38.86598 ], [ -77.44918, 38.86595 ], [ -77.44918, 38.86598 ] ], [ [ -77.45242, 38.85866 ], [ -77.45203, 38.85863 ], [ -77.45224, 38.8589 ], [ -77.45242, 38.85866 ] ], [ [ -77.45162, 38.86486 ], [ -77.45108, 38.86546 ], [ -77.45235, 38.86548 ], [ -77.45162, 38.86486 ] ], [ [ -77.44784, 38.85603 ], [ -77.44861, 38.85606 ], [ -77.44825, 38.85577 ], [ -77.44784, 38.85603 ] ], [ [ -77.45049, 38.87293 ], [ -77.45057, 38.8727 ], [ -77.45044, 38.87296 ], [ -77.45049, 38.87293 ] ], [ [ -77.44785, 38.85795 ], [ -77.44775, 38.85797 ], [ -77.44792, 38.85798 ], [ -77.44785, 38.85795 ] ], [ [ -77.44719, 38.87078 ], [ -77.44719, 38.87073 ], [ -77.44718, 38.87079 ], [ -77.44719, 38.87078 ] ], [ [ -77.44779, 38.86914 ], [ -77.44762, 38.86693 ], [ -77.44709, 38.86676 ], [ -77.44727, 38.86787 ], [ -77.44686, 38.8688 ], [ -77.44779, 38.86914 ] ], [ [ -77.44501, 38.86936 ], [ -77.44498, 38.86939 ], [ -77.44504, 38.86938 ], [ -77.44501, 38.86936 ] ] ] } }
]
}
