{
"type": "FeatureCollection",
"name": "245",
"crs": { "type": "name", "properties": { "name": "urn:ogc:def:crs:OGC:1.3:CRS84" } },
"xy_coordinate_resolution": 1e-05,
"features": [
{ "type": "Feature", "properties": { "variant": "T0", "miles": 0.5 }, "geometry": { "type": "Polygon", "coordinates": [ [ [ -77.45855, 38.83461 ], [ -77.4594, 38.83498 ], [ -77.45958, 38.8365 ], [ -77.45834, 38.83733 ], [ -77.45781, 38.83728 ], [ -77.45724, 38.83643 ], [ -77.456, 38.84038 ], [ -77.45709, 38.84065 ], [ -77.45748, 38.83976 ], [ -77.45828, 38.83973 ], [ -77.45877, 38.83861 ], [ -77.45973, 38.83873 ], [ -77.46004, 38.84027 ], [ -77.45933, 38.84137 ], [ -77.45953, 38.84341 ], [ -77.45892, 38.84371 ], [ -77.45883, 38.84449 ], [ -77.45832, 38.84459 ], [ -77.45759, 38.8444 ], [ -77.45737, 38.84389 ], [ -77.45598, 38.84375 ], [ -77.45574, 38.8444 ], [ -77.45476, 38.84468 ], [ -77.45416, 38.84616 ], [ -77.45349, 38.84625 ], [ -77.45306, 38.84601 ], [ -77.4531, 38.84518 ], [ -77.45081, 38.84392 ], [ -77.45108, 38.84326 ], [ -77.45041, 38.8428 ], [ -77.45059, 38.84168 ], [ -77.44986, 38.84175 ], [ -77.44953, 38.84142 ], [ -77.44972, 38.84069 ], [ -77.45101, 38.84019 ], [ -77.45112, 38.83975 ], [ -77.45045, 38.8394 ], [ -77.45031, 38.83683 ], [ -77.45198, 38.83603 ], [ -77.4521, 38.83545 ], [ -77.45576, 38.83453 ], [ -77.45577, 38.83332 ], [ -77.45622, 38.8331 ], [ -77.45724, 38.83351 ], [ -77.4574, 38.83487 ], [ -77.45855, 38.83461 ] ], [ [ -77.45398, 38.83989 ], [ -77.454, 38.83983 ], [ -77.45374, 38.83981 ], [ -77.45398, 38.83989 ] ], [ [ -77.45591, 38.83568 ], [ -77.45592, 38.83562 ], [ -77.45589, 38.83563 ], [ -77.45591, 38.83568 ] ], [ [ -77.45355, 38.84346 ], [ -77.45285, 38.84334 ], [ -77.45344, 38.84385 ], [ -77.45355, 38.84346 ] ], [ [ -77.45319, 38.83966 ], [ -77.45318, 38.83969 ], [ -77.45345, 38.83974 ], [ -77.45319, 38.83966 ] ] ] } },
{ "type": "Feature", "properties": { "variant": "T0", "miles": 1.0 }, "geometry": { "type": "Polygon", "coordinates": [ [ [ -77.46062, 38.83056 ], [ -77.46226, 38.83287 ], [ -77.4645, 38.83237 ], [ -77.46543, 38.83285 ], [ -77.46496, 38.83353 ], [ -77.46345, 38.83386 ], [ -77.46427, 38.83498 ], [ -77.46378, 38.83595 ], [ -77.46226, 38.83602 ], [ -77.46119, 38.83463 ], [ -77.46075, 38.83505 ], [ -77.46155, 38.8364 ], [ -77.46122, 38.8376 ], [ -77.46188, 38.83829 ], [ -77.46111, 38.83908 ], [ -77.46109, 38.83983 ], [ -77.46004, 38.84021 ], [ -77.45933, 38.84137 ], [ -77.45973, 38.84412 ], [ -77.45914, 38.84545 ], [ -77.45995, 38.84563 ], [ -77.4601, 38.84637 ], [ -77.45863, 38.84722 ], [ -77.45743, 38.84676 ], [ -77.45653, 38.84728 ], [ -77.45418, 38.84696 ], [ -77.45365, 38.84905 ], [ -77.45469, 38.84977 ], [ -77.4563, 38.84987 ], [ -77.45645, 38.85027 ], [ -77.45534, 38.85097 ], [ -77.45518, 38.85197 ], [ -77.4542, 38.852 ], [ -77.45397, 38.85145 ], [ -77.45368, 38.8522 ], [ -77.45286, 38.85219 ], [ -77.45275, 38.8528 ], [ -77.4511, 38.85284 ], [ -77.45066, 38.85216 ], [ -77.4515, 38.85074 ], [ -77.44988, 38.85021 ], [ -77.44939, 38.84955 ], [ -77.45023, 38.84916 ], [ -77.45191, 38.8497 ], [ -77.45274, 38.84667 ], [ -77.45044, 38.8457 ], [ -77.4487, 38.84566 ], [ -77.44808, 38.84479 ], [ -77.44859, 38.84418 ], [ -77.45001, 38.84442 ], [ -77.44937, 38.84389 ], [ -77.44836, 38.84378 ], [ -77.44806, 38.84321 ], [ -77.44915, 38.83959 ], [ -77.45001, 38.83894 ], [ -77.45027, 38.83698 ], [ -77.44395, 38.83856 ], [ -77.44306, 38.83824 ], [ -77.44308, 38.83783 ], [ -77.44458, 38.83709 ], [ -77.45574, 38.8344 ], [ -77.45557, 38.83146 ], [ -77.4569, 38.83099 ], [ -77.45717, 38.83062 ], [ -77.45681, 38.82992 ], [ -77.45731, 38.82921 ], [ -77.45865, 38.82938 ], [ -77.46062, 38.83056 ] ], [ [ -77.45598, 38.84375 ], [ -77.45599, 38.84376 ], [ -77.456, 38.84375 ], [ -77.45598, 38.84375 ] ], [ [ -77.45706, 38.84048 ], [ -77.45758, 38.83891 ], [ -77.45666, 38.83817 ], [ -77.456, 38.84038 ], [ -77.45706, 38.84048 ] ], [ [ -77.45974, 38.83205 ], [ -77.45987, 38.832 ], [ -77.45977, 38.83198 ], [ -77.45974, 38.83205 ] ], [ [ -77.46019, 38.83251 ], [ -77.46015, 38.83283 ], [ -77.4605, 38.83282 ], [ -77.46037, 38.8327 ], [ -77.46019, 38.83251 ] ], [ [ -77.45841, 38.84598 ], [ -77.45847, 38.84588 ], [ -77.45833, 38.84592 ], [ -77.45841, 38.84598 ] ], [ [ -77.45713, 38.83757 ], [ -77.45687, 38.83753 ], [ -77.45672, 38.83799 ], [ -77.45713, 38.83757 ] ], [ [ -77.45592, 38.83562 ], [ -77.45589, 38.83563 ], [ -77.45591, 38.83568 ], [ -77.45592, 38.83562 ] ], [ [ -77.45578, 38.84533 ], [ -77.4553, 38.84526 ], [ -77.45513, 38.84535 ], [ -77.45578, 38.84533 ] ], [ [ -77.454, 38.83983 ], [ -77.45388, 38.83985 ], [ -77.45398, 38.83989 ], [ -77.454, 38.83983 ] ], [ [ -77.45318, 38.83969 ], [ -77.45345, 38.83974 ], [ -77.45319, 38.83966 ], [ -77.45318, 38.83969 ] ] ] } },
{ "type": "Feature", "properties": { "variant": "T0", "miles": 1.5 }, "geometry": { "type": "Polygon", "coordinates": [ [ [ -77.46665, 38.82751 ], [ -77.46665, 38.8285 ], [ -77.4682, 38.82826 ], [ -77.46906, 38.82863 ], [ -77.46854, 38.82943 ], [ -77.46666, 38.82959 ], [ -77.46697, 38.82995 ], [ -77.46785, 38.82993 ], [ -77.46879, 38.83137 ], [ -77.47553, 38.8298 ], [ -77.47645, 38.83032 ], [ -77.47598, 38.83098 ], [ -77.46345, 38.83386 ], [ -77.46427, 38.83498 ], [ -77.46417, 38.83575 ], [ -77.46286, 38.83612 ], [ -77.46248, 38.83686 ], [ -77.46148, 38.83696 ], [ -77.46122, 38.8376 ], [ -77.46182, 38.83859 ], [ -77.46111, 38.83908 ], [ -77.46109, 38.83983 ], [ -77.46004, 38.84021 ], [ -77.45933, 38.84137 ], [ -77.45973, 38.84412 ], [ -77.45914, 38.84545 ], [ -77.45978, 38.84552 ], [ -77.46114, 38.84661 ], [ -77.4628, 38.85042 ], [ -77.46226, 38.85093 ], [ -77.46118, 38.85074 ], [ -77.46091, 38.85141 ], [ -77.45837, 38.85219 ], [ -77.45828, 38.8525 ], [ -77.45909, 38.85277 ], [ -77.46058, 38.85185 ], [ -77.46155, 38.85198 ], [ -77.46158, 38.85264 ], [ -77.46062, 38.8536 ], [ -77.462, 38.85414 ], [ -77.46207, 38.85491 ], [ -77.46096, 38.85508 ], [ -77.45974, 38.85443 ], [ -77.45859, 38.85501 ], [ -77.45725, 38.85508 ], [ -77.45675, 38.85391 ], [ -77.45664, 38.85549 ], [ -77.45581, 38.85608 ], [ -77.45374, 38.85495 ], [ -77.45249, 38.8561 ], [ -77.45124, 38.85608 ], [ -77.45377, 38.85821 ], [ -77.45395, 38.8586 ], [ -77.45323, 38.85911 ], [ -77.45221, 38.8585 ], [ -77.45113, 38.85871 ], [ -77.45038, 38.85804 ], [ -77.44702, 38.85815 ], [ -77.44646, 38.85752 ], [ -77.44674, 38.85717 ], [ -77.44844, 38.85689 ], [ -77.44922, 38.85593 ], [ -77.44698, 38.85388 ], [ -77.4461, 38.85464 ], [ -77.44557, 38.8546 ], [ -77.44369, 38.85357 ], [ -77.44418, 38.85291 ], [ -77.44524, 38.85322 ], [ -77.44601, 38.85297 ], [ -77.44473, 38.85215 ], [ -77.44544, 38.85106 ], [ -77.44597, 38.8511 ], [ -77.44673, 38.85196 ], [ -77.44729, 38.85179 ], [ -77.44731, 38.85029 ], [ -77.44804, 38.84928 ], [ -77.44694, 38.84856 ], [ -77.44637, 38.8494 ], [ -77.44505, 38.8494 ], [ -77.44396, 38.84836 ], [ -77.44329, 38.84846 ], [ -77.4418, 38.84698 ], [ -77.44311, 38.84546 ], [ -77.44269, 38.84447 ], [ -77.44356, 38.84412 ], [ -77.445, 38.84579 ], [ -77.4462, 38.8454 ], [ -77.44706, 38.84562 ], [ -77.44811, 38.8468 ], [ -77.44814, 38.84783 ], [ -77.44879, 38.84829 ], [ -77.44942, 38.84706 ], [ -77.44929, 38.84575 ], [ -77.44834, 38.84545 ], [ -77.44809, 38.84464 ], [ -77.44873, 38.84415 ], [ -77.45001, 38.84442 ], [ -77.44937, 38.84389 ], [ -77.44836, 38.84378 ], [ -77.44806, 38.84321 ], [ -77.44915, 38.83959 ], [ -77.45001, 38.83894 ], [ -77.45027, 38.83698 ], [ -77.44204, 38.83904 ], [ -77.44191, 38.84085 ], [ -77.4398, 38.84237 ], [ -77.43898, 38.84172 ], [ -77.4405, 38.84031 ], [ -77.4405, 38.83924 ], [ -77.43769, 38.83928 ], [ -77.43727, 38.84023 ], [ -77.43616, 38.84082 ], [ -77.43538, 38.84027 ], [ -77.43613, 38.83913 ], [ -77.43404, 38.83896 ], [ -77.43405, 38.8382 ], [ -77.43599, 38.83805 ], [ -77.436, 38.83663 ], [ -77.4391, 38.83654 ], [ -77.43896, 38.83444 ], [ -77.43972, 38.83398 ], [ -77.44214, 38.83434 ], [ -77.44235, 38.83509 ], [ -77.44173, 38.83548 ], [ -77.44339, 38.83546 ], [ -77.44344, 38.83664 ], [ -77.44452, 38.83711 ], [ -77.45574, 38.8344 ], [ -77.45557, 38.83146 ], [ -77.4569, 38.83099 ], [ -77.45685, 38.82978 ], [ -77.45766, 38.82913 ], [ -77.46062, 38.83056 ], [ -77.46059, 38.83106 ], [ -77.46165, 38.83176 ], [ -77.46226, 38.83287 ], [ -77.46744, 38.83169 ], [ -77.46233, 38.82833 ], [ -77.46294, 38.82773 ], [ -77.46519, 38.82894 ], [ -77.4645, 38.82818 ], [ -77.46523, 38.8277 ], [ -77.46495, 38.82685 ], [ -77.46603, 38.8268 ], [ -77.46665, 38.82751 ] ], [ [ -77.4569, 38.85232 ], [ -77.45616, 38.85211 ], [ -77.45447, 38.85241 ], [ -77.45419, 38.85307 ], [ -77.45307, 38.85312 ], [ -77.45287, 38.85349 ], [ -77.45344, 38.85358 ], [ -77.45389, 38.85433 ], [ -77.4569, 38.85232 ] ], [ [ -77.45561, 38.84537 ], [ -77.45578, 38.84533 ], [ -77.45513, 38.84535 ], [ -77.45561, 38.84537 ] ], [ [ -77.454, 38.83983 ], [ -77.45374, 38.83981 ], [ -77.45398, 38.83989 ], [ -77.454, 38.83983 ] ], [ [ -77.45758, 38.83891 ], [ -77.45666, 38.83817 ], [ -77.456, 38.84038 ], [ -77.45709, 38.84065 ], [ -77.45758, 38.83891 ] ], [ [ -77.46023, 38.83256 ], [ -77.46019, 38.83251 ], [ -77.46015, 38.83283 ], [ -77.46023, 38.83256 ] ], [ [ -77.45987, 38.832 ], [ -77.45977, 38.83198 ], [ -77.45974, 38.83205 ], [ -77.45987, 38.832 ] ], [ [ -77.46112, 38.8355 ], [ -77.46119, 38.83463 ], [ -77.46075, 38.83505 ], [ -77.46112, 38.8355 ] ], [ [ -77.45963, 38.84683 ], [ -77.45845, 38.84723 ], [ -77.45743, 38.84676 ], [ -77.45689, 38.84715 ], [ -77.45754, 38.84776 ], [ -77.45897, 38.8474 ], [ -77.45974, 38.84815 ], [ -77.45963, 38.84683 ] ], [ [ -77.45841, 38.84598 ], [ -77.45847, 38.84588 ], [ -77.45833, 38.84592 ], [ -77.45841, 38.84598 ] ], [ [ -77.46025, 38.84927 ], [ -77.46019, 38.84931 ], [ -77.46042, 38.84962 ], [ -77.46025, 38.84927 ] ], [ [ -77.45687, 38.83753 ], [ -77.45672, 38.83799 ], [ -77.45713, 38.83757 ], [ -77.45687, 38.83753 ] ], [ [ -77.45589, 38.83563 ], [ -77.45591, 38.83568 ], [ -77.45592, 38.83562 ], [ -77.45589, 38.83563 ] ], [ [ -77.45598, 38.84375 ], [ -77.45599, 38.84376 ], [ -77.456, 38.84375 ], [ -77.45598, 38.84375 ] ], [ [ -77.45209, 38.85412 ], [ -77.45239, 38.85424 ], [ -77.4523, 38.85416 ], [ -77.45209, 38.85412 ] ], [ [ -77.4515, 38.85074 ], [ -77.4504, 38.85037 ], [ -77.45067, 38.85142 ], [ -77.4501, 38.85178 ], [ -77.44924, 38.85163 ], [ -77.44882, 38.85027 ], [ -77.44864, 38.85216 ], [ -77.44805, 38.8532 ], [ -77.44975, 38.85476 ], [ -77.4515, 38.85074 ] ], [ [ -77.45319, 38.83966 ], [ -77.45318, 38.83969 ], [ -77.45345, 38.83974 ], [ -77.45319, 38.83966 ] ], [ [ -77.45176, 38.84746 ], [ -77.45174, 38.84739 ], [ -77.45164, 38.84749 ], [ -77.45176, 38.84746 ] ], [ [ -77.45149, 38.84872 ], [ -77.45164, 38.84861 ], [ -77.4515, 38.8486 ], [ -77.45149, 38.84872 ] ], [ [ -77.44583, 38.84833 ], [ -77.44533, 38.84821 ], [ -77.44536, 38.84824 ], [ -77.44583, 38.84833 ] ], [ [ -77.44145, 38.83766 ], [ -77.44158, 38.83782 ], [ -77.44182, 38.83773 ], [ -77.44145, 38.83766 ] ] ] } },
{ "type": "Feature", "properties": { "variant": "T2s", "miles": 0.5 }, "geometry": { "type": "Polygon", "coordinates": [ [ [ -77.45855, 38.83461 ], [ -77.4594, 38.83498 ], [ -77.45958, 38.8365 ], [ -77.45834, 38.83733 ], [ -77.45781, 38.83728 ], [ -77.45724, 38.83643 ], [ -77.456, 38.84038 ], [ -77.45709, 38.84065 ], [ -77.45748, 38.83976 ], [ -77.45828, 38.83973 ], [ -77.45877, 38.83861 ], [ -77.45973, 38.83873 ], [ -77.46004, 38.84027 ], [ -77.45933, 38.84137 ], [ -77.45953, 38.84341 ], [ -77.45892, 38.84371 ], [ -77.45883, 38.84449 ], [ -77.45832, 38.84459 ], [ -77.45759, 38.8444 ], [ -77.45737, 38.84389 ], [ -77.45598, 38.84375 ], [ -77.45574, 38.8444 ], [ -77.45476, 38.84468 ], [ -77.45416, 38.84616 ], [ -77.45349, 38.84625 ], [ -77.45306, 38.84601 ], [ -77.4531, 38.84518 ], [ -77.45081, 38.84392 ], [ -77.45108, 38.84326 ], [ -77.45041, 38.8428 ], [ -77.45059, 38.84168 ], [ -77.44986, 38.84175 ], [ -77.44953, 38.84142 ], [ -77.44972, 38.84069 ], [ -77.45101, 38.84019 ], [ -77.45112, 38.83975 ], [ -77.45045, 38.8394 ], [ -77.45031, 38.83683 ], [ -77.45198, 38.83603 ], [ -77.4521, 38.83545 ], [ -77.45576, 38.83453 ], [ -77.45565, 38.8337 ], [ -77.45624, 38.8331 ], [ -77.45702, 38.83356 ], [ -77.4574, 38.83487 ], [ -77.45855, 38.83461 ] ], [ [ -77.45398, 38.83989 ], [ -77.454, 38.83983 ], [ -77.45374, 38.83981 ], [ -77.45398, 38.83989 ] ], [ [ -77.45589, 38.83563 ], [ -77.45591, 38.83568 ], [ -77.45592, 38.83562 ], [ -77.45589, 38.83563 ] ], [ [ -77.45355, 38.84346 ], [ -77.45285, 38.84334 ], [ -77.45344, 38.84385 ], [ -77.45355, 38.84346 ] ], [ [ -77.45319, 38.83966 ], [ -77.45318, 38.83969 ], [ -77.45345, 38.83974 ], [ -77.45319, 38.83966 ] ] ] } },
{ "type": "Feature", "properties": { "variant": "T2s", "miles": 1.0 }, "geometry": { "type": "Polygon", "coordinates": [ [ [ -77.46062, 38.83056 ], [ -77.46226, 38.83287 ], [ -77.4645, 38.83237 ], [ -77.46543, 38.83285 ], [ -77.46496, 38.83353 ], [ -77.46345, 38.83386 ], [ -77.46427, 38.83498 ], [ -77.46378, 38.83595 ], [ -77.46226, 38.83602 ], [ -77.46119, 38.83463 ], [ -77.46075, 38.83505 ], [ -77.46155, 38.8364 ], [ -77.46122, 38.8376 ], [ -77.46188, 38.83829 ], [ -77.46111, 38.83908 ], [ -77.46109, 38.83983 ], [ -77.46004, 38.84021 ], [ -77.45933, 38.84137 ], [ -77.45973, 38.84412 ], [ -77.45914, 38.84545 ], [ -77.45995, 38.84563 ], [ -77.4601, 38.84637 ], [ -77.45863, 38.84722 ], [ -77.45743, 38.84676 ], [ -77.45653, 38.84728 ], [ -77.45418, 38.84696 ], [ -77.45365, 38.84905 ], [ -77.45469, 38.84977 ], [ -77.4563, 38.84987 ], [ -77.45645, 38.85027 ], [ -77.45534, 38.85097 ], [ -77.45518, 38.85197 ], [ -77.4542, 38.852 ], [ -77.45397, 38.85145 ], [ -77.45368, 38.8522 ], [ -77.45286, 38.85219 ], [ -77.45275, 38.8528 ], [ -77.4511, 38.85284 ], [ -77.45066, 38.85216 ], [ -77.4515, 38.85074 ], [ -77.44988, 38.85021 ], [ -77.44939, 38.84955 ], [ -77.45023, 38.84916 ], [ -77.45191, 38.8497 ], [ -77.45274, 38.84667 ], [ -77.45044, 38.8457 ], [ -77.4487, 38.84566 ], [ -77.44808, 38.84479 ], [ -77.44859, 38.84418 ], [ -77.45001, 38.84442 ], [ -77.44937, 38.84389 ], [ -77.44836, 38.84378 ], [ -77.44806, 38.84321 ], [ -77.44915, 38.83959 ], [ -77.45001, 38.83894 ], [ -77.45027, 38.83698 ], [ -77.44395, 38.83856 ], [ -77.44306, 38.83824 ], [ -77.44308, 38.83783 ], [ -77.45283, 38.83494 ], [ -77.45574, 38.8344 ], [ -77.45557, 38.83146 ], [ -77.4569, 38.83099 ], [ -77.45717, 38.83062 ], [ -77.45681, 38.82992 ], [ -77.45731, 38.82921 ], [ -77.45865, 38.82938 ], [ -77.46062, 38.83056 ] ], [ [ -77.45598, 38.84375 ], [ -77.45599, 38.84376 ], [ -77.456, 38.84375 ], [ -77.45598, 38.84375 ] ], [ [ -77.45706, 38.84048 ], [ -77.45758, 38.83891 ], [ -77.45666, 38.83817 ], [ -77.456, 38.84038 ], [ -77.45706, 38.84048 ] ], [ [ -77.45974, 38.83205 ], [ -77.45987, 38.832 ], [ -77.45977, 38.83198 ], [ -77.45974, 38.83205 ] ], [ [ -77.46019, 38.83251 ], [ -77.46015, 38.83283 ], [ -77.4605, 38.83282 ], [ -77.46037, 38.8327 ], [ -77.46019, 38.83251 ] ], [ [ -77.45841, 38.84598 ], [ -77.45847, 38.84588 ], [ -77.45833, 38.84592 ], [ -77.45841, 38.84598 ] ], [ [ -77.45713, 38.83757 ], [ -77.45687, 38.83753 ], [ -77.45672, 38.83799 ], [ -77.45713, 38.83757 ] ], [ [ -77.45592, 38.83562 ], [ -77.45589, 38.83563 ], [ -77.45591, 38.83568 ], [ -77.45592, 38.83562 ] ], [ [ -77.45578, 38.84533 ], [ -77.4553, 38.84526 ], [ -77.45513, 38.84535 ], [ -77.45578, 38.84533 ] ], [ [ -77.45388, 38.83985 ], [ -77.454, 38.83983 ], [ -77.45374, 38.83981 ], [ -77.45388, 38.83985 ] ], [ [ -77.45345, 38.83974 ], [ -77.45319, 38.83966 ], [ -77.45318, 38.83969 ], [ -77.45345, 38.83974 ] ] ] } },
{ "type": "Feature", "properties": { "variant": "T2s", "miles": 1.5 }, "geometry": { "type": "Polygon", "coordinates": [ [ [ -77.46603, 38.8268 ], [ -77.46665, 38.82751 ], [ -77.46665, 38.8285 ], [ -77.4682, 38.82826 ], [ -77.46906, 38.82863 ], [ -77.46869, 38.82935 ], [ -77.46666, 38.82959 ], [ -77.46693, 38.82992 ], [ -77.46785, 38.82993 ], [ -77.46879, 38.83137 ], [ -77.47036, 38.83103 ], [ -77.47121, 38.83139 ], [ -77.47074, 38.83206 ], [ -77.46345, 38.83386 ], [ -77.46427, 38.83498 ], [ -77.46417, 38.83575 ], [ -77.46286, 38.83612 ], [ -77.46248, 38.83686 ], [ -77.46148, 38.83696 ], [ -77.46122, 38.8376 ], [ -77.46182, 38.83859 ], [ -77.46111, 38.83908 ], [ -77.46109, 38.83983 ], [ -77.46004, 38.84021 ], [ -77.45933, 38.84137 ], [ -77.45973, 38.84412 ], [ -77.45914, 38.84545 ], [ -77.45978, 38.84552 ], [ -77.46113, 38.8466 ], [ -77.46281, 38.85036 ], [ -77.46226, 38.85093 ], [ -77.46118, 38.85074 ], [ -77.46091, 38.85141 ], [ -77.45837, 38.85219 ], [ -77.45828, 38.8525 ], [ -77.45909, 38.85277 ], [ -77.46058, 38.85185 ], [ -77.46155, 38.85198 ], [ -77.46158, 38.85264 ], [ -77.46062, 38.8536 ], [ -77.462, 38.85414 ], [ -77.46207, 38.85491 ], [ -77.46096, 38.85508 ], [ -77.45974, 38.85443 ], [ -77.45859, 38.85501 ], [ -77.45725, 38.85508 ], [ -77.45675, 38.85391 ], [ -77.45664, 38.85549 ], [ -77.45581, 38.85608 ], [ -77.45374, 38.85495 ], [ -77.45249, 38.8561 ], [ -77.45124, 38.85608 ], [ -77.45377, 38.85821 ], [ -77.45372, 38.85898 ], [ -77.45323, 38.85911 ], [ -77.45221, 38.8585 ], [ -77.45127, 38.85875 ], [ -77.45038, 38.85804 ], [ -77.44862, 38.8581 ], [ -77.44818, 38.85736 ], [ -77.44922, 38.85593 ], [ -77.44698, 38.85388 ], [ -77.44603, 38.85368 ], [ -77.44613, 38.8531 ], [ -77.44473, 38.85215 ], [ -77.44544, 38.85106 ], [ -77.44597, 38.8511 ], [ -77.44673, 38.85196 ], [ -77.44729, 38.85179 ], [ -77.44731, 38.85029 ], [ -77.44804, 38.84928 ], [ -77.44694, 38.84856 ], [ -77.44637, 38.8494 ], [ -77.44505, 38.8494 ], [ -77.44396, 38.84836 ], [ -77.44329, 38.84846 ], [ -77.4418, 38.84698 ], [ -77.44311, 38.84546 ], [ -77.44269, 38.84447 ], [ -77.44356, 38.84412 ], [ -77.445, 38.84579 ], [ -77.4462, 38.8454 ], [ -77.44706, 38.84562 ], [ -77.44811, 38.8468 ], [ -77.44814, 38.84783 ], [ -77.44879, 38.84829 ], [ -77.44942, 38.84706 ], [ -77.44929, 38.84575 ], [ -77.44834, 38.84545 ], [ -77.44809, 38.84464 ], [ -77.44873, 38.84415 ], [ -77.45001, 38.84442 ], [ -77.44937, 38.84389 ], [ -77.44836, 38.84378 ], [ -77.44806, 38.84321 ], [ -77.44915, 38.83959 ], [ -77.45001, 38.83894 ], [ -77.45027, 38.83698 ], [ -77.44204, 38.83904 ], [ -77.44191, 38.84085 ], [ -77.4398, 38.84237 ], [ -77.43898, 38.84172 ], [ -77.4405, 38.84031 ], [ -77.4405, 38.83924 ], [ -77.43769, 38.83928 ], [ -77.43737, 38.84011 ], [ -77.43644, 38.8408 ], [ -77.4354, 38.84036 ], [ -77.43613, 38.83912 ], [ -77.43598, 38.83665 ], [ -77.4391, 38.83654 ], [ -77.43896, 38.83444 ], [ -77.43972, 38.83398 ], [ -77.44186, 38.83445 ], [ -77.44212, 38.83488 ], [ -77.44173, 38.83548 ], [ -77.44339, 38.83546 ], [ -77.44344, 38.83664 ], [ -77.44452, 38.83711 ], [ -77.45574, 38.8344 ], [ -77.45557, 38.83146 ], [ -77.4569, 38.83099 ], [ -77.45685, 38.82978 ], [ -77.45766, 38.82913 ], [ -77.46062, 38.83056 ], [ -77.46059, 38.83106 ], [ -77.46165, 38.83176 ], [ -77.46226, 38.83287 ], [ -77.46744, 38.83169 ], [ -77.46233, 38.82833 ], [ -77.46294, 38.82773 ], [ -77.46519, 38.82894 ], [ -77.4645, 38.82818 ], [ -77.46523, 38.8277 ], [ -77.46495, 38.82685 ], [ -77.46603, 38.8268 ] ], [ [ -77.45389, 38.85433 ], [ -77.4569, 38.85232 ], [ -77.45616, 38.85211 ], [ -77.45447, 38.85241 ], [ -77.45419, 38.85307 ], [ -77.45307, 38.85312 ], [ -77.45287, 38.85349 ], [ -77.45344, 38.85358 ], [ -77.45389, 38.85433 ] ], [ [ -77.45513, 38.84535 ], [ -77.45561, 38.84537 ], [ -77.45578, 38.84533 ], [ -77.45513, 38.84535 ] ], [ [ -77.45398, 38.83989 ], [ -77.454, 38.83983 ], [ -77.45374, 38.83981 ], [ -77.45398, 38.83989 ] ], [ [ -77.45709, 38.84065 ], [ -77.45758, 38.83891 ], [ -77.45666, 38.83817 ], [ -77.456, 38.84038 ], [ -77.45709, 38.84065 ] ], [ [ -77.46015, 38.83283 ], [ -77.46023, 38.83256 ], [ -77.46019, 38.83251 ], [ -77.46015, 38.83283 ] ], [ [ -77.45974, 38.83205 ], [ -77.45987, 38.832 ], [ -77.45977, 38.83198 ], [ -77.45974, 38.83205 ] ], [ [ -77.46075, 38.83505 ], [ -77.46112, 38.8355 ], [ -77.46119, 38.83463 ], [ -77.46075, 38.83505 ] ], [ [ -77.45897, 38.8474 ], [ -77.45977, 38.84814 ], [ -77.45963, 38.84683 ], [ -77.45845, 38.84723 ], [ -77.45743, 38.84676 ], [ -77.45689, 38.84715 ], [ -77.45754, 38.84776 ], [ -77.45897, 38.8474 ] ], [ [ -77.45833, 38.84592 ], [ -77.45841, 38.84598 ], [ -77.45847, 38.84588 ], [ -77.45833, 38.84592 ] ], [ [ -77.46042, 38.84962 ], [ -77.46025, 38.84927 ], [ -77.46019, 38.84931 ], [ -77.46042, 38.84962 ] ], [ [ -77.45713, 38.83757 ], [ -77.45679, 38.83777 ], [ -77.45672, 38.83799 ], [ -77.45713, 38.83757 ] ], [ [ -77.45591, 38.83568 ], [ -77.45592, 38.83562 ], [ -77.45589, 38.83563 ], [ -77.45591, 38.83568 ] ], [ [ -77.456, 38.84375 ], [ -77.45598, 38.84375 ], [ -77.45599, 38.84376 ], [ -77.456, 38.84375 ] ], [ [ -77.45672, 38.84972 ], [ -77.45646, 38.84978 ], [ -77.45659, 38.84982 ], [ -77.45672, 38.84972 ] ], [ [ -77.4523, 38.85416 ], [ -77.45209, 38.85412 ], [ -77.45239, 38.85424 ], [ -77.4523, 38.85416 ] ], [ [ -77.44975, 38.85476 ], [ -77.4515, 38.85074 ], [ -77.4504, 38.85037 ], [ -77.45072, 38.85133 ], [ -77.44977, 38.85179 ], [ -77.44903, 38.85145 ], [ -77.44884, 38.85025 ], [ -77.44864, 38.85216 ], [ -77.44805, 38.8532 ], [ -77.44975, 38.85476 ] ], [ [ -77.45319, 38.83966 ], [ -77.45318, 38.83969 ], [ -77.45345, 38.83974 ], [ -77.45319, 38.83966 ] ], [ [ -77.45164, 38.84749 ], [ -77.45176, 38.84746 ], [ -77.45174, 38.84739 ], [ -77.45164, 38.84749 ] ], [ [ -77.4515, 38.8486 ], [ -77.45149, 38.84872 ], [ -77.45164, 38.84861 ], [ -77.4515, 38.8486 ] ], [ [ -77.44547, 38.84817 ], [ -77.44568, 38.84843 ], [ -77.44583, 38.84833 ], [ -77.44547, 38.84817 ] ], [ [ -77.44182, 38.83773 ], [ -77.44145, 38.83766 ], [ -77.44158, 38.83782 ], [ -77.44182, 38.83773 ] ] ] } }
]
}
