{
"type": "FeatureCollection",
"name": "25",
"crs": { "type": "name", "properties": { "name": "urn:ogc:def:crs:OGC:1.3:CRS84" } },
"xy_coordinate_resolution": 1e-05,
"features": [
{ "type": "Feature", "properties": { "variant": "T0", "miles": 0.5 }, "geometry": { "type": "Polygon", "coordinates": [ [ [ -77.18118, 38.93092 ], [ -77.1818, 38.93179 ], [ -77.18159, 38.93228 ], [ -77.18065, 38.93228 ], [ -77.17945, 38.93313 ], [ -77.18034, 38.93375 ], [ -77.18133, 38.93294 ], [ -77.18231, 38.933 ], [ -77.18224, 38.93376 ], [ -77.18128, 38.93455 ], [ -77.18248, 38.93509 ], [ -77.18275, 38.93582 ], [ -77.18171, 38.93611 ], [ -77.18022, 38.93545 ], [ -77.18093, 38.93623 ], [ -77.18076, 38.93662 ], [ -77.18028, 38.93679 ], [ -77.17926, 38.93629 ], [ -77.17776, 38.93797 ], [ -77.17666, 38.93788 ], [ -77.17715, 38.94017 ], [ -77.17632, 38.94034 ], [ -77.17555, 38.93948 ], [ -77.17528, 38.94105 ], [ -77.17143, 38.94183 ], [ -77.17111, 38.94111 ], [ -77.17279, 38.94048 ], [ -77.1709, 38.93514 ], [ -77.17, 38.93575 ], [ -77.16911, 38.93511 ], [ -77.16794, 38.93527 ], [ -77.16732, 38.93473 ], [ -77.16743, 38.93433 ], [ -77.16828, 38.93417 ], [ -77.16834, 38.93253 ], [ -77.16989, 38.93276 ], [ -77.1693, 38.93181 ], [ -77.17042, 38.93133 ], [ -77.17274, 38.9332 ], [ -77.17275, 38.93257 ], [ -77.17397, 38.93168 ], [ -77.17757, 38.93057 ], [ -77.17845, 38.9309 ], [ -77.17891, 38.93191 ], [ -77.18048, 38.93086 ], [ -77.18118, 38.93092 ] ], [ [ -77.17698, 38.93683 ], [ -77.17747, 38.93622 ], [ -77.17668, 38.9357 ], [ -77.17656, 38.93674 ], [ -77.17698, 38.93683 ] ], [ [ -77.17397, 38.93974 ], [ -77.17413, 38.93945 ], [ -77.17436, 38.93878 ], [ -77.17397, 38.93974 ] ], [ [ -77.17471, 38.93772 ], [ -77.17471, 38.93773 ], [ -77.17472, 38.9377 ], [ -77.17471, 38.93772 ] ], [ [ -77.1741, 38.93533 ], [ -77.17519, 38.93557 ], [ -77.17579, 38.93457 ], [ -77.1748, 38.93393 ], [ -77.17476, 38.93341 ], [ -77.17302, 38.93339 ], [ -77.1741, 38.93533 ] ], [ [ -77.17197, 38.93411 ], [ -77.17205, 38.93437 ], [ -77.17228, 38.93432 ], [ -77.17197, 38.93411 ] ], [ [ -77.16988, 38.93394 ], [ -77.16969, 38.93413 ], [ -77.17039, 38.93411 ], [ -77.16988, 38.93394 ] ], [ [ -77.17323, 38.93773 ], [ -77.17376, 38.93638 ], [ -77.17268, 38.93536 ], [ -77.17242, 38.93541 ], [ -77.17323, 38.93773 ] ] ] } },
{ "type": "Feature", "properties": { "variant": "T0", "miles": 1.0 }, "geometry": { "type": "Polygon", "coordinates": [ [ [ -77.18775, 38.92803 ], [ -77.18853, 38.92829 ], [ -77.18868, 38.92913 ], [ -77.18918, 38.92932 ], [ -77.18929, 38.93088 ], [ -77.18884, 38.9311 ], [ -77.18809, 38.93071 ], [ -77.18703, 38.93081 ], [ -77.18622, 38.93014 ], [ -77.18672, 38.93118 ], [ -77.18649, 38.93175 ], [ -77.18708, 38.93258 ], [ -77.1884, 38.9324 ], [ -77.18872, 38.93312 ], [ -77.18711, 38.93377 ], [ -77.18611, 38.93341 ], [ -77.18645, 38.93466 ], [ -77.18524, 38.9352 ], [ -77.18659, 38.93583 ], [ -77.1884, 38.93509 ], [ -77.18855, 38.93457 ], [ -77.18945, 38.93449 ], [ -77.19056, 38.93619 ], [ -77.19026, 38.9377 ], [ -77.19112, 38.93799 ], [ -77.19123, 38.9384 ], [ -77.19043, 38.93883 ], [ -77.18858, 38.93855 ], [ -77.18827, 38.9397 ], [ -77.18703, 38.93979 ], [ -77.18611, 38.9392 ], [ -77.18633, 38.93882 ], [ -77.18717, 38.93871 ], [ -77.18721, 38.93832 ], [ -77.1854, 38.93767 ], [ -77.18482, 38.93789 ], [ -77.18491, 38.93911 ], [ -77.18219, 38.94364 ], [ -77.18373, 38.94449 ], [ -77.18399, 38.94522 ], [ -77.18304, 38.94542 ], [ -77.17992, 38.94379 ], [ -77.17953, 38.94649 ], [ -77.17879, 38.94687 ], [ -77.17462, 38.94585 ], [ -77.1746, 38.9437 ], [ -77.17436, 38.94403 ], [ -77.17291, 38.94419 ], [ -77.17319, 38.94572 ], [ -77.17103, 38.94618 ], [ -77.17026, 38.94535 ], [ -77.16925, 38.94559 ], [ -77.16835, 38.94298 ], [ -77.16495, 38.94398 ], [ -77.16405, 38.94368 ], [ -77.16433, 38.94306 ], [ -77.16335, 38.94278 ], [ -77.16326, 38.94224 ], [ -77.16404, 38.94182 ], [ -77.16604, 38.94206 ], [ -77.16535, 38.93976 ], [ -77.16691, 38.939 ], [ -77.16641, 38.93801 ], [ -77.16674, 38.93729 ], [ -77.16766, 38.93755 ], [ -77.16821, 38.93863 ], [ -77.16933, 38.93888 ], [ -77.17041, 38.94114 ], [ -77.17279, 38.94048 ], [ -77.1709, 38.93514 ], [ -77.17, 38.93575 ], [ -77.16911, 38.93511 ], [ -77.1678, 38.93521 ], [ -77.16732, 38.93473 ], [ -77.16749, 38.9343 ], [ -77.16538, 38.93449 ], [ -77.16454, 38.934 ], [ -77.16428, 38.933 ], [ -77.16466, 38.93224 ], [ -77.16653, 38.93133 ], [ -77.16851, 38.93166 ], [ -77.16824, 38.93122 ], [ -77.16917, 38.93015 ], [ -77.16671, 38.92875 ], [ -77.16523, 38.92738 ], [ -77.16519, 38.92662 ], [ -77.16617, 38.92659 ], [ -77.16902, 38.92887 ], [ -77.17037, 38.92943 ], [ -77.17088, 38.92909 ], [ -77.17201, 38.92958 ], [ -77.17071, 38.92752 ], [ -77.1717, 38.9272 ], [ -77.17214, 38.92627 ], [ -77.1732, 38.92583 ], [ -77.17263, 38.92505 ], [ -77.17292, 38.9247 ], [ -77.17517, 38.92488 ], [ -77.17569, 38.92553 ], [ -77.17461, 38.92598 ], [ -77.17432, 38.9281 ], [ -77.17771, 38.92811 ], [ -77.17918, 38.92852 ], [ -77.17992, 38.9291 ], [ -77.1807, 38.93075 ], [ -77.18374, 38.92952 ], [ -77.18311, 38.92843 ], [ -77.18225, 38.92873 ], [ -77.18159, 38.92797 ], [ -77.1825, 38.92611 ], [ -77.18341, 38.92638 ], [ -77.18386, 38.92714 ], [ -77.18539, 38.92678 ], [ -77.18625, 38.92738 ], [ -77.18654, 38.9266 ], [ -77.18704, 38.92648 ], [ -77.18751, 38.92668 ], [ -77.18775, 38.92803 ] ], [ [ -77.17802, 38.9388 ], [ -77.18094, 38.93747 ], [ -77.18036, 38.93706 ], [ -77.17941, 38.93774 ], [ -77.17891, 38.9376 ], [ -77.17867, 38.93723 ], [ -77.17926, 38.93629 ], [ -77.1782, 38.93735 ], [ -77.17802, 38.9388 ] ], [ [ -77.17641, 38.93091 ], [ -77.17692, 38.93075 ], [ -77.17635, 38.93079 ], [ -77.17641, 38.93091 ] ], [ [ -77.17624, 38.92979 ], [ -77.17622, 38.92918 ], [ -77.17483, 38.92918 ], [ -77.17481, 38.92988 ], [ -77.17383, 38.93089 ], [ -77.17458, 38.93147 ], [ -77.17512, 38.9313 ], [ -77.17476, 38.93042 ], [ -77.17507, 38.92959 ], [ -77.17624, 38.92979 ] ], [ [ -77.18225, 38.93693 ], [ -77.18249, 38.93646 ], [ -77.18018, 38.93549 ], [ -77.18225, 38.93693 ] ], [ [ -77.18172, 38.93474 ], [ -77.18153, 38.93434 ], [ -77.18128, 38.93455 ], [ -77.18172, 38.93474 ] ], [ [ -77.18064, 38.93241 ], [ -77.17945, 38.93313 ], [ -77.18034, 38.93375 ], [ -77.18099, 38.93319 ], [ -77.18064, 38.93241 ] ], [ [ -77.18499, 38.93111 ], [ -77.18487, 38.93042 ], [ -77.18469, 38.93048 ], [ -77.18499, 38.93111 ] ], [ [ -77.1806, 38.94283 ], [ -77.18131, 38.94257 ], [ -77.18157, 38.94211 ], [ -77.1806, 38.94283 ] ], [ [ -77.17891, 38.93191 ], [ -77.17944, 38.93121 ], [ -77.17867, 38.93142 ], [ -77.17891, 38.93191 ] ], [ [ -77.18295, 38.93987 ], [ -77.18315, 38.93952 ], [ -77.18273, 38.93972 ], [ -77.18295, 38.93987 ] ], [ [ -77.1746, 38.94364 ], [ -77.17484, 38.94189 ], [ -77.17253, 38.94271 ], [ -77.17447, 38.94327 ], [ -77.1746, 38.94364 ] ], [ [ -77.17538, 38.93997 ], [ -77.17578, 38.93993 ], [ -77.17555, 38.93948 ], [ -77.17538, 38.93997 ] ], [ [ -77.17471, 38.93772 ], [ -77.17471, 38.93773 ], [ -77.17472, 38.9377 ], [ -77.17471, 38.93772 ] ], [ [ -77.1741, 38.93533 ], [ -77.17519, 38.93557 ], [ -77.17579, 38.93457 ], [ -77.17356, 38.93386 ], [ -77.1741, 38.93533 ] ], [ [ -77.17656, 38.93674 ], [ -77.17747, 38.93622 ], [ -77.17668, 38.9357 ], [ -77.17656, 38.93674 ] ], [ [ -77.17249, 38.92807 ], [ -77.17293, 38.92851 ], [ -77.17286, 38.92785 ], [ -77.17249, 38.92807 ] ], [ [ -77.17197, 38.93411 ], [ -77.17205, 38.93437 ], [ -77.17228, 38.93432 ], [ -77.17219, 38.93426 ], [ -77.17197, 38.93411 ] ], [ [ -77.16971, 38.93264 ], [ -77.16964, 38.93267 ], [ -77.16989, 38.93276 ], [ -77.16971, 38.93264 ] ], [ [ -77.17333, 38.9336 ], [ -77.17344, 38.93371 ], [ -77.17345, 38.93371 ], [ -77.17333, 38.9336 ] ], [ [ -77.17434, 38.93878 ], [ -77.17399, 38.93982 ], [ -77.17436, 38.93878 ], [ -77.17434, 38.93878 ] ], [ [ -77.17325, 38.93779 ], [ -77.17376, 38.93638 ], [ -77.17242, 38.93541 ], [ -77.17325, 38.93779 ] ], [ [ -77.17192, 38.94494 ], [ -77.17156, 38.94496 ], [ -77.17158, 38.94501 ], [ -77.17192, 38.94494 ] ], [ [ -77.17123, 38.94378 ], [ -77.17126, 38.9439 ], [ -77.17143, 38.94384 ], [ -77.17123, 38.94378 ] ], [ [ -77.16812, 38.93314 ], [ -77.16812, 38.93313 ], [ -77.16811, 38.93314 ], [ -77.16812, 38.93314 ] ], [ [ -77.16573, 38.93294 ], [ -77.16576, 38.93339 ], [ -77.16601, 38.93336 ], [ -77.16573, 38.93294 ] ], [ [ -77.16988, 38.93394 ], [ -77.16969, 38.93413 ], [ -77.17039, 38.93411 ], [ -77.16988, 38.93394 ] ], [ [ -77.16892, 38.94109 ], [ -77.16729, 38.94155 ], [ -77.16744, 38.94195 ], [ -77.1691, 38.9415 ], [ -77.16892, 38.94109 ] ], [ [ -77.16688, 38.94053 ], [ -77.16846, 38.94007 ], [ -77.16831, 38.93975 ], [ -77.16674, 38.94017 ], [ -77.16688, 38.94053 ] ] ] } },
{ "type": "Feature", "properties": { "variant": "T0", "miles": 1.5 }, "geometry": { "type": "Polygon", "coordinates": [ [ [ -77.19176, 38.92415 ], [ -77.19207, 38.92462 ], [ -77.19181, 38.92498 ], [ -77.1907, 38.92504 ], [ -77.19024, 38.92585 ], [ -77.18971, 38.92579 ], [ -77.18931, 38.92507 ], [ -77.18771, 38.92533 ], [ -77.18929, 38.9258 ], [ -77.18941, 38.92621 ], [ -77.18827, 38.92688 ], [ -77.18851, 38.92757 ], [ -77.18808, 38.92807 ], [ -77.18856, 38.92833 ], [ -77.18868, 38.92913 ], [ -77.19383, 38.92897 ], [ -77.19373, 38.928 ], [ -77.19416, 38.92776 ], [ -77.19481, 38.92795 ], [ -77.19679, 38.9274 ], [ -77.19732, 38.92743 ], [ -77.19782, 38.92801 ], [ -77.19853, 38.92762 ], [ -77.19903, 38.92775 ], [ -77.19993, 38.92913 ], [ -77.19943, 38.92982 ], [ -77.19854, 38.93017 ], [ -77.19724, 38.92965 ], [ -77.19624, 38.92989 ], [ -77.19715, 38.93162 ], [ -77.19795, 38.93166 ], [ -77.19834, 38.93236 ], [ -77.19259, 38.93473 ], [ -77.1936, 38.93481 ], [ -77.1946, 38.93541 ], [ -77.19454, 38.93705 ], [ -77.19357, 38.93699 ], [ -77.19346, 38.93603 ], [ -77.19301, 38.9358 ], [ -77.19247, 38.93582 ], [ -77.19246, 38.93663 ], [ -77.19186, 38.93715 ], [ -77.19103, 38.93728 ], [ -77.19043, 38.93691 ], [ -77.19025, 38.93715 ], [ -77.19026, 38.9377 ], [ -77.19091, 38.9378 ], [ -77.19349, 38.93711 ], [ -77.19388, 38.93834 ], [ -77.19336, 38.93912 ], [ -77.19433, 38.93943 ], [ -77.19477, 38.94137 ], [ -77.19566, 38.94274 ], [ -77.19683, 38.94354 ], [ -77.1968, 38.94395 ], [ -77.19588, 38.9442 ], [ -77.19506, 38.94381 ], [ -77.19492, 38.94447 ], [ -77.19445, 38.94466 ], [ -77.19178, 38.94465 ], [ -77.19123, 38.94563 ], [ -77.19191, 38.94628 ], [ -77.19149, 38.94751 ], [ -77.19052, 38.94743 ], [ -77.19044, 38.94663 ], [ -77.18826, 38.9464 ], [ -77.18928, 38.94881 ], [ -77.1883, 38.95019 ], [ -77.18569, 38.95081 ], [ -77.18483, 38.95022 ], [ -77.18463, 38.95096 ], [ -77.18367, 38.9511 ], [ -77.18344, 38.95016 ], [ -77.18218, 38.95003 ], [ -77.18197, 38.94965 ], [ -77.18216, 38.94926 ], [ -77.18335, 38.94908 ], [ -77.18213, 38.94841 ], [ -77.18224, 38.94688 ], [ -77.18141, 38.94713 ], [ -77.18102, 38.94952 ], [ -77.18008, 38.94931 ], [ -77.17981, 38.94871 ], [ -77.17943, 38.94995 ], [ -77.1784, 38.9501 ], [ -77.17825, 38.95053 ], [ -77.18017, 38.95083 ], [ -77.17985, 38.95176 ], [ -77.17726, 38.95148 ], [ -77.1767, 38.9509 ], [ -77.1773, 38.94924 ], [ -77.17666, 38.94767 ], [ -77.177, 38.94689 ], [ -77.17761, 38.94661 ], [ -77.17462, 38.94585 ], [ -77.17449, 38.94455 ], [ -77.17368, 38.94526 ], [ -77.17309, 38.94468 ], [ -77.17285, 38.94492 ], [ -77.17332, 38.94532 ], [ -77.17273, 38.94593 ], [ -77.17103, 38.94618 ], [ -77.17026, 38.94535 ], [ -77.16925, 38.94559 ], [ -77.16835, 38.94298 ], [ -77.16694, 38.94327 ], [ -77.16786, 38.94528 ], [ -77.16874, 38.94516 ], [ -77.16983, 38.94623 ], [ -77.17196, 38.94694 ], [ -77.17151, 38.94762 ], [ -77.17008, 38.94732 ], [ -77.16952, 38.94866 ], [ -77.17058, 38.94894 ], [ -77.17102, 38.94962 ], [ -77.17014, 38.94996 ], [ -77.16912, 38.9497 ], [ -77.16948, 38.95144 ], [ -77.1685, 38.95148 ], [ -77.16779, 38.94937 ], [ -77.16713, 38.94918 ], [ -77.16548, 38.94878 ], [ -77.16404, 38.94922 ], [ -77.1637, 38.9489 ], [ -77.16395, 38.94837 ], [ -77.16244, 38.948 ], [ -77.16205, 38.94893 ], [ -77.16118, 38.94927 ], [ -77.16074, 38.94859 ], [ -77.16112, 38.94766 ], [ -77.16, 38.94736 ], [ -77.15853, 38.94904 ], [ -77.15707, 38.94871 ], [ -77.15678, 38.94836 ], [ -77.15751, 38.94675 ], [ -77.15718, 38.94617 ], [ -77.15751, 38.94585 ], [ -77.15899, 38.946 ], [ -77.16038, 38.9453 ], [ -77.15913, 38.94359 ], [ -77.15816, 38.94364 ], [ -77.15803, 38.94302 ], [ -77.15558, 38.94345 ], [ -77.15517, 38.94402 ], [ -77.15464, 38.94407 ], [ -77.15423, 38.94381 ], [ -77.15424, 38.94297 ], [ -77.15477, 38.94233 ], [ -77.15724, 38.94191 ], [ -77.15722, 38.94144 ], [ -77.15621, 38.94131 ], [ -77.15633, 38.94033 ], [ -77.15665, 38.94 ], [ -77.1577, 38.94006 ], [ -77.15838, 38.93864 ], [ -77.15933, 38.93883 ], [ -77.15941, 38.93924 ], [ -77.1586, 38.94169 ], [ -77.15983, 38.94155 ], [ -77.16058, 38.93799 ], [ -77.15997, 38.93572 ], [ -77.16104, 38.93576 ], [ -77.16166, 38.93718 ], [ -77.16214, 38.93714 ], [ -77.16205, 38.93622 ], [ -77.16249, 38.93598 ], [ -77.16301, 38.93605 ], [ -77.16356, 38.93706 ], [ -77.16579, 38.93722 ], [ -77.16451, 38.9365 ], [ -77.16512, 38.93546 ], [ -77.16557, 38.93525 ], [ -77.16636, 38.9357 ], [ -77.16744, 38.93548 ], [ -77.16795, 38.93613 ], [ -77.16698, 38.93667 ], [ -77.16821, 38.93863 ], [ -77.16935, 38.9389 ], [ -77.17041, 38.94114 ], [ -77.17279, 38.94048 ], [ -77.1709, 38.93514 ], [ -77.17, 38.93575 ], [ -77.16911, 38.93511 ], [ -77.1678, 38.93521 ], [ -77.16732, 38.93473 ], [ -77.16749, 38.9343 ], [ -77.16533, 38.93448 ], [ -77.16448, 38.93385 ], [ -77.16428, 38.93291 ], [ -77.1647, 38.93222 ], [ -77.16656, 38.93133 ], [ -77.16851, 38.93166 ], [ -77.16824, 38.93122 ], [ -77.16917, 38.93015 ], [ -77.16748, 38.92934 ], [ -77.16667, 38.92949 ], [ -77.16642, 38.93046 ], [ -77.16592, 38.9306 ], [ -77.16532, 38.93017 ], [ -77.16402, 38.93005 ], [ -77.16465, 38.93069 ], [ -77.16442, 38.93106 ], [ -77.16335, 38.93109 ], [ -77.16152, 38.92997 ], [ -77.16172, 38.92854 ], [ -77.16105, 38.9286 ], [ -77.15983, 38.92744 ], [ -77.15989, 38.92702 ], [ -77.16082, 38.9268 ], [ -77.16161, 38.92746 ], [ -77.16286, 38.92776 ], [ -77.16314, 38.92598 ], [ -77.16132, 38.92481 ], [ -77.15983, 38.92571 ], [ -77.15937, 38.92526 ], [ -77.15833, 38.92548 ], [ -77.15748, 38.9251 ], [ -77.15846, 38.92361 ], [ -77.16048, 38.92355 ], [ -77.16029, 38.92289 ], [ -77.16159, 38.92256 ], [ -77.1618, 38.9222 ], [ -77.16089, 38.92154 ], [ -77.16099, 38.92113 ], [ -77.16142, 38.9209 ], [ -77.16235, 38.92118 ], [ -77.16298, 38.92054 ], [ -77.16573, 38.92178 ], [ -77.16774, 38.92131 ], [ -77.16961, 38.92229 ], [ -77.16955, 38.92378 ], [ -77.17056, 38.92404 ], [ -77.17067, 38.92519 ], [ -77.17123, 38.9252 ], [ -77.17185, 38.92485 ], [ -77.17084, 38.92261 ], [ -77.17125, 38.92176 ], [ -77.17243, 38.92121 ], [ -77.17249, 38.92004 ], [ -77.17352, 38.92006 ], [ -77.17461, 38.91961 ], [ -77.17503, 38.91986 ], [ -77.17467, 38.92073 ], [ -77.17535, 38.92144 ], [ -77.17372, 38.92294 ], [ -77.17407, 38.923 ], [ -77.17472, 38.92246 ], [ -77.17681, 38.92231 ], [ -77.17717, 38.91962 ], [ -77.18053, 38.91922 ], [ -77.18151, 38.92011 ], [ -77.18241, 38.91942 ], [ -77.18294, 38.91944 ], [ -77.1833, 38.91974 ], [ -77.18302, 38.92059 ], [ -77.18373, 38.92057 ], [ -77.18459, 38.92148 ], [ -77.1843, 38.92183 ], [ -77.18289, 38.92226 ], [ -77.18252, 38.92259 ], [ -77.1825, 38.92351 ], [ -77.18297, 38.92234 ], [ -77.18347, 38.92222 ], [ -77.18394, 38.92241 ], [ -77.18404, 38.92325 ], [ -77.18479, 38.92342 ], [ -77.18443, 38.92703 ], [ -77.18632, 38.92627 ], [ -77.18637, 38.92369 ], [ -77.18569, 38.92315 ], [ -77.18569, 38.92233 ], [ -77.18708, 38.921 ], [ -77.18795, 38.92141 ], [ -77.18933, 38.92144 ], [ -77.18959, 38.92181 ], [ -77.18897, 38.9224 ], [ -77.18707, 38.92257 ], [ -77.18775, 38.92344 ], [ -77.18836, 38.92286 ], [ -77.18887, 38.92298 ], [ -77.18949, 38.92385 ], [ -77.18941, 38.92266 ], [ -77.19004, 38.92208 ], [ -77.19081, 38.92273 ], [ -77.19172, 38.92223 ], [ -77.19215, 38.92247 ], [ -77.19176, 38.92415 ] ], [ [ -77.17798, 38.9467 ], [ -77.17825, 38.94694 ], [ -77.17831, 38.94677 ], [ -77.17798, 38.9467 ] ], [ [ -77.18094, 38.93747 ], [ -77.18036, 38.93706 ], [ -77.17941, 38.93774 ], [ -77.17891, 38.9376 ], [ -77.17867, 38.93723 ], [ -77.17926, 38.93629 ], [ -77.1782, 38.93735 ], [ -77.17802, 38.9388 ], [ -77.18094, 38.93747 ] ], [ [ -77.17957, 38.93145 ], [ -77.17944, 38.93121 ], [ -77.17867, 38.93142 ], [ -77.179, 38.93184 ], [ -77.17957, 38.93145 ] ], [ [ -77.17869, 38.92834 ], [ -77.17863, 38.92768 ], [ -77.17759, 38.92799 ], [ -77.17869, 38.92834 ] ], [ [ -77.17713, 38.9249 ], [ -77.17672, 38.92512 ], [ -77.17724, 38.9252 ], [ -77.17713, 38.9249 ] ], [ [ -77.17885, 38.92315 ], [ -77.17939, 38.9232 ], [ -77.17811, 38.9227 ], [ -77.17885, 38.92315 ] ], [ [ -77.18778, 38.94869 ], [ -77.18782, 38.9487 ], [ -77.18782, 38.94869 ], [ -77.18778, 38.94869 ] ], [ [ -77.18658, 38.9483 ], [ -77.18575, 38.94846 ], [ -77.1872, 38.94862 ], [ -77.18658, 38.9483 ] ], [ [ -77.18986, 38.94548 ], [ -77.18987, 38.94545 ], [ -77.18679, 38.94512 ], [ -77.18986, 38.94548 ] ], [ [ -77.18682, 38.9436 ], [ -77.18655, 38.94401 ], [ -77.18719, 38.94407 ], [ -77.18768, 38.94361 ], [ -77.18682, 38.9436 ] ], [ [ -77.1856, 38.94241 ], [ -77.18487, 38.94193 ], [ -77.18514, 38.94294 ], [ -77.18478, 38.94325 ], [ -77.18361, 38.94382 ], [ -77.18249, 38.94314 ], [ -77.18219, 38.94364 ], [ -77.18468, 38.94477 ], [ -77.18623, 38.94236 ], [ -77.1856, 38.94241 ] ], [ [ -77.18721, 38.93832 ], [ -77.18608, 38.93795 ], [ -77.18626, 38.93869 ], [ -77.18721, 38.93832 ] ], [ [ -77.18336, 38.92884 ], [ -77.18268, 38.9293 ], [ -77.18203, 38.92893 ], [ -77.18106, 38.92921 ], [ -77.18025, 38.92975 ], [ -77.1807, 38.93075 ], [ -77.18374, 38.92952 ], [ -77.18336, 38.92884 ] ], [ [ -77.18316, 38.92598 ], [ -77.18318, 38.92587 ], [ -77.18308, 38.92586 ], [ -77.18316, 38.92598 ] ], [ [ -77.19097, 38.92397 ], [ -77.19092, 38.92394 ], [ -77.1909, 38.92397 ], [ -77.19097, 38.92397 ] ], [ [ -77.18774, 38.92424 ], [ -77.18791, 38.92422 ], [ -77.18776, 38.92356 ], [ -77.18774, 38.92424 ] ], [ [ -77.19109, 38.93599 ], [ -77.19056, 38.93621 ], [ -77.19057, 38.93624 ], [ -77.19109, 38.93599 ] ], [ [ -77.19341, 38.93233 ], [ -77.19299, 38.93321 ], [ -77.19328, 38.9331 ], [ -77.19341, 38.93233 ] ], [ [ -77.19328, 38.93078 ], [ -77.1941, 38.93064 ], [ -77.19405, 38.93012 ], [ -77.19324, 38.93019 ], [ -77.19328, 38.93078 ] ], [ [ -77.19517, 38.92871 ], [ -77.19523, 38.92891 ], [ -77.19536, 38.92889 ], [ -77.19517, 38.92871 ] ], [ [ -77.19187, 38.93244 ], [ -77.19156, 38.93253 ], [ -77.19176, 38.93268 ], [ -77.19187, 38.93244 ] ], [ [ -77.19002, 38.94425 ], [ -77.19, 38.94437 ], [ -77.19013, 38.94438 ], [ -77.19002, 38.94425 ] ], [ [ -77.19013, 38.94362 ], [ -77.19011, 38.94379 ], [ -77.19044, 38.94362 ], [ -77.19013, 38.94362 ] ], [ [ -77.19265, 38.94201 ], [ -77.19171, 38.94233 ], [ -77.19179, 38.94241 ], [ -77.19283, 38.94241 ], [ -77.19265, 38.94201 ] ], [ [ -77.19015, 38.9408 ], [ -77.18981, 38.93873 ], [ -77.18999, 38.94112 ], [ -77.18903, 38.94127 ], [ -77.18846, 38.93995 ], [ -77.18834, 38.94155 ], [ -77.19037, 38.94124 ], [ -77.19015, 38.9408 ] ], [ [ -77.19324, 38.94362 ], [ -77.19364, 38.94361 ], [ -77.19222, 38.94349 ], [ -77.19324, 38.94362 ] ], [ [ -77.19228, 38.94033 ], [ -77.19166, 38.94077 ], [ -77.19215, 38.94124 ], [ -77.19288, 38.94079 ], [ -77.19209, 38.93973 ], [ -77.19228, 38.94033 ] ], [ [ -77.1927, 38.94187 ], [ -77.19266, 38.94186 ], [ -77.19267, 38.94195 ], [ -77.1927, 38.94187 ] ], [ [ -77.18915, 38.94253 ], [ -77.19013, 38.94254 ], [ -77.18988, 38.94241 ], [ -77.18915, 38.94253 ] ], [ [ -77.18625, 38.93486 ], [ -77.18524, 38.9352 ], [ -77.18647, 38.93573 ], [ -77.18625, 38.93486 ] ], [ [ -77.18645, 38.93368 ], [ -77.18611, 38.93341 ], [ -77.18639, 38.93399 ], [ -77.18645, 38.93368 ] ], [ [ -77.18682, 38.93073 ], [ -77.18622, 38.93014 ], [ -77.18672, 38.93118 ], [ -77.18649, 38.93175 ], [ -77.18708, 38.93258 ], [ -77.18786, 38.93237 ], [ -77.18682, 38.93073 ] ], [ [ -77.18855, 38.94422 ], [ -77.18862, 38.94423 ], [ -77.18875, 38.94361 ], [ -77.1879, 38.94361 ], [ -77.18855, 38.94422 ] ], [ [ -77.18487, 38.93042 ], [ -77.18469, 38.93048 ], [ -77.18499, 38.93111 ], [ -77.18487, 38.93042 ] ], [ [ -77.18395, 38.94092 ], [ -77.1839, 38.94082 ], [ -77.1831, 38.94211 ], [ -77.18322, 38.9422 ], [ -77.18395, 38.94092 ] ], [ [ -77.18225, 38.93693 ], [ -77.18255, 38.93668 ], [ -77.18022, 38.93545 ], [ -77.18225, 38.93693 ] ], [ [ -77.18099, 38.93319 ], [ -77.18059, 38.93232 ], [ -77.17945, 38.93313 ], [ -77.18034, 38.93375 ], [ -77.18099, 38.93319 ] ], [ [ -77.18128, 38.93455 ], [ -77.18172, 38.93474 ], [ -77.18161, 38.93452 ], [ -77.18128, 38.93455 ] ], [ [ -77.18467, 38.94683 ], [ -77.18474, 38.94724 ], [ -77.18505, 38.94694 ], [ -77.18467, 38.94683 ] ], [ [ -77.18377, 38.94669 ], [ -77.18392, 38.94663 ], [ -77.18381, 38.94659 ], [ -77.18377, 38.94669 ] ], [ [ -77.18641, 38.94963 ], [ -77.18619, 38.9496 ], [ -77.18619, 38.94966 ], [ -77.18641, 38.94963 ] ], [ [ -77.18231, 38.92709 ], [ -77.18198, 38.92707 ], [ -77.18119, 38.92708 ], [ -77.18231, 38.92709 ] ], [ [ -77.18121, 38.92581 ], [ -77.18156, 38.92587 ], [ -77.18151, 38.92579 ], [ -77.18137, 38.92555 ], [ -77.18121, 38.92581 ] ], [ [ -77.18174, 38.94585 ], [ -77.18208, 38.94493 ], [ -77.18143, 38.94455 ], [ -77.18116, 38.94584 ], [ -77.18174, 38.94585 ] ], [ [ -77.18157, 38.94211 ], [ -77.1806, 38.94283 ], [ -77.18106, 38.94298 ], [ -77.18157, 38.94211 ] ], [ [ -77.18273, 38.93972 ], [ -77.18295, 38.93987 ], [ -77.18315, 38.93952 ], [ -77.18273, 38.93972 ] ], [ [ -77.17983, 38.94441 ], [ -77.17978, 38.94481 ], [ -77.18032, 38.94391 ], [ -77.17992, 38.94379 ], [ -77.17983, 38.94441 ] ], [ [ -77.1793, 38.92042 ], [ -77.1792, 38.92042 ], [ -77.17923, 38.92047 ], [ -77.1793, 38.92042 ] ], [ [ -77.1786, 38.92458 ], [ -77.17876, 38.9246 ], [ -77.17868, 38.92437 ], [ -77.1786, 38.92458 ] ], [ [ -77.17928, 38.92857 ], [ -77.1794, 38.92863 ], [ -77.17933, 38.92849 ], [ -77.17928, 38.92857 ] ], [ [ -77.17468, 38.94298 ], [ -77.17444, 38.94311 ], [ -77.17467, 38.94313 ], [ -77.17468, 38.94298 ] ], [ [ -77.17477, 38.94191 ], [ -77.17403, 38.94212 ], [ -77.17476, 38.94243 ], [ -77.17477, 38.94191 ] ], [ [ -77.17413, 38.93945 ], [ -77.17436, 38.93878 ], [ -77.17397, 38.93974 ], [ -77.17413, 38.93945 ] ], [ [ -77.17376, 38.93638 ], [ -77.17242, 38.93541 ], [ -77.17325, 38.93779 ], [ -77.17376, 38.93638 ] ], [ [ -77.17519, 38.93557 ], [ -77.17579, 38.93457 ], [ -77.17356, 38.93386 ], [ -77.1741, 38.93533 ], [ -77.17519, 38.93557 ] ], [ [ -77.17339, 38.93365 ], [ -77.17345, 38.93371 ], [ -77.17338, 38.93362 ], [ -77.17339, 38.93365 ] ], [ [ -77.17088, 38.92909 ], [ -77.17225, 38.92946 ], [ -77.17136, 38.92881 ], [ -77.17071, 38.92752 ], [ -77.1717, 38.9272 ], [ -77.17214, 38.92627 ], [ -77.17327, 38.92569 ], [ -77.17115, 38.92642 ], [ -77.16921, 38.92593 ], [ -77.16959, 38.92728 ], [ -77.17011, 38.92765 ], [ -77.16908, 38.92889 ], [ -77.17037, 38.92943 ], [ -77.17088, 38.92909 ] ], [ [ -77.17747, 38.93622 ], [ -77.17668, 38.9357 ], [ -77.17656, 38.93674 ], [ -77.17747, 38.93622 ] ], [ [ -77.17481, 38.92995 ], [ -77.17558, 38.92949 ], [ -77.17611, 38.92989 ], [ -77.17644, 38.92973 ], [ -77.17622, 38.92918 ], [ -77.17483, 38.92918 ], [ -77.17481, 38.92988 ], [ -77.17383, 38.93089 ], [ -77.17458, 38.93147 ], [ -77.17512, 38.9313 ], [ -77.17481, 38.92995 ] ], [ [ -77.17406, 38.92411 ], [ -77.1739, 38.92408 ], [ -77.17404, 38.92426 ], [ -77.17406, 38.92411 ] ], [ [ -77.1729, 38.92401 ], [ -77.17307, 38.92393 ], [ -77.17299, 38.92391 ], [ -77.1729, 38.92401 ] ], [ [ -77.17228, 38.92267 ], [ -77.17231, 38.92275 ], [ -77.17234, 38.92268 ], [ -77.17228, 38.92267 ] ], [ [ -77.17676, 38.9308 ], [ -77.17635, 38.93079 ], [ -77.17641, 38.93091 ], [ -77.17676, 38.9308 ] ], [ [ -77.17646, 38.9271 ], [ -77.17645, 38.92715 ], [ -77.17653, 38.92713 ], [ -77.17646, 38.9271 ] ], [ [ -77.17559, 38.92608 ], [ -77.17564, 38.92605 ], [ -77.17558, 38.92605 ], [ -77.17559, 38.92608 ] ], [ [ -77.17633, 38.92338 ], [ -77.17641, 38.92354 ], [ -77.17648, 38.92336 ], [ -77.17633, 38.92338 ] ], [ [ -77.17471, 38.93773 ], [ -77.17472, 38.9377 ], [ -77.17471, 38.93772 ], [ -77.17471, 38.93773 ] ], [ [ -77.17555, 38.93948 ], [ -77.17538, 38.93997 ], [ -77.17578, 38.93993 ], [ -77.17555, 38.93948 ] ], [ [ -77.17293, 38.9281 ], [ -77.17286, 38.92785 ], [ -77.17249, 38.92807 ], [ -77.17293, 38.92851 ], [ -77.17293, 38.9281 ] ], [ [ -77.16729, 38.94155 ], [ -77.16744, 38.94195 ], [ -77.1691, 38.9415 ], [ -77.16892, 38.94109 ], [ -77.16729, 38.94155 ] ], [ [ -77.16535, 38.93976 ], [ -77.16691, 38.939 ], [ -77.16663, 38.93841 ], [ -77.16539, 38.93842 ], [ -77.16547, 38.93949 ], [ -77.1642, 38.94029 ], [ -77.16487, 38.94104 ], [ -77.16477, 38.9419 ], [ -77.16604, 38.94206 ], [ -77.16535, 38.93976 ] ], [ [ -77.17006, 38.934 ], [ -77.16962, 38.93385 ], [ -77.16969, 38.93413 ], [ -77.17006, 38.934 ] ], [ [ -77.16964, 38.93267 ], [ -77.16989, 38.93276 ], [ -77.16971, 38.93264 ], [ -77.16964, 38.93267 ] ], [ [ -77.17219, 38.93426 ], [ -77.17197, 38.93411 ], [ -77.17205, 38.93437 ], [ -77.17219, 38.93426 ] ], [ [ -77.17291, 38.94419 ], [ -77.17308, 38.94462 ], [ -77.17316, 38.9441 ], [ -77.17291, 38.94419 ] ], [ [ -77.17126, 38.9439 ], [ -77.17143, 38.94384 ], [ -77.17123, 38.94378 ], [ -77.17126, 38.9439 ] ], [ [ -77.17187, 38.94495 ], [ -77.17192, 38.94494 ], [ -77.17182, 38.94489 ], [ -77.17158, 38.94501 ], [ -77.17187, 38.94495 ] ], [ [ -77.16576, 38.93339 ], [ -77.16601, 38.93336 ], [ -77.16573, 38.93294 ], [ -77.16576, 38.93339 ] ], [ [ -77.16688, 38.94053 ], [ -77.16846, 38.94007 ], [ -77.16831, 38.93975 ], [ -77.16687, 38.94015 ], [ -77.16688, 38.94053 ] ], [ [ -77.1682, 38.94834 ], [ -77.16835, 38.948 ], [ -77.16752, 38.94765 ], [ -77.16702, 38.94666 ], [ -77.16661, 38.94728 ], [ -77.16499, 38.94662 ], [ -77.16469, 38.94742 ], [ -77.1682, 38.94834 ] ], [ [ -77.16557, 38.9438 ], [ -77.16618, 38.94515 ], [ -77.16631, 38.94511 ], [ -77.16557, 38.9438 ] ], [ [ -77.16663, 38.94617 ], [ -77.16696, 38.94653 ], [ -77.16691, 38.94642 ], [ -77.16663, 38.94617 ] ], [ [ -77.16846, 38.94626 ], [ -77.16833, 38.9463 ], [ -77.16863, 38.94694 ], [ -77.16846, 38.94626 ] ], [ [ -77.16214, 38.94334 ], [ -77.16054, 38.94355 ], [ -77.16147, 38.94464 ], [ -77.16424, 38.94305 ], [ -77.16228, 38.94281 ], [ -77.16214, 38.94334 ] ], [ [ -77.16282, 38.94038 ], [ -77.16206, 38.94048 ], [ -77.16164, 38.93992 ], [ -77.16126, 38.94153 ], [ -77.1634, 38.94174 ], [ -77.16352, 38.94129 ], [ -77.16282, 38.94038 ] ], [ [ -77.163, 38.9397 ], [ -77.16417, 38.93897 ], [ -77.16324, 38.93816 ], [ -77.16237, 38.93838 ], [ -77.163, 38.9397 ] ], [ [ -77.16417, 38.93872 ], [ -77.16421, 38.93871 ], [ -77.16417, 38.93871 ], [ -77.16417, 38.93872 ] ], [ [ -77.16297, 38.94509 ], [ -77.16077, 38.94643 ], [ -77.16336, 38.94709 ], [ -77.16383, 38.94595 ], [ -77.16297, 38.94509 ] ], [ [ -77.16463, 38.94496 ], [ -77.16433, 38.9443 ], [ -77.16408, 38.94445 ], [ -77.16463, 38.94496 ] ], [ [ -77.16426, 38.92899 ], [ -77.16421, 38.9289 ], [ -77.1642, 38.92898 ], [ -77.16426, 38.92899 ] ], [ [ -77.16418, 38.92823 ], [ -77.16422, 38.92853 ], [ -77.1645, 38.92831 ], [ -77.16418, 38.92823 ] ], [ [ -77.16463, 38.92697 ], [ -77.16439, 38.92682 ], [ -77.16432, 38.92728 ], [ -77.16463, 38.92697 ] ], [ [ -77.16365, 38.92465 ], [ -77.163, 38.92446 ], [ -77.16447, 38.92545 ], [ -77.16365, 38.92465 ] ], [ [ -77.16489, 38.92266 ], [ -77.16349, 38.92183 ], [ -77.16534, 38.92314 ], [ -77.16559, 38.92286 ], [ -77.16489, 38.92266 ] ], [ [ -77.16756, 38.92456 ], [ -77.16818, 38.92466 ], [ -77.16817, 38.92452 ], [ -77.16756, 38.92456 ] ], [ [ -77.16529, 38.92816 ], [ -77.16522, 38.92821 ], [ -77.16525, 38.92821 ], [ -77.16529, 38.92816 ] ] ] } },
{ "type": "Feature", "properties": { "variant": "T2s", "miles": 0.5 }, "geometry": { "type": "Polygon", "coordinates": [ [ [ -77.17786, 38.93058 ], [ -77.17845, 38.9309 ], [ -77.17891, 38.93191 ], [ -77.18041, 38.9309 ], [ -77.18138, 38.93102 ], [ -77.18117, 38.9319 ], [ -77.17945, 38.93313 ], [ -77.18109, 38.93449 ], [ -77.18018, 38.93549 ], [ -77.18093, 38.93623 ], [ -77.18028, 38.93679 ], [ -77.17926, 38.93629 ], [ -77.17776, 38.93797 ], [ -77.17666, 38.93788 ], [ -77.17731, 38.93998 ], [ -77.17632, 38.94034 ], [ -77.17555, 38.93948 ], [ -77.1751, 38.94051 ], [ -77.17461, 38.94066 ], [ -77.17392, 38.94011 ], [ -77.17436, 38.93878 ], [ -77.17342, 38.94016 ], [ -77.17256, 38.93981 ], [ -77.1709, 38.93514 ], [ -77.17, 38.93575 ], [ -77.16911, 38.93511 ], [ -77.1681, 38.93533 ], [ -77.16732, 38.93473 ], [ -77.16743, 38.93433 ], [ -77.16828, 38.93417 ], [ -77.16834, 38.93253 ], [ -77.16989, 38.93276 ], [ -77.16926, 38.93223 ], [ -77.16992, 38.93146 ], [ -77.1709, 38.93152 ], [ -77.17097, 38.93205 ], [ -77.17274, 38.9332 ], [ -77.17275, 38.93257 ], [ -77.17397, 38.93168 ], [ -77.17786, 38.93058 ] ], [ [ -77.17698, 38.93683 ], [ -77.17747, 38.93622 ], [ -77.17668, 38.9357 ], [ -77.17656, 38.93674 ], [ -77.17698, 38.93683 ] ], [ [ -77.17471, 38.93772 ], [ -77.17471, 38.93773 ], [ -77.17472, 38.9377 ], [ -77.17471, 38.93772 ] ], [ [ -77.1741, 38.93533 ], [ -77.17519, 38.93557 ], [ -77.17579, 38.93457 ], [ -77.1748, 38.93393 ], [ -77.17476, 38.93341 ], [ -77.17302, 38.93339 ], [ -77.1741, 38.93533 ] ], [ [ -77.17197, 38.93411 ], [ -77.17205, 38.93437 ], [ -77.17228, 38.93432 ], [ -77.17197, 38.93411 ] ], [ [ -77.17039, 38.93411 ], [ -77.16988, 38.93394 ], [ -77.16962, 38.93385 ], [ -77.16969, 38.93413 ], [ -77.17039, 38.93411 ] ], [ [ -77.17268, 38.93536 ], [ -77.17323, 38.93773 ], [ -77.17325, 38.93779 ], [ -77.17376, 38.93638 ], [ -77.17268, 38.93536 ] ] ] } },
{ "type": "Feature", "properties": { "variant": "T2s", "miles": 1.0 }, "geometry": { "type": "Polygon", "coordinates": [ [ [ -77.18481, 38.92716 ], [ -77.18567, 38.92819 ], [ -77.18827, 38.9281 ], [ -77.18934, 38.92971 ], [ -77.18779, 38.9308 ], [ -77.18676, 38.9307 ], [ -77.18622, 38.93014 ], [ -77.18672, 38.93118 ], [ -77.18649, 38.93175 ], [ -77.18752, 38.93351 ], [ -77.18711, 38.93377 ], [ -77.18611, 38.93341 ], [ -77.18645, 38.93466 ], [ -77.18524, 38.9352 ], [ -77.18659, 38.93583 ], [ -77.1884, 38.93509 ], [ -77.18898, 38.9344 ], [ -77.18973, 38.9348 ], [ -77.19004, 38.93557 ], [ -77.18933, 38.93606 ], [ -77.18931, 38.93656 ], [ -77.1899, 38.93678 ], [ -77.18944, 38.93763 ], [ -77.18984, 38.93819 ], [ -77.18955, 38.93853 ], [ -77.18858, 38.93855 ], [ -77.18827, 38.9397 ], [ -77.1873, 38.93965 ], [ -77.18721, 38.93832 ], [ -77.1854, 38.93767 ], [ -77.18482, 38.93789 ], [ -77.18496, 38.939 ], [ -77.1842, 38.93997 ], [ -77.18331, 38.93965 ], [ -77.18338, 38.93914 ], [ -77.18214, 38.93818 ], [ -77.1815, 38.93914 ], [ -77.17997, 38.93986 ], [ -77.17897, 38.93962 ], [ -77.17681, 38.94033 ], [ -77.17628, 38.94106 ], [ -77.17257, 38.94181 ], [ -77.17268, 38.94261 ], [ -77.17106, 38.94319 ], [ -77.17126, 38.9439 ], [ -77.17269, 38.94307 ], [ -77.17404, 38.94324 ], [ -77.17393, 38.944 ], [ -77.17291, 38.94419 ], [ -77.17285, 38.94492 ], [ -77.17332, 38.94532 ], [ -77.17273, 38.94593 ], [ -77.17103, 38.94618 ], [ -77.17026, 38.94535 ], [ -77.16925, 38.94559 ], [ -77.16835, 38.94298 ], [ -77.16442, 38.94398 ], [ -77.16406, 38.94327 ], [ -77.16606, 38.94211 ], [ -77.16535, 38.93976 ], [ -77.16691, 38.939 ], [ -77.16641, 38.93801 ], [ -77.16674, 38.93729 ], [ -77.16766, 38.93755 ], [ -77.16821, 38.93863 ], [ -77.16933, 38.93888 ], [ -77.17041, 38.94114 ], [ -77.17279, 38.94048 ], [ -77.1709, 38.93514 ], [ -77.17, 38.93575 ], [ -77.16911, 38.93511 ], [ -77.1678, 38.93521 ], [ -77.16732, 38.93473 ], [ -77.16749, 38.9343 ], [ -77.16538, 38.93449 ], [ -77.16454, 38.934 ], [ -77.16428, 38.933 ], [ -77.16466, 38.93224 ], [ -77.16653, 38.93133 ], [ -77.16851, 38.93166 ], [ -77.16824, 38.93122 ], [ -77.16917, 38.93015 ], [ -77.16671, 38.92875 ], [ -77.16523, 38.92738 ], [ -77.16519, 38.92662 ], [ -77.16617, 38.92659 ], [ -77.16902, 38.92887 ], [ -77.17037, 38.92943 ], [ -77.17088, 38.92909 ], [ -77.17201, 38.92958 ], [ -77.17071, 38.92752 ], [ -77.17153, 38.9271 ], [ -77.17293, 38.92851 ], [ -77.17308, 38.9261 ], [ -77.17364, 38.92505 ], [ -77.17455, 38.92478 ], [ -77.17489, 38.9255 ], [ -77.17438, 38.92649 ], [ -77.17432, 38.9281 ], [ -77.17771, 38.92811 ], [ -77.17918, 38.92852 ], [ -77.17992, 38.9291 ], [ -77.1807, 38.93075 ], [ -77.18374, 38.92952 ], [ -77.18311, 38.92843 ], [ -77.18225, 38.92873 ], [ -77.18159, 38.92797 ], [ -77.1825, 38.92611 ], [ -77.18341, 38.92638 ], [ -77.18386, 38.92714 ], [ -77.18481, 38.92716 ] ], [ [ -77.17802, 38.9388 ], [ -77.18094, 38.93747 ], [ -77.18036, 38.93706 ], [ -77.17941, 38.93774 ], [ -77.17891, 38.9376 ], [ -77.17867, 38.93723 ], [ -77.17926, 38.93629 ], [ -77.1782, 38.93735 ], [ -77.17802, 38.9388 ] ], [ [ -77.17699, 38.9368 ], [ -77.17747, 38.93622 ], [ -77.17668, 38.9357 ], [ -77.17656, 38.93674 ], [ -77.17699, 38.9368 ] ], [ [ -77.17641, 38.93091 ], [ -77.17676, 38.9308 ], [ -77.17635, 38.93079 ], [ -77.17641, 38.93091 ] ], [ [ -77.18064, 38.93241 ], [ -77.17945, 38.93313 ], [ -77.18034, 38.93375 ], [ -77.18099, 38.93319 ], [ -77.18064, 38.93241 ] ], [ [ -77.18487, 38.93042 ], [ -77.18499, 38.93111 ], [ -77.18518, 38.93105 ], [ -77.18487, 38.93042 ] ], [ [ -77.18022, 38.93545 ], [ -77.18225, 38.93693 ], [ -77.18255, 38.93668 ], [ -77.18022, 38.93545 ] ], [ [ -77.18134, 38.93458 ], [ -77.18172, 38.93474 ], [ -77.18153, 38.93434 ], [ -77.18134, 38.93458 ] ], [ [ -77.17957, 38.93145 ], [ -77.17867, 38.93142 ], [ -77.17891, 38.93191 ], [ -77.17957, 38.93145 ] ], [ [ -77.17538, 38.93997 ], [ -77.17578, 38.93993 ], [ -77.17555, 38.93948 ], [ -77.17538, 38.93997 ] ], [ [ -77.17471, 38.93772 ], [ -77.17471, 38.93773 ], [ -77.17472, 38.9377 ], [ -77.17471, 38.93772 ] ], [ [ -77.1741, 38.93533 ], [ -77.17519, 38.93557 ], [ -77.17579, 38.93457 ], [ -77.17356, 38.93386 ], [ -77.1741, 38.93533 ] ], [ [ -77.17497, 38.93135 ], [ -77.17481, 38.92995 ], [ -77.17558, 38.92949 ], [ -77.17611, 38.92989 ], [ -77.17644, 38.92973 ], [ -77.17622, 38.92918 ], [ -77.17483, 38.92918 ], [ -77.17481, 38.92988 ], [ -77.17383, 38.93089 ], [ -77.17458, 38.93147 ], [ -77.17497, 38.93135 ] ], [ [ -77.17197, 38.93411 ], [ -77.17205, 38.93437 ], [ -77.17228, 38.93432 ], [ -77.17219, 38.93426 ], [ -77.17197, 38.93411 ] ], [ [ -77.16971, 38.93264 ], [ -77.16964, 38.93267 ], [ -77.16989, 38.93276 ], [ -77.16971, 38.93264 ] ], [ [ -77.17376, 38.93638 ], [ -77.17242, 38.93541 ], [ -77.17325, 38.93779 ], [ -77.17376, 38.93638 ] ], [ [ -77.17338, 38.93362 ], [ -77.17339, 38.93365 ], [ -77.17345, 38.93371 ], [ -77.17338, 38.93362 ] ], [ [ -77.17399, 38.93982 ], [ -77.17434, 38.93878 ], [ -77.17397, 38.93974 ], [ -77.17399, 38.93982 ] ], [ [ -77.17158, 38.94501 ], [ -77.17182, 38.94489 ], [ -77.17156, 38.94496 ], [ -77.17158, 38.94501 ] ], [ [ -77.16988, 38.93394 ], [ -77.16969, 38.93413 ], [ -77.17039, 38.93411 ], [ -77.16988, 38.93394 ] ], [ [ -77.16811, 38.93314 ], [ -77.16812, 38.93314 ], [ -77.16812, 38.93313 ], [ -77.16811, 38.93314 ] ], [ [ -77.16573, 38.93294 ], [ -77.16576, 38.93339 ], [ -77.16601, 38.93336 ], [ -77.16573, 38.93294 ] ], [ [ -77.16892, 38.94109 ], [ -77.16729, 38.94155 ], [ -77.16744, 38.94195 ], [ -77.1691, 38.9415 ], [ -77.16892, 38.94109 ] ], [ [ -77.16831, 38.93975 ], [ -77.16674, 38.94017 ], [ -77.16688, 38.94053 ], [ -77.16846, 38.94007 ], [ -77.16831, 38.93975 ] ] ] } },
{ "type": "Feature", "properties": { "variant": "T2s", "miles": 1.5 }, "geometry": { "type": "Polygon", "coordinates": [ [ [ -77.19176, 38.92415 ], [ -77.19207, 38.92462 ], [ -77.19181, 38.92498 ], [ -77.1907, 38.92504 ], [ -77.19024, 38.92585 ], [ -77.18971, 38.92579 ], [ -77.18931, 38.92507 ], [ -77.18771, 38.92533 ], [ -77.18929, 38.9258 ], [ -77.18941, 38.92621 ], [ -77.18827, 38.92688 ], [ -77.18851, 38.92757 ], [ -77.18808, 38.92807 ], [ -77.18856, 38.92833 ], [ -77.18868, 38.92913 ], [ -77.19383, 38.92897 ], [ -77.19373, 38.928 ], [ -77.19586, 38.92754 ], [ -77.19663, 38.92773 ], [ -77.197, 38.92855 ], [ -77.19823, 38.92795 ], [ -77.19891, 38.92849 ], [ -77.19822, 38.93002 ], [ -77.19724, 38.92965 ], [ -77.19624, 38.92989 ], [ -77.19715, 38.93162 ], [ -77.19795, 38.93166 ], [ -77.19834, 38.93236 ], [ -77.19259, 38.93473 ], [ -77.1936, 38.93481 ], [ -77.1946, 38.93541 ], [ -77.19454, 38.93705 ], [ -77.19357, 38.93699 ], [ -77.19346, 38.93603 ], [ -77.19301, 38.9358 ], [ -77.19247, 38.93582 ], [ -77.19246, 38.93663 ], [ -77.19186, 38.93715 ], [ -77.19103, 38.93728 ], [ -77.19043, 38.93691 ], [ -77.19025, 38.93715 ], [ -77.19026, 38.9377 ], [ -77.19091, 38.9378 ], [ -77.19297, 38.93704 ], [ -77.19379, 38.93746 ], [ -77.19385, 38.93853 ], [ -77.19336, 38.93912 ], [ -77.19458, 38.9398 ], [ -77.19474, 38.94334 ], [ -77.19222, 38.94349 ], [ -77.19156, 38.94461 ], [ -77.19069, 38.94426 ], [ -77.19083, 38.94361 ], [ -77.19013, 38.94362 ], [ -77.18988, 38.9449 ], [ -77.18911, 38.94537 ], [ -77.18851, 38.94476 ], [ -77.18875, 38.94361 ], [ -77.18682, 38.9436 ], [ -77.18585, 38.94562 ], [ -77.18503, 38.94601 ], [ -77.18143, 38.94455 ], [ -77.18097, 38.94649 ], [ -77.18008, 38.9468 ], [ -77.17969, 38.94651 ], [ -77.1796, 38.94606 ], [ -77.1793, 38.94676 ], [ -77.17879, 38.94687 ], [ -77.17462, 38.94585 ], [ -77.17449, 38.94455 ], [ -77.17368, 38.94526 ], [ -77.17309, 38.94468 ], [ -77.17319, 38.94572 ], [ -77.17094, 38.94616 ], [ -77.17026, 38.94535 ], [ -77.16925, 38.94559 ], [ -77.16835, 38.94298 ], [ -77.16694, 38.94327 ], [ -77.16786, 38.94528 ], [ -77.16874, 38.94516 ], [ -77.16983, 38.94623 ], [ -77.17196, 38.94694 ], [ -77.17151, 38.94762 ], [ -77.17008, 38.94732 ], [ -77.16952, 38.94866 ], [ -77.17098, 38.94921 ], [ -77.17067, 38.94993 ], [ -77.15724, 38.94658 ], [ -77.15751, 38.94585 ], [ -77.15899, 38.946 ], [ -77.16038, 38.9453 ], [ -77.15913, 38.94359 ], [ -77.15816, 38.94364 ], [ -77.15793, 38.94327 ], [ -77.15837, 38.94259 ], [ -77.15911, 38.94233 ], [ -77.16216, 38.94257 ], [ -77.16214, 38.94334 ], [ -77.16054, 38.94355 ], [ -77.16147, 38.94464 ], [ -77.16606, 38.94211 ], [ -77.16535, 38.93976 ], [ -77.16691, 38.939 ], [ -77.16663, 38.93841 ], [ -77.1656, 38.93848 ], [ -77.16489, 38.93806 ], [ -77.16226, 38.93822 ], [ -77.16305, 38.93986 ], [ -77.163, 38.94027 ], [ -77.16206, 38.94048 ], [ -77.16054, 38.93851 ], [ -77.15997, 38.93572 ], [ -77.16104, 38.93576 ], [ -77.16166, 38.93718 ], [ -77.16214, 38.93714 ], [ -77.16205, 38.93622 ], [ -77.16249, 38.93598 ], [ -77.16301, 38.93605 ], [ -77.16356, 38.93706 ], [ -77.16579, 38.93722 ], [ -77.16451, 38.9365 ], [ -77.16512, 38.93546 ], [ -77.16557, 38.93525 ], [ -77.16636, 38.9357 ], [ -77.16744, 38.93548 ], [ -77.16795, 38.93613 ], [ -77.16698, 38.93667 ], [ -77.16821, 38.93863 ], [ -77.16935, 38.9389 ], [ -77.17041, 38.94114 ], [ -77.17279, 38.94048 ], [ -77.1709, 38.93514 ], [ -77.17, 38.93575 ], [ -77.16911, 38.93511 ], [ -77.1678, 38.93521 ], [ -77.16732, 38.93473 ], [ -77.16749, 38.9343 ], [ -77.16533, 38.93448 ], [ -77.16448, 38.93385 ], [ -77.16428, 38.93291 ], [ -77.1647, 38.93222 ], [ -77.16656, 38.93133 ], [ -77.16851, 38.93166 ], [ -77.16824, 38.93122 ], [ -77.16917, 38.93015 ], [ -77.16748, 38.92934 ], [ -77.16667, 38.92949 ], [ -77.16642, 38.93046 ], [ -77.16592, 38.9306 ], [ -77.16532, 38.93017 ], [ -77.16402, 38.93005 ], [ -77.16465, 38.93069 ], [ -77.16393, 38.93121 ], [ -77.16185, 38.9303 ], [ -77.1615, 38.92977 ], [ -77.16172, 38.92854 ], [ -77.16067, 38.92836 ], [ -77.15989, 38.92702 ], [ -77.16082, 38.9268 ], [ -77.16161, 38.92746 ], [ -77.16286, 38.92776 ], [ -77.16314, 38.92598 ], [ -77.16132, 38.92481 ], [ -77.16035, 38.92565 ], [ -77.15983, 38.92571 ], [ -77.15937, 38.92526 ], [ -77.1578, 38.92543 ], [ -77.15754, 38.92469 ], [ -77.15815, 38.9244 ], [ -77.15846, 38.92361 ], [ -77.16048, 38.92355 ], [ -77.16029, 38.92289 ], [ -77.16159, 38.92257 ], [ -77.16259, 38.92148 ], [ -77.16534, 38.92314 ], [ -77.16596, 38.92195 ], [ -77.16728, 38.92125 ], [ -77.16961, 38.92229 ], [ -77.16955, 38.92378 ], [ -77.17056, 38.92404 ], [ -77.17067, 38.92519 ], [ -77.17128, 38.92519 ], [ -77.17185, 38.92485 ], [ -77.17084, 38.92261 ], [ -77.17125, 38.92176 ], [ -77.17243, 38.92121 ], [ -77.17249, 38.92004 ], [ -77.17346, 38.91998 ], [ -77.17515, 38.92108 ], [ -77.17467, 38.92226 ], [ -77.17372, 38.92294 ], [ -77.17407, 38.923 ], [ -77.17472, 38.92246 ], [ -77.17681, 38.92231 ], [ -77.17717, 38.91962 ], [ -77.18053, 38.91922 ], [ -77.18151, 38.92011 ], [ -77.18286, 38.91957 ], [ -77.18322, 38.91988 ], [ -77.18302, 38.92059 ], [ -77.18373, 38.92057 ], [ -77.18449, 38.92108 ], [ -77.1843, 38.92183 ], [ -77.18289, 38.92226 ], [ -77.18252, 38.92259 ], [ -77.1825, 38.92351 ], [ -77.18297, 38.92234 ], [ -77.18347, 38.92222 ], [ -77.18394, 38.92241 ], [ -77.18404, 38.92325 ], [ -77.18479, 38.92342 ], [ -77.18437, 38.92701 ], [ -77.18632, 38.92627 ], [ -77.18637, 38.92369 ], [ -77.18569, 38.92315 ], [ -77.18569, 38.92233 ], [ -77.18708, 38.921 ], [ -77.18795, 38.92134 ], [ -77.18782, 38.92234 ], [ -77.18707, 38.92257 ], [ -77.18775, 38.92344 ], [ -77.18836, 38.92286 ], [ -77.18887, 38.92298 ], [ -77.18949, 38.92385 ], [ -77.18941, 38.92266 ], [ -77.19004, 38.92208 ], [ -77.19081, 38.92273 ], [ -77.19172, 38.92223 ], [ -77.19215, 38.92247 ], [ -77.19176, 38.92415 ] ], [ [ -77.18032, 38.94391 ], [ -77.17992, 38.94379 ], [ -77.17978, 38.94481 ], [ -77.18032, 38.94391 ] ], [ [ -77.18094, 38.93747 ], [ -77.18036, 38.93706 ], [ -77.17941, 38.93774 ], [ -77.17891, 38.9376 ], [ -77.17867, 38.93723 ], [ -77.17926, 38.93629 ], [ -77.1782, 38.93735 ], [ -77.17802, 38.9388 ], [ -77.18094, 38.93747 ] ], [ [ -77.17676, 38.9308 ], [ -77.17635, 38.93079 ], [ -77.17641, 38.93091 ], [ -77.17676, 38.9308 ] ], [ [ -77.17869, 38.92834 ], [ -77.17863, 38.92768 ], [ -77.17759, 38.92799 ], [ -77.17869, 38.92834 ] ], [ [ -77.17557, 38.92609 ], [ -77.17564, 38.92605 ], [ -77.17558, 38.92605 ], [ -77.17557, 38.92609 ] ], [ [ -77.17713, 38.9249 ], [ -77.17672, 38.92512 ], [ -77.17724, 38.9252 ], [ -77.17713, 38.9249 ] ], [ [ -77.18632, 38.94255 ], [ -77.18487, 38.94193 ], [ -77.18514, 38.94294 ], [ -77.18478, 38.94325 ], [ -77.18361, 38.94382 ], [ -77.18249, 38.94314 ], [ -77.18219, 38.94364 ], [ -77.18468, 38.94477 ], [ -77.18632, 38.94255 ] ], [ [ -77.18717, 38.93871 ], [ -77.18721, 38.93832 ], [ -77.18608, 38.93795 ], [ -77.18637, 38.93869 ], [ -77.18717, 38.93871 ] ], [ [ -77.18625, 38.93486 ], [ -77.18524, 38.9352 ], [ -77.18647, 38.93573 ], [ -77.18625, 38.93486 ] ], [ [ -77.18645, 38.93368 ], [ -77.18611, 38.93341 ], [ -77.18639, 38.93399 ], [ -77.18645, 38.93368 ] ], [ [ -77.18487, 38.93042 ], [ -77.18469, 38.93048 ], [ -77.18499, 38.93111 ], [ -77.18487, 38.93042 ] ], [ [ -77.18336, 38.92884 ], [ -77.18268, 38.9293 ], [ -77.18203, 38.92893 ], [ -77.18106, 38.92921 ], [ -77.18025, 38.92975 ], [ -77.1807, 38.93075 ], [ -77.18374, 38.92952 ], [ -77.18336, 38.92884 ] ], [ [ -77.18131, 38.92694 ], [ -77.18119, 38.92708 ], [ -77.18175, 38.92706 ], [ -77.1823, 38.92708 ], [ -77.18131, 38.92694 ] ], [ [ -77.18121, 38.92581 ], [ -77.18156, 38.92587 ], [ -77.18151, 38.92579 ], [ -77.18137, 38.92555 ], [ -77.18121, 38.92581 ] ], [ [ -77.19097, 38.92397 ], [ -77.19092, 38.92394 ], [ -77.1909, 38.92397 ], [ -77.19097, 38.92397 ] ], [ [ -77.18791, 38.92422 ], [ -77.18776, 38.92356 ], [ -77.18775, 38.92382 ], [ -77.18791, 38.92422 ] ], [ [ -77.19109, 38.93599 ], [ -77.19056, 38.93621 ], [ -77.19057, 38.93624 ], [ -77.19109, 38.93599 ] ], [ [ -77.19323, 38.93267 ], [ -77.19299, 38.93321 ], [ -77.19328, 38.9331 ], [ -77.19323, 38.93267 ] ], [ [ -77.19156, 38.93253 ], [ -77.19176, 38.93268 ], [ -77.19187, 38.93244 ], [ -77.19156, 38.93253 ] ], [ [ -77.19517, 38.92871 ], [ -77.19523, 38.92891 ], [ -77.19536, 38.92889 ], [ -77.19517, 38.92871 ] ], [ [ -77.19328, 38.93078 ], [ -77.1941, 38.93064 ], [ -77.19405, 38.93012 ], [ -77.19334, 38.93019 ], [ -77.19328, 38.93078 ] ], [ [ -77.18988, 38.94241 ], [ -77.18915, 38.94253 ], [ -77.19013, 38.94254 ], [ -77.18988, 38.94241 ] ], [ [ -77.19265, 38.94201 ], [ -77.19171, 38.94233 ], [ -77.19179, 38.94241 ], [ -77.19283, 38.94241 ], [ -77.19265, 38.94201 ] ], [ [ -77.19015, 38.9408 ], [ -77.18981, 38.93873 ], [ -77.18999, 38.94112 ], [ -77.18903, 38.94127 ], [ -77.18846, 38.93995 ], [ -77.18834, 38.94155 ], [ -77.19037, 38.94124 ], [ -77.19015, 38.9408 ] ], [ [ -77.19228, 38.94033 ], [ -77.19166, 38.94077 ], [ -77.19215, 38.94124 ], [ -77.19288, 38.94079 ], [ -77.19209, 38.93973 ], [ -77.19228, 38.94033 ] ], [ [ -77.1927, 38.94187 ], [ -77.19266, 38.94186 ], [ -77.19267, 38.94195 ], [ -77.1927, 38.94187 ] ], [ [ -77.18649, 38.93175 ], [ -77.18708, 38.93258 ], [ -77.18786, 38.93237 ], [ -77.18622, 38.93014 ], [ -77.18666, 38.93104 ], [ -77.18649, 38.93175 ] ], [ [ -77.18318, 38.92587 ], [ -77.18308, 38.92586 ], [ -77.18316, 38.92598 ], [ -77.18318, 38.92587 ] ], [ [ -77.18295, 38.93987 ], [ -77.18315, 38.93952 ], [ -77.18308, 38.93956 ], [ -77.18295, 38.93987 ] ], [ [ -77.18249, 38.93646 ], [ -77.18018, 38.93549 ], [ -77.18225, 38.93693 ], [ -77.18249, 38.93646 ] ], [ [ -77.1839, 38.94082 ], [ -77.1831, 38.94211 ], [ -77.18322, 38.9422 ], [ -77.1839, 38.94082 ] ], [ [ -77.17928, 38.92857 ], [ -77.1794, 38.92863 ], [ -77.17933, 38.92849 ], [ -77.17928, 38.92857 ] ], [ [ -77.17868, 38.92437 ], [ -77.1786, 38.92458 ], [ -77.17876, 38.9246 ], [ -77.17868, 38.92437 ] ], [ [ -77.1793, 38.92042 ], [ -77.1792, 38.92042 ], [ -77.17923, 38.92047 ], [ -77.1793, 38.92042 ] ], [ [ -77.17867, 38.93142 ], [ -77.17891, 38.93191 ], [ -77.17957, 38.93145 ], [ -77.17867, 38.93142 ] ], [ [ -77.18128, 38.93455 ], [ -77.18172, 38.93474 ], [ -77.18161, 38.93452 ], [ -77.18128, 38.93455 ] ], [ [ -77.18034, 38.93375 ], [ -77.18099, 38.93319 ], [ -77.18059, 38.93232 ], [ -77.17952, 38.93318 ], [ -77.18034, 38.93375 ] ], [ [ -77.18106, 38.94298 ], [ -77.18157, 38.94211 ], [ -77.1808, 38.94247 ], [ -77.18106, 38.94298 ] ], [ [ -77.17968, 38.9461 ], [ -77.17967, 38.94617 ], [ -77.17968, 38.94618 ], [ -77.17968, 38.9461 ] ], [ [ -77.17468, 38.94298 ], [ -77.17444, 38.94311 ], [ -77.17467, 38.94313 ], [ -77.17468, 38.94298 ] ], [ [ -77.17477, 38.94191 ], [ -77.17403, 38.94212 ], [ -77.17476, 38.94243 ], [ -77.17477, 38.94191 ] ], [ [ -77.17578, 38.93993 ], [ -77.17555, 38.93948 ], [ -77.17538, 38.93997 ], [ -77.17578, 38.93993 ] ], [ [ -77.17399, 38.93982 ], [ -77.17436, 38.93878 ], [ -77.17434, 38.93878 ], [ -77.17399, 38.93982 ] ], [ [ -77.17197, 38.93411 ], [ -77.17205, 38.93437 ], [ -77.17219, 38.93426 ], [ -77.17197, 38.93411 ] ], [ [ -77.1741, 38.93533 ], [ -77.17519, 38.93557 ], [ -77.17579, 38.93457 ], [ -77.17356, 38.93386 ], [ -77.1741, 38.93533 ] ], [ [ -77.17339, 38.93365 ], [ -77.17345, 38.93371 ], [ -77.17338, 38.93362 ], [ -77.17339, 38.93365 ] ], [ [ -77.17225, 38.92946 ], [ -77.17136, 38.92881 ], [ -77.17071, 38.92752 ], [ -77.1717, 38.9272 ], [ -77.17214, 38.92627 ], [ -77.17327, 38.92569 ], [ -77.17115, 38.92642 ], [ -77.16921, 38.92593 ], [ -77.16959, 38.92728 ], [ -77.17011, 38.92765 ], [ -77.16908, 38.92889 ], [ -77.17037, 38.92943 ], [ -77.17088, 38.92909 ], [ -77.17225, 38.92946 ] ], [ [ -77.17471, 38.93773 ], [ -77.17472, 38.9377 ], [ -77.17471, 38.93772 ], [ -77.17471, 38.93773 ] ], [ [ -77.17481, 38.92995 ], [ -77.17558, 38.92949 ], [ -77.17611, 38.92989 ], [ -77.17644, 38.92973 ], [ -77.17622, 38.92918 ], [ -77.17483, 38.92918 ], [ -77.17481, 38.92988 ], [ -77.17383, 38.93089 ], [ -77.17458, 38.93147 ], [ -77.17497, 38.93135 ], [ -77.17481, 38.92995 ] ], [ [ -77.17747, 38.93622 ], [ -77.17668, 38.9357 ], [ -77.17656, 38.93674 ], [ -77.17747, 38.93622 ] ], [ [ -77.17646, 38.9271 ], [ -77.17645, 38.92715 ], [ -77.17653, 38.92713 ], [ -77.17646, 38.9271 ] ], [ [ -77.17406, 38.92411 ], [ -77.1739, 38.92408 ], [ -77.17404, 38.92426 ], [ -77.17406, 38.92411 ] ], [ [ -77.17633, 38.92338 ], [ -77.17641, 38.92354 ], [ -77.17648, 38.92336 ], [ -77.17633, 38.92338 ] ], [ [ -77.17242, 38.93541 ], [ -77.17325, 38.93779 ], [ -77.17376, 38.93638 ], [ -77.17242, 38.93541 ] ], [ [ -77.17231, 38.92275 ], [ -77.17236, 38.92264 ], [ -77.17228, 38.92267 ], [ -77.17231, 38.92275 ] ], [ [ -77.1729, 38.92401 ], [ -77.17307, 38.92393 ], [ -77.17281, 38.92384 ], [ -77.1729, 38.92401 ] ], [ [ -77.17293, 38.9281 ], [ -77.17286, 38.92785 ], [ -77.17249, 38.92807 ], [ -77.17293, 38.92851 ], [ -77.17293, 38.9281 ] ], [ [ -77.17156, 38.94496 ], [ -77.17158, 38.94501 ], [ -77.17192, 38.94494 ], [ -77.17156, 38.94496 ] ], [ [ -77.1691, 38.9415 ], [ -77.16892, 38.94109 ], [ -77.16729, 38.94155 ], [ -77.16744, 38.94195 ], [ -77.1691, 38.9415 ] ], [ [ -77.16846, 38.94007 ], [ -77.16831, 38.93975 ], [ -77.16674, 38.94017 ], [ -77.16688, 38.94053 ], [ -77.16846, 38.94007 ] ], [ [ -77.17126, 38.9439 ], [ -77.17143, 38.94384 ], [ -77.17123, 38.94378 ], [ -77.17126, 38.9439 ] ], [ [ -77.17291, 38.94419 ], [ -77.17308, 38.94462 ], [ -77.17316, 38.9441 ], [ -77.17291, 38.94419 ] ], [ [ -77.16702, 38.94666 ], [ -77.16661, 38.94728 ], [ -77.16499, 38.94662 ], [ -77.16469, 38.94742 ], [ -77.1682, 38.94834 ], [ -77.16835, 38.948 ], [ -77.16702, 38.94666 ] ], [ [ -77.16663, 38.94617 ], [ -77.16696, 38.94653 ], [ -77.16691, 38.94642 ], [ -77.16663, 38.94617 ] ], [ [ -77.16846, 38.94626 ], [ -77.16845, 38.94636 ], [ -77.16863, 38.94694 ], [ -77.16846, 38.94626 ] ], [ [ -77.16297, 38.94509 ], [ -77.16077, 38.94643 ], [ -77.16336, 38.94709 ], [ -77.16383, 38.94595 ], [ -77.16297, 38.94509 ] ], [ [ -77.1657, 38.94376 ], [ -77.16557, 38.9438 ], [ -77.16618, 38.94515 ], [ -77.1657, 38.94376 ] ], [ [ -77.16465, 38.94501 ], [ -77.16433, 38.9443 ], [ -77.16408, 38.94445 ], [ -77.16465, 38.94501 ] ], [ [ -77.16756, 38.92456 ], [ -77.16818, 38.92466 ], [ -77.16817, 38.92452 ], [ -77.16756, 38.92456 ] ], [ [ -77.16969, 38.93413 ], [ -77.17039, 38.93411 ], [ -77.16988, 38.93394 ], [ -77.16969, 38.93413 ] ], [ [ -77.16964, 38.93267 ], [ -77.16989, 38.93276 ], [ -77.16969, 38.93263 ], [ -77.16964, 38.93267 ] ], [ [ -77.16576, 38.93339 ], [ -77.16601, 38.93336 ], [ -77.16573, 38.93294 ], [ -77.16576, 38.93339 ] ], [ [ -77.16529, 38.92816 ], [ -77.16522, 38.92821 ], [ -77.16525, 38.92821 ], [ -77.16529, 38.92816 ] ], [ [ -77.1645, 38.92831 ], [ -77.1642, 38.92809 ], [ -77.16418, 38.92823 ], [ -77.1645, 38.92831 ] ], [ [ -77.163, 38.92446 ], [ -77.16447, 38.92545 ], [ -77.16406, 38.92491 ], [ -77.163, 38.92446 ] ], [ [ -77.16463, 38.92697 ], [ -77.16439, 38.92682 ], [ -77.16432, 38.92728 ], [ -77.16463, 38.92697 ] ], [ [ -77.16426, 38.92899 ], [ -77.16421, 38.9289 ], [ -77.1642, 38.92898 ], [ -77.16426, 38.92899 ] ] ] } }
]
}
