{
"type": "FeatureCollection",
"name": "250",
"crs": { "type": "name", "properties": { "name": "urn:ogc:def:crs:OGC:1.3:CRS84" } },
"xy_coordinate_resolution": 1e-05,
"features": [
{ "type": "Feature", "properties": { "variant": "T0", "miles": 1.0 }, "geometry": { "type": "Polygon", "coordinates": [ [ [ -77.41248, 38.87101 ], [ -77.41225, 38.87194 ], [ -77.41464, 38.87288 ], [ -77.41454, 38.87368 ], [ -77.41598, 38.87327 ], [ -77.41644, 38.87348 ], [ -77.4162, 38.8747 ], [ -77.41867, 38.87481 ], [ -77.41924, 38.87543 ], [ -77.41845, 38.87587 ], [ -77.41726, 38.87578 ], [ -77.41676, 38.87725 ], [ -77.41513, 38.8778 ], [ -77.41429, 38.87736 ], [ -77.4137, 38.87763 ], [ -77.41307, 38.87728 ], [ -77.4125, 38.87762 ], [ -77.412, 38.87748 ], [ -77.41145, 38.87631 ], [ -77.41106, 38.87638 ], [ -77.41115, 38.87733 ], [ -77.41064, 38.87746 ], [ -77.40942, 38.87668 ], [ -77.40949, 38.8773 ], [ -77.41028, 38.87787 ], [ -77.41148, 38.87765 ], [ -77.4123, 38.87806 ], [ -77.41192, 38.87863 ], [ -77.41206, 38.87962 ], [ -77.41116, 38.88005 ], [ -77.41071, 38.87983 ], [ -77.41058, 38.87893 ], [ -77.40964, 38.87886 ], [ -77.40684, 38.88397 ], [ -77.41254, 38.88619 ], [ -77.41397, 38.88594 ], [ -77.4145, 38.88675 ], [ -77.41581, 38.88744 ], [ -77.41577, 38.88785 ], [ -77.41537, 38.88813 ], [ -77.41314, 38.88785 ], [ -77.41141, 38.88717 ], [ -77.4108, 38.88807 ], [ -77.40935, 38.88806 ], [ -77.41126, 38.88875 ], [ -77.41159, 38.88908 ], [ -77.41131, 38.88977 ], [ -77.41042, 38.88991 ], [ -77.4095, 38.88937 ], [ -77.40782, 38.89073 ], [ -77.40726, 38.8906 ], [ -77.40714, 38.88992 ], [ -77.40643, 38.88951 ], [ -77.40677, 38.8889 ], [ -77.40606, 38.88877 ], [ -77.40531, 38.88979 ], [ -77.40616, 38.89108 ], [ -77.40514, 38.8913 ], [ -77.4049, 38.89218 ], [ -77.4055, 38.89293 ], [ -77.40473, 38.89341 ], [ -77.40335, 38.89254 ], [ -77.40371, 38.89156 ], [ -77.402, 38.89157 ], [ -77.40145, 38.89093 ], [ -77.40284, 38.88996 ], [ -77.40379, 38.88994 ], [ -77.4046, 38.88862 ], [ -77.40373, 38.8878 ], [ -77.40395, 38.88694 ], [ -77.40463, 38.88647 ], [ -77.40479, 38.88462 ], [ -77.39788, 38.88192 ], [ -77.39721, 38.88288 ], [ -77.39624, 38.88297 ], [ -77.3961, 38.88084 ], [ -77.39501, 38.88025 ], [ -77.39504, 38.87984 ], [ -77.39596, 38.87959 ], [ -77.40026, 38.8814 ], [ -77.40178, 38.87985 ], [ -77.40244, 38.8797 ], [ -77.40172, 38.87941 ], [ -77.40172, 38.87899 ], [ -77.40257, 38.87761 ], [ -77.39963, 38.8764 ], [ -77.39963, 38.87437 ], [ -77.39908, 38.87377 ], [ -77.39987, 38.87332 ], [ -77.40125, 38.87354 ], [ -77.40158, 38.87296 ], [ -77.40256, 38.87305 ], [ -77.40405, 38.8719 ], [ -77.40429, 38.87125 ], [ -77.40622, 38.871 ], [ -77.40524, 38.86982 ], [ -77.4057, 38.86914 ], [ -77.40703, 38.86962 ], [ -77.4076, 38.87088 ], [ -77.40989, 38.87071 ], [ -77.41248, 38.87101 ] ], [ [ -77.40688, 38.8812 ], [ -77.4082, 38.87857 ], [ -77.40805, 38.87686 ], [ -77.40714, 38.87679 ], [ -77.40658, 38.87619 ], [ -77.40463, 38.87591 ], [ -77.40411, 38.87699 ], [ -77.40488, 38.87723 ], [ -77.40501, 38.87763 ], [ -77.40475, 38.87799 ], [ -77.40383, 38.87805 ], [ -77.40259, 38.8797 ], [ -77.40304, 38.88036 ], [ -77.40268, 38.88069 ], [ -77.40357, 38.88023 ], [ -77.40688, 38.8812 ] ], [ [ -77.41424, 38.87639 ], [ -77.41438, 38.87699 ], [ -77.41461, 38.87682 ], [ -77.41447, 38.87622 ], [ -77.41424, 38.87639 ] ], [ [ -77.4131, 38.87469 ], [ -77.41319, 38.87344 ], [ -77.41091, 38.87247 ], [ -77.41018, 38.87301 ], [ -77.40888, 38.8729 ], [ -77.40918, 38.87488 ], [ -77.4131, 38.87469 ] ], [ [ -77.40947, 38.8718 ], [ -77.40949, 38.87191 ], [ -77.41012, 38.87191 ], [ -77.40947, 38.8718 ] ], [ [ -77.40647, 38.88557 ], [ -77.40647, 38.88586 ], [ -77.40669, 38.88578 ], [ -77.40662, 38.88531 ], [ -77.40647, 38.88557 ] ], [ [ -77.40646, 38.8856 ], [ -77.40646, 38.88558 ], [ -77.40643, 38.88564 ], [ -77.40646, 38.8856 ] ], [ [ -77.40499, 38.88276 ], [ -77.40492, 38.88276 ], [ -77.40503, 38.88288 ], [ -77.40499, 38.88276 ] ] ] } },
{ "type": "Feature", "properties": { "variant": "T0", "miles": 1.5 }, "geometry": { "type": "Polygon", "coordinates": [ [ [ -77.42123, 38.87023 ], [ -77.42215, 38.8705 ], [ -77.42192, 38.87167 ], [ -77.4226, 38.87266 ], [ -77.42261, 38.87352 ], [ -77.42578, 38.87161 ], [ -77.42629, 38.87151 ], [ -77.42712, 38.87217 ], [ -77.42689, 38.87336 ], [ -77.42352, 38.87538 ], [ -77.42358, 38.87629 ], [ -77.42453, 38.87625 ], [ -77.42477, 38.87663 ], [ -77.42409, 38.87743 ], [ -77.42303, 38.87761 ], [ -77.42244, 38.8769 ], [ -77.42096, 38.87813 ], [ -77.41938, 38.87681 ], [ -77.4169, 38.87641 ], [ -77.41676, 38.87725 ], [ -77.4152, 38.87778 ], [ -77.41307, 38.87728 ], [ -77.4125, 38.87762 ], [ -77.412, 38.87748 ], [ -77.41145, 38.87631 ], [ -77.41106, 38.87638 ], [ -77.41115, 38.87733 ], [ -77.41064, 38.87746 ], [ -77.40942, 38.87668 ], [ -77.40949, 38.8773 ], [ -77.41028, 38.87787 ], [ -77.412, 38.87772 ], [ -77.41209, 38.87912 ], [ -77.41307, 38.87926 ], [ -77.41286, 38.88085 ], [ -77.41321, 38.88153 ], [ -77.41599, 38.88307 ], [ -77.41955, 38.8803 ], [ -77.41988, 38.87959 ], [ -77.42085, 38.87992 ], [ -77.42193, 38.8798 ], [ -77.42186, 38.88066 ], [ -77.41974, 38.8814 ], [ -77.41771, 38.88319 ], [ -77.42017, 38.88356 ], [ -77.42005, 38.88436 ], [ -77.41886, 38.88542 ], [ -77.41981, 38.88537 ], [ -77.42019, 38.88586 ], [ -77.421, 38.88548 ], [ -77.42122, 38.88433 ], [ -77.42271, 38.88456 ], [ -77.42355, 38.88425 ], [ -77.42395, 38.88452 ], [ -77.42408, 38.88524 ], [ -77.42335, 38.88601 ], [ -77.4233, 38.88703 ], [ -77.42415, 38.88766 ], [ -77.42125, 38.88939 ], [ -77.42244, 38.88986 ], [ -77.42279, 38.88906 ], [ -77.42374, 38.88887 ], [ -77.42418, 38.88969 ], [ -77.42393, 38.89044 ], [ -77.42495, 38.89083 ], [ -77.42527, 38.89156 ], [ -77.42434, 38.8918 ], [ -77.42305, 38.8913 ], [ -77.42236, 38.8914 ], [ -77.41723, 38.88942 ], [ -77.41669, 38.88981 ], [ -77.4153, 38.88932 ], [ -77.41433, 38.89019 ], [ -77.41456, 38.89117 ], [ -77.41627, 38.89123 ], [ -77.41595, 38.89072 ], [ -77.41698, 38.89021 ], [ -77.41774, 38.89063 ], [ -77.41837, 38.89183 ], [ -77.41801, 38.89251 ], [ -77.41506, 38.89315 ], [ -77.41522, 38.89375 ], [ -77.41716, 38.89526 ], [ -77.41679, 38.89597 ], [ -77.41575, 38.89574 ], [ -77.41583, 38.89684 ], [ -77.4154, 38.89707 ], [ -77.41458, 38.89665 ], [ -77.41428, 38.89538 ], [ -77.41278, 38.89328 ], [ -77.41277, 38.89263 ], [ -77.41339, 38.89205 ], [ -77.41297, 38.89042 ], [ -77.4108, 38.89011 ], [ -77.41039, 38.89153 ], [ -77.40809, 38.89157 ], [ -77.40884, 38.89192 ], [ -77.41221, 38.89169 ], [ -77.41256, 38.8924 ], [ -77.41218, 38.89269 ], [ -77.40881, 38.89307 ], [ -77.40897, 38.89361 ], [ -77.40833, 38.89442 ], [ -77.40737, 38.89465 ], [ -77.40685, 38.8953 ], [ -77.40575, 38.89515 ], [ -77.40496, 38.89406 ], [ -77.40376, 38.89506 ], [ -77.40244, 38.89489 ], [ -77.40454, 38.89753 ], [ -77.40549, 38.8977 ], [ -77.40528, 38.89844 ], [ -77.40375, 38.8984 ], [ -77.4019, 38.89671 ], [ -77.40132, 38.89791 ], [ -77.39993, 38.8982 ], [ -77.39946, 38.89752 ], [ -77.40048, 38.89672 ], [ -77.39985, 38.8964 ], [ -77.39988, 38.89599 ], [ -77.40082, 38.89549 ], [ -77.40104, 38.89479 ], [ -77.40046, 38.8945 ], [ -77.40031, 38.89292 ], [ -77.40138, 38.89193 ], [ -77.40174, 38.89059 ], [ -77.40333, 38.8898 ], [ -77.40379, 38.88994 ], [ -77.4046, 38.88862 ], [ -77.40373, 38.8878 ], [ -77.40395, 38.88694 ], [ -77.40463, 38.88647 ], [ -77.40479, 38.88462 ], [ -77.39788, 38.88192 ], [ -77.39602, 38.88368 ], [ -77.39612, 38.88466 ], [ -77.39555, 38.8859 ], [ -77.39474, 38.88636 ], [ -77.39425, 38.8862 ], [ -77.39447, 38.88512 ], [ -77.3936, 38.88369 ], [ -77.3928, 38.88389 ], [ -77.39219, 38.883 ], [ -77.39156, 38.88366 ], [ -77.39059, 38.88367 ], [ -77.38998, 38.88248 ], [ -77.3907, 38.88189 ], [ -77.39301, 38.8816 ], [ -77.39318, 38.88091 ], [ -77.39241, 38.88103 ], [ -77.39095, 38.88044 ], [ -77.38991, 38.87944 ], [ -77.38985, 38.87882 ], [ -77.38871, 38.87837 ], [ -77.38824, 38.87912 ], [ -77.38732, 38.87937 ], [ -77.387, 38.87865 ], [ -77.3876, 38.8777 ], [ -77.38647, 38.87726 ], [ -77.38616, 38.87654 ], [ -77.38718, 38.87616 ], [ -77.38816, 38.87658 ], [ -77.38876, 38.87617 ], [ -77.38996, 38.87727 ], [ -77.39163, 38.87719 ], [ -77.39189, 38.87669 ], [ -77.39445, 38.87607 ], [ -77.39561, 38.87727 ], [ -77.39551, 38.87601 ], [ -77.3934, 38.87369 ], [ -77.39441, 38.87299 ], [ -77.39528, 38.87296 ], [ -77.39521, 38.8695 ], [ -77.39647, 38.86817 ], [ -77.3977, 38.86754 ], [ -77.40232, 38.86758 ], [ -77.40708, 38.86967 ], [ -77.40588, 38.86469 ], [ -77.40237, 38.86471 ], [ -77.40169, 38.86417 ], [ -77.40239, 38.86363 ], [ -77.40682, 38.86341 ], [ -77.40792, 38.86292 ], [ -77.40823, 38.86188 ], [ -77.40918, 38.86207 ], [ -77.40928, 38.86271 ], [ -77.41018, 38.86331 ], [ -77.40993, 38.86367 ], [ -77.40723, 38.86444 ], [ -77.4086, 38.87079 ], [ -77.40935, 38.87072 ], [ -77.40949, 38.86932 ], [ -77.41034, 38.8682 ], [ -77.41334, 38.86662 ], [ -77.41399, 38.86549 ], [ -77.41514, 38.86517 ], [ -77.41817, 38.8662 ], [ -77.41799, 38.86677 ], [ -77.41858, 38.86783 ], [ -77.41827, 38.86953 ], [ -77.41766, 38.87021 ], [ -77.41841, 38.86998 ], [ -77.42063, 38.87086 ], [ -77.42123, 38.87023 ] ], [ [ -77.40613, 38.89283 ], [ -77.40588, 38.89325 ], [ -77.40596, 38.89313 ], [ -77.40613, 38.89283 ] ], [ [ -77.40719, 38.8926 ], [ -77.40729, 38.89257 ], [ -77.40638, 38.89226 ], [ -77.40619, 38.89277 ], [ -77.40719, 38.8926 ] ], [ [ -77.40753, 38.89124 ], [ -77.40759, 38.89069 ], [ -77.40643, 38.88951 ], [ -77.40677, 38.8889 ], [ -77.40606, 38.88877 ], [ -77.40531, 38.88979 ], [ -77.40638, 38.89022 ], [ -77.40753, 38.89124 ] ], [ [ -77.40675, 38.88536 ], [ -77.40662, 38.88531 ], [ -77.40647, 38.88586 ], [ -77.40675, 38.88536 ] ], [ [ -77.41022, 38.88528 ], [ -77.41062, 38.88498 ], [ -77.41186, 38.88507 ], [ -77.41236, 38.88468 ], [ -77.41184, 38.88456 ], [ -77.41124, 38.88324 ], [ -77.41029, 38.88308 ], [ -77.41009, 38.8827 ], [ -77.41164, 38.8815 ], [ -77.41165, 38.87999 ], [ -77.41071, 38.87983 ], [ -77.41058, 38.87893 ], [ -77.40964, 38.87886 ], [ -77.40684, 38.88397 ], [ -77.41022, 38.88528 ] ], [ [ -77.40816, 38.87895 ], [ -77.40805, 38.87686 ], [ -77.40714, 38.87679 ], [ -77.40658, 38.87619 ], [ -77.40463, 38.87591 ], [ -77.40411, 38.87699 ], [ -77.4054, 38.87725 ], [ -77.4059, 38.87806 ], [ -77.40451, 38.88028 ], [ -77.40697, 38.88104 ], [ -77.40816, 38.87895 ] ], [ [ -77.41454, 38.87625 ], [ -77.41434, 38.87622 ], [ -77.41438, 38.87699 ], [ -77.41454, 38.87625 ] ], [ [ -77.41516, 38.87368 ], [ -77.41523, 38.8737 ], [ -77.41524, 38.87367 ], [ -77.41516, 38.87368 ] ], [ [ -77.41496, 38.87256 ], [ -77.41495, 38.87255 ], [ -77.41493, 38.87261 ], [ -77.41496, 38.87256 ] ], [ [ -77.41546, 38.87014 ], [ -77.41387, 38.86992 ], [ -77.41278, 38.86886 ], [ -77.41332, 38.86813 ], [ -77.41416, 38.86861 ], [ -77.41471, 38.86832 ], [ -77.41399, 38.86771 ], [ -77.41338, 38.86775 ], [ -77.41119, 38.86913 ], [ -77.41213, 38.86932 ], [ -77.41301, 38.87069 ], [ -77.41452, 38.87088 ], [ -77.41474, 38.87025 ], [ -77.41546, 38.87014 ] ], [ [ -77.41739, 38.8747 ], [ -77.41783, 38.87472 ], [ -77.41753, 38.87429 ], [ -77.41739, 38.8747 ] ], [ [ -77.41803, 38.87089 ], [ -77.41802, 38.87092 ], [ -77.41806, 38.87093 ], [ -77.41803, 38.87089 ] ], [ [ -77.42209, 38.87517 ], [ -77.4212, 38.87562 ], [ -77.42207, 38.87574 ], [ -77.42209, 38.87517 ] ], [ [ -77.4202, 38.87594 ], [ -77.42032, 38.87587 ], [ -77.42012, 38.8759 ], [ -77.4202, 38.87594 ] ], [ [ -77.421, 38.87265 ], [ -77.42075, 38.87233 ], [ -77.41996, 38.87269 ], [ -77.41886, 38.87237 ], [ -77.41869, 38.87364 ], [ -77.41929, 38.87486 ], [ -77.42053, 38.87467 ], [ -77.42016, 38.87328 ], [ -77.421, 38.87265 ] ], [ [ -77.41653, 38.86855 ], [ -77.4166, 38.86868 ], [ -77.41668, 38.86858 ], [ -77.41653, 38.86855 ] ], [ [ -77.41593, 38.86647 ], [ -77.4158, 38.86642 ], [ -77.41591, 38.86654 ], [ -77.41593, 38.86647 ] ], [ [ -77.41627, 38.8733 ], [ -77.41621, 38.87324 ], [ -77.41609, 38.87332 ], [ -77.41627, 38.8733 ] ], [ [ -77.41315, 38.88565 ], [ -77.41231, 38.8861 ], [ -77.41319, 38.88625 ], [ -77.41353, 38.88536 ], [ -77.41503, 38.88386 ], [ -77.41315, 38.88565 ] ], [ [ -77.4209, 38.88831 ], [ -77.41987, 38.8872 ], [ -77.41851, 38.88832 ], [ -77.41988, 38.88879 ], [ -77.4209, 38.88831 ] ], [ [ -77.42121, 38.88661 ], [ -77.42168, 38.88647 ], [ -77.42155, 38.88648 ], [ -77.42121, 38.88661 ] ], [ [ -77.42168, 38.88766 ], [ -77.42182, 38.88759 ], [ -77.4216, 38.88765 ], [ -77.42168, 38.88766 ] ], [ [ -77.41629, 38.88707 ], [ -77.41628, 38.88708 ], [ -77.41629, 38.88708 ], [ -77.41629, 38.88707 ] ], [ [ -77.41151, 38.88784 ], [ -77.41235, 38.8882 ], [ -77.41252, 38.88761 ], [ -77.41141, 38.88717 ], [ -77.4108, 38.88807 ], [ -77.40935, 38.88806 ], [ -77.41078, 38.88849 ], [ -77.41151, 38.88784 ] ], [ [ -77.41235, 38.88832 ], [ -77.41177, 38.88928 ], [ -77.41261, 38.88937 ], [ -77.41235, 38.88832 ] ], [ [ -77.4131, 38.87469 ], [ -77.41319, 38.87344 ], [ -77.41091, 38.87247 ], [ -77.41018, 38.87301 ], [ -77.40888, 38.8729 ], [ -77.40918, 38.87488 ], [ -77.4131, 38.87469 ] ], [ [ -77.40947, 38.8718 ], [ -77.40949, 38.87191 ], [ -77.41012, 38.87191 ], [ -77.40947, 38.8718 ] ], [ [ -77.41079, 38.86975 ], [ -77.41075, 38.8699 ], [ -77.41075, 38.8703 ], [ -77.41108, 38.87003 ], [ -77.41079, 38.86975 ] ], [ [ -77.4126, 38.88302 ], [ -77.41292, 38.88282 ], [ -77.41255, 38.8826 ], [ -77.4126, 38.88302 ] ], [ [ -77.40862, 38.89028 ], [ -77.40839, 38.89051 ], [ -77.40929, 38.89064 ], [ -77.40942, 38.89023 ], [ -77.40862, 38.89028 ] ], [ [ -77.40143, 38.87975 ], [ -77.39688, 38.87788 ], [ -77.39585, 38.87958 ], [ -77.40026, 38.8814 ], [ -77.40143, 38.87975 ] ], [ [ -77.4003, 38.87159 ], [ -77.4003, 38.87158 ], [ -77.40025, 38.87158 ], [ -77.4003, 38.87159 ] ], [ [ -77.40353, 38.89161 ], [ -77.40368, 38.89164 ], [ -77.40371, 38.89156 ], [ -77.40353, 38.89161 ] ], [ [ -77.40303, 38.88037 ], [ -77.40268, 38.88069 ], [ -77.40293, 38.88072 ], [ -77.40303, 38.88037 ] ], [ [ -77.40492, 38.88276 ], [ -77.40503, 38.88288 ], [ -77.40505, 38.88286 ], [ -77.40492, 38.88276 ] ], [ [ -77.40646, 38.88558 ], [ -77.40643, 38.88564 ], [ -77.40645, 38.88562 ], [ -77.40646, 38.88558 ] ], [ [ -77.40277, 38.89268 ], [ -77.40285, 38.89263 ], [ -77.40276, 38.89261 ], [ -77.40277, 38.89268 ] ], [ [ -77.39404, 38.87796 ], [ -77.39476, 38.87835 ], [ -77.39487, 38.87819 ], [ -77.39404, 38.87796 ] ], [ [ -77.39361, 38.88298 ], [ -77.39371, 38.88341 ], [ -77.39371, 38.88319 ], [ -77.39361, 38.88298 ] ] ] } },
{ "type": "Feature", "properties": { "variant": "T0", "miles": 2.0 }, "geometry": { "type": "Polygon", "coordinates": [ [ [ -77.42667, 38.86617 ], [ -77.43012, 38.86619 ], [ -77.43055, 38.8665 ], [ -77.43075, 38.86688 ], [ -77.43083, 38.86778 ], [ -77.4299, 38.86846 ], [ -77.42999, 38.86914 ], [ -77.43171, 38.86848 ], [ -77.43429, 38.86842 ], [ -77.43499, 38.86896 ], [ -77.43431, 38.86951 ], [ -77.43156, 38.86959 ], [ -77.42999, 38.87048 ], [ -77.43032, 38.87219 ], [ -77.43124, 38.87226 ], [ -77.43159, 38.87294 ], [ -77.43087, 38.87355 ], [ -77.43083, 38.87439 ], [ -77.42986, 38.8745 ], [ -77.4295, 38.87374 ], [ -77.42878, 38.8741 ], [ -77.42822, 38.87354 ], [ -77.42718, 38.87475 ], [ -77.42738, 38.87593 ], [ -77.42642, 38.87607 ], [ -77.42615, 38.87567 ], [ -77.42505, 38.87661 ], [ -77.42643, 38.87776 ], [ -77.42613, 38.87906 ], [ -77.42415, 38.87857 ], [ -77.42394, 38.87811 ], [ -77.42352, 38.87867 ], [ -77.42549, 38.8796 ], [ -77.42754, 38.88004 ], [ -77.42758, 38.88045 ], [ -77.42669, 38.88124 ], [ -77.42838, 38.88094 ], [ -77.42965, 38.8817 ], [ -77.42983, 38.88262 ], [ -77.4291, 38.8839 ], [ -77.42695, 38.8845 ], [ -77.42652, 38.88608 ], [ -77.42574, 38.88642 ], [ -77.42494, 38.88629 ], [ -77.42484, 38.88719 ], [ -77.4265, 38.88676 ], [ -77.4276, 38.88804 ], [ -77.42838, 38.88743 ], [ -77.43044, 38.88769 ], [ -77.43115, 38.88898 ], [ -77.43075, 38.88925 ], [ -77.42992, 38.8891 ], [ -77.42976, 38.88935 ], [ -77.43067, 38.88991 ], [ -77.43062, 38.89032 ], [ -77.42975, 38.89055 ], [ -77.42987, 38.8909 ], [ -77.43185, 38.89142 ], [ -77.4327, 38.89209 ], [ -77.43216, 38.89386 ], [ -77.43344, 38.89435 ], [ -77.43378, 38.89507 ], [ -77.43286, 38.89534 ], [ -77.42719, 38.89329 ], [ -77.42519, 38.89437 ], [ -77.42541, 38.89492 ], [ -77.42697, 38.89571 ], [ -77.42658, 38.89641 ], [ -77.42605, 38.89641 ], [ -77.42434, 38.89561 ], [ -77.42379, 38.89455 ], [ -77.42439, 38.89333 ], [ -77.42588, 38.8928 ], [ -77.42297, 38.89163 ], [ -77.42136, 38.89422 ], [ -77.42177, 38.89502 ], [ -77.42076, 38.89519 ], [ -77.42006, 38.89632 ], [ -77.41914, 38.89657 ], [ -77.41882, 38.89584 ], [ -77.41961, 38.89457 ], [ -77.41802, 38.8925 ], [ -77.41706, 38.89253 ], [ -77.41834, 38.89428 ], [ -77.41868, 38.8968 ], [ -77.42068, 38.8974 ], [ -77.42052, 38.89819 ], [ -77.42159, 38.89973 ], [ -77.42079, 38.90042 ], [ -77.42144, 38.9014 ], [ -77.42078, 38.90196 ], [ -77.41962, 38.90107 ], [ -77.41868, 38.90188 ], [ -77.41724, 38.90192 ], [ -77.41663, 38.90133 ], [ -77.41745, 38.90085 ], [ -77.41666, 38.89986 ], [ -77.41573, 38.90026 ], [ -77.41625, 38.9006 ], [ -77.41556, 38.90158 ], [ -77.41294, 38.90164 ], [ -77.41231, 38.90106 ], [ -77.41136, 38.89774 ], [ -77.41051, 38.89788 ], [ -77.40976, 38.89912 ], [ -77.40869, 38.89948 ], [ -77.40789, 38.89785 ], [ -77.40709, 38.89791 ], [ -77.40632, 38.89724 ], [ -77.40791, 38.89556 ], [ -77.40878, 38.89579 ], [ -77.40939, 38.89649 ], [ -77.40961, 38.89572 ], [ -77.41054, 38.89548 ], [ -77.41092, 38.89662 ], [ -77.41258, 38.897 ], [ -77.41383, 38.89638 ], [ -77.41313, 38.89577 ], [ -77.41396, 38.8952 ], [ -77.41269, 38.89293 ], [ -77.41339, 38.89205 ], [ -77.41297, 38.89042 ], [ -77.4108, 38.89011 ], [ -77.41039, 38.89153 ], [ -77.40809, 38.89157 ], [ -77.40884, 38.89192 ], [ -77.41221, 38.89169 ], [ -77.41256, 38.8924 ], [ -77.41218, 38.89269 ], [ -77.40881, 38.89307 ], [ -77.40897, 38.89361 ], [ -77.40833, 38.89442 ], [ -77.40737, 38.89465 ], [ -77.40685, 38.8953 ], [ -77.40575, 38.89515 ], [ -77.40496, 38.89406 ], [ -77.40376, 38.89506 ], [ -77.40244, 38.89489 ], [ -77.40333, 38.89605 ], [ -77.40592, 38.89529 ], [ -77.40668, 38.89577 ], [ -77.40595, 38.89715 ], [ -77.40524, 38.89756 ], [ -77.40559, 38.8981 ], [ -77.40433, 38.89858 ], [ -77.4053, 38.90008 ], [ -77.40445, 38.90046 ], [ -77.40209, 38.89843 ], [ -77.40116, 38.89801 ], [ -77.39993, 38.8982 ], [ -77.39947, 38.89757 ], [ -77.39759, 38.89666 ], [ -77.39484, 38.89381 ], [ -77.39505, 38.89343 ], [ -77.39603, 38.89344 ], [ -77.39836, 38.89574 ], [ -77.40007, 38.89659 ], [ -77.39988, 38.89599 ], [ -77.40082, 38.89549 ], [ -77.40104, 38.89479 ], [ -77.40046, 38.8945 ], [ -77.40031, 38.89292 ], [ -77.40138, 38.89193 ], [ -77.40174, 38.89059 ], [ -77.40333, 38.8898 ], [ -77.40379, 38.88994 ], [ -77.4046, 38.88862 ], [ -77.40373, 38.8878 ], [ -77.40395, 38.88694 ], [ -77.40463, 38.88647 ], [ -77.40479, 38.88462 ], [ -77.39788, 38.88192 ], [ -77.39602, 38.88368 ], [ -77.39596, 38.88514 ], [ -77.3954, 38.88607 ], [ -77.39474, 38.88636 ], [ -77.39405, 38.88582 ], [ -77.39447, 38.88512 ], [ -77.3936, 38.88369 ], [ -77.3928, 38.88389 ], [ -77.39219, 38.883 ], [ -77.39156, 38.88366 ], [ -77.39059, 38.88367 ], [ -77.39016, 38.88222 ], [ -77.38957, 38.88199 ], [ -77.38851, 38.88273 ], [ -77.38798, 38.8827 ], [ -77.38665, 38.8817 ], [ -77.38611, 38.88255 ], [ -77.3882, 38.88353 ], [ -77.38777, 38.88421 ], [ -77.38314, 38.88265 ], [ -77.38218, 38.88283 ], [ -77.38174, 38.88225 ], [ -77.38254, 38.88147 ], [ -77.38485, 38.8821 ], [ -77.38537, 38.88129 ], [ -77.38343, 38.8805 ], [ -77.3827, 38.87893 ], [ -77.38354, 38.8784 ], [ -77.38233, 38.87817 ], [ -77.38235, 38.87741 ], [ -77.38365, 38.8773 ], [ -77.38476, 38.87777 ], [ -77.38546, 38.87715 ], [ -77.37957, 38.87487 ], [ -77.37926, 38.87414 ], [ -77.37966, 38.87387 ], [ -77.38126, 38.87406 ], [ -77.38653, 38.87608 ], [ -77.38688, 38.87503 ], [ -77.38585, 38.87486 ], [ -77.38422, 38.87311 ], [ -77.38454, 38.87225 ], [ -77.38605, 38.87235 ], [ -77.38675, 38.87181 ], [ -77.38636, 38.87034 ], [ -77.38491, 38.87041 ], [ -77.38471, 38.86966 ], [ -77.38742, 38.86851 ], [ -77.39157, 38.86914 ], [ -77.39282, 38.86971 ], [ -77.39236, 38.8679 ], [ -77.39098, 38.868 ], [ -77.38899, 38.8674 ], [ -77.38898, 38.86592 ], [ -77.38941, 38.86568 ], [ -77.38993, 38.86575 ], [ -77.39035, 38.86672 ], [ -77.39135, 38.86694 ], [ -77.39051, 38.86504 ], [ -77.39063, 38.86404 ], [ -77.39211, 38.86345 ], [ -77.39308, 38.86384 ], [ -77.39866, 38.86255 ], [ -77.39748, 38.86124 ], [ -77.39735, 38.86037 ], [ -77.39807, 38.85933 ], [ -77.39904, 38.85946 ], [ -77.3991, 38.86012 ], [ -77.39989, 38.86055 ], [ -77.40066, 38.85978 ], [ -77.40033, 38.85925 ], [ -77.40063, 38.85891 ], [ -77.40334, 38.85874 ], [ -77.40407, 38.85925 ], [ -77.40408, 38.86021 ], [ -77.40448, 38.85996 ], [ -77.40351, 38.85662 ], [ -77.40149, 38.85653 ], [ -77.40095, 38.85589 ], [ -77.40128, 38.85543 ], [ -77.4031, 38.85545 ], [ -77.40279, 38.85422 ], [ -77.4034, 38.85355 ], [ -77.40423, 38.85396 ], [ -77.40566, 38.85923 ], [ -77.40854, 38.8578 ], [ -77.40722, 38.85619 ], [ -77.40725, 38.85578 ], [ -77.40818, 38.85552 ], [ -77.40894, 38.85661 ], [ -77.41046, 38.85768 ], [ -77.41253, 38.85818 ], [ -77.4136, 38.85886 ], [ -77.4149, 38.85885 ], [ -77.415, 38.85961 ], [ -77.41417, 38.85985 ], [ -77.41441, 38.86083 ], [ -77.41509, 38.86033 ], [ -77.41604, 38.86027 ], [ -77.41724, 38.86089 ], [ -77.41698, 38.86145 ], [ -77.41805, 38.86155 ], [ -77.41824, 38.86194 ], [ -77.41708, 38.86264 ], [ -77.41675, 38.86391 ], [ -77.41749, 38.8644 ], [ -77.41813, 38.86384 ], [ -77.41941, 38.86456 ], [ -77.41975, 38.86534 ], [ -77.41923, 38.86606 ], [ -77.41993, 38.86616 ], [ -77.42021, 38.86538 ], [ -77.42219, 38.86552 ], [ -77.4223, 38.86489 ], [ -77.42394, 38.86459 ], [ -77.42521, 38.86566 ], [ -77.42667, 38.86617 ] ], [ [ -77.41075, 38.88853 ], [ -77.41151, 38.88784 ], [ -77.41235, 38.8882 ], [ -77.41252, 38.88761 ], [ -77.41141, 38.88717 ], [ -77.4108, 38.88807 ], [ -77.40935, 38.88806 ], [ -77.41075, 38.88853 ] ], [ [ -77.41319, 38.88625 ], [ -77.41353, 38.88536 ], [ -77.41503, 38.88386 ], [ -77.41256, 38.88618 ], [ -77.41319, 38.88625 ] ], [ [ -77.41173, 38.88388 ], [ -77.41137, 38.88352 ], [ -77.41107, 38.88427 ], [ -77.41173, 38.88388 ] ], [ [ -77.40966, 38.88114 ], [ -77.40894, 38.88061 ], [ -77.40684, 38.88397 ], [ -77.40861, 38.88465 ], [ -77.40883, 38.883 ], [ -77.40847, 38.88241 ], [ -77.40966, 38.88114 ] ], [ [ -77.40816, 38.87895 ], [ -77.40805, 38.87686 ], [ -77.40714, 38.87679 ], [ -77.40658, 38.87619 ], [ -77.40463, 38.87591 ], [ -77.40411, 38.87699 ], [ -77.4054, 38.87725 ], [ -77.4059, 38.87806 ], [ -77.40451, 38.88028 ], [ -77.40697, 38.88104 ], [ -77.40816, 38.87895 ] ], [ [ -77.40708, 38.86967 ], [ -77.40588, 38.86469 ], [ -77.4024, 38.86471 ], [ -77.40229, 38.8664 ], [ -77.4017, 38.86693 ], [ -77.40085, 38.86705 ], [ -77.40092, 38.86746 ], [ -77.40271, 38.86768 ], [ -77.40708, 38.86967 ] ], [ [ -77.40698, 38.86335 ], [ -77.40684, 38.86335 ], [ -77.40686, 38.8634 ], [ -77.40698, 38.86335 ] ], [ [ -77.40793, 38.86183 ], [ -77.40963, 38.86186 ], [ -77.40905, 38.86115 ], [ -77.40764, 38.86144 ], [ -77.40702, 38.8609 ], [ -77.40879, 38.85953 ], [ -77.40931, 38.85945 ], [ -77.4098, 38.8599 ], [ -77.41095, 38.85978 ], [ -77.41125, 38.86051 ], [ -77.41046, 38.86098 ], [ -77.41137, 38.86089 ], [ -77.41221, 38.8613 ], [ -77.41302, 38.86092 ], [ -77.41271, 38.85977 ], [ -77.41191, 38.85915 ], [ -77.40958, 38.85852 ], [ -77.40604, 38.86049 ], [ -77.40656, 38.86227 ], [ -77.40793, 38.86183 ] ], [ [ -77.41976, 38.88329 ], [ -77.4206, 38.88189 ], [ -77.42008, 38.88132 ], [ -77.41771, 38.88319 ], [ -77.41976, 38.88329 ] ], [ [ -77.41955, 38.8803 ], [ -77.41925, 38.87995 ], [ -77.41599, 38.88307 ], [ -77.41955, 38.8803 ] ], [ [ -77.42024, 38.8792 ], [ -77.42113, 38.87865 ], [ -77.42181, 38.87907 ], [ -77.42261, 38.87715 ], [ -77.42244, 38.8769 ], [ -77.42157, 38.87732 ], [ -77.42144, 38.87795 ], [ -77.42096, 38.87813 ], [ -77.41938, 38.87681 ], [ -77.4169, 38.87641 ], [ -77.41676, 38.87725 ], [ -77.41513, 38.8778 ], [ -77.41429, 38.87736 ], [ -77.4137, 38.87763 ], [ -77.41307, 38.87728 ], [ -77.4125, 38.87762 ], [ -77.412, 38.87748 ], [ -77.41145, 38.87631 ], [ -77.41106, 38.87638 ], [ -77.41115, 38.87733 ], [ -77.41064, 38.87746 ], [ -77.40942, 38.87668 ], [ -77.40949, 38.8773 ], [ -77.41028, 38.87787 ], [ -77.412, 38.87772 ], [ -77.4123, 38.87806 ], [ -77.41203, 38.87887 ], [ -77.41331, 38.87778 ], [ -77.4152, 38.878 ], [ -77.41595, 38.87846 ], [ -77.41846, 38.87857 ], [ -77.42024, 38.8792 ] ], [ [ -77.41739, 38.8747 ], [ -77.41783, 38.87472 ], [ -77.41781, 38.87469 ], [ -77.41753, 38.87429 ], [ -77.41739, 38.8747 ] ], [ [ -77.41802, 38.87092 ], [ -77.41806, 38.87093 ], [ -77.41803, 38.87089 ], [ -77.41802, 38.87092 ] ], [ [ -77.41955, 38.8703 ], [ -77.41948, 38.86892 ], [ -77.41924, 38.86926 ], [ -77.41835, 38.86921 ], [ -77.41766, 38.87021 ], [ -77.41841, 38.86998 ], [ -77.41955, 38.8703 ] ], [ [ -77.41687, 38.8656 ], [ -77.41682, 38.86551 ], [ -77.41677, 38.86558 ], [ -77.41687, 38.8656 ] ], [ [ -77.41831, 38.86523 ], [ -77.41807, 38.86504 ], [ -77.41808, 38.86507 ], [ -77.41831, 38.86523 ] ], [ [ -77.42503, 38.88304 ], [ -77.42476, 38.8831 ], [ -77.42456, 38.8836 ], [ -77.42558, 38.88377 ], [ -77.42503, 38.88304 ] ], [ [ -77.42252, 38.88309 ], [ -77.42248, 38.88316 ], [ -77.42257, 38.88315 ], [ -77.42252, 38.88309 ] ], [ [ -77.42209, 38.87517 ], [ -77.4212, 38.87562 ], [ -77.4215, 38.87563 ], [ -77.42208, 38.87573 ], [ -77.42209, 38.87517 ] ], [ [ -77.42529, 38.87192 ], [ -77.42527, 38.87 ], [ -77.42408, 38.87038 ], [ -77.42238, 38.87023 ], [ -77.42272, 38.87104 ], [ -77.42192, 38.87167 ], [ -77.4226, 38.87266 ], [ -77.42261, 38.87352 ], [ -77.42529, 38.87192 ] ], [ [ -77.42425, 38.86918 ], [ -77.42261, 38.86903 ], [ -77.4226, 38.86916 ], [ -77.42425, 38.86918 ] ], [ [ -77.42149, 38.86758 ], [ -77.41822, 38.86694 ], [ -77.41852, 38.86735 ], [ -77.41954, 38.86737 ], [ -77.42076, 38.86844 ], [ -77.42092, 38.87042 ], [ -77.42149, 38.86758 ] ], [ [ -77.42352, 38.87538 ], [ -77.42358, 38.87628 ], [ -77.42616, 38.87403 ], [ -77.42653, 38.8736 ], [ -77.42352, 38.87538 ] ], [ [ -77.42873, 38.8712 ], [ -77.42712, 38.87216 ], [ -77.42723, 38.87279 ], [ -77.42873, 38.8712 ] ], [ [ -77.4248, 38.86743 ], [ -77.42524, 38.86676 ], [ -77.42364, 38.86656 ], [ -77.42395, 38.86755 ], [ -77.42281, 38.86796 ], [ -77.42465, 38.86845 ], [ -77.42445, 38.86908 ], [ -77.42524, 38.86891 ], [ -77.42535, 38.86812 ], [ -77.4248, 38.86743 ] ], [ [ -77.4271, 38.86929 ], [ -77.42691, 38.87092 ], [ -77.42787, 38.87035 ], [ -77.4271, 38.86929 ] ], [ [ -77.42792, 38.88199 ], [ -77.42722, 38.88224 ], [ -77.42796, 38.88276 ], [ -77.42845, 38.88247 ], [ -77.42792, 38.88199 ] ], [ [ -77.42303, 38.87969 ], [ -77.42295, 38.87968 ], [ -77.42302, 38.87971 ], [ -77.42303, 38.87969 ] ], [ [ -77.42613, 38.88938 ], [ -77.42612, 38.88937 ], [ -77.42612, 38.88939 ], [ -77.42613, 38.88938 ] ], [ [ -77.42835, 38.8915 ], [ -77.42801, 38.89202 ], [ -77.4308, 38.89315 ], [ -77.43108, 38.89258 ], [ -77.42835, 38.8915 ] ], [ [ -77.42691, 38.89065 ], [ -77.42709, 38.89104 ], [ -77.42789, 38.8898 ], [ -77.42731, 38.88994 ], [ -77.42691, 38.89065 ] ], [ [ -77.42337, 38.88697 ], [ -77.4233, 38.88703 ], [ -77.42344, 38.887 ], [ -77.42337, 38.88697 ] ], [ [ -77.42182, 38.88405 ], [ -77.42211, 38.88398 ], [ -77.42198, 38.8838 ], [ -77.42182, 38.88405 ] ], [ [ -77.42364, 38.88843 ], [ -77.4236, 38.88819 ], [ -77.4233, 38.88815 ], [ -77.42364, 38.88843 ] ], [ [ -77.42024, 38.88554 ], [ -77.41992, 38.88546 ], [ -77.42019, 38.88586 ], [ -77.421, 38.88548 ], [ -77.42024, 38.88554 ] ], [ [ -77.41932, 38.88495 ], [ -77.41891, 38.88551 ], [ -77.41975, 38.88537 ], [ -77.41932, 38.88495 ] ], [ [ -77.42164, 38.8877 ], [ -77.42182, 38.88759 ], [ -77.4216, 38.88765 ], [ -77.42164, 38.8877 ] ], [ [ -77.41851, 38.88832 ], [ -77.41982, 38.88883 ], [ -77.4209, 38.88831 ], [ -77.41965, 38.88727 ], [ -77.41851, 38.88832 ] ], [ [ -77.42121, 38.88661 ], [ -77.42168, 38.88647 ], [ -77.42146, 38.8865 ], [ -77.42121, 38.88661 ] ], [ [ -77.41886, 38.87237 ], [ -77.41869, 38.87364 ], [ -77.41929, 38.87486 ], [ -77.42053, 38.87467 ], [ -77.4202, 38.87308 ], [ -77.421, 38.87265 ], [ -77.42075, 38.87233 ], [ -77.41975, 38.87265 ], [ -77.41886, 38.87237 ] ], [ [ -77.4202, 38.87594 ], [ -77.42032, 38.87587 ], [ -77.42012, 38.8759 ], [ -77.4202, 38.87594 ] ], [ [ -77.41435, 38.89896 ], [ -77.41374, 38.8985 ], [ -77.41314, 38.89893 ], [ -77.41373, 38.90045 ], [ -77.41524, 38.89924 ], [ -77.41515, 38.89886 ], [ -77.41435, 38.89896 ] ], [ [ -77.4164, 38.89608 ], [ -77.41722, 38.89634 ], [ -77.41575, 38.89574 ], [ -77.4164, 38.89608 ] ], [ [ -77.41595, 38.89072 ], [ -77.4166, 38.89021 ], [ -77.41641, 38.88975 ], [ -77.4153, 38.88932 ], [ -77.41433, 38.89019 ], [ -77.41456, 38.89117 ], [ -77.41608, 38.89112 ], [ -77.41595, 38.89072 ] ], [ [ -77.41478, 38.88138 ], [ -77.41489, 38.88138 ], [ -77.41489, 38.8813 ], [ -77.41478, 38.88138 ] ], [ [ -77.42012, 38.89054 ], [ -77.41777, 38.88964 ], [ -77.41921, 38.89193 ], [ -77.42012, 38.89054 ] ], [ [ -77.42172, 38.89116 ], [ -77.42138, 38.89102 ], [ -77.41997, 38.89319 ], [ -77.42024, 38.89356 ], [ -77.42172, 38.89116 ] ], [ [ -77.41836, 38.8993 ], [ -77.41844, 38.89985 ], [ -77.41847, 38.89968 ], [ -77.41836, 38.8993 ] ], [ [ -77.41942, 38.89853 ], [ -77.41956, 38.89824 ], [ -77.41822, 38.89783 ], [ -77.41942, 38.89853 ] ], [ [ -77.41688, 38.89432 ], [ -77.41682, 38.89422 ], [ -77.41675, 38.8943 ], [ -77.41688, 38.89432 ] ], [ [ -77.41454, 38.87625 ], [ -77.41434, 38.87622 ], [ -77.41438, 38.87699 ], [ -77.41454, 38.87625 ] ], [ [ -77.41495, 38.87255 ], [ -77.41493, 38.87261 ], [ -77.41499, 38.87259 ], [ -77.41495, 38.87255 ] ], [ [ -77.41387, 38.86992 ], [ -77.41282, 38.86898 ], [ -77.41332, 38.86813 ], [ -77.41416, 38.86861 ], [ -77.41471, 38.86832 ], [ -77.41399, 38.86771 ], [ -77.41338, 38.86775 ], [ -77.41119, 38.86913 ], [ -77.41213, 38.86932 ], [ -77.41301, 38.87069 ], [ -77.41452, 38.87088 ], [ -77.41474, 38.87025 ], [ -77.41525, 38.87016 ], [ -77.41387, 38.86992 ] ], [ [ -77.41399, 38.86549 ], [ -77.41547, 38.8652 ], [ -77.41579, 38.86472 ], [ -77.41527, 38.86407 ], [ -77.41578, 38.86219 ], [ -77.41471, 38.86215 ], [ -77.41439, 38.86321 ], [ -77.41358, 38.86386 ], [ -77.41104, 38.86424 ], [ -77.41071, 38.86494 ], [ -77.40917, 38.86542 ], [ -77.4086, 38.86689 ], [ -77.40795, 38.86704 ], [ -77.4086, 38.87079 ], [ -77.40935, 38.87072 ], [ -77.40949, 38.86932 ], [ -77.41031, 38.86823 ], [ -77.41334, 38.86662 ], [ -77.41399, 38.86549 ] ], [ [ -77.41661, 38.86857 ], [ -77.41653, 38.86855 ], [ -77.4166, 38.86868 ], [ -77.41661, 38.86857 ] ], [ [ -77.41609, 38.87332 ], [ -77.41626, 38.8734 ], [ -77.41627, 38.8733 ], [ -77.41609, 38.87332 ] ], [ [ -77.41524, 38.87367 ], [ -77.41516, 38.87368 ], [ -77.41523, 38.8737 ], [ -77.41524, 38.87367 ] ], [ [ -77.41115, 38.86302 ], [ -77.41095, 38.86305 ], [ -77.41112, 38.86311 ], [ -77.41115, 38.86302 ] ], [ [ -77.41314, 38.86211 ], [ -77.41332, 38.8622 ], [ -77.41332, 38.86217 ], [ -77.41314, 38.86211 ] ], [ [ -77.41255, 38.86304 ], [ -77.41246, 38.86302 ], [ -77.41246, 38.86306 ], [ -77.41255, 38.86304 ] ], [ [ -77.4131, 38.87469 ], [ -77.41319, 38.87344 ], [ -77.41091, 38.87247 ], [ -77.41018, 38.87301 ], [ -77.40888, 38.8729 ], [ -77.40918, 38.87488 ], [ -77.4131, 38.87469 ] ], [ [ -77.40949, 38.87191 ], [ -77.41012, 38.87191 ], [ -77.40998, 38.87185 ], [ -77.40949, 38.87191 ] ], [ [ -77.41079, 38.86975 ], [ -77.41075, 38.8699 ], [ -77.41075, 38.8703 ], [ -77.41108, 38.87002 ], [ -77.41079, 38.86975 ] ], [ [ -77.41164, 38.8815 ], [ -77.41165, 38.87999 ], [ -77.41071, 38.87983 ], [ -77.41058, 38.87893 ], [ -77.40964, 38.87886 ], [ -77.40947, 38.8796 ], [ -77.41044, 38.87981 ], [ -77.41122, 38.8808 ], [ -77.41051, 38.88216 ], [ -77.41119, 38.88216 ], [ -77.41164, 38.8815 ] ], [ [ -77.4126, 38.88302 ], [ -77.41292, 38.88282 ], [ -77.41255, 38.8826 ], [ -77.4126, 38.88302 ] ], [ [ -77.41205, 38.88461 ], [ -77.41191, 38.88506 ], [ -77.41214, 38.88491 ], [ -77.41205, 38.88461 ] ], [ [ -77.40828, 38.86521 ], [ -77.40834, 38.86519 ], [ -77.40827, 38.86514 ], [ -77.40828, 38.86521 ] ], [ [ -77.41235, 38.88832 ], [ -77.41177, 38.88928 ], [ -77.41261, 38.88937 ], [ -77.41235, 38.88832 ] ], [ [ -77.41344, 38.89799 ], [ -77.41373, 38.89834 ], [ -77.41428, 38.89792 ], [ -77.41344, 38.89799 ] ], [ [ -77.40026, 38.8814 ], [ -77.40143, 38.87975 ], [ -77.39688, 38.87788 ], [ -77.39585, 38.87958 ], [ -77.40026, 38.8814 ] ], [ [ -77.4003, 38.87158 ], [ -77.40025, 38.87158 ], [ -77.40026, 38.87159 ], [ -77.4003, 38.87158 ] ], [ [ -77.40595, 38.89294 ], [ -77.40588, 38.89325 ], [ -77.40613, 38.89283 ], [ -77.40595, 38.89294 ] ], [ [ -77.40638, 38.89226 ], [ -77.40619, 38.89277 ], [ -77.40661, 38.89262 ], [ -77.40724, 38.89259 ], [ -77.40638, 38.89226 ] ], [ [ -77.40303, 38.88037 ], [ -77.40268, 38.88069 ], [ -77.40293, 38.88072 ], [ -77.40303, 38.88037 ] ], [ [ -77.40759, 38.89069 ], [ -77.40643, 38.88951 ], [ -77.40677, 38.8889 ], [ -77.40606, 38.88877 ], [ -77.40531, 38.88979 ], [ -77.4074, 38.89119 ], [ -77.40759, 38.89069 ] ], [ [ -77.40647, 38.88557 ], [ -77.40647, 38.88586 ], [ -77.40669, 38.88578 ], [ -77.40662, 38.88531 ], [ -77.40647, 38.88557 ] ], [ [ -77.40862, 38.89028 ], [ -77.40839, 38.89051 ], [ -77.40929, 38.89064 ], [ -77.40942, 38.89023 ], [ -77.40862, 38.89028 ] ], [ [ -77.40499, 38.88276 ], [ -77.40492, 38.88276 ], [ -77.40503, 38.88288 ], [ -77.40499, 38.88276 ] ], [ [ -77.40643, 38.88564 ], [ -77.40645, 38.88562 ], [ -77.40646, 38.88558 ], [ -77.40643, 38.88564 ] ], [ [ -77.40297, 38.86364 ], [ -77.40301, 38.86364 ], [ -77.40297, 38.86362 ], [ -77.40297, 38.86364 ] ], [ [ -77.40544, 38.86341 ], [ -77.40487, 38.86335 ], [ -77.40498, 38.86366 ], [ -77.40544, 38.86341 ] ], [ [ -77.40507, 38.86211 ], [ -77.40485, 38.86127 ], [ -77.40378, 38.86186 ], [ -77.40507, 38.86211 ] ], [ [ -77.40368, 38.89164 ], [ -77.40371, 38.89156 ], [ -77.40353, 38.89161 ], [ -77.40368, 38.89164 ] ], [ [ -77.40233, 38.8968 ], [ -77.4019, 38.89671 ], [ -77.40179, 38.89705 ], [ -77.40285, 38.89753 ], [ -77.40233, 38.8968 ] ], [ [ -77.40273, 38.89137 ], [ -77.40264, 38.89141 ], [ -77.40277, 38.89148 ], [ -77.40273, 38.89137 ] ], [ [ -77.40277, 38.89268 ], [ -77.40285, 38.89263 ], [ -77.40276, 38.89261 ], [ -77.40277, 38.89268 ] ], [ [ -77.39775, 38.86666 ], [ -77.40013, 38.86679 ], [ -77.39809, 38.86579 ], [ -77.3969, 38.86409 ], [ -77.39532, 38.86445 ], [ -77.39608, 38.86554 ], [ -77.39709, 38.86564 ], [ -77.39693, 38.8664 ], [ -77.39618, 38.86676 ], [ -77.39673, 38.86708 ], [ -77.39775, 38.86666 ] ], [ [ -77.39901, 38.86347 ], [ -77.39898, 38.86337 ], [ -77.39892, 38.86344 ], [ -77.39901, 38.86347 ] ], [ [ -77.39368, 38.88305 ], [ -77.39361, 38.88298 ], [ -77.39371, 38.88341 ], [ -77.39368, 38.88305 ] ], [ [ -77.39404, 38.87796 ], [ -77.39476, 38.87835 ], [ -77.39487, 38.87819 ], [ -77.39404, 38.87796 ] ], [ [ -77.39404, 38.86877 ], [ -77.39418, 38.8694 ], [ -77.39488, 38.8685 ], [ -77.39404, 38.86877 ] ], [ [ -77.39278, 38.87473 ], [ -77.39287, 38.87472 ], [ -77.3928, 38.87463 ], [ -77.39278, 38.87473 ] ], [ [ -77.39528, 38.87296 ], [ -77.39515, 38.87129 ], [ -77.39384, 38.8711 ], [ -77.39323, 38.87188 ], [ -77.39427, 38.87305 ], [ -77.39528, 38.87296 ] ], [ [ -77.39504, 38.87705 ], [ -77.39561, 38.87727 ], [ -77.39559, 38.87702 ], [ -77.39504, 38.87705 ] ], [ [ -77.39059, 38.87565 ], [ -77.39063, 38.87568 ], [ -77.39065, 38.87566 ], [ -77.39059, 38.87565 ] ], [ [ -77.39157, 38.87713 ], [ -77.39151, 38.87714 ], [ -77.39163, 38.87719 ], [ -77.39157, 38.87713 ] ], [ [ -77.38994, 38.87726 ], [ -77.38996, 38.87727 ], [ -77.38997, 38.87726 ], [ -77.38994, 38.87726 ] ], [ [ -77.39048, 38.87709 ], [ -77.39088, 38.87709 ], [ -77.39064, 38.877 ], [ -77.39048, 38.87709 ] ], [ [ -77.39053, 38.87617 ], [ -77.39035, 38.8763 ], [ -77.39055, 38.87647 ], [ -77.39053, 38.87617 ] ], [ [ -77.3927, 38.88166 ], [ -77.39282, 38.88155 ], [ -77.39306, 38.88123 ], [ -77.3927, 38.88166 ] ], [ [ -77.38767, 38.87392 ], [ -77.38769, 38.87392 ], [ -77.38768, 38.87391 ], [ -77.38767, 38.87392 ] ], [ [ -77.38525, 38.88009 ], [ -77.38597, 38.88031 ], [ -77.38661, 38.87927 ], [ -77.38546, 38.8792 ], [ -77.38525, 38.88009 ] ] ] } },
{ "type": "Feature", "properties": { "variant": "T2s", "miles": 1.0 }, "geometry": { "type": "Polygon", "coordinates": [ [ [ -77.41248, 38.87101 ], [ -77.41225, 38.87194 ], [ -77.41464, 38.87288 ], [ -77.41454, 38.87368 ], [ -77.41598, 38.87327 ], [ -77.41644, 38.87348 ], [ -77.41618, 38.87471 ], [ -77.41728, 38.87581 ], [ -77.41676, 38.87725 ], [ -77.41513, 38.8778 ], [ -77.41429, 38.87736 ], [ -77.4137, 38.87763 ], [ -77.41307, 38.87728 ], [ -77.4125, 38.87762 ], [ -77.412, 38.87748 ], [ -77.41145, 38.87631 ], [ -77.41106, 38.87638 ], [ -77.41115, 38.87733 ], [ -77.41064, 38.87746 ], [ -77.40942, 38.87668 ], [ -77.40949, 38.8773 ], [ -77.41028, 38.87787 ], [ -77.41148, 38.87765 ], [ -77.4123, 38.87806 ], [ -77.41192, 38.87863 ], [ -77.41206, 38.87962 ], [ -77.41116, 38.88005 ], [ -77.41071, 38.87983 ], [ -77.41058, 38.87893 ], [ -77.40964, 38.87886 ], [ -77.40684, 38.88397 ], [ -77.41254, 38.88619 ], [ -77.41397, 38.88594 ], [ -77.4145, 38.88675 ], [ -77.41581, 38.88744 ], [ -77.41577, 38.88785 ], [ -77.41537, 38.88813 ], [ -77.41314, 38.88785 ], [ -77.41141, 38.88717 ], [ -77.4108, 38.88807 ], [ -77.40935, 38.88806 ], [ -77.41126, 38.88875 ], [ -77.41159, 38.88908 ], [ -77.41131, 38.88977 ], [ -77.41042, 38.88991 ], [ -77.4095, 38.88937 ], [ -77.40782, 38.89073 ], [ -77.40702, 38.89023 ], [ -77.40817, 38.88896 ], [ -77.40606, 38.88877 ], [ -77.40531, 38.88979 ], [ -77.40616, 38.89108 ], [ -77.40514, 38.8913 ], [ -77.40462, 38.89264 ], [ -77.40368, 38.89286 ], [ -77.40335, 38.89254 ], [ -77.40371, 38.89156 ], [ -77.402, 38.89157 ], [ -77.40145, 38.89093 ], [ -77.40284, 38.88996 ], [ -77.40379, 38.88994 ], [ -77.4046, 38.88862 ], [ -77.40373, 38.8878 ], [ -77.40395, 38.88694 ], [ -77.40463, 38.88647 ], [ -77.40479, 38.88462 ], [ -77.39788, 38.88192 ], [ -77.39721, 38.88288 ], [ -77.39624, 38.88297 ], [ -77.3961, 38.88084 ], [ -77.39501, 38.88025 ], [ -77.39504, 38.87984 ], [ -77.39596, 38.87959 ], [ -77.40026, 38.8814 ], [ -77.40178, 38.87985 ], [ -77.40244, 38.8797 ], [ -77.40172, 38.87941 ], [ -77.40172, 38.87899 ], [ -77.40257, 38.87761 ], [ -77.39963, 38.8764 ], [ -77.39963, 38.87437 ], [ -77.39908, 38.87377 ], [ -77.39987, 38.87332 ], [ -77.40125, 38.87354 ], [ -77.40158, 38.87296 ], [ -77.40256, 38.87305 ], [ -77.40405, 38.8719 ], [ -77.40429, 38.87125 ], [ -77.40622, 38.871 ], [ -77.40524, 38.86982 ], [ -77.4057, 38.86914 ], [ -77.40703, 38.86962 ], [ -77.4076, 38.87088 ], [ -77.40989, 38.87071 ], [ -77.41248, 38.87101 ] ], [ [ -77.40688, 38.8812 ], [ -77.4082, 38.87857 ], [ -77.40805, 38.87686 ], [ -77.40714, 38.87679 ], [ -77.40658, 38.87619 ], [ -77.40463, 38.87591 ], [ -77.40411, 38.87699 ], [ -77.40488, 38.87723 ], [ -77.40501, 38.87763 ], [ -77.40475, 38.87799 ], [ -77.40383, 38.87805 ], [ -77.40259, 38.8797 ], [ -77.40304, 38.88036 ], [ -77.40268, 38.88069 ], [ -77.40357, 38.88023 ], [ -77.40688, 38.8812 ] ], [ [ -77.41424, 38.87639 ], [ -77.41438, 38.87699 ], [ -77.41461, 38.87682 ], [ -77.41447, 38.87622 ], [ -77.41424, 38.87639 ] ], [ [ -77.4131, 38.87469 ], [ -77.41319, 38.87344 ], [ -77.41091, 38.87247 ], [ -77.41018, 38.87301 ], [ -77.40888, 38.8729 ], [ -77.40918, 38.87488 ], [ -77.4131, 38.87469 ] ], [ [ -77.40947, 38.8718 ], [ -77.40949, 38.87191 ], [ -77.41012, 38.87191 ], [ -77.40947, 38.8718 ] ], [ [ -77.40647, 38.88557 ], [ -77.40647, 38.88586 ], [ -77.40669, 38.88578 ], [ -77.40662, 38.88531 ], [ -77.40647, 38.88557 ] ], [ [ -77.40492, 38.88276 ], [ -77.40503, 38.88288 ], [ -77.40505, 38.88286 ], [ -77.40492, 38.88276 ] ], [ [ -77.40646, 38.8856 ], [ -77.40646, 38.88558 ], [ -77.40643, 38.88564 ], [ -77.40646, 38.8856 ] ] ] } },
{ "type": "Feature", "properties": { "variant": "T2s", "miles": 1.5 }, "geometry": { "type": "Polygon", "coordinates": [ [ [ -77.42123, 38.87023 ], [ -77.42215, 38.8705 ], [ -77.42192, 38.87167 ], [ -77.4226, 38.87266 ], [ -77.42261, 38.87352 ], [ -77.42578, 38.87161 ], [ -77.42629, 38.87151 ], [ -77.42712, 38.87217 ], [ -77.42689, 38.87336 ], [ -77.42352, 38.87538 ], [ -77.42358, 38.87629 ], [ -77.42453, 38.87625 ], [ -77.42477, 38.87663 ], [ -77.42409, 38.87743 ], [ -77.42303, 38.87761 ], [ -77.42244, 38.8769 ], [ -77.42096, 38.87813 ], [ -77.41938, 38.87681 ], [ -77.4169, 38.87641 ], [ -77.41676, 38.87725 ], [ -77.4152, 38.87778 ], [ -77.41307, 38.87728 ], [ -77.4125, 38.87762 ], [ -77.412, 38.87748 ], [ -77.41145, 38.87631 ], [ -77.41106, 38.87638 ], [ -77.41115, 38.87733 ], [ -77.41064, 38.87746 ], [ -77.40942, 38.87668 ], [ -77.40949, 38.8773 ], [ -77.41028, 38.87787 ], [ -77.412, 38.87772 ], [ -77.41209, 38.87912 ], [ -77.41307, 38.87926 ], [ -77.41286, 38.88085 ], [ -77.41321, 38.88153 ], [ -77.41599, 38.88307 ], [ -77.41955, 38.8803 ], [ -77.41988, 38.87959 ], [ -77.42085, 38.87992 ], [ -77.42193, 38.8798 ], [ -77.42186, 38.88066 ], [ -77.41974, 38.8814 ], [ -77.41771, 38.88319 ], [ -77.42017, 38.88356 ], [ -77.42005, 38.88436 ], [ -77.41886, 38.88542 ], [ -77.41981, 38.88537 ], [ -77.42019, 38.88586 ], [ -77.42216, 38.88455 ], [ -77.42403, 38.88483 ], [ -77.4233, 38.88703 ], [ -77.42415, 38.88766 ], [ -77.42125, 38.88939 ], [ -77.42244, 38.88986 ], [ -77.42279, 38.88906 ], [ -77.42374, 38.88887 ], [ -77.42418, 38.88969 ], [ -77.42393, 38.89044 ], [ -77.42495, 38.89083 ], [ -77.42527, 38.89156 ], [ -77.42434, 38.8918 ], [ -77.42305, 38.8913 ], [ -77.42236, 38.8914 ], [ -77.4173, 38.88925 ], [ -77.41669, 38.88981 ], [ -77.4153, 38.88932 ], [ -77.41433, 38.89019 ], [ -77.41456, 38.89117 ], [ -77.41627, 38.89123 ], [ -77.41595, 38.89072 ], [ -77.41695, 38.8902 ], [ -77.41769, 38.89057 ], [ -77.41836, 38.8917 ], [ -77.41801, 38.89251 ], [ -77.41506, 38.89315 ], [ -77.41544, 38.89455 ], [ -77.41716, 38.89526 ], [ -77.41716, 38.89568 ], [ -77.41626, 38.89597 ], [ -77.41418, 38.89538 ], [ -77.4132, 38.89423 ], [ -77.41269, 38.89293 ], [ -77.41339, 38.89205 ], [ -77.41297, 38.89042 ], [ -77.4108, 38.89011 ], [ -77.41039, 38.89153 ], [ -77.40809, 38.89157 ], [ -77.40884, 38.89192 ], [ -77.41221, 38.89169 ], [ -77.41256, 38.8924 ], [ -77.41144, 38.89289 ], [ -77.40881, 38.89307 ], [ -77.40897, 38.89361 ], [ -77.40833, 38.89442 ], [ -77.40737, 38.89465 ], [ -77.40685, 38.8953 ], [ -77.40575, 38.89515 ], [ -77.40496, 38.89406 ], [ -77.40376, 38.89506 ], [ -77.40244, 38.89489 ], [ -77.40382, 38.89699 ], [ -77.40296, 38.89735 ], [ -77.4019, 38.89671 ], [ -77.40132, 38.89791 ], [ -77.39993, 38.8982 ], [ -77.39946, 38.89752 ], [ -77.40048, 38.89672 ], [ -77.39985, 38.8964 ], [ -77.39988, 38.89599 ], [ -77.40082, 38.89549 ], [ -77.40104, 38.89479 ], [ -77.40046, 38.8945 ], [ -77.40031, 38.89292 ], [ -77.40138, 38.89193 ], [ -77.40174, 38.89059 ], [ -77.40333, 38.8898 ], [ -77.40379, 38.88994 ], [ -77.4046, 38.88862 ], [ -77.40373, 38.8878 ], [ -77.40395, 38.88694 ], [ -77.40463, 38.88647 ], [ -77.40479, 38.88462 ], [ -77.39788, 38.88192 ], [ -77.39602, 38.88368 ], [ -77.39612, 38.88466 ], [ -77.39555, 38.8859 ], [ -77.39474, 38.88636 ], [ -77.39425, 38.8862 ], [ -77.39447, 38.88512 ], [ -77.3936, 38.88369 ], [ -77.3928, 38.88389 ], [ -77.39219, 38.883 ], [ -77.39156, 38.88366 ], [ -77.39059, 38.88367 ], [ -77.38998, 38.88248 ], [ -77.3907, 38.88189 ], [ -77.39301, 38.8816 ], [ -77.39367, 38.88029 ], [ -77.39215, 38.87971 ], [ -77.39261, 38.88007 ], [ -77.39216, 38.88075 ], [ -77.39095, 38.88044 ], [ -77.38991, 38.87944 ], [ -77.38985, 38.87882 ], [ -77.38647, 38.87726 ], [ -77.38616, 38.87654 ], [ -77.38718, 38.87616 ], [ -77.38816, 38.87658 ], [ -77.38876, 38.87617 ], [ -77.38996, 38.87727 ], [ -77.39163, 38.87719 ], [ -77.39189, 38.87669 ], [ -77.39445, 38.87607 ], [ -77.39561, 38.87727 ], [ -77.39551, 38.87601 ], [ -77.3934, 38.87369 ], [ -77.39441, 38.87299 ], [ -77.39528, 38.87296 ], [ -77.39521, 38.8695 ], [ -77.39647, 38.86817 ], [ -77.3977, 38.86754 ], [ -77.40232, 38.86758 ], [ -77.40708, 38.86967 ], [ -77.40588, 38.86469 ], [ -77.40237, 38.86471 ], [ -77.40169, 38.86417 ], [ -77.40239, 38.86363 ], [ -77.40682, 38.86341 ], [ -77.40792, 38.86292 ], [ -77.40823, 38.86188 ], [ -77.40918, 38.86207 ], [ -77.40928, 38.86271 ], [ -77.41018, 38.86331 ], [ -77.40993, 38.86367 ], [ -77.40723, 38.86444 ], [ -77.4086, 38.87079 ], [ -77.40935, 38.87072 ], [ -77.40949, 38.86932 ], [ -77.41054, 38.86804 ], [ -77.41294, 38.86671 ], [ -77.41448, 38.8667 ], [ -77.41519, 38.86607 ], [ -77.41591, 38.86654 ], [ -77.41769, 38.86664 ], [ -77.41846, 38.86722 ], [ -77.41831, 38.8694 ], [ -77.41766, 38.87021 ], [ -77.41841, 38.86998 ], [ -77.42063, 38.87086 ], [ -77.42123, 38.87023 ] ], [ [ -77.40613, 38.89283 ], [ -77.40588, 38.89325 ], [ -77.40596, 38.89313 ], [ -77.40613, 38.89283 ] ], [ [ -77.40719, 38.8926 ], [ -77.40729, 38.89257 ], [ -77.40638, 38.89226 ], [ -77.40619, 38.89277 ], [ -77.40719, 38.8926 ] ], [ [ -77.40753, 38.89124 ], [ -77.40759, 38.89069 ], [ -77.40643, 38.88951 ], [ -77.40677, 38.8889 ], [ -77.40606, 38.88877 ], [ -77.40531, 38.88979 ], [ -77.40638, 38.89022 ], [ -77.40753, 38.89124 ] ], [ [ -77.40675, 38.88536 ], [ -77.40662, 38.88531 ], [ -77.40647, 38.88586 ], [ -77.40675, 38.88536 ] ], [ [ -77.40816, 38.87895 ], [ -77.40805, 38.87686 ], [ -77.40714, 38.87679 ], [ -77.40658, 38.87619 ], [ -77.40463, 38.87591 ], [ -77.40411, 38.87699 ], [ -77.4054, 38.87725 ], [ -77.4059, 38.87806 ], [ -77.40451, 38.88028 ], [ -77.40697, 38.88104 ], [ -77.40816, 38.87895 ] ], [ [ -77.41454, 38.87625 ], [ -77.41434, 38.87622 ], [ -77.41438, 38.87699 ], [ -77.41454, 38.87625 ] ], [ [ -77.41496, 38.87256 ], [ -77.41495, 38.87255 ], [ -77.41493, 38.87261 ], [ -77.41496, 38.87256 ] ], [ [ -77.41546, 38.87014 ], [ -77.41387, 38.86992 ], [ -77.41278, 38.86886 ], [ -77.41332, 38.86813 ], [ -77.41416, 38.86861 ], [ -77.41471, 38.86832 ], [ -77.41399, 38.86771 ], [ -77.41338, 38.86775 ], [ -77.41119, 38.86913 ], [ -77.41213, 38.86932 ], [ -77.41301, 38.87069 ], [ -77.41452, 38.87088 ], [ -77.41474, 38.87025 ], [ -77.41546, 38.87014 ] ], [ [ -77.41739, 38.8747 ], [ -77.41783, 38.87472 ], [ -77.41753, 38.87429 ], [ -77.41739, 38.8747 ] ], [ [ -77.41803, 38.87089 ], [ -77.41802, 38.87092 ], [ -77.41806, 38.87093 ], [ -77.41803, 38.87089 ] ], [ [ -77.42209, 38.87517 ], [ -77.4212, 38.87562 ], [ -77.42207, 38.87574 ], [ -77.42209, 38.87517 ] ], [ [ -77.4202, 38.87594 ], [ -77.42032, 38.87587 ], [ -77.42012, 38.8759 ], [ -77.4202, 38.87594 ] ], [ [ -77.421, 38.87265 ], [ -77.42075, 38.87233 ], [ -77.41996, 38.87269 ], [ -77.41886, 38.87237 ], [ -77.41869, 38.87364 ], [ -77.41929, 38.87486 ], [ -77.42053, 38.87467 ], [ -77.42016, 38.87328 ], [ -77.421, 38.87265 ] ], [ [ -77.41653, 38.86855 ], [ -77.4166, 38.86868 ], [ -77.41668, 38.86858 ], [ -77.41653, 38.86855 ] ], [ [ -77.41609, 38.87332 ], [ -77.41626, 38.8734 ], [ -77.41627, 38.8733 ], [ -77.41609, 38.87332 ] ], [ [ -77.41523, 38.8737 ], [ -77.41526, 38.87366 ], [ -77.41524, 38.87367 ], [ -77.41523, 38.8737 ] ], [ [ -77.41315, 38.88565 ], [ -77.41231, 38.8861 ], [ -77.41319, 38.88625 ], [ -77.41353, 38.88536 ], [ -77.41503, 38.88386 ], [ -77.41315, 38.88565 ] ], [ [ -77.41982, 38.88883 ], [ -77.4209, 38.88831 ], [ -77.41987, 38.8872 ], [ -77.41851, 38.88832 ], [ -77.41982, 38.88883 ] ], [ [ -77.42121, 38.88661 ], [ -77.42168, 38.88647 ], [ -77.42155, 38.88648 ], [ -77.42121, 38.88661 ] ], [ [ -77.42164, 38.8877 ], [ -77.42182, 38.88759 ], [ -77.4216, 38.88765 ], [ -77.42164, 38.8877 ] ], [ [ -77.41629, 38.88707 ], [ -77.41628, 38.88708 ], [ -77.41629, 38.88708 ], [ -77.41629, 38.88707 ] ], [ [ -77.40942, 38.89023 ], [ -77.40839, 38.89051 ], [ -77.40917, 38.89066 ], [ -77.40942, 38.89023 ] ], [ [ -77.41075, 38.88853 ], [ -77.41151, 38.88784 ], [ -77.41235, 38.8882 ], [ -77.41252, 38.88761 ], [ -77.41141, 38.88717 ], [ -77.4108, 38.88807 ], [ -77.40947, 38.88809 ], [ -77.41075, 38.88853 ] ], [ [ -77.41235, 38.88832 ], [ -77.41177, 38.88928 ], [ -77.41261, 38.88937 ], [ -77.41235, 38.88832 ] ], [ [ -77.4131, 38.87469 ], [ -77.41319, 38.87344 ], [ -77.41091, 38.87247 ], [ -77.41018, 38.87301 ], [ -77.40888, 38.8729 ], [ -77.40918, 38.87488 ], [ -77.4131, 38.87469 ] ], [ [ -77.40992, 38.87195 ], [ -77.41012, 38.87191 ], [ -77.40947, 38.8718 ], [ -77.40992, 38.87195 ] ], [ [ -77.41079, 38.86975 ], [ -77.41075, 38.8699 ], [ -77.41075, 38.8703 ], [ -77.41108, 38.87002 ], [ -77.41079, 38.86975 ] ], [ [ -77.4118, 38.88509 ], [ -77.41236, 38.88468 ], [ -77.41184, 38.88456 ], [ -77.41124, 38.88324 ], [ -77.41029, 38.88308 ], [ -77.41009, 38.8827 ], [ -77.41164, 38.8815 ], [ -77.41165, 38.87999 ], [ -77.41071, 38.87983 ], [ -77.41058, 38.87893 ], [ -77.40964, 38.87886 ], [ -77.40684, 38.88397 ], [ -77.41022, 38.88528 ], [ -77.4118, 38.88509 ] ], [ [ -77.4126, 38.88302 ], [ -77.41292, 38.88282 ], [ -77.41255, 38.8826 ], [ -77.4126, 38.88302 ] ], [ [ -77.40143, 38.87975 ], [ -77.39688, 38.87788 ], [ -77.39585, 38.87958 ], [ -77.40026, 38.8814 ], [ -77.40143, 38.87975 ] ], [ [ -77.4003, 38.87159 ], [ -77.4003, 38.87158 ], [ -77.40025, 38.87158 ], [ -77.4003, 38.87159 ] ], [ [ -77.40353, 38.89161 ], [ -77.40368, 38.89164 ], [ -77.40371, 38.89156 ], [ -77.40353, 38.89161 ] ], [ [ -77.40303, 38.88037 ], [ -77.40268, 38.88069 ], [ -77.40293, 38.88072 ], [ -77.40303, 38.88037 ] ], [ [ -77.40499, 38.88276 ], [ -77.40492, 38.88276 ], [ -77.40503, 38.88288 ], [ -77.40499, 38.88276 ] ], [ [ -77.40646, 38.88558 ], [ -77.40643, 38.88564 ], [ -77.40645, 38.88562 ], [ -77.40646, 38.88558 ] ], [ [ -77.40264, 38.89141 ], [ -77.40278, 38.89148 ], [ -77.40273, 38.89137 ], [ -77.40264, 38.89141 ] ], [ [ -77.40277, 38.89268 ], [ -77.40285, 38.89263 ], [ -77.40276, 38.89261 ], [ -77.40277, 38.89268 ] ], [ [ -77.39404, 38.87796 ], [ -77.39476, 38.87835 ], [ -77.39487, 38.87819 ], [ -77.39404, 38.87796 ] ], [ [ -77.39361, 38.88298 ], [ -77.39371, 38.88341 ], [ -77.39395, 38.88325 ], [ -77.39361, 38.88298 ] ] ] } },
{ "type": "Feature", "properties": { "variant": "T2s", "miles": 2.0 }, "geometry": { "type": "Polygon", "coordinates": [ [ [ -77.42667, 38.86617 ], [ -77.43011, 38.86622 ], [ -77.43004, 38.86708 ], [ -77.43083, 38.86737 ], [ -77.43083, 38.86778 ], [ -77.4299, 38.86846 ], [ -77.43032, 38.87219 ], [ -77.43124, 38.87226 ], [ -77.43159, 38.87294 ], [ -77.43037, 38.87461 ], [ -77.42986, 38.8745 ], [ -77.4295, 38.87374 ], [ -77.42878, 38.8741 ], [ -77.42822, 38.87354 ], [ -77.42718, 38.87475 ], [ -77.42738, 38.87593 ], [ -77.42642, 38.87607 ], [ -77.42615, 38.87567 ], [ -77.42505, 38.87661 ], [ -77.42643, 38.87776 ], [ -77.42613, 38.87906 ], [ -77.42415, 38.87857 ], [ -77.42394, 38.87811 ], [ -77.42352, 38.87867 ], [ -77.42549, 38.8796 ], [ -77.42714, 38.87977 ], [ -77.42758, 38.88045 ], [ -77.42669, 38.88124 ], [ -77.42863, 38.88099 ], [ -77.42984, 38.88216 ], [ -77.4291, 38.8839 ], [ -77.42695, 38.8845 ], [ -77.42652, 38.88608 ], [ -77.42574, 38.88642 ], [ -77.42494, 38.88629 ], [ -77.42484, 38.88719 ], [ -77.4265, 38.88676 ], [ -77.4276, 38.88804 ], [ -77.42869, 38.88755 ], [ -77.43044, 38.88769 ], [ -77.43078, 38.888 ], [ -77.43093, 38.8889 ], [ -77.42976, 38.88935 ], [ -77.43067, 38.88991 ], [ -77.43062, 38.89032 ], [ -77.42975, 38.89055 ], [ -77.42987, 38.8909 ], [ -77.43185, 38.89142 ], [ -77.43222, 38.89171 ], [ -77.43208, 38.89238 ], [ -77.4312, 38.89262 ], [ -77.42835, 38.8915 ], [ -77.42801, 38.89202 ], [ -77.43114, 38.89329 ], [ -77.43195, 38.89394 ], [ -77.43192, 38.89435 ], [ -77.43091, 38.89478 ], [ -77.41723, 38.88942 ], [ -77.41669, 38.88981 ], [ -77.4153, 38.88932 ], [ -77.41433, 38.89019 ], [ -77.41456, 38.89117 ], [ -77.41627, 38.89123 ], [ -77.41595, 38.89072 ], [ -77.41661, 38.89021 ], [ -77.41774, 38.89063 ], [ -77.41831, 38.89214 ], [ -77.41693, 38.89268 ], [ -77.41829, 38.89416 ], [ -77.41868, 38.8968 ], [ -77.42068, 38.8974 ], [ -77.42052, 38.89819 ], [ -77.42159, 38.89993 ], [ -77.42119, 38.9004 ], [ -77.42026, 38.90011 ], [ -77.41943, 38.90037 ], [ -77.41962, 38.90108 ], [ -77.41818, 38.902 ], [ -77.41771, 38.90181 ], [ -77.41701, 38.89993 ], [ -77.41666, 38.89986 ], [ -77.41573, 38.90026 ], [ -77.41625, 38.9006 ], [ -77.41556, 38.90158 ], [ -77.41294, 38.90164 ], [ -77.41231, 38.90106 ], [ -77.41136, 38.89774 ], [ -77.41051, 38.89788 ], [ -77.40976, 38.89912 ], [ -77.40869, 38.89948 ], [ -77.40789, 38.89785 ], [ -77.40709, 38.89791 ], [ -77.4068, 38.89756 ], [ -77.40783, 38.89648 ], [ -77.40939, 38.89649 ], [ -77.41001, 38.89545 ], [ -77.41089, 38.89579 ], [ -77.41092, 38.89662 ], [ -77.41273, 38.89702 ], [ -77.41383, 38.89638 ], [ -77.41313, 38.89577 ], [ -77.41396, 38.8952 ], [ -77.41269, 38.89293 ], [ -77.41339, 38.89205 ], [ -77.41297, 38.89042 ], [ -77.4108, 38.89011 ], [ -77.41039, 38.89153 ], [ -77.40809, 38.89157 ], [ -77.40884, 38.89192 ], [ -77.41221, 38.89169 ], [ -77.41256, 38.8924 ], [ -77.41218, 38.89269 ], [ -77.40881, 38.89307 ], [ -77.40897, 38.89361 ], [ -77.40833, 38.89442 ], [ -77.40737, 38.89465 ], [ -77.40685, 38.8953 ], [ -77.40575, 38.89515 ], [ -77.40496, 38.89406 ], [ -77.40376, 38.89506 ], [ -77.40244, 38.89489 ], [ -77.40333, 38.89605 ], [ -77.40592, 38.89529 ], [ -77.40668, 38.89577 ], [ -77.40595, 38.89715 ], [ -77.40524, 38.89756 ], [ -77.40559, 38.8981 ], [ -77.40433, 38.89858 ], [ -77.4053, 38.90008 ], [ -77.40445, 38.90046 ], [ -77.40209, 38.89843 ], [ -77.40116, 38.89801 ], [ -77.39993, 38.8982 ], [ -77.39947, 38.89757 ], [ -77.39759, 38.89666 ], [ -77.39484, 38.89381 ], [ -77.39505, 38.89343 ], [ -77.39603, 38.89344 ], [ -77.39836, 38.89574 ], [ -77.40007, 38.89659 ], [ -77.39988, 38.89599 ], [ -77.40082, 38.89549 ], [ -77.40104, 38.89479 ], [ -77.40046, 38.8945 ], [ -77.40031, 38.89292 ], [ -77.40138, 38.89193 ], [ -77.40174, 38.89059 ], [ -77.40333, 38.8898 ], [ -77.40379, 38.88994 ], [ -77.4046, 38.88862 ], [ -77.40373, 38.8878 ], [ -77.40395, 38.88694 ], [ -77.40463, 38.88647 ], [ -77.40479, 38.88462 ], [ -77.39788, 38.88192 ], [ -77.39602, 38.88368 ], [ -77.39596, 38.88514 ], [ -77.3954, 38.88607 ], [ -77.39474, 38.88636 ], [ -77.39405, 38.88582 ], [ -77.39447, 38.88512 ], [ -77.3936, 38.88369 ], [ -77.3928, 38.88389 ], [ -77.39219, 38.883 ], [ -77.39156, 38.88366 ], [ -77.39059, 38.88367 ], [ -77.39016, 38.88222 ], [ -77.38957, 38.88199 ], [ -77.38851, 38.88273 ], [ -77.38798, 38.8827 ], [ -77.38665, 38.8817 ], [ -77.38611, 38.88255 ], [ -77.3882, 38.88353 ], [ -77.38777, 38.88421 ], [ -77.38314, 38.88265 ], [ -77.38218, 38.88283 ], [ -77.38174, 38.88225 ], [ -77.38254, 38.88147 ], [ -77.38485, 38.8821 ], [ -77.38537, 38.88129 ], [ -77.38343, 38.8805 ], [ -77.3827, 38.87893 ], [ -77.38354, 38.8784 ], [ -77.38275, 38.87816 ], [ -77.38281, 38.8774 ], [ -77.38398, 38.87737 ], [ -77.38566, 38.8782 ], [ -77.38624, 38.87745 ], [ -77.37957, 38.87487 ], [ -77.37926, 38.87414 ], [ -77.37966, 38.87387 ], [ -77.38126, 38.87406 ], [ -77.38653, 38.87608 ], [ -77.38688, 38.87503 ], [ -77.38585, 38.87486 ], [ -77.38422, 38.87311 ], [ -77.38454, 38.87225 ], [ -77.38605, 38.87235 ], [ -77.38675, 38.87181 ], [ -77.38636, 38.87034 ], [ -77.38491, 38.87041 ], [ -77.38471, 38.86966 ], [ -77.38742, 38.86851 ], [ -77.39157, 38.86914 ], [ -77.39282, 38.86971 ], [ -77.39236, 38.8679 ], [ -77.39098, 38.868 ], [ -77.38899, 38.8674 ], [ -77.38898, 38.86592 ], [ -77.38941, 38.86568 ], [ -77.38993, 38.86575 ], [ -77.39035, 38.86672 ], [ -77.39135, 38.86694 ], [ -77.39051, 38.86504 ], [ -77.39063, 38.86404 ], [ -77.39211, 38.86345 ], [ -77.39308, 38.86384 ], [ -77.39866, 38.86255 ], [ -77.39869, 38.86221 ], [ -77.39774, 38.86189 ], [ -77.39755, 38.85999 ], [ -77.39821, 38.85968 ], [ -77.39989, 38.86055 ], [ -77.40066, 38.85978 ], [ -77.40033, 38.85925 ], [ -77.40063, 38.85891 ], [ -77.40384, 38.85888 ], [ -77.40408, 38.86021 ], [ -77.40448, 38.85996 ], [ -77.40351, 38.85662 ], [ -77.40149, 38.85653 ], [ -77.40095, 38.85589 ], [ -77.40128, 38.85543 ], [ -77.4031, 38.85545 ], [ -77.40279, 38.85422 ], [ -77.4034, 38.85355 ], [ -77.40423, 38.85396 ], [ -77.40566, 38.85923 ], [ -77.40854, 38.8578 ], [ -77.40722, 38.85619 ], [ -77.40725, 38.85578 ], [ -77.40818, 38.85552 ], [ -77.40894, 38.85661 ], [ -77.41046, 38.85768 ], [ -77.41253, 38.85818 ], [ -77.4136, 38.85886 ], [ -77.4149, 38.85885 ], [ -77.415, 38.85961 ], [ -77.41417, 38.85985 ], [ -77.41441, 38.86083 ], [ -77.41509, 38.86033 ], [ -77.41604, 38.86027 ], [ -77.41724, 38.86089 ], [ -77.41698, 38.86145 ], [ -77.41805, 38.86155 ], [ -77.41824, 38.86194 ], [ -77.41708, 38.86264 ], [ -77.41675, 38.86391 ], [ -77.41749, 38.8644 ], [ -77.41813, 38.86384 ], [ -77.41941, 38.86456 ], [ -77.41975, 38.86534 ], [ -77.41923, 38.86606 ], [ -77.41993, 38.86616 ], [ -77.42021, 38.86538 ], [ -77.42219, 38.86552 ], [ -77.4223, 38.86489 ], [ -77.42394, 38.86459 ], [ -77.42521, 38.86566 ], [ -77.42667, 38.86617 ] ], [ [ -77.41075, 38.88853 ], [ -77.41151, 38.88784 ], [ -77.41235, 38.8882 ], [ -77.41252, 38.88761 ], [ -77.41141, 38.88717 ], [ -77.4108, 38.88807 ], [ -77.40935, 38.88806 ], [ -77.41075, 38.88853 ] ], [ [ -77.41319, 38.88625 ], [ -77.41353, 38.88536 ], [ -77.41503, 38.88386 ], [ -77.41256, 38.88618 ], [ -77.41319, 38.88625 ] ], [ [ -77.40847, 38.88241 ], [ -77.40966, 38.88114 ], [ -77.40894, 38.88061 ], [ -77.40684, 38.88397 ], [ -77.40861, 38.88465 ], [ -77.40847, 38.88241 ] ], [ [ -77.40816, 38.87895 ], [ -77.40805, 38.87686 ], [ -77.40714, 38.87679 ], [ -77.40658, 38.87619 ], [ -77.40463, 38.87591 ], [ -77.40411, 38.87699 ], [ -77.4054, 38.87725 ], [ -77.4059, 38.87806 ], [ -77.40451, 38.88028 ], [ -77.40697, 38.88104 ], [ -77.40816, 38.87895 ] ], [ [ -77.40708, 38.86967 ], [ -77.40588, 38.86469 ], [ -77.4024, 38.86471 ], [ -77.40229, 38.8664 ], [ -77.4017, 38.86693 ], [ -77.40085, 38.86705 ], [ -77.40092, 38.86746 ], [ -77.40271, 38.86768 ], [ -77.40708, 38.86967 ] ], [ [ -77.40531, 38.86346 ], [ -77.40487, 38.86335 ], [ -77.40498, 38.86366 ], [ -77.40531, 38.86346 ] ], [ [ -77.40485, 38.86127 ], [ -77.40378, 38.86186 ], [ -77.40507, 38.86211 ], [ -77.40485, 38.86127 ] ], [ [ -77.4209, 38.88831 ], [ -77.41987, 38.8872 ], [ -77.41851, 38.88832 ], [ -77.41982, 38.88883 ], [ -77.4209, 38.88831 ] ], [ [ -77.41976, 38.88329 ], [ -77.4206, 38.88189 ], [ -77.42008, 38.88132 ], [ -77.41771, 38.88319 ], [ -77.41976, 38.88329 ] ], [ [ -77.41955, 38.8803 ], [ -77.41925, 38.87995 ], [ -77.41599, 38.88307 ], [ -77.41955, 38.8803 ] ], [ [ -77.42024, 38.8792 ], [ -77.42113, 38.87865 ], [ -77.42181, 38.87907 ], [ -77.42261, 38.87715 ], [ -77.42244, 38.8769 ], [ -77.42157, 38.87732 ], [ -77.42144, 38.87795 ], [ -77.42096, 38.87813 ], [ -77.41938, 38.87681 ], [ -77.4169, 38.87641 ], [ -77.41676, 38.87725 ], [ -77.41513, 38.8778 ], [ -77.41429, 38.87736 ], [ -77.4137, 38.87763 ], [ -77.41307, 38.87728 ], [ -77.4125, 38.87762 ], [ -77.412, 38.87748 ], [ -77.41145, 38.87631 ], [ -77.41106, 38.87638 ], [ -77.41115, 38.87733 ], [ -77.41064, 38.87746 ], [ -77.40942, 38.87668 ], [ -77.40949, 38.8773 ], [ -77.41028, 38.87787 ], [ -77.412, 38.87772 ], [ -77.4123, 38.87806 ], [ -77.41203, 38.87887 ], [ -77.41331, 38.87778 ], [ -77.4152, 38.878 ], [ -77.41595, 38.87846 ], [ -77.41846, 38.87857 ], [ -77.42024, 38.8792 ] ], [ [ -77.41739, 38.8747 ], [ -77.41783, 38.87472 ], [ -77.41781, 38.87469 ], [ -77.41753, 38.87429 ], [ -77.41739, 38.8747 ] ], [ [ -77.41841, 38.86998 ], [ -77.41955, 38.8703 ], [ -77.41954, 38.86897 ], [ -77.41873, 38.86938 ], [ -77.41835, 38.86921 ], [ -77.41766, 38.87021 ], [ -77.41841, 38.86998 ] ], [ [ -77.41653, 38.86855 ], [ -77.4166, 38.86868 ], [ -77.41668, 38.86858 ], [ -77.41653, 38.86855 ] ], [ [ -77.41687, 38.8656 ], [ -77.41682, 38.86551 ], [ -77.41677, 38.86558 ], [ -77.41687, 38.8656 ] ], [ [ -77.42503, 38.88304 ], [ -77.42476, 38.8831 ], [ -77.42456, 38.8836 ], [ -77.42558, 38.88377 ], [ -77.42503, 38.88304 ] ], [ [ -77.42209, 38.87517 ], [ -77.4212, 38.87562 ], [ -77.4215, 38.87563 ], [ -77.42208, 38.87573 ], [ -77.42209, 38.87517 ] ], [ [ -77.42529, 38.87192 ], [ -77.42527, 38.87 ], [ -77.42408, 38.87038 ], [ -77.42238, 38.87023 ], [ -77.42272, 38.87104 ], [ -77.42192, 38.87167 ], [ -77.4226, 38.87266 ], [ -77.42261, 38.87352 ], [ -77.42529, 38.87192 ] ], [ [ -77.42149, 38.86758 ], [ -77.41822, 38.86694 ], [ -77.41852, 38.86735 ], [ -77.41954, 38.86737 ], [ -77.42076, 38.86844 ], [ -77.42092, 38.87042 ], [ -77.42149, 38.86758 ] ], [ [ -77.42616, 38.87403 ], [ -77.42653, 38.8736 ], [ -77.42352, 38.87538 ], [ -77.42358, 38.87628 ], [ -77.42616, 38.87403 ] ], [ [ -77.42873, 38.8712 ], [ -77.42712, 38.87216 ], [ -77.42723, 38.87279 ], [ -77.42873, 38.8712 ] ], [ [ -77.4248, 38.86743 ], [ -77.42524, 38.86676 ], [ -77.42364, 38.86656 ], [ -77.42395, 38.86755 ], [ -77.42281, 38.86796 ], [ -77.42465, 38.86845 ], [ -77.42445, 38.86908 ], [ -77.42524, 38.86891 ], [ -77.42535, 38.86812 ], [ -77.4248, 38.86743 ] ], [ [ -77.4271, 38.86929 ], [ -77.42691, 38.87092 ], [ -77.42787, 38.87035 ], [ -77.4271, 38.86929 ] ], [ [ -77.42792, 38.88199 ], [ -77.42722, 38.88224 ], [ -77.42801, 38.88275 ], [ -77.42845, 38.88247 ], [ -77.42792, 38.88199 ] ], [ [ -77.42355, 38.86928 ], [ -77.42425, 38.86918 ], [ -77.42382, 38.86921 ], [ -77.42261, 38.86903 ], [ -77.42355, 38.86928 ] ], [ [ -77.42303, 38.87969 ], [ -77.42295, 38.87968 ], [ -77.42302, 38.87971 ], [ -77.42303, 38.87969 ] ], [ [ -77.42613, 38.88938 ], [ -77.42612, 38.88937 ], [ -77.42612, 38.88939 ], [ -77.42613, 38.88938 ] ], [ [ -77.42691, 38.89065 ], [ -77.42709, 38.89104 ], [ -77.42789, 38.8898 ], [ -77.42759, 38.88968 ], [ -77.42691, 38.89065 ] ], [ [ -77.42337, 38.88697 ], [ -77.4233, 38.88703 ], [ -77.42344, 38.887 ], [ -77.42337, 38.88697 ] ], [ [ -77.42182, 38.88405 ], [ -77.42211, 38.88398 ], [ -77.42198, 38.8838 ], [ -77.42182, 38.88405 ] ], [ [ -77.42252, 38.88309 ], [ -77.42248, 38.88316 ], [ -77.42257, 38.88315 ], [ -77.42252, 38.88309 ] ], [ [ -77.42364, 38.88843 ], [ -77.4236, 38.88819 ], [ -77.4233, 38.88815 ], [ -77.42364, 38.88843 ] ], [ [ -77.42024, 38.88554 ], [ -77.41992, 38.88546 ], [ -77.42019, 38.88586 ], [ -77.421, 38.88548 ], [ -77.42024, 38.88554 ] ], [ [ -77.41932, 38.88495 ], [ -77.41891, 38.88551 ], [ -77.41975, 38.88537 ], [ -77.41932, 38.88495 ] ], [ [ -77.42121, 38.88661 ], [ -77.42168, 38.88647 ], [ -77.42155, 38.88648 ], [ -77.42121, 38.88661 ] ], [ [ -77.42168, 38.88766 ], [ -77.42182, 38.88759 ], [ -77.4216, 38.88765 ], [ -77.42168, 38.88766 ] ], [ [ -77.41829, 38.86524 ], [ -77.41831, 38.86523 ], [ -77.41807, 38.86504 ], [ -77.41829, 38.86524 ] ], [ [ -77.41886, 38.87237 ], [ -77.41869, 38.87364 ], [ -77.41929, 38.87486 ], [ -77.42053, 38.87467 ], [ -77.4202, 38.87308 ], [ -77.421, 38.87265 ], [ -77.42075, 38.87233 ], [ -77.41975, 38.87265 ], [ -77.41886, 38.87237 ] ], [ [ -77.41806, 38.87093 ], [ -77.41803, 38.87089 ], [ -77.41802, 38.87092 ], [ -77.41806, 38.87093 ] ], [ [ -77.4202, 38.87594 ], [ -77.42032, 38.87587 ], [ -77.42012, 38.8759 ], [ -77.4202, 38.87594 ] ], [ [ -77.41478, 38.88138 ], [ -77.41489, 38.88138 ], [ -77.41489, 38.8813 ], [ -77.41478, 38.88138 ] ], [ [ -77.41629, 38.88707 ], [ -77.41628, 38.88708 ], [ -77.41629, 38.88708 ], [ -77.41629, 38.88707 ] ], [ [ -77.41435, 38.89896 ], [ -77.41374, 38.8985 ], [ -77.41314, 38.89893 ], [ -77.41373, 38.90045 ], [ -77.41524, 38.89924 ], [ -77.41515, 38.89886 ], [ -77.41435, 38.89896 ] ], [ [ -77.4164, 38.89608 ], [ -77.41722, 38.89634 ], [ -77.41575, 38.89574 ], [ -77.4164, 38.89608 ] ], [ [ -77.41836, 38.8993 ], [ -77.41844, 38.89985 ], [ -77.41847, 38.89968 ], [ -77.41836, 38.8993 ] ], [ [ -77.41942, 38.89853 ], [ -77.41956, 38.89824 ], [ -77.41822, 38.89783 ], [ -77.41942, 38.89853 ] ], [ [ -77.41675, 38.8943 ], [ -77.41688, 38.89432 ], [ -77.41682, 38.89422 ], [ -77.41675, 38.8943 ] ], [ [ -77.41454, 38.87625 ], [ -77.41434, 38.87622 ], [ -77.41438, 38.87699 ], [ -77.41454, 38.87625 ] ], [ [ -77.41495, 38.87255 ], [ -77.41493, 38.87261 ], [ -77.41499, 38.87259 ], [ -77.41495, 38.87255 ] ], [ [ -77.41387, 38.86992 ], [ -77.41282, 38.86898 ], [ -77.41332, 38.86813 ], [ -77.41416, 38.86861 ], [ -77.41471, 38.86832 ], [ -77.41399, 38.86771 ], [ -77.41338, 38.86775 ], [ -77.41119, 38.86913 ], [ -77.41213, 38.86932 ], [ -77.41301, 38.87069 ], [ -77.41452, 38.87088 ], [ -77.41474, 38.87025 ], [ -77.41525, 38.87016 ], [ -77.41387, 38.86992 ] ], [ [ -77.41399, 38.86549 ], [ -77.41547, 38.8652 ], [ -77.41579, 38.86472 ], [ -77.41527, 38.86407 ], [ -77.41578, 38.86219 ], [ -77.41471, 38.86215 ], [ -77.41439, 38.86321 ], [ -77.41358, 38.86386 ], [ -77.41104, 38.86424 ], [ -77.41071, 38.86494 ], [ -77.40917, 38.86542 ], [ -77.4086, 38.86689 ], [ -77.40795, 38.86704 ], [ -77.4086, 38.87079 ], [ -77.40935, 38.87072 ], [ -77.40949, 38.86932 ], [ -77.41031, 38.86823 ], [ -77.41334, 38.86662 ], [ -77.41399, 38.86549 ] ], [ [ -77.41329, 38.86203 ], [ -77.41314, 38.86211 ], [ -77.41332, 38.8622 ], [ -77.41329, 38.86203 ] ], [ [ -77.40905, 38.86115 ], [ -77.40733, 38.86134 ], [ -77.40721, 38.86052 ], [ -77.40931, 38.85945 ], [ -77.4098, 38.8599 ], [ -77.41025, 38.85967 ], [ -77.41129, 38.8601 ], [ -77.41055, 38.86103 ], [ -77.41137, 38.86089 ], [ -77.41221, 38.8613 ], [ -77.41302, 38.86092 ], [ -77.41236, 38.85938 ], [ -77.40958, 38.85852 ], [ -77.40604, 38.86049 ], [ -77.40656, 38.86227 ], [ -77.40948, 38.86181 ], [ -77.40905, 38.86115 ] ], [ [ -77.41591, 38.86654 ], [ -77.41602, 38.86651 ], [ -77.41593, 38.86647 ], [ -77.41591, 38.86654 ] ], [ [ -77.41621, 38.87324 ], [ -77.41609, 38.87332 ], [ -77.41626, 38.8734 ], [ -77.41621, 38.87324 ] ], [ [ -77.41516, 38.87368 ], [ -77.41523, 38.8737 ], [ -77.41524, 38.87367 ], [ -77.41516, 38.87368 ] ], [ [ -77.41246, 38.86302 ], [ -77.41246, 38.86306 ], [ -77.41255, 38.86304 ], [ -77.41246, 38.86302 ] ], [ [ -77.41112, 38.86311 ], [ -77.41115, 38.86302 ], [ -77.41105, 38.86303 ], [ -77.41112, 38.86311 ] ], [ [ -77.4131, 38.87469 ], [ -77.41319, 38.87344 ], [ -77.41091, 38.87247 ], [ -77.41018, 38.87301 ], [ -77.40888, 38.8729 ], [ -77.40918, 38.87488 ], [ -77.4131, 38.87469 ] ], [ [ -77.40949, 38.87191 ], [ -77.41012, 38.87191 ], [ -77.40998, 38.87185 ], [ -77.40949, 38.87191 ] ], [ [ -77.41079, 38.86975 ], [ -77.41075, 38.8699 ], [ -77.41075, 38.8703 ], [ -77.41108, 38.87003 ], [ -77.41079, 38.86975 ] ], [ [ -77.41164, 38.8815 ], [ -77.41165, 38.87999 ], [ -77.41071, 38.87983 ], [ -77.41058, 38.87893 ], [ -77.40964, 38.87886 ], [ -77.40947, 38.8796 ], [ -77.41043, 38.87981 ], [ -77.41119, 38.88072 ], [ -77.41051, 38.88216 ], [ -77.41164, 38.8815 ] ], [ [ -77.41137, 38.88352 ], [ -77.41107, 38.88427 ], [ -77.41162, 38.88423 ], [ -77.41137, 38.88352 ] ], [ [ -77.4126, 38.88302 ], [ -77.41292, 38.88282 ], [ -77.41255, 38.8826 ], [ -77.4126, 38.88302 ] ], [ [ -77.41205, 38.88461 ], [ -77.41191, 38.88506 ], [ -77.41214, 38.88491 ], [ -77.41205, 38.88461 ] ], [ [ -77.40686, 38.8634 ], [ -77.40698, 38.86335 ], [ -77.40684, 38.86335 ], [ -77.40686, 38.8634 ] ], [ [ -77.41235, 38.88832 ], [ -77.41177, 38.88928 ], [ -77.41261, 38.88937 ], [ -77.41235, 38.88832 ] ], [ [ -77.41373, 38.89834 ], [ -77.41428, 38.89792 ], [ -77.41401, 38.89774 ], [ -77.41358, 38.89795 ], [ -77.41373, 38.89834 ] ], [ [ -77.40026, 38.8814 ], [ -77.40143, 38.87975 ], [ -77.39688, 38.87788 ], [ -77.39585, 38.87958 ], [ -77.40026, 38.8814 ] ], [ [ -77.4003, 38.87158 ], [ -77.40025, 38.87158 ], [ -77.40026, 38.87159 ], [ -77.4003, 38.87158 ] ], [ [ -77.39404, 38.86877 ], [ -77.39418, 38.8694 ], [ -77.39488, 38.8685 ], [ -77.39404, 38.86877 ] ], [ [ -77.40595, 38.89294 ], [ -77.40588, 38.89325 ], [ -77.40613, 38.89283 ], [ -77.40595, 38.89294 ] ], [ [ -77.40353, 38.89161 ], [ -77.40368, 38.89164 ], [ -77.40371, 38.89156 ], [ -77.40353, 38.89161 ] ], [ [ -77.40303, 38.88037 ], [ -77.40268, 38.88069 ], [ -77.40293, 38.88072 ], [ -77.40303, 38.88037 ] ], [ [ -77.40638, 38.89226 ], [ -77.40619, 38.89277 ], [ -77.40661, 38.89262 ], [ -77.40726, 38.89259 ], [ -77.40638, 38.89226 ] ], [ [ -77.40759, 38.89069 ], [ -77.40643, 38.88951 ], [ -77.40677, 38.8889 ], [ -77.40606, 38.88877 ], [ -77.40531, 38.88979 ], [ -77.4074, 38.89119 ], [ -77.40759, 38.89069 ] ], [ [ -77.40647, 38.88557 ], [ -77.40647, 38.88586 ], [ -77.40669, 38.88578 ], [ -77.40662, 38.88531 ], [ -77.40647, 38.88557 ] ], [ [ -77.40862, 38.89028 ], [ -77.40839, 38.89051 ], [ -77.40919, 38.89066 ], [ -77.40944, 38.89039 ], [ -77.40862, 38.89028 ] ], [ [ -77.40492, 38.88276 ], [ -77.40503, 38.88288 ], [ -77.40505, 38.88286 ], [ -77.40492, 38.88276 ] ], [ [ -77.40643, 38.88564 ], [ -77.40645, 38.88562 ], [ -77.40646, 38.88558 ], [ -77.40643, 38.88564 ] ], [ [ -77.40297, 38.86364 ], [ -77.40301, 38.86364 ], [ -77.40297, 38.86362 ], [ -77.40297, 38.86364 ] ], [ [ -77.40233, 38.8968 ], [ -77.4019, 38.89671 ], [ -77.40179, 38.89705 ], [ -77.40285, 38.89753 ], [ -77.40233, 38.8968 ] ], [ [ -77.40277, 38.89268 ], [ -77.40285, 38.89263 ], [ -77.40276, 38.89261 ], [ -77.40277, 38.89268 ] ], [ [ -77.40273, 38.89137 ], [ -77.40264, 38.89141 ], [ -77.40277, 38.89148 ], [ -77.40273, 38.89137 ] ], [ [ -77.39692, 38.86409 ], [ -77.39532, 38.86445 ], [ -77.39608, 38.86554 ], [ -77.39709, 38.86564 ], [ -77.39693, 38.8664 ], [ -77.39618, 38.86676 ], [ -77.39646, 38.8671 ], [ -77.39775, 38.86666 ], [ -77.40013, 38.86679 ], [ -77.39842, 38.86602 ], [ -77.39692, 38.86409 ] ], [ [ -77.39901, 38.86347 ], [ -77.39898, 38.86337 ], [ -77.39892, 38.86344 ], [ -77.39901, 38.86347 ] ], [ [ -77.39368, 38.88305 ], [ -77.39361, 38.88298 ], [ -77.39371, 38.88341 ], [ -77.39368, 38.88305 ] ], [ [ -77.39404, 38.87796 ], [ -77.39476, 38.87835 ], [ -77.39487, 38.87819 ], [ -77.39404, 38.87796 ] ], [ [ -77.38997, 38.87726 ], [ -77.38994, 38.87726 ], [ -77.38996, 38.87727 ], [ -77.38997, 38.87726 ] ], [ [ -77.39059, 38.87688 ], [ -77.39048, 38.87709 ], [ -77.39051, 38.8771 ], [ -77.39088, 38.87709 ], [ -77.39059, 38.87688 ] ], [ [ -77.39035, 38.8763 ], [ -77.39055, 38.87647 ], [ -77.39064, 38.87632 ], [ -77.39035, 38.8763 ] ], [ [ -77.39065, 38.87566 ], [ -77.39059, 38.87565 ], [ -77.39063, 38.87568 ], [ -77.39065, 38.87566 ] ], [ [ -77.39278, 38.87473 ], [ -77.39287, 38.87472 ], [ -77.3928, 38.87463 ], [ -77.39278, 38.87473 ] ], [ [ -77.39528, 38.87296 ], [ -77.39515, 38.87129 ], [ -77.39384, 38.8711 ], [ -77.39323, 38.87188 ], [ -77.39427, 38.87305 ], [ -77.39528, 38.87296 ] ], [ [ -77.39504, 38.87705 ], [ -77.39561, 38.87727 ], [ -77.39559, 38.87702 ], [ -77.39504, 38.87705 ] ], [ [ -77.39165, 38.8771 ], [ -77.39151, 38.87714 ], [ -77.39162, 38.87719 ], [ -77.39165, 38.8771 ] ], [ [ -77.3927, 38.88166 ], [ -77.39282, 38.88155 ], [ -77.39306, 38.88123 ], [ -77.3927, 38.88166 ] ], [ [ -77.38767, 38.87392 ], [ -77.38769, 38.87392 ], [ -77.38768, 38.87391 ], [ -77.38767, 38.87392 ] ], [ [ -77.38525, 38.88009 ], [ -77.38597, 38.88031 ], [ -77.38661, 38.87927 ], [ -77.38546, 38.8792 ], [ -77.38525, 38.88009 ] ] ] } }
]
}
