{
"type": "FeatureCollection",
"name": "254",
"crs": { "type": "name", "properties": { "name": "urn:ogc:def:crs:OGC:1.3:CRS84" } },
"xy_coordinate_resolution": 1e-05,
"features": [
{ "type": "Feature", "properties": { "variant": "T0", "miles": 0.5 }, "geometry": { "type": "Polygon", "coordinates": [ [ [ -77.39741, 38.86766 ], [ -77.39836, 38.86742 ], [ -77.40085, 38.86761 ], [ -77.40083, 38.8691 ], [ -77.39919, 38.86936 ], [ -77.39938, 38.86979 ], [ -77.40139, 38.86983 ], [ -77.40321, 38.87069 ], [ -77.40273, 38.87136 ], [ -77.4019, 38.87118 ], [ -77.40138, 38.87241 ], [ -77.40041, 38.87273 ], [ -77.40033, 38.87351 ], [ -77.39671, 38.87358 ], [ -77.39675, 38.87406 ], [ -77.39804, 38.87401 ], [ -77.39874, 38.87454 ], [ -77.39807, 38.87509 ], [ -77.39683, 38.87514 ], [ -77.39669, 38.87583 ], [ -77.39586, 38.87604 ], [ -77.39493, 38.87573 ], [ -77.39301, 38.87352 ], [ -77.39269, 38.87504 ], [ -77.39343, 38.87533 ], [ -77.39352, 38.87574 ], [ -77.39155, 38.87661 ], [ -77.39111, 38.87637 ], [ -77.39109, 38.87569 ], [ -77.38912, 38.87547 ], [ -77.38835, 38.87489 ], [ -77.38727, 38.87493 ], [ -77.38707, 38.87418 ], [ -77.3883, 38.87319 ], [ -77.38909, 38.8734 ], [ -77.38977, 38.87267 ], [ -77.38887, 38.87191 ], [ -77.38838, 38.87024 ], [ -77.38886, 38.86876 ], [ -77.39183, 38.8692 ], [ -77.39282, 38.86971 ], [ -77.3923, 38.86697 ], [ -77.39273, 38.86673 ], [ -77.39466, 38.86711 ], [ -77.39478, 38.86751 ], [ -77.39386, 38.86817 ], [ -77.39418, 38.8694 ], [ -77.39554, 38.86801 ], [ -77.39481, 38.86713 ], [ -77.39494, 38.86637 ], [ -77.39545, 38.86627 ], [ -77.39741, 38.86766 ] ], [ [ -77.40025, 38.87158 ], [ -77.4003, 38.87159 ], [ -77.4003, 38.87158 ], [ -77.40025, 38.87158 ] ], [ [ -77.39427, 38.87305 ], [ -77.39528, 38.87296 ], [ -77.39515, 38.87129 ], [ -77.39384, 38.8711 ], [ -77.39341, 38.87206 ], [ -77.39427, 38.87305 ] ] ] } },
{ "type": "Feature", "properties": { "variant": "T0", "miles": 1.0 }, "geometry": { "type": "Polygon", "coordinates": [ [ [ -77.40606, 38.86849 ], [ -77.40732, 38.86789 ], [ -77.40783, 38.868 ], [ -77.40803, 38.86909 ], [ -77.40692, 38.86953 ], [ -77.4076, 38.87088 ], [ -77.41025, 38.87077 ], [ -77.41194, 38.87197 ], [ -77.41175, 38.87235 ], [ -77.40963, 38.87305 ], [ -77.40872, 38.87282 ], [ -77.40776, 38.87195 ], [ -77.40816, 38.87592 ], [ -77.40663, 38.8762 ], [ -77.40463, 38.87591 ], [ -77.40411, 38.87699 ], [ -77.4054, 38.87725 ], [ -77.4059, 38.87802 ], [ -77.40461, 38.8802 ], [ -77.40372, 38.88051 ], [ -77.40256, 38.88007 ], [ -77.40177, 38.88023 ], [ -77.40143, 38.87975 ], [ -77.39688, 38.87788 ], [ -77.3958, 38.87966 ], [ -77.39802, 38.88037 ], [ -77.39838, 38.88108 ], [ -77.39778, 38.8817 ], [ -77.39543, 38.88096 ], [ -77.39568, 38.88211 ], [ -77.395, 38.8828 ], [ -77.39378, 38.88292 ], [ -77.39214, 38.8823 ], [ -77.39223, 38.88189 ], [ -77.39301, 38.8816 ], [ -77.39367, 38.88029 ], [ -77.39215, 38.87971 ], [ -77.39256, 38.88049 ], [ -77.39163, 38.88072 ], [ -77.38993, 38.87947 ], [ -77.38934, 38.87993 ], [ -77.38846, 38.8822 ], [ -77.38665, 38.8817 ], [ -77.38612, 38.8822 ], [ -77.38559, 38.88218 ], [ -77.38537, 38.88129 ], [ -77.38424, 38.88083 ], [ -77.38395, 38.88007 ], [ -77.38484, 38.87976 ], [ -77.38597, 38.88031 ], [ -77.38661, 38.87927 ], [ -77.38574, 38.87932 ], [ -77.38542, 38.87859 ], [ -77.38624, 38.87745 ], [ -77.38169, 38.87551 ], [ -77.38212, 38.87483 ], [ -77.38331, 38.87485 ], [ -77.38653, 38.87608 ], [ -77.38692, 38.87517 ], [ -77.38585, 38.87486 ], [ -77.38551, 38.87421 ], [ -77.38578, 38.87308 ], [ -77.38727, 38.8735 ], [ -77.38636, 38.87034 ], [ -77.38603, 38.8714 ], [ -77.38516, 38.87174 ], [ -77.38467, 38.87131 ], [ -77.38472, 38.87053 ], [ -77.38414, 38.87015 ], [ -77.38424, 38.86974 ], [ -77.38619, 38.86926 ], [ -77.38644, 38.86885 ], [ -77.38576, 38.86806 ], [ -77.38606, 38.86741 ], [ -77.38544, 38.86432 ], [ -77.38692, 38.86395 ], [ -77.39149, 38.86387 ], [ -77.39211, 38.86345 ], [ -77.39304, 38.86385 ], [ -77.39736, 38.86305 ], [ -77.39838, 38.86348 ], [ -77.39806, 38.8642 ], [ -77.39532, 38.86445 ], [ -77.39608, 38.86554 ], [ -77.39709, 38.86564 ], [ -77.39693, 38.8664 ], [ -77.39618, 38.86676 ], [ -77.39646, 38.8671 ], [ -77.39872, 38.86671 ], [ -77.39856, 38.86611 ], [ -77.39927, 38.86542 ], [ -77.40131, 38.8666 ], [ -77.40314, 38.86628 ], [ -77.4035, 38.86718 ], [ -77.40606, 38.86849 ] ], [ [ -77.39487, 38.87819 ], [ -77.39412, 38.87781 ], [ -77.39362, 38.87854 ], [ -77.3942, 38.87875 ], [ -77.39487, 38.87819 ] ], [ [ -77.39561, 38.87727 ], [ -77.39437, 38.87646 ], [ -77.39269, 38.87687 ], [ -77.39219, 38.87668 ], [ -77.39151, 38.87714 ], [ -77.39254, 38.87739 ], [ -77.39334, 38.87673 ], [ -77.39404, 38.87722 ], [ -77.3944, 38.87698 ], [ -77.39561, 38.87727 ] ], [ [ -77.39278, 38.87473 ], [ -77.39287, 38.87472 ], [ -77.3928, 38.87463 ], [ -77.39278, 38.87473 ] ], [ [ -77.39528, 38.87296 ], [ -77.39515, 38.87129 ], [ -77.39384, 38.8711 ], [ -77.39323, 38.87188 ], [ -77.39431, 38.87303 ], [ -77.39528, 38.87296 ] ], [ [ -77.39433, 38.86903 ], [ -77.39488, 38.8685 ], [ -77.39404, 38.86877 ], [ -77.39419, 38.86934 ], [ -77.39433, 38.86903 ] ], [ [ -77.4003, 38.87159 ], [ -77.4003, 38.87158 ], [ -77.40025, 38.87158 ], [ -77.4003, 38.87159 ] ], [ [ -77.40957, 38.87196 ], [ -77.41012, 38.87191 ], [ -77.40979, 38.87179 ], [ -77.40957, 38.87196 ] ], [ [ -77.39282, 38.86971 ], [ -77.39236, 38.8679 ], [ -77.39168, 38.86801 ], [ -77.39101, 38.86881 ], [ -77.38889, 38.86844 ], [ -77.39282, 38.86971 ] ], [ [ -77.39088, 38.87709 ], [ -77.39059, 38.87688 ], [ -77.39055, 38.87709 ], [ -77.39088, 38.87709 ] ], [ [ -77.38997, 38.87726 ], [ -77.38994, 38.87726 ], [ -77.38996, 38.87727 ], [ -77.38997, 38.87726 ] ], [ [ -77.39053, 38.87617 ], [ -77.39035, 38.8763 ], [ -77.39055, 38.87647 ], [ -77.39053, 38.87617 ] ], [ [ -77.39063, 38.87568 ], [ -77.39065, 38.87566 ], [ -77.39059, 38.87565 ], [ -77.39063, 38.87568 ] ], [ [ -77.38769, 38.87392 ], [ -77.38767, 38.87391 ], [ -77.38767, 38.87392 ], [ -77.38769, 38.87392 ] ] ] } },
{ "type": "Feature", "properties": { "variant": "T0", "miles": 1.5 }, "geometry": { "type": "Polygon", "coordinates": [ [ [ -77.40993, 38.86367 ], [ -77.40723, 38.86444 ], [ -77.4086, 38.87079 ], [ -77.40935, 38.87072 ], [ -77.40944, 38.86946 ], [ -77.41022, 38.86832 ], [ -77.41269, 38.86681 ], [ -77.41448, 38.8667 ], [ -77.41519, 38.86607 ], [ -77.41591, 38.86654 ], [ -77.41775, 38.86679 ], [ -77.41752, 38.86753 ], [ -77.41591, 38.86776 ], [ -77.41662, 38.86873 ], [ -77.41687, 38.87034 ], [ -77.41791, 38.87033 ], [ -77.41802, 38.87092 ], [ -77.41886, 38.87117 ], [ -77.419, 38.87157 ], [ -77.41873, 38.87193 ], [ -77.41783, 38.87199 ], [ -77.41744, 38.87458 ], [ -77.41673, 38.8751 ], [ -77.41728, 38.87581 ], [ -77.41711, 38.8762 ], [ -77.41537, 38.87644 ], [ -77.41434, 38.87622 ], [ -77.41443, 38.87713 ], [ -77.4137, 38.87763 ], [ -77.41307, 38.87728 ], [ -77.4125, 38.87762 ], [ -77.412, 38.87748 ], [ -77.41145, 38.87631 ], [ -77.41106, 38.87638 ], [ -77.41115, 38.87733 ], [ -77.41064, 38.87746 ], [ -77.40942, 38.87668 ], [ -77.40949, 38.8773 ], [ -77.41028, 38.87787 ], [ -77.41148, 38.87765 ], [ -77.4123, 38.87806 ], [ -77.41192, 38.87863 ], [ -77.41206, 38.87962 ], [ -77.41116, 38.88005 ], [ -77.41071, 38.87983 ], [ -77.41058, 38.87893 ], [ -77.40964, 38.87886 ], [ -77.40778, 38.88216 ], [ -77.40673, 38.88181 ], [ -77.40813, 38.87908 ], [ -77.40805, 38.87686 ], [ -77.40714, 38.87679 ], [ -77.40658, 38.87619 ], [ -77.40463, 38.87591 ], [ -77.40411, 38.87699 ], [ -77.40534, 38.87722 ], [ -77.4059, 38.87796 ], [ -77.40451, 38.88028 ], [ -77.40495, 38.88063 ], [ -77.40464, 38.8814 ], [ -77.40542, 38.88221 ], [ -77.40478, 38.88275 ], [ -77.40368, 38.88274 ], [ -77.40655, 38.88406 ], [ -77.40604, 38.88492 ], [ -77.40552, 38.88499 ], [ -77.39788, 38.88192 ], [ -77.39602, 38.88368 ], [ -77.39596, 38.88514 ], [ -77.3954, 38.88607 ], [ -77.39474, 38.88636 ], [ -77.39405, 38.88582 ], [ -77.39447, 38.88512 ], [ -77.3936, 38.88369 ], [ -77.3928, 38.88389 ], [ -77.39219, 38.883 ], [ -77.39108, 38.88382 ], [ -77.39059, 38.88367 ], [ -77.39016, 38.88222 ], [ -77.38957, 38.88199 ], [ -77.38851, 38.88273 ], [ -77.38798, 38.8827 ], [ -77.38665, 38.8817 ], [ -77.38611, 38.88255 ], [ -77.38864, 38.88357 ], [ -77.39, 38.88475 ], [ -77.38995, 38.88516 ], [ -77.38855, 38.88541 ], [ -77.38833, 38.88614 ], [ -77.38783, 38.88628 ], [ -77.38718, 38.88562 ], [ -77.38648, 38.88604 ], [ -77.38575, 38.88559 ], [ -77.38444, 38.88648 ], [ -77.38368, 38.88652 ], [ -77.38255, 38.88758 ], [ -77.38056, 38.88831 ], [ -77.37964, 38.88804 ], [ -77.37998, 38.88733 ], [ -77.38218, 38.88646 ], [ -77.38426, 38.88307 ], [ -77.38314, 38.88265 ], [ -77.38211, 38.88341 ], [ -77.38124, 38.88305 ], [ -77.38195, 38.88193 ], [ -77.3808, 38.88063 ], [ -77.38043, 38.87922 ], [ -77.37942, 38.87847 ], [ -77.37948, 38.87806 ], [ -77.38043, 38.87786 ], [ -77.38134, 38.87837 ], [ -77.3821, 38.88026 ], [ -77.3835, 38.88157 ], [ -77.38485, 38.8821 ], [ -77.38537, 38.88129 ], [ -77.38343, 38.8805 ], [ -77.38214, 38.87779 ], [ -77.38348, 38.87638 ], [ -77.37827, 38.87436 ], [ -77.37783, 38.87513 ], [ -77.37888, 38.87597 ], [ -77.37879, 38.87638 ], [ -77.37814, 38.8768 ], [ -77.37751, 38.87673 ], [ -77.3759, 38.87566 ], [ -77.37678, 38.87394 ], [ -77.37472, 38.87324 ], [ -77.37468, 38.87273 ], [ -77.37331, 38.87201 ], [ -77.37335, 38.8716 ], [ -77.37564, 38.87134 ], [ -77.37693, 38.87212 ], [ -77.37798, 38.8717 ], [ -77.37832, 38.87201 ], [ -77.37803, 38.87282 ], [ -77.38653, 38.87608 ], [ -77.38688, 38.87503 ], [ -77.38585, 38.87486 ], [ -77.3842, 38.87302 ], [ -77.38454, 38.87225 ], [ -77.38605, 38.87235 ], [ -77.38675, 38.87181 ], [ -77.38636, 38.87034 ], [ -77.38603, 38.8714 ], [ -77.38516, 38.87174 ], [ -77.38467, 38.87131 ], [ -77.38472, 38.87053 ], [ -77.38414, 38.87015 ], [ -77.38424, 38.86974 ], [ -77.38619, 38.86926 ], [ -77.38644, 38.86885 ], [ -77.38532, 38.86862 ], [ -77.38353, 38.86703 ], [ -77.38417, 38.86646 ], [ -77.38606, 38.86741 ], [ -77.38544, 38.86529 ], [ -77.38485, 38.86598 ], [ -77.38388, 38.86576 ], [ -77.38418, 38.86418 ], [ -77.39149, 38.86387 ], [ -77.39211, 38.86345 ], [ -77.39308, 38.86384 ], [ -77.39866, 38.86255 ], [ -77.3991, 38.86187 ], [ -77.40152, 38.86193 ], [ -77.40445, 38.86298 ], [ -77.40498, 38.86366 ], [ -77.40859, 38.86275 ], [ -77.41001, 38.86291 ], [ -77.40993, 38.86367 ] ], [ [ -77.39431, 38.87797 ], [ -77.39412, 38.87781 ], [ -77.39404, 38.87796 ], [ -77.39476, 38.87835 ], [ -77.39431, 38.87797 ] ], [ [ -77.39559, 38.87702 ], [ -77.39509, 38.87694 ], [ -77.39504, 38.87705 ], [ -77.39561, 38.87727 ], [ -77.39559, 38.87702 ] ], [ [ -77.39528, 38.87296 ], [ -77.39515, 38.87129 ], [ -77.39384, 38.8711 ], [ -77.39323, 38.87188 ], [ -77.39431, 38.87303 ], [ -77.39528, 38.87296 ] ], [ [ -77.39433, 38.86903 ], [ -77.39488, 38.8685 ], [ -77.39404, 38.86877 ], [ -77.39419, 38.86934 ], [ -77.39433, 38.86903 ] ], [ [ -77.40205, 38.88195 ], [ -77.40172, 38.88197 ], [ -77.40192, 38.88205 ], [ -77.40205, 38.88195 ] ], [ [ -77.40303, 38.88037 ], [ -77.40268, 38.88069 ], [ -77.40293, 38.88072 ], [ -77.40303, 38.88037 ] ], [ [ -77.40325, 38.86712 ], [ -77.40606, 38.86849 ], [ -77.40671, 38.86843 ], [ -77.40588, 38.86469 ], [ -77.4024, 38.86471 ], [ -77.40231, 38.86635 ], [ -77.40314, 38.86628 ], [ -77.40325, 38.86712 ] ], [ [ -77.40297, 38.86364 ], [ -77.40301, 38.86364 ], [ -77.40297, 38.86362 ], [ -77.40297, 38.86364 ] ], [ [ -77.40692, 38.86953 ], [ -77.40708, 38.86967 ], [ -77.40706, 38.86951 ], [ -77.40692, 38.86953 ] ], [ [ -77.41499, 38.87259 ], [ -77.41495, 38.87255 ], [ -77.41493, 38.87261 ], [ -77.41499, 38.87259 ] ], [ [ -77.41091, 38.87247 ], [ -77.41018, 38.87301 ], [ -77.40888, 38.8729 ], [ -77.40918, 38.87488 ], [ -77.4131, 38.87469 ], [ -77.41319, 38.87344 ], [ -77.41091, 38.87247 ] ], [ [ -77.41384, 38.86768 ], [ -77.41338, 38.86775 ], [ -77.41119, 38.86913 ], [ -77.41213, 38.86932 ], [ -77.41301, 38.87069 ], [ -77.41418, 38.87088 ], [ -77.41474, 38.87025 ], [ -77.41548, 38.87028 ], [ -77.41541, 38.86948 ], [ -77.41384, 38.86768 ] ], [ [ -77.41079, 38.86975 ], [ -77.41075, 38.8699 ], [ -77.41075, 38.8703 ], [ -77.41108, 38.87003 ], [ -77.41079, 38.86975 ] ], [ [ -77.40955, 38.87196 ], [ -77.41012, 38.87191 ], [ -77.40982, 38.8718 ], [ -77.40955, 38.87196 ] ], [ [ -77.41621, 38.87324 ], [ -77.41609, 38.87332 ], [ -77.41626, 38.8734 ], [ -77.41621, 38.87324 ] ], [ [ -77.41526, 38.87366 ], [ -77.41516, 38.87368 ], [ -77.41523, 38.8737 ], [ -77.41526, 38.87366 ] ], [ [ -77.40026, 38.8814 ], [ -77.40143, 38.87975 ], [ -77.39688, 38.87788 ], [ -77.39585, 38.87958 ], [ -77.40026, 38.8814 ] ], [ [ -77.39766, 38.86667 ], [ -77.39872, 38.86671 ], [ -77.3969, 38.86409 ], [ -77.39532, 38.86445 ], [ -77.39608, 38.86554 ], [ -77.39709, 38.86564 ], [ -77.39693, 38.8664 ], [ -77.39618, 38.86676 ], [ -77.39669, 38.8671 ], [ -77.39766, 38.86667 ] ], [ [ -77.39892, 38.86344 ], [ -77.39901, 38.86347 ], [ -77.399, 38.86343 ], [ -77.39892, 38.86344 ] ], [ [ -77.4003, 38.87158 ], [ -77.40025, 38.87158 ], [ -77.40026, 38.87159 ], [ -77.4003, 38.87158 ] ], [ [ -77.39368, 38.88305 ], [ -77.39361, 38.88298 ], [ -77.39371, 38.88341 ], [ -77.39368, 38.88305 ] ], [ [ -77.39306, 38.88123 ], [ -77.3927, 38.88166 ], [ -77.39301, 38.8816 ], [ -77.39306, 38.88123 ] ], [ [ -77.39151, 38.87714 ], [ -77.39163, 38.87719 ], [ -77.39165, 38.8771 ], [ -77.39151, 38.87714 ] ], [ [ -77.39282, 38.86971 ], [ -77.39264, 38.86885 ], [ -77.38889, 38.86844 ], [ -77.39282, 38.86971 ] ], [ [ -77.39287, 38.87472 ], [ -77.3928, 38.87463 ], [ -77.39278, 38.87473 ], [ -77.39287, 38.87472 ] ], [ [ -77.39059, 38.87688 ], [ -77.39048, 38.87709 ], [ -77.39051, 38.8771 ], [ -77.39088, 38.87709 ], [ -77.39059, 38.87688 ] ], [ [ -77.38994, 38.87726 ], [ -77.38996, 38.87727 ], [ -77.38997, 38.87726 ], [ -77.38994, 38.87726 ] ], [ [ -77.39063, 38.87568 ], [ -77.39065, 38.87566 ], [ -77.39059, 38.87565 ], [ -77.39063, 38.87568 ] ], [ [ -77.39048, 38.87634 ], [ -77.39055, 38.87647 ], [ -77.39053, 38.87617 ], [ -77.39048, 38.87634 ] ], [ [ -77.38661, 38.87927 ], [ -77.38553, 38.87913 ], [ -77.38525, 38.88009 ], [ -77.38597, 38.88031 ], [ -77.38661, 38.87927 ] ], [ [ -77.38767, 38.87392 ], [ -77.38769, 38.87392 ], [ -77.38768, 38.87391 ], [ -77.38767, 38.87392 ] ], [ [ -77.38539, 38.88409 ], [ -77.38571, 38.8836 ], [ -77.38552, 38.88353 ], [ -77.38539, 38.88409 ] ] ] } },
{ "type": "Feature", "properties": { "variant": "T2s", "miles": 0.5 }, "geometry": { "type": "Polygon", "coordinates": [ [ [ -77.39741, 38.86766 ], [ -77.39836, 38.86742 ], [ -77.40085, 38.86761 ], [ -77.40083, 38.8691 ], [ -77.39919, 38.86936 ], [ -77.39938, 38.86979 ], [ -77.40139, 38.86983 ], [ -77.40321, 38.87069 ], [ -77.40273, 38.87136 ], [ -77.4019, 38.87118 ], [ -77.40138, 38.87241 ], [ -77.40041, 38.87273 ], [ -77.40033, 38.87351 ], [ -77.39671, 38.87358 ], [ -77.39675, 38.87406 ], [ -77.39804, 38.87401 ], [ -77.39874, 38.87454 ], [ -77.39807, 38.87509 ], [ -77.39683, 38.87514 ], [ -77.39669, 38.87583 ], [ -77.39586, 38.87604 ], [ -77.39493, 38.87573 ], [ -77.39301, 38.87352 ], [ -77.39269, 38.87504 ], [ -77.39343, 38.87533 ], [ -77.39352, 38.87574 ], [ -77.39155, 38.87661 ], [ -77.39111, 38.87637 ], [ -77.39109, 38.87569 ], [ -77.38912, 38.87547 ], [ -77.38835, 38.87489 ], [ -77.38727, 38.87493 ], [ -77.38707, 38.87418 ], [ -77.3883, 38.87319 ], [ -77.38909, 38.8734 ], [ -77.38977, 38.87267 ], [ -77.38887, 38.87191 ], [ -77.38838, 38.87024 ], [ -77.38886, 38.86876 ], [ -77.39183, 38.8692 ], [ -77.39282, 38.86971 ], [ -77.3923, 38.86697 ], [ -77.39273, 38.86673 ], [ -77.39466, 38.86711 ], [ -77.39478, 38.86751 ], [ -77.39386, 38.86817 ], [ -77.39418, 38.8694 ], [ -77.39554, 38.86801 ], [ -77.39481, 38.86713 ], [ -77.39494, 38.86637 ], [ -77.39545, 38.86627 ], [ -77.39741, 38.86766 ] ], [ [ -77.40025, 38.87158 ], [ -77.4003, 38.87159 ], [ -77.4003, 38.87158 ], [ -77.40025, 38.87158 ] ], [ [ -77.39427, 38.87305 ], [ -77.39528, 38.87296 ], [ -77.39515, 38.87129 ], [ -77.39384, 38.8711 ], [ -77.39341, 38.87206 ], [ -77.39427, 38.87305 ] ] ] } },
{ "type": "Feature", "properties": { "variant": "T2s", "miles": 1.0 }, "geometry": { "type": "Polygon", "coordinates": [ [ [ -77.40606, 38.86849 ], [ -77.40732, 38.86789 ], [ -77.40783, 38.868 ], [ -77.40816, 38.86869 ], [ -77.40803, 38.86909 ], [ -77.40692, 38.86953 ], [ -77.40754, 38.87046 ], [ -77.4083, 38.87553 ], [ -77.4077, 38.87613 ], [ -77.40463, 38.87591 ], [ -77.40411, 38.87699 ], [ -77.4054, 38.87725 ], [ -77.4059, 38.87806 ], [ -77.40429, 38.8804 ], [ -77.40177, 38.88023 ], [ -77.40143, 38.87975 ], [ -77.39688, 38.87788 ], [ -77.3958, 38.87966 ], [ -77.39839, 38.88066 ], [ -77.3983, 38.88122 ], [ -77.39741, 38.88148 ], [ -77.38236, 38.87551 ], [ -77.38279, 38.87482 ], [ -77.38331, 38.87485 ], [ -77.38653, 38.87608 ], [ -77.38692, 38.87517 ], [ -77.38585, 38.87486 ], [ -77.38551, 38.87421 ], [ -77.38578, 38.87308 ], [ -77.38727, 38.8735 ], [ -77.38636, 38.87034 ], [ -77.38603, 38.8714 ], [ -77.38516, 38.87174 ], [ -77.38467, 38.87131 ], [ -77.38472, 38.87053 ], [ -77.38414, 38.87015 ], [ -77.38424, 38.86974 ], [ -77.38619, 38.86926 ], [ -77.38644, 38.86885 ], [ -77.38576, 38.86806 ], [ -77.38606, 38.86741 ], [ -77.38532, 38.86473 ], [ -77.38583, 38.86412 ], [ -77.39149, 38.86387 ], [ -77.39211, 38.86345 ], [ -77.39304, 38.86385 ], [ -77.39736, 38.86305 ], [ -77.39838, 38.86348 ], [ -77.39806, 38.8642 ], [ -77.39532, 38.86445 ], [ -77.39608, 38.86554 ], [ -77.39709, 38.86564 ], [ -77.39693, 38.8664 ], [ -77.39618, 38.86676 ], [ -77.39646, 38.8671 ], [ -77.39872, 38.86671 ], [ -77.39856, 38.86611 ], [ -77.39927, 38.86542 ], [ -77.40131, 38.8666 ], [ -77.40314, 38.86628 ], [ -77.4035, 38.86718 ], [ -77.40606, 38.86849 ] ], [ [ -77.39437, 38.87646 ], [ -77.39269, 38.87687 ], [ -77.39219, 38.87668 ], [ -77.39151, 38.87714 ], [ -77.39254, 38.87739 ], [ -77.39334, 38.87673 ], [ -77.39404, 38.87722 ], [ -77.3944, 38.87698 ], [ -77.39561, 38.87727 ], [ -77.39437, 38.87646 ] ], [ [ -77.39384, 38.8711 ], [ -77.39323, 38.87188 ], [ -77.39427, 38.87305 ], [ -77.39528, 38.87296 ], [ -77.39517, 38.87152 ], [ -77.39384, 38.8711 ] ], [ [ -77.39404, 38.86877 ], [ -77.39418, 38.8694 ], [ -77.39433, 38.86903 ], [ -77.39481, 38.86859 ], [ -77.39404, 38.86877 ] ], [ [ -77.4003, 38.87159 ], [ -77.4003, 38.87158 ], [ -77.40025, 38.87158 ], [ -77.4003, 38.87159 ] ], [ [ -77.39362, 38.87854 ], [ -77.39445, 38.87885 ], [ -77.39487, 38.87819 ], [ -77.39412, 38.87781 ], [ -77.39362, 38.87854 ] ], [ [ -77.39278, 38.87473 ], [ -77.39287, 38.87472 ], [ -77.3928, 38.87463 ], [ -77.39278, 38.87473 ] ], [ [ -77.39191, 38.86922 ], [ -77.39282, 38.86971 ], [ -77.39236, 38.8679 ], [ -77.39168, 38.86801 ], [ -77.39111, 38.86879 ], [ -77.38889, 38.86844 ], [ -77.39191, 38.86922 ] ], [ [ -77.38997, 38.87726 ], [ -77.38994, 38.87726 ], [ -77.38996, 38.87727 ], [ -77.38997, 38.87726 ] ], [ [ -77.39059, 38.87688 ], [ -77.39048, 38.87709 ], [ -77.39051, 38.8771 ], [ -77.39088, 38.87709 ], [ -77.39059, 38.87688 ] ], [ [ -77.39035, 38.8763 ], [ -77.39055, 38.87647 ], [ -77.39064, 38.87632 ], [ -77.39035, 38.8763 ] ], [ [ -77.39065, 38.87566 ], [ -77.39059, 38.87565 ], [ -77.39063, 38.87568 ], [ -77.39065, 38.87566 ] ], [ [ -77.38767, 38.87392 ], [ -77.38769, 38.87392 ], [ -77.38768, 38.87391 ], [ -77.38767, 38.87392 ] ] ] } },
{ "type": "Feature", "properties": { "variant": "T2s", "miles": 1.5 }, "geometry": { "type": "Polygon", "coordinates": [ [ [ -77.40803, 38.86909 ], [ -77.40692, 38.86953 ], [ -77.4076, 38.87088 ], [ -77.40999, 38.87072 ], [ -77.41062, 38.87131 ], [ -77.41037, 38.87168 ], [ -77.40873, 38.87187 ], [ -77.40918, 38.87488 ], [ -77.4131, 38.87469 ], [ -77.41336, 38.87297 ], [ -77.41423, 38.87262 ], [ -77.41464, 38.87288 ], [ -77.41454, 38.87368 ], [ -77.41532, 38.87373 ], [ -77.41548, 38.87467 ], [ -77.41663, 38.87489 ], [ -77.41686, 38.87583 ], [ -77.41621, 38.8764 ], [ -77.41434, 38.87622 ], [ -77.41443, 38.87713 ], [ -77.4137, 38.87763 ], [ -77.41307, 38.87728 ], [ -77.4125, 38.87762 ], [ -77.412, 38.87748 ], [ -77.41145, 38.87631 ], [ -77.41106, 38.87638 ], [ -77.41115, 38.87733 ], [ -77.41064, 38.87746 ], [ -77.40942, 38.87668 ], [ -77.40949, 38.8773 ], [ -77.41028, 38.87787 ], [ -77.41148, 38.87765 ], [ -77.4123, 38.87806 ], [ -77.41192, 38.87863 ], [ -77.41206, 38.87962 ], [ -77.41116, 38.88005 ], [ -77.41071, 38.87983 ], [ -77.41058, 38.87893 ], [ -77.40964, 38.87886 ], [ -77.40778, 38.88216 ], [ -77.4069, 38.88184 ], [ -77.40823, 38.87903 ], [ -77.40805, 38.87686 ], [ -77.40714, 38.87679 ], [ -77.40658, 38.87619 ], [ -77.40463, 38.87591 ], [ -77.40411, 38.87699 ], [ -77.40534, 38.87722 ], [ -77.4059, 38.87796 ], [ -77.40451, 38.88028 ], [ -77.40495, 38.88063 ], [ -77.40464, 38.8814 ], [ -77.40542, 38.88221 ], [ -77.40478, 38.88275 ], [ -77.40368, 38.88274 ], [ -77.40655, 38.88406 ], [ -77.40639, 38.88466 ], [ -77.40555, 38.885 ], [ -77.40383, 38.884 ], [ -77.37331, 38.87201 ], [ -77.37375, 38.87133 ], [ -77.37583, 38.87138 ], [ -77.37693, 38.87212 ], [ -77.37798, 38.8717 ], [ -77.37832, 38.87201 ], [ -77.37803, 38.87282 ], [ -77.38653, 38.87608 ], [ -77.38688, 38.87503 ], [ -77.38585, 38.87486 ], [ -77.3842, 38.87302 ], [ -77.38454, 38.87225 ], [ -77.38605, 38.87235 ], [ -77.38675, 38.87181 ], [ -77.38636, 38.87034 ], [ -77.38603, 38.8714 ], [ -77.38516, 38.87174 ], [ -77.38467, 38.87131 ], [ -77.38472, 38.87053 ], [ -77.38414, 38.87015 ], [ -77.38424, 38.86974 ], [ -77.38619, 38.86926 ], [ -77.38644, 38.86885 ], [ -77.38532, 38.86862 ], [ -77.38353, 38.86703 ], [ -77.38417, 38.86646 ], [ -77.38606, 38.86741 ], [ -77.38544, 38.86529 ], [ -77.38485, 38.86598 ], [ -77.38388, 38.86576 ], [ -77.38418, 38.86418 ], [ -77.39149, 38.86387 ], [ -77.39211, 38.86345 ], [ -77.39308, 38.86384 ], [ -77.39866, 38.86255 ], [ -77.3991, 38.86187 ], [ -77.40144, 38.86191 ], [ -77.40482, 38.86328 ], [ -77.40476, 38.86458 ], [ -77.4024, 38.86471 ], [ -77.40231, 38.86635 ], [ -77.40314, 38.86628 ], [ -77.40325, 38.86712 ], [ -77.40606, 38.86849 ], [ -77.40671, 38.86843 ], [ -77.40663, 38.86692 ], [ -77.40708, 38.86671 ], [ -77.40787, 38.86717 ], [ -77.40803, 38.86909 ] ], [ [ -77.40026, 38.8814 ], [ -77.40143, 38.87975 ], [ -77.39688, 38.87788 ], [ -77.39585, 38.87958 ], [ -77.40026, 38.8814 ] ], [ [ -77.4003, 38.87159 ], [ -77.4003, 38.87158 ], [ -77.40025, 38.87158 ], [ -77.4003, 38.87159 ] ], [ [ -77.39433, 38.86903 ], [ -77.39488, 38.8685 ], [ -77.39404, 38.86877 ], [ -77.39419, 38.86934 ], [ -77.39433, 38.86903 ] ], [ [ -77.40303, 38.88037 ], [ -77.40268, 38.88069 ], [ -77.40293, 38.88072 ], [ -77.40303, 38.88037 ] ], [ [ -77.40297, 38.86364 ], [ -77.40301, 38.86364 ], [ -77.40297, 38.86362 ], [ -77.40297, 38.86364 ] ], [ [ -77.40205, 38.88195 ], [ -77.40172, 38.88197 ], [ -77.40192, 38.88205 ], [ -77.40205, 38.88195 ] ], [ [ -77.39766, 38.86667 ], [ -77.39872, 38.86671 ], [ -77.3969, 38.86409 ], [ -77.39532, 38.86445 ], [ -77.39608, 38.86554 ], [ -77.39709, 38.86564 ], [ -77.39693, 38.8664 ], [ -77.39618, 38.86676 ], [ -77.39669, 38.8671 ], [ -77.39766, 38.86667 ] ], [ [ -77.39892, 38.86344 ], [ -77.39901, 38.86347 ], [ -77.399, 38.86343 ], [ -77.39892, 38.86344 ] ], [ [ -77.39151, 38.87714 ], [ -77.39163, 38.87719 ], [ -77.39165, 38.8771 ], [ -77.39151, 38.87714 ] ], [ [ -77.39264, 38.86885 ], [ -77.38889, 38.86844 ], [ -77.39282, 38.86971 ], [ -77.39264, 38.86885 ] ], [ [ -77.39404, 38.87796 ], [ -77.39476, 38.87835 ], [ -77.39487, 38.87819 ], [ -77.39404, 38.87796 ] ], [ [ -77.39504, 38.87705 ], [ -77.39561, 38.87727 ], [ -77.39559, 38.87702 ], [ -77.39504, 38.87705 ] ], [ [ -77.39384, 38.8711 ], [ -77.39323, 38.87188 ], [ -77.39427, 38.87305 ], [ -77.39528, 38.87296 ], [ -77.39516, 38.87152 ], [ -77.39384, 38.8711 ] ], [ [ -77.39278, 38.87473 ], [ -77.39287, 38.87472 ], [ -77.3928, 38.87463 ], [ -77.39278, 38.87473 ] ], [ [ -77.39063, 38.87568 ], [ -77.39065, 38.87566 ], [ -77.39059, 38.87565 ], [ -77.39063, 38.87568 ] ], [ [ -77.39059, 38.87688 ], [ -77.39048, 38.87709 ], [ -77.39051, 38.8771 ], [ -77.39088, 38.87709 ], [ -77.39059, 38.87688 ] ], [ [ -77.38994, 38.87726 ], [ -77.38996, 38.87727 ], [ -77.38997, 38.87726 ], [ -77.38994, 38.87726 ] ], [ [ -77.39035, 38.8763 ], [ -77.39055, 38.87647 ], [ -77.39064, 38.87632 ], [ -77.39035, 38.8763 ] ], [ [ -77.38768, 38.87391 ], [ -77.38767, 38.87391 ], [ -77.38767, 38.87392 ], [ -77.38768, 38.87391 ] ] ] } }
]
}
