{
"type": "FeatureCollection",
"name": "255",
"crs": { "type": "name", "properties": { "name": "urn:ogc:def:crs:OGC:1.3:CRS84" } },
"xy_coordinate_resolution": 1e-05,
"features": [
{ "type": "Feature", "properties": { "variant": "T0", "miles": 0.5 }, "geometry": { "type": "Polygon", "coordinates": [ [ [ -77.40838, 38.87096 ], [ -77.40918, 38.87488 ], [ -77.41375, 38.87462 ], [ -77.41449, 38.87512 ], [ -77.41433, 38.87551 ], [ -77.41271, 38.87579 ], [ -77.41208, 38.87628 ], [ -77.41143, 38.87586 ], [ -77.40933, 38.87595 ], [ -77.40954, 38.87779 ], [ -77.40889, 38.87836 ], [ -77.40816, 38.87786 ], [ -77.40805, 38.87686 ], [ -77.40714, 38.87679 ], [ -77.40658, 38.87619 ], [ -77.40463, 38.87591 ], [ -77.40411, 38.87699 ], [ -77.4054, 38.87725 ], [ -77.4059, 38.87802 ], [ -77.4048, 38.87999 ], [ -77.40386, 38.88051 ], [ -77.40256, 38.88007 ], [ -77.40177, 38.88023 ], [ -77.40144, 38.87951 ], [ -77.40212, 38.87834 ], [ -77.39905, 38.87714 ], [ -77.39853, 38.87661 ], [ -77.39834, 38.87453 ], [ -77.39917, 38.87404 ], [ -77.39923, 38.873 ], [ -77.40001, 38.87255 ], [ -77.40355, 38.8733 ], [ -77.40533, 38.87199 ], [ -77.40634, 38.87178 ], [ -77.40633, 38.87037 ], [ -77.4073, 38.87028 ], [ -77.4076, 38.87088 ], [ -77.40838, 38.87096 ] ] ] } },
{ "type": "Feature", "properties": { "variant": "T0", "miles": 1.0 }, "geometry": { "type": "Polygon", "coordinates": [ [ [ -77.41687, 38.87034 ], [ -77.41745, 38.87012 ], [ -77.41802, 38.87092 ], [ -77.41886, 38.87117 ], [ -77.41868, 38.87352 ], [ -77.41929, 38.87486 ], [ -77.42189, 38.87397 ], [ -77.42285, 38.87412 ], [ -77.42266, 38.87487 ], [ -77.42012, 38.8759 ], [ -77.42149, 38.87719 ], [ -77.42144, 38.87795 ], [ -77.42046, 38.87799 ], [ -77.41938, 38.87681 ], [ -77.4169, 38.87641 ], [ -77.41676, 38.87725 ], [ -77.41513, 38.8778 ], [ -77.41429, 38.87736 ], [ -77.4137, 38.87763 ], [ -77.41307, 38.87728 ], [ -77.4125, 38.87762 ], [ -77.412, 38.87748 ], [ -77.41145, 38.87631 ], [ -77.41106, 38.87638 ], [ -77.41115, 38.87733 ], [ -77.41064, 38.87746 ], [ -77.40942, 38.87668 ], [ -77.40949, 38.8773 ], [ -77.41028, 38.87787 ], [ -77.41148, 38.87765 ], [ -77.4123, 38.87806 ], [ -77.41192, 38.87863 ], [ -77.41206, 38.87962 ], [ -77.41116, 38.88005 ], [ -77.41071, 38.87983 ], [ -77.41058, 38.87893 ], [ -77.40964, 38.87886 ], [ -77.40856, 38.88128 ], [ -77.40604, 38.88492 ], [ -77.4051, 38.88478 ], [ -77.4051, 38.88405 ], [ -77.40307, 38.88331 ], [ -77.40226, 38.88228 ], [ -77.40254, 38.88124 ], [ -77.4034, 38.88088 ], [ -77.40623, 38.88224 ], [ -77.4081, 38.87917 ], [ -77.40805, 38.87686 ], [ -77.40714, 38.87679 ], [ -77.40658, 38.87619 ], [ -77.40463, 38.87591 ], [ -77.40411, 38.87699 ], [ -77.40547, 38.87729 ], [ -77.4059, 38.87813 ], [ -77.40475, 38.88006 ], [ -77.40392, 38.8805 ], [ -77.40256, 38.88007 ], [ -77.40177, 38.88023 ], [ -77.40143, 38.87975 ], [ -77.39688, 38.87788 ], [ -77.39555, 38.87972 ], [ -77.3944, 38.87928 ], [ -77.39487, 38.87819 ], [ -77.39396, 38.87766 ], [ -77.394, 38.87725 ], [ -77.3944, 38.87698 ], [ -77.39561, 38.87727 ], [ -77.39551, 38.87601 ], [ -77.3934, 38.87369 ], [ -77.39441, 38.87299 ], [ -77.39528, 38.87296 ], [ -77.39515, 38.87129 ], [ -77.39323, 38.87098 ], [ -77.39273, 38.87032 ], [ -77.39358, 38.86993 ], [ -77.39507, 38.87021 ], [ -77.39533, 38.86928 ], [ -77.39641, 38.86822 ], [ -77.39831, 38.86742 ], [ -77.40265, 38.86766 ], [ -77.40708, 38.86967 ], [ -77.40573, 38.86422 ], [ -77.40617, 38.86354 ], [ -77.40712, 38.86407 ], [ -77.4086, 38.87079 ], [ -77.40935, 38.87072 ], [ -77.40949, 38.86932 ], [ -77.41034, 38.8682 ], [ -77.41335, 38.86662 ], [ -77.41446, 38.86678 ], [ -77.4144, 38.86755 ], [ -77.41338, 38.86775 ], [ -77.41119, 38.86913 ], [ -77.41213, 38.86932 ], [ -77.41301, 38.87069 ], [ -77.41452, 38.87088 ], [ -77.41474, 38.87025 ], [ -77.41548, 38.87028 ], [ -77.41558, 38.86921 ], [ -77.41606, 38.86902 ], [ -77.41656, 38.86915 ], [ -77.41687, 38.87034 ] ], [ [ -77.4131, 38.87469 ], [ -77.41319, 38.87344 ], [ -77.41091, 38.87247 ], [ -77.41018, 38.87301 ], [ -77.40888, 38.8729 ], [ -77.40918, 38.87488 ], [ -77.4131, 38.87469 ] ], [ [ -77.40955, 38.87196 ], [ -77.41012, 38.87191 ], [ -77.40982, 38.8718 ], [ -77.40955, 38.87196 ] ], [ [ -77.41739, 38.8747 ], [ -77.41783, 38.87472 ], [ -77.41753, 38.87429 ], [ -77.41739, 38.8747 ] ], [ [ -77.41499, 38.87259 ], [ -77.41495, 38.87255 ], [ -77.41493, 38.87261 ], [ -77.41499, 38.87259 ] ], [ [ -77.41609, 38.87332 ], [ -77.41626, 38.8734 ], [ -77.41627, 38.8733 ], [ -77.41609, 38.87332 ] ], [ [ -77.41516, 38.87368 ], [ -77.41523, 38.8737 ], [ -77.41524, 38.87367 ], [ -77.41516, 38.87368 ] ], [ [ -77.41424, 38.87639 ], [ -77.41438, 38.87699 ], [ -77.41461, 38.87682 ], [ -77.41444, 38.87622 ], [ -77.41424, 38.87639 ] ], [ [ -77.41081, 38.86966 ], [ -77.41075, 38.8703 ], [ -77.41115, 38.87013 ], [ -77.41081, 38.86966 ] ], [ [ -77.4003, 38.87159 ], [ -77.4003, 38.87158 ], [ -77.40025, 38.87158 ], [ -77.4003, 38.87159 ] ], [ [ -77.40503, 38.88288 ], [ -77.40499, 38.88276 ], [ -77.40492, 38.88276 ], [ -77.40503, 38.88288 ] ] ] } },
{ "type": "Feature", "properties": { "variant": "T0", "miles": 1.5 }, "geometry": { "type": "Polygon", "coordinates": [ [ [ -77.41749, 38.8644 ], [ -77.41813, 38.86384 ], [ -77.41863, 38.86397 ], [ -77.41963, 38.86481 ], [ -77.41957, 38.86579 ], [ -77.41799, 38.86677 ], [ -77.41852, 38.86735 ], [ -77.41954, 38.86737 ], [ -77.42076, 38.86844 ], [ -77.42092, 38.87042 ], [ -77.42156, 38.86733 ], [ -77.42215, 38.86672 ], [ -77.42301, 38.86708 ], [ -77.4226, 38.86916 ], [ -77.42398, 38.8693 ], [ -77.42568, 38.86887 ], [ -77.4258, 38.86818 ], [ -77.42627, 38.86799 ], [ -77.42702, 38.86848 ], [ -77.42691, 38.87092 ], [ -77.42887, 38.86978 ], [ -77.42983, 38.86993 ], [ -77.42993, 38.87033 ], [ -77.42712, 38.87216 ], [ -77.42685, 38.8734 ], [ -77.42352, 38.87538 ], [ -77.42358, 38.87628 ], [ -77.42616, 38.87426 ], [ -77.42754, 38.87525 ], [ -77.42738, 38.87593 ], [ -77.42642, 38.87607 ], [ -77.42615, 38.87567 ], [ -77.42505, 38.87661 ], [ -77.42643, 38.87776 ], [ -77.42613, 38.87906 ], [ -77.42415, 38.87857 ], [ -77.42394, 38.87811 ], [ -77.42352, 38.87867 ], [ -77.42536, 38.87942 ], [ -77.42576, 38.88045 ], [ -77.42539, 38.88075 ], [ -77.42486, 38.88076 ], [ -77.42429, 38.88014 ], [ -77.42358, 38.88096 ], [ -77.42266, 38.8808 ], [ -77.42192, 38.8814 ], [ -77.42135, 38.88099 ], [ -77.42022, 38.88118 ], [ -77.41985, 38.88088 ], [ -77.41953, 38.87989 ], [ -77.42041, 38.87957 ], [ -77.42085, 38.87992 ], [ -77.42181, 38.87907 ], [ -77.42267, 38.87764 ], [ -77.42244, 38.8769 ], [ -77.42096, 38.87813 ], [ -77.41938, 38.87681 ], [ -77.4169, 38.87641 ], [ -77.41676, 38.87725 ], [ -77.41513, 38.8778 ], [ -77.41429, 38.87736 ], [ -77.4137, 38.87763 ], [ -77.41307, 38.87728 ], [ -77.4125, 38.87762 ], [ -77.412, 38.87748 ], [ -77.41145, 38.87631 ], [ -77.41106, 38.87638 ], [ -77.41115, 38.87733 ], [ -77.41064, 38.87746 ], [ -77.40942, 38.87668 ], [ -77.40949, 38.8773 ], [ -77.41028, 38.87787 ], [ -77.41148, 38.87765 ], [ -77.4123, 38.87806 ], [ -77.41192, 38.87863 ], [ -77.41206, 38.87962 ], [ -77.41116, 38.88005 ], [ -77.41071, 38.87983 ], [ -77.41058, 38.87893 ], [ -77.40964, 38.87886 ], [ -77.40684, 38.88397 ], [ -77.41254, 38.88619 ], [ -77.41397, 38.88594 ], [ -77.4145, 38.88675 ], [ -77.41685, 38.88767 ], [ -77.41715, 38.8884 ], [ -77.41622, 38.88863 ], [ -77.41394, 38.88775 ], [ -77.41417, 38.88969 ], [ -77.41369, 38.89031 ], [ -77.41145, 38.89034 ], [ -77.4095, 38.88937 ], [ -77.40776, 38.89073 ], [ -77.40643, 38.88951 ], [ -77.40677, 38.8889 ], [ -77.40606, 38.88877 ], [ -77.40531, 38.88979 ], [ -77.40618, 38.89076 ], [ -77.40722, 38.89115 ], [ -77.40745, 38.89189 ], [ -77.40659, 38.89233 ], [ -77.40513, 38.89148 ], [ -77.4049, 38.89218 ], [ -77.4055, 38.89293 ], [ -77.40473, 38.89341 ], [ -77.40335, 38.89254 ], [ -77.40371, 38.89156 ], [ -77.402, 38.89157 ], [ -77.40145, 38.89093 ], [ -77.40284, 38.88996 ], [ -77.40379, 38.88994 ], [ -77.4046, 38.88862 ], [ -77.40373, 38.8878 ], [ -77.40395, 38.88694 ], [ -77.40463, 38.88647 ], [ -77.40479, 38.88462 ], [ -77.39788, 38.88192 ], [ -77.39602, 38.88368 ], [ -77.39596, 38.88514 ], [ -77.3954, 38.88607 ], [ -77.39474, 38.88636 ], [ -77.39405, 38.88582 ], [ -77.39478, 38.88417 ], [ -77.39361, 38.88298 ], [ -77.39333, 38.88389 ], [ -77.3928, 38.88389 ], [ -77.39219, 38.883 ], [ -77.39156, 38.88366 ], [ -77.39059, 38.88367 ], [ -77.38998, 38.88248 ], [ -77.39023, 38.88212 ], [ -77.39301, 38.8816 ], [ -77.39318, 38.88091 ], [ -77.39241, 38.88103 ], [ -77.39095, 38.88044 ], [ -77.38991, 38.87944 ], [ -77.38985, 38.87882 ], [ -77.38871, 38.87837 ], [ -77.38784, 38.8794 ], [ -77.38697, 38.87906 ], [ -77.3876, 38.8777 ], [ -77.38647, 38.87726 ], [ -77.38616, 38.87654 ], [ -77.38718, 38.87616 ], [ -77.38804, 38.87653 ], [ -77.38816, 38.87494 ], [ -77.38727, 38.87493 ], [ -77.38697, 38.87459 ], [ -77.38769, 38.87392 ], [ -77.38636, 38.87034 ], [ -77.38444, 38.87049 ], [ -77.38424, 38.86974 ], [ -77.38619, 38.86926 ], [ -77.38742, 38.86851 ], [ -77.39157, 38.86914 ], [ -77.39282, 38.86971 ], [ -77.39236, 38.8679 ], [ -77.38759, 38.86773 ], [ -77.38688, 38.86721 ], [ -77.38755, 38.86665 ], [ -77.38894, 38.86653 ], [ -77.38898, 38.86592 ], [ -77.38972, 38.86572 ], [ -77.38947, 38.86445 ], [ -77.39014, 38.86389 ], [ -77.39149, 38.86387 ], [ -77.39211, 38.86345 ], [ -77.39308, 38.86384 ], [ -77.39668, 38.86302 ], [ -77.39901, 38.86347 ], [ -77.39866, 38.86255 ], [ -77.3991, 38.86187 ], [ -77.40144, 38.86191 ], [ -77.40551, 38.86364 ], [ -77.40485, 38.86127 ], [ -77.40286, 38.86212 ], [ -77.40202, 38.86177 ], [ -77.40187, 38.8611 ], [ -77.40206, 38.86072 ], [ -77.40308, 38.86078 ], [ -77.40639, 38.85897 ], [ -77.40711, 38.85948 ], [ -77.40604, 38.86049 ], [ -77.40656, 38.86227 ], [ -77.40811, 38.86181 ], [ -77.41097, 38.86193 ], [ -77.41086, 38.86139 ], [ -77.41167, 38.86096 ], [ -77.41346, 38.86261 ], [ -77.41246, 38.86302 ], [ -77.41245, 38.86402 ], [ -77.41104, 38.86424 ], [ -77.41071, 38.86494 ], [ -77.40917, 38.86542 ], [ -77.4086, 38.86689 ], [ -77.40795, 38.86704 ], [ -77.4086, 38.87079 ], [ -77.40935, 38.87072 ], [ -77.40949, 38.86932 ], [ -77.41045, 38.86811 ], [ -77.41334, 38.86662 ], [ -77.41407, 38.86544 ], [ -77.41547, 38.8652 ], [ -77.41579, 38.86472 ], [ -77.41532, 38.86373 ], [ -77.41623, 38.86346 ], [ -77.41749, 38.8644 ] ], [ [ -77.40303, 38.88037 ], [ -77.40268, 38.88069 ], [ -77.40293, 38.88072 ], [ -77.40303, 38.88037 ] ], [ [ -77.40325, 38.86787 ], [ -77.40708, 38.86967 ], [ -77.40588, 38.86469 ], [ -77.4024, 38.86471 ], [ -77.40234, 38.86628 ], [ -77.40163, 38.86696 ], [ -77.40188, 38.8675 ], [ -77.40325, 38.86787 ] ], [ [ -77.40297, 38.86362 ], [ -77.40297, 38.86364 ], [ -77.40301, 38.86364 ], [ -77.40297, 38.86362 ] ], [ [ -77.4131, 38.87469 ], [ -77.41319, 38.87344 ], [ -77.41091, 38.87247 ], [ -77.41018, 38.87301 ], [ -77.40888, 38.8729 ], [ -77.40923, 38.87487 ], [ -77.4131, 38.87469 ] ], [ [ -77.40979, 38.87179 ], [ -77.40947, 38.8718 ], [ -77.40957, 38.87196 ], [ -77.40979, 38.87179 ] ], [ [ -77.41621, 38.87324 ], [ -77.41609, 38.87332 ], [ -77.41626, 38.8734 ], [ -77.41621, 38.87324 ] ], [ [ -77.41682, 38.86551 ], [ -77.41677, 38.86558 ], [ -77.41687, 38.8656 ], [ -77.41682, 38.86551 ] ], [ [ -77.42527, 38.87 ], [ -77.42408, 38.87038 ], [ -77.42238, 38.87023 ], [ -77.42272, 38.87104 ], [ -77.42192, 38.87167 ], [ -77.4226, 38.87266 ], [ -77.42261, 38.87352 ], [ -77.42529, 38.87192 ], [ -77.42527, 38.87 ] ], [ [ -77.41886, 38.87237 ], [ -77.41869, 38.87364 ], [ -77.41929, 38.87486 ], [ -77.42053, 38.87467 ], [ -77.4202, 38.87308 ], [ -77.421, 38.87265 ], [ -77.42075, 38.87233 ], [ -77.42048, 38.87262 ], [ -77.41886, 38.87237 ] ], [ [ -77.41766, 38.87021 ], [ -77.41841, 38.86998 ], [ -77.41955, 38.8703 ], [ -77.41949, 38.86893 ], [ -77.4183, 38.86945 ], [ -77.41766, 38.87021 ] ], [ [ -77.41829, 38.86524 ], [ -77.41831, 38.86523 ], [ -77.41807, 38.86504 ], [ -77.41829, 38.86524 ] ], [ [ -77.41803, 38.87089 ], [ -77.41802, 38.87092 ], [ -77.41806, 38.87093 ], [ -77.41803, 38.87089 ] ], [ [ -77.42209, 38.87517 ], [ -77.4212, 38.87562 ], [ -77.42198, 38.87574 ], [ -77.42209, 38.87517 ] ], [ [ -77.4202, 38.87594 ], [ -77.42032, 38.87587 ], [ -77.42012, 38.8759 ], [ -77.4202, 38.87594 ] ], [ [ -77.41783, 38.87472 ], [ -77.41751, 38.87425 ], [ -77.41746, 38.8745 ], [ -77.41783, 38.87472 ] ], [ [ -77.42303, 38.87969 ], [ -77.42295, 38.87968 ], [ -77.42302, 38.87971 ], [ -77.42303, 38.87969 ] ], [ [ -77.41495, 38.87255 ], [ -77.41493, 38.87261 ], [ -77.41499, 38.87259 ], [ -77.41495, 38.87255 ] ], [ [ -77.41591, 38.86654 ], [ -77.41602, 38.86651 ], [ -77.41593, 38.86647 ], [ -77.41591, 38.86654 ] ], [ [ -77.4131, 38.8679 ], [ -77.41119, 38.86913 ], [ -77.41213, 38.86932 ], [ -77.41301, 38.87069 ], [ -77.41452, 38.87088 ], [ -77.41474, 38.87025 ], [ -77.41546, 38.87014 ], [ -77.41387, 38.86992 ], [ -77.41278, 38.86886 ], [ -77.41332, 38.86813 ], [ -77.41416, 38.86861 ], [ -77.41471, 38.86832 ], [ -77.41377, 38.86768 ], [ -77.4131, 38.8679 ] ], [ [ -77.41079, 38.86975 ], [ -77.41075, 38.8699 ], [ -77.41075, 38.8703 ], [ -77.41115, 38.87013 ], [ -77.41079, 38.86975 ] ], [ [ -77.41424, 38.87639 ], [ -77.41438, 38.87699 ], [ -77.41461, 38.87682 ], [ -77.41424, 38.87639 ] ], [ [ -77.41524, 38.87367 ], [ -77.41516, 38.87368 ], [ -77.41523, 38.8737 ], [ -77.41524, 38.87367 ] ], [ [ -77.41095, 38.86305 ], [ -77.41112, 38.86311 ], [ -77.41115, 38.86302 ], [ -77.41095, 38.86305 ] ], [ [ -77.41252, 38.88761 ], [ -77.41141, 38.88717 ], [ -77.4108, 38.88807 ], [ -77.40935, 38.88806 ], [ -77.41126, 38.88875 ], [ -77.41174, 38.88927 ], [ -77.41261, 38.88937 ], [ -77.41252, 38.88761 ] ], [ [ -77.40647, 38.88557 ], [ -77.40647, 38.88586 ], [ -77.40669, 38.88578 ], [ -77.40675, 38.88536 ], [ -77.40647, 38.88557 ] ], [ [ -77.40816, 38.87895 ], [ -77.40805, 38.87686 ], [ -77.40714, 38.87679 ], [ -77.40658, 38.87619 ], [ -77.40463, 38.87591 ], [ -77.40411, 38.87699 ], [ -77.4054, 38.87725 ], [ -77.4059, 38.87806 ], [ -77.40451, 38.88028 ], [ -77.40688, 38.8812 ], [ -77.40816, 38.87895 ] ], [ [ -77.40693, 38.86337 ], [ -77.40698, 38.86335 ], [ -77.40684, 38.86335 ], [ -77.40693, 38.86337 ] ], [ [ -77.40492, 38.88276 ], [ -77.40503, 38.88288 ], [ -77.40505, 38.88286 ], [ -77.40492, 38.88276 ] ], [ [ -77.40646, 38.88558 ], [ -77.40643, 38.88564 ], [ -77.40645, 38.88562 ], [ -77.40646, 38.88558 ] ], [ [ -77.39412, 38.87781 ], [ -77.39404, 38.87796 ], [ -77.39476, 38.87835 ], [ -77.39412, 38.87781 ] ], [ [ -77.39509, 38.87694 ], [ -77.39504, 38.87705 ], [ -77.39561, 38.87727 ], [ -77.39509, 38.87694 ] ], [ [ -77.39384, 38.8711 ], [ -77.39323, 38.87188 ], [ -77.39427, 38.87305 ], [ -77.39528, 38.87296 ], [ -77.39517, 38.87152 ], [ -77.39384, 38.8711 ] ], [ [ -77.39433, 38.86903 ], [ -77.39488, 38.8685 ], [ -77.39404, 38.86877 ], [ -77.39419, 38.86931 ], [ -77.39433, 38.86903 ] ], [ [ -77.40026, 38.8814 ], [ -77.40143, 38.87975 ], [ -77.39688, 38.87788 ], [ -77.39585, 38.87958 ], [ -77.40026, 38.8814 ] ], [ [ -77.39775, 38.86666 ], [ -77.40013, 38.86679 ], [ -77.39809, 38.86579 ], [ -77.3969, 38.86409 ], [ -77.39532, 38.86445 ], [ -77.39608, 38.86554 ], [ -77.39709, 38.86564 ], [ -77.39693, 38.8664 ], [ -77.39618, 38.86676 ], [ -77.39669, 38.8671 ], [ -77.39775, 38.86666 ] ], [ [ -77.4003, 38.87158 ], [ -77.40025, 38.87158 ], [ -77.40026, 38.87159 ], [ -77.4003, 38.87158 ] ], [ [ -77.4005, 38.86571 ], [ -77.401, 38.86593 ], [ -77.40101, 38.86548 ], [ -77.39997, 38.86547 ], [ -77.4005, 38.86571 ] ], [ [ -77.39151, 38.87714 ], [ -77.39163, 38.87719 ], [ -77.39165, 38.8771 ], [ -77.39151, 38.87714 ] ], [ [ -77.3928, 38.87463 ], [ -77.39278, 38.87473 ], [ -77.39287, 38.87472 ], [ -77.3928, 38.87463 ] ], [ [ -77.39063, 38.87568 ], [ -77.39065, 38.87566 ], [ -77.39059, 38.87565 ], [ -77.39063, 38.87568 ] ], [ [ -77.39059, 38.87688 ], [ -77.39048, 38.87709 ], [ -77.39051, 38.8771 ], [ -77.39088, 38.87709 ], [ -77.39059, 38.87688 ] ], [ [ -77.38994, 38.87726 ], [ -77.38996, 38.87727 ], [ -77.38997, 38.87726 ], [ -77.38994, 38.87726 ] ], [ [ -77.39048, 38.87634 ], [ -77.39055, 38.87647 ], [ -77.39053, 38.87617 ], [ -77.39048, 38.87634 ] ] ] } },
{ "type": "Feature", "properties": { "variant": "T2s", "miles": 0.5 }, "geometry": { "type": "Polygon", "coordinates": [ [ [ -77.40838, 38.87096 ], [ -77.40918, 38.87488 ], [ -77.41375, 38.87462 ], [ -77.41449, 38.87512 ], [ -77.41433, 38.87551 ], [ -77.41271, 38.87579 ], [ -77.41208, 38.87628 ], [ -77.41143, 38.87586 ], [ -77.40933, 38.87595 ], [ -77.40954, 38.87779 ], [ -77.40889, 38.87836 ], [ -77.40816, 38.87786 ], [ -77.40805, 38.87686 ], [ -77.40714, 38.87679 ], [ -77.40658, 38.87619 ], [ -77.40463, 38.87591 ], [ -77.40411, 38.87699 ], [ -77.4054, 38.87725 ], [ -77.4059, 38.87802 ], [ -77.4048, 38.87999 ], [ -77.40386, 38.88051 ], [ -77.40256, 38.88007 ], [ -77.40177, 38.88023 ], [ -77.40144, 38.87951 ], [ -77.40212, 38.87834 ], [ -77.39905, 38.87714 ], [ -77.39853, 38.87661 ], [ -77.39834, 38.87453 ], [ -77.39917, 38.87404 ], [ -77.39923, 38.873 ], [ -77.40001, 38.87255 ], [ -77.40355, 38.8733 ], [ -77.40533, 38.87199 ], [ -77.40634, 38.87178 ], [ -77.40633, 38.87037 ], [ -77.4073, 38.87028 ], [ -77.4076, 38.87088 ], [ -77.40838, 38.87096 ] ] ] } },
{ "type": "Feature", "properties": { "variant": "T2s", "miles": 1.0 }, "geometry": { "type": "Polygon", "coordinates": [ [ [ -77.41687, 38.87034 ], [ -77.41745, 38.87012 ], [ -77.41802, 38.87092 ], [ -77.41886, 38.87117 ], [ -77.41868, 38.87352 ], [ -77.41929, 38.87486 ], [ -77.42189, 38.87397 ], [ -77.42285, 38.87412 ], [ -77.42266, 38.87487 ], [ -77.42012, 38.8759 ], [ -77.42149, 38.87719 ], [ -77.42144, 38.87795 ], [ -77.42046, 38.87799 ], [ -77.41938, 38.87681 ], [ -77.4169, 38.87641 ], [ -77.41676, 38.87725 ], [ -77.41513, 38.8778 ], [ -77.41429, 38.87736 ], [ -77.4137, 38.87763 ], [ -77.41307, 38.87728 ], [ -77.4125, 38.87762 ], [ -77.412, 38.87748 ], [ -77.41145, 38.87631 ], [ -77.41106, 38.87638 ], [ -77.41115, 38.87733 ], [ -77.41064, 38.87746 ], [ -77.40942, 38.87668 ], [ -77.40949, 38.8773 ], [ -77.41028, 38.87787 ], [ -77.41148, 38.87765 ], [ -77.4123, 38.87806 ], [ -77.41192, 38.87863 ], [ -77.41206, 38.87962 ], [ -77.41116, 38.88005 ], [ -77.41071, 38.87983 ], [ -77.41058, 38.87893 ], [ -77.40964, 38.87886 ], [ -77.40856, 38.88128 ], [ -77.40604, 38.88492 ], [ -77.4051, 38.88478 ], [ -77.4051, 38.88405 ], [ -77.40307, 38.88331 ], [ -77.40226, 38.88228 ], [ -77.40254, 38.88124 ], [ -77.4034, 38.88088 ], [ -77.40623, 38.88224 ], [ -77.4081, 38.87917 ], [ -77.40805, 38.87686 ], [ -77.40714, 38.87679 ], [ -77.40658, 38.87619 ], [ -77.40463, 38.87591 ], [ -77.40411, 38.87699 ], [ -77.40547, 38.87729 ], [ -77.4059, 38.87813 ], [ -77.40475, 38.88006 ], [ -77.40392, 38.8805 ], [ -77.40256, 38.88007 ], [ -77.40177, 38.88023 ], [ -77.40143, 38.87975 ], [ -77.39688, 38.87788 ], [ -77.39555, 38.87972 ], [ -77.3944, 38.87928 ], [ -77.39487, 38.87819 ], [ -77.39396, 38.87766 ], [ -77.394, 38.87725 ], [ -77.3944, 38.87698 ], [ -77.39561, 38.87727 ], [ -77.39551, 38.87601 ], [ -77.3934, 38.87369 ], [ -77.39441, 38.87299 ], [ -77.39528, 38.87296 ], [ -77.39515, 38.87129 ], [ -77.39323, 38.87098 ], [ -77.39273, 38.87032 ], [ -77.39358, 38.86993 ], [ -77.39507, 38.87021 ], [ -77.3955, 38.86905 ], [ -77.39762, 38.86757 ], [ -77.40271, 38.86768 ], [ -77.40686, 38.86949 ], [ -77.4076, 38.87088 ], [ -77.40935, 38.87072 ], [ -77.40949, 38.86932 ], [ -77.41034, 38.8682 ], [ -77.41269, 38.86681 ], [ -77.41398, 38.8666 ], [ -77.41446, 38.86678 ], [ -77.4144, 38.86755 ], [ -77.41338, 38.86775 ], [ -77.41119, 38.86913 ], [ -77.41213, 38.86932 ], [ -77.41301, 38.87069 ], [ -77.41452, 38.87088 ], [ -77.41474, 38.87025 ], [ -77.41548, 38.87028 ], [ -77.41558, 38.86921 ], [ -77.41606, 38.86902 ], [ -77.41656, 38.86915 ], [ -77.41687, 38.87034 ] ], [ [ -77.4131, 38.87469 ], [ -77.41319, 38.87344 ], [ -77.41091, 38.87247 ], [ -77.41018, 38.87301 ], [ -77.40888, 38.8729 ], [ -77.40918, 38.87488 ], [ -77.4131, 38.87469 ] ], [ [ -77.40979, 38.87179 ], [ -77.40947, 38.8718 ], [ -77.40957, 38.87196 ], [ -77.40979, 38.87179 ] ], [ [ -77.41739, 38.8747 ], [ -77.41783, 38.87472 ], [ -77.41753, 38.87429 ], [ -77.41739, 38.8747 ] ], [ [ -77.41499, 38.87259 ], [ -77.41495, 38.87255 ], [ -77.41493, 38.87261 ], [ -77.41499, 38.87259 ] ], [ [ -77.41609, 38.87332 ], [ -77.41626, 38.8734 ], [ -77.41627, 38.8733 ], [ -77.41609, 38.87332 ] ], [ [ -77.41516, 38.87368 ], [ -77.41523, 38.8737 ], [ -77.41524, 38.87367 ], [ -77.41516, 38.87368 ] ], [ [ -77.41424, 38.87639 ], [ -77.41438, 38.87699 ], [ -77.41461, 38.87682 ], [ -77.41444, 38.87622 ], [ -77.41424, 38.87639 ] ], [ [ -77.41081, 38.86966 ], [ -77.41075, 38.8703 ], [ -77.41115, 38.87013 ], [ -77.41081, 38.86966 ] ], [ [ -77.4003, 38.87158 ], [ -77.40025, 38.87158 ], [ -77.40026, 38.87159 ], [ -77.4003, 38.87158 ] ], [ [ -77.40503, 38.88288 ], [ -77.40499, 38.88276 ], [ -77.40492, 38.88276 ], [ -77.40503, 38.88288 ] ] ] } },
{ "type": "Feature", "properties": { "variant": "T2s", "miles": 1.5 }, "geometry": { "type": "Polygon", "coordinates": [ [ [ -77.41863, 38.86397 ], [ -77.41967, 38.86488 ], [ -77.41952, 38.86584 ], [ -77.41799, 38.86677 ], [ -77.41852, 38.86735 ], [ -77.41954, 38.86737 ], [ -77.42076, 38.86844 ], [ -77.42092, 38.87042 ], [ -77.42156, 38.86733 ], [ -77.42215, 38.86672 ], [ -77.42301, 38.86708 ], [ -77.4226, 38.86916 ], [ -77.42398, 38.8693 ], [ -77.42568, 38.86887 ], [ -77.4258, 38.86818 ], [ -77.42627, 38.86799 ], [ -77.42702, 38.86848 ], [ -77.42691, 38.87092 ], [ -77.42887, 38.86978 ], [ -77.42983, 38.86993 ], [ -77.42963, 38.87068 ], [ -77.42712, 38.87216 ], [ -77.42689, 38.87336 ], [ -77.42352, 38.87538 ], [ -77.42358, 38.87628 ], [ -77.42616, 38.87426 ], [ -77.42751, 38.87517 ], [ -77.42738, 38.87593 ], [ -77.42642, 38.87607 ], [ -77.42615, 38.87567 ], [ -77.42505, 38.87661 ], [ -77.42643, 38.87776 ], [ -77.42613, 38.87906 ], [ -77.42415, 38.87857 ], [ -77.42394, 38.87811 ], [ -77.42352, 38.87867 ], [ -77.42514, 38.87922 ], [ -77.42576, 38.88045 ], [ -77.42486, 38.88076 ], [ -77.42429, 38.88014 ], [ -77.42358, 38.88096 ], [ -77.42266, 38.8808 ], [ -77.42192, 38.8814 ], [ -77.42135, 38.88099 ], [ -77.42022, 38.88118 ], [ -77.41985, 38.88088 ], [ -77.41953, 38.87989 ], [ -77.42041, 38.87957 ], [ -77.42085, 38.87992 ], [ -77.42181, 38.87907 ], [ -77.42267, 38.87764 ], [ -77.42244, 38.8769 ], [ -77.42096, 38.87813 ], [ -77.41938, 38.87681 ], [ -77.4169, 38.87641 ], [ -77.41676, 38.87725 ], [ -77.41513, 38.8778 ], [ -77.41429, 38.87736 ], [ -77.4137, 38.87763 ], [ -77.41307, 38.87728 ], [ -77.4125, 38.87762 ], [ -77.412, 38.87748 ], [ -77.41145, 38.87631 ], [ -77.41106, 38.87638 ], [ -77.41115, 38.87733 ], [ -77.41064, 38.87746 ], [ -77.40942, 38.87668 ], [ -77.40949, 38.8773 ], [ -77.41028, 38.87787 ], [ -77.41148, 38.87765 ], [ -77.4123, 38.87806 ], [ -77.41192, 38.87863 ], [ -77.41206, 38.87962 ], [ -77.41116, 38.88005 ], [ -77.41071, 38.87983 ], [ -77.41058, 38.87893 ], [ -77.40964, 38.87886 ], [ -77.40684, 38.88397 ], [ -77.41254, 38.88619 ], [ -77.41397, 38.88594 ], [ -77.4145, 38.88675 ], [ -77.41685, 38.88767 ], [ -77.41715, 38.8884 ], [ -77.41622, 38.88863 ], [ -77.41141, 38.88717 ], [ -77.4108, 38.88807 ], [ -77.40935, 38.88806 ], [ -77.41126, 38.88875 ], [ -77.41159, 38.88908 ], [ -77.41131, 38.88977 ], [ -77.41042, 38.88991 ], [ -77.4095, 38.88937 ], [ -77.40776, 38.89073 ], [ -77.40702, 38.89023 ], [ -77.40817, 38.88896 ], [ -77.40606, 38.88877 ], [ -77.40531, 38.88979 ], [ -77.40616, 38.89108 ], [ -77.40514, 38.8913 ], [ -77.40462, 38.89264 ], [ -77.40368, 38.89286 ], [ -77.40335, 38.89254 ], [ -77.40371, 38.89156 ], [ -77.402, 38.89157 ], [ -77.40145, 38.89093 ], [ -77.40284, 38.88996 ], [ -77.40379, 38.88994 ], [ -77.4046, 38.88862 ], [ -77.40373, 38.8878 ], [ -77.40395, 38.88694 ], [ -77.40463, 38.88647 ], [ -77.40479, 38.88462 ], [ -77.39788, 38.88192 ], [ -77.39721, 38.88288 ], [ -77.39624, 38.88297 ], [ -77.396, 38.88094 ], [ -77.38647, 38.87726 ], [ -77.38616, 38.87654 ], [ -77.38656, 38.87627 ], [ -77.38804, 38.87653 ], [ -77.38816, 38.87494 ], [ -77.38727, 38.87493 ], [ -77.38697, 38.87459 ], [ -77.38769, 38.87392 ], [ -77.38636, 38.87034 ], [ -77.38444, 38.87049 ], [ -77.38424, 38.86974 ], [ -77.38619, 38.86926 ], [ -77.38742, 38.86851 ], [ -77.39157, 38.86914 ], [ -77.39282, 38.86971 ], [ -77.39236, 38.8679 ], [ -77.38759, 38.86773 ], [ -77.38688, 38.86721 ], [ -77.38755, 38.86665 ], [ -77.38894, 38.86653 ], [ -77.38898, 38.86592 ], [ -77.38972, 38.86572 ], [ -77.38947, 38.86445 ], [ -77.39014, 38.86389 ], [ -77.39149, 38.86387 ], [ -77.39211, 38.86345 ], [ -77.39308, 38.86384 ], [ -77.39668, 38.86302 ], [ -77.39901, 38.86347 ], [ -77.39866, 38.86255 ], [ -77.3991, 38.86187 ], [ -77.40144, 38.86191 ], [ -77.40551, 38.86364 ], [ -77.40485, 38.86127 ], [ -77.40286, 38.86212 ], [ -77.40202, 38.86177 ], [ -77.40187, 38.8611 ], [ -77.40206, 38.86072 ], [ -77.40308, 38.86078 ], [ -77.40639, 38.85897 ], [ -77.40711, 38.85948 ], [ -77.40604, 38.86049 ], [ -77.40656, 38.86227 ], [ -77.40811, 38.86181 ], [ -77.41097, 38.86193 ], [ -77.41086, 38.86139 ], [ -77.41167, 38.86096 ], [ -77.41346, 38.86261 ], [ -77.41246, 38.86302 ], [ -77.41245, 38.86402 ], [ -77.41104, 38.86424 ], [ -77.41071, 38.86494 ], [ -77.40917, 38.86542 ], [ -77.4086, 38.86689 ], [ -77.40795, 38.86704 ], [ -77.4086, 38.87079 ], [ -77.40935, 38.87072 ], [ -77.40944, 38.86946 ], [ -77.41022, 38.86832 ], [ -77.41334, 38.86662 ], [ -77.41399, 38.86549 ], [ -77.41523, 38.86517 ], [ -77.41687, 38.8656 ], [ -77.41556, 38.86453 ], [ -77.41532, 38.86373 ], [ -77.41623, 38.86346 ], [ -77.41749, 38.8644 ], [ -77.41766, 38.86402 ], [ -77.41863, 38.86397 ] ], [ [ -77.40303, 38.88037 ], [ -77.40268, 38.88069 ], [ -77.40293, 38.88072 ], [ -77.40303, 38.88037 ] ], [ [ -77.40325, 38.86787 ], [ -77.40708, 38.86967 ], [ -77.40588, 38.86469 ], [ -77.4024, 38.86471 ], [ -77.40234, 38.86628 ], [ -77.40163, 38.86696 ], [ -77.40188, 38.8675 ], [ -77.40325, 38.86787 ] ], [ [ -77.40297, 38.86362 ], [ -77.40297, 38.86364 ], [ -77.40301, 38.86364 ], [ -77.40297, 38.86362 ] ], [ [ -77.4131, 38.87469 ], [ -77.41319, 38.87344 ], [ -77.41091, 38.87247 ], [ -77.41018, 38.87301 ], [ -77.40888, 38.8729 ], [ -77.40918, 38.87488 ], [ -77.4131, 38.87469 ] ], [ [ -77.41783, 38.87472 ], [ -77.41751, 38.87425 ], [ -77.41739, 38.8747 ], [ -77.41783, 38.87472 ] ], [ [ -77.41886, 38.87237 ], [ -77.41869, 38.87364 ], [ -77.41929, 38.87486 ], [ -77.42053, 38.87467 ], [ -77.4202, 38.87308 ], [ -77.421, 38.87265 ], [ -77.42075, 38.87233 ], [ -77.42048, 38.87262 ], [ -77.41886, 38.87237 ] ], [ [ -77.41766, 38.87021 ], [ -77.41841, 38.86998 ], [ -77.41955, 38.8703 ], [ -77.41949, 38.86893 ], [ -77.4183, 38.86945 ], [ -77.41766, 38.87021 ] ], [ [ -77.41831, 38.86523 ], [ -77.41807, 38.86504 ], [ -77.41808, 38.86507 ], [ -77.41831, 38.86523 ] ], [ [ -77.42408, 38.87038 ], [ -77.42238, 38.87023 ], [ -77.42272, 38.87104 ], [ -77.42192, 38.87167 ], [ -77.4226, 38.87266 ], [ -77.42261, 38.87352 ], [ -77.42529, 38.87192 ], [ -77.42553, 38.8706 ], [ -77.42509, 38.87004 ], [ -77.42408, 38.87038 ] ], [ [ -77.41803, 38.87089 ], [ -77.41802, 38.87092 ], [ -77.41806, 38.87093 ], [ -77.41803, 38.87089 ] ], [ [ -77.42209, 38.87517 ], [ -77.4212, 38.87562 ], [ -77.42198, 38.87574 ], [ -77.42209, 38.87517 ] ], [ [ -77.4202, 38.87594 ], [ -77.42032, 38.87587 ], [ -77.42012, 38.8759 ], [ -77.4202, 38.87594 ] ], [ [ -77.42303, 38.87969 ], [ -77.42295, 38.87968 ], [ -77.42302, 38.87971 ], [ -77.42303, 38.87969 ] ], [ [ -77.41602, 38.86651 ], [ -77.4158, 38.86642 ], [ -77.41591, 38.86654 ], [ -77.41602, 38.86651 ] ], [ [ -77.41369, 38.86982 ], [ -77.41278, 38.86886 ], [ -77.41332, 38.86813 ], [ -77.41416, 38.86861 ], [ -77.41471, 38.86832 ], [ -77.41399, 38.86771 ], [ -77.41338, 38.86775 ], [ -77.41119, 38.86913 ], [ -77.41213, 38.86932 ], [ -77.41301, 38.87069 ], [ -77.41452, 38.87088 ], [ -77.41474, 38.87025 ], [ -77.41548, 38.87028 ], [ -77.41369, 38.86982 ] ], [ [ -77.41079, 38.86975 ], [ -77.41075, 38.8699 ], [ -77.41075, 38.8703 ], [ -77.41115, 38.87013 ], [ -77.41079, 38.86975 ] ], [ [ -77.41627, 38.8733 ], [ -77.41621, 38.87324 ], [ -77.41609, 38.87332 ], [ -77.41627, 38.8733 ] ], [ [ -77.41523, 38.8737 ], [ -77.41526, 38.87366 ], [ -77.41524, 38.87367 ], [ -77.41523, 38.8737 ] ], [ [ -77.41495, 38.87255 ], [ -77.41493, 38.87261 ], [ -77.41499, 38.87259 ], [ -77.41495, 38.87255 ] ], [ [ -77.41424, 38.87639 ], [ -77.41438, 38.87699 ], [ -77.41461, 38.87681 ], [ -77.41424, 38.87639 ] ], [ [ -77.41105, 38.86303 ], [ -77.41095, 38.86305 ], [ -77.41112, 38.86311 ], [ -77.41105, 38.86303 ] ], [ [ -77.40647, 38.88557 ], [ -77.40647, 38.88586 ], [ -77.40669, 38.88578 ], [ -77.40675, 38.88536 ], [ -77.40647, 38.88557 ] ], [ [ -77.40816, 38.87895 ], [ -77.40805, 38.87686 ], [ -77.40714, 38.87679 ], [ -77.40658, 38.87619 ], [ -77.40463, 38.87591 ], [ -77.40411, 38.87699 ], [ -77.4054, 38.87725 ], [ -77.4059, 38.87806 ], [ -77.40451, 38.88028 ], [ -77.40688, 38.8812 ], [ -77.40816, 38.87895 ] ], [ [ -77.40686, 38.8634 ], [ -77.40698, 38.86335 ], [ -77.40684, 38.86335 ], [ -77.40686, 38.8634 ] ], [ [ -77.40962, 38.87197 ], [ -77.41012, 38.87191 ], [ -77.40965, 38.87179 ], [ -77.40962, 38.87197 ] ], [ [ -77.40499, 38.88276 ], [ -77.40492, 38.88276 ], [ -77.40503, 38.88288 ], [ -77.40499, 38.88276 ] ], [ [ -77.40646, 38.88558 ], [ -77.40643, 38.88564 ], [ -77.40645, 38.88562 ], [ -77.40646, 38.88558 ] ], [ [ -77.40143, 38.87975 ], [ -77.39688, 38.87788 ], [ -77.39585, 38.87958 ], [ -77.40026, 38.8814 ], [ -77.40143, 38.87975 ] ], [ [ -77.39509, 38.87694 ], [ -77.39504, 38.87705 ], [ -77.39561, 38.87727 ], [ -77.39509, 38.87694 ] ], [ [ -77.39384, 38.8711 ], [ -77.39323, 38.87188 ], [ -77.39427, 38.87305 ], [ -77.39528, 38.87296 ], [ -77.39517, 38.87152 ], [ -77.39384, 38.8711 ] ], [ [ -77.39404, 38.86877 ], [ -77.39418, 38.8694 ], [ -77.39433, 38.86903 ], [ -77.39483, 38.86857 ], [ -77.39404, 38.86877 ] ], [ [ -77.39721, 38.86605 ], [ -77.39624, 38.86663 ], [ -77.39646, 38.8671 ], [ -77.39775, 38.86666 ], [ -77.40013, 38.86679 ], [ -77.39809, 38.86579 ], [ -77.39692, 38.86409 ], [ -77.39532, 38.86445 ], [ -77.39608, 38.86554 ], [ -77.39664, 38.86542 ], [ -77.39721, 38.86605 ] ], [ [ -77.4003, 38.87159 ], [ -77.4003, 38.87158 ], [ -77.40025, 38.87158 ], [ -77.4003, 38.87159 ] ], [ [ -77.39997, 38.86547 ], [ -77.401, 38.86593 ], [ -77.40101, 38.86548 ], [ -77.39997, 38.86547 ] ], [ [ -77.39151, 38.87714 ], [ -77.39163, 38.87719 ], [ -77.39165, 38.8771 ], [ -77.39151, 38.87714 ] ], [ [ -77.39287, 38.87472 ], [ -77.3928, 38.87463 ], [ -77.39278, 38.87473 ], [ -77.39287, 38.87472 ] ], [ [ -77.39431, 38.87797 ], [ -77.39412, 38.87781 ], [ -77.39404, 38.87796 ], [ -77.39476, 38.87835 ], [ -77.39431, 38.87797 ] ], [ [ -77.39088, 38.87709 ], [ -77.39059, 38.87688 ], [ -77.39055, 38.87709 ], [ -77.39088, 38.87709 ] ], [ [ -77.39055, 38.87647 ], [ -77.39053, 38.87617 ], [ -77.39035, 38.8763 ], [ -77.39055, 38.87647 ] ], [ [ -77.39063, 38.87568 ], [ -77.39065, 38.87566 ], [ -77.39059, 38.87565 ], [ -77.39063, 38.87568 ] ], [ [ -77.38994, 38.87726 ], [ -77.38996, 38.87727 ], [ -77.38997, 38.87726 ], [ -77.38994, 38.87726 ] ] ] } }
]
}
