{
"type": "FeatureCollection",
"name": "26",
"crs": { "type": "name", "properties": { "name": "urn:ogc:def:crs:OGC:1.3:CRS84" } },
"xy_coordinate_resolution": 1e-05,
"features": [
{ "type": "Feature", "properties": { "variant": "T0", "miles": 0.5 }, "geometry": { "type": "Polygon", "coordinates": [ [ [ -77.18606, 38.94263 ], [ -77.19475, 38.94258 ], [ -77.19532, 38.946 ], [ -77.19608, 38.94594 ], [ -77.19668, 38.94643 ], [ -77.19674, 38.94814 ], [ -77.19628, 38.94834 ], [ -77.19558, 38.94797 ], [ -77.19549, 38.949 ], [ -77.19262, 38.94938 ], [ -77.19035, 38.94874 ], [ -77.19108, 38.95045 ], [ -77.19016, 38.95073 ], [ -77.18936, 38.95053 ], [ -77.18891, 38.94952 ], [ -77.18784, 38.94987 ], [ -77.18752, 38.94954 ], [ -77.18782, 38.94869 ], [ -77.18481, 38.94822 ], [ -77.18495, 38.94746 ], [ -77.18603, 38.9473 ], [ -77.18585, 38.94701 ], [ -77.18381, 38.94659 ], [ -77.18311, 38.9478 ], [ -77.18217, 38.94758 ], [ -77.18309, 38.94545 ], [ -77.18279, 38.94469 ], [ -77.18321, 38.94443 ], [ -77.18468, 38.94477 ], [ -77.18606, 38.94263 ] ], [ [ -77.18938, 38.94755 ], [ -77.1903, 38.94743 ], [ -77.19044, 38.94663 ], [ -77.18826, 38.9464 ], [ -77.189, 38.94806 ], [ -77.18938, 38.94755 ] ], [ [ -77.18832, 38.94532 ], [ -77.18987, 38.94545 ], [ -77.18679, 38.94512 ], [ -77.18832, 38.94532 ] ], [ [ -77.18863, 38.94419 ], [ -77.18875, 38.94361 ], [ -77.1879, 38.94361 ], [ -77.18827, 38.94369 ], [ -77.18863, 38.94419 ] ], [ [ -77.19123, 38.94563 ], [ -77.1921, 38.94572 ], [ -77.19392, 38.94592 ], [ -77.19391, 38.94584 ], [ -77.19123, 38.94563 ] ], [ [ -77.19, 38.94437 ], [ -77.19013, 38.94438 ], [ -77.19002, 38.94425 ], [ -77.19, 38.94437 ] ], [ [ -77.19044, 38.94362 ], [ -77.19013, 38.94362 ], [ -77.19011, 38.94379 ], [ -77.19044, 38.94362 ] ], [ [ -77.19363, 38.9435 ], [ -77.19222, 38.94358 ], [ -77.19364, 38.94361 ], [ -77.19363, 38.9435 ] ], [ [ -77.19297, 38.94469 ], [ -77.19368, 38.94476 ], [ -77.19379, 38.94476 ], [ -77.19378, 38.94469 ], [ -77.19297, 38.94469 ] ], [ [ -77.19422, 38.94817 ], [ -77.19389, 38.94794 ], [ -77.19371, 38.94821 ], [ -77.19422, 38.94817 ] ], [ [ -77.19259, 38.94805 ], [ -77.19275, 38.94829 ], [ -77.19279, 38.94829 ], [ -77.19259, 38.94805 ] ], [ [ -77.18682, 38.9436 ], [ -77.18719, 38.94407 ], [ -77.18768, 38.94361 ], [ -77.18682, 38.9436 ] ] ] } },
{ "type": "Feature", "properties": { "variant": "T0", "miles": 1.0 }, "geometry": { "type": "Polygon", "coordinates": [ [ [ -77.19717, 38.93575 ], [ -77.19453, 38.93926 ], [ -77.19656, 38.93909 ], [ -77.19752, 38.93795 ], [ -77.19848, 38.93778 ], [ -77.19869, 38.93852 ], [ -77.19796, 38.9394 ], [ -77.1999, 38.94039 ], [ -77.19814, 38.94226 ], [ -77.19873, 38.94296 ], [ -77.19871, 38.94387 ], [ -77.1997, 38.94416 ], [ -77.20012, 38.94485 ], [ -77.19923, 38.94517 ], [ -77.19668, 38.94444 ], [ -77.19599, 38.94481 ], [ -77.19506, 38.94381 ], [ -77.19524, 38.94531 ], [ -77.19961, 38.94564 ], [ -77.20012, 38.94638 ], [ -77.20087, 38.94638 ], [ -77.20114, 38.94728 ], [ -77.20052, 38.94796 ], [ -77.19944, 38.94813 ], [ -77.19891, 38.94909 ], [ -77.19792, 38.94963 ], [ -77.19636, 38.94915 ], [ -77.19625, 38.94833 ], [ -77.19558, 38.94797 ], [ -77.19587, 38.95057 ], [ -77.1968, 38.95118 ], [ -77.19612, 38.95195 ], [ -77.19306, 38.95366 ], [ -77.195, 38.95436 ], [ -77.19531, 38.95509 ], [ -77.19431, 38.95541 ], [ -77.19242, 38.95474 ], [ -77.19227, 38.95603 ], [ -77.19154, 38.95654 ], [ -77.19089, 38.95597 ], [ -77.19112, 38.95438 ], [ -77.18765, 38.9537 ], [ -77.18713, 38.95324 ], [ -77.18768, 38.95261 ], [ -77.1894, 38.95283 ], [ -77.18825, 38.95023 ], [ -77.18569, 38.95081 ], [ -77.18483, 38.95022 ], [ -77.18419, 38.95119 ], [ -77.18338, 38.95075 ], [ -77.18344, 38.95016 ], [ -77.18265, 38.9505 ], [ -77.1822, 38.95029 ], [ -77.18187, 38.94915 ], [ -77.18241, 38.94873 ], [ -77.18192, 38.94785 ], [ -77.18224, 38.94688 ], [ -77.18141, 38.94713 ], [ -77.1811, 38.94865 ], [ -77.17981, 38.94871 ], [ -77.17949, 38.94929 ], [ -77.17874, 38.94927 ], [ -77.17829, 38.94985 ], [ -77.17736, 38.94961 ], [ -77.17831, 38.94677 ], [ -77.17444, 38.94564 ], [ -77.1746, 38.94368 ], [ -77.17564, 38.94321 ], [ -77.1759, 38.94149 ], [ -77.17569, 38.94114 ], [ -77.17431, 38.94118 ], [ -77.1741, 38.94034 ], [ -77.17592, 38.93991 ], [ -77.17612, 38.93941 ], [ -77.17735, 38.93904 ], [ -77.17846, 38.93942 ], [ -77.18498, 38.93648 ], [ -77.18648, 38.93689 ], [ -77.18713, 38.93648 ], [ -77.188, 38.9365 ], [ -77.18844, 38.93672 ], [ -77.18833, 38.93742 ], [ -77.19091, 38.9378 ], [ -77.19297, 38.93704 ], [ -77.19369, 38.93734 ], [ -77.19634, 38.93534 ], [ -77.19717, 38.93575 ] ], [ [ -77.18575, 38.94846 ], [ -77.1872, 38.94862 ], [ -77.18658, 38.9483 ], [ -77.18575, 38.94846 ] ], [ [ -77.18619, 38.94258 ], [ -77.18632, 38.94255 ], [ -77.18628, 38.94246 ], [ -77.18619, 38.94258 ] ], [ [ -77.18634, 38.93869 ], [ -77.18717, 38.93871 ], [ -77.18721, 38.93832 ], [ -77.18608, 38.93795 ], [ -77.18634, 38.93869 ] ], [ [ -77.19175, 38.95316 ], [ -77.19428, 38.95164 ], [ -77.19303, 38.95167 ], [ -77.19279, 38.95042 ], [ -77.19068, 38.94958 ], [ -77.19108, 38.95045 ], [ -77.18997, 38.95066 ], [ -77.19084, 38.95308 ], [ -77.19175, 38.95316 ] ], [ [ -77.19375, 38.94962 ], [ -77.19377, 38.94937 ], [ -77.19389, 38.94929 ], [ -77.19356, 38.94931 ], [ -77.19375, 38.94962 ] ], [ [ -77.19422, 38.94817 ], [ -77.19389, 38.94794 ], [ -77.19371, 38.94821 ], [ -77.19422, 38.94817 ] ], [ [ -77.1903, 38.94743 ], [ -77.19044, 38.94663 ], [ -77.18826, 38.9464 ], [ -77.189, 38.94806 ], [ -77.18938, 38.94755 ], [ -77.1903, 38.94743 ] ], [ [ -77.18987, 38.94545 ], [ -77.18892, 38.94534 ], [ -77.18679, 38.94512 ], [ -77.18832, 38.94532 ], [ -77.18987, 38.94545 ] ], [ [ -77.19002, 38.94425 ], [ -77.19, 38.94437 ], [ -77.19013, 38.94438 ], [ -77.19002, 38.94425 ] ], [ [ -77.19044, 38.94362 ], [ -77.19013, 38.94362 ], [ -77.19011, 38.94379 ], [ -77.19044, 38.94362 ] ], [ [ -77.18924, 38.94253 ], [ -77.18998, 38.94241 ], [ -77.18915, 38.94253 ], [ -77.18924, 38.94253 ] ], [ [ -77.19199, 38.94241 ], [ -77.19283, 38.94241 ], [ -77.19208, 38.94143 ], [ -77.19288, 38.94079 ], [ -77.19215, 38.93965 ], [ -77.19143, 38.93993 ], [ -77.19131, 38.94061 ], [ -77.19034, 38.94068 ], [ -77.18991, 38.93875 ], [ -77.18858, 38.93855 ], [ -77.18834, 38.94155 ], [ -77.19039, 38.94136 ], [ -77.19199, 38.94241 ] ], [ [ -77.19392, 38.94592 ], [ -77.19124, 38.9456 ], [ -77.19123, 38.94563 ], [ -77.19392, 38.94592 ] ], [ [ -77.19379, 38.94476 ], [ -77.1932, 38.9447 ], [ -77.19297, 38.94469 ], [ -77.19379, 38.94476 ] ], [ [ -77.19363, 38.9435 ], [ -77.19222, 38.94358 ], [ -77.19364, 38.94361 ], [ -77.19363, 38.9435 ] ], [ [ -77.19401, 38.93787 ], [ -77.19375, 38.93763 ], [ -77.19386, 38.93805 ], [ -77.19401, 38.93787 ] ], [ [ -77.19817, 38.94068 ], [ -77.19465, 38.94033 ], [ -77.19477, 38.94137 ], [ -77.19561, 38.94268 ], [ -77.19733, 38.94348 ], [ -77.19675, 38.94184 ], [ -77.19817, 38.94068 ] ], [ [ -77.19969, 38.94666 ], [ -77.19978, 38.94703 ], [ -77.19985, 38.94663 ], [ -77.19969, 38.94666 ] ], [ [ -77.1979, 38.9466 ], [ -77.19807, 38.94745 ], [ -77.19817, 38.94746 ], [ -77.1983, 38.94667 ], [ -77.1979, 38.9466 ] ], [ [ -77.19749, 38.94846 ], [ -77.19766, 38.94855 ], [ -77.19772, 38.9485 ], [ -77.19749, 38.94846 ] ], [ [ -77.1968, 38.94797 ], [ -77.19665, 38.94818 ], [ -77.19701, 38.94822 ], [ -77.1968, 38.94797 ] ], [ [ -77.19244, 38.94819 ], [ -77.19266, 38.94823 ], [ -77.19259, 38.94805 ], [ -77.19244, 38.94819 ] ], [ [ -77.18707, 38.93994 ], [ -77.18706, 38.94005 ], [ -77.18705, 38.94019 ], [ -77.18707, 38.93994 ] ], [ [ -77.18681, 38.94362 ], [ -77.18655, 38.94401 ], [ -77.18719, 38.94407 ], [ -77.18768, 38.94361 ], [ -77.18681, 38.94362 ] ], [ [ -77.18855, 38.94422 ], [ -77.18875, 38.94361 ], [ -77.1879, 38.94361 ], [ -77.18827, 38.94369 ], [ -77.18855, 38.94422 ] ], [ [ -77.18619, 38.94966 ], [ -77.18641, 38.94963 ], [ -77.18619, 38.9496 ], [ -77.18619, 38.94966 ] ], [ [ -77.18778, 38.94869 ], [ -77.18782, 38.9487 ], [ -77.18782, 38.94869 ], [ -77.18778, 38.94869 ] ], [ [ -77.18323, 38.94905 ], [ -77.18326, 38.94908 ], [ -77.18335, 38.94908 ], [ -77.18323, 38.94905 ] ], [ [ -77.18219, 38.94364 ], [ -77.18318, 38.9437 ], [ -77.18249, 38.94314 ], [ -77.18219, 38.94364 ] ], [ [ -77.17992, 38.94379 ], [ -77.17986, 38.94425 ], [ -77.17978, 38.94481 ], [ -77.18032, 38.94391 ], [ -77.17992, 38.94379 ] ], [ [ -77.18308, 38.93956 ], [ -77.18295, 38.93987 ], [ -77.18315, 38.93952 ], [ -77.18308, 38.93956 ] ], [ [ -77.18403, 38.94061 ], [ -77.1831, 38.94211 ], [ -77.18422, 38.94306 ], [ -77.18523, 38.94172 ], [ -77.18464, 38.94127 ], [ -77.18479, 38.94089 ], [ -77.18403, 38.94061 ] ], [ [ -77.18466, 38.94453 ], [ -77.18468, 38.94477 ], [ -77.18478, 38.94443 ], [ -77.18466, 38.94453 ] ], [ [ -77.18519, 38.94692 ], [ -77.18467, 38.94683 ], [ -77.18481, 38.94726 ], [ -77.18519, 38.94692 ] ], [ [ -77.18392, 38.94663 ], [ -77.18381, 38.94659 ], [ -77.18377, 38.94669 ], [ -77.18392, 38.94663 ] ], [ [ -77.18157, 38.94211 ], [ -77.1806, 38.94283 ], [ -77.18106, 38.94298 ], [ -77.18157, 38.94211 ] ], [ [ -77.18144, 38.94455 ], [ -77.18091, 38.94568 ], [ -77.18152, 38.94595 ], [ -77.18208, 38.94493 ], [ -77.18144, 38.94455 ] ] ] } },
{ "type": "Feature", "properties": { "variant": "T0", "miles": 1.5 }, "geometry": { "type": "Polygon", "coordinates": [ [ [ -77.19979, 38.92956 ], [ -77.19943, 38.93065 ], [ -77.20097, 38.92979 ], [ -77.20195, 38.92986 ], [ -77.20186, 38.93062 ], [ -77.20026, 38.93172 ], [ -77.20101, 38.93222 ], [ -77.20174, 38.93161 ], [ -77.20298, 38.93152 ], [ -77.2032, 38.93226 ], [ -77.20204, 38.93297 ], [ -77.20365, 38.93387 ], [ -77.20316, 38.93453 ], [ -77.20209, 38.93423 ], [ -77.20114, 38.93444 ], [ -77.20026, 38.934 ], [ -77.19972, 38.93301 ], [ -77.19902, 38.93384 ], [ -77.20044, 38.9347 ], [ -77.20048, 38.93511 ], [ -77.20041, 38.93606 ], [ -77.19923, 38.93716 ], [ -77.201, 38.93883 ], [ -77.20188, 38.93851 ], [ -77.20227, 38.93879 ], [ -77.20201, 38.93964 ], [ -77.20102, 38.94001 ], [ -77.2021, 38.9415 ], [ -77.20217, 38.94254 ], [ -77.2003, 38.94433 ], [ -77.20347, 38.94523 ], [ -77.20392, 38.9444 ], [ -77.20543, 38.94355 ], [ -77.20594, 38.94365 ], [ -77.20609, 38.9444 ], [ -77.20488, 38.94526 ], [ -77.20525, 38.9456 ], [ -77.20931, 38.94553 ], [ -77.2095, 38.94628 ], [ -77.20874, 38.94655 ], [ -77.20438, 38.94659 ], [ -77.19668, 38.94444 ], [ -77.19599, 38.94481 ], [ -77.19506, 38.94381 ], [ -77.19524, 38.94531 ], [ -77.19961, 38.94564 ], [ -77.20012, 38.94638 ], [ -77.20087, 38.94638 ], [ -77.20114, 38.94728 ], [ -77.20052, 38.94796 ], [ -77.19944, 38.94813 ], [ -77.19891, 38.94909 ], [ -77.19792, 38.94963 ], [ -77.19636, 38.94915 ], [ -77.19625, 38.94833 ], [ -77.19558, 38.94797 ], [ -77.19587, 38.95057 ], [ -77.1968, 38.95118 ], [ -77.19612, 38.95195 ], [ -77.19306, 38.95366 ], [ -77.19476, 38.95426 ], [ -77.19652, 38.95199 ], [ -77.19843, 38.95183 ], [ -77.19896, 38.95248 ], [ -77.19844, 38.95291 ], [ -77.19876, 38.95327 ], [ -77.19851, 38.95383 ], [ -77.19749, 38.95458 ], [ -77.19621, 38.95428 ], [ -77.19694, 38.95507 ], [ -77.20008, 38.95627 ], [ -77.20065, 38.95507 ], [ -77.20163, 38.95511 ], [ -77.20132, 38.95675 ], [ -77.20246, 38.95736 ], [ -77.20244, 38.95778 ], [ -77.20151, 38.95803 ], [ -77.19748, 38.95651 ], [ -77.19741, 38.95791 ], [ -77.19691, 38.95803 ], [ -77.1963, 38.95747 ], [ -77.19551, 38.958 ], [ -77.19483, 38.95745 ], [ -77.19513, 38.95574 ], [ -77.19242, 38.95474 ], [ -77.19218, 38.95841 ], [ -77.19125, 38.95956 ], [ -77.19192, 38.96069 ], [ -77.1888, 38.96228 ], [ -77.18828, 38.96163 ], [ -77.19034, 38.96039 ], [ -77.1894, 38.96034 ], [ -77.18917, 38.96092 ], [ -77.1882, 38.96103 ], [ -77.18798, 38.95963 ], [ -77.18982, 38.95922 ], [ -77.1906, 38.95848 ], [ -77.19086, 38.95675 ], [ -77.18975, 38.95672 ], [ -77.18877, 38.95594 ], [ -77.18793, 38.95578 ], [ -77.18537, 38.95564 ], [ -77.1844, 38.95608 ], [ -77.18402, 38.95485 ], [ -77.18257, 38.955 ], [ -77.18136, 38.95434 ], [ -77.1817, 38.95362 ], [ -77.18243, 38.95375 ], [ -77.18225, 38.95304 ], [ -77.18282, 38.95253 ], [ -77.18003, 38.95195 ], [ -77.17969, 38.95269 ], [ -77.17896, 38.9527 ], [ -77.17857, 38.95318 ], [ -77.17767, 38.95287 ], [ -77.1776, 38.9532 ], [ -77.18052, 38.95366 ], [ -77.18105, 38.9543 ], [ -77.18022, 38.95472 ], [ -77.17737, 38.95427 ], [ -77.17771, 38.95518 ], [ -77.17889, 38.95554 ], [ -77.17904, 38.95593 ], [ -77.17828, 38.95641 ], [ -77.1772, 38.95623 ], [ -77.17629, 38.95544 ], [ -77.176, 38.95409 ], [ -77.17455, 38.95369 ], [ -77.17387, 38.9531 ], [ -77.17286, 38.95158 ], [ -77.17288, 38.95066 ], [ -77.16974, 38.9497 ], [ -77.17005, 38.94897 ], [ -77.17058, 38.94894 ], [ -77.17688, 38.95031 ], [ -77.1773, 38.94924 ], [ -77.17679, 38.94871 ], [ -77.17668, 38.94756 ], [ -77.17761, 38.94661 ], [ -77.17444, 38.94564 ], [ -77.17484, 38.94189 ], [ -77.17106, 38.94319 ], [ -77.17126, 38.9439 ], [ -77.17205, 38.94367 ], [ -77.17264, 38.94428 ], [ -77.17188, 38.94487 ], [ -77.16971, 38.94529 ], [ -77.16889, 38.9449 ], [ -77.16835, 38.94298 ], [ -77.16596, 38.94357 ], [ -77.16552, 38.94333 ], [ -77.16549, 38.94257 ], [ -77.16574, 38.9422 ], [ -77.1691, 38.9415 ], [ -77.16892, 38.94109 ], [ -77.16724, 38.94156 ], [ -77.16641, 38.94116 ], [ -77.16693, 38.94051 ], [ -77.16846, 38.94007 ], [ -77.16831, 38.93975 ], [ -77.16715, 38.93951 ], [ -77.16717, 38.93909 ], [ -77.16788, 38.93872 ], [ -77.16929, 38.93884 ], [ -77.17041, 38.94114 ], [ -77.17279, 38.94048 ], [ -77.17078, 38.9343 ], [ -77.17118, 38.93403 ], [ -77.17204, 38.93437 ], [ -77.1735, 38.93423 ], [ -77.1741, 38.93533 ], [ -77.17519, 38.93557 ], [ -77.17579, 38.93457 ], [ -77.17477, 38.93389 ], [ -77.17457, 38.93287 ], [ -77.17496, 38.93242 ], [ -77.17799, 38.93146 ], [ -77.17891, 38.93191 ], [ -77.18048, 38.93086 ], [ -77.18189, 38.93048 ], [ -77.1828, 38.93175 ], [ -77.18488, 38.93131 ], [ -77.18639, 38.93399 ], [ -77.18622, 38.9332 ], [ -77.18665, 38.93273 ], [ -77.19054, 38.93182 ], [ -77.19086, 38.93254 ], [ -77.19012, 38.93291 ], [ -77.19075, 38.93413 ], [ -77.19434, 38.93285 ], [ -77.19476, 38.93331 ], [ -77.19546, 38.93337 ], [ -77.1956, 38.93446 ], [ -77.19636, 38.93506 ], [ -77.19852, 38.93247 ], [ -77.19744, 38.93266 ], [ -77.1969, 38.93231 ], [ -77.19687, 38.9319 ], [ -77.1978, 38.93137 ], [ -77.19731, 38.93108 ], [ -77.19765, 38.93035 ], [ -77.19728, 38.92934 ], [ -77.19829, 38.92892 ], [ -77.19979, 38.92956 ] ], [ [ -77.18552, 38.95096 ], [ -77.18752, 38.95115 ], [ -77.18824, 38.95157 ], [ -77.18852, 38.95268 ], [ -77.1894, 38.95283 ], [ -77.18825, 38.95023 ], [ -77.18569, 38.95081 ], [ -77.18483, 38.95022 ], [ -77.18419, 38.95119 ], [ -77.18338, 38.95075 ], [ -77.18344, 38.95016 ], [ -77.18265, 38.9505 ], [ -77.1822, 38.95029 ], [ -77.18187, 38.94915 ], [ -77.18241, 38.94873 ], [ -77.18192, 38.94785 ], [ -77.18224, 38.94688 ], [ -77.18141, 38.94713 ], [ -77.18102, 38.94952 ], [ -77.18008, 38.94931 ], [ -77.17981, 38.94871 ], [ -77.17943, 38.94995 ], [ -77.1784, 38.9501 ], [ -77.17825, 38.95053 ], [ -77.17912, 38.95052 ], [ -77.18016, 38.94949 ], [ -77.18171, 38.95113 ], [ -77.18407, 38.95167 ], [ -77.18552, 38.95096 ] ], [ [ -77.18505, 38.94694 ], [ -77.18519, 38.94692 ], [ -77.18467, 38.94683 ], [ -77.18481, 38.94726 ], [ -77.18505, 38.94694 ] ], [ [ -77.18381, 38.94659 ], [ -77.18377, 38.94669 ], [ -77.18392, 38.94663 ], [ -77.18381, 38.94659 ] ], [ [ -77.18318, 38.9437 ], [ -77.18249, 38.94314 ], [ -77.18219, 38.94364 ], [ -77.18318, 38.9437 ] ], [ [ -77.18395, 38.94092 ], [ -77.1839, 38.94082 ], [ -77.1831, 38.94211 ], [ -77.18395, 38.94092 ] ], [ [ -77.19012, 38.9553 ], [ -77.18989, 38.9553 ], [ -77.19033, 38.95573 ], [ -77.19068, 38.95544 ], [ -77.19012, 38.9553 ] ], [ [ -77.19012, 38.95416 ], [ -77.18929, 38.95402 ], [ -77.1894, 38.95456 ], [ -77.19, 38.95424 ], [ -77.19112, 38.95438 ], [ -77.19012, 38.95416 ] ], [ [ -77.19428, 38.95164 ], [ -77.19303, 38.95167 ], [ -77.19279, 38.95042 ], [ -77.19068, 38.94958 ], [ -77.19108, 38.95045 ], [ -77.18997, 38.95066 ], [ -77.19084, 38.95308 ], [ -77.19175, 38.95316 ], [ -77.19428, 38.95164 ] ], [ [ -77.1921, 38.94572 ], [ -77.19392, 38.94592 ], [ -77.19391, 38.94584 ], [ -77.19123, 38.94563 ], [ -77.1921, 38.94572 ] ], [ [ -77.19283, 38.94241 ], [ -77.19265, 38.94201 ], [ -77.19171, 38.94233 ], [ -77.19283, 38.94241 ] ], [ [ -77.19015, 38.9408 ], [ -77.18981, 38.93873 ], [ -77.18999, 38.94112 ], [ -77.18903, 38.94127 ], [ -77.18846, 38.93995 ], [ -77.18834, 38.94155 ], [ -77.19041, 38.94129 ], [ -77.19015, 38.9408 ] ], [ [ -77.19297, 38.93704 ], [ -77.19369, 38.93734 ], [ -77.19345, 38.936 ], [ -77.19247, 38.93582 ], [ -77.19242, 38.93671 ], [ -77.19162, 38.93724 ], [ -77.19043, 38.93691 ], [ -77.19026, 38.9377 ], [ -77.19091, 38.9378 ], [ -77.19297, 38.93704 ] ], [ [ -77.19109, 38.93599 ], [ -77.19056, 38.93621 ], [ -77.19057, 38.93624 ], [ -77.19109, 38.93599 ] ], [ [ -77.19675, 38.94184 ], [ -77.19817, 38.94068 ], [ -77.1968, 38.94016 ], [ -77.19465, 38.94033 ], [ -77.19477, 38.94137 ], [ -77.19561, 38.94268 ], [ -77.19733, 38.94348 ], [ -77.19675, 38.94184 ] ], [ [ -77.19656, 38.93909 ], [ -77.19782, 38.93778 ], [ -77.19625, 38.93717 ], [ -77.19476, 38.93923 ], [ -77.19656, 38.93909 ] ], [ [ -77.19542, 38.9362 ], [ -77.19495, 38.93562 ], [ -77.1948, 38.93658 ], [ -77.19542, 38.9362 ] ], [ [ -77.19834, 38.93678 ], [ -77.19834, 38.93674 ], [ -77.19829, 38.93676 ], [ -77.19834, 38.93678 ] ], [ [ -77.19788, 38.93523 ], [ -77.197, 38.93626 ], [ -77.19717, 38.93634 ], [ -77.19788, 38.93523 ] ], [ [ -77.19811, 38.94212 ], [ -77.19899, 38.94395 ], [ -77.19938, 38.94214 ], [ -77.20034, 38.94199 ], [ -77.20057, 38.94259 ], [ -77.20086, 38.94212 ], [ -77.20063, 38.94166 ], [ -77.19944, 38.94117 ], [ -77.19811, 38.94212 ] ], [ [ -77.19875, 38.93824 ], [ -77.19796, 38.9394 ], [ -77.2001, 38.94021 ], [ -77.20058, 38.93995 ], [ -77.19875, 38.93824 ] ], [ [ -77.19766, 38.94855 ], [ -77.19772, 38.9485 ], [ -77.19749, 38.94846 ], [ -77.19766, 38.94855 ] ], [ [ -77.19665, 38.94818 ], [ -77.19701, 38.94822 ], [ -77.1968, 38.94797 ], [ -77.19665, 38.94818 ] ], [ [ -77.19977, 38.94688 ], [ -77.19985, 38.94663 ], [ -77.19964, 38.94704 ], [ -77.19977, 38.94688 ] ], [ [ -77.19807, 38.94745 ], [ -77.19817, 38.94746 ], [ -77.19828, 38.94662 ], [ -77.1979, 38.9466 ], [ -77.19807, 38.94745 ] ], [ [ -77.19688, 38.95332 ], [ -77.19716, 38.95343 ], [ -77.19768, 38.95297 ], [ -77.19688, 38.95332 ] ], [ [ -77.1919, 38.93983 ], [ -77.19228, 38.94033 ], [ -77.19166, 38.94077 ], [ -77.19215, 38.94124 ], [ -77.19288, 38.94079 ], [ -77.19218, 38.93968 ], [ -77.1919, 38.93983 ] ], [ [ -77.19432, 38.93389 ], [ -77.19259, 38.93473 ], [ -77.19366, 38.93483 ], [ -77.19432, 38.93389 ] ], [ [ -77.19401, 38.93787 ], [ -77.19375, 38.93763 ], [ -77.19373, 38.93772 ], [ -77.19401, 38.93787 ] ], [ [ -77.19267, 38.94195 ], [ -77.1927, 38.94187 ], [ -77.19266, 38.94186 ], [ -77.19267, 38.94195 ] ], [ [ -77.19378, 38.94469 ], [ -77.19297, 38.94469 ], [ -77.19356, 38.94475 ], [ -77.19378, 38.94469 ] ], [ [ -77.19363, 38.9435 ], [ -77.19222, 38.94349 ], [ -77.19222, 38.94358 ], [ -77.19363, 38.9435 ] ], [ [ -77.19375, 38.94962 ], [ -77.19389, 38.94929 ], [ -77.19356, 38.94931 ], [ -77.19375, 38.94962 ] ], [ [ -77.19371, 38.94821 ], [ -77.19422, 38.94817 ], [ -77.19419, 38.94798 ], [ -77.19371, 38.94821 ] ], [ [ -77.19259, 38.94805 ], [ -77.19244, 38.94819 ], [ -77.19266, 38.94823 ], [ -77.19259, 38.94805 ] ], [ [ -77.18706, 38.95417 ], [ -77.18723, 38.95358 ], [ -77.18659, 38.95343 ], [ -77.1868, 38.95418 ], [ -77.18641, 38.95445 ], [ -77.18487, 38.95381 ], [ -77.18535, 38.95456 ], [ -77.18703, 38.95479 ], [ -77.18802, 38.95446 ], [ -77.18706, 38.95417 ] ], [ [ -77.18782, 38.9487 ], [ -77.18782, 38.94869 ], [ -77.18778, 38.94869 ], [ -77.18782, 38.9487 ] ], [ [ -77.18986, 38.94548 ], [ -77.18987, 38.94545 ], [ -77.18679, 38.94512 ], [ -77.18986, 38.94548 ] ], [ [ -77.18682, 38.9436 ], [ -77.18655, 38.94401 ], [ -77.18719, 38.94407 ], [ -77.18768, 38.94361 ], [ -77.18682, 38.9436 ] ], [ [ -77.18705, 38.9401 ], [ -77.18705, 38.94019 ], [ -77.18707, 38.93994 ], [ -77.18705, 38.9401 ] ], [ [ -77.18663, 38.93817 ], [ -77.18608, 38.93795 ], [ -77.18626, 38.93869 ], [ -77.18717, 38.93871 ], [ -77.18721, 38.93832 ], [ -77.18663, 38.93817 ] ], [ [ -77.18875, 38.94361 ], [ -77.1879, 38.94361 ], [ -77.18827, 38.94369 ], [ -77.18857, 38.94422 ], [ -77.18875, 38.94361 ] ], [ [ -77.19, 38.94437 ], [ -77.19013, 38.94438 ], [ -77.19002, 38.94425 ], [ -77.19, 38.94437 ] ], [ [ -77.19013, 38.94362 ], [ -77.19011, 38.94379 ], [ -77.19044, 38.94362 ], [ -77.19013, 38.94362 ] ], [ [ -77.19044, 38.94663 ], [ -77.18826, 38.9464 ], [ -77.189, 38.94806 ], [ -77.18938, 38.94755 ], [ -77.1903, 38.94743 ], [ -77.19044, 38.94663 ] ], [ [ -77.18524, 38.9352 ], [ -77.18647, 38.93573 ], [ -77.18625, 38.93486 ], [ -77.18524, 38.9352 ] ], [ [ -77.18632, 38.94255 ], [ -77.18628, 38.94246 ], [ -77.18624, 38.94251 ], [ -77.18632, 38.94255 ] ], [ [ -77.18431, 38.94466 ], [ -77.18468, 38.94477 ], [ -77.18478, 38.94443 ], [ -77.18431, 38.94466 ] ], [ [ -77.185, 38.94203 ], [ -77.18487, 38.94193 ], [ -77.18475, 38.94215 ], [ -77.185, 38.94203 ] ], [ [ -77.18658, 38.9483 ], [ -77.18575, 38.94846 ], [ -77.1872, 38.94862 ], [ -77.18658, 38.9483 ] ], [ [ -77.18641, 38.94963 ], [ -77.18619, 38.9496 ], [ -77.18619, 38.94966 ], [ -77.18641, 38.94963 ] ], [ [ -77.18563, 38.95206 ], [ -77.18707, 38.95242 ], [ -77.18703, 38.95217 ], [ -77.18563, 38.95206 ] ], [ [ -77.18295, 38.95395 ], [ -77.18343, 38.95387 ], [ -77.1834, 38.95362 ], [ -77.1825, 38.9538 ], [ -77.18295, 38.95395 ] ], [ [ -77.17798, 38.9467 ], [ -77.17825, 38.94694 ], [ -77.17831, 38.94677 ], [ -77.17798, 38.9467 ] ], [ [ -77.18094, 38.93747 ], [ -77.18036, 38.93706 ], [ -77.17941, 38.93774 ], [ -77.17891, 38.9376 ], [ -77.17867, 38.93723 ], [ -77.17926, 38.93629 ], [ -77.17812, 38.93752 ], [ -77.1779, 38.93835 ], [ -77.17825, 38.93869 ], [ -77.18094, 38.93747 ] ], [ [ -77.17747, 38.93622 ], [ -77.17668, 38.9357 ], [ -77.17656, 38.93674 ], [ -77.17747, 38.93622 ] ], [ [ -77.18032, 38.94391 ], [ -77.17992, 38.94379 ], [ -77.17978, 38.94481 ], [ -77.18032, 38.94391 ] ], [ [ -77.18131, 38.94257 ], [ -77.18157, 38.94211 ], [ -77.1806, 38.94283 ], [ -77.18131, 38.94257 ] ], [ [ -77.18225, 38.93693 ], [ -77.18255, 38.93668 ], [ -77.18022, 38.93545 ], [ -77.18225, 38.93693 ] ], [ [ -77.18099, 38.93319 ], [ -77.18059, 38.93232 ], [ -77.17945, 38.93313 ], [ -77.18034, 38.93375 ], [ -77.18099, 38.93319 ] ], [ [ -77.18153, 38.93434 ], [ -77.18128, 38.93455 ], [ -77.18172, 38.93474 ], [ -77.18153, 38.93434 ] ], [ [ -77.18091, 38.94568 ], [ -77.18152, 38.94595 ], [ -77.18208, 38.94493 ], [ -77.18144, 38.94455 ], [ -77.18091, 38.94568 ] ], [ [ -77.18308, 38.93956 ], [ -77.18273, 38.93972 ], [ -77.18295, 38.93987 ], [ -77.18308, 38.93956 ] ], [ [ -77.18335, 38.94908 ], [ -77.18323, 38.94905 ], [ -77.18326, 38.94908 ], [ -77.18335, 38.94908 ] ], [ [ -77.17424, 38.95102 ], [ -77.1742, 38.9513 ], [ -77.1753, 38.95277 ], [ -77.17624, 38.95302 ], [ -77.1766, 38.95136 ], [ -77.17424, 38.95102 ] ], [ [ -77.17562, 38.93967 ], [ -77.17555, 38.93948 ], [ -77.17538, 38.93997 ], [ -77.17562, 38.93967 ] ], [ [ -77.17471, 38.93773 ], [ -77.17472, 38.9377 ], [ -77.17471, 38.93772 ], [ -77.17471, 38.93773 ] ], [ [ -77.17242, 38.93541 ], [ -77.17325, 38.93779 ], [ -77.17376, 38.93638 ], [ -77.17242, 38.93541 ] ], [ [ -77.17434, 38.93878 ], [ -77.17397, 38.93974 ], [ -77.17399, 38.93982 ], [ -77.17434, 38.93878 ] ] ] } },
{ "type": "Feature", "properties": { "variant": "T2s", "miles": 0.5 }, "geometry": { "type": "Polygon", "coordinates": [ [ [ -77.18606, 38.94263 ], [ -77.19475, 38.94258 ], [ -77.19532, 38.946 ], [ -77.19608, 38.94594 ], [ -77.19668, 38.94643 ], [ -77.19674, 38.94814 ], [ -77.19628, 38.94834 ], [ -77.19558, 38.94797 ], [ -77.19549, 38.949 ], [ -77.19262, 38.94938 ], [ -77.19035, 38.94874 ], [ -77.19108, 38.95045 ], [ -77.19016, 38.95073 ], [ -77.18936, 38.95053 ], [ -77.18891, 38.94952 ], [ -77.18784, 38.94987 ], [ -77.18752, 38.94954 ], [ -77.18782, 38.94869 ], [ -77.18481, 38.94822 ], [ -77.18495, 38.94746 ], [ -77.18603, 38.9473 ], [ -77.18585, 38.94701 ], [ -77.18381, 38.94659 ], [ -77.18311, 38.9478 ], [ -77.18217, 38.94758 ], [ -77.18309, 38.94545 ], [ -77.18279, 38.94469 ], [ -77.18321, 38.94443 ], [ -77.18468, 38.94477 ], [ -77.18606, 38.94263 ] ], [ [ -77.18938, 38.94755 ], [ -77.1903, 38.94743 ], [ -77.19044, 38.94663 ], [ -77.18826, 38.9464 ], [ -77.189, 38.94806 ], [ -77.18938, 38.94755 ] ], [ [ -77.18832, 38.94532 ], [ -77.18987, 38.94545 ], [ -77.18679, 38.94512 ], [ -77.18832, 38.94532 ] ], [ [ -77.18863, 38.94419 ], [ -77.18875, 38.94361 ], [ -77.1879, 38.94361 ], [ -77.18827, 38.94369 ], [ -77.18863, 38.94419 ] ], [ [ -77.19123, 38.94563 ], [ -77.1921, 38.94572 ], [ -77.19392, 38.94592 ], [ -77.19391, 38.94584 ], [ -77.19123, 38.94563 ] ], [ [ -77.19, 38.94437 ], [ -77.19013, 38.94438 ], [ -77.19002, 38.94425 ], [ -77.19, 38.94437 ] ], [ [ -77.19044, 38.94362 ], [ -77.19013, 38.94362 ], [ -77.19011, 38.94379 ], [ -77.19044, 38.94362 ] ], [ [ -77.19363, 38.9435 ], [ -77.19222, 38.94358 ], [ -77.19364, 38.94361 ], [ -77.19363, 38.9435 ] ], [ [ -77.19297, 38.94469 ], [ -77.19368, 38.94476 ], [ -77.19379, 38.94476 ], [ -77.19378, 38.94469 ], [ -77.19297, 38.94469 ] ], [ [ -77.19422, 38.94817 ], [ -77.19389, 38.94794 ], [ -77.19371, 38.94821 ], [ -77.19422, 38.94817 ] ], [ [ -77.19259, 38.94805 ], [ -77.19275, 38.94829 ], [ -77.19279, 38.94829 ], [ -77.19259, 38.94805 ] ], [ [ -77.18682, 38.9436 ], [ -77.18719, 38.94407 ], [ -77.18768, 38.94361 ], [ -77.18682, 38.9436 ] ] ] } },
{ "type": "Feature", "properties": { "variant": "T2s", "miles": 1.0 }, "geometry": { "type": "Polygon", "coordinates": [ [ [ -77.19451, 38.94152 ], [ -77.19481, 38.94186 ], [ -77.19524, 38.94531 ], [ -77.19961, 38.94564 ], [ -77.20012, 38.94638 ], [ -77.20087, 38.94638 ], [ -77.20116, 38.94717 ], [ -77.20059, 38.94792 ], [ -77.19944, 38.94813 ], [ -77.19891, 38.94909 ], [ -77.19792, 38.94963 ], [ -77.19636, 38.94915 ], [ -77.19625, 38.94833 ], [ -77.19558, 38.94797 ], [ -77.19587, 38.95057 ], [ -77.1968, 38.95118 ], [ -77.19237, 38.95442 ], [ -77.18947, 38.95379 ], [ -77.18825, 38.95023 ], [ -77.18569, 38.95081 ], [ -77.18483, 38.95022 ], [ -77.18419, 38.95119 ], [ -77.18338, 38.95075 ], [ -77.18344, 38.95016 ], [ -77.18265, 38.9505 ], [ -77.1822, 38.95029 ], [ -77.18187, 38.94915 ], [ -77.18241, 38.94873 ], [ -77.18192, 38.94785 ], [ -77.18224, 38.94688 ], [ -77.18141, 38.94713 ], [ -77.1811, 38.94865 ], [ -77.17981, 38.94871 ], [ -77.17949, 38.94929 ], [ -77.17874, 38.94927 ], [ -77.17829, 38.94985 ], [ -77.17776, 38.94988 ], [ -77.17732, 38.9492 ], [ -77.17831, 38.94677 ], [ -77.17444, 38.94564 ], [ -77.1746, 38.94368 ], [ -77.17564, 38.94321 ], [ -77.1759, 38.94149 ], [ -77.17569, 38.94114 ], [ -77.17434, 38.9412 ], [ -77.17413, 38.94045 ], [ -77.17855, 38.9395 ], [ -77.18515, 38.93658 ], [ -77.18605, 38.93688 ], [ -77.18575, 38.93753 ], [ -77.18626, 38.93869 ], [ -77.18834, 38.93894 ], [ -77.18834, 38.94155 ], [ -77.19031, 38.94134 ], [ -77.19179, 38.94241 ], [ -77.19283, 38.94241 ], [ -77.19276, 38.94171 ], [ -77.19451, 38.94152 ] ], [ [ -77.1872, 38.94862 ], [ -77.18658, 38.9483 ], [ -77.18575, 38.94846 ], [ -77.1872, 38.94862 ] ], [ [ -77.18986, 38.94548 ], [ -77.18987, 38.94545 ], [ -77.18679, 38.94512 ], [ -77.18986, 38.94548 ] ], [ [ -77.1873, 38.94378 ], [ -77.18768, 38.94361 ], [ -77.18682, 38.9436 ], [ -77.18655, 38.94401 ], [ -77.18719, 38.94407 ], [ -77.1873, 38.94378 ] ], [ [ -77.18628, 38.94246 ], [ -77.18619, 38.94258 ], [ -77.18632, 38.94255 ], [ -77.18628, 38.94246 ] ], [ [ -77.18408, 38.94053 ], [ -77.1831, 38.94211 ], [ -77.18422, 38.94306 ], [ -77.18523, 38.94172 ], [ -77.18408, 38.94053 ] ], [ [ -77.19428, 38.95164 ], [ -77.19303, 38.95167 ], [ -77.19279, 38.95042 ], [ -77.19068, 38.94958 ], [ -77.19108, 38.95045 ], [ -77.18997, 38.95066 ], [ -77.19084, 38.95308 ], [ -77.19175, 38.95316 ], [ -77.19428, 38.95164 ] ], [ [ -77.19044, 38.94663 ], [ -77.18826, 38.9464 ], [ -77.189, 38.94806 ], [ -77.18938, 38.94755 ], [ -77.1903, 38.94743 ], [ -77.19044, 38.94663 ] ], [ [ -77.1921, 38.94572 ], [ -77.19392, 38.94592 ], [ -77.19391, 38.94584 ], [ -77.19123, 38.94563 ], [ -77.1921, 38.94572 ] ], [ [ -77.19013, 38.94362 ], [ -77.19011, 38.94379 ], [ -77.19044, 38.94362 ], [ -77.19013, 38.94362 ] ], [ [ -77.19002, 38.94425 ], [ -77.19, 38.94437 ], [ -77.19013, 38.94438 ], [ -77.19002, 38.94425 ] ], [ [ -77.18875, 38.94361 ], [ -77.1879, 38.94361 ], [ -77.18862, 38.94423 ], [ -77.18875, 38.94361 ] ], [ [ -77.1968, 38.94797 ], [ -77.19665, 38.94818 ], [ -77.19701, 38.94822 ], [ -77.1968, 38.94797 ] ], [ [ -77.19422, 38.94817 ], [ -77.19419, 38.94798 ], [ -77.19389, 38.94794 ], [ -77.19371, 38.94821 ], [ -77.19422, 38.94817 ] ], [ [ -77.19244, 38.94819 ], [ -77.19279, 38.94829 ], [ -77.19259, 38.94805 ], [ -77.19244, 38.94819 ] ], [ [ -77.19964, 38.94704 ], [ -77.19978, 38.94703 ], [ -77.19985, 38.94663 ], [ -77.19964, 38.94704 ] ], [ [ -77.19807, 38.94745 ], [ -77.19817, 38.94746 ], [ -77.1983, 38.94667 ], [ -77.19793, 38.94665 ], [ -77.19807, 38.94745 ] ], [ [ -77.19368, 38.94476 ], [ -77.19379, 38.94476 ], [ -77.19378, 38.94469 ], [ -77.19297, 38.94469 ], [ -77.19368, 38.94476 ] ], [ [ -77.19324, 38.94362 ], [ -77.19364, 38.94361 ], [ -77.19222, 38.94349 ], [ -77.19324, 38.94362 ] ], [ [ -77.19375, 38.94962 ], [ -77.19389, 38.94929 ], [ -77.19356, 38.94931 ], [ -77.19375, 38.94962 ] ], [ [ -77.18947, 38.94253 ], [ -77.19013, 38.94254 ], [ -77.18998, 38.94241 ], [ -77.18947, 38.94253 ] ], [ [ -77.18619, 38.9496 ], [ -77.18619, 38.94966 ], [ -77.18641, 38.94963 ], [ -77.18619, 38.9496 ] ], [ [ -77.18381, 38.94659 ], [ -77.18377, 38.94669 ], [ -77.18392, 38.94663 ], [ -77.18381, 38.94659 ] ], [ [ -77.18318, 38.9437 ], [ -77.18249, 38.94314 ], [ -77.18219, 38.94364 ], [ -77.18318, 38.9437 ] ], [ [ -77.18468, 38.94477 ], [ -77.18478, 38.94443 ], [ -77.18466, 38.94453 ], [ -77.18468, 38.94477 ] ], [ [ -77.18467, 38.94683 ], [ -77.18481, 38.94726 ], [ -77.18519, 38.94692 ], [ -77.18467, 38.94683 ] ], [ [ -77.18295, 38.93987 ], [ -77.18315, 38.93952 ], [ -77.18308, 38.93956 ], [ -77.18295, 38.93987 ] ], [ [ -77.1806, 38.94283 ], [ -77.18106, 38.94298 ], [ -77.18157, 38.94211 ], [ -77.1806, 38.94283 ] ], [ [ -77.18091, 38.94568 ], [ -77.18152, 38.94595 ], [ -77.18208, 38.94493 ], [ -77.18144, 38.94455 ], [ -77.18091, 38.94568 ] ], [ [ -77.17986, 38.94427 ], [ -77.17978, 38.94481 ], [ -77.18032, 38.94391 ], [ -77.17992, 38.94379 ], [ -77.17986, 38.94427 ] ], [ [ -77.18323, 38.94905 ], [ -77.18326, 38.94908 ], [ -77.18335, 38.94908 ], [ -77.18323, 38.94905 ] ] ] } },
{ "type": "Feature", "properties": { "variant": "T2s", "miles": 1.5 }, "geometry": { "type": "Polygon", "coordinates": [ [ [ -77.19281, 38.93347 ], [ -77.19332, 38.93425 ], [ -77.19216, 38.93491 ], [ -77.19226, 38.93611 ], [ -77.19056, 38.93621 ], [ -77.19026, 38.9377 ], [ -77.19349, 38.93711 ], [ -77.19388, 38.93834 ], [ -77.19351, 38.93901 ], [ -77.1919, 38.93983 ], [ -77.19228, 38.94033 ], [ -77.19166, 38.94077 ], [ -77.19261, 38.94158 ], [ -77.19267, 38.94195 ], [ -77.19406, 38.94143 ], [ -77.19481, 38.94186 ], [ -77.19524, 38.94531 ], [ -77.19961, 38.94564 ], [ -77.20012, 38.94638 ], [ -77.20087, 38.94638 ], [ -77.20114, 38.94673 ], [ -77.20085, 38.94774 ], [ -77.19944, 38.94813 ], [ -77.199, 38.949 ], [ -77.19808, 38.9496 ], [ -77.19636, 38.94915 ], [ -77.19625, 38.94833 ], [ -77.19558, 38.94797 ], [ -77.19587, 38.95057 ], [ -77.1968, 38.95118 ], [ -77.19612, 38.95195 ], [ -77.19293, 38.95374 ], [ -77.19232, 38.95453 ], [ -77.19179, 38.95456 ], [ -77.18115, 38.95213 ], [ -77.17393, 38.95096 ], [ -77.16974, 38.9497 ], [ -77.17005, 38.94897 ], [ -77.17058, 38.94894 ], [ -77.17688, 38.95031 ], [ -77.1773, 38.94924 ], [ -77.17679, 38.94871 ], [ -77.17668, 38.94756 ], [ -77.17761, 38.94661 ], [ -77.17444, 38.94564 ], [ -77.17484, 38.94189 ], [ -77.17106, 38.94319 ], [ -77.17126, 38.9439 ], [ -77.17205, 38.94367 ], [ -77.17264, 38.94428 ], [ -77.17188, 38.94487 ], [ -77.16995, 38.94526 ], [ -77.16889, 38.9449 ], [ -77.16835, 38.94298 ], [ -77.16596, 38.94357 ], [ -77.16552, 38.94333 ], [ -77.16574, 38.9422 ], [ -77.1691, 38.9415 ], [ -77.16805, 38.93889 ], [ -77.16846, 38.93862 ], [ -77.16929, 38.93884 ], [ -77.17041, 38.94114 ], [ -77.17338, 38.94032 ], [ -77.17725, 38.93984 ], [ -77.17707, 38.9393 ], [ -77.17744, 38.939 ], [ -77.18094, 38.93747 ], [ -77.18036, 38.93706 ], [ -77.17941, 38.93774 ], [ -77.17891, 38.9376 ], [ -77.17867, 38.93723 ], [ -77.17927, 38.9363 ], [ -77.17679, 38.93452 ], [ -77.17672, 38.93386 ], [ -77.17721, 38.93351 ], [ -77.17805, 38.93362 ], [ -77.17775, 38.93325 ], [ -77.17833, 38.93263 ], [ -77.18034, 38.93375 ], [ -77.18099, 38.93319 ], [ -77.18044, 38.93174 ], [ -77.18077, 38.93142 ], [ -77.1813, 38.93137 ], [ -77.18192, 38.932 ], [ -77.18382, 38.93164 ], [ -77.18518, 38.93406 ], [ -77.18613, 38.93393 ], [ -77.18648, 38.93424 ], [ -77.1863, 38.93483 ], [ -77.18524, 38.9352 ], [ -77.18647, 38.93573 ], [ -77.18676, 38.93518 ], [ -77.18836, 38.93452 ], [ -77.1889, 38.93346 ], [ -77.18864, 38.93231 ], [ -77.18905, 38.93205 ], [ -77.18991, 38.93242 ], [ -77.19075, 38.93413 ], [ -77.19281, 38.93347 ] ], [ [ -77.18552, 38.95096 ], [ -77.18752, 38.95115 ], [ -77.18824, 38.95157 ], [ -77.18852, 38.95268 ], [ -77.1894, 38.95283 ], [ -77.18825, 38.95023 ], [ -77.18569, 38.95081 ], [ -77.18483, 38.95022 ], [ -77.18419, 38.95119 ], [ -77.18338, 38.95075 ], [ -77.18344, 38.95016 ], [ -77.18265, 38.9505 ], [ -77.1822, 38.95029 ], [ -77.18187, 38.94915 ], [ -77.18241, 38.94873 ], [ -77.18192, 38.94785 ], [ -77.18224, 38.94688 ], [ -77.18141, 38.94713 ], [ -77.18102, 38.94952 ], [ -77.18008, 38.94931 ], [ -77.17981, 38.94871 ], [ -77.17943, 38.94995 ], [ -77.1784, 38.9501 ], [ -77.17825, 38.95053 ], [ -77.17912, 38.95052 ], [ -77.18016, 38.94949 ], [ -77.18171, 38.95113 ], [ -77.18407, 38.95167 ], [ -77.18552, 38.95096 ] ], [ [ -77.18467, 38.94683 ], [ -77.18474, 38.94724 ], [ -77.18481, 38.94726 ], [ -77.18505, 38.94694 ], [ -77.18467, 38.94683 ] ], [ [ -77.18457, 38.94458 ], [ -77.18431, 38.94466 ], [ -77.18468, 38.94477 ], [ -77.18457, 38.94458 ] ], [ [ -77.18632, 38.94255 ], [ -77.18628, 38.94246 ], [ -77.18619, 38.94258 ], [ -77.18632, 38.94255 ] ], [ [ -77.18475, 38.94215 ], [ -77.18483, 38.94221 ], [ -77.185, 38.94203 ], [ -77.18475, 38.94215 ] ], [ [ -77.18249, 38.93646 ], [ -77.18018, 38.93549 ], [ -77.18225, 38.93693 ], [ -77.18249, 38.93646 ] ], [ [ -77.18153, 38.93434 ], [ -77.18128, 38.93455 ], [ -77.18172, 38.93474 ], [ -77.18153, 38.93434 ] ], [ [ -77.19428, 38.95164 ], [ -77.19303, 38.95167 ], [ -77.19279, 38.95042 ], [ -77.19068, 38.94958 ], [ -77.19108, 38.95045 ], [ -77.18997, 38.95066 ], [ -77.19084, 38.95308 ], [ -77.19175, 38.95316 ], [ -77.19428, 38.95164 ] ], [ [ -77.18778, 38.94869 ], [ -77.18782, 38.9487 ], [ -77.18782, 38.94869 ], [ -77.18778, 38.94869 ] ], [ [ -77.18938, 38.94755 ], [ -77.1903, 38.94743 ], [ -77.19044, 38.94663 ], [ -77.18826, 38.9464 ], [ -77.18901, 38.94805 ], [ -77.18938, 38.94755 ] ], [ [ -77.18986, 38.94548 ], [ -77.18987, 38.94545 ], [ -77.18679, 38.94512 ], [ -77.18986, 38.94548 ] ], [ [ -77.18875, 38.94361 ], [ -77.1879, 38.94361 ], [ -77.18827, 38.94369 ], [ -77.18858, 38.94423 ], [ -77.18875, 38.94361 ] ], [ [ -77.18655, 38.94401 ], [ -77.18719, 38.94407 ], [ -77.18768, 38.94361 ], [ -77.18689, 38.9436 ], [ -77.18655, 38.94401 ] ], [ [ -77.19052, 38.94139 ], [ -77.18981, 38.93873 ], [ -77.18999, 38.94112 ], [ -77.18903, 38.94127 ], [ -77.18846, 38.93995 ], [ -77.18834, 38.94155 ], [ -77.19052, 38.94139 ] ], [ [ -77.19245, 38.94576 ], [ -77.19392, 38.94592 ], [ -77.19391, 38.94584 ], [ -77.19123, 38.94563 ], [ -77.19245, 38.94576 ] ], [ [ -77.19265, 38.94201 ], [ -77.19171, 38.94233 ], [ -77.19179, 38.94241 ], [ -77.19283, 38.94241 ], [ -77.19265, 38.94201 ] ], [ [ -77.19964, 38.94704 ], [ -77.19978, 38.94703 ], [ -77.19985, 38.94663 ], [ -77.19964, 38.94704 ] ], [ [ -77.19807, 38.94745 ], [ -77.19817, 38.94746 ], [ -77.1983, 38.94667 ], [ -77.19793, 38.94665 ], [ -77.19807, 38.94745 ] ], [ [ -77.19368, 38.94476 ], [ -77.19379, 38.94476 ], [ -77.19378, 38.94469 ], [ -77.19297, 38.94469 ], [ -77.19368, 38.94476 ] ], [ [ -77.19324, 38.94362 ], [ -77.19364, 38.94361 ], [ -77.19222, 38.94349 ], [ -77.19324, 38.94362 ] ], [ [ -77.19766, 38.94855 ], [ -77.19772, 38.9485 ], [ -77.19749, 38.94846 ], [ -77.19766, 38.94855 ] ], [ [ -77.19665, 38.94818 ], [ -77.19701, 38.94822 ], [ -77.19687, 38.94808 ], [ -77.19665, 38.94818 ] ], [ [ -77.19389, 38.94794 ], [ -77.19371, 38.94821 ], [ -77.19422, 38.94817 ], [ -77.19389, 38.94794 ] ], [ [ -77.19279, 38.94829 ], [ -77.19259, 38.94805 ], [ -77.19244, 38.94819 ], [ -77.19279, 38.94829 ] ], [ [ -77.19375, 38.94962 ], [ -77.19389, 38.94929 ], [ -77.19356, 38.94931 ], [ -77.19375, 38.94962 ] ], [ [ -77.19002, 38.94425 ], [ -77.19, 38.94437 ], [ -77.19013, 38.94438 ], [ -77.19002, 38.94425 ] ], [ [ -77.19013, 38.94362 ], [ -77.19011, 38.94379 ], [ -77.19044, 38.94362 ], [ -77.19013, 38.94362 ] ], [ [ -77.18608, 38.93795 ], [ -77.18626, 38.93869 ], [ -77.18717, 38.93871 ], [ -77.18721, 38.93832 ], [ -77.18608, 38.93795 ] ], [ [ -77.18619, 38.94966 ], [ -77.18641, 38.94963 ], [ -77.18619, 38.9496 ], [ -77.18619, 38.94966 ] ], [ [ -77.18575, 38.94846 ], [ -77.1872, 38.94862 ], [ -77.18658, 38.9483 ], [ -77.18575, 38.94846 ] ], [ [ -77.18563, 38.95206 ], [ -77.18707, 38.95242 ], [ -77.18703, 38.95217 ], [ -77.18563, 38.95206 ] ], [ [ -77.18032, 38.94391 ], [ -77.17992, 38.94379 ], [ -77.17978, 38.94481 ], [ -77.18032, 38.94391 ] ], [ [ -77.18091, 38.94568 ], [ -77.18152, 38.94595 ], [ -77.18208, 38.94493 ], [ -77.18162, 38.94467 ], [ -77.18091, 38.94568 ] ], [ [ -77.18266, 38.94393 ], [ -77.18318, 38.9437 ], [ -77.18249, 38.94314 ], [ -77.18229, 38.94371 ], [ -77.18266, 38.94393 ] ], [ [ -77.18295, 38.93987 ], [ -77.18315, 38.93952 ], [ -77.18308, 38.93956 ], [ -77.18295, 38.93987 ] ], [ [ -77.18326, 38.94908 ], [ -77.18335, 38.94908 ], [ -77.18323, 38.94905 ], [ -77.18326, 38.94908 ] ], [ [ -77.1831, 38.94211 ], [ -77.18322, 38.9422 ], [ -77.1833, 38.94203 ], [ -77.18394, 38.94093 ], [ -77.1831, 38.94211 ] ], [ [ -77.18381, 38.94659 ], [ -77.18377, 38.94669 ], [ -77.18392, 38.94663 ], [ -77.18381, 38.94659 ] ], [ [ -77.1806, 38.94283 ], [ -77.18106, 38.94298 ], [ -77.18157, 38.94211 ], [ -77.1806, 38.94283 ] ], [ [ -77.17831, 38.94677 ], [ -77.17798, 38.9467 ], [ -77.17816, 38.94676 ], [ -77.17831, 38.94677 ] ] ] } }
]
}
