{
"type": "FeatureCollection",
"name": "263",
"crs": { "type": "name", "properties": { "name": "urn:ogc:def:crs:OGC:1.3:CRS84" } },
"xy_coordinate_resolution": 1e-05,
"features": [
{ "type": "Feature", "properties": { "variant": "T0", "miles": 0.5 }, "geometry": { "type": "Polygon", "coordinates": [ [ [ -77.42428, 38.87884 ], [ -77.42464, 38.87955 ], [ -77.42394, 38.88073 ], [ -77.42469, 38.88104 ], [ -77.42465, 38.88295 ], [ -77.42369, 38.88308 ], [ -77.42284, 38.88257 ], [ -77.4222, 38.88363 ], [ -77.42181, 38.88391 ], [ -77.42104, 38.88369 ], [ -77.42081, 38.88435 ], [ -77.42029, 38.88444 ], [ -77.41965, 38.88358 ], [ -77.4206, 38.88189 ], [ -77.41982, 38.88136 ], [ -77.41771, 38.88319 ], [ -77.41962, 38.88385 ], [ -77.41886, 38.88542 ], [ -77.41922, 38.88638 ], [ -77.41888, 38.8867 ], [ -77.41737, 38.88628 ], [ -77.41707, 38.88496 ], [ -77.41492, 38.88694 ], [ -77.41332, 38.88682 ], [ -77.4134, 38.88553 ], [ -77.41506, 38.88389 ], [ -77.41409, 38.88453 ], [ -77.41316, 38.88463 ], [ -77.41222, 38.88421 ], [ -77.41214, 38.88345 ], [ -77.41262, 38.88326 ], [ -77.41346, 38.88356 ], [ -77.41505, 38.88252 ], [ -77.41599, 38.88307 ], [ -77.41955, 38.8803 ], [ -77.41872, 38.87969 ], [ -77.41572, 38.87939 ], [ -77.41567, 38.87862 ], [ -77.41881, 38.8786 ], [ -77.42024, 38.8792 ], [ -77.42113, 38.87865 ], [ -77.42181, 38.87907 ], [ -77.4227, 38.87853 ], [ -77.42428, 38.87884 ] ], [ [ -77.42302, 38.87971 ], [ -77.42303, 38.87969 ], [ -77.42295, 38.87968 ], [ -77.42302, 38.87971 ] ] ] } },
{ "type": "Feature", "properties": { "variant": "T0", "miles": 1.0 }, "geometry": { "type": "MultiPolygon", "coordinates": [ [ [ [ -77.42261, 38.87352 ], [ -77.42629, 38.87151 ], [ -77.42696, 38.87194 ], [ -77.42713, 38.87306 ], [ -77.42352, 38.87538 ], [ -77.42351, 38.87616 ], [ -77.42615, 38.87426 ], [ -77.42727, 38.87483 ], [ -77.42755, 38.87565 ], [ -77.42694, 38.87616 ], [ -77.42615, 38.87567 ], [ -77.42505, 38.87661 ], [ -77.42643, 38.87776 ], [ -77.42613, 38.87906 ], [ -77.42415, 38.87857 ], [ -77.42394, 38.87811 ], [ -77.42352, 38.87867 ], [ -77.42549, 38.8796 ], [ -77.42754, 38.88004 ], [ -77.42758, 38.88045 ], [ -77.42669, 38.88124 ], [ -77.42851, 38.88096 ], [ -77.42953, 38.88154 ], [ -77.4305, 38.88156 ], [ -77.43087, 38.88226 ], [ -77.42983, 38.88259 ], [ -77.42873, 38.88419 ], [ -77.42695, 38.8845 ], [ -77.42652, 38.88608 ], [ -77.42574, 38.88642 ], [ -77.42494, 38.88629 ], [ -77.4216, 38.88765 ], [ -77.4211, 38.88835 ], [ -77.42034, 38.88808 ], [ -77.41987, 38.8872 ], [ -77.41886, 38.8878 ], [ -77.41851, 38.88832 ], [ -77.41982, 38.88883 ], [ -77.42078, 38.88856 ], [ -77.42121, 38.8888 ], [ -77.42115, 38.88935 ], [ -77.42314, 38.89013 ], [ -77.42349, 38.89044 ], [ -77.42305, 38.89113 ], [ -77.41723, 38.88942 ], [ -77.41669, 38.88981 ], [ -77.4153, 38.88932 ], [ -77.41433, 38.89019 ], [ -77.41456, 38.89117 ], [ -77.41595, 38.89108 ], [ -77.41684, 38.89198 ], [ -77.41608, 38.89246 ], [ -77.41537, 38.89206 ], [ -77.41488, 38.89234 ], [ -77.41501, 38.89373 ], [ -77.41405, 38.89388 ], [ -77.41297, 38.89042 ], [ -77.41101, 38.8902 ], [ -77.40846, 38.88876 ], [ -77.40884, 38.88805 ], [ -77.41075, 38.88853 ], [ -77.41151, 38.88784 ], [ -77.41235, 38.8882 ], [ -77.41252, 38.88761 ], [ -77.40549, 38.88488 ], [ -77.40517, 38.88394 ], [ -77.4061, 38.88371 ], [ -77.40861, 38.88465 ], [ -77.40883, 38.883 ], [ -77.40847, 38.88241 ], [ -77.40966, 38.88114 ], [ -77.40825, 38.88031 ], [ -77.40817, 38.8799 ], [ -77.40901, 38.87951 ], [ -77.41044, 38.87981 ], [ -77.41124, 38.88095 ], [ -77.41051, 38.88216 ], [ -77.41119, 38.88216 ], [ -77.41196, 38.879 ], [ -77.41331, 38.87778 ], [ -77.4152, 38.878 ], [ -77.41595, 38.87846 ], [ -77.41903, 38.87864 ], [ -77.42024, 38.8792 ], [ -77.42113, 38.87865 ], [ -77.42181, 38.87907 ], [ -77.42267, 38.87764 ], [ -77.42244, 38.8769 ], [ -77.42096, 38.87813 ], [ -77.41938, 38.87681 ], [ -77.417, 38.87647 ], [ -77.41644, 38.8757 ], [ -77.41679, 38.87539 ], [ -77.41783, 38.87558 ], [ -77.41813, 38.87492 ], [ -77.42053, 38.87467 ], [ -77.42015, 38.87333 ], [ -77.421, 38.87265 ], [ -77.42056, 38.87138 ], [ -77.42123, 38.87023 ], [ -77.42215, 38.8705 ], [ -77.42192, 38.87167 ], [ -77.4226, 38.87266 ], [ -77.42261, 38.87352 ] ], [ [ -77.42151, 38.88652 ], [ -77.42168, 38.88647 ], [ -77.42121, 38.88661 ], [ -77.42151, 38.88652 ] ], [ [ -77.421, 38.88547 ], [ -77.42045, 38.88556 ], [ -77.41992, 38.88546 ], [ -77.42019, 38.88586 ], [ -77.421, 38.88547 ] ], [ [ -77.41973, 38.88537 ], [ -77.41932, 38.88495 ], [ -77.41886, 38.88542 ], [ -77.41891, 38.88551 ], [ -77.41973, 38.88537 ] ], [ [ -77.41791, 38.88333 ], [ -77.41976, 38.88329 ], [ -77.4206, 38.88189 ], [ -77.42008, 38.88132 ], [ -77.41791, 38.88333 ] ], [ [ -77.41582, 38.88291 ], [ -77.41955, 38.8803 ], [ -77.41925, 38.87995 ], [ -77.41582, 38.88291 ] ], [ [ -77.42207, 38.87574 ], [ -77.42209, 38.87517 ], [ -77.4212, 38.87562 ], [ -77.4215, 38.87563 ], [ -77.42207, 38.87574 ] ], [ [ -77.42558, 38.88377 ], [ -77.42503, 38.88304 ], [ -77.42476, 38.8831 ], [ -77.42456, 38.8836 ], [ -77.42558, 38.88377 ] ], [ [ -77.42722, 38.88224 ], [ -77.42724, 38.88228 ], [ -77.42724, 38.88223 ], [ -77.42722, 38.88224 ] ], [ [ -77.42463, 38.882 ], [ -77.42473, 38.88198 ], [ -77.42462, 38.88197 ], [ -77.42463, 38.882 ] ], [ [ -77.42182, 38.88405 ], [ -77.42198, 38.8838 ], [ -77.42165, 38.88391 ], [ -77.42182, 38.88405 ] ], [ [ -77.42295, 38.87968 ], [ -77.42302, 38.87971 ], [ -77.42303, 38.87969 ], [ -77.42295, 38.87968 ] ], [ [ -77.42252, 38.88309 ], [ -77.42248, 38.88316 ], [ -77.42257, 38.88315 ], [ -77.42252, 38.88309 ] ], [ [ -77.42012, 38.8759 ], [ -77.4202, 38.87594 ], [ -77.42032, 38.87587 ], [ -77.42012, 38.8759 ] ], [ [ -77.41629, 38.88707 ], [ -77.41628, 38.88708 ], [ -77.41629, 38.88708 ], [ -77.41629, 38.88707 ] ], [ [ -77.41319, 38.88625 ], [ -77.41353, 38.88536 ], [ -77.41503, 38.88386 ], [ -77.41231, 38.8861 ], [ -77.41319, 38.88625 ] ], [ [ -77.41489, 38.88138 ], [ -77.41489, 38.8813 ], [ -77.41478, 38.88138 ], [ -77.41489, 38.88138 ] ], [ [ -77.41292, 38.88282 ], [ -77.41255, 38.8826 ], [ -77.4126, 38.88302 ], [ -77.41292, 38.88282 ] ], [ [ -77.41162, 38.88423 ], [ -77.41137, 38.88352 ], [ -77.41107, 38.88427 ], [ -77.41162, 38.88423 ] ], [ [ -77.41205, 38.88461 ], [ -77.41214, 38.88491 ], [ -77.41236, 38.88468 ], [ -77.41205, 38.88461 ] ], [ [ -77.41261, 38.88937 ], [ -77.41235, 38.88832 ], [ -77.41177, 38.88928 ], [ -77.41261, 38.88937 ] ] ], [ [ [ -77.40918, 38.89157 ], [ -77.40906, 38.89081 ], [ -77.41042, 38.89077 ], [ -77.41039, 38.89153 ], [ -77.40918, 38.89157 ] ] ] ] } },
{ "type": "Feature", "properties": { "variant": "T0", "miles": 1.5 }, "geometry": { "type": "Polygon", "coordinates": [ [ [ -77.43006, 38.86616 ], [ -77.43055, 38.8665 ], [ -77.43059, 38.86719 ], [ -77.43187, 38.86801 ], [ -77.43167, 38.86839 ], [ -77.42989, 38.86865 ], [ -77.42999, 38.86914 ], [ -77.43171, 38.86848 ], [ -77.43429, 38.86842 ], [ -77.43499, 38.86896 ], [ -77.43431, 38.86951 ], [ -77.43156, 38.86959 ], [ -77.42999, 38.87048 ], [ -77.43087, 38.87046 ], [ -77.43115, 38.87081 ], [ -77.43136, 38.87342 ], [ -77.43247, 38.87477 ], [ -77.43196, 38.87537 ], [ -77.43447, 38.87755 ], [ -77.43429, 38.87794 ], [ -77.43332, 38.87798 ], [ -77.43019, 38.87535 ], [ -77.42964, 38.87535 ], [ -77.42929, 38.87471 ], [ -77.42811, 38.875 ], [ -77.42742, 38.87451 ], [ -77.42738, 38.87593 ], [ -77.42642, 38.87607 ], [ -77.42615, 38.87567 ], [ -77.42505, 38.87661 ], [ -77.42641, 38.8777 ], [ -77.42621, 38.87897 ], [ -77.4276, 38.87855 ], [ -77.42901, 38.88036 ], [ -77.4303, 38.88077 ], [ -77.43143, 38.88035 ], [ -77.43283, 38.88068 ], [ -77.43495, 38.88036 ], [ -77.43706, 38.88099 ], [ -77.43813, 38.88075 ], [ -77.4388, 38.88152 ], [ -77.43815, 38.8821 ], [ -77.43483, 38.88144 ], [ -77.43161, 38.8817 ], [ -77.43156, 38.88243 ], [ -77.4303, 38.88346 ], [ -77.42882, 38.88417 ], [ -77.42695, 38.8845 ], [ -77.42652, 38.88608 ], [ -77.42472, 38.88645 ], [ -77.42484, 38.88719 ], [ -77.4265, 38.88676 ], [ -77.42778, 38.88832 ], [ -77.42709, 38.89104 ], [ -77.42864, 38.88905 ], [ -77.42985, 38.88955 ], [ -77.42965, 38.89142 ], [ -77.42924, 38.89168 ], [ -77.42835, 38.8915 ], [ -77.42801, 38.89202 ], [ -77.43114, 38.89329 ], [ -77.43142, 38.89403 ], [ -77.42999, 38.89421 ], [ -77.42297, 38.89163 ], [ -77.42136, 38.89422 ], [ -77.42177, 38.89502 ], [ -77.42076, 38.89519 ], [ -77.42006, 38.89632 ], [ -77.41914, 38.89657 ], [ -77.41882, 38.89584 ], [ -77.41961, 38.89457 ], [ -77.41802, 38.8925 ], [ -77.41706, 38.89253 ], [ -77.41834, 38.89428 ], [ -77.41868, 38.8968 ], [ -77.42068, 38.8974 ], [ -77.42086, 38.89779 ], [ -77.42014, 38.89831 ], [ -77.41822, 38.89783 ], [ -77.41864, 38.89889 ], [ -77.4182, 38.89911 ], [ -77.41739, 38.89885 ], [ -77.41663, 38.89918 ], [ -77.41664, 38.89994 ], [ -77.41569, 38.90011 ], [ -77.41513, 38.89878 ], [ -77.41435, 38.89896 ], [ -77.41374, 38.8985 ], [ -77.41355, 38.89881 ], [ -77.41208, 38.89902 ], [ -77.41084, 38.89744 ], [ -77.41113, 38.89671 ], [ -77.41283, 38.89701 ], [ -77.41383, 38.89638 ], [ -77.41313, 38.89577 ], [ -77.41396, 38.8952 ], [ -77.41269, 38.89293 ], [ -77.41339, 38.89205 ], [ -77.41297, 38.89042 ], [ -77.4108, 38.89011 ], [ -77.41039, 38.89153 ], [ -77.40809, 38.89157 ], [ -77.40745, 38.89117 ], [ -77.40714, 38.88992 ], [ -77.40643, 38.88951 ], [ -77.40677, 38.8889 ], [ -77.40606, 38.88877 ], [ -77.40531, 38.88979 ], [ -77.40616, 38.89108 ], [ -77.40514, 38.8913 ], [ -77.40462, 38.89264 ], [ -77.40368, 38.89286 ], [ -77.40335, 38.89254 ], [ -77.40371, 38.89156 ], [ -77.402, 38.89157 ], [ -77.40145, 38.89093 ], [ -77.40284, 38.88996 ], [ -77.40379, 38.88994 ], [ -77.4046, 38.88862 ], [ -77.40373, 38.8878 ], [ -77.40395, 38.88694 ], [ -77.40463, 38.88647 ], [ -77.40479, 38.88462 ], [ -77.39726, 38.88167 ], [ -77.39693, 38.88095 ], [ -77.39749, 38.88036 ], [ -77.39802, 38.88037 ], [ -77.40026, 38.8814 ], [ -77.40178, 38.87985 ], [ -77.40257, 38.87969 ], [ -77.40304, 38.88036 ], [ -77.40268, 38.88069 ], [ -77.40415, 38.88019 ], [ -77.40688, 38.8812 ], [ -77.4082, 38.87857 ], [ -77.40796, 38.87611 ], [ -77.40718, 38.87602 ], [ -77.40707, 38.87526 ], [ -77.4131, 38.87469 ], [ -77.41319, 38.87344 ], [ -77.41078, 38.87238 ], [ -77.41075, 38.87161 ], [ -77.41123, 38.87144 ], [ -77.41414, 38.87259 ], [ -77.41499, 38.87259 ], [ -77.41458, 38.87141 ], [ -77.41476, 38.87102 ], [ -77.41553, 38.87093 ], [ -77.41542, 38.8696 ], [ -77.41606, 38.86902 ], [ -77.4168, 38.86952 ], [ -77.41687, 38.87034 ], [ -77.41841, 38.86998 ], [ -77.42066, 38.87098 ], [ -77.42149, 38.86758 ], [ -77.41832, 38.867 ], [ -77.41781, 38.86635 ], [ -77.41812, 38.86601 ], [ -77.41993, 38.86616 ], [ -77.42021, 38.86538 ], [ -77.42219, 38.86552 ], [ -77.4223, 38.86489 ], [ -77.42394, 38.86459 ], [ -77.42461, 38.86485 ], [ -77.42498, 38.86564 ], [ -77.42666, 38.86617 ], [ -77.43006, 38.86616 ] ], [ [ -77.42172, 38.89116 ], [ -77.42138, 38.89102 ], [ -77.41997, 38.89319 ], [ -77.42024, 38.89356 ], [ -77.42172, 38.89116 ] ], [ [ -77.42012, 38.89054 ], [ -77.41777, 38.88964 ], [ -77.41921, 38.89193 ], [ -77.42012, 38.89054 ] ], [ [ -77.4209, 38.88831 ], [ -77.41987, 38.8872 ], [ -77.41851, 38.88832 ], [ -77.41988, 38.8888 ], [ -77.4209, 38.88831 ] ], [ [ -77.42066, 38.8856 ], [ -77.421, 38.88548 ], [ -77.421, 38.88547 ], [ -77.41992, 38.88546 ], [ -77.42066, 38.8856 ] ], [ [ -77.41932, 38.88495 ], [ -77.41886, 38.88542 ], [ -77.41891, 38.88551 ], [ -77.41973, 38.88537 ], [ -77.41932, 38.88495 ] ], [ [ -77.4206, 38.88189 ], [ -77.42008, 38.88132 ], [ -77.41771, 38.88319 ], [ -77.41903, 38.88352 ], [ -77.41977, 38.88327 ], [ -77.4206, 38.88189 ] ], [ [ -77.41925, 38.87995 ], [ -77.41639, 38.88235 ], [ -77.41599, 38.88307 ], [ -77.41946, 38.88015 ], [ -77.41925, 38.87995 ] ], [ [ -77.42024, 38.8792 ], [ -77.42113, 38.87865 ], [ -77.42181, 38.87907 ], [ -77.42267, 38.87764 ], [ -77.42244, 38.8769 ], [ -77.42096, 38.87813 ], [ -77.41938, 38.87681 ], [ -77.4169, 38.87641 ], [ -77.41676, 38.87725 ], [ -77.41513, 38.8778 ], [ -77.41429, 38.87736 ], [ -77.4137, 38.87763 ], [ -77.41307, 38.87728 ], [ -77.4125, 38.87762 ], [ -77.412, 38.87748 ], [ -77.41145, 38.87631 ], [ -77.41106, 38.87638 ], [ -77.41115, 38.87733 ], [ -77.41064, 38.87746 ], [ -77.40942, 38.87668 ], [ -77.40947, 38.8796 ], [ -77.41044, 38.87981 ], [ -77.41123, 38.88085 ], [ -77.41051, 38.88216 ], [ -77.41119, 38.88216 ], [ -77.41164, 38.8815 ], [ -77.41193, 38.87906 ], [ -77.41331, 38.87778 ], [ -77.4152, 38.878 ], [ -77.41595, 38.87846 ], [ -77.41925, 38.87869 ], [ -77.42024, 38.8792 ] ], [ [ -77.42053, 38.87467 ], [ -77.42013, 38.87347 ], [ -77.42049, 38.87273 ], [ -77.421, 38.87265 ], [ -77.42075, 38.87233 ], [ -77.41996, 38.87269 ], [ -77.41886, 38.87237 ], [ -77.41869, 38.87364 ], [ -77.41929, 38.87486 ], [ -77.42053, 38.87467 ] ], [ [ -77.41802, 38.87092 ], [ -77.41806, 38.87093 ], [ -77.41803, 38.87089 ], [ -77.41802, 38.87092 ] ], [ [ -77.42503, 38.88304 ], [ -77.42476, 38.8831 ], [ -77.42456, 38.8836 ], [ -77.42573, 38.88385 ], [ -77.42503, 38.88304 ] ], [ [ -77.42468, 38.88197 ], [ -77.42462, 38.88197 ], [ -77.42463, 38.882 ], [ -77.42468, 38.88197 ] ], [ [ -77.42531, 38.87902 ], [ -77.42505, 38.87858 ], [ -77.42415, 38.87857 ], [ -77.42394, 38.87811 ], [ -77.42352, 38.87867 ], [ -77.42531, 38.87902 ] ], [ [ -77.42616, 38.87403 ], [ -77.42653, 38.8736 ], [ -77.42352, 38.87538 ], [ -77.42358, 38.87628 ], [ -77.42616, 38.87403 ] ], [ [ -77.42527, 38.87 ], [ -77.42408, 38.87038 ], [ -77.42238, 38.87023 ], [ -77.42272, 38.87104 ], [ -77.42192, 38.87167 ], [ -77.4226, 38.87266 ], [ -77.42261, 38.87352 ], [ -77.42524, 38.8718 ], [ -77.42527, 38.87 ] ], [ [ -77.4248, 38.86743 ], [ -77.42524, 38.86676 ], [ -77.42364, 38.86656 ], [ -77.42395, 38.86755 ], [ -77.42281, 38.86796 ], [ -77.42465, 38.86845 ], [ -77.42445, 38.86908 ], [ -77.42524, 38.86891 ], [ -77.4248, 38.86743 ] ], [ [ -77.42873, 38.8712 ], [ -77.42712, 38.87216 ], [ -77.42723, 38.87279 ], [ -77.42873, 38.8712 ] ], [ [ -77.4271, 38.86929 ], [ -77.42691, 38.87092 ], [ -77.42787, 38.87035 ], [ -77.4271, 38.86929 ] ], [ [ -77.4283, 38.87378 ], [ -77.42822, 38.87354 ], [ -77.42799, 38.87375 ], [ -77.4283, 38.87378 ] ], [ [ -77.42724, 38.88223 ], [ -77.42722, 38.88224 ], [ -77.42724, 38.88228 ], [ -77.42724, 38.88223 ] ], [ [ -77.42613, 38.88938 ], [ -77.42612, 38.88937 ], [ -77.42612, 38.88939 ], [ -77.42613, 38.88938 ] ], [ [ -77.42425, 38.86918 ], [ -77.42261, 38.86903 ], [ -77.4226, 38.86916 ], [ -77.42425, 38.86918 ] ], [ [ -77.4233, 38.88815 ], [ -77.42364, 38.88843 ], [ -77.4236, 38.88819 ], [ -77.4233, 38.88815 ] ], [ [ -77.42337, 38.88697 ], [ -77.4233, 38.88703 ], [ -77.42339, 38.88703 ], [ -77.42337, 38.88697 ] ], [ [ -77.42182, 38.88405 ], [ -77.42211, 38.88398 ], [ -77.42198, 38.8838 ], [ -77.42182, 38.88405 ] ], [ [ -77.42257, 38.88315 ], [ -77.42252, 38.88309 ], [ -77.42248, 38.88316 ], [ -77.42257, 38.88315 ] ], [ [ -77.42209, 38.87517 ], [ -77.4212, 38.87562 ], [ -77.42198, 38.87574 ], [ -77.42209, 38.87517 ] ], [ [ -77.42302, 38.87971 ], [ -77.42303, 38.87969 ], [ -77.42295, 38.87968 ], [ -77.42302, 38.87971 ] ], [ [ -77.4202, 38.87594 ], [ -77.42032, 38.87587 ], [ -77.42012, 38.8759 ], [ -77.4202, 38.87594 ] ], [ [ -77.42121, 38.88661 ], [ -77.42168, 38.88647 ], [ -77.42155, 38.88648 ], [ -77.42121, 38.88661 ] ], [ [ -77.42168, 38.88766 ], [ -77.42182, 38.88759 ], [ -77.4216, 38.88765 ], [ -77.42168, 38.88766 ] ], [ [ -77.41783, 38.87472 ], [ -77.41733, 38.87319 ], [ -77.41609, 38.87332 ], [ -77.41657, 38.87388 ], [ -77.4162, 38.8747 ], [ -77.41783, 38.87472 ] ], [ [ -77.41524, 38.87367 ], [ -77.41516, 38.87368 ], [ -77.41523, 38.8737 ], [ -77.41524, 38.87367 ] ], [ [ -77.41424, 38.87639 ], [ -77.41438, 38.87699 ], [ -77.41454, 38.87625 ], [ -77.41424, 38.87639 ] ], [ [ -77.41401, 38.89774 ], [ -77.41344, 38.89799 ], [ -77.41373, 38.89834 ], [ -77.41428, 38.89792 ], [ -77.41401, 38.89774 ] ], [ [ -77.41353, 38.88536 ], [ -77.41503, 38.88386 ], [ -77.41231, 38.8861 ], [ -77.41319, 38.88625 ], [ -77.41353, 38.88536 ] ], [ [ -77.41255, 38.8826 ], [ -77.4126, 38.88302 ], [ -77.41292, 38.88282 ], [ -77.41255, 38.8826 ] ], [ [ -77.41595, 38.89072 ], [ -77.4166, 38.89021 ], [ -77.41641, 38.88975 ], [ -77.4153, 38.88932 ], [ -77.41433, 38.89019 ], [ -77.41456, 38.89117 ], [ -77.41608, 38.89112 ], [ -77.41595, 38.89072 ] ], [ [ -77.41629, 38.88706 ], [ -77.41628, 38.88708 ], [ -77.41629, 38.88708 ], [ -77.41629, 38.88706 ] ], [ [ -77.41612, 38.89593 ], [ -77.41575, 38.89574 ], [ -77.41581, 38.89597 ], [ -77.41717, 38.89623 ], [ -77.41612, 38.89593 ] ], [ [ -77.41489, 38.88138 ], [ -77.41489, 38.8813 ], [ -77.41478, 38.88138 ], [ -77.41489, 38.88138 ] ], [ [ -77.41682, 38.89422 ], [ -77.41675, 38.8943 ], [ -77.41688, 38.89432 ], [ -77.41682, 38.89422 ] ], [ [ -77.40929, 38.89064 ], [ -77.40942, 38.89023 ], [ -77.40862, 38.89028 ], [ -77.40848, 38.89052 ], [ -77.40929, 38.89064 ] ], [ [ -77.40669, 38.88578 ], [ -77.40675, 38.88536 ], [ -77.40662, 38.88531 ], [ -77.40669, 38.88578 ] ], [ [ -77.40883, 38.883 ], [ -77.40847, 38.88241 ], [ -77.40966, 38.88114 ], [ -77.40894, 38.88061 ], [ -77.40684, 38.88397 ], [ -77.40844, 38.88459 ], [ -77.40883, 38.883 ] ], [ [ -77.41137, 38.88352 ], [ -77.41107, 38.88427 ], [ -77.41162, 38.88423 ], [ -77.41137, 38.88352 ] ], [ [ -77.41214, 38.88491 ], [ -77.41236, 38.88468 ], [ -77.41205, 38.88461 ], [ -77.41214, 38.88491 ] ], [ [ -77.41235, 38.88832 ], [ -77.41177, 38.88928 ], [ -77.41261, 38.88937 ], [ -77.41235, 38.88832 ] ], [ [ -77.41252, 38.88761 ], [ -77.41141, 38.88717 ], [ -77.4108, 38.88807 ], [ -77.40935, 38.88806 ], [ -77.41075, 38.88853 ], [ -77.41151, 38.88784 ], [ -77.41238, 38.88798 ], [ -77.41252, 38.88761 ] ], [ [ -77.40499, 38.88276 ], [ -77.40492, 38.88276 ], [ -77.40503, 38.88288 ], [ -77.40499, 38.88276 ] ], [ [ -77.40646, 38.88558 ], [ -77.40643, 38.88564 ], [ -77.40645, 38.88562 ], [ -77.40646, 38.88558 ] ] ] } },
{ "type": "Feature", "properties": { "variant": "T2s", "miles": 0.5 }, "geometry": { "type": "Polygon", "coordinates": [ [ [ -77.42428, 38.87884 ], [ -77.42464, 38.87955 ], [ -77.42394, 38.88073 ], [ -77.42469, 38.88104 ], [ -77.42465, 38.88295 ], [ -77.42369, 38.88308 ], [ -77.42284, 38.88257 ], [ -77.4222, 38.88363 ], [ -77.42181, 38.88391 ], [ -77.42104, 38.88369 ], [ -77.42081, 38.88435 ], [ -77.42029, 38.88444 ], [ -77.41965, 38.88358 ], [ -77.4206, 38.88189 ], [ -77.41982, 38.88136 ], [ -77.41771, 38.88319 ], [ -77.41962, 38.88385 ], [ -77.41886, 38.88542 ], [ -77.41922, 38.88638 ], [ -77.41888, 38.8867 ], [ -77.41737, 38.88628 ], [ -77.41707, 38.88496 ], [ -77.41492, 38.88694 ], [ -77.41332, 38.88682 ], [ -77.4134, 38.88553 ], [ -77.41506, 38.88389 ], [ -77.41409, 38.88453 ], [ -77.41316, 38.88463 ], [ -77.41222, 38.88421 ], [ -77.41214, 38.88345 ], [ -77.41262, 38.88326 ], [ -77.41346, 38.88356 ], [ -77.41505, 38.88252 ], [ -77.41599, 38.88307 ], [ -77.41955, 38.8803 ], [ -77.41872, 38.87969 ], [ -77.41572, 38.87939 ], [ -77.41567, 38.87862 ], [ -77.41881, 38.8786 ], [ -77.42024, 38.8792 ], [ -77.42113, 38.87865 ], [ -77.42181, 38.87907 ], [ -77.4227, 38.87853 ], [ -77.42428, 38.87884 ] ], [ [ -77.42302, 38.87971 ], [ -77.42303, 38.87969 ], [ -77.42295, 38.87968 ], [ -77.42302, 38.87971 ] ] ] } },
{ "type": "Feature", "properties": { "variant": "T2s", "miles": 1.0 }, "geometry": { "type": "Polygon", "coordinates": [ [ [ -77.42184, 38.874 ], [ -77.42629, 38.87151 ], [ -77.42696, 38.87194 ], [ -77.42713, 38.87306 ], [ -77.42352, 38.87538 ], [ -77.42351, 38.87616 ], [ -77.42615, 38.87426 ], [ -77.42727, 38.87483 ], [ -77.42755, 38.87565 ], [ -77.42694, 38.87616 ], [ -77.42615, 38.87567 ], [ -77.42505, 38.87661 ], [ -77.42643, 38.87776 ], [ -77.42613, 38.87906 ], [ -77.42415, 38.87857 ], [ -77.42394, 38.87811 ], [ -77.42352, 38.87867 ], [ -77.42549, 38.8796 ], [ -77.42754, 38.88004 ], [ -77.42758, 38.88045 ], [ -77.42669, 38.88124 ], [ -77.42851, 38.88096 ], [ -77.42953, 38.88154 ], [ -77.4305, 38.88156 ], [ -77.43087, 38.88226 ], [ -77.42983, 38.88259 ], [ -77.42873, 38.88419 ], [ -77.42695, 38.8845 ], [ -77.42652, 38.88608 ], [ -77.42574, 38.88642 ], [ -77.42494, 38.88629 ], [ -77.4216, 38.88765 ], [ -77.4211, 38.88835 ], [ -77.42034, 38.88808 ], [ -77.41987, 38.8872 ], [ -77.41886, 38.8878 ], [ -77.41851, 38.88832 ], [ -77.41982, 38.88883 ], [ -77.42078, 38.88856 ], [ -77.42121, 38.8888 ], [ -77.42115, 38.88935 ], [ -77.42314, 38.89013 ], [ -77.42349, 38.89044 ], [ -77.42305, 38.89113 ], [ -77.42083, 38.89062 ], [ -77.40525, 38.88442 ], [ -77.40527, 38.88401 ], [ -77.40618, 38.88374 ], [ -77.40861, 38.88465 ], [ -77.40883, 38.883 ], [ -77.40847, 38.88241 ], [ -77.40966, 38.88114 ], [ -77.40825, 38.88031 ], [ -77.40817, 38.8799 ], [ -77.40901, 38.87951 ], [ -77.41044, 38.87981 ], [ -77.41124, 38.88095 ], [ -77.41051, 38.88216 ], [ -77.41119, 38.88216 ], [ -77.41196, 38.879 ], [ -77.41331, 38.87778 ], [ -77.4152, 38.878 ], [ -77.41595, 38.87846 ], [ -77.41903, 38.87864 ], [ -77.42024, 38.8792 ], [ -77.42113, 38.87865 ], [ -77.42181, 38.87907 ], [ -77.42267, 38.87764 ], [ -77.42244, 38.8769 ], [ -77.42096, 38.87813 ], [ -77.41938, 38.87681 ], [ -77.417, 38.87647 ], [ -77.41644, 38.8757 ], [ -77.41732, 38.87537 ], [ -77.4202, 38.87594 ], [ -77.42208, 38.87573 ], [ -77.42159, 38.87436 ], [ -77.42184, 38.874 ] ], [ [ -77.42099, 38.88547 ], [ -77.42045, 38.88556 ], [ -77.41992, 38.88546 ], [ -77.42019, 38.88586 ], [ -77.42099, 38.88547 ] ], [ [ -77.41973, 38.88537 ], [ -77.41932, 38.88495 ], [ -77.41886, 38.88542 ], [ -77.41891, 38.88551 ], [ -77.41973, 38.88537 ] ], [ [ -77.41771, 38.88319 ], [ -77.41976, 38.88329 ], [ -77.4206, 38.88189 ], [ -77.42008, 38.88132 ], [ -77.41771, 38.88319 ] ], [ [ -77.41582, 38.88291 ], [ -77.41955, 38.8803 ], [ -77.41925, 38.87995 ], [ -77.41582, 38.88291 ] ], [ [ -77.42456, 38.8836 ], [ -77.42535, 38.88382 ], [ -77.42573, 38.88386 ], [ -77.42476, 38.8831 ], [ -77.42456, 38.8836 ] ], [ [ -77.42463, 38.882 ], [ -77.42468, 38.88197 ], [ -77.42462, 38.88197 ], [ -77.42463, 38.882 ] ], [ [ -77.42724, 38.88228 ], [ -77.42724, 38.88223 ], [ -77.42722, 38.88224 ], [ -77.42724, 38.88228 ] ], [ [ -77.42295, 38.87968 ], [ -77.42302, 38.87971 ], [ -77.42303, 38.87969 ], [ -77.42295, 38.87968 ] ], [ [ -77.42182, 38.88405 ], [ -77.42198, 38.8838 ], [ -77.42165, 38.88391 ], [ -77.42182, 38.88405 ] ], [ [ -77.42248, 38.88316 ], [ -77.42257, 38.88315 ], [ -77.42252, 38.88309 ], [ -77.42248, 38.88316 ] ], [ [ -77.41503, 38.88386 ], [ -77.41315, 38.88565 ], [ -77.41231, 38.8861 ], [ -77.41319, 38.88625 ], [ -77.41353, 38.88536 ], [ -77.41503, 38.88386 ] ], [ [ -77.41489, 38.88138 ], [ -77.41489, 38.8813 ], [ -77.41478, 38.88138 ], [ -77.41489, 38.88138 ] ], [ [ -77.42168, 38.88647 ], [ -77.42135, 38.88654 ], [ -77.42121, 38.88661 ], [ -77.42168, 38.88647 ] ], [ [ -77.41629, 38.88707 ], [ -77.41628, 38.88708 ], [ -77.41629, 38.88708 ], [ -77.41629, 38.88707 ] ], [ [ -77.41162, 38.88423 ], [ -77.41137, 38.88352 ], [ -77.41107, 38.88427 ], [ -77.41162, 38.88423 ] ], [ [ -77.41292, 38.88282 ], [ -77.41255, 38.8826 ], [ -77.4126, 38.88302 ], [ -77.41292, 38.88282 ] ], [ [ -77.41191, 38.88506 ], [ -77.41236, 38.88468 ], [ -77.41205, 38.88461 ], [ -77.41191, 38.88506 ] ] ] } },
{ "type": "Feature", "properties": { "variant": "T2s", "miles": 1.5 }, "geometry": { "type": "Polygon", "coordinates": [ [ [ -77.42993, 38.8661 ], [ -77.43027, 38.86633 ], [ -77.43055, 38.8665 ], [ -77.43083, 38.86742 ], [ -77.43168, 38.86762 ], [ -77.43167, 38.86839 ], [ -77.42989, 38.86865 ], [ -77.42999, 38.86914 ], [ -77.43171, 38.86848 ], [ -77.43429, 38.86842 ], [ -77.43499, 38.86896 ], [ -77.43431, 38.86951 ], [ -77.43156, 38.86959 ], [ -77.42999, 38.87048 ], [ -77.43032, 38.87219 ], [ -77.43124, 38.87226 ], [ -77.43159, 38.87294 ], [ -77.43087, 38.87355 ], [ -77.43115, 38.87482 ], [ -77.4308, 38.87513 ], [ -77.42964, 38.87535 ], [ -77.42929, 38.87471 ], [ -77.42811, 38.875 ], [ -77.42742, 38.87451 ], [ -77.42738, 38.87593 ], [ -77.42642, 38.87607 ], [ -77.42615, 38.87567 ], [ -77.42505, 38.87661 ], [ -77.42641, 38.8777 ], [ -77.42621, 38.87897 ], [ -77.42719, 38.87843 ], [ -77.42837, 38.87913 ], [ -77.42901, 38.88036 ], [ -77.4303, 38.88077 ], [ -77.43143, 38.88035 ], [ -77.43231, 38.88068 ], [ -77.43123, 38.8828 ], [ -77.4303, 38.88346 ], [ -77.42889, 38.88415 ], [ -77.42695, 38.8845 ], [ -77.42652, 38.88608 ], [ -77.42472, 38.88645 ], [ -77.42484, 38.88719 ], [ -77.4265, 38.88676 ], [ -77.42778, 38.88832 ], [ -77.42709, 38.89104 ], [ -77.42864, 38.88905 ], [ -77.42985, 38.88955 ], [ -77.42965, 38.89142 ], [ -77.42924, 38.89168 ], [ -77.42835, 38.8915 ], [ -77.42801, 38.89202 ], [ -77.43114, 38.89329 ], [ -77.43142, 38.89403 ], [ -77.42999, 38.89421 ], [ -77.41086, 38.88695 ], [ -77.40934, 38.88806 ], [ -77.40975, 38.88873 ], [ -77.4094, 38.88904 ], [ -77.40606, 38.88877 ], [ -77.40493, 38.89111 ], [ -77.40395, 38.89114 ], [ -77.40382, 38.88984 ], [ -77.4046, 38.88862 ], [ -77.40374, 38.88775 ], [ -77.40395, 38.88694 ], [ -77.40463, 38.88647 ], [ -77.40479, 38.88462 ], [ -77.39979, 38.88251 ], [ -77.40071, 38.8807 ], [ -77.40111, 38.88043 ], [ -77.40293, 38.88072 ], [ -77.404, 38.88017 ], [ -77.40688, 38.8812 ], [ -77.40816, 38.87895 ], [ -77.40787, 38.87555 ], [ -77.40842, 38.87496 ], [ -77.41201, 38.87474 ], [ -77.41269, 38.87518 ], [ -77.41539, 38.87536 ], [ -77.41604, 38.87471 ], [ -77.41682, 38.87538 ], [ -77.41779, 38.87557 ], [ -77.4202, 38.87594 ], [ -77.42208, 38.87573 ], [ -77.42159, 38.87435 ], [ -77.42529, 38.87192 ], [ -77.42523, 38.87107 ], [ -77.42607, 38.86979 ], [ -77.42704, 38.86988 ], [ -77.42691, 38.87092 ], [ -77.42787, 38.87035 ], [ -77.4271, 38.86928 ], [ -77.42674, 38.86672 ], [ -77.42717, 38.86629 ], [ -77.42993, 38.8661 ] ], [ [ -77.4233, 38.88815 ], [ -77.42364, 38.88843 ], [ -77.4236, 38.88819 ], [ -77.4233, 38.88815 ] ], [ [ -77.42339, 38.88696 ], [ -77.4233, 38.88703 ], [ -77.42339, 38.88703 ], [ -77.42339, 38.88696 ] ], [ [ -77.42045, 38.88556 ], [ -77.41992, 38.88546 ], [ -77.42019, 38.88586 ], [ -77.421, 38.88547 ], [ -77.42045, 38.88556 ] ], [ [ -77.41932, 38.88495 ], [ -77.41886, 38.88542 ], [ -77.41891, 38.88551 ], [ -77.41973, 38.88537 ], [ -77.41932, 38.88495 ] ], [ [ -77.41976, 38.88329 ], [ -77.4206, 38.88189 ], [ -77.42008, 38.88132 ], [ -77.41771, 38.88319 ], [ -77.41976, 38.88329 ] ], [ [ -77.41925, 38.87995 ], [ -77.41639, 38.88235 ], [ -77.41599, 38.88307 ], [ -77.41946, 38.88015 ], [ -77.41925, 38.87995 ] ], [ [ -77.42024, 38.8792 ], [ -77.42113, 38.87865 ], [ -77.42181, 38.87907 ], [ -77.42267, 38.87764 ], [ -77.42244, 38.8769 ], [ -77.42096, 38.87813 ], [ -77.41938, 38.87681 ], [ -77.4169, 38.87641 ], [ -77.41676, 38.87725 ], [ -77.41513, 38.8778 ], [ -77.41429, 38.87736 ], [ -77.4137, 38.87763 ], [ -77.41307, 38.87728 ], [ -77.4125, 38.87762 ], [ -77.412, 38.87748 ], [ -77.41145, 38.87631 ], [ -77.41106, 38.87638 ], [ -77.41115, 38.87733 ], [ -77.41064, 38.87746 ], [ -77.40942, 38.87668 ], [ -77.40947, 38.8796 ], [ -77.41044, 38.87981 ], [ -77.41123, 38.88085 ], [ -77.41051, 38.88216 ], [ -77.41119, 38.88216 ], [ -77.41164, 38.8815 ], [ -77.41193, 38.87906 ], [ -77.41331, 38.87778 ], [ -77.4152, 38.878 ], [ -77.41595, 38.87846 ], [ -77.41925, 38.87869 ], [ -77.42024, 38.8792 ] ], [ [ -77.42503, 38.88304 ], [ -77.42476, 38.8831 ], [ -77.42456, 38.8836 ], [ -77.42573, 38.88385 ], [ -77.42503, 38.88304 ] ], [ [ -77.42468, 38.88197 ], [ -77.42462, 38.88197 ], [ -77.42463, 38.882 ], [ -77.42468, 38.88197 ] ], [ [ -77.42531, 38.87902 ], [ -77.42505, 38.87858 ], [ -77.42415, 38.87857 ], [ -77.42394, 38.87811 ], [ -77.42352, 38.87867 ], [ -77.42531, 38.87902 ] ], [ [ -77.42616, 38.87403 ], [ -77.42653, 38.8736 ], [ -77.42352, 38.87538 ], [ -77.42358, 38.87628 ], [ -77.42616, 38.87403 ] ], [ [ -77.42873, 38.8712 ], [ -77.42712, 38.87216 ], [ -77.42723, 38.87279 ], [ -77.42873, 38.8712 ] ], [ [ -77.4283, 38.87378 ], [ -77.42822, 38.87354 ], [ -77.42799, 38.87375 ], [ -77.4283, 38.87378 ] ], [ [ -77.42724, 38.88223 ], [ -77.42722, 38.88224 ], [ -77.42724, 38.88228 ], [ -77.42724, 38.88223 ] ], [ [ -77.42613, 38.88938 ], [ -77.42612, 38.88937 ], [ -77.42612, 38.88939 ], [ -77.42613, 38.88938 ] ], [ [ -77.42182, 38.88405 ], [ -77.42211, 38.88398 ], [ -77.42198, 38.8838 ], [ -77.42182, 38.88405 ] ], [ [ -77.42257, 38.88315 ], [ -77.42252, 38.88309 ], [ -77.42248, 38.88316 ], [ -77.42257, 38.88315 ] ], [ [ -77.42303, 38.87969 ], [ -77.42295, 38.87968 ], [ -77.42302, 38.87971 ], [ -77.42303, 38.87969 ] ], [ [ -77.41353, 38.88536 ], [ -77.41503, 38.88386 ], [ -77.41231, 38.8861 ], [ -77.41319, 38.88625 ], [ -77.41353, 38.88536 ] ], [ [ -77.41489, 38.8813 ], [ -77.41478, 38.88138 ], [ -77.41489, 38.88138 ], [ -77.41489, 38.8813 ] ], [ [ -77.4209, 38.88831 ], [ -77.41987, 38.8872 ], [ -77.41851, 38.88832 ], [ -77.41988, 38.88879 ], [ -77.4209, 38.88831 ] ], [ [ -77.42121, 38.88661 ], [ -77.42168, 38.88647 ], [ -77.42155, 38.88648 ], [ -77.42121, 38.88661 ] ], [ [ -77.42168, 38.88766 ], [ -77.42182, 38.88759 ], [ -77.4216, 38.88765 ], [ -77.42168, 38.88766 ] ], [ [ -77.41454, 38.87625 ], [ -77.41434, 38.87622 ], [ -77.41438, 38.87699 ], [ -77.41454, 38.87625 ] ], [ [ -77.40723, 38.88747 ], [ -77.40635, 38.88708 ], [ -77.40642, 38.88773 ], [ -77.40729, 38.88789 ], [ -77.40779, 38.8879 ], [ -77.40806, 38.8873 ], [ -77.40723, 38.88747 ] ], [ [ -77.40669, 38.88578 ], [ -77.40675, 38.88536 ], [ -77.40662, 38.88531 ], [ -77.40669, 38.88578 ] ], [ [ -77.40883, 38.883 ], [ -77.40847, 38.88241 ], [ -77.40966, 38.88114 ], [ -77.40894, 38.88061 ], [ -77.40684, 38.88397 ], [ -77.40844, 38.88459 ], [ -77.40883, 38.883 ] ], [ [ -77.41137, 38.88352 ], [ -77.41107, 38.88427 ], [ -77.41162, 38.88423 ], [ -77.41137, 38.88352 ] ], [ [ -77.4126, 38.88302 ], [ -77.41292, 38.88282 ], [ -77.41255, 38.8826 ], [ -77.4126, 38.88302 ] ], [ [ -77.41214, 38.88491 ], [ -77.41236, 38.88468 ], [ -77.41205, 38.88461 ], [ -77.41214, 38.88491 ] ], [ [ -77.40499, 38.88276 ], [ -77.40492, 38.88276 ], [ -77.40503, 38.88288 ], [ -77.40499, 38.88276 ] ], [ [ -77.40809, 38.88729 ], [ -77.40807, 38.8873 ], [ -77.40811, 38.88729 ], [ -77.40809, 38.88729 ] ], [ [ -77.40646, 38.8856 ], [ -77.40646, 38.88558 ], [ -77.40643, 38.88564 ], [ -77.40646, 38.8856 ] ] ] } }
]
}
