{
"type": "FeatureCollection",
"name": "281",
"crs": { "type": "name", "properties": { "name": "urn:ogc:def:crs:OGC:1.3:CRS84" } },
"xy_coordinate_resolution": 1e-05,
"features": [
{ "type": "Feature", "properties": { "variant": "T0", "miles": 1.0 }, "geometry": { "type": "Polygon", "coordinates": [ [ [ -77.40324, 38.9596 ], [ -77.40276, 38.96014 ], [ -77.40204, 38.96007 ], [ -77.40007, 38.96274 ], [ -77.40076, 38.96309 ], [ -77.40113, 38.96191 ], [ -77.40154, 38.96164 ], [ -77.40247, 38.96188 ], [ -77.40259, 38.96398 ], [ -77.40209, 38.96467 ], [ -77.40312, 38.96508 ], [ -77.40381, 38.96454 ], [ -77.40433, 38.96462 ], [ -77.40453, 38.96537 ], [ -77.40396, 38.96604 ], [ -77.40538, 38.9673 ], [ -77.4045, 38.96831 ], [ -77.4047, 38.96973 ], [ -77.40429, 38.97034 ], [ -77.40335, 38.97015 ], [ -77.40149, 38.96821 ], [ -77.40136, 38.97013 ], [ -77.40082, 38.97123 ], [ -77.40415, 38.97346 ], [ -77.40422, 38.97408 ], [ -77.40536, 38.97455 ], [ -77.40458, 38.97677 ], [ -77.40369, 38.97706 ], [ -77.40317, 38.97673 ], [ -77.40355, 38.9756 ], [ -77.40299, 38.97532 ], [ -77.4026, 38.97565 ], [ -77.403, 38.97599 ], [ -77.40289, 38.97712 ], [ -77.40206, 38.97787 ], [ -77.40099, 38.97801 ], [ -77.40015, 38.97764 ], [ -77.39963, 38.97842 ], [ -77.39624, 38.97844 ], [ -77.39246, 38.9795 ], [ -77.39103, 38.97897 ], [ -77.39029, 38.97814 ], [ -77.38988, 38.97957 ], [ -77.38943, 38.97979 ], [ -77.38892, 38.97969 ], [ -77.3879, 38.9785 ], [ -77.38758, 38.97669 ], [ -77.38718, 38.97651 ], [ -77.38442, 38.97674 ], [ -77.38439, 38.97717 ], [ -77.38347, 38.97742 ], [ -77.38258, 38.97585 ], [ -77.38185, 38.97631 ], [ -77.38113, 38.97617 ], [ -77.37943, 38.97221 ], [ -77.37871, 38.97248 ], [ -77.37732, 38.97221 ], [ -77.37744, 38.97145 ], [ -77.37832, 38.97137 ], [ -77.37776, 38.97063 ], [ -77.37788, 38.96981 ], [ -77.37862, 38.96915 ], [ -77.37754, 38.9689 ], [ -77.3766, 38.96949 ], [ -77.37621, 38.9686 ], [ -77.37456, 38.9681 ], [ -77.37479, 38.96727 ], [ -77.37813, 38.96785 ], [ -77.37878, 38.96667 ], [ -77.37994, 38.96677 ], [ -77.37892, 38.96582 ], [ -77.37959, 38.96526 ], [ -77.38148, 38.96631 ], [ -77.38224, 38.96453 ], [ -77.38087, 38.96234 ], [ -77.38221, 38.96117 ], [ -77.3827, 38.96131 ], [ -77.38284, 38.96187 ], [ -77.38449, 38.9618 ], [ -77.38548, 38.96022 ], [ -77.38641, 38.95998 ], [ -77.38672, 38.96071 ], [ -77.38622, 38.96149 ], [ -77.38757, 38.96193 ], [ -77.3879, 38.96241 ], [ -77.38707, 38.96306 ], [ -77.3854, 38.96281 ], [ -77.3852, 38.96313 ], [ -77.38641, 38.96325 ], [ -77.38618, 38.96413 ], [ -77.38683, 38.96459 ], [ -77.38671, 38.96385 ], [ -77.38709, 38.96356 ], [ -77.38991, 38.96431 ], [ -77.39068, 38.96374 ], [ -77.39, 38.96287 ], [ -77.38953, 38.96335 ], [ -77.38862, 38.96307 ], [ -77.38908, 38.96189 ], [ -77.38949, 38.96162 ], [ -77.39076, 38.96195 ], [ -77.39172, 38.96053 ], [ -77.39304, 38.96089 ], [ -77.39358, 38.96015 ], [ -77.39292, 38.95972 ], [ -77.39336, 38.95903 ], [ -77.39425, 38.95921 ], [ -77.39522, 38.95891 ], [ -77.39593, 38.95976 ], [ -77.39713, 38.95941 ], [ -77.39665, 38.95856 ], [ -77.3976, 38.95837 ], [ -77.39985, 38.95958 ], [ -77.40013, 38.96015 ], [ -77.40092, 38.95921 ], [ -77.40017, 38.95857 ], [ -77.4003, 38.95817 ], [ -77.40127, 38.95807 ], [ -77.40324, 38.9596 ] ], [ [ -77.38977, 38.974 ], [ -77.38967, 38.97392 ], [ -77.38938, 38.97416 ], [ -77.38977, 38.974 ] ], [ [ -77.39105, 38.97008 ], [ -77.39104, 38.96993 ], [ -77.3902, 38.96998 ], [ -77.39105, 38.97008 ] ], [ [ -77.39937, 38.97376 ], [ -77.39782, 38.97281 ], [ -77.39712, 38.97187 ], [ -77.39529, 38.97091 ], [ -77.39483, 38.9742 ], [ -77.3938, 38.97542 ], [ -77.39623, 38.97726 ], [ -77.39876, 38.97718 ], [ -77.39937, 38.97376 ] ], [ [ -77.39977, 38.97048 ], [ -77.40009, 38.97034 ], [ -77.39999, 38.96983 ], [ -77.3991, 38.96945 ], [ -77.39977, 38.97048 ] ], [ [ -77.39705, 38.96842 ], [ -77.39703, 38.9678 ], [ -77.39813, 38.96616 ], [ -77.39775, 38.96601 ], [ -77.39618, 38.96822 ], [ -77.39691, 38.96881 ], [ -77.39782, 38.96875 ], [ -77.3982, 38.96914 ], [ -77.39843, 38.96861 ], [ -77.39705, 38.96842 ] ], [ [ -77.39809, 38.9631 ], [ -77.39742, 38.96239 ], [ -77.39623, 38.96415 ], [ -77.39721, 38.96432 ], [ -77.39809, 38.9631 ] ], [ [ -77.40097, 38.97368 ], [ -77.40106, 38.97369 ], [ -77.4009, 38.97357 ], [ -77.40097, 38.97368 ] ], [ [ -77.39914, 38.96696 ], [ -77.39879, 38.96747 ], [ -77.39952, 38.96754 ], [ -77.39914, 38.96696 ] ], [ [ -77.39901, 38.96455 ], [ -77.39991, 38.96406 ], [ -77.39936, 38.96379 ], [ -77.39851, 38.96495 ], [ -77.39901, 38.96455 ] ], [ [ -77.39254, 38.97107 ], [ -77.39191, 38.97171 ], [ -77.39116, 38.97116 ], [ -77.39031, 38.97121 ], [ -77.39047, 38.97295 ], [ -77.39271, 38.97461 ], [ -77.39345, 38.97386 ], [ -77.39372, 38.97099 ], [ -77.39254, 38.97107 ] ], [ [ -77.39254, 38.96999 ], [ -77.39253, 38.96985 ], [ -77.39242, 38.96985 ], [ -77.39254, 38.96999 ] ], [ [ -77.39329, 38.96656 ], [ -77.39569, 38.96645 ], [ -77.39637, 38.96549 ], [ -77.39376, 38.96445 ], [ -77.39137, 38.96793 ], [ -77.39283, 38.96786 ], [ -77.39329, 38.96656 ] ], [ [ -77.39696, 38.97065 ], [ -77.39711, 38.97053 ], [ -77.39546, 38.96919 ], [ -77.39527, 38.96976 ], [ -77.39696, 38.97065 ] ], [ [ -77.39478, 38.96777 ], [ -77.39495, 38.96754 ], [ -77.39461, 38.96753 ], [ -77.3942, 38.96755 ], [ -77.39478, 38.96777 ] ], [ [ -77.39804, 38.96903 ], [ -77.39803, 38.96904 ], [ -77.39804, 38.96905 ], [ -77.39804, 38.96903 ] ], [ [ -77.38526, 38.96709 ], [ -77.38508, 38.9671 ], [ -77.3853, 38.96776 ], [ -77.38526, 38.96709 ] ], [ [ -77.38442, 38.96606 ], [ -77.38488, 38.96603 ], [ -77.38482, 38.9659 ], [ -77.38442, 38.96606 ] ], [ [ -77.38543, 38.96427 ], [ -77.38498, 38.96421 ], [ -77.38548, 38.96467 ], [ -77.38577, 38.96426 ], [ -77.38543, 38.96427 ] ], [ [ -77.38678, 38.96813 ], [ -77.38679, 38.96826 ], [ -77.38728, 38.96823 ], [ -77.38678, 38.96813 ] ], [ [ -77.38861, 38.97024 ], [ -77.38883, 38.97022 ], [ -77.38882, 38.97006 ], [ -77.38861, 38.97024 ] ], [ [ -77.3855, 38.97269 ], [ -77.38655, 38.97286 ], [ -77.38655, 38.9727 ], [ -77.3855, 38.97269 ] ], [ [ -77.38388, 38.97353 ], [ -77.38386, 38.97407 ], [ -77.38402, 38.97323 ], [ -77.38388, 38.97353 ] ], [ [ -77.38671, 38.97361 ], [ -77.38659, 38.97337 ], [ -77.38654, 38.97346 ], [ -77.38671, 38.97361 ] ], [ [ -77.38539, 38.9751 ], [ -77.38554, 38.97549 ], [ -77.38582, 38.97546 ], [ -77.38539, 38.9751 ] ], [ [ -77.384, 38.97527 ], [ -77.38379, 38.97527 ], [ -77.38397, 38.97571 ], [ -77.384, 38.97527 ] ], [ [ -77.3824, 38.97397 ], [ -77.38173, 38.9738 ], [ -77.38161, 38.97333 ], [ -77.38196, 38.97483 ], [ -77.3824, 38.97397 ] ], [ [ -77.38276, 38.97257 ], [ -77.38279, 38.9725 ], [ -77.38189, 38.97241 ], [ -77.38181, 38.97296 ], [ -77.38276, 38.97257 ] ], [ [ -77.38314, 38.97016 ], [ -77.38225, 38.96996 ], [ -77.38218, 38.97043 ], [ -77.38309, 38.97054 ], [ -77.38314, 38.97016 ] ], [ [ -77.38177, 38.96834 ], [ -77.38156, 38.96863 ], [ -77.38231, 38.96881 ], [ -77.38177, 38.96834 ] ], [ [ -77.3838, 38.96484 ], [ -77.38385, 38.96484 ], [ -77.3838, 38.96479 ], [ -77.3838, 38.96484 ] ], [ [ -77.38338, 38.96354 ], [ -77.3837, 38.96304 ], [ -77.38326, 38.96302 ], [ -77.38338, 38.96354 ] ], [ [ -77.3802, 38.96832 ], [ -77.38042, 38.96802 ], [ -77.37958, 38.96782 ], [ -77.3802, 38.96832 ] ] ] } },
{ "type": "Feature", "properties": { "variant": "T0", "miles": 1.5 }, "geometry": { "type": "Polygon", "coordinates": [ [ [ -77.40631, 38.95253 ], [ -77.40884, 38.95327 ], [ -77.4094, 38.95426 ], [ -77.40871, 38.9549 ], [ -77.40727, 38.95525 ], [ -77.40691, 38.95504 ], [ -77.40296, 38.95915 ], [ -77.40752, 38.96198 ], [ -77.40929, 38.96201 ], [ -77.41004, 38.96313 ], [ -77.40874, 38.96392 ], [ -77.4088, 38.96498 ], [ -77.4082, 38.96559 ], [ -77.40769, 38.96548 ], [ -77.40738, 38.96422 ], [ -77.40682, 38.96388 ], [ -77.40461, 38.96408 ], [ -77.40493, 38.9648 ], [ -77.40396, 38.96604 ], [ -77.4047, 38.9665 ], [ -77.40578, 38.96571 ], [ -77.40661, 38.96573 ], [ -77.40778, 38.96711 ], [ -77.41008, 38.9688 ], [ -77.41079, 38.96879 ], [ -77.41165, 38.97029 ], [ -77.41087, 38.97067 ], [ -77.41137, 38.97108 ], [ -77.41229, 38.97062 ], [ -77.41296, 38.97117 ], [ -77.41239, 38.97181 ], [ -77.41271, 38.97265 ], [ -77.41174, 38.97278 ], [ -77.411, 38.97233 ], [ -77.40966, 38.97313 ], [ -77.40884, 38.97271 ], [ -77.41004, 38.97156 ], [ -77.40894, 38.97093 ], [ -77.40913, 38.972 ], [ -77.40791, 38.97296 ], [ -77.40698, 38.9732 ], [ -77.40745, 38.97403 ], [ -77.40722, 38.9744 ], [ -77.40644, 38.97442 ], [ -77.40661, 38.97523 ], [ -77.40881, 38.97609 ], [ -77.41102, 38.97359 ], [ -77.41197, 38.97344 ], [ -77.41295, 38.97395 ], [ -77.41315, 38.9747 ], [ -77.41271, 38.97493 ], [ -77.41178, 38.97464 ], [ -77.41024, 38.97637 ], [ -77.41527, 38.97732 ], [ -77.41569, 38.97795 ], [ -77.41532, 38.97839 ], [ -77.4117, 38.9779 ], [ -77.41028, 38.97966 ], [ -77.40933, 38.97986 ], [ -77.40861, 38.97907 ], [ -77.41027, 38.97762 ], [ -77.40924, 38.97744 ], [ -77.40843, 38.97806 ], [ -77.40785, 38.97927 ], [ -77.40651, 38.97989 ], [ -77.40582, 38.97955 ], [ -77.40429, 38.98078 ], [ -77.40414, 38.98134 ], [ -77.40328, 38.98142 ], [ -77.40315, 38.98228 ], [ -77.40246, 38.9824 ], [ -77.40185, 38.98376 ], [ -77.40088, 38.98389 ], [ -77.4006, 38.98354 ], [ -77.4011, 38.98265 ], [ -77.40034, 38.98292 ], [ -77.3995, 38.98229 ], [ -77.3986, 38.98271 ], [ -77.39947, 38.98346 ], [ -77.39914, 38.98418 ], [ -77.39805, 38.98404 ], [ -77.39626, 38.98448 ], [ -77.3957, 38.98386 ], [ -77.39695, 38.98321 ], [ -77.39798, 38.98016 ], [ -77.39587, 38.97854 ], [ -77.3934, 38.97942 ], [ -77.3932, 38.98002 ], [ -77.39227, 38.98061 ], [ -77.39046, 38.98033 ], [ -77.38943, 38.98116 ], [ -77.38866, 38.98129 ], [ -77.38754, 38.98283 ], [ -77.38594, 38.98343 ], [ -77.38664, 38.98366 ], [ -77.38679, 38.98441 ], [ -77.38556, 38.98452 ], [ -77.38504, 38.98499 ], [ -77.38417, 38.98464 ], [ -77.38451, 38.98345 ], [ -77.38272, 38.98291 ], [ -77.38174, 38.98266 ], [ -77.37894, 38.98323 ], [ -77.37526, 38.98287 ], [ -77.37364, 38.98239 ], [ -77.37068, 38.98075 ], [ -77.36998, 38.9794 ], [ -77.37057, 38.97565 ], [ -77.36936, 38.97313 ], [ -77.36927, 38.97047 ], [ -77.36838, 38.97024 ], [ -77.36821, 38.96985 ], [ -77.3685, 38.96884 ], [ -77.37077, 38.96739 ], [ -77.36663, 38.96691 ], [ -77.36599, 38.96633 ], [ -77.36673, 38.96559 ], [ -77.36835, 38.96583 ], [ -77.36859, 38.9643 ], [ -77.36936, 38.96383 ], [ -77.36996, 38.96443 ], [ -77.36973, 38.96596 ], [ -77.37141, 38.9663 ], [ -77.3709, 38.96326 ], [ -77.37193, 38.96011 ], [ -77.37324, 38.9591 ], [ -77.37212, 38.95837 ], [ -77.37204, 38.95775 ], [ -77.37299, 38.95757 ], [ -77.37431, 38.95819 ], [ -77.37584, 38.95674 ], [ -77.38065, 38.95411 ], [ -77.38532, 38.95449 ], [ -77.3874, 38.95522 ], [ -77.38779, 38.95363 ], [ -77.38862, 38.95324 ], [ -77.3893, 38.95355 ], [ -77.38921, 38.9573 ], [ -77.39059, 38.95557 ], [ -77.39146, 38.95592 ], [ -77.3916, 38.95651 ], [ -77.39298, 38.95682 ], [ -77.39342, 38.95623 ], [ -77.39406, 38.95631 ], [ -77.39418, 38.95583 ], [ -77.39293, 38.95536 ], [ -77.39271, 38.95492 ], [ -77.39342, 38.9544 ], [ -77.39724, 38.95478 ], [ -77.40122, 38.95596 ], [ -77.40318, 38.95695 ], [ -77.40627, 38.95371 ], [ -77.40541, 38.95324 ], [ -77.40541, 38.95283 ], [ -77.40631, 38.95253 ] ], [ [ -77.39324, 38.97424 ], [ -77.39372, 38.97099 ], [ -77.39254, 38.97107 ], [ -77.39191, 38.97171 ], [ -77.39116, 38.97116 ], [ -77.39031, 38.97121 ], [ -77.39071, 38.9732 ], [ -77.39271, 38.97461 ], [ -77.39324, 38.97424 ] ], [ [ -77.39105, 38.97008 ], [ -77.3902, 38.96998 ], [ -77.39021, 38.97013 ], [ -77.39105, 38.97008 ] ], [ [ -77.38832, 38.9638 ], [ -77.38854, 38.96228 ], [ -77.38727, 38.96337 ], [ -77.3854, 38.96281 ], [ -77.3852, 38.96313 ], [ -77.38641, 38.96325 ], [ -77.38618, 38.96413 ], [ -77.38683, 38.96459 ], [ -77.38671, 38.96385 ], [ -77.38709, 38.96356 ], [ -77.38832, 38.9638 ] ], [ [ -77.38743, 38.9616 ], [ -77.38641, 38.96119 ], [ -77.38622, 38.96149 ], [ -77.387, 38.96179 ], [ -77.38743, 38.9616 ] ], [ [ -77.40293, 38.97872 ], [ -77.40386, 38.9785 ], [ -77.40418, 38.97944 ], [ -77.40458, 38.97904 ], [ -77.40411, 38.97744 ], [ -77.40229, 38.97841 ], [ -77.40293, 38.97872 ] ], [ [ -77.39874, 38.97727 ], [ -77.39937, 38.97376 ], [ -77.39782, 38.97281 ], [ -77.39712, 38.97187 ], [ -77.39529, 38.97091 ], [ -77.39483, 38.9742 ], [ -77.3938, 38.97542 ], [ -77.39623, 38.97726 ], [ -77.39874, 38.97727 ] ], [ [ -77.39984, 38.97044 ], [ -77.39999, 38.96983 ], [ -77.3991, 38.96945 ], [ -77.39905, 38.96982 ], [ -77.39984, 38.97044 ] ], [ [ -77.39953, 38.96757 ], [ -77.39914, 38.96696 ], [ -77.39879, 38.96747 ], [ -77.39953, 38.96757 ] ], [ [ -77.39851, 38.96495 ], [ -77.39973, 38.9643 ], [ -77.39988, 38.9641 ], [ -77.39932, 38.96383 ], [ -77.39851, 38.96495 ] ], [ [ -77.39898, 38.96177 ], [ -77.39851, 38.96156 ], [ -77.39883, 38.96197 ], [ -77.39898, 38.96177 ] ], [ [ -77.39859, 38.95887 ], [ -77.40013, 38.96015 ], [ -77.40066, 38.95948 ], [ -77.39934, 38.95861 ], [ -77.39859, 38.95887 ] ], [ [ -77.40294, 38.96314 ], [ -77.40249, 38.96292 ], [ -77.40226, 38.96323 ], [ -77.4025, 38.96343 ], [ -77.40294, 38.96314 ] ], [ [ -77.40182, 38.96167 ], [ -77.40276, 38.96059 ], [ -77.40204, 38.96007 ], [ -77.40007, 38.96274 ], [ -77.40076, 38.96309 ], [ -77.40113, 38.96191 ], [ -77.40182, 38.96167 ] ], [ [ -77.40282, 38.96484 ], [ -77.40284, 38.96486 ], [ -77.40284, 38.96482 ], [ -77.40282, 38.96484 ] ], [ [ -77.40507, 38.97222 ], [ -77.40507, 38.97221 ], [ -77.40506, 38.97222 ], [ -77.40507, 38.97222 ] ], [ [ -77.40465, 38.96916 ], [ -77.4046, 38.9691 ], [ -77.40453, 38.96914 ], [ -77.40465, 38.96916 ] ], [ [ -77.40616, 38.96691 ], [ -77.40597, 38.96709 ], [ -77.40622, 38.96696 ], [ -77.40616, 38.96691 ] ], [ [ -77.40771, 38.97714 ], [ -77.40785, 38.97706 ], [ -77.40762, 38.97697 ], [ -77.40771, 38.97714 ] ], [ [ -77.40196, 38.97462 ], [ -77.40209, 38.97452 ], [ -77.40199, 38.97443 ], [ -77.40196, 38.97462 ] ], [ [ -77.40202, 38.97193 ], [ -77.40105, 38.97094 ], [ -77.40082, 38.97123 ], [ -77.4016, 38.97202 ], [ -77.40202, 38.97193 ] ], [ [ -77.4032, 38.97121 ], [ -77.40282, 38.97089 ], [ -77.40245, 38.97072 ], [ -77.4032, 38.97121 ] ], [ [ -77.40163, 38.96829 ], [ -77.4016, 38.9682 ], [ -77.40149, 38.96821 ], [ -77.40163, 38.96829 ] ], [ [ -77.40425, 38.97367 ], [ -77.40426, 38.97408 ], [ -77.40441, 38.97371 ], [ -77.40425, 38.97367 ] ], [ [ -77.40398, 38.97323 ], [ -77.40379, 38.97318 ], [ -77.40405, 38.97338 ], [ -77.40398, 38.97323 ] ], [ [ -77.4026, 38.97565 ], [ -77.4028, 38.97568 ], [ -77.40298, 38.97533 ], [ -77.4026, 38.97565 ] ], [ [ -77.40194, 38.95768 ], [ -77.40068, 38.95696 ], [ -77.39994, 38.95688 ], [ -77.40078, 38.95775 ], [ -77.40194, 38.95768 ] ], [ [ -77.40089, 38.97367 ], [ -77.40106, 38.97369 ], [ -77.4009, 38.97357 ], [ -77.40089, 38.97367 ] ], [ [ -77.39478, 38.96777 ], [ -77.3942, 38.96755 ], [ -77.39421, 38.96777 ], [ -77.39478, 38.96777 ] ], [ [ -77.39581, 38.96628 ], [ -77.39637, 38.96549 ], [ -77.39376, 38.96445 ], [ -77.39137, 38.96793 ], [ -77.39283, 38.96786 ], [ -77.39287, 38.9669 ], [ -77.39329, 38.96656 ], [ -77.39581, 38.96628 ] ], [ [ -77.39582, 38.9577 ], [ -77.39522, 38.95718 ], [ -77.39485, 38.95752 ], [ -77.39534, 38.95773 ], [ -77.39582, 38.9577 ] ], [ [ -77.39606, 38.95882 ], [ -77.39642, 38.9596 ], [ -77.39713, 38.95941 ], [ -77.39666, 38.95905 ], [ -77.39606, 38.95882 ] ], [ [ -77.39736, 38.96254 ], [ -77.39623, 38.96415 ], [ -77.39709, 38.96449 ], [ -77.39805, 38.96315 ], [ -77.39736, 38.96254 ] ], [ [ -77.39698, 38.96793 ], [ -77.39813, 38.96616 ], [ -77.39775, 38.96601 ], [ -77.39618, 38.96822 ], [ -77.39691, 38.96881 ], [ -77.39732, 38.96864 ], [ -77.39846, 38.96906 ], [ -77.39812, 38.96845 ], [ -77.39705, 38.96842 ], [ -77.39698, 38.96793 ] ], [ [ -77.39548, 38.96977 ], [ -77.39696, 38.97065 ], [ -77.39711, 38.97053 ], [ -77.39546, 38.96919 ], [ -77.39548, 38.96977 ] ], [ [ -77.39806, 38.96905 ], [ -77.39803, 38.96904 ], [ -77.39804, 38.96905 ], [ -77.39806, 38.96905 ] ], [ [ -77.3993, 38.97005 ], [ -77.39927, 38.97004 ], [ -77.39929, 38.97005 ], [ -77.3993, 38.97005 ] ], [ [ -77.39832, 38.97877 ], [ -77.39842, 38.97848 ], [ -77.39788, 38.97844 ], [ -77.39832, 38.97877 ] ], [ [ -77.39068, 38.96374 ], [ -77.39057, 38.9637 ], [ -77.39055, 38.96375 ], [ -77.39068, 38.96374 ] ], [ [ -77.39078, 38.96167 ], [ -77.39063, 38.9619 ], [ -77.39076, 38.96195 ], [ -77.39078, 38.96167 ] ], [ [ -77.3913, 38.96089 ], [ -77.3911, 38.9612 ], [ -77.39089, 38.96151 ], [ -77.39139, 38.96132 ], [ -77.3913, 38.96089 ] ], [ [ -77.39156, 38.9605 ], [ -77.3914, 38.96073 ], [ -77.39166, 38.96057 ], [ -77.39156, 38.9605 ] ], [ [ -77.39242, 38.96985 ], [ -77.39254, 38.96999 ], [ -77.39253, 38.96985 ], [ -77.39242, 38.96985 ] ], [ [ -77.38987, 38.9607 ], [ -77.3898, 38.96067 ], [ -77.38982, 38.96077 ], [ -77.38987, 38.9607 ] ], [ [ -77.38706, 38.96024 ], [ -77.38765, 38.96025 ], [ -77.38709, 38.9602 ], [ -77.38706, 38.96024 ] ], [ [ -77.38674, 38.95744 ], [ -77.38544, 38.95586 ], [ -77.38155, 38.95515 ], [ -77.38026, 38.95537 ], [ -77.37907, 38.95642 ], [ -77.38, 38.95665 ], [ -77.37971, 38.95788 ], [ -77.38017, 38.95718 ], [ -77.38304, 38.95709 ], [ -77.38361, 38.95636 ], [ -77.38439, 38.95683 ], [ -77.38576, 38.95682 ], [ -77.38598, 38.95719 ], [ -77.38521, 38.95844 ], [ -77.38574, 38.95901 ], [ -77.38654, 38.95841 ], [ -77.38674, 38.95744 ] ], [ [ -77.37891, 38.95654 ], [ -77.37675, 38.95756 ], [ -77.37558, 38.95879 ], [ -77.37757, 38.95974 ], [ -77.37891, 38.95654 ] ], [ [ -77.37441, 38.9597 ], [ -77.37356, 38.9606 ], [ -77.37679, 38.96299 ], [ -77.37785, 38.96118 ], [ -77.37441, 38.9597 ] ], [ [ -77.37302, 38.96172 ], [ -77.37258, 38.96426 ], [ -77.37511, 38.96443 ], [ -77.37868, 38.96635 ], [ -77.37881, 38.96595 ], [ -77.37302, 38.96172 ] ], [ [ -77.373, 38.9656 ], [ -77.37293, 38.96665 ], [ -77.3746, 38.96702 ], [ -77.37503, 38.96578 ], [ -77.373, 38.9656 ] ], [ [ -77.37269, 38.96791 ], [ -77.37215, 38.9681 ], [ -77.37217, 38.96823 ], [ -77.37269, 38.96791 ] ], [ [ -77.37058, 38.97203 ], [ -77.37195, 38.97553 ], [ -77.37136, 38.97935 ], [ -77.37172, 38.98004 ], [ -77.37557, 38.98181 ], [ -77.3791, 38.98215 ], [ -77.38162, 38.98158 ], [ -77.3815, 38.98126 ], [ -77.37877, 38.98193 ], [ -77.37741, 38.98182 ], [ -77.37664, 38.98114 ], [ -77.37682, 38.98075 ], [ -77.37776, 38.9807 ], [ -77.37769, 38.97967 ], [ -77.37493, 38.97941 ], [ -77.37387, 38.97897 ], [ -77.37417, 38.97793 ], [ -77.37501, 38.97715 ], [ -77.37764, 38.97775 ], [ -77.37746, 38.97552 ], [ -77.37393, 38.97471 ], [ -77.37358, 38.97569 ], [ -77.3726, 38.97571 ], [ -77.37256, 38.97449 ], [ -77.37157, 38.97429 ], [ -77.37139, 38.9739 ], [ -77.37176, 38.97322 ], [ -77.37265, 38.97317 ], [ -77.37251, 38.97221 ], [ -77.37058, 38.97203 ] ], [ [ -77.3845, 38.9822 ], [ -77.38438, 38.98052 ], [ -77.38314, 38.98084 ], [ -77.3839, 38.98121 ], [ -77.3845, 38.9822 ] ], [ [ -77.38539, 38.9791 ], [ -77.38534, 38.97882 ], [ -77.38521, 38.97864 ], [ -77.38539, 38.9791 ] ], [ [ -77.38494, 38.97794 ], [ -77.38493, 38.97676 ], [ -77.38543, 38.97663 ], [ -77.38608, 38.97699 ], [ -77.3866, 38.97645 ], [ -77.38442, 38.97674 ], [ -77.38494, 38.97794 ] ], [ [ -77.384, 38.97527 ], [ -77.38397, 38.97571 ], [ -77.38417, 38.97568 ], [ -77.384, 38.97527 ] ], [ [ -77.38442, 38.96606 ], [ -77.38482, 38.9659 ], [ -77.38441, 38.96594 ], [ -77.38442, 38.96606 ] ], [ [ -77.3838, 38.96479 ], [ -77.3838, 38.96484 ], [ -77.38385, 38.96484 ], [ -77.3838, 38.96479 ] ], [ [ -77.38159, 38.96145 ], [ -77.38171, 38.96117 ], [ -77.38143, 38.96133 ], [ -77.38159, 38.96145 ] ], [ [ -77.38603, 38.98216 ], [ -77.38671, 38.98172 ], [ -77.3879, 38.98 ], [ -77.38721, 38.98006 ], [ -77.38672, 38.98075 ], [ -77.38593, 38.9808 ], [ -77.38603, 38.98216 ] ], [ [ -77.38728, 38.96823 ], [ -77.38678, 38.96813 ], [ -77.38679, 38.96826 ], [ -77.38728, 38.96823 ] ], [ [ -77.38861, 38.97024 ], [ -77.38882, 38.97006 ], [ -77.3886, 38.97007 ], [ -77.38861, 38.97024 ] ], [ [ -77.38938, 38.97416 ], [ -77.38977, 38.974 ], [ -77.38967, 38.97392 ], [ -77.38938, 38.97416 ] ], [ [ -77.38355, 38.96305 ], [ -77.38315, 38.9632 ], [ -77.3833, 38.96343 ], [ -77.38355, 38.96305 ] ], [ [ -77.3847, 38.96089 ], [ -77.38425, 38.96017 ], [ -77.38383, 38.96067 ], [ -77.3847, 38.96089 ] ], [ [ -77.38498, 38.96421 ], [ -77.38548, 38.96467 ], [ -77.38577, 38.96426 ], [ -77.38498, 38.96421 ] ], [ [ -77.38526, 38.96709 ], [ -77.38527, 38.9674 ], [ -77.38536, 38.96775 ], [ -77.38526, 38.96709 ] ], [ [ -77.38655, 38.9727 ], [ -77.3855, 38.97269 ], [ -77.38655, 38.97286 ], [ -77.38655, 38.9727 ] ], [ [ -77.38671, 38.97361 ], [ -77.38654, 38.97346 ], [ -77.38654, 38.97364 ], [ -77.38671, 38.97361 ] ], [ [ -77.38402, 38.97323 ], [ -77.38386, 38.97407 ], [ -77.3839, 38.97407 ], [ -77.38402, 38.97323 ] ], [ [ -77.38582, 38.97546 ], [ -77.38539, 38.9751 ], [ -77.38554, 38.97549 ], [ -77.38582, 38.97546 ] ], [ [ -77.38274, 38.96038 ], [ -77.38273, 38.96038 ], [ -77.38274, 38.96039 ], [ -77.38274, 38.96038 ] ], [ [ -77.38163, 38.9595 ], [ -77.3823, 38.95915 ], [ -77.38214, 38.95897 ], [ -77.38163, 38.9595 ] ], [ [ -77.38284, 38.96187 ], [ -77.38346, 38.96171 ], [ -77.38284, 38.96155 ], [ -77.38284, 38.96187 ] ], [ [ -77.37948, 38.98039 ], [ -77.3792, 38.9797 ], [ -77.37906, 38.97939 ], [ -77.37915, 38.98065 ], [ -77.37948, 38.98039 ] ], [ [ -77.38105, 38.98015 ], [ -77.38072, 38.97987 ], [ -77.38087, 38.9802 ], [ -77.38105, 38.98015 ] ], [ [ -77.38179, 38.97846 ], [ -77.3816, 38.97748 ], [ -77.38129, 38.97676 ], [ -77.38179, 38.97846 ] ], [ [ -77.38196, 38.97483 ], [ -77.3824, 38.97397 ], [ -77.38173, 38.9738 ], [ -77.38161, 38.97333 ], [ -77.38196, 38.97483 ] ], [ [ -77.38181, 38.97296 ], [ -77.38276, 38.97257 ], [ -77.38279, 38.9725 ], [ -77.38189, 38.97241 ], [ -77.38181, 38.97296 ] ], [ [ -77.37706, 38.97127 ], [ -77.37861, 38.9692 ], [ -77.37752, 38.96895 ], [ -77.37681, 38.97065 ], [ -77.37706, 38.97127 ] ], [ [ -77.37403, 38.96816 ], [ -77.37404, 38.96842 ], [ -77.37421, 38.9682 ], [ -77.37403, 38.96816 ] ], [ [ -77.37817, 38.96748 ], [ -77.37624, 38.9667 ], [ -77.37602, 38.96736 ], [ -77.37804, 38.96782 ], [ -77.37817, 38.96748 ] ], [ [ -77.37903, 38.96446 ], [ -77.38056, 38.96244 ], [ -77.37919, 38.96165 ], [ -77.37768, 38.96365 ], [ -77.37903, 38.96446 ] ], [ [ -77.38231, 38.96881 ], [ -77.38177, 38.96834 ], [ -77.38156, 38.96863 ], [ -77.38231, 38.96881 ] ], [ [ -77.38151, 38.96626 ], [ -77.38223, 38.96462 ], [ -77.38158, 38.96343 ], [ -77.38015, 38.96528 ], [ -77.38151, 38.96626 ] ], [ [ -77.38309, 38.97054 ], [ -77.38224, 38.97002 ], [ -77.38218, 38.97043 ], [ -77.38309, 38.97054 ] ], [ [ -77.3833, 38.97807 ], [ -77.38333, 38.9776 ], [ -77.38313, 38.97765 ], [ -77.3833, 38.97807 ] ], [ [ -77.38284, 38.97649 ], [ -77.38258, 38.97585 ], [ -77.3827, 38.97663 ], [ -77.38284, 38.97649 ] ], [ [ -77.38373, 38.9791 ], [ -77.38405, 38.97939 ], [ -77.38392, 38.97904 ], [ -77.38373, 38.9791 ] ], [ [ -77.38241, 38.97944 ], [ -77.38237, 38.97982 ], [ -77.38256, 38.97977 ], [ -77.38241, 38.97944 ] ], [ [ -77.3802, 38.96832 ], [ -77.38042, 38.96802 ], [ -77.37958, 38.96782 ], [ -77.37946, 38.96815 ], [ -77.3802, 38.96832 ] ], [ [ -77.37922, 38.95942 ], [ -77.37924, 38.95913 ], [ -77.37911, 38.95948 ], [ -77.37922, 38.95942 ] ], [ [ -77.37927, 38.95906 ], [ -77.37953, 38.95862 ], [ -77.37954, 38.95834 ], [ -77.37927, 38.95906 ] ], [ [ -77.37729, 38.97342 ], [ -77.37666, 38.97409 ], [ -77.37738, 38.97444 ], [ -77.37729, 38.97342 ] ], [ [ -77.37968, 38.97283 ], [ -77.37971, 38.97298 ], [ -77.38014, 38.97402 ], [ -77.37968, 38.97283 ] ], [ [ -77.37881, 38.97431 ], [ -77.37874, 38.97414 ], [ -77.37875, 38.97431 ], [ -77.37881, 38.97431 ] ], [ [ -77.38029, 38.97884 ], [ -77.38034, 38.97847 ], [ -77.38, 38.97766 ], [ -77.38029, 38.97884 ] ], [ [ -77.38056, 38.97505 ], [ -77.38084, 38.97563 ], [ -77.38059, 38.97504 ], [ -77.38056, 38.97505 ] ], [ [ -77.37954, 38.97651 ], [ -77.37924, 38.97537 ], [ -77.37892, 38.97539 ], [ -77.37904, 38.97688 ], [ -77.37954, 38.97651 ] ], [ [ -77.37594, 38.96934 ], [ -77.3752, 38.96918 ], [ -77.37508, 38.9695 ], [ -77.37582, 38.96966 ], [ -77.37594, 38.96934 ] ], [ [ -77.37173, 38.96926 ], [ -77.37178, 38.96914 ], [ -77.37166, 38.96922 ], [ -77.37173, 38.96926 ] ], [ [ -77.37408, 38.97039 ], [ -77.37306, 38.97081 ], [ -77.37165, 38.97084 ], [ -77.3734, 38.971 ], [ -77.37408, 38.97039 ] ], [ [ -77.37506, 38.97335 ], [ -77.37526, 38.97309 ], [ -77.37475, 38.97308 ], [ -77.37506, 38.97335 ] ], [ [ -77.37419, 38.97307 ], [ -77.37405, 38.97307 ], [ -77.37404, 38.97311 ], [ -77.37419, 38.97307 ] ], [ [ -77.37596, 38.97839 ], [ -77.37543, 38.97838 ], [ -77.37606, 38.97844 ], [ -77.37596, 38.97839 ] ] ] } },
{ "type": "Feature", "properties": { "variant": "T0", "miles": 2.0 }, "geometry": { "type": "Polygon", "coordinates": [ [ [ -77.41487, 38.94797 ], [ -77.41482, 38.94838 ], [ -77.41375, 38.94855 ], [ -77.4125, 38.95052 ], [ -77.41389, 38.95064 ], [ -77.41654, 38.95173 ], [ -77.41685, 38.95266 ], [ -77.41581, 38.95322 ], [ -77.41457, 38.95277 ], [ -77.41368, 38.95335 ], [ -77.41281, 38.95425 ], [ -77.41321, 38.95568 ], [ -77.41266, 38.95683 ], [ -77.41199, 38.95685 ], [ -77.41153, 38.95635 ], [ -77.41101, 38.95713 ], [ -77.41008, 38.95736 ], [ -77.40618, 38.95585 ], [ -77.40296, 38.95915 ], [ -77.40752, 38.96198 ], [ -77.40929, 38.96101 ], [ -77.41037, 38.95985 ], [ -77.41275, 38.96044 ], [ -77.41231, 38.96163 ], [ -77.40874, 38.96392 ], [ -77.40908, 38.9662 ], [ -77.4075, 38.96644 ], [ -77.40778, 38.96711 ], [ -77.41008, 38.9688 ], [ -77.41079, 38.96879 ], [ -77.41141, 38.9697 ], [ -77.41331, 38.96621 ], [ -77.41418, 38.966 ], [ -77.41523, 38.96667 ], [ -77.41575, 38.96579 ], [ -77.41645, 38.96561 ], [ -77.41716, 38.96613 ], [ -77.41494, 38.97103 ], [ -77.41255, 38.97374 ], [ -77.41325, 38.97429 ], [ -77.41315, 38.9747 ], [ -77.41271, 38.97493 ], [ -77.41178, 38.97464 ], [ -77.41024, 38.97637 ], [ -77.4168, 38.97756 ], [ -77.42103, 38.97774 ], [ -77.42304, 38.97834 ], [ -77.42343, 38.97904 ], [ -77.42254, 38.97934 ], [ -77.4204, 38.97875 ], [ -77.4176, 38.9788 ], [ -77.4153, 38.98173 ], [ -77.41591, 38.9822 ], [ -77.41578, 38.98277 ], [ -77.41465, 38.98278 ], [ -77.41367, 38.9818 ], [ -77.41129, 38.98499 ], [ -77.40751, 38.98427 ], [ -77.4067, 38.98515 ], [ -77.40617, 38.98516 ], [ -77.40579, 38.98487 ], [ -77.40614, 38.98381 ], [ -77.40566, 38.98364 ], [ -77.405, 38.98399 ], [ -77.40566, 38.98498 ], [ -77.40484, 38.9854 ], [ -77.40233, 38.98321 ], [ -77.40027, 38.98498 ], [ -77.39971, 38.98501 ], [ -77.39922, 38.98611 ], [ -77.39837, 38.98602 ], [ -77.39826, 38.98671 ], [ -77.39748, 38.98698 ], [ -77.39727, 38.98783 ], [ -77.39863, 38.98671 ], [ -77.39941, 38.98717 ], [ -77.39785, 38.98916 ], [ -77.39923, 38.98914 ], [ -77.39922, 38.98998 ], [ -77.40033, 38.9909 ], [ -77.39971, 38.99149 ], [ -77.39718, 38.99011 ], [ -77.39676, 38.99118 ], [ -77.39503, 38.99125 ], [ -77.3945, 38.99236 ], [ -77.39355, 38.99257 ], [ -77.39323, 38.99224 ], [ -77.39369, 38.99095 ], [ -77.39167, 38.99054 ], [ -77.3906, 38.98854 ], [ -77.39054, 38.98634 ], [ -77.39015, 38.98624 ], [ -77.38811, 38.98872 ], [ -77.38526, 38.98787 ], [ -77.38587, 38.98529 ], [ -77.3865, 38.98484 ], [ -77.38612, 38.98467 ], [ -77.38579, 38.98523 ], [ -77.38517, 38.98519 ], [ -77.38479, 38.98613 ], [ -77.3843, 38.98794 ], [ -77.38453, 38.98979 ], [ -77.38436, 38.99002 ], [ -77.38403, 38.99033 ], [ -77.38342, 38.99069 ], [ -77.38269, 38.99077 ], [ -77.38155, 38.98996 ], [ -77.38222, 38.98941 ], [ -77.38318, 38.98943 ], [ -77.38285, 38.98812 ], [ -77.38056, 38.98729 ], [ -77.38003, 38.98666 ], [ -77.38087, 38.98301 ], [ -77.37883, 38.98339 ], [ -77.37746, 38.98956 ], [ -77.37673, 38.99007 ], [ -77.37625, 38.98989 ], [ -77.37663, 38.9862 ], [ -77.373, 38.98481 ], [ -77.37305, 38.98404 ], [ -77.37416, 38.98378 ], [ -77.37305, 38.98346 ], [ -77.37204, 38.98231 ], [ -77.37102, 38.98194 ], [ -77.37094, 38.98112 ], [ -77.3682, 38.98037 ], [ -77.36821, 38.97996 ], [ -77.36956, 38.97893 ], [ -77.36927, 38.97851 ], [ -77.36821, 38.97835 ], [ -77.36815, 38.97794 ], [ -77.37036, 38.97643 ], [ -77.3704, 38.97593 ], [ -77.36925, 38.9735 ], [ -77.36893, 38.971 ], [ -77.36824, 38.97055 ], [ -77.36825, 38.96931 ], [ -77.37077, 38.96739 ], [ -77.36753, 38.96697 ], [ -77.36809, 38.96795 ], [ -77.36734, 38.96844 ], [ -77.36639, 38.96833 ], [ -77.36625, 38.9688 ], [ -77.36699, 38.96889 ], [ -77.36718, 38.96953 ], [ -77.36645, 38.97051 ], [ -77.36591, 38.97051 ], [ -77.36328, 38.96913 ], [ -77.36457, 38.96679 ], [ -77.36121, 38.96674 ], [ -77.36109, 38.9675 ], [ -77.35928, 38.96848 ], [ -77.35854, 38.96798 ], [ -77.35878, 38.96753 ], [ -77.3575, 38.96749 ], [ -77.35721, 38.96714 ], [ -77.35733, 38.96674 ], [ -77.35845, 38.96643 ], [ -77.35867, 38.96585 ], [ -77.35933, 38.96568 ], [ -77.35982, 38.9644 ], [ -77.36087, 38.96333 ], [ -77.36205, 38.9639 ], [ -77.36091, 38.96553 ], [ -77.36515, 38.9656 ], [ -77.36693, 38.96354 ], [ -77.36808, 38.96406 ], [ -77.36803, 38.96447 ], [ -77.36714, 38.96496 ], [ -77.36847, 38.96505 ], [ -77.36863, 38.96424 ], [ -77.36789, 38.9636 ], [ -77.36759, 38.96199 ], [ -77.36947, 38.95911 ], [ -77.36555, 38.95717 ], [ -77.36515, 38.95648 ], [ -77.36604, 38.95616 ], [ -77.36802, 38.95685 ], [ -77.37048, 38.95837 ], [ -77.3712, 38.95813 ], [ -77.36786, 38.95548 ], [ -77.36659, 38.95566 ], [ -77.36654, 38.95393 ], [ -77.36754, 38.95342 ], [ -77.37024, 38.95385 ], [ -77.37073, 38.95441 ], [ -77.37003, 38.95553 ], [ -77.37179, 38.95697 ], [ -77.37362, 38.95454 ], [ -77.37719, 38.95445 ], [ -77.37837, 38.9551 ], [ -77.37923, 38.95442 ], [ -77.37924, 38.9532 ], [ -77.37985, 38.95286 ], [ -77.38372, 38.95277 ], [ -77.38522, 38.95326 ], [ -77.38681, 38.95313 ], [ -77.38773, 38.95378 ], [ -77.38902, 38.95073 ], [ -77.39101, 38.94817 ], [ -77.39212, 38.94773 ], [ -77.39249, 38.94844 ], [ -77.39187, 38.94946 ], [ -77.39292, 38.94919 ], [ -77.3934, 38.94999 ], [ -77.39529, 38.95004 ], [ -77.39683, 38.95175 ], [ -77.39443, 38.95348 ], [ -77.39367, 38.95291 ], [ -77.39209, 38.95307 ], [ -77.38978, 38.9526 ], [ -77.3892, 38.95434 ], [ -77.39051, 38.95464 ], [ -77.39312, 38.95422 ], [ -77.39559, 38.95447 ], [ -77.40122, 38.95596 ], [ -77.40318, 38.95695 ], [ -77.4052, 38.95485 ], [ -77.4048, 38.95436 ], [ -77.40287, 38.95501 ], [ -77.40168, 38.95498 ], [ -77.40124, 38.9546 ], [ -77.4017, 38.95396 ], [ -77.40053, 38.95337 ], [ -77.3991, 38.9534 ], [ -77.3989, 38.95302 ], [ -77.4004, 38.9519 ], [ -77.40013, 38.95051 ], [ -77.40094, 38.9503 ], [ -77.40242, 38.94844 ], [ -77.40339, 38.94834 ], [ -77.40373, 38.94875 ], [ -77.40416, 38.94847 ], [ -77.40354, 38.94776 ], [ -77.40423, 38.94722 ], [ -77.40504, 38.94763 ], [ -77.40614, 38.94761 ], [ -77.40596, 38.94844 ], [ -77.4069, 38.94917 ], [ -77.40629, 38.95018 ], [ -77.40912, 38.95149 ], [ -77.41035, 38.95046 ], [ -77.40824, 38.94893 ], [ -77.40697, 38.9485 ], [ -77.40734, 38.94779 ], [ -77.40811, 38.94784 ], [ -77.40822, 38.94706 ], [ -77.40876, 38.9469 ], [ -77.40976, 38.94736 ], [ -77.41019, 38.94816 ], [ -77.40977, 38.94877 ], [ -77.41127, 38.94965 ], [ -77.4125, 38.94744 ], [ -77.41409, 38.94748 ], [ -77.41487, 38.94797 ] ], [ [ -77.39239, 38.98605 ], [ -77.39229, 38.98568 ], [ -77.39217, 38.98596 ], [ -77.39271, 38.98622 ], [ -77.39239, 38.98605 ] ], [ [ -77.39238, 38.98213 ], [ -77.39326, 38.98179 ], [ -77.39503, 38.98301 ], [ -77.39695, 38.98321 ], [ -77.39798, 38.98016 ], [ -77.39587, 38.97854 ], [ -77.3934, 38.97942 ], [ -77.3932, 38.98002 ], [ -77.39227, 38.98061 ], [ -77.39046, 38.98033 ], [ -77.38978, 38.98066 ], [ -77.38943, 38.98116 ], [ -77.38866, 38.98129 ], [ -77.38754, 38.98283 ], [ -77.38593, 38.98346 ], [ -77.38782, 38.98426 ], [ -77.38796, 38.98503 ], [ -77.38723, 38.98593 ], [ -77.3882, 38.9865 ], [ -77.3895, 38.98449 ], [ -77.38841, 38.98457 ], [ -77.38813, 38.98289 ], [ -77.38901, 38.98257 ], [ -77.38995, 38.98344 ], [ -77.39158, 38.98396 ], [ -77.39238, 38.98213 ] ], [ [ -77.39372, 38.97099 ], [ -77.39254, 38.97107 ], [ -77.39191, 38.97171 ], [ -77.39116, 38.97116 ], [ -77.39031, 38.97121 ], [ -77.39071, 38.9732 ], [ -77.39271, 38.97461 ], [ -77.39324, 38.97424 ], [ -77.39372, 38.97099 ] ], [ [ -77.39253, 38.96985 ], [ -77.39242, 38.96985 ], [ -77.39243, 38.96999 ], [ -77.39253, 38.96985 ] ], [ [ -77.39329, 38.96656 ], [ -77.39569, 38.96645 ], [ -77.39637, 38.96549 ], [ -77.39376, 38.96445 ], [ -77.39137, 38.96793 ], [ -77.39283, 38.96786 ], [ -77.39329, 38.96656 ] ], [ [ -77.39063, 38.9619 ], [ -77.39076, 38.96195 ], [ -77.39078, 38.96167 ], [ -77.39063, 38.9619 ] ], [ [ -77.39139, 38.96132 ], [ -77.3913, 38.96089 ], [ -77.39089, 38.96151 ], [ -77.39139, 38.96132 ] ], [ [ -77.39156, 38.9605 ], [ -77.3914, 38.96073 ], [ -77.39166, 38.96057 ], [ -77.39156, 38.9605 ] ], [ [ -77.40416, 38.98204 ], [ -77.40393, 38.98142 ], [ -77.40328, 38.98142 ], [ -77.40311, 38.98229 ], [ -77.40413, 38.98314 ], [ -77.4051, 38.98261 ], [ -77.40416, 38.98204 ] ], [ [ -77.40429, 38.98078 ], [ -77.4043, 38.98088 ], [ -77.40442, 38.98074 ], [ -77.40429, 38.98078 ] ], [ [ -77.40434, 38.97385 ], [ -77.40422, 38.97408 ], [ -77.40426, 38.97408 ], [ -77.40441, 38.97371 ], [ -77.40434, 38.97385 ] ], [ [ -77.40507, 38.97222 ], [ -77.40507, 38.97221 ], [ -77.40506, 38.97222 ], [ -77.40507, 38.97222 ] ], [ [ -77.40465, 38.96916 ], [ -77.4046, 38.9691 ], [ -77.40453, 38.96914 ], [ -77.40465, 38.96916 ] ], [ [ -77.40592, 38.96571 ], [ -77.40537, 38.96511 ], [ -77.40552, 38.96455 ], [ -77.40597, 38.96429 ], [ -77.40739, 38.96444 ], [ -77.40682, 38.96388 ], [ -77.40461, 38.96408 ], [ -77.40493, 38.9648 ], [ -77.40396, 38.96604 ], [ -77.4047, 38.9665 ], [ -77.40592, 38.96571 ] ], [ [ -77.40226, 38.96323 ], [ -77.4025, 38.96343 ], [ -77.40297, 38.96321 ], [ -77.40226, 38.96323 ] ], [ [ -77.40276, 38.96059 ], [ -77.40224, 38.96012 ], [ -77.40007, 38.96274 ], [ -77.40076, 38.96309 ], [ -77.40276, 38.96059 ] ], [ [ -77.40269, 38.95317 ], [ -77.40369, 38.95251 ], [ -77.40339, 38.95191 ], [ -77.40171, 38.95224 ], [ -77.40152, 38.95258 ], [ -77.40269, 38.95317 ] ], [ [ -77.40668, 38.95265 ], [ -77.4068, 38.9527 ], [ -77.40662, 38.95242 ], [ -77.40668, 38.95265 ] ], [ [ -77.40999, 38.95414 ], [ -77.40945, 38.95422 ], [ -77.41008, 38.95447 ], [ -77.40999, 38.95414 ] ], [ [ -77.41205, 38.9527 ], [ -77.41194, 38.95339 ], [ -77.41302, 38.95236 ], [ -77.41205, 38.9527 ] ], [ [ -77.41037, 38.95233 ], [ -77.41065, 38.95252 ], [ -77.41158, 38.9514 ], [ -77.41037, 38.95233 ] ], [ [ -77.41142, 38.95477 ], [ -77.41161, 38.95513 ], [ -77.41155, 38.95499 ], [ -77.41142, 38.95477 ] ], [ [ -77.40785, 38.97706 ], [ -77.40762, 38.97697 ], [ -77.40771, 38.97714 ], [ -77.40785, 38.97706 ] ], [ [ -77.40908, 38.97478 ], [ -77.40746, 38.97395 ], [ -77.40722, 38.9744 ], [ -77.40641, 38.9745 ], [ -77.40661, 38.97523 ], [ -77.40881, 38.97609 ], [ -77.40996, 38.97482 ], [ -77.40908, 38.97478 ] ], [ [ -77.4112, 38.97337 ], [ -77.41169, 38.97278 ], [ -77.4111, 38.97322 ], [ -77.4112, 38.97337 ] ], [ [ -77.41326, 38.971 ], [ -77.4131, 38.97105 ], [ -77.41316, 38.9711 ], [ -77.41326, 38.971 ] ], [ [ -77.41163, 38.97022 ], [ -77.41164, 38.97026 ], [ -77.41168, 38.97025 ], [ -77.41163, 38.97022 ] ], [ [ -77.41398, 38.96799 ], [ -77.4142, 38.96752 ], [ -77.41412, 38.9675 ], [ -77.41398, 38.96799 ] ], [ [ -77.41087, 38.97067 ], [ -77.41102, 38.97079 ], [ -77.41099, 38.97066 ], [ -77.41087, 38.97067 ] ], [ [ -77.41259, 38.98036 ], [ -77.41391, 38.97831 ], [ -77.4117, 38.9779 ], [ -77.40966, 38.98053 ], [ -77.41133, 38.98108 ], [ -77.41177, 38.98054 ], [ -77.41259, 38.98036 ] ], [ [ -77.41296, 38.98064 ], [ -77.41361, 38.98087 ], [ -77.41384, 38.9815 ], [ -77.41616, 38.9787 ], [ -77.41535, 38.97856 ], [ -77.41379, 38.98044 ], [ -77.41296, 38.98064 ] ], [ [ -77.40894, 38.97093 ], [ -77.40894, 38.97096 ], [ -77.40899, 38.97095 ], [ -77.40894, 38.97093 ] ], [ [ -77.40909, 38.97189 ], [ -77.40877, 38.97238 ], [ -77.4089, 38.97247 ], [ -77.40934, 38.97209 ], [ -77.40909, 38.97189 ] ], [ [ -77.40878, 38.97786 ], [ -77.40982, 38.97816 ], [ -77.41027, 38.97762 ], [ -77.40878, 38.97786 ] ], [ [ -77.40514, 38.95194 ], [ -77.40511, 38.95186 ], [ -77.40487, 38.95191 ], [ -77.40514, 38.95194 ] ], [ [ -77.39984, 38.98227 ], [ -77.3995, 38.98229 ], [ -77.39944, 38.98279 ], [ -77.39984, 38.98273 ], [ -77.39984, 38.98227 ] ], [ [ -77.39842, 38.97848 ], [ -77.39788, 38.97844 ], [ -77.39832, 38.97877 ], [ -77.39842, 38.97848 ] ], [ [ -77.39937, 38.97376 ], [ -77.39782, 38.97281 ], [ -77.39712, 38.97187 ], [ -77.39529, 38.97091 ], [ -77.39483, 38.9742 ], [ -77.3938, 38.97542 ], [ -77.39623, 38.97726 ], [ -77.3988, 38.97706 ], [ -77.39937, 38.97376 ] ], [ [ -77.39999, 38.96983 ], [ -77.3991, 38.96945 ], [ -77.39905, 38.96982 ], [ -77.39988, 38.97042 ], [ -77.39999, 38.96983 ] ], [ [ -77.39749, 38.96865 ], [ -77.39696, 38.96801 ], [ -77.39813, 38.96616 ], [ -77.39775, 38.96601 ], [ -77.39618, 38.96822 ], [ -77.39691, 38.96881 ], [ -77.39782, 38.96875 ], [ -77.3982, 38.96914 ], [ -77.39829, 38.96857 ], [ -77.39749, 38.96865 ] ], [ [ -77.3996, 38.96764 ], [ -77.39914, 38.96696 ], [ -77.39879, 38.96747 ], [ -77.3996, 38.96764 ] ], [ [ -77.39973, 38.9643 ], [ -77.39988, 38.9641 ], [ -77.39932, 38.96383 ], [ -77.39851, 38.96495 ], [ -77.39973, 38.9643 ] ], [ [ -77.39872, 38.96184 ], [ -77.39883, 38.96197 ], [ -77.39898, 38.96177 ], [ -77.39851, 38.96156 ], [ -77.39872, 38.96184 ] ], [ [ -77.39985, 38.95958 ], [ -77.40013, 38.96015 ], [ -77.40066, 38.95948 ], [ -77.39934, 38.95861 ], [ -77.39859, 38.95887 ], [ -77.39985, 38.95958 ] ], [ [ -77.39522, 38.95718 ], [ -77.39485, 38.95752 ], [ -77.39583, 38.9577 ], [ -77.39522, 38.95718 ] ], [ [ -77.39389, 38.95601 ], [ -77.39411, 38.95612 ], [ -77.39418, 38.95583 ], [ -77.39389, 38.95601 ] ], [ [ -77.40418, 38.97944 ], [ -77.40458, 38.97904 ], [ -77.40411, 38.97744 ], [ -77.40229, 38.97841 ], [ -77.40288, 38.97879 ], [ -77.40386, 38.9785 ], [ -77.40418, 38.97944 ] ], [ [ -77.40209, 38.97452 ], [ -77.40199, 38.97443 ], [ -77.40196, 38.97462 ], [ -77.40209, 38.97452 ] ], [ [ -77.40105, 38.97094 ], [ -77.40082, 38.97123 ], [ -77.4016, 38.97202 ], [ -77.40202, 38.97193 ], [ -77.40105, 38.97094 ] ], [ [ -77.40282, 38.97089 ], [ -77.40245, 38.97072 ], [ -77.4032, 38.97121 ], [ -77.40282, 38.97089 ] ], [ [ -77.40284, 38.96482 ], [ -77.40282, 38.96484 ], [ -77.40284, 38.96486 ], [ -77.40284, 38.96482 ] ], [ [ -77.4016, 38.9682 ], [ -77.40149, 38.96821 ], [ -77.40163, 38.96829 ], [ -77.4016, 38.9682 ] ], [ [ -77.4028, 38.97568 ], [ -77.40298, 38.97533 ], [ -77.40272, 38.97563 ], [ -77.4028, 38.97568 ] ], [ [ -77.40388, 38.97321 ], [ -77.40379, 38.97318 ], [ -77.40405, 38.97338 ], [ -77.40388, 38.97321 ] ], [ [ -77.40166, 38.95789 ], [ -77.40197, 38.95761 ], [ -77.39994, 38.95688 ], [ -77.40166, 38.95789 ] ], [ [ -77.40106, 38.97369 ], [ -77.4009, 38.97357 ], [ -77.40089, 38.97367 ], [ -77.40106, 38.97369 ] ], [ [ -77.40111, 38.98267 ], [ -77.40108, 38.98263 ], [ -77.40098, 38.98274 ], [ -77.40111, 38.98267 ] ], [ [ -77.3942, 38.96755 ], [ -77.39421, 38.96777 ], [ -77.39478, 38.96777 ], [ -77.3942, 38.96755 ] ], [ [ -77.39642, 38.9596 ], [ -77.39713, 38.95941 ], [ -77.39666, 38.95905 ], [ -77.39606, 38.95882 ], [ -77.39642, 38.9596 ] ], [ [ -77.39623, 38.96415 ], [ -77.39709, 38.96449 ], [ -77.39805, 38.96315 ], [ -77.39736, 38.96254 ], [ -77.39623, 38.96415 ] ], [ [ -77.39696, 38.97065 ], [ -77.39711, 38.97053 ], [ -77.39546, 38.96919 ], [ -77.39527, 38.96976 ], [ -77.39696, 38.97065 ] ], [ [ -77.39804, 38.96905 ], [ -77.39806, 38.96905 ], [ -77.39804, 38.96903 ], [ -77.39804, 38.96905 ] ], [ [ -77.39345, 38.98636 ], [ -77.39358, 38.98593 ], [ -77.39336, 38.98619 ], [ -77.39345, 38.98636 ] ], [ [ -77.3906, 38.95111 ], [ -77.39025, 38.95158 ], [ -77.39043, 38.95164 ], [ -77.3906, 38.95111 ] ], [ [ -77.3915, 38.94996 ], [ -77.39137, 38.95011 ], [ -77.39153, 38.95019 ], [ -77.3915, 38.94996 ] ], [ [ -77.39186, 38.98741 ], [ -77.39173, 38.98713 ], [ -77.39172, 38.98748 ], [ -77.39186, 38.98741 ] ], [ [ -77.3869, 38.9552 ], [ -77.38715, 38.95517 ], [ -77.38703, 38.95514 ], [ -77.38659, 38.955 ], [ -77.3869, 38.9552 ] ], [ [ -77.3874, 38.95522 ], [ -77.3874, 38.9552 ], [ -77.38737, 38.9552 ], [ -77.3874, 38.95522 ] ], [ [ -77.38678, 38.96813 ], [ -77.38679, 38.96826 ], [ -77.38728, 38.96823 ], [ -77.38678, 38.96813 ] ], [ [ -77.38709, 38.96356 ], [ -77.38832, 38.9638 ], [ -77.38877, 38.96237 ], [ -77.38727, 38.96337 ], [ -77.3854, 38.96281 ], [ -77.3852, 38.96313 ], [ -77.38641, 38.96325 ], [ -77.38618, 38.96413 ], [ -77.38683, 38.96459 ], [ -77.38671, 38.96385 ], [ -77.38709, 38.96356 ] ], [ [ -77.38743, 38.9616 ], [ -77.38641, 38.96119 ], [ -77.38622, 38.96149 ], [ -77.38743, 38.9616 ] ], [ [ -77.38706, 38.96024 ], [ -77.38758, 38.96045 ], [ -77.38765, 38.96025 ], [ -77.38706, 38.96024 ] ], [ [ -77.38544, 38.95586 ], [ -77.38155, 38.95515 ], [ -77.38097, 38.95517 ], [ -77.38153, 38.95644 ], [ -77.38057, 38.95657 ], [ -77.37975, 38.95573 ], [ -77.37907, 38.95642 ], [ -77.38, 38.95665 ], [ -77.37981, 38.95764 ], [ -77.38068, 38.95707 ], [ -77.38304, 38.95709 ], [ -77.38361, 38.95636 ], [ -77.38439, 38.95683 ], [ -77.38576, 38.95682 ], [ -77.38598, 38.95719 ], [ -77.38521, 38.95844 ], [ -77.38574, 38.95901 ], [ -77.38654, 38.95841 ], [ -77.38674, 38.95744 ], [ -77.38544, 38.95586 ] ], [ [ -77.37675, 38.95756 ], [ -77.37558, 38.95879 ], [ -77.37757, 38.95974 ], [ -77.37891, 38.95654 ], [ -77.37675, 38.95756 ] ], [ [ -77.37356, 38.9606 ], [ -77.37679, 38.96299 ], [ -77.37785, 38.96118 ], [ -77.37441, 38.9597 ], [ -77.37356, 38.9606 ] ], [ [ -77.37258, 38.96426 ], [ -77.37511, 38.96443 ], [ -77.37868, 38.96635 ], [ -77.37881, 38.96595 ], [ -77.37302, 38.96172 ], [ -77.37258, 38.96426 ] ], [ [ -77.37293, 38.96665 ], [ -77.3746, 38.96702 ], [ -77.37503, 38.96578 ], [ -77.373, 38.9656 ], [ -77.37293, 38.96665 ] ], [ [ -77.37215, 38.9681 ], [ -77.37217, 38.96823 ], [ -77.37269, 38.96791 ], [ -77.37215, 38.9681 ] ], [ [ -77.37505, 38.9817 ], [ -77.37526, 38.98116 ], [ -77.37496, 38.98085 ], [ -77.37407, 38.98102 ], [ -77.37505, 38.9817 ] ], [ [ -77.38438, 38.98052 ], [ -77.38314, 38.98084 ], [ -77.3839, 38.98121 ], [ -77.3845, 38.9822 ], [ -77.38438, 38.98052 ] ], [ [ -77.38534, 38.97882 ], [ -77.38521, 38.97864 ], [ -77.38539, 38.9791 ], [ -77.38534, 38.97882 ] ], [ [ -77.38493, 38.97676 ], [ -77.38543, 38.97663 ], [ -77.38608, 38.97699 ], [ -77.3866, 38.97645 ], [ -77.38442, 38.97674 ], [ -77.38494, 38.97794 ], [ -77.38493, 38.97676 ] ], [ [ -77.38539, 38.9751 ], [ -77.38554, 38.97549 ], [ -77.38582, 38.97546 ], [ -77.38539, 38.9751 ] ], [ [ -77.38177, 38.96834 ], [ -77.38156, 38.96863 ], [ -77.38231, 38.96881 ], [ -77.38177, 38.96834 ] ], [ [ -77.38223, 38.96462 ], [ -77.38158, 38.96343 ], [ -77.38015, 38.96528 ], [ -77.38162, 38.96608 ], [ -77.38223, 38.96462 ] ], [ [ -77.38171, 38.96117 ], [ -77.38143, 38.96133 ], [ -77.38159, 38.96145 ], [ -77.38171, 38.96117 ] ], [ [ -77.37945, 38.95874 ], [ -77.37943, 38.95863 ], [ -77.37937, 38.95878 ], [ -77.37945, 38.95874 ] ], [ [ -77.38671, 38.98172 ], [ -77.3879, 38.98 ], [ -77.38721, 38.98006 ], [ -77.38672, 38.98075 ], [ -77.38593, 38.9808 ], [ -77.38603, 38.98216 ], [ -77.38671, 38.98172 ] ], [ [ -77.38967, 38.97392 ], [ -77.38938, 38.97416 ], [ -77.38951, 38.97426 ], [ -77.38967, 38.97392 ] ], [ [ -77.38882, 38.97006 ], [ -77.3886, 38.97007 ], [ -77.38861, 38.97024 ], [ -77.38882, 38.97006 ] ], [ [ -77.38982, 38.96077 ], [ -77.38989, 38.96067 ], [ -77.38981, 38.96067 ], [ -77.38982, 38.96077 ] ], [ [ -77.3891, 38.95571 ], [ -77.38909, 38.95725 ], [ -77.38921, 38.9573 ], [ -77.38994, 38.95622 ], [ -77.3891, 38.95571 ] ], [ [ -77.39057, 38.9637 ], [ -77.39055, 38.96375 ], [ -77.39068, 38.96374 ], [ -77.39057, 38.9637 ] ], [ [ -77.39021, 38.97013 ], [ -77.39105, 38.97008 ], [ -77.39104, 38.96993 ], [ -77.39021, 38.97013 ] ], [ [ -77.38442, 38.96606 ], [ -77.38488, 38.96603 ], [ -77.38482, 38.9659 ], [ -77.38442, 38.96606 ] ], [ [ -77.38385, 38.96484 ], [ -77.3838, 38.96479 ], [ -77.3838, 38.96483 ], [ -77.38385, 38.96484 ] ], [ [ -77.38315, 38.9632 ], [ -77.3833, 38.96343 ], [ -77.38355, 38.96305 ], [ -77.38315, 38.9632 ] ], [ [ -77.38425, 38.96017 ], [ -77.38383, 38.96067 ], [ -77.3847, 38.96089 ], [ -77.38425, 38.96017 ] ], [ [ -77.38525, 38.95448 ], [ -77.38493, 38.95436 ], [ -77.3849, 38.95443 ], [ -77.38525, 38.95448 ] ], [ [ -77.38548, 38.96467 ], [ -77.38577, 38.96426 ], [ -77.38498, 38.96421 ], [ -77.38548, 38.96467 ] ], [ [ -77.38526, 38.96709 ], [ -77.38508, 38.9671 ], [ -77.3853, 38.96776 ], [ -77.38526, 38.96709 ] ], [ [ -77.3855, 38.97269 ], [ -77.38655, 38.97286 ], [ -77.38627, 38.9726 ], [ -77.3855, 38.97269 ] ], [ [ -77.38388, 38.97353 ], [ -77.38386, 38.97407 ], [ -77.38402, 38.97323 ], [ -77.38388, 38.97353 ] ], [ [ -77.38654, 38.97364 ], [ -77.38671, 38.97361 ], [ -77.38659, 38.97337 ], [ -77.38654, 38.97364 ] ], [ [ -77.38176, 38.95962 ], [ -77.3823, 38.95915 ], [ -77.38214, 38.95897 ], [ -77.38176, 38.95962 ] ], [ [ -77.38274, 38.96039 ], [ -77.38274, 38.96038 ], [ -77.38273, 38.96038 ], [ -77.38274, 38.96039 ] ], [ [ -77.38284, 38.96155 ], [ -77.38284, 38.96187 ], [ -77.38324, 38.96188 ], [ -77.38346, 38.96171 ], [ -77.38284, 38.96155 ] ], [ [ -77.3822, 38.954 ], [ -77.38225, 38.95385 ], [ -77.38055, 38.95391 ], [ -77.3822, 38.954 ] ], [ [ -77.37624, 38.9667 ], [ -77.37602, 38.96736 ], [ -77.37804, 38.96782 ], [ -77.37809, 38.96745 ], [ -77.37624, 38.9667 ] ], [ [ -77.37187, 38.95938 ], [ -77.37237, 38.95976 ], [ -77.37307, 38.95902 ], [ -77.37187, 38.95938 ] ], [ [ -77.3753, 38.98389 ], [ -77.37538, 38.9845 ], [ -77.37697, 38.98513 ], [ -77.3773, 38.98388 ], [ -77.3753, 38.98389 ] ], [ [ -77.37728, 38.97964 ], [ -77.3773, 38.98039 ], [ -77.37772, 38.98025 ], [ -77.37769, 38.97967 ], [ -77.37728, 38.97964 ] ], [ [ -77.37746, 38.97552 ], [ -77.37441, 38.97486 ], [ -77.37465, 38.97561 ], [ -77.37405, 38.97636 ], [ -77.37517, 38.97655 ], [ -77.37725, 38.97787 ], [ -77.37764, 38.97775 ], [ -77.37746, 38.97552 ] ], [ [ -77.37729, 38.97342 ], [ -77.37692, 38.97344 ], [ -77.37666, 38.97409 ], [ -77.37729, 38.97442 ], [ -77.37729, 38.97342 ] ], [ [ -77.37788, 38.96981 ], [ -77.37861, 38.9692 ], [ -77.37752, 38.96895 ], [ -77.37681, 38.97065 ], [ -77.37706, 38.97127 ], [ -77.37779, 38.97069 ], [ -77.37788, 38.96981 ] ], [ [ -77.37404, 38.96842 ], [ -77.37421, 38.9682 ], [ -77.37403, 38.96816 ], [ -77.37404, 38.96842 ] ], [ [ -77.3802, 38.96832 ], [ -77.38042, 38.96802 ], [ -77.37958, 38.96782 ], [ -77.37946, 38.96815 ], [ -77.3802, 38.96832 ] ], [ [ -77.38152, 38.986 ], [ -77.38141, 38.98642 ], [ -77.38212, 38.98673 ], [ -77.38225, 38.98623 ], [ -77.38152, 38.986 ] ], [ [ -77.3792, 38.9797 ], [ -77.37906, 38.97939 ], [ -77.37915, 38.98065 ], [ -77.37955, 38.98054 ], [ -77.3792, 38.9797 ] ], [ [ -77.38087, 38.9802 ], [ -77.38105, 38.98015 ], [ -77.38091, 38.97982 ], [ -77.38087, 38.9802 ] ], [ [ -77.38222, 38.97949 ], [ -77.38237, 38.97982 ], [ -77.38256, 38.97977 ], [ -77.38222, 38.97949 ] ], [ [ -77.3816, 38.97748 ], [ -77.38129, 38.97676 ], [ -77.38179, 38.97846 ], [ -77.3816, 38.97748 ] ], [ [ -77.38173, 38.9738 ], [ -77.38161, 38.97333 ], [ -77.3814, 38.97348 ], [ -77.38196, 38.97483 ], [ -77.3824, 38.97397 ], [ -77.38173, 38.9738 ] ], [ [ -77.38276, 38.97257 ], [ -77.38279, 38.9725 ], [ -77.38189, 38.97241 ], [ -77.38181, 38.97296 ], [ -77.38276, 38.97257 ] ], [ [ -77.38263, 38.98502 ], [ -77.38241, 38.98515 ], [ -77.38315, 38.98511 ], [ -77.38287, 38.98481 ], [ -77.38263, 38.98502 ] ], [ [ -77.384, 38.97527 ], [ -77.38379, 38.97527 ], [ -77.38397, 38.97571 ], [ -77.384, 38.97527 ] ], [ [ -77.38313, 38.97025 ], [ -77.38224, 38.97002 ], [ -77.38218, 38.97043 ], [ -77.38313, 38.97025 ] ], [ [ -77.38388, 38.97943 ], [ -77.38405, 38.97939 ], [ -77.38392, 38.97904 ], [ -77.38388, 38.97943 ] ], [ [ -77.38313, 38.97765 ], [ -77.3833, 38.97807 ], [ -77.3835, 38.97801 ], [ -77.38313, 38.97765 ] ], [ [ -77.38241, 38.97597 ], [ -77.3827, 38.97663 ], [ -77.38288, 38.97658 ], [ -77.38241, 38.97597 ] ], [ [ -77.37919, 38.96165 ], [ -77.37798, 38.96387 ], [ -77.37907, 38.96449 ], [ -77.38056, 38.96244 ], [ -77.37919, 38.96165 ] ], [ [ -77.37636, 38.95625 ], [ -77.3773, 38.95594 ], [ -77.37663, 38.95554 ], [ -77.37516, 38.95542 ], [ -77.37563, 38.95577 ], [ -77.37487, 38.95704 ], [ -77.37636, 38.95625 ] ], [ [ -77.38078, 38.97567 ], [ -77.38084, 38.97563 ], [ -77.38059, 38.97504 ], [ -77.38078, 38.97567 ] ], [ [ -77.37924, 38.97537 ], [ -77.37892, 38.97539 ], [ -77.37904, 38.97688 ], [ -77.37946, 38.97621 ], [ -77.37924, 38.97537 ] ], [ [ -77.37968, 38.97283 ], [ -77.38014, 38.97402 ], [ -77.38017, 38.97401 ], [ -77.37968, 38.97283 ] ], [ [ -77.37881, 38.97431 ], [ -77.37874, 38.97414 ], [ -77.37875, 38.97431 ], [ -77.37881, 38.97431 ] ], [ [ -77.38034, 38.97847 ], [ -77.38, 38.97766 ], [ -77.38029, 38.97884 ], [ -77.38034, 38.97847 ] ], [ [ -77.37485, 38.95754 ], [ -77.37487, 38.95705 ], [ -77.37436, 38.95774 ], [ -77.37413, 38.95805 ], [ -77.37485, 38.95754 ] ], [ [ -77.37471, 38.95542 ], [ -77.37437, 38.95561 ], [ -77.37316, 38.95719 ], [ -77.37471, 38.95542 ] ], [ [ -77.37251, 38.97221 ], [ -77.37239, 38.97218 ], [ -77.37206, 38.97311 ], [ -77.37267, 38.97296 ], [ -77.37251, 38.97221 ] ], [ [ -77.37173, 38.96926 ], [ -77.37178, 38.96914 ], [ -77.37172, 38.96918 ], [ -77.37173, 38.96926 ] ], [ [ -77.37177, 38.96076 ], [ -77.37161, 38.96067 ], [ -77.36976, 38.96262 ], [ -77.37031, 38.96388 ], [ -77.37095, 38.96421 ], [ -77.37177, 38.96076 ] ], [ [ -77.37582, 38.96966 ], [ -77.37594, 38.96934 ], [ -77.3752, 38.96918 ], [ -77.37508, 38.9695 ], [ -77.37582, 38.96966 ] ], [ [ -77.37408, 38.97039 ], [ -77.37372, 38.97019 ], [ -77.37369, 38.97026 ], [ -77.37408, 38.97039 ] ], [ [ -77.37543, 38.97838 ], [ -77.37606, 38.97844 ], [ -77.37596, 38.97839 ], [ -77.37543, 38.97838 ] ], [ [ -77.37526, 38.97309 ], [ -77.37475, 38.97308 ], [ -77.37506, 38.97335 ], [ -77.37526, 38.97309 ] ], [ [ -77.37404, 38.97311 ], [ -77.37419, 38.97307 ], [ -77.37411, 38.97307 ], [ -77.37404, 38.97311 ] ], [ [ -77.37482, 38.98 ], [ -77.37474, 38.98003 ], [ -77.37482, 38.98006 ], [ -77.37482, 38.98 ] ], [ [ -77.37611, 38.97953 ], [ -77.37616, 38.97959 ], [ -77.37618, 38.97954 ], [ -77.37611, 38.97953 ] ], [ [ -77.37032, 38.96568 ], [ -77.36988, 38.96496 ], [ -77.36973, 38.96592 ], [ -77.37093, 38.96595 ], [ -77.37032, 38.96568 ] ], [ [ -77.37053, 38.95987 ], [ -77.3702, 38.96037 ], [ -77.37027, 38.96033 ], [ -77.37053, 38.95987 ] ] ] } },
{ "type": "Feature", "properties": { "variant": "T2s", "miles": 1.0 }, "geometry": { "type": "Polygon", "coordinates": [ [ [ -77.40324, 38.9596 ], [ -77.40276, 38.96014 ], [ -77.40204, 38.96007 ], [ -77.40007, 38.96274 ], [ -77.40076, 38.96309 ], [ -77.40113, 38.96191 ], [ -77.40154, 38.96164 ], [ -77.40247, 38.96188 ], [ -77.40259, 38.96398 ], [ -77.40209, 38.96467 ], [ -77.40312, 38.96508 ], [ -77.40381, 38.96454 ], [ -77.40433, 38.96462 ], [ -77.40453, 38.96537 ], [ -77.40396, 38.96604 ], [ -77.40538, 38.9673 ], [ -77.4045, 38.96831 ], [ -77.4047, 38.96973 ], [ -77.40429, 38.97034 ], [ -77.40335, 38.97015 ], [ -77.40149, 38.96821 ], [ -77.40136, 38.97013 ], [ -77.40082, 38.97123 ], [ -77.40415, 38.97346 ], [ -77.40422, 38.97408 ], [ -77.40536, 38.97455 ], [ -77.40445, 38.97672 ], [ -77.40355, 38.97702 ], [ -77.40317, 38.97673 ], [ -77.40355, 38.9756 ], [ -77.40299, 38.97532 ], [ -77.4026, 38.97565 ], [ -77.403, 38.97599 ], [ -77.40289, 38.97712 ], [ -77.40206, 38.97787 ], [ -77.40099, 38.97801 ], [ -77.40015, 38.97764 ], [ -77.39965, 38.97833 ], [ -77.39591, 38.97839 ], [ -77.39246, 38.9795 ], [ -77.39103, 38.97897 ], [ -77.39029, 38.97814 ], [ -77.38988, 38.97957 ], [ -77.38943, 38.97979 ], [ -77.38892, 38.97969 ], [ -77.3879, 38.9785 ], [ -77.38758, 38.97669 ], [ -77.38718, 38.97651 ], [ -77.38442, 38.97674 ], [ -77.38439, 38.97717 ], [ -77.38347, 38.97742 ], [ -77.38258, 38.97585 ], [ -77.38185, 38.97631 ], [ -77.38113, 38.97617 ], [ -77.37943, 38.97221 ], [ -77.37871, 38.97248 ], [ -77.37732, 38.97221 ], [ -77.37744, 38.97145 ], [ -77.37832, 38.97137 ], [ -77.37776, 38.97063 ], [ -77.37788, 38.96981 ], [ -77.37863, 38.96909 ], [ -77.37499, 38.96834 ], [ -77.37447, 38.96769 ], [ -77.37479, 38.96727 ], [ -77.37813, 38.96785 ], [ -77.37878, 38.96667 ], [ -77.37994, 38.96677 ], [ -77.37892, 38.96582 ], [ -77.37959, 38.96526 ], [ -77.38148, 38.96631 ], [ -77.38224, 38.96453 ], [ -77.38087, 38.96234 ], [ -77.38221, 38.96117 ], [ -77.3827, 38.96131 ], [ -77.38284, 38.96187 ], [ -77.38449, 38.9618 ], [ -77.38548, 38.96022 ], [ -77.38641, 38.95998 ], [ -77.38672, 38.96071 ], [ -77.38622, 38.96149 ], [ -77.38757, 38.96193 ], [ -77.3879, 38.96241 ], [ -77.38707, 38.96306 ], [ -77.3854, 38.96281 ], [ -77.3852, 38.96313 ], [ -77.38641, 38.96325 ], [ -77.38618, 38.96413 ], [ -77.38683, 38.96459 ], [ -77.38671, 38.96385 ], [ -77.38709, 38.96356 ], [ -77.38991, 38.96431 ], [ -77.39068, 38.96374 ], [ -77.39, 38.96287 ], [ -77.38953, 38.96335 ], [ -77.38862, 38.96307 ], [ -77.38908, 38.96189 ], [ -77.38949, 38.96162 ], [ -77.39076, 38.96195 ], [ -77.39172, 38.96053 ], [ -77.39304, 38.96089 ], [ -77.39358, 38.96015 ], [ -77.39292, 38.95972 ], [ -77.39336, 38.95903 ], [ -77.39425, 38.95921 ], [ -77.39522, 38.95891 ], [ -77.39593, 38.95976 ], [ -77.39713, 38.95941 ], [ -77.39665, 38.95856 ], [ -77.3976, 38.95837 ], [ -77.39985, 38.95958 ], [ -77.40013, 38.96015 ], [ -77.40092, 38.95921 ], [ -77.40017, 38.95857 ], [ -77.4003, 38.95817 ], [ -77.40127, 38.95807 ], [ -77.40324, 38.9596 ] ], [ [ -77.38977, 38.974 ], [ -77.38967, 38.97392 ], [ -77.38938, 38.97416 ], [ -77.38977, 38.974 ] ], [ [ -77.39271, 38.97461 ], [ -77.39324, 38.97424 ], [ -77.39372, 38.97099 ], [ -77.39254, 38.97107 ], [ -77.39191, 38.97171 ], [ -77.39116, 38.97116 ], [ -77.39031, 38.97121 ], [ -77.39071, 38.9732 ], [ -77.39271, 38.97461 ] ], [ [ -77.39105, 38.97008 ], [ -77.39104, 38.96993 ], [ -77.3902, 38.96998 ], [ -77.39105, 38.97008 ] ], [ [ -77.39937, 38.97376 ], [ -77.39782, 38.97281 ], [ -77.39712, 38.97187 ], [ -77.39529, 38.97091 ], [ -77.39483, 38.9742 ], [ -77.3938, 38.97542 ], [ -77.39623, 38.97726 ], [ -77.39876, 38.97718 ], [ -77.39937, 38.97376 ] ], [ [ -77.39977, 38.97048 ], [ -77.40009, 38.97034 ], [ -77.39999, 38.96983 ], [ -77.3991, 38.96945 ], [ -77.39977, 38.97048 ] ], [ [ -77.39705, 38.96842 ], [ -77.39703, 38.9678 ], [ -77.39813, 38.96616 ], [ -77.39775, 38.96601 ], [ -77.39618, 38.96822 ], [ -77.39691, 38.96881 ], [ -77.39782, 38.96875 ], [ -77.3982, 38.96914 ], [ -77.39843, 38.96861 ], [ -77.39705, 38.96842 ] ], [ [ -77.39901, 38.96455 ], [ -77.39991, 38.96406 ], [ -77.39936, 38.96379 ], [ -77.39851, 38.96495 ], [ -77.39901, 38.96455 ] ], [ [ -77.39742, 38.96239 ], [ -77.39623, 38.96415 ], [ -77.39709, 38.96449 ], [ -77.39804, 38.96306 ], [ -77.39742, 38.96239 ] ], [ [ -77.40097, 38.97368 ], [ -77.40106, 38.97369 ], [ -77.4009, 38.97357 ], [ -77.40097, 38.97368 ] ], [ [ -77.39884, 38.96751 ], [ -77.3996, 38.96764 ], [ -77.39914, 38.96696 ], [ -77.39884, 38.96751 ] ], [ [ -77.39254, 38.96999 ], [ -77.39253, 38.96985 ], [ -77.39242, 38.96985 ], [ -77.39254, 38.96999 ] ], [ [ -77.39329, 38.96656 ], [ -77.39569, 38.96645 ], [ -77.39637, 38.96549 ], [ -77.39376, 38.96445 ], [ -77.39137, 38.96793 ], [ -77.39283, 38.96786 ], [ -77.39329, 38.96656 ] ], [ [ -77.39696, 38.97065 ], [ -77.39711, 38.97053 ], [ -77.39546, 38.96919 ], [ -77.39527, 38.96976 ], [ -77.39696, 38.97065 ] ], [ [ -77.39478, 38.96777 ], [ -77.39495, 38.96754 ], [ -77.3942, 38.96755 ], [ -77.39478, 38.96777 ] ], [ [ -77.39804, 38.96903 ], [ -77.39803, 38.96904 ], [ -77.39804, 38.96905 ], [ -77.39804, 38.96903 ] ], [ [ -77.38539, 38.9751 ], [ -77.38554, 38.97549 ], [ -77.38582, 38.97546 ], [ -77.38539, 38.9751 ] ], [ [ -77.38388, 38.97353 ], [ -77.38386, 38.97407 ], [ -77.38402, 38.97323 ], [ -77.38388, 38.97353 ] ], [ [ -77.38627, 38.9726 ], [ -77.38552, 38.97253 ], [ -77.3855, 38.97269 ], [ -77.38652, 38.9728 ], [ -77.38627, 38.9726 ] ], [ [ -77.38526, 38.96709 ], [ -77.38508, 38.9671 ], [ -77.3853, 38.96776 ], [ -77.38526, 38.96709 ] ], [ [ -77.38543, 38.96427 ], [ -77.38498, 38.96421 ], [ -77.38548, 38.96467 ], [ -77.38577, 38.96426 ], [ -77.38543, 38.96427 ] ], [ [ -77.38861, 38.97024 ], [ -77.38883, 38.97022 ], [ -77.38882, 38.97006 ], [ -77.38861, 38.97024 ] ], [ [ -77.38678, 38.96813 ], [ -77.38679, 38.96826 ], [ -77.38728, 38.96823 ], [ -77.38678, 38.96813 ] ], [ [ -77.38659, 38.97337 ], [ -77.38654, 38.97364 ], [ -77.38671, 38.97361 ], [ -77.38659, 38.97337 ] ], [ [ -77.38397, 38.97571 ], [ -77.38417, 38.97568 ], [ -77.384, 38.97527 ], [ -77.38397, 38.97571 ] ], [ [ -77.38161, 38.97333 ], [ -77.38196, 38.97483 ], [ -77.38238, 38.97455 ], [ -77.38161, 38.97333 ] ], [ [ -77.38189, 38.97241 ], [ -77.38181, 38.97296 ], [ -77.38276, 38.97257 ], [ -77.38189, 38.97241 ] ], [ [ -77.38314, 38.97016 ], [ -77.38112, 38.96965 ], [ -77.38218, 38.97043 ], [ -77.38314, 38.97016 ] ], [ [ -77.38156, 38.96863 ], [ -77.38231, 38.96881 ], [ -77.38206, 38.96853 ], [ -77.38156, 38.96863 ] ], [ [ -77.38326, 38.96302 ], [ -77.38338, 38.96354 ], [ -77.38341, 38.96349 ], [ -77.38365, 38.96312 ], [ -77.38326, 38.96302 ] ], [ [ -77.38442, 38.96606 ], [ -77.38488, 38.96603 ], [ -77.38482, 38.9659 ], [ -77.38442, 38.96606 ] ], [ [ -77.38385, 38.96484 ], [ -77.3838, 38.96479 ], [ -77.3838, 38.96483 ], [ -77.38385, 38.96484 ] ], [ [ -77.38042, 38.96802 ], [ -77.37958, 38.96782 ], [ -77.37946, 38.96815 ], [ -77.3802, 38.96832 ], [ -77.38042, 38.96802 ] ] ] } },
{ "type": "Feature", "properties": { "variant": "T2s", "miles": 1.5 }, "geometry": { "type": "Polygon", "coordinates": [ [ [ -77.40631, 38.95253 ], [ -77.40884, 38.95327 ], [ -77.4094, 38.95426 ], [ -77.40871, 38.9549 ], [ -77.40727, 38.95525 ], [ -77.40691, 38.95504 ], [ -77.40296, 38.95915 ], [ -77.40752, 38.96198 ], [ -77.40929, 38.96201 ], [ -77.40999, 38.96272 ], [ -77.41004, 38.96313 ], [ -77.40874, 38.96392 ], [ -77.40866, 38.96538 ], [ -77.40769, 38.96548 ], [ -77.40738, 38.96422 ], [ -77.40682, 38.96388 ], [ -77.40461, 38.96408 ], [ -77.40493, 38.9648 ], [ -77.40396, 38.96604 ], [ -77.4047, 38.9665 ], [ -77.40578, 38.96571 ], [ -77.40661, 38.96573 ], [ -77.40778, 38.96711 ], [ -77.41007, 38.96878 ], [ -77.4097, 38.97002 ], [ -77.41045, 38.97053 ], [ -77.41038, 38.97094 ], [ -77.40996, 38.97119 ], [ -77.40894, 38.97093 ], [ -77.40867, 38.97148 ], [ -77.40792, 38.97142 ], [ -77.40685, 38.97198 ], [ -77.40655, 38.97265 ], [ -77.40746, 38.97398 ], [ -77.40722, 38.9744 ], [ -77.40644, 38.97442 ], [ -77.40661, 38.97523 ], [ -77.40881, 38.97609 ], [ -77.41146, 38.97336 ], [ -77.41325, 38.97429 ], [ -77.41271, 38.97493 ], [ -77.41178, 38.97464 ], [ -77.41024, 38.97637 ], [ -77.41167, 38.97664 ], [ -77.41213, 38.97728 ], [ -77.41028, 38.97966 ], [ -77.40933, 38.97986 ], [ -77.40901, 38.97953 ], [ -77.41027, 38.97762 ], [ -77.40924, 38.97744 ], [ -77.40843, 38.97806 ], [ -77.40785, 38.97927 ], [ -77.40715, 38.97938 ], [ -77.40642, 38.97895 ], [ -77.40429, 38.98078 ], [ -77.40414, 38.98134 ], [ -77.40328, 38.98142 ], [ -77.40315, 38.98228 ], [ -77.40246, 38.9824 ], [ -77.40185, 38.98376 ], [ -77.40088, 38.98389 ], [ -77.4006, 38.98354 ], [ -77.4011, 38.98265 ], [ -77.40034, 38.98292 ], [ -77.3995, 38.98229 ], [ -77.3986, 38.98271 ], [ -77.39947, 38.98346 ], [ -77.39914, 38.98418 ], [ -77.39805, 38.98404 ], [ -77.39626, 38.98448 ], [ -77.3957, 38.98386 ], [ -77.39695, 38.98321 ], [ -77.39798, 38.98016 ], [ -77.39581, 38.97855 ], [ -77.3934, 38.97942 ], [ -77.3932, 38.98002 ], [ -77.39227, 38.98061 ], [ -77.39046, 38.98033 ], [ -77.38943, 38.98116 ], [ -77.38866, 38.98129 ], [ -77.38754, 38.98283 ], [ -77.38594, 38.98343 ], [ -77.38664, 38.98366 ], [ -77.38679, 38.98441 ], [ -77.38556, 38.98452 ], [ -77.38504, 38.98499 ], [ -77.38417, 38.98464 ], [ -77.38454, 38.98334 ], [ -77.38275, 38.9828 ], [ -77.38177, 38.98266 ], [ -77.37894, 38.98323 ], [ -77.37526, 38.98287 ], [ -77.37364, 38.98239 ], [ -77.37068, 38.98075 ], [ -77.36998, 38.9794 ], [ -77.37057, 38.97565 ], [ -77.36936, 38.97313 ], [ -77.36927, 38.97047 ], [ -77.36838, 38.97024 ], [ -77.36821, 38.96985 ], [ -77.3685, 38.96884 ], [ -77.37077, 38.96739 ], [ -77.36663, 38.96691 ], [ -77.36599, 38.96633 ], [ -77.36673, 38.96559 ], [ -77.36835, 38.96583 ], [ -77.36859, 38.9643 ], [ -77.36936, 38.96383 ], [ -77.36996, 38.96443 ], [ -77.36973, 38.96596 ], [ -77.37141, 38.9663 ], [ -77.3709, 38.96326 ], [ -77.37193, 38.96011 ], [ -77.37324, 38.9591 ], [ -77.37242, 38.95871 ], [ -77.37221, 38.95797 ], [ -77.37264, 38.95773 ], [ -77.37431, 38.95819 ], [ -77.37584, 38.95674 ], [ -77.3804, 38.95415 ], [ -77.38485, 38.95442 ], [ -77.3874, 38.95522 ], [ -77.38779, 38.95363 ], [ -77.38862, 38.95324 ], [ -77.3893, 38.95355 ], [ -77.38921, 38.9573 ], [ -77.39059, 38.95557 ], [ -77.39146, 38.95592 ], [ -77.3916, 38.95651 ], [ -77.39298, 38.95682 ], [ -77.39342, 38.95623 ], [ -77.39406, 38.95631 ], [ -77.39418, 38.95583 ], [ -77.39293, 38.95536 ], [ -77.39271, 38.95492 ], [ -77.39342, 38.9544 ], [ -77.39724, 38.95478 ], [ -77.40122, 38.95596 ], [ -77.40318, 38.95695 ], [ -77.40627, 38.95371 ], [ -77.40541, 38.95324 ], [ -77.40541, 38.95283 ], [ -77.40631, 38.95253 ] ], [ [ -77.38977, 38.974 ], [ -77.38938, 38.97416 ], [ -77.38951, 38.97426 ], [ -77.38977, 38.974 ] ], [ [ -77.39071, 38.9732 ], [ -77.39271, 38.97461 ], [ -77.39324, 38.97424 ], [ -77.39372, 38.97099 ], [ -77.39254, 38.97107 ], [ -77.39191, 38.97171 ], [ -77.39116, 38.97116 ], [ -77.39031, 38.97121 ], [ -77.39071, 38.9732 ] ], [ [ -77.39105, 38.97008 ], [ -77.3902, 38.96998 ], [ -77.39021, 38.97013 ], [ -77.39105, 38.97008 ] ], [ [ -77.38728, 38.96823 ], [ -77.38678, 38.96813 ], [ -77.38679, 38.96826 ], [ -77.38728, 38.96823 ] ], [ [ -77.38832, 38.9638 ], [ -77.38854, 38.96228 ], [ -77.38727, 38.96337 ], [ -77.3854, 38.96281 ], [ -77.3852, 38.96313 ], [ -77.38641, 38.96325 ], [ -77.38618, 38.96413 ], [ -77.38683, 38.96459 ], [ -77.38671, 38.96385 ], [ -77.38709, 38.96356 ], [ -77.38832, 38.9638 ] ], [ [ -77.38743, 38.9616 ], [ -77.38641, 38.96119 ], [ -77.38622, 38.96149 ], [ -77.387, 38.96179 ], [ -77.38743, 38.9616 ] ], [ [ -77.39874, 38.97727 ], [ -77.39937, 38.97376 ], [ -77.39782, 38.97281 ], [ -77.39712, 38.97187 ], [ -77.39529, 38.97091 ], [ -77.39483, 38.9742 ], [ -77.3938, 38.97542 ], [ -77.39623, 38.97726 ], [ -77.39874, 38.97727 ] ], [ [ -77.39984, 38.97044 ], [ -77.39999, 38.96983 ], [ -77.3991, 38.96945 ], [ -77.39905, 38.96982 ], [ -77.39984, 38.97044 ] ], [ [ -77.39843, 38.96861 ], [ -77.39705, 38.96842 ], [ -77.39703, 38.9678 ], [ -77.39813, 38.96616 ], [ -77.39775, 38.96601 ], [ -77.39618, 38.96822 ], [ -77.39691, 38.96881 ], [ -77.39782, 38.96875 ], [ -77.3982, 38.96914 ], [ -77.39843, 38.96861 ] ], [ [ -77.39879, 38.96747 ], [ -77.3996, 38.96764 ], [ -77.39914, 38.96696 ], [ -77.39879, 38.96747 ] ], [ [ -77.39851, 38.96495 ], [ -77.39901, 38.96455 ], [ -77.39988, 38.9641 ], [ -77.39932, 38.96383 ], [ -77.39851, 38.96495 ] ], [ [ -77.39898, 38.96177 ], [ -77.39851, 38.96156 ], [ -77.39883, 38.96197 ], [ -77.39898, 38.96177 ] ], [ [ -77.39859, 38.95887 ], [ -77.39985, 38.95958 ], [ -77.40013, 38.96015 ], [ -77.40066, 38.95948 ], [ -77.39934, 38.95861 ], [ -77.39859, 38.95887 ] ], [ [ -77.40113, 38.96191 ], [ -77.40276, 38.96059 ], [ -77.40224, 38.96012 ], [ -77.40007, 38.96274 ], [ -77.40076, 38.96309 ], [ -77.40113, 38.96191 ] ], [ [ -77.40226, 38.96323 ], [ -77.40297, 38.96321 ], [ -77.40249, 38.96292 ], [ -77.40226, 38.96323 ] ], [ [ -77.40282, 38.96484 ], [ -77.40284, 38.96486 ], [ -77.40284, 38.96482 ], [ -77.40282, 38.96484 ] ], [ [ -77.40447, 38.97893 ], [ -77.40411, 38.97744 ], [ -77.40229, 38.97841 ], [ -77.40288, 38.97879 ], [ -77.40386, 38.9785 ], [ -77.40418, 38.97944 ], [ -77.40447, 38.97893 ] ], [ [ -77.40441, 38.97371 ], [ -77.40434, 38.97385 ], [ -77.40422, 38.97408 ], [ -77.40426, 38.97408 ], [ -77.40441, 38.97371 ] ], [ [ -77.40506, 38.97222 ], [ -77.40507, 38.97222 ], [ -77.40507, 38.97221 ], [ -77.40506, 38.97222 ] ], [ [ -77.40453, 38.96914 ], [ -77.40465, 38.96916 ], [ -77.4046, 38.9691 ], [ -77.40453, 38.96914 ] ], [ [ -77.40616, 38.96691 ], [ -77.40597, 38.96709 ], [ -77.40622, 38.96696 ], [ -77.40616, 38.96691 ] ], [ [ -77.40874, 38.96909 ], [ -77.40793, 38.96864 ], [ -77.40689, 38.96892 ], [ -77.40708, 38.96933 ], [ -77.40847, 38.96953 ], [ -77.40874, 38.96909 ] ], [ [ -77.40771, 38.97714 ], [ -77.40785, 38.97706 ], [ -77.40762, 38.97697 ], [ -77.40771, 38.97714 ] ], [ [ -77.40196, 38.97462 ], [ -77.40209, 38.97452 ], [ -77.40199, 38.97443 ], [ -77.40196, 38.97462 ] ], [ [ -77.40202, 38.97193 ], [ -77.40105, 38.97094 ], [ -77.40082, 38.97123 ], [ -77.4016, 38.97202 ], [ -77.40202, 38.97193 ] ], [ [ -77.40163, 38.96829 ], [ -77.4016, 38.9682 ], [ -77.40149, 38.96821 ], [ -77.40163, 38.96829 ] ], [ [ -77.40245, 38.97072 ], [ -77.40303, 38.9712 ], [ -77.4032, 38.97121 ], [ -77.40291, 38.97095 ], [ -77.40245, 38.97072 ] ], [ [ -77.40405, 38.97338 ], [ -77.40388, 38.97321 ], [ -77.40379, 38.97318 ], [ -77.40405, 38.97338 ] ], [ [ -77.4026, 38.97565 ], [ -77.4028, 38.97568 ], [ -77.40298, 38.97533 ], [ -77.4026, 38.97565 ] ], [ [ -77.40078, 38.95775 ], [ -77.40197, 38.95761 ], [ -77.39994, 38.95688 ], [ -77.40078, 38.95775 ] ], [ [ -77.40089, 38.97367 ], [ -77.40106, 38.97369 ], [ -77.4009, 38.97357 ], [ -77.40089, 38.97367 ] ], [ [ -77.39478, 38.96777 ], [ -77.3942, 38.96755 ], [ -77.39421, 38.96777 ], [ -77.39478, 38.96777 ] ], [ [ -77.39581, 38.96628 ], [ -77.39637, 38.96549 ], [ -77.39376, 38.96445 ], [ -77.39137, 38.96793 ], [ -77.39283, 38.96786 ], [ -77.39287, 38.9669 ], [ -77.39329, 38.96656 ], [ -77.39581, 38.96628 ] ], [ [ -77.39832, 38.97877 ], [ -77.39842, 38.97848 ], [ -77.39788, 38.97844 ], [ -77.39832, 38.97877 ] ], [ [ -77.39485, 38.95752 ], [ -77.39583, 38.9577 ], [ -77.39522, 38.95718 ], [ -77.39485, 38.95752 ] ], [ [ -77.39606, 38.95882 ], [ -77.39642, 38.9596 ], [ -77.39713, 38.95941 ], [ -77.39606, 38.95882 ] ], [ [ -77.39546, 38.96919 ], [ -77.39527, 38.96976 ], [ -77.39696, 38.97065 ], [ -77.39711, 38.97053 ], [ -77.39546, 38.96919 ] ], [ [ -77.39736, 38.96254 ], [ -77.39623, 38.96415 ], [ -77.39709, 38.96449 ], [ -77.39805, 38.96315 ], [ -77.39736, 38.96254 ] ], [ [ -77.39806, 38.96905 ], [ -77.39803, 38.96904 ], [ -77.39804, 38.96905 ], [ -77.39806, 38.96905 ] ], [ [ -77.3993, 38.97005 ], [ -77.39927, 38.97004 ], [ -77.39929, 38.97005 ], [ -77.3993, 38.97005 ] ], [ [ -77.39055, 38.96375 ], [ -77.39068, 38.96374 ], [ -77.39057, 38.9637 ], [ -77.39055, 38.96375 ] ], [ [ -77.39076, 38.96195 ], [ -77.39078, 38.96167 ], [ -77.39063, 38.9619 ], [ -77.39076, 38.96195 ] ], [ [ -77.3913, 38.96089 ], [ -77.3911, 38.9612 ], [ -77.39089, 38.96151 ], [ -77.39139, 38.96132 ], [ -77.3913, 38.96089 ] ], [ [ -77.39156, 38.9605 ], [ -77.3914, 38.96073 ], [ -77.39166, 38.96057 ], [ -77.39156, 38.9605 ] ], [ [ -77.39242, 38.96985 ], [ -77.39254, 38.96999 ], [ -77.39253, 38.96985 ], [ -77.39242, 38.96985 ] ], [ [ -77.38987, 38.9607 ], [ -77.3898, 38.96067 ], [ -77.38982, 38.96077 ], [ -77.38987, 38.9607 ] ], [ [ -77.38706, 38.96024 ], [ -77.38765, 38.96025 ], [ -77.38709, 38.9602 ], [ -77.38706, 38.96024 ] ], [ [ -77.38674, 38.95744 ], [ -77.38544, 38.95586 ], [ -77.38155, 38.95515 ], [ -77.38026, 38.95537 ], [ -77.37907, 38.95642 ], [ -77.38, 38.95665 ], [ -77.37971, 38.95788 ], [ -77.38017, 38.95718 ], [ -77.38304, 38.95709 ], [ -77.38361, 38.95636 ], [ -77.38439, 38.95683 ], [ -77.38576, 38.95682 ], [ -77.38598, 38.95719 ], [ -77.38521, 38.95844 ], [ -77.38574, 38.95901 ], [ -77.38654, 38.95841 ], [ -77.38674, 38.95744 ] ], [ [ -77.37891, 38.95654 ], [ -77.37675, 38.95756 ], [ -77.37558, 38.95879 ], [ -77.37757, 38.95974 ], [ -77.37891, 38.95654 ] ], [ [ -77.37441, 38.9597 ], [ -77.37356, 38.9606 ], [ -77.37679, 38.96299 ], [ -77.37785, 38.96118 ], [ -77.37441, 38.9597 ] ], [ [ -77.37302, 38.96172 ], [ -77.37258, 38.96426 ], [ -77.37511, 38.96443 ], [ -77.37868, 38.96635 ], [ -77.37881, 38.96595 ], [ -77.37302, 38.96172 ] ], [ [ -77.373, 38.9656 ], [ -77.37293, 38.96665 ], [ -77.3746, 38.96702 ], [ -77.37503, 38.96578 ], [ -77.373, 38.9656 ] ], [ [ -77.37269, 38.96791 ], [ -77.37215, 38.9681 ], [ -77.37217, 38.96823 ], [ -77.37269, 38.96791 ] ], [ [ -77.37058, 38.97203 ], [ -77.37195, 38.97553 ], [ -77.37136, 38.97935 ], [ -77.37172, 38.98004 ], [ -77.37557, 38.98181 ], [ -77.3791, 38.98215 ], [ -77.38162, 38.98158 ], [ -77.3815, 38.98126 ], [ -77.37877, 38.98193 ], [ -77.37741, 38.98182 ], [ -77.37664, 38.98114 ], [ -77.37682, 38.98075 ], [ -77.37776, 38.9807 ], [ -77.37769, 38.97967 ], [ -77.37493, 38.97941 ], [ -77.37387, 38.97897 ], [ -77.37417, 38.97793 ], [ -77.37501, 38.97715 ], [ -77.37764, 38.97775 ], [ -77.37746, 38.97552 ], [ -77.37393, 38.97471 ], [ -77.37358, 38.97569 ], [ -77.3726, 38.97571 ], [ -77.37256, 38.97449 ], [ -77.37157, 38.97429 ], [ -77.37139, 38.9739 ], [ -77.37176, 38.97322 ], [ -77.37265, 38.97317 ], [ -77.37251, 38.97221 ], [ -77.37058, 38.97203 ] ], [ [ -77.3845, 38.9822 ], [ -77.38438, 38.98052 ], [ -77.38314, 38.98084 ], [ -77.3839, 38.98121 ], [ -77.3845, 38.9822 ] ], [ [ -77.38539, 38.9791 ], [ -77.38534, 38.97882 ], [ -77.38521, 38.97864 ], [ -77.38539, 38.9791 ] ], [ [ -77.38494, 38.97794 ], [ -77.38493, 38.97676 ], [ -77.38543, 38.97663 ], [ -77.38608, 38.97699 ], [ -77.3866, 38.97645 ], [ -77.38442, 38.97674 ], [ -77.38494, 38.97794 ] ], [ [ -77.384, 38.97527 ], [ -77.38397, 38.97571 ], [ -77.38417, 38.97568 ], [ -77.384, 38.97527 ] ], [ [ -77.38442, 38.96606 ], [ -77.38482, 38.9659 ], [ -77.38441, 38.96594 ], [ -77.38442, 38.96606 ] ], [ [ -77.3838, 38.96479 ], [ -77.3838, 38.96484 ], [ -77.38385, 38.96484 ], [ -77.3838, 38.96479 ] ], [ [ -77.38337, 38.96333 ], [ -77.38326, 38.96302 ], [ -77.3833, 38.96343 ], [ -77.38337, 38.96333 ] ], [ [ -77.38159, 38.96145 ], [ -77.38171, 38.96117 ], [ -77.38143, 38.96133 ], [ -77.38159, 38.96145 ] ], [ [ -77.38603, 38.98216 ], [ -77.38671, 38.98172 ], [ -77.3879, 38.98 ], [ -77.38721, 38.98006 ], [ -77.38672, 38.98075 ], [ -77.38593, 38.9808 ], [ -77.38603, 38.98216 ] ], [ [ -77.38655, 38.9727 ], [ -77.3855, 38.97269 ], [ -77.38655, 38.97286 ], [ -77.38655, 38.9727 ] ], [ [ -77.38861, 38.97024 ], [ -77.38882, 38.97006 ], [ -77.3886, 38.97007 ], [ -77.38861, 38.97024 ] ], [ [ -77.3847, 38.96089 ], [ -77.38425, 38.96017 ], [ -77.38383, 38.96067 ], [ -77.3847, 38.96089 ] ], [ [ -77.38498, 38.96421 ], [ -77.38548, 38.96467 ], [ -77.38577, 38.96426 ], [ -77.38498, 38.96421 ] ], [ [ -77.38526, 38.96709 ], [ -77.38527, 38.9674 ], [ -77.38536, 38.96775 ], [ -77.38526, 38.96709 ] ], [ [ -77.38671, 38.97361 ], [ -77.38654, 38.97346 ], [ -77.38654, 38.97364 ], [ -77.38671, 38.97361 ] ], [ [ -77.38402, 38.97323 ], [ -77.38386, 38.97407 ], [ -77.3839, 38.97407 ], [ -77.38402, 38.97323 ] ], [ [ -77.38582, 38.97546 ], [ -77.38539, 38.9751 ], [ -77.38554, 38.97549 ], [ -77.38582, 38.97546 ] ], [ [ -77.38273, 38.96038 ], [ -77.38274, 38.96039 ], [ -77.38274, 38.96038 ], [ -77.38273, 38.96038 ] ], [ [ -77.38163, 38.9595 ], [ -77.3823, 38.95915 ], [ -77.38214, 38.95897 ], [ -77.38163, 38.9595 ] ], [ [ -77.38284, 38.96187 ], [ -77.38346, 38.96171 ], [ -77.38284, 38.96155 ], [ -77.38284, 38.96187 ] ], [ [ -77.37948, 38.98039 ], [ -77.3792, 38.9797 ], [ -77.37906, 38.97939 ], [ -77.37915, 38.98065 ], [ -77.37948, 38.98039 ] ], [ [ -77.38105, 38.98015 ], [ -77.38072, 38.97987 ], [ -77.38087, 38.9802 ], [ -77.38105, 38.98015 ] ], [ [ -77.38179, 38.97846 ], [ -77.3816, 38.97748 ], [ -77.38129, 38.97676 ], [ -77.38179, 38.97846 ] ], [ [ -77.38059, 38.97504 ], [ -77.38074, 38.9755 ], [ -77.38078, 38.97567 ], [ -77.38084, 38.97563 ], [ -77.38059, 38.97504 ] ], [ [ -77.38196, 38.97483 ], [ -77.3824, 38.97397 ], [ -77.38173, 38.9738 ], [ -77.38161, 38.97333 ], [ -77.38196, 38.97483 ] ], [ [ -77.38181, 38.97296 ], [ -77.38276, 38.97257 ], [ -77.38279, 38.9725 ], [ -77.38189, 38.97241 ], [ -77.38181, 38.97296 ] ], [ [ -77.37706, 38.97127 ], [ -77.37861, 38.9692 ], [ -77.37752, 38.96895 ], [ -77.37681, 38.97065 ], [ -77.37706, 38.97127 ] ], [ [ -77.37403, 38.96816 ], [ -77.37404, 38.96842 ], [ -77.37421, 38.9682 ], [ -77.37403, 38.96816 ] ], [ [ -77.37817, 38.96748 ], [ -77.37624, 38.9667 ], [ -77.37602, 38.96736 ], [ -77.37804, 38.96782 ], [ -77.37817, 38.96748 ] ], [ [ -77.37903, 38.96446 ], [ -77.38056, 38.96244 ], [ -77.37919, 38.96165 ], [ -77.37768, 38.96365 ], [ -77.37903, 38.96446 ] ], [ [ -77.38373, 38.9791 ], [ -77.38405, 38.97939 ], [ -77.38392, 38.97904 ], [ -77.38373, 38.9791 ] ], [ [ -77.38222, 38.97949 ], [ -77.38256, 38.97977 ], [ -77.38241, 38.97944 ], [ -77.38222, 38.97949 ] ], [ [ -77.37946, 38.96815 ], [ -77.3802, 38.96832 ], [ -77.38042, 38.96802 ], [ -77.37958, 38.96782 ], [ -77.37946, 38.96815 ] ], [ [ -77.38151, 38.96626 ], [ -77.38223, 38.96462 ], [ -77.38158, 38.96343 ], [ -77.38015, 38.96528 ], [ -77.38151, 38.96626 ] ], [ [ -77.38224, 38.97002 ], [ -77.38218, 38.97043 ], [ -77.38309, 38.97054 ], [ -77.38313, 38.97025 ], [ -77.38224, 38.97002 ] ], [ [ -77.38231, 38.96881 ], [ -77.38177, 38.96834 ], [ -77.38156, 38.96863 ], [ -77.38231, 38.96881 ] ], [ [ -77.3827, 38.97663 ], [ -77.38284, 38.97649 ], [ -77.38258, 38.97585 ], [ -77.3827, 38.97663 ] ], [ [ -77.3835, 38.97801 ], [ -77.38313, 38.97765 ], [ -77.3833, 38.97807 ], [ -77.3835, 38.97801 ] ], [ [ -77.37911, 38.95948 ], [ -77.37922, 38.95942 ], [ -77.37924, 38.95913 ], [ -77.37911, 38.95948 ] ], [ [ -77.37955, 38.95887 ], [ -77.37954, 38.95834 ], [ -77.37927, 38.95906 ], [ -77.37955, 38.95887 ] ], [ [ -77.37731, 38.97442 ], [ -77.37729, 38.97342 ], [ -77.37692, 38.97344 ], [ -77.37666, 38.97409 ], [ -77.37731, 38.97442 ] ], [ [ -77.38048, 38.97879 ], [ -77.38, 38.97766 ], [ -77.38029, 38.97884 ], [ -77.38048, 38.97879 ] ], [ [ -77.37968, 38.97283 ], [ -77.37971, 38.97298 ], [ -77.38014, 38.97402 ], [ -77.37968, 38.97283 ] ], [ [ -77.37881, 38.97431 ], [ -77.37874, 38.97414 ], [ -77.37875, 38.97431 ], [ -77.37881, 38.97431 ] ], [ [ -77.37954, 38.97651 ], [ -77.37924, 38.97537 ], [ -77.37892, 38.97539 ], [ -77.37904, 38.97688 ], [ -77.37954, 38.97651 ] ], [ [ -77.37594, 38.96934 ], [ -77.3752, 38.96918 ], [ -77.37508, 38.9695 ], [ -77.37582, 38.96966 ], [ -77.37594, 38.96934 ] ], [ [ -77.37173, 38.96926 ], [ -77.37178, 38.96914 ], [ -77.37166, 38.96922 ], [ -77.37173, 38.96926 ] ], [ [ -77.3734, 38.97099 ], [ -77.37408, 38.97039 ], [ -77.37372, 38.97019 ], [ -77.37318, 38.97078 ], [ -77.37165, 38.97084 ], [ -77.3734, 38.97099 ] ], [ [ -77.37506, 38.97335 ], [ -77.37526, 38.97309 ], [ -77.37475, 38.97308 ], [ -77.37506, 38.97335 ] ], [ [ -77.37411, 38.97307 ], [ -77.37404, 38.97311 ], [ -77.37419, 38.97307 ], [ -77.37411, 38.97307 ] ], [ [ -77.37596, 38.97839 ], [ -77.37543, 38.97838 ], [ -77.37606, 38.97844 ], [ -77.37596, 38.97839 ] ] ] } },
{ "type": "Feature", "properties": { "variant": "T2s", "miles": 2.0 }, "geometry": { "type": "Polygon", "coordinates": [ [ [ -77.40977, 38.94877 ], [ -77.41127, 38.94965 ], [ -77.4125, 38.94744 ], [ -77.41454, 38.94765 ], [ -77.41482, 38.94838 ], [ -77.41375, 38.94855 ], [ -77.4125, 38.95052 ], [ -77.41389, 38.95064 ], [ -77.4153, 38.9513 ], [ -77.41587, 38.95279 ], [ -77.41457, 38.95277 ], [ -77.41281, 38.95425 ], [ -77.41321, 38.95568 ], [ -77.41266, 38.95683 ], [ -77.41199, 38.95685 ], [ -77.41153, 38.95635 ], [ -77.41101, 38.95713 ], [ -77.41008, 38.95736 ], [ -77.40618, 38.95585 ], [ -77.40296, 38.95915 ], [ -77.40752, 38.96198 ], [ -77.40929, 38.96101 ], [ -77.41037, 38.95985 ], [ -77.41275, 38.96044 ], [ -77.41231, 38.96163 ], [ -77.40874, 38.96392 ], [ -77.40908, 38.9662 ], [ -77.4075, 38.96644 ], [ -77.40778, 38.96711 ], [ -77.41008, 38.9688 ], [ -77.41079, 38.96879 ], [ -77.41164, 38.97026 ], [ -77.41316, 38.9711 ], [ -77.41343, 38.97085 ], [ -77.41281, 38.97017 ], [ -77.413, 38.96978 ], [ -77.4142, 38.96959 ], [ -77.41363, 38.96889 ], [ -77.41443, 38.9666 ], [ -77.41538, 38.96672 ], [ -77.41633, 38.9675 ], [ -77.41494, 38.97103 ], [ -77.41255, 38.97374 ], [ -77.41325, 38.97429 ], [ -77.41315, 38.9747 ], [ -77.41271, 38.97493 ], [ -77.41178, 38.97464 ], [ -77.41024, 38.97637 ], [ -77.41167, 38.97664 ], [ -77.41213, 38.97728 ], [ -77.40966, 38.98053 ], [ -77.41133, 38.98108 ], [ -77.4122, 38.98031 ], [ -77.41273, 38.98038 ], [ -77.41391, 38.98121 ], [ -77.41382, 38.98162 ], [ -77.41129, 38.98499 ], [ -77.40751, 38.98427 ], [ -77.4067, 38.98515 ], [ -77.40617, 38.98516 ], [ -77.40579, 38.98487 ], [ -77.40614, 38.98381 ], [ -77.40566, 38.98364 ], [ -77.405, 38.98399 ], [ -77.40566, 38.98498 ], [ -77.40484, 38.9854 ], [ -77.40233, 38.98321 ], [ -77.40027, 38.98498 ], [ -77.39971, 38.98501 ], [ -77.39922, 38.98611 ], [ -77.39837, 38.98602 ], [ -77.39826, 38.98671 ], [ -77.39748, 38.98698 ], [ -77.39727, 38.98783 ], [ -77.39863, 38.98671 ], [ -77.39941, 38.98717 ], [ -77.39785, 38.98916 ], [ -77.39923, 38.98914 ], [ -77.39922, 38.98998 ], [ -77.40033, 38.9909 ], [ -77.39971, 38.99149 ], [ -77.39718, 38.99011 ], [ -77.39676, 38.99118 ], [ -77.39503, 38.99125 ], [ -77.3945, 38.99236 ], [ -77.39355, 38.99257 ], [ -77.39323, 38.99224 ], [ -77.39369, 38.99095 ], [ -77.39167, 38.99054 ], [ -77.3906, 38.98854 ], [ -77.39054, 38.98634 ], [ -77.39015, 38.98624 ], [ -77.38811, 38.98872 ], [ -77.38526, 38.98787 ], [ -77.38587, 38.98529 ], [ -77.3865, 38.98484 ], [ -77.38612, 38.98467 ], [ -77.38579, 38.98523 ], [ -77.38517, 38.98519 ], [ -77.38479, 38.98613 ], [ -77.3843, 38.98794 ], [ -77.38453, 38.98979 ], [ -77.38436, 38.99002 ], [ -77.38403, 38.99033 ], [ -77.38342, 38.99069 ], [ -77.38269, 38.99077 ], [ -77.38155, 38.98996 ], [ -77.38222, 38.98941 ], [ -77.38318, 38.98943 ], [ -77.38285, 38.98812 ], [ -77.38056, 38.98729 ], [ -77.38003, 38.98666 ], [ -77.38087, 38.98301 ], [ -77.37883, 38.98339 ], [ -77.37813, 38.98603 ], [ -77.3773, 38.98644 ], [ -77.37678, 38.98579 ], [ -77.37748, 38.98315 ], [ -77.37378, 38.9825 ], [ -77.37087, 38.98094 ], [ -77.37012, 38.98016 ], [ -77.37004, 38.97777 ], [ -77.36928, 38.97718 ], [ -77.37036, 38.97643 ], [ -77.37037, 38.97561 ], [ -77.36926, 38.97353 ], [ -77.36893, 38.971 ], [ -77.36818, 38.97031 ], [ -77.36845, 38.96889 ], [ -77.37077, 38.96739 ], [ -77.36753, 38.96697 ], [ -77.36809, 38.96795 ], [ -77.36734, 38.96844 ], [ -77.36639, 38.96833 ], [ -77.36625, 38.9688 ], [ -77.36699, 38.96889 ], [ -77.36718, 38.96953 ], [ -77.36645, 38.97051 ], [ -77.36591, 38.97051 ], [ -77.36328, 38.96913 ], [ -77.36457, 38.96679 ], [ -77.36121, 38.96674 ], [ -77.36109, 38.9675 ], [ -77.35928, 38.96848 ], [ -77.35854, 38.96798 ], [ -77.35886, 38.96746 ], [ -77.35842, 38.96698 ], [ -77.35849, 38.96613 ], [ -77.3601, 38.96552 ], [ -77.36515, 38.9656 ], [ -77.36693, 38.96354 ], [ -77.36808, 38.96406 ], [ -77.36803, 38.96447 ], [ -77.36714, 38.96496 ], [ -77.36847, 38.96505 ], [ -77.36863, 38.96424 ], [ -77.36789, 38.9636 ], [ -77.36759, 38.96199 ], [ -77.36947, 38.95911 ], [ -77.36555, 38.95717 ], [ -77.36515, 38.95648 ], [ -77.36604, 38.95616 ], [ -77.36802, 38.95685 ], [ -77.37048, 38.95837 ], [ -77.3712, 38.95813 ], [ -77.36786, 38.95548 ], [ -77.36717, 38.9558 ], [ -77.36646, 38.95554 ], [ -77.36682, 38.95464 ], [ -77.36654, 38.95393 ], [ -77.3671, 38.95351 ], [ -77.37024, 38.95385 ], [ -77.37073, 38.95441 ], [ -77.37003, 38.95553 ], [ -77.37179, 38.95697 ], [ -77.37362, 38.95454 ], [ -77.37719, 38.95445 ], [ -77.37837, 38.9551 ], [ -77.37923, 38.95442 ], [ -77.37924, 38.9532 ], [ -77.37985, 38.95286 ], [ -77.38372, 38.95277 ], [ -77.38522, 38.95326 ], [ -77.38681, 38.95313 ], [ -77.38773, 38.95378 ], [ -77.38902, 38.95073 ], [ -77.39101, 38.94817 ], [ -77.39212, 38.94773 ], [ -77.39249, 38.94844 ], [ -77.39187, 38.94946 ], [ -77.39292, 38.94919 ], [ -77.3934, 38.94999 ], [ -77.39529, 38.95004 ], [ -77.39683, 38.95175 ], [ -77.39443, 38.95348 ], [ -77.39367, 38.95291 ], [ -77.39209, 38.95307 ], [ -77.38978, 38.9526 ], [ -77.3892, 38.95434 ], [ -77.39051, 38.95464 ], [ -77.39312, 38.95422 ], [ -77.39559, 38.95447 ], [ -77.40122, 38.95596 ], [ -77.40318, 38.95695 ], [ -77.4052, 38.95485 ], [ -77.4048, 38.95436 ], [ -77.40287, 38.95501 ], [ -77.40168, 38.95498 ], [ -77.40124, 38.9546 ], [ -77.4017, 38.95396 ], [ -77.40053, 38.95337 ], [ -77.3991, 38.9534 ], [ -77.39911, 38.95264 ], [ -77.40061, 38.95216 ], [ -77.40269, 38.95317 ], [ -77.40369, 38.95251 ], [ -77.40332, 38.95173 ], [ -77.40252, 38.95177 ], [ -77.40191, 38.95117 ], [ -77.40285, 38.95044 ], [ -77.40406, 38.95023 ], [ -77.40316, 38.94999 ], [ -77.40294, 38.94937 ], [ -77.40452, 38.94837 ], [ -77.40598, 38.94847 ], [ -77.40613, 38.94886 ], [ -77.40555, 38.94944 ], [ -77.4062, 38.95016 ], [ -77.40912, 38.95149 ], [ -77.41035, 38.95046 ], [ -77.40846, 38.94925 ], [ -77.40813, 38.94778 ], [ -77.40883, 38.94704 ], [ -77.40935, 38.9471 ], [ -77.41017, 38.9481 ], [ -77.40977, 38.94877 ] ], [ [ -77.39179, 38.98724 ], [ -77.39173, 38.98713 ], [ -77.39172, 38.98748 ], [ -77.39179, 38.98724 ] ], [ [ -77.39239, 38.98605 ], [ -77.39229, 38.98568 ], [ -77.39217, 38.98596 ], [ -77.39271, 38.98622 ], [ -77.39239, 38.98605 ] ], [ [ -77.39238, 38.98213 ], [ -77.39326, 38.98179 ], [ -77.39503, 38.98301 ], [ -77.39695, 38.98321 ], [ -77.39798, 38.98016 ], [ -77.39587, 38.97854 ], [ -77.3934, 38.97942 ], [ -77.3932, 38.98002 ], [ -77.39227, 38.98061 ], [ -77.39046, 38.98033 ], [ -77.38978, 38.98066 ], [ -77.38943, 38.98116 ], [ -77.38866, 38.98129 ], [ -77.38754, 38.98283 ], [ -77.38593, 38.98346 ], [ -77.38782, 38.98426 ], [ -77.38796, 38.98503 ], [ -77.38723, 38.98593 ], [ -77.3882, 38.9865 ], [ -77.3895, 38.98449 ], [ -77.38841, 38.98457 ], [ -77.38813, 38.98289 ], [ -77.38901, 38.98257 ], [ -77.38995, 38.98344 ], [ -77.39158, 38.98396 ], [ -77.39238, 38.98213 ] ], [ [ -77.39372, 38.97099 ], [ -77.39254, 38.97107 ], [ -77.39191, 38.97171 ], [ -77.39116, 38.97116 ], [ -77.39031, 38.97121 ], [ -77.39071, 38.9732 ], [ -77.39271, 38.97461 ], [ -77.39324, 38.97424 ], [ -77.39372, 38.97099 ] ], [ [ -77.39253, 38.96985 ], [ -77.39242, 38.96985 ], [ -77.39243, 38.96999 ], [ -77.39253, 38.96985 ] ], [ [ -77.39329, 38.96656 ], [ -77.39569, 38.96645 ], [ -77.39637, 38.96549 ], [ -77.39376, 38.96445 ], [ -77.39137, 38.96793 ], [ -77.39283, 38.96786 ], [ -77.39329, 38.96656 ] ], [ [ -77.39063, 38.9619 ], [ -77.39076, 38.96195 ], [ -77.39078, 38.96167 ], [ -77.39063, 38.9619 ] ], [ [ -77.39139, 38.96132 ], [ -77.3913, 38.96089 ], [ -77.39089, 38.96151 ], [ -77.39139, 38.96132 ] ], [ [ -77.39156, 38.9605 ], [ -77.3914, 38.96073 ], [ -77.39166, 38.96057 ], [ -77.39156, 38.9605 ] ], [ [ -77.40416, 38.98204 ], [ -77.40393, 38.98142 ], [ -77.40328, 38.98142 ], [ -77.40311, 38.98229 ], [ -77.40413, 38.98314 ], [ -77.4051, 38.98261 ], [ -77.40416, 38.98204 ] ], [ [ -77.40429, 38.98078 ], [ -77.4043, 38.98088 ], [ -77.40442, 38.98074 ], [ -77.40429, 38.98078 ] ], [ [ -77.40411, 38.97744 ], [ -77.40229, 38.97841 ], [ -77.40288, 38.97879 ], [ -77.40386, 38.9785 ], [ -77.40418, 38.97944 ], [ -77.40452, 38.97898 ], [ -77.40411, 38.97744 ] ], [ [ -77.40434, 38.97385 ], [ -77.40422, 38.97408 ], [ -77.40426, 38.97408 ], [ -77.40441, 38.97371 ], [ -77.40434, 38.97385 ] ], [ [ -77.40507, 38.97222 ], [ -77.40507, 38.97221 ], [ -77.40506, 38.97222 ], [ -77.40507, 38.97222 ] ], [ [ -77.40453, 38.96914 ], [ -77.40465, 38.96916 ], [ -77.4046, 38.9691 ], [ -77.40453, 38.96914 ] ], [ [ -77.40592, 38.96571 ], [ -77.40537, 38.96511 ], [ -77.40552, 38.96455 ], [ -77.40597, 38.96429 ], [ -77.40739, 38.96444 ], [ -77.40682, 38.96388 ], [ -77.40461, 38.96408 ], [ -77.40493, 38.9648 ], [ -77.40396, 38.96604 ], [ -77.4047, 38.9665 ], [ -77.40592, 38.96571 ] ], [ [ -77.40276, 38.96059 ], [ -77.40224, 38.96012 ], [ -77.40007, 38.96274 ], [ -77.40076, 38.96309 ], [ -77.40276, 38.96059 ] ], [ [ -77.40066, 38.95948 ], [ -77.39934, 38.95861 ], [ -77.39859, 38.95887 ], [ -77.39985, 38.95958 ], [ -77.40013, 38.96015 ], [ -77.40066, 38.95948 ] ], [ [ -77.4068, 38.9527 ], [ -77.40662, 38.95242 ], [ -77.40654, 38.9526 ], [ -77.4068, 38.9527 ] ], [ [ -77.40999, 38.95414 ], [ -77.40945, 38.95422 ], [ -77.41008, 38.95447 ], [ -77.40999, 38.95414 ] ], [ [ -77.41205, 38.9527 ], [ -77.41194, 38.95339 ], [ -77.41302, 38.95236 ], [ -77.41205, 38.9527 ] ], [ [ -77.41037, 38.95233 ], [ -77.41065, 38.95252 ], [ -77.41162, 38.95136 ], [ -77.41037, 38.95233 ] ], [ [ -77.41138, 38.955 ], [ -77.41161, 38.95513 ], [ -77.41155, 38.95499 ], [ -77.41138, 38.955 ] ], [ [ -77.40785, 38.97706 ], [ -77.40762, 38.97697 ], [ -77.40771, 38.97714 ], [ -77.40785, 38.97706 ] ], [ [ -77.40908, 38.97478 ], [ -77.40746, 38.97395 ], [ -77.40722, 38.9744 ], [ -77.40641, 38.9745 ], [ -77.40661, 38.97523 ], [ -77.40881, 38.97609 ], [ -77.40996, 38.97482 ], [ -77.40908, 38.97478 ] ], [ [ -77.40878, 38.97786 ], [ -77.40982, 38.97816 ], [ -77.41027, 38.97762 ], [ -77.40878, 38.97786 ] ], [ [ -77.4112, 38.97337 ], [ -77.41169, 38.97278 ], [ -77.4111, 38.97322 ], [ -77.4112, 38.97337 ] ], [ [ -77.41099, 38.97066 ], [ -77.41087, 38.97067 ], [ -77.41102, 38.97079 ], [ -77.41099, 38.97066 ] ], [ [ -77.40877, 38.97238 ], [ -77.4089, 38.97247 ], [ -77.40934, 38.97209 ], [ -77.40914, 38.97192 ], [ -77.40877, 38.97238 ] ], [ [ -77.40899, 38.97095 ], [ -77.40894, 38.97093 ], [ -77.40894, 38.97096 ], [ -77.40899, 38.97095 ] ], [ [ -77.4049, 38.95197 ], [ -77.40514, 38.95194 ], [ -77.40511, 38.95186 ], [ -77.4049, 38.95197 ] ], [ [ -77.40297, 38.96321 ], [ -77.40249, 38.96292 ], [ -77.40226, 38.96323 ], [ -77.40297, 38.96321 ] ], [ [ -77.40282, 38.96484 ], [ -77.40284, 38.96486 ], [ -77.40284, 38.96482 ], [ -77.40282, 38.96484 ] ], [ [ -77.39984, 38.98227 ], [ -77.3995, 38.98229 ], [ -77.39944, 38.98279 ], [ -77.39984, 38.98273 ], [ -77.39984, 38.98227 ] ], [ [ -77.39842, 38.97848 ], [ -77.39788, 38.97844 ], [ -77.39832, 38.97877 ], [ -77.39842, 38.97848 ] ], [ [ -77.39937, 38.97376 ], [ -77.39782, 38.97281 ], [ -77.39712, 38.97187 ], [ -77.39529, 38.97091 ], [ -77.39483, 38.9742 ], [ -77.3938, 38.97542 ], [ -77.39623, 38.97726 ], [ -77.3988, 38.97706 ], [ -77.39937, 38.97376 ] ], [ [ -77.39705, 38.96842 ], [ -77.39703, 38.9678 ], [ -77.39813, 38.96616 ], [ -77.39775, 38.96601 ], [ -77.39618, 38.96822 ], [ -77.39691, 38.96881 ], [ -77.39782, 38.96875 ], [ -77.3982, 38.96914 ], [ -77.39843, 38.96861 ], [ -77.39705, 38.96842 ] ], [ [ -77.39805, 38.96315 ], [ -77.39739, 38.96247 ], [ -77.39623, 38.96415 ], [ -77.39709, 38.96449 ], [ -77.39805, 38.96315 ] ], [ [ -77.39666, 38.95905 ], [ -77.39606, 38.95882 ], [ -77.39642, 38.9596 ], [ -77.39707, 38.95938 ], [ -77.39666, 38.95905 ] ], [ [ -77.40209, 38.97452 ], [ -77.40199, 38.97443 ], [ -77.40196, 38.97462 ], [ -77.40209, 38.97452 ] ], [ [ -77.40105, 38.97094 ], [ -77.40082, 38.97123 ], [ -77.4016, 38.97202 ], [ -77.40202, 38.97193 ], [ -77.40105, 38.97094 ] ], [ [ -77.39938, 38.96947 ], [ -77.3991, 38.96945 ], [ -77.39977, 38.97048 ], [ -77.39996, 38.96982 ], [ -77.39938, 38.96947 ] ], [ [ -77.40398, 38.97323 ], [ -77.40379, 38.97318 ], [ -77.40405, 38.97338 ], [ -77.40398, 38.97323 ] ], [ [ -77.4016, 38.9682 ], [ -77.40149, 38.96821 ], [ -77.40163, 38.96829 ], [ -77.4016, 38.9682 ] ], [ [ -77.40303, 38.9712 ], [ -77.4032, 38.97121 ], [ -77.40291, 38.97095 ], [ -77.40245, 38.97072 ], [ -77.40303, 38.9712 ] ], [ [ -77.4028, 38.97568 ], [ -77.40298, 38.97533 ], [ -77.40272, 38.97563 ], [ -77.4028, 38.97568 ] ], [ [ -77.39872, 38.96184 ], [ -77.39883, 38.96197 ], [ -77.39898, 38.96177 ], [ -77.39851, 38.96156 ], [ -77.39872, 38.96184 ] ], [ [ -77.39973, 38.9643 ], [ -77.39988, 38.9641 ], [ -77.39932, 38.96383 ], [ -77.39851, 38.96495 ], [ -77.39973, 38.9643 ] ], [ [ -77.39914, 38.96696 ], [ -77.39879, 38.96747 ], [ -77.3996, 38.96764 ], [ -77.39914, 38.96696 ] ], [ [ -77.40106, 38.97369 ], [ -77.4009, 38.97357 ], [ -77.40089, 38.97367 ], [ -77.40106, 38.97369 ] ], [ [ -77.40111, 38.98267 ], [ -77.40108, 38.98263 ], [ -77.40098, 38.98274 ], [ -77.40111, 38.98267 ] ], [ [ -77.39522, 38.95718 ], [ -77.39485, 38.95752 ], [ -77.39583, 38.9577 ], [ -77.39522, 38.95718 ] ], [ [ -77.39389, 38.95601 ], [ -77.39411, 38.95612 ], [ -77.39418, 38.95583 ], [ -77.39389, 38.95601 ] ], [ [ -77.40166, 38.95789 ], [ -77.40197, 38.95761 ], [ -77.39994, 38.95688 ], [ -77.40166, 38.95789 ] ], [ [ -77.3942, 38.96755 ], [ -77.39421, 38.96777 ], [ -77.39478, 38.96777 ], [ -77.39495, 38.96754 ], [ -77.3942, 38.96755 ] ], [ [ -77.39527, 38.96976 ], [ -77.39696, 38.97065 ], [ -77.39711, 38.97053 ], [ -77.39546, 38.96919 ], [ -77.39527, 38.96976 ] ], [ [ -77.39803, 38.96904 ], [ -77.39804, 38.96905 ], [ -77.39806, 38.96905 ], [ -77.39803, 38.96904 ] ], [ [ -77.39345, 38.98636 ], [ -77.39358, 38.98593 ], [ -77.39336, 38.98619 ], [ -77.39345, 38.98636 ] ], [ [ -77.3906, 38.95111 ], [ -77.39025, 38.95158 ], [ -77.39043, 38.95164 ], [ -77.3906, 38.95111 ] ], [ [ -77.3869, 38.9552 ], [ -77.38715, 38.95517 ], [ -77.38703, 38.95514 ], [ -77.38659, 38.955 ], [ -77.3869, 38.9552 ] ], [ [ -77.3874, 38.95522 ], [ -77.3874, 38.9552 ], [ -77.38737, 38.9552 ], [ -77.3874, 38.95522 ] ], [ [ -77.38977, 38.974 ], [ -77.38967, 38.97392 ], [ -77.38938, 38.97416 ], [ -77.38977, 38.974 ] ], [ [ -77.38678, 38.96813 ], [ -77.38679, 38.96826 ], [ -77.38728, 38.96823 ], [ -77.38678, 38.96813 ] ], [ [ -77.38709, 38.96356 ], [ -77.38832, 38.9638 ], [ -77.38877, 38.96237 ], [ -77.38727, 38.96337 ], [ -77.3854, 38.96281 ], [ -77.3852, 38.96313 ], [ -77.38641, 38.96325 ], [ -77.38618, 38.96413 ], [ -77.38683, 38.96459 ], [ -77.38671, 38.96385 ], [ -77.38709, 38.96356 ] ], [ [ -77.38743, 38.9616 ], [ -77.38641, 38.96119 ], [ -77.38622, 38.96149 ], [ -77.38743, 38.9616 ] ], [ [ -77.38706, 38.96024 ], [ -77.38758, 38.96045 ], [ -77.38765, 38.96025 ], [ -77.38706, 38.96024 ] ], [ [ -77.38544, 38.95586 ], [ -77.38155, 38.95515 ], [ -77.38097, 38.95517 ], [ -77.38153, 38.95644 ], [ -77.38057, 38.95657 ], [ -77.37975, 38.95573 ], [ -77.37907, 38.95642 ], [ -77.38, 38.95665 ], [ -77.37981, 38.95764 ], [ -77.38068, 38.95707 ], [ -77.38304, 38.95709 ], [ -77.38361, 38.95636 ], [ -77.38439, 38.95683 ], [ -77.38576, 38.95682 ], [ -77.38598, 38.95719 ], [ -77.38521, 38.95844 ], [ -77.38574, 38.95901 ], [ -77.38654, 38.95841 ], [ -77.38674, 38.95744 ], [ -77.38544, 38.95586 ] ], [ [ -77.37675, 38.95756 ], [ -77.37558, 38.95879 ], [ -77.37757, 38.95974 ], [ -77.37891, 38.95654 ], [ -77.37675, 38.95756 ] ], [ [ -77.37356, 38.9606 ], [ -77.37679, 38.96299 ], [ -77.37785, 38.96118 ], [ -77.37441, 38.9597 ], [ -77.37356, 38.9606 ] ], [ [ -77.37258, 38.96426 ], [ -77.37511, 38.96443 ], [ -77.37868, 38.96635 ], [ -77.37881, 38.96595 ], [ -77.37302, 38.96172 ], [ -77.37258, 38.96426 ] ], [ [ -77.37293, 38.96665 ], [ -77.3746, 38.96702 ], [ -77.37503, 38.96578 ], [ -77.373, 38.9656 ], [ -77.37293, 38.96665 ] ], [ [ -77.37215, 38.9681 ], [ -77.37217, 38.96823 ], [ -77.37269, 38.96791 ], [ -77.37215, 38.9681 ] ], [ [ -77.37505, 38.9817 ], [ -77.37526, 38.98116 ], [ -77.37496, 38.98085 ], [ -77.37407, 38.98102 ], [ -77.37505, 38.9817 ] ], [ [ -77.38438, 38.98052 ], [ -77.38314, 38.98084 ], [ -77.3839, 38.98121 ], [ -77.3845, 38.9822 ], [ -77.38438, 38.98052 ] ], [ [ -77.38534, 38.97882 ], [ -77.38521, 38.97864 ], [ -77.38539, 38.9791 ], [ -77.38534, 38.97882 ] ], [ [ -77.38493, 38.97676 ], [ -77.38543, 38.97663 ], [ -77.38608, 38.97699 ], [ -77.3866, 38.97645 ], [ -77.38442, 38.97674 ], [ -77.38494, 38.97794 ], [ -77.38493, 38.97676 ] ], [ [ -77.38539, 38.9751 ], [ -77.38554, 38.97549 ], [ -77.38582, 38.97546 ], [ -77.38539, 38.9751 ] ], [ [ -77.38177, 38.96834 ], [ -77.38156, 38.96863 ], [ -77.38231, 38.96881 ], [ -77.38177, 38.96834 ] ], [ [ -77.38223, 38.96462 ], [ -77.38158, 38.96343 ], [ -77.38015, 38.96528 ], [ -77.38162, 38.96608 ], [ -77.38223, 38.96462 ] ], [ [ -77.38171, 38.96117 ], [ -77.38143, 38.96133 ], [ -77.38159, 38.96145 ], [ -77.38171, 38.96117 ] ], [ [ -77.3823, 38.95915 ], [ -77.38214, 38.95897 ], [ -77.38163, 38.9595 ], [ -77.3823, 38.95915 ] ], [ [ -77.37945, 38.95874 ], [ -77.37943, 38.95863 ], [ -77.37937, 38.95878 ], [ -77.37945, 38.95874 ] ], [ [ -77.38671, 38.98172 ], [ -77.3879, 38.98 ], [ -77.38721, 38.98006 ], [ -77.38672, 38.98075 ], [ -77.38593, 38.9808 ], [ -77.38603, 38.98216 ], [ -77.38671, 38.98172 ] ], [ [ -77.38882, 38.97006 ], [ -77.3886, 38.97007 ], [ -77.38861, 38.97024 ], [ -77.38882, 38.97006 ] ], [ [ -77.38982, 38.96077 ], [ -77.38989, 38.96067 ], [ -77.38981, 38.96067 ], [ -77.38982, 38.96077 ] ], [ [ -77.3891, 38.95571 ], [ -77.38909, 38.95725 ], [ -77.38921, 38.9573 ], [ -77.38994, 38.95622 ], [ -77.3891, 38.95571 ] ], [ [ -77.39055, 38.96375 ], [ -77.39068, 38.96374 ], [ -77.39057, 38.9637 ], [ -77.39055, 38.96375 ] ], [ [ -77.39021, 38.97013 ], [ -77.39105, 38.97008 ], [ -77.39104, 38.96993 ], [ -77.39021, 38.97013 ] ], [ [ -77.38525, 38.95448 ], [ -77.38493, 38.95436 ], [ -77.3849, 38.95443 ], [ -77.38525, 38.95448 ] ], [ [ -77.38442, 38.96606 ], [ -77.38488, 38.96603 ], [ -77.38482, 38.9659 ], [ -77.38442, 38.96606 ] ], [ [ -77.3838, 38.96479 ], [ -77.3838, 38.96484 ], [ -77.38385, 38.96484 ], [ -77.3838, 38.96479 ] ], [ [ -77.38315, 38.9632 ], [ -77.3833, 38.96343 ], [ -77.38355, 38.96305 ], [ -77.38315, 38.9632 ] ], [ [ -77.38425, 38.96017 ], [ -77.38383, 38.96067 ], [ -77.3847, 38.96089 ], [ -77.38425, 38.96017 ] ], [ [ -77.38548, 38.96467 ], [ -77.38577, 38.96426 ], [ -77.38498, 38.96421 ], [ -77.38548, 38.96467 ] ], [ [ -77.38527, 38.9674 ], [ -77.38536, 38.96775 ], [ -77.38526, 38.96709 ], [ -77.38527, 38.9674 ] ], [ [ -77.3855, 38.97269 ], [ -77.38655, 38.97286 ], [ -77.38627, 38.9726 ], [ -77.3855, 38.97269 ] ], [ [ -77.38388, 38.97353 ], [ -77.38386, 38.97407 ], [ -77.38402, 38.97323 ], [ -77.38388, 38.97353 ] ], [ [ -77.38654, 38.97364 ], [ -77.38671, 38.97361 ], [ -77.38659, 38.97337 ], [ -77.38654, 38.97364 ] ], [ [ -77.38274, 38.96039 ], [ -77.38274, 38.96038 ], [ -77.38273, 38.96038 ], [ -77.38274, 38.96039 ] ], [ [ -77.38284, 38.96155 ], [ -77.38284, 38.96187 ], [ -77.38324, 38.96188 ], [ -77.38346, 38.96171 ], [ -77.38284, 38.96155 ] ], [ [ -77.38225, 38.95385 ], [ -77.38055, 38.95391 ], [ -77.38055, 38.95398 ], [ -77.38225, 38.95385 ] ], [ [ -77.37728, 38.97964 ], [ -77.3773, 38.98039 ], [ -77.37772, 38.98025 ], [ -77.37769, 38.97967 ], [ -77.37728, 38.97964 ] ], [ [ -77.37481, 38.97475 ], [ -77.37441, 38.97486 ], [ -77.37465, 38.97561 ], [ -77.37405, 38.97636 ], [ -77.37517, 38.97655 ], [ -77.37725, 38.97787 ], [ -77.37764, 38.97775 ], [ -77.37746, 38.97552 ], [ -77.37481, 38.97475 ] ], [ [ -77.37666, 38.97409 ], [ -77.37738, 38.97444 ], [ -77.37734, 38.97402 ], [ -77.37729, 38.97342 ], [ -77.37666, 38.97409 ] ], [ [ -77.37788, 38.96981 ], [ -77.37861, 38.9692 ], [ -77.37752, 38.96895 ], [ -77.37681, 38.97065 ], [ -77.37706, 38.97127 ], [ -77.37779, 38.97069 ], [ -77.37788, 38.96981 ] ], [ [ -77.37404, 38.96842 ], [ -77.37421, 38.9682 ], [ -77.37403, 38.96816 ], [ -77.37404, 38.96842 ] ], [ [ -77.37624, 38.9667 ], [ -77.37602, 38.96736 ], [ -77.37804, 38.96782 ], [ -77.37817, 38.96748 ], [ -77.37624, 38.9667 ] ], [ [ -77.38056, 38.96244 ], [ -77.37919, 38.96165 ], [ -77.37798, 38.96387 ], [ -77.37903, 38.96446 ], [ -77.38056, 38.96244 ] ], [ [ -77.37237, 38.95976 ], [ -77.37307, 38.95902 ], [ -77.37233, 38.95945 ], [ -77.37187, 38.95938 ], [ -77.37237, 38.95976 ] ], [ [ -77.38152, 38.986 ], [ -77.38141, 38.98642 ], [ -77.38212, 38.98673 ], [ -77.38225, 38.98623 ], [ -77.38152, 38.986 ] ], [ [ -77.3792, 38.9797 ], [ -77.37906, 38.97939 ], [ -77.37915, 38.98065 ], [ -77.37955, 38.98054 ], [ -77.3792, 38.9797 ] ], [ [ -77.38087, 38.9802 ], [ -77.38105, 38.98015 ], [ -77.38091, 38.97982 ], [ -77.38087, 38.9802 ] ], [ [ -77.38222, 38.97949 ], [ -77.38237, 38.97982 ], [ -77.38256, 38.97977 ], [ -77.38222, 38.97949 ] ], [ [ -77.3816, 38.97748 ], [ -77.38129, 38.97676 ], [ -77.38179, 38.97846 ], [ -77.3816, 38.97748 ] ], [ [ -77.38173, 38.9738 ], [ -77.38161, 38.97333 ], [ -77.3814, 38.97348 ], [ -77.38196, 38.97483 ], [ -77.3824, 38.97397 ], [ -77.38173, 38.9738 ] ], [ [ -77.38276, 38.97257 ], [ -77.38279, 38.9725 ], [ -77.38189, 38.97241 ], [ -77.38181, 38.97296 ], [ -77.38276, 38.97257 ] ], [ [ -77.38313, 38.97025 ], [ -77.38224, 38.97002 ], [ -77.38218, 38.97043 ], [ -77.38313, 38.97025 ] ], [ [ -77.384, 38.97527 ], [ -77.38379, 38.97527 ], [ -77.38397, 38.97571 ], [ -77.384, 38.97527 ] ], [ [ -77.38388, 38.97943 ], [ -77.38405, 38.97939 ], [ -77.38392, 38.97904 ], [ -77.38388, 38.97943 ] ], [ [ -77.38258, 38.97585 ], [ -77.3827, 38.97663 ], [ -77.38284, 38.97649 ], [ -77.38258, 38.97585 ] ], [ [ -77.3833, 38.97807 ], [ -77.3835, 38.97801 ], [ -77.38333, 38.9776 ], [ -77.3833, 38.97807 ] ], [ [ -77.38241, 38.98515 ], [ -77.38315, 38.98511 ], [ -77.38303, 38.98479 ], [ -77.38241, 38.98515 ] ], [ [ -77.3773, 38.95594 ], [ -77.37697, 38.95563 ], [ -77.37516, 38.95542 ], [ -77.37563, 38.95577 ], [ -77.37487, 38.95704 ], [ -77.3773, 38.95594 ] ], [ [ -77.3802, 38.96832 ], [ -77.38042, 38.96802 ], [ -77.37958, 38.96782 ], [ -77.3802, 38.96832 ] ], [ [ -77.38017, 38.97401 ], [ -77.37968, 38.97283 ], [ -77.37971, 38.97298 ], [ -77.38017, 38.97401 ] ], [ [ -77.37881, 38.97431 ], [ -77.37874, 38.97414 ], [ -77.37875, 38.97431 ], [ -77.37881, 38.97431 ] ], [ [ -77.38048, 38.97879 ], [ -77.38, 38.97766 ], [ -77.37985, 38.97777 ], [ -77.38048, 38.97879 ] ], [ [ -77.38084, 38.97563 ], [ -77.38059, 38.97504 ], [ -77.38056, 38.97505 ], [ -77.38084, 38.97563 ] ], [ [ -77.37924, 38.97537 ], [ -77.37892, 38.97539 ], [ -77.37904, 38.97688 ], [ -77.37954, 38.97651 ], [ -77.37924, 38.97537 ] ], [ [ -77.37485, 38.95754 ], [ -77.37487, 38.95705 ], [ -77.37436, 38.95774 ], [ -77.37413, 38.95805 ], [ -77.37485, 38.95754 ] ], [ [ -77.37471, 38.95542 ], [ -77.37437, 38.95561 ], [ -77.37316, 38.95719 ], [ -77.37471, 38.95542 ] ], [ [ -77.37177, 38.96076 ], [ -77.37161, 38.96067 ], [ -77.36976, 38.96262 ], [ -77.37031, 38.96388 ], [ -77.37095, 38.96421 ], [ -77.37096, 38.96284 ], [ -77.37177, 38.96076 ] ], [ [ -77.37251, 38.97221 ], [ -77.37239, 38.97218 ], [ -77.37206, 38.97311 ], [ -77.37267, 38.97296 ], [ -77.37251, 38.97221 ] ], [ [ -77.37173, 38.96926 ], [ -77.37178, 38.96914 ], [ -77.37172, 38.96918 ], [ -77.37173, 38.96926 ] ], [ [ -77.37395, 38.97044 ], [ -77.37408, 38.97039 ], [ -77.37396, 38.97035 ], [ -77.37372, 38.97019 ], [ -77.37395, 38.97044 ] ], [ [ -77.37582, 38.96966 ], [ -77.37594, 38.96934 ], [ -77.3752, 38.96918 ], [ -77.37582, 38.96966 ] ], [ [ -77.37526, 38.97309 ], [ -77.37475, 38.97308 ], [ -77.37506, 38.97335 ], [ -77.37526, 38.97309 ] ], [ [ -77.37404, 38.97311 ], [ -77.37419, 38.97307 ], [ -77.37411, 38.97307 ], [ -77.37404, 38.97311 ] ], [ [ -77.37482, 38.98006 ], [ -77.37482, 38.98 ], [ -77.37474, 38.98003 ], [ -77.37482, 38.98006 ] ], [ [ -77.37543, 38.97838 ], [ -77.37606, 38.97844 ], [ -77.37596, 38.97839 ], [ -77.37543, 38.97838 ] ], [ [ -77.37611, 38.97953 ], [ -77.37616, 38.97959 ], [ -77.37618, 38.97954 ], [ -77.37611, 38.97953 ] ], [ [ -77.37032, 38.96568 ], [ -77.36988, 38.96496 ], [ -77.36973, 38.96592 ], [ -77.37093, 38.96595 ], [ -77.37032, 38.96568 ] ], [ [ -77.3702, 38.96037 ], [ -77.37056, 38.9599 ], [ -77.37053, 38.95987 ], [ -77.3702, 38.96037 ] ] ] } }
]
}
