{
"type": "FeatureCollection",
"name": "282",
"crs": { "type": "name", "properties": { "name": "urn:ogc:def:crs:OGC:1.3:CRS84" } },
"xy_coordinate_resolution": 1e-05,
"features": [
{ "type": "Feature", "properties": { "variant": "T0", "miles": 0.5 }, "geometry": { "type": "Polygon", "coordinates": [ [ [ -77.39326, 38.98179 ], [ -77.39572, 38.98395 ], [ -77.39596, 38.98353 ], [ -77.39697, 38.98366 ], [ -77.39717, 38.98505 ], [ -77.39832, 38.98539 ], [ -77.39826, 38.98671 ], [ -77.39735, 38.98698 ], [ -77.39693, 38.98612 ], [ -77.39575, 38.98593 ], [ -77.3952, 38.98812 ], [ -77.39241, 38.98823 ], [ -77.39173, 38.98713 ], [ -77.3902, 38.98924 ], [ -77.38953, 38.98939 ], [ -77.38826, 38.98886 ], [ -77.38785, 38.98968 ], [ -77.38695, 38.98998 ], [ -77.38657, 38.98927 ], [ -77.38535, 38.98869 ], [ -77.38509, 38.98787 ], [ -77.38621, 38.98584 ], [ -77.38688, 38.98572 ], [ -77.3882, 38.9865 ], [ -77.38864, 38.98623 ], [ -77.38806, 38.98601 ], [ -77.38803, 38.98537 ], [ -77.38668, 38.98489 ], [ -77.38833, 38.98217 ], [ -77.38951, 38.98137 ], [ -77.39003, 38.98146 ], [ -77.39028, 38.98222 ], [ -77.38942, 38.98287 ], [ -77.39002, 38.98348 ], [ -77.39158, 38.98396 ], [ -77.39273, 38.98182 ], [ -77.39326, 38.98179 ] ], [ [ -77.39352, 38.98611 ], [ -77.39324, 38.98621 ], [ -77.39345, 38.98636 ], [ -77.39352, 38.98611 ] ], [ [ -77.39274, 38.98622 ], [ -77.39229, 38.98568 ], [ -77.39217, 38.98596 ], [ -77.39274, 38.98622 ] ], [ [ -77.3895, 38.98449 ], [ -77.38928, 38.98458 ], [ -77.3894, 38.98471 ], [ -77.3895, 38.98449 ] ], [ [ -77.39054, 38.98634 ], [ -77.38987, 38.98675 ], [ -77.39037, 38.9869 ], [ -77.39054, 38.98634 ] ] ] } },
{ "type": "Feature", "properties": { "variant": "T0", "miles": 1.0 }, "geometry": { "type": "Polygon", "coordinates": [ [ [ -77.40053, 38.97858 ], [ -77.40164, 38.9788 ], [ -77.40165, 38.97921 ], [ -77.40067, 38.97976 ], [ -77.40183, 38.98083 ], [ -77.40133, 38.98132 ], [ -77.40167, 38.98182 ], [ -77.40087, 38.98286 ], [ -77.40034, 38.98292 ], [ -77.39984, 38.98227 ], [ -77.39932, 38.98248 ], [ -77.3995, 38.98381 ], [ -77.40057, 38.98425 ], [ -77.40061, 38.98466 ], [ -77.39971, 38.98501 ], [ -77.39922, 38.98611 ], [ -77.39837, 38.98602 ], [ -77.39727, 38.98783 ], [ -77.39863, 38.98671 ], [ -77.40068, 38.98781 ], [ -77.40087, 38.98877 ], [ -77.39999, 38.99048 ], [ -77.40121, 38.99167 ], [ -77.40081, 38.99294 ], [ -77.39987, 38.99272 ], [ -77.39988, 38.99196 ], [ -77.39911, 38.99221 ], [ -77.39503, 38.99125 ], [ -77.39625, 38.99229 ], [ -77.396, 38.99303 ], [ -77.39461, 38.99291 ], [ -77.39433, 38.9936 ], [ -77.39381, 38.99365 ], [ -77.3919, 38.99258 ], [ -77.39217, 38.99343 ], [ -77.39129, 38.99369 ], [ -77.39212, 38.99418 ], [ -77.3915, 38.99484 ], [ -77.38983, 38.99441 ], [ -77.3881, 38.99471 ], [ -77.38764, 38.99451 ], [ -77.38756, 38.99371 ], [ -77.3867, 38.99375 ], [ -77.38642, 38.9945 ], [ -77.38698, 38.99472 ], [ -77.38701, 38.99548 ], [ -77.38559, 38.99554 ], [ -77.38501, 38.99615 ], [ -77.38412, 38.99583 ], [ -77.3843, 38.99515 ], [ -77.38384, 38.99423 ], [ -77.38223, 38.99449 ], [ -77.38042, 38.99408 ], [ -77.38026, 38.99332 ], [ -77.38239, 38.9929 ], [ -77.38226, 38.99209 ], [ -77.38287, 38.99181 ], [ -77.38277, 38.99113 ], [ -77.38337, 38.99094 ], [ -77.38339, 38.99048 ], [ -77.38456, 38.99035 ], [ -77.38403, 38.98947 ], [ -77.38431, 38.98912 ], [ -77.38573, 38.98897 ], [ -77.38509, 38.98782 ], [ -77.38587, 38.98529 ], [ -77.3865, 38.98484 ], [ -77.38612, 38.98467 ], [ -77.38579, 38.98523 ], [ -77.38517, 38.98519 ], [ -77.38454, 38.98622 ], [ -77.38401, 38.98625 ], [ -77.38308, 38.98502 ], [ -77.38307, 38.98385 ], [ -77.38447, 38.98357 ], [ -77.38481, 38.98246 ], [ -77.38528, 38.98228 ], [ -77.38602, 38.98278 ], [ -77.38593, 38.98346 ], [ -77.38726, 38.98392 ], [ -77.38829, 38.98222 ], [ -77.38951, 38.98137 ], [ -77.39033, 38.98194 ], [ -77.38943, 38.98283 ], [ -77.3896, 38.98313 ], [ -77.39158, 38.98396 ], [ -77.39273, 38.98182 ], [ -77.39326, 38.98179 ], [ -77.39503, 38.98301 ], [ -77.39695, 38.98321 ], [ -77.39798, 38.98016 ], [ -77.39688, 38.97934 ], [ -77.39685, 38.97858 ], [ -77.39733, 38.97841 ], [ -77.39831, 38.97891 ], [ -77.3989, 38.97742 ], [ -77.39943, 38.97735 ], [ -77.40053, 38.97858 ] ], [ [ -77.39318, 38.99063 ], [ -77.39288, 38.99067 ], [ -77.39362, 38.99114 ], [ -77.39318, 38.99063 ] ], [ [ -77.39054, 38.98634 ], [ -77.39015, 38.98624 ], [ -77.38987, 38.98675 ], [ -77.39039, 38.98682 ], [ -77.39054, 38.98634 ] ], [ [ -77.39718, 38.99011 ], [ -77.39726, 38.99061 ], [ -77.39846, 38.99089 ], [ -77.39718, 38.99011 ] ], [ [ -77.39906, 38.98858 ], [ -77.39859, 38.98826 ], [ -77.39785, 38.98916 ], [ -77.39872, 38.98901 ], [ -77.39906, 38.98858 ] ], [ [ -77.39345, 38.98636 ], [ -77.39358, 38.98593 ], [ -77.39336, 38.98619 ], [ -77.39345, 38.98636 ] ], [ [ -77.39265, 38.98628 ], [ -77.39274, 38.98622 ], [ -77.39229, 38.98568 ], [ -77.39265, 38.98628 ] ], [ [ -77.3915, 38.99073 ], [ -77.39039, 38.99041 ], [ -77.39073, 38.99068 ], [ -77.3915, 38.99073 ] ], [ [ -77.38657, 38.98927 ], [ -77.38646, 38.98923 ], [ -77.38654, 38.98933 ], [ -77.38657, 38.98927 ] ], [ [ -77.39114, 38.9936 ], [ -77.39114, 38.99365 ], [ -77.39124, 38.99368 ], [ -77.39114, 38.9936 ] ], [ [ -77.3894, 38.98471 ], [ -77.3895, 38.98449 ], [ -77.38928, 38.98458 ], [ -77.3894, 38.98471 ] ], [ [ -77.38735, 38.98625 ], [ -77.3882, 38.9865 ], [ -77.38864, 38.98623 ], [ -77.38774, 38.98534 ], [ -77.38735, 38.98625 ] ], [ [ -77.38629, 38.99036 ], [ -77.38631, 38.99009 ], [ -77.38597, 38.99018 ], [ -77.38629, 38.99036 ] ], [ [ -77.38917, 38.99113 ], [ -77.38917, 38.99121 ], [ -77.38926, 38.99116 ], [ -77.38917, 38.99113 ] ] ] } },
{ "type": "Feature", "properties": { "variant": "T0", "miles": 1.5 }, "geometry": { "type": "Polygon", "coordinates": [ [ [ -77.40522, 38.97556 ], [ -77.40611, 38.97633 ], [ -77.40697, 38.9761 ], [ -77.40733, 38.9764 ], [ -77.40774, 38.97763 ], [ -77.40685, 38.97791 ], [ -77.40666, 38.9787 ], [ -77.40429, 38.98078 ], [ -77.40414, 38.98134 ], [ -77.40328, 38.98142 ], [ -77.40311, 38.98229 ], [ -77.40566, 38.98498 ], [ -77.40484, 38.9854 ], [ -77.40437, 38.98514 ], [ -77.40375, 38.98689 ], [ -77.40454, 38.98672 ], [ -77.4042, 38.98583 ], [ -77.40502, 38.98541 ], [ -77.40571, 38.98593 ], [ -77.40592, 38.98672 ], [ -77.40723, 38.98752 ], [ -77.4075, 38.98865 ], [ -77.4068, 38.98918 ], [ -77.40631, 38.98901 ], [ -77.40577, 38.98784 ], [ -77.40457, 38.98802 ], [ -77.40412, 38.98922 ], [ -77.40517, 38.9891 ], [ -77.40593, 38.98958 ], [ -77.40578, 38.98998 ], [ -77.40447, 38.99026 ], [ -77.40455, 38.99093 ], [ -77.40606, 38.99087 ], [ -77.40686, 38.99132 ], [ -77.40628, 38.99193 ], [ -77.40439, 38.992 ], [ -77.40403, 38.99263 ], [ -77.40467, 38.99272 ], [ -77.40479, 38.99348 ], [ -77.40351, 38.99424 ], [ -77.40454, 38.9943 ], [ -77.40514, 38.99299 ], [ -77.40631, 38.99251 ], [ -77.40679, 38.99318 ], [ -77.40594, 38.9944 ], [ -77.40743, 38.99484 ], [ -77.40771, 38.99558 ], [ -77.40592, 38.99589 ], [ -77.40324, 38.99769 ], [ -77.40228, 38.99751 ], [ -77.40093, 38.99807 ], [ -77.40052, 38.9978 ], [ -77.40073, 38.9971 ], [ -77.39973, 38.99792 ], [ -77.39891, 38.99749 ], [ -77.401, 38.99507 ], [ -77.39991, 38.99486 ], [ -77.39921, 38.9954 ], [ -77.39762, 38.99487 ], [ -77.39782, 38.9983 ], [ -77.39718, 38.99888 ], [ -77.39644, 38.99838 ], [ -77.39633, 38.99718 ], [ -77.39526, 38.99739 ], [ -77.39443, 38.99703 ], [ -77.39415, 38.996 ], [ -77.39331, 38.99542 ], [ -77.39379, 38.99498 ], [ -77.39315, 38.99452 ], [ -77.3921, 38.99725 ], [ -77.39282, 38.99745 ], [ -77.39281, 38.99818 ], [ -77.39382, 38.99846 ], [ -77.39369, 38.99921 ], [ -77.38911, 38.9986 ], [ -77.38883, 38.99787 ], [ -77.38924, 38.99761 ], [ -77.39058, 38.99781 ], [ -77.39071, 38.99727 ], [ -77.38941, 38.99657 ], [ -77.3894, 38.99624 ], [ -77.38558, 38.99996 ], [ -77.3813, 39.00079 ], [ -77.38079, 39.00068 ], [ -77.38067, 38.99992 ], [ -77.38367, 38.99915 ], [ -77.38363, 38.99819 ], [ -77.38289, 38.99854 ], [ -77.38068, 38.99822 ], [ -77.38064, 38.99898 ], [ -77.37932, 38.99995 ], [ -77.37883, 38.9998 ], [ -77.3785, 38.9986 ], [ -77.37766, 38.99819 ], [ -77.37813, 38.99751 ], [ -77.37777, 38.99676 ], [ -77.37674, 38.99689 ], [ -77.37608, 38.9979 ], [ -77.37556, 38.99782 ], [ -77.37535, 38.99717 ], [ -77.37458, 38.99736 ], [ -77.37421, 38.99706 ], [ -77.37464, 38.9961 ], [ -77.37599, 38.9958 ], [ -77.37601, 38.99359 ], [ -77.37544, 38.99318 ], [ -77.37601, 38.99256 ], [ -77.37613, 38.99051 ], [ -77.37688, 38.99026 ], [ -77.37756, 38.99081 ], [ -77.37754, 38.99357 ], [ -77.38124, 38.9921 ], [ -77.38213, 38.99049 ], [ -77.38098, 38.98999 ], [ -77.38108, 38.98923 ], [ -77.38318, 38.98943 ], [ -77.38285, 38.98812 ], [ -77.38063, 38.98733 ], [ -77.38007, 38.98679 ], [ -77.38087, 38.98301 ], [ -77.37883, 38.98339 ], [ -77.37813, 38.98603 ], [ -77.3773, 38.98644 ], [ -77.37687, 38.9862 ], [ -77.37783, 38.98191 ], [ -77.37645, 38.98223 ], [ -77.3757, 38.98082 ], [ -77.37596, 38.98046 ], [ -77.37772, 38.98025 ], [ -77.37789, 38.97944 ], [ -77.37838, 38.97927 ], [ -77.37909, 38.9798 ], [ -77.37915, 38.98072 ], [ -77.37959, 38.98061 ], [ -77.37839, 38.97777 ], [ -77.37859, 38.97719 ], [ -77.38281, 38.97425 ], [ -77.38334, 38.97425 ], [ -77.38397, 38.97571 ], [ -77.38541, 38.97567 ], [ -77.3857, 38.97601 ], [ -77.3856, 38.97642 ], [ -77.38442, 38.97674 ], [ -77.38496, 38.97801 ], [ -77.38493, 38.97676 ], [ -77.38543, 38.97663 ], [ -77.38608, 38.97699 ], [ -77.38692, 38.97652 ], [ -77.38749, 38.9772 ], [ -77.38694, 38.97879 ], [ -77.38782, 38.97886 ], [ -77.38763, 38.97614 ], [ -77.38932, 38.97603 ], [ -77.38865, 38.97532 ], [ -77.38991, 38.9741 ], [ -77.38905, 38.97298 ], [ -77.38984, 38.97253 ], [ -77.39623, 38.97726 ], [ -77.39874, 38.97727 ], [ -77.39937, 38.97376 ], [ -77.39782, 38.97281 ], [ -77.39703, 38.97146 ], [ -77.39787, 38.97106 ], [ -77.39879, 38.9718 ], [ -77.39886, 38.97118 ], [ -77.40031, 38.9703 ], [ -77.40112, 38.97078 ], [ -77.40033, 38.97156 ], [ -77.40366, 38.97422 ], [ -77.40432, 38.97407 ], [ -77.40529, 38.97237 ], [ -77.40634, 38.97265 ], [ -77.40522, 38.97556 ] ], [ [ -77.39214, 38.99345 ], [ -77.39129, 38.99369 ], [ -77.39193, 38.99395 ], [ -77.39214, 38.99345 ] ], [ [ -77.3925, 38.99271 ], [ -77.3919, 38.99258 ], [ -77.39218, 38.99336 ], [ -77.3925, 38.99271 ] ], [ [ -77.39106, 38.99061 ], [ -77.39039, 38.99041 ], [ -77.39073, 38.99068 ], [ -77.39149, 38.99068 ], [ -77.39106, 38.99061 ] ], [ [ -77.39186, 38.98741 ], [ -77.39173, 38.98713 ], [ -77.39172, 38.98748 ], [ -77.39186, 38.98741 ] ], [ [ -77.39265, 38.98628 ], [ -77.39274, 38.98622 ], [ -77.39229, 38.98568 ], [ -77.39265, 38.98628 ] ], [ [ -77.39238, 38.98213 ], [ -77.39326, 38.98179 ], [ -77.39503, 38.98301 ], [ -77.39695, 38.98321 ], [ -77.39798, 38.98016 ], [ -77.39585, 38.97851 ], [ -77.39339, 38.97935 ], [ -77.3932, 38.98002 ], [ -77.39227, 38.98061 ], [ -77.39045, 38.98006 ], [ -77.38964, 38.98102 ], [ -77.38866, 38.98129 ], [ -77.38754, 38.98283 ], [ -77.38593, 38.98346 ], [ -77.38726, 38.98392 ], [ -77.38829, 38.98222 ], [ -77.38951, 38.98137 ], [ -77.39032, 38.98184 ], [ -77.38943, 38.98284 ], [ -77.38979, 38.98334 ], [ -77.39158, 38.98396 ], [ -77.39238, 38.98213 ] ], [ [ -77.39988, 38.99196 ], [ -77.39912, 38.99221 ], [ -77.39949, 38.99228 ], [ -77.39981, 38.99235 ], [ -77.39988, 38.99196 ] ], [ [ -77.40104, 38.99132 ], [ -77.40236, 38.99152 ], [ -77.40205, 38.99096 ], [ -77.40275, 38.98907 ], [ -77.40182, 38.98886 ], [ -77.40204, 38.98765 ], [ -77.40089, 38.98834 ], [ -77.39999, 38.99048 ], [ -77.40104, 38.99132 ] ], [ [ -77.39859, 38.98826 ], [ -77.39785, 38.98916 ], [ -77.39885, 38.98905 ], [ -77.39906, 38.98858 ], [ -77.39859, 38.98826 ] ], [ [ -77.39892, 38.98615 ], [ -77.39837, 38.98602 ], [ -77.39727, 38.98783 ], [ -77.39892, 38.98615 ] ], [ [ -77.40017, 38.98521 ], [ -77.40023, 38.98498 ], [ -77.39971, 38.98501 ], [ -77.39961, 38.9855 ], [ -77.40017, 38.98521 ] ], [ [ -77.39984, 38.98227 ], [ -77.3995, 38.98229 ], [ -77.39944, 38.98279 ], [ -77.39984, 38.98227 ] ], [ [ -77.4042, 38.97882 ], [ -77.40418, 38.97944 ], [ -77.40458, 38.97904 ], [ -77.40411, 38.97744 ], [ -77.40229, 38.97841 ], [ -77.40288, 38.97879 ], [ -77.40333, 38.97846 ], [ -77.4042, 38.97882 ] ], [ [ -77.40272, 38.97563 ], [ -77.4026, 38.97565 ], [ -77.4028, 38.97568 ], [ -77.40298, 38.97533 ], [ -77.40272, 38.97563 ] ], [ [ -77.40174, 38.98387 ], [ -77.402, 38.98392 ], [ -77.40192, 38.98368 ], [ -77.40174, 38.98387 ] ], [ [ -77.40358, 38.98431 ], [ -77.40347, 38.98421 ], [ -77.40347, 38.98425 ], [ -77.40358, 38.98431 ] ], [ [ -77.40309, 38.99154 ], [ -77.4028, 38.99159 ], [ -77.40303, 38.9918 ], [ -77.40309, 38.99154 ] ], [ [ -77.40183, 38.98501 ], [ -77.40171, 38.98513 ], [ -77.40178, 38.98514 ], [ -77.40183, 38.98501 ] ], [ [ -77.40057, 38.99387 ], [ -77.40101, 38.99396 ], [ -77.4009, 38.99387 ], [ -77.40057, 38.99387 ] ], [ [ -77.40108, 38.98263 ], [ -77.40098, 38.98274 ], [ -77.40106, 38.98276 ], [ -77.40108, 38.98263 ] ], [ [ -77.40097, 38.97368 ], [ -77.40106, 38.97369 ], [ -77.4009, 38.97357 ], [ -77.40097, 38.97368 ] ], [ [ -77.39971, 38.98713 ], [ -77.39977, 38.98716 ], [ -77.39973, 38.9871 ], [ -77.39971, 38.98713 ] ], [ [ -77.40059, 38.98449 ], [ -77.4006, 38.98448 ], [ -77.40059, 38.98448 ], [ -77.40059, 38.98449 ] ], [ [ -77.39318, 38.97655 ], [ -77.39289, 38.97667 ], [ -77.3942, 38.97781 ], [ -77.39462, 38.97766 ], [ -77.39318, 38.97655 ] ], [ [ -77.39581, 38.99403 ], [ -77.39552, 38.99398 ], [ -77.39554, 38.99402 ], [ -77.39581, 38.99403 ] ], [ [ -77.39703, 38.99178 ], [ -77.39812, 38.99257 ], [ -77.3991, 38.99221 ], [ -77.39503, 38.99125 ], [ -77.39703, 38.99178 ] ], [ [ -77.39844, 38.97842 ], [ -77.39779, 38.97838 ], [ -77.39832, 38.97877 ], [ -77.39844, 38.97842 ] ], [ [ -77.3973, 38.99064 ], [ -77.39846, 38.99089 ], [ -77.39734, 38.99018 ], [ -77.3973, 38.99064 ] ], [ [ -77.39849, 38.99315 ], [ -77.3982, 38.99298 ], [ -77.39784, 38.99333 ], [ -77.3985, 38.99346 ], [ -77.39849, 38.99315 ] ], [ [ -77.39289, 38.99085 ], [ -77.39362, 38.99114 ], [ -77.39318, 38.99063 ], [ -77.39289, 38.99085 ] ], [ [ -77.39324, 38.98621 ], [ -77.39345, 38.98636 ], [ -77.39352, 38.98611 ], [ -77.39324, 38.98621 ] ], [ [ -77.39001, 38.99561 ], [ -77.38977, 38.99586 ], [ -77.39005, 38.99585 ], [ -77.39001, 38.99561 ] ], [ [ -77.39093, 38.99483 ], [ -77.39105, 38.9948 ], [ -77.39084, 38.99473 ], [ -77.39093, 38.99483 ] ], [ [ -77.3881, 38.99471 ], [ -77.38764, 38.99451 ], [ -77.38756, 38.99371 ], [ -77.3867, 38.99375 ], [ -77.38642, 38.9945 ], [ -77.3872, 38.99509 ], [ -77.38588, 38.99704 ], [ -77.38649, 38.9974 ], [ -77.38911, 38.99475 ], [ -77.3881, 38.99471 ] ], [ [ -77.38563, 38.99556 ], [ -77.38573, 38.99554 ], [ -77.38562, 38.99554 ], [ -77.38563, 38.99556 ] ], [ [ -77.38573, 38.98897 ], [ -77.38509, 38.98787 ], [ -77.38587, 38.98529 ], [ -77.3865, 38.98484 ], [ -77.38612, 38.98467 ], [ -77.38579, 38.98523 ], [ -77.38517, 38.98519 ], [ -77.3843, 38.98794 ], [ -77.38447, 38.98904 ], [ -77.38573, 38.98897 ] ], [ [ -77.38438, 38.98052 ], [ -77.38314, 38.98084 ], [ -77.38385, 38.98116 ], [ -77.38417, 38.98216 ], [ -77.38459, 38.98225 ], [ -77.38438, 38.98052 ] ], [ [ -77.38555, 38.97903 ], [ -77.38521, 38.97864 ], [ -77.38543, 38.97919 ], [ -77.38555, 38.97903 ] ], [ [ -77.38926, 38.99116 ], [ -77.38917, 38.99113 ], [ -77.38917, 38.99121 ], [ -77.38926, 38.99116 ] ], [ [ -77.39114, 38.99365 ], [ -77.39124, 38.99368 ], [ -77.39114, 38.9936 ], [ -77.39114, 38.99365 ] ], [ [ -77.38864, 38.98623 ], [ -77.38806, 38.98601 ], [ -77.38777, 38.9853 ], [ -77.38735, 38.98625 ], [ -77.38864, 38.98623 ] ], [ [ -77.38928, 38.98458 ], [ -77.3894, 38.98471 ], [ -77.3895, 38.98449 ], [ -77.38928, 38.98458 ] ], [ [ -77.39037, 38.9869 ], [ -77.39054, 38.98634 ], [ -77.39015, 38.98624 ], [ -77.38997, 38.98661 ], [ -77.39037, 38.9869 ] ], [ [ -77.38721, 38.98006 ], [ -77.38681, 38.98071 ], [ -77.38593, 38.9808 ], [ -77.38603, 38.98221 ], [ -77.38671, 38.98181 ], [ -77.38768, 38.98003 ], [ -77.38721, 38.98006 ] ], [ [ -77.38657, 38.98927 ], [ -77.38646, 38.98923 ], [ -77.38654, 38.98933 ], [ -77.38657, 38.98927 ] ], [ [ -77.38631, 38.99009 ], [ -77.38597, 38.99018 ], [ -77.3861, 38.9903 ], [ -77.38631, 38.99009 ] ], [ [ -77.38405, 38.99482 ], [ -77.38415, 38.99447 ], [ -77.38384, 38.99423 ], [ -77.38231, 38.99445 ], [ -77.38405, 38.99482 ] ], [ [ -77.38233, 38.99282 ], [ -77.3822, 38.99292 ], [ -77.38239, 38.9929 ], [ -77.38233, 38.99282 ] ], [ [ -77.38225, 38.98623 ], [ -77.38152, 38.986 ], [ -77.38141, 38.98642 ], [ -77.38212, 38.98673 ], [ -77.38225, 38.98623 ] ], [ [ -77.38222, 38.97949 ], [ -77.3824, 38.97989 ], [ -77.3826, 38.97984 ], [ -77.38222, 38.97949 ] ], [ [ -77.3816, 38.97748 ], [ -77.38129, 38.97676 ], [ -77.38179, 38.97846 ], [ -77.3816, 38.97748 ] ], [ [ -77.38392, 38.97904 ], [ -77.38373, 38.9791 ], [ -77.38391, 38.9795 ], [ -77.38392, 38.97904 ] ], [ [ -77.38285, 38.97649 ], [ -77.38258, 38.97585 ], [ -77.3827, 38.97663 ], [ -77.38285, 38.97649 ] ], [ [ -77.3835, 38.97801 ], [ -77.38333, 38.9776 ], [ -77.38313, 38.97765 ], [ -77.3835, 38.97801 ] ], [ [ -77.38263, 38.98502 ], [ -77.38241, 38.98515 ], [ -77.38315, 38.98511 ], [ -77.38287, 38.98481 ], [ -77.38263, 38.98502 ] ], [ [ -77.37913, 38.9944 ], [ -77.37774, 38.99478 ], [ -77.3781, 38.9951 ], [ -77.38024, 38.99429 ], [ -77.37913, 38.9944 ] ], [ [ -77.38171, 38.99441 ], [ -77.38162, 38.9943 ], [ -77.38162, 38.99445 ], [ -77.38171, 38.99441 ] ], [ [ -77.38, 38.97766 ], [ -77.38029, 38.97884 ], [ -77.38048, 38.97879 ], [ -77.38, 38.97766 ] ], [ [ -77.38091, 38.97982 ], [ -77.38072, 38.97987 ], [ -77.38091, 38.98028 ], [ -77.38091, 38.97982 ] ] ] } },
{ "type": "Feature", "properties": { "variant": "T2s", "miles": 0.5 }, "geometry": { "type": "Polygon", "coordinates": [ [ [ -77.39326, 38.98179 ], [ -77.39572, 38.98395 ], [ -77.39596, 38.98353 ], [ -77.39697, 38.98366 ], [ -77.39717, 38.98505 ], [ -77.39832, 38.98539 ], [ -77.39826, 38.98671 ], [ -77.39735, 38.98698 ], [ -77.39693, 38.98612 ], [ -77.39575, 38.98593 ], [ -77.3952, 38.98812 ], [ -77.39241, 38.98823 ], [ -77.39173, 38.98713 ], [ -77.3902, 38.98924 ], [ -77.38953, 38.98939 ], [ -77.38826, 38.98886 ], [ -77.38785, 38.98968 ], [ -77.38695, 38.98998 ], [ -77.38657, 38.98927 ], [ -77.38535, 38.98869 ], [ -77.38509, 38.98787 ], [ -77.38621, 38.98584 ], [ -77.38688, 38.98572 ], [ -77.3882, 38.9865 ], [ -77.38864, 38.98623 ], [ -77.38806, 38.98601 ], [ -77.38803, 38.98537 ], [ -77.38668, 38.98489 ], [ -77.38833, 38.98217 ], [ -77.38951, 38.98137 ], [ -77.39003, 38.98146 ], [ -77.39028, 38.98222 ], [ -77.38942, 38.98287 ], [ -77.39002, 38.98348 ], [ -77.39158, 38.98396 ], [ -77.39273, 38.98182 ], [ -77.39326, 38.98179 ] ], [ [ -77.39352, 38.98611 ], [ -77.39324, 38.98621 ], [ -77.39345, 38.98636 ], [ -77.39352, 38.98611 ] ], [ [ -77.39274, 38.98622 ], [ -77.39229, 38.98568 ], [ -77.39217, 38.98596 ], [ -77.39274, 38.98622 ] ], [ [ -77.3895, 38.98449 ], [ -77.38928, 38.98458 ], [ -77.3894, 38.98471 ], [ -77.3895, 38.98449 ] ], [ [ -77.39054, 38.98634 ], [ -77.38987, 38.98675 ], [ -77.39037, 38.9869 ], [ -77.39054, 38.98634 ] ] ] } },
{ "type": "Feature", "properties": { "variant": "T2s", "miles": 1.0 }, "geometry": { "type": "Polygon", "coordinates": [ [ [ -77.40027, 38.97815 ], [ -77.40053, 38.97858 ], [ -77.40164, 38.9788 ], [ -77.40165, 38.97921 ], [ -77.40067, 38.97976 ], [ -77.40183, 38.98083 ], [ -77.40133, 38.98132 ], [ -77.40167, 38.98182 ], [ -77.40087, 38.98286 ], [ -77.40034, 38.98292 ], [ -77.39984, 38.98227 ], [ -77.39932, 38.98248 ], [ -77.3995, 38.98381 ], [ -77.40057, 38.98425 ], [ -77.40061, 38.98466 ], [ -77.39971, 38.98501 ], [ -77.39922, 38.98611 ], [ -77.39837, 38.98602 ], [ -77.39727, 38.98783 ], [ -77.39863, 38.98671 ], [ -77.40068, 38.98781 ], [ -77.40087, 38.98877 ], [ -77.39999, 38.99048 ], [ -77.40121, 38.99167 ], [ -77.40081, 38.99294 ], [ -77.39987, 38.99272 ], [ -77.39988, 38.99196 ], [ -77.39911, 38.99221 ], [ -77.39503, 38.99125 ], [ -77.39625, 38.99229 ], [ -77.396, 38.99303 ], [ -77.39461, 38.99291 ], [ -77.39433, 38.9936 ], [ -77.39381, 38.99365 ], [ -77.3919, 38.99258 ], [ -77.39217, 38.99343 ], [ -77.39129, 38.99369 ], [ -77.39212, 38.99418 ], [ -77.3915, 38.99484 ], [ -77.38983, 38.99441 ], [ -77.3881, 38.99471 ], [ -77.38764, 38.99451 ], [ -77.38756, 38.99371 ], [ -77.3867, 38.99375 ], [ -77.38642, 38.9945 ], [ -77.38698, 38.99472 ], [ -77.38701, 38.99548 ], [ -77.38559, 38.99554 ], [ -77.38501, 38.99615 ], [ -77.38412, 38.99583 ], [ -77.3843, 38.99515 ], [ -77.38384, 38.99423 ], [ -77.38223, 38.99449 ], [ -77.38042, 38.99408 ], [ -77.38026, 38.99332 ], [ -77.38239, 38.9929 ], [ -77.38226, 38.99209 ], [ -77.38287, 38.99181 ], [ -77.38277, 38.99113 ], [ -77.38337, 38.99094 ], [ -77.38339, 38.99048 ], [ -77.38456, 38.99035 ], [ -77.38403, 38.98947 ], [ -77.38431, 38.98912 ], [ -77.38573, 38.98897 ], [ -77.38509, 38.98782 ], [ -77.38587, 38.98529 ], [ -77.3865, 38.98484 ], [ -77.38612, 38.98467 ], [ -77.38579, 38.98523 ], [ -77.38517, 38.98519 ], [ -77.38454, 38.98622 ], [ -77.38401, 38.98625 ], [ -77.38308, 38.98502 ], [ -77.38307, 38.98385 ], [ -77.38447, 38.98357 ], [ -77.38479, 38.98259 ], [ -77.38525, 38.98238 ], [ -77.38602, 38.98285 ], [ -77.38593, 38.98346 ], [ -77.38726, 38.98392 ], [ -77.38829, 38.98222 ], [ -77.38951, 38.98137 ], [ -77.39033, 38.98194 ], [ -77.38943, 38.98283 ], [ -77.3896, 38.98313 ], [ -77.39158, 38.98396 ], [ -77.39273, 38.98182 ], [ -77.39326, 38.98179 ], [ -77.39503, 38.98301 ], [ -77.39695, 38.98321 ], [ -77.39798, 38.98016 ], [ -77.39666, 38.97897 ], [ -77.39733, 38.97841 ], [ -77.39846, 38.97902 ], [ -77.3992, 38.97894 ], [ -77.39929, 38.97823 ], [ -77.40027, 38.97815 ] ], [ [ -77.39318, 38.99063 ], [ -77.39288, 38.99067 ], [ -77.39362, 38.99114 ], [ -77.39318, 38.99063 ] ], [ [ -77.39054, 38.98634 ], [ -77.39015, 38.98624 ], [ -77.38987, 38.98675 ], [ -77.39039, 38.98682 ], [ -77.39054, 38.98634 ] ], [ [ -77.39718, 38.99011 ], [ -77.39726, 38.99061 ], [ -77.39846, 38.99089 ], [ -77.39718, 38.99011 ] ], [ [ -77.39906, 38.98858 ], [ -77.39859, 38.98826 ], [ -77.39785, 38.98916 ], [ -77.39872, 38.98901 ], [ -77.39906, 38.98858 ] ], [ [ -77.39345, 38.98636 ], [ -77.39358, 38.98593 ], [ -77.39336, 38.98619 ], [ -77.39345, 38.98636 ] ], [ [ -77.39265, 38.98628 ], [ -77.39274, 38.98622 ], [ -77.39229, 38.98568 ], [ -77.39265, 38.98628 ] ], [ [ -77.3915, 38.99073 ], [ -77.39039, 38.99041 ], [ -77.39073, 38.99068 ], [ -77.3915, 38.99073 ] ], [ [ -77.38657, 38.98927 ], [ -77.38646, 38.98923 ], [ -77.38654, 38.98933 ], [ -77.38657, 38.98927 ] ], [ [ -77.39114, 38.9936 ], [ -77.39114, 38.99365 ], [ -77.39124, 38.99368 ], [ -77.39114, 38.9936 ] ], [ [ -77.3894, 38.98471 ], [ -77.3895, 38.98449 ], [ -77.38928, 38.98458 ], [ -77.3894, 38.98471 ] ], [ [ -77.38735, 38.98625 ], [ -77.3882, 38.9865 ], [ -77.38864, 38.98623 ], [ -77.38774, 38.98534 ], [ -77.38735, 38.98625 ] ], [ [ -77.38629, 38.99036 ], [ -77.38631, 38.99009 ], [ -77.38597, 38.99018 ], [ -77.38629, 38.99036 ] ], [ [ -77.38917, 38.99113 ], [ -77.38917, 38.99121 ], [ -77.38926, 38.99116 ], [ -77.38917, 38.99113 ] ] ] } },
{ "type": "Feature", "properties": { "variant": "T2s", "miles": 1.5 }, "geometry": { "type": "MultiPolygon", "coordinates": [ [ [ [ -77.40498, 38.97427 ], [ -77.40522, 38.97556 ], [ -77.40611, 38.97633 ], [ -77.40697, 38.9761 ], [ -77.40733, 38.9764 ], [ -77.40774, 38.97763 ], [ -77.40685, 38.97791 ], [ -77.40666, 38.9787 ], [ -77.40429, 38.98078 ], [ -77.40414, 38.98134 ], [ -77.40328, 38.98142 ], [ -77.40311, 38.98229 ], [ -77.40566, 38.98498 ], [ -77.40484, 38.9854 ], [ -77.40437, 38.98514 ], [ -77.40375, 38.98689 ], [ -77.40454, 38.98672 ], [ -77.4042, 38.98583 ], [ -77.40502, 38.98541 ], [ -77.40571, 38.98593 ], [ -77.40592, 38.98672 ], [ -77.40723, 38.98752 ], [ -77.4075, 38.98865 ], [ -77.4068, 38.98918 ], [ -77.40631, 38.98901 ], [ -77.40577, 38.98784 ], [ -77.40457, 38.98802 ], [ -77.40412, 38.98922 ], [ -77.40517, 38.9891 ], [ -77.40593, 38.98958 ], [ -77.40578, 38.98998 ], [ -77.40447, 38.99026 ], [ -77.40455, 38.99093 ], [ -77.40606, 38.99087 ], [ -77.40686, 38.99132 ], [ -77.40628, 38.99193 ], [ -77.40439, 38.992 ], [ -77.40403, 38.99263 ], [ -77.40467, 38.99272 ], [ -77.40479, 38.99348 ], [ -77.40351, 38.99424 ], [ -77.40454, 38.9943 ], [ -77.40514, 38.99299 ], [ -77.40631, 38.99251 ], [ -77.40679, 38.99318 ], [ -77.40594, 38.9944 ], [ -77.40743, 38.99484 ], [ -77.40771, 38.99558 ], [ -77.40592, 38.99589 ], [ -77.40324, 38.99769 ], [ -77.40228, 38.99751 ], [ -77.40093, 38.99807 ], [ -77.40052, 38.9978 ], [ -77.40073, 38.9971 ], [ -77.39973, 38.99792 ], [ -77.39891, 38.99749 ], [ -77.401, 38.99507 ], [ -77.39991, 38.99486 ], [ -77.39921, 38.9954 ], [ -77.39762, 38.99487 ], [ -77.39782, 38.9983 ], [ -77.39718, 38.99888 ], [ -77.39644, 38.99838 ], [ -77.39633, 38.99718 ], [ -77.39526, 38.99739 ], [ -77.39443, 38.99703 ], [ -77.39415, 38.996 ], [ -77.39331, 38.99542 ], [ -77.39379, 38.99498 ], [ -77.39315, 38.99452 ], [ -77.3921, 38.99725 ], [ -77.39282, 38.99745 ], [ -77.39281, 38.99818 ], [ -77.39382, 38.99846 ], [ -77.39369, 38.99921 ], [ -77.38911, 38.9986 ], [ -77.38883, 38.99787 ], [ -77.38924, 38.99761 ], [ -77.39058, 38.99781 ], [ -77.39071, 38.99727 ], [ -77.38941, 38.99657 ], [ -77.3894, 38.99624 ], [ -77.38523, 39.00011 ], [ -77.38079, 39.00068 ], [ -77.38067, 38.99992 ], [ -77.38367, 38.99915 ], [ -77.38363, 38.99819 ], [ -77.38289, 38.99854 ], [ -77.38068, 38.99822 ], [ -77.38064, 38.99898 ], [ -77.37999, 38.99921 ], [ -77.37981, 38.99978 ], [ -77.37883, 38.9998 ], [ -77.3785, 38.9986 ], [ -77.37766, 38.99819 ], [ -77.37813, 38.99751 ], [ -77.37777, 38.99676 ], [ -77.3768, 38.99689 ], [ -77.37612, 38.99635 ], [ -77.37616, 38.99361 ], [ -77.37544, 38.99318 ], [ -77.37601, 38.99256 ], [ -77.37613, 38.99051 ], [ -77.37688, 38.99026 ], [ -77.37756, 38.99081 ], [ -77.37754, 38.99357 ], [ -77.38124, 38.9921 ], [ -77.38213, 38.99049 ], [ -77.38098, 38.98999 ], [ -77.38108, 38.98923 ], [ -77.38318, 38.98943 ], [ -77.38285, 38.98812 ], [ -77.38063, 38.98733 ], [ -77.38007, 38.98679 ], [ -77.38078, 38.98336 ], [ -77.38108, 38.98301 ], [ -77.38368, 38.98268 ], [ -77.38462, 38.98311 ], [ -77.38482, 38.98256 ], [ -77.38685, 38.98182 ], [ -77.3879, 38.98 ], [ -77.38657, 38.98014 ], [ -77.38577, 38.9797 ], [ -77.38589, 38.97929 ], [ -77.38799, 38.97861 ], [ -77.38763, 38.97614 ], [ -77.38932, 38.97603 ], [ -77.38865, 38.97532 ], [ -77.38991, 38.9741 ], [ -77.38917, 38.97338 ], [ -77.38933, 38.97263 ], [ -77.39029, 38.97275 ], [ -77.39854, 38.97896 ], [ -77.3992, 38.97894 ], [ -77.39929, 38.97823 ], [ -77.39976, 38.97803 ], [ -77.40053, 38.97858 ], [ -77.40198, 38.97834 ], [ -77.40288, 38.97879 ], [ -77.40386, 38.9785 ], [ -77.40418, 38.97944 ], [ -77.40458, 38.97904 ], [ -77.40406, 38.97728 ], [ -77.40257, 38.97653 ], [ -77.40257, 38.97612 ], [ -77.40355, 38.9756 ], [ -77.40299, 38.97532 ], [ -77.4022, 38.97571 ], [ -77.40167, 38.97503 ], [ -77.40225, 38.97396 ], [ -77.40274, 38.97381 ], [ -77.40498, 38.97427 ] ], [ [ -77.39362, 38.99114 ], [ -77.39318, 38.99063 ], [ -77.39288, 38.99067 ], [ -77.39362, 38.99114 ] ], [ [ -77.39352, 38.98611 ], [ -77.39324, 38.98621 ], [ -77.39345, 38.98636 ], [ -77.39352, 38.98611 ] ], [ [ -77.39326, 38.98179 ], [ -77.39503, 38.98301 ], [ -77.39695, 38.98321 ], [ -77.39798, 38.98016 ], [ -77.39318, 38.97655 ], [ -77.39289, 38.97667 ], [ -77.39423, 38.97795 ], [ -77.39304, 38.97863 ], [ -77.3932, 38.98002 ], [ -77.39197, 38.98066 ], [ -77.39045, 38.98006 ], [ -77.38964, 38.98102 ], [ -77.38866, 38.98129 ], [ -77.38754, 38.98283 ], [ -77.38593, 38.98346 ], [ -77.38726, 38.98392 ], [ -77.38829, 38.98222 ], [ -77.38951, 38.98137 ], [ -77.39033, 38.98194 ], [ -77.38943, 38.98283 ], [ -77.3896, 38.98313 ], [ -77.39158, 38.98396 ], [ -77.39273, 38.98182 ], [ -77.39326, 38.98179 ] ], [ [ -77.39981, 38.99235 ], [ -77.39988, 38.99196 ], [ -77.39912, 38.99221 ], [ -77.39981, 38.99235 ] ], [ [ -77.3991, 38.99221 ], [ -77.39623, 38.99134 ], [ -77.39496, 38.9914 ], [ -77.39643, 38.9919 ], [ -77.39703, 38.99178 ], [ -77.39812, 38.99257 ], [ -77.3991, 38.99221 ] ], [ [ -77.39846, 38.99089 ], [ -77.39718, 38.99011 ], [ -77.39726, 38.99061 ], [ -77.39846, 38.99089 ] ], [ [ -77.39872, 38.98901 ], [ -77.39906, 38.98858 ], [ -77.39859, 38.98826 ], [ -77.39785, 38.98916 ], [ -77.39872, 38.98901 ] ], [ [ -77.39727, 38.98783 ], [ -77.39892, 38.98615 ], [ -77.39837, 38.98602 ], [ -77.39727, 38.98783 ] ], [ [ -77.40192, 38.98368 ], [ -77.40174, 38.98387 ], [ -77.402, 38.98392 ], [ -77.40192, 38.98368 ] ], [ [ -77.40347, 38.98425 ], [ -77.40358, 38.98431 ], [ -77.40347, 38.98421 ], [ -77.40347, 38.98425 ] ], [ [ -77.40303, 38.9918 ], [ -77.40309, 38.99154 ], [ -77.4028, 38.99159 ], [ -77.40303, 38.9918 ] ], [ [ -77.40211, 38.99159 ], [ -77.40275, 38.98907 ], [ -77.40182, 38.98886 ], [ -77.40194, 38.98766 ], [ -77.40089, 38.98834 ], [ -77.39999, 38.99048 ], [ -77.40104, 38.99132 ], [ -77.40211, 38.99159 ] ], [ [ -77.40178, 38.98514 ], [ -77.40183, 38.98501 ], [ -77.40171, 38.98513 ], [ -77.40178, 38.98514 ] ], [ [ -77.40106, 38.98276 ], [ -77.40108, 38.98263 ], [ -77.40098, 38.98274 ], [ -77.40106, 38.98276 ] ], [ [ -77.39984, 38.98227 ], [ -77.39944, 38.98279 ], [ -77.40001, 38.98273 ], [ -77.39984, 38.98227 ] ], [ [ -77.39973, 38.9871 ], [ -77.39971, 38.98713 ], [ -77.39977, 38.98716 ], [ -77.39973, 38.9871 ] ], [ [ -77.40059, 38.98448 ], [ -77.40059, 38.98449 ], [ -77.4006, 38.98448 ], [ -77.40059, 38.98448 ] ], [ [ -77.39964, 38.98547 ], [ -77.40017, 38.98521 ], [ -77.40023, 38.98498 ], [ -77.39971, 38.98501 ], [ -77.39964, 38.98547 ] ], [ [ -77.39853, 38.99347 ], [ -77.3982, 38.99298 ], [ -77.39784, 38.99333 ], [ -77.39853, 38.99347 ] ], [ [ -77.4009, 38.99387 ], [ -77.40057, 38.99387 ], [ -77.40101, 38.99396 ], [ -77.4009, 38.99387 ] ], [ [ -77.39554, 38.99402 ], [ -77.39581, 38.99403 ], [ -77.39552, 38.99398 ], [ -77.39554, 38.99402 ] ], [ [ -77.39005, 38.99585 ], [ -77.39001, 38.99561 ], [ -77.38977, 38.99586 ], [ -77.39005, 38.99585 ] ], [ [ -77.39084, 38.99473 ], [ -77.39093, 38.99483 ], [ -77.39105, 38.9948 ], [ -77.39084, 38.99473 ] ], [ [ -77.38911, 38.99475 ], [ -77.3881, 38.99471 ], [ -77.38764, 38.99451 ], [ -77.38756, 38.99371 ], [ -77.3867, 38.99375 ], [ -77.38642, 38.9945 ], [ -77.3872, 38.99509 ], [ -77.38588, 38.99704 ], [ -77.38649, 38.9974 ], [ -77.38911, 38.99475 ] ], [ [ -77.38917, 38.99113 ], [ -77.38917, 38.99121 ], [ -77.38926, 38.99116 ], [ -77.38917, 38.99113 ] ], [ [ -77.39073, 38.99068 ], [ -77.3915, 38.99073 ], [ -77.39039, 38.99041 ], [ -77.39073, 38.99068 ] ], [ [ -77.38735, 38.98625 ], [ -77.38864, 38.98623 ], [ -77.38806, 38.98601 ], [ -77.38777, 38.9853 ], [ -77.38735, 38.98625 ] ], [ [ -77.3895, 38.98449 ], [ -77.38928, 38.98458 ], [ -77.3894, 38.98471 ], [ -77.3895, 38.98449 ] ], [ [ -77.38612, 38.98467 ], [ -77.38579, 38.98523 ], [ -77.38517, 38.98519 ], [ -77.38488, 38.98589 ], [ -77.3843, 38.98794 ], [ -77.38447, 38.98904 ], [ -77.38573, 38.98897 ], [ -77.38508, 38.98793 ], [ -77.38587, 38.98529 ], [ -77.3865, 38.98484 ], [ -77.38612, 38.98467 ] ], [ [ -77.39193, 38.99395 ], [ -77.39214, 38.99345 ], [ -77.39129, 38.99369 ], [ -77.39193, 38.99395 ] ], [ [ -77.39243, 38.99281 ], [ -77.3919, 38.99258 ], [ -77.39218, 38.99336 ], [ -77.39228, 38.99308 ], [ -77.39243, 38.99281 ] ], [ [ -77.39037, 38.9869 ], [ -77.39015, 38.98624 ], [ -77.38987, 38.98675 ], [ -77.39037, 38.9869 ] ], [ [ -77.39186, 38.98741 ], [ -77.39173, 38.98713 ], [ -77.39172, 38.98748 ], [ -77.39186, 38.98741 ] ], [ [ -77.39229, 38.98568 ], [ -77.39265, 38.98628 ], [ -77.39274, 38.98622 ], [ -77.39229, 38.98568 ] ], [ [ -77.39114, 38.9936 ], [ -77.39114, 38.99365 ], [ -77.39124, 38.99368 ], [ -77.39114, 38.9936 ] ], [ [ -77.38285, 38.98523 ], [ -77.38303, 38.98479 ], [ -77.38241, 38.98515 ], [ -77.38285, 38.98523 ] ], [ [ -77.38405, 38.99482 ], [ -77.38384, 38.99423 ], [ -77.38231, 38.99445 ], [ -77.38405, 38.99482 ] ], [ [ -77.38654, 38.98933 ], [ -77.38657, 38.98927 ], [ -77.38646, 38.98923 ], [ -77.38654, 38.98933 ] ], [ [ -77.38597, 38.99018 ], [ -77.38629, 38.99036 ], [ -77.38631, 38.99009 ], [ -77.38597, 38.99018 ] ], [ [ -77.38562, 38.99554 ], [ -77.38563, 38.99556 ], [ -77.38573, 38.99554 ], [ -77.38562, 38.99554 ] ], [ [ -77.38212, 38.98673 ], [ -77.38225, 38.98623 ], [ -77.38152, 38.986 ], [ -77.38141, 38.98642 ], [ -77.38212, 38.98673 ] ], [ [ -77.38239, 38.9929 ], [ -77.38233, 38.99282 ], [ -77.3822, 38.99292 ], [ -77.38239, 38.9929 ] ], [ [ -77.38162, 38.99445 ], [ -77.38171, 38.99441 ], [ -77.38162, 38.9943 ], [ -77.38162, 38.99445 ] ], [ [ -77.38024, 38.99426 ], [ -77.37913, 38.9944 ], [ -77.37774, 38.99478 ], [ -77.3781, 38.9951 ], [ -77.38024, 38.99426 ] ] ], [ [ [ -77.37678, 38.98579 ], [ -77.37774, 38.98296 ], [ -77.3787, 38.98312 ], [ -77.37813, 38.98603 ], [ -77.3773, 38.98644 ], [ -77.37678, 38.98579 ] ] ] ] } }
]
}
