{
"type": "FeatureCollection",
"name": "285",
"crs": { "type": "name", "properties": { "name": "urn:ogc:def:crs:OGC:1.3:CRS84" } },
"xy_coordinate_resolution": 1e-05,
"features": [
{ "type": "Feature", "properties": { "variant": "T0", "miles": 0.5 }, "geometry": { "type": "Polygon", "coordinates": [ [ [ -77.41785, 38.94749 ], [ -77.41851, 38.94701 ], [ -77.41938, 38.94736 ], [ -77.41898, 38.94843 ], [ -77.41925, 38.94958 ], [ -77.41861, 38.95113 ], [ -77.41879, 38.95214 ], [ -77.42061, 38.95272 ], [ -77.42166, 38.95351 ], [ -77.42347, 38.95363 ], [ -77.42392, 38.95458 ], [ -77.42351, 38.95484 ], [ -77.42063, 38.95424 ], [ -77.4201, 38.95441 ], [ -77.41815, 38.95313 ], [ -77.417, 38.95412 ], [ -77.41685, 38.95511 ], [ -77.41808, 38.95439 ], [ -77.41858, 38.95451 ], [ -77.41868, 38.95527 ], [ -77.41805, 38.95587 ], [ -77.41885, 38.95638 ], [ -77.41895, 38.95714 ], [ -77.41797, 38.95721 ], [ -77.41718, 38.95671 ], [ -77.41615, 38.95728 ], [ -77.41443, 38.95611 ], [ -77.41556, 38.95473 ], [ -77.41553, 38.95401 ], [ -77.41237, 38.95194 ], [ -77.41185, 38.95121 ], [ -77.41256, 38.95063 ], [ -77.41374, 38.95062 ], [ -77.41616, 38.95164 ], [ -77.41278, 38.94981 ], [ -77.41284, 38.9494 ], [ -77.41424, 38.94887 ], [ -77.41339, 38.94884 ], [ -77.41266, 38.94821 ], [ -77.4128, 38.94746 ], [ -77.41435, 38.94757 ], [ -77.41491, 38.94708 ], [ -77.41542, 38.94719 ], [ -77.41607, 38.94838 ], [ -77.4165, 38.948 ], [ -77.4163, 38.94734 ], [ -77.41713, 38.94665 ], [ -77.41796, 38.94705 ], [ -77.41785, 38.94749 ] ], [ [ -77.41644, 38.95306 ], [ -77.41715, 38.95238 ], [ -77.41714, 38.95224 ], [ -77.41696, 38.95218 ], [ -77.41644, 38.95306 ] ], [ [ -77.4179, 38.9486 ], [ -77.41796, 38.94867 ], [ -77.41807, 38.94856 ], [ -77.4179, 38.9486 ] ] ] } },
{ "type": "Feature", "properties": { "variant": "T0", "miles": 1.0 }, "geometry": { "type": "Polygon", "coordinates": [ [ [ -77.42374, 38.94389 ], [ -77.42405, 38.94456 ], [ -77.42671, 38.94624 ], [ -77.42595, 38.94781 ], [ -77.42606, 38.94879 ], [ -77.42479, 38.94985 ], [ -77.42507, 38.95047 ], [ -77.42674, 38.95149 ], [ -77.42704, 38.95337 ], [ -77.42643, 38.95399 ], [ -77.42444, 38.95331 ], [ -77.42351, 38.95484 ], [ -77.41971, 38.95425 ], [ -77.41805, 38.95587 ], [ -77.42184, 38.95834 ], [ -77.42204, 38.95806 ], [ -77.42099, 38.95739 ], [ -77.42107, 38.95633 ], [ -77.4231, 38.95658 ], [ -77.42371, 38.95594 ], [ -77.42476, 38.95629 ], [ -77.42425, 38.95745 ], [ -77.42488, 38.95877 ], [ -77.42456, 38.9595 ], [ -77.42532, 38.96001 ], [ -77.42526, 38.96042 ], [ -77.42397, 38.96182 ], [ -77.42324, 38.96209 ], [ -77.42163, 38.9611 ], [ -77.42076, 38.96158 ], [ -77.41949, 38.96167 ], [ -77.41646, 38.96101 ], [ -77.41243, 38.95953 ], [ -77.41136, 38.95822 ], [ -77.41143, 38.95641 ], [ -77.41061, 38.9574 ], [ -77.40734, 38.95616 ], [ -77.40757, 38.95564 ], [ -77.40676, 38.9546 ], [ -77.40708, 38.95426 ], [ -77.40541, 38.95324 ], [ -77.40541, 38.95283 ], [ -77.40631, 38.95253 ], [ -77.40723, 38.9529 ], [ -77.40803, 38.95241 ], [ -77.40747, 38.95206 ], [ -77.40548, 38.95239 ], [ -77.40527, 38.95164 ], [ -77.40588, 38.95138 ], [ -77.40512, 38.95122 ], [ -77.40484, 38.95068 ], [ -77.40515, 38.95016 ], [ -77.40599, 38.95014 ], [ -77.40517, 38.94957 ], [ -77.40519, 38.94916 ], [ -77.40671, 38.94846 ], [ -77.40505, 38.94708 ], [ -77.40556, 38.94523 ], [ -77.40526, 38.94456 ], [ -77.40576, 38.94361 ], [ -77.40628, 38.94355 ], [ -77.40702, 38.94419 ], [ -77.40857, 38.94378 ], [ -77.40905, 38.94445 ], [ -77.40805, 38.94494 ], [ -77.40968, 38.94598 ], [ -77.41076, 38.94505 ], [ -77.41154, 38.94288 ], [ -77.41307, 38.94317 ], [ -77.41333, 38.94169 ], [ -77.41675, 38.9413 ], [ -77.42188, 38.94293 ], [ -77.42295, 38.94391 ], [ -77.42374, 38.94389 ] ], [ [ -77.41636, 38.9598 ], [ -77.41739, 38.95829 ], [ -77.41616, 38.95973 ], [ -77.41636, 38.9598 ] ], [ [ -77.41737, 38.95683 ], [ -77.41617, 38.95728 ], [ -77.41516, 38.95678 ], [ -77.414, 38.95713 ], [ -77.41282, 38.95702 ], [ -77.41285, 38.95787 ], [ -77.41344, 38.95861 ], [ -77.4149, 38.95929 ], [ -77.41583, 38.95793 ], [ -77.41737, 38.95683 ] ], [ [ -77.41703, 38.9544 ], [ -77.41738, 38.95413 ], [ -77.41825, 38.95319 ], [ -77.417, 38.95412 ], [ -77.41703, 38.9544 ] ], [ [ -77.41644, 38.95306 ], [ -77.41715, 38.95238 ], [ -77.41714, 38.95224 ], [ -77.41696, 38.95218 ], [ -77.41644, 38.95306 ] ], [ [ -77.4147, 38.94344 ], [ -77.41694, 38.94361 ], [ -77.41787, 38.94432 ], [ -77.41828, 38.94524 ], [ -77.41709, 38.94646 ], [ -77.41778, 38.94677 ], [ -77.41874, 38.94644 ], [ -77.42051, 38.94725 ], [ -77.42206, 38.94473 ], [ -77.41726, 38.94243 ], [ -77.41478, 38.94259 ], [ -77.4147, 38.94344 ] ], [ [ -77.42055, 38.95261 ], [ -77.42113, 38.95186 ], [ -77.41893, 38.95087 ], [ -77.41879, 38.95214 ], [ -77.4198, 38.95268 ], [ -77.42055, 38.95261 ] ], [ [ -77.42461, 38.9517 ], [ -77.42091, 38.94958 ], [ -77.41931, 38.94978 ], [ -77.42437, 38.95203 ], [ -77.42461, 38.9517 ] ], [ [ -77.42377, 38.94666 ], [ -77.42333, 38.94549 ], [ -77.42275, 38.94611 ], [ -77.42311, 38.94683 ], [ -77.42377, 38.94666 ] ], [ [ -77.42031, 38.9605 ], [ -77.42089, 38.95973 ], [ -77.41985, 38.95968 ], [ -77.41943, 38.96055 ], [ -77.42031, 38.9605 ] ], [ [ -77.42115, 38.95927 ], [ -77.42117, 38.95935 ], [ -77.42121, 38.9593 ], [ -77.42115, 38.95927 ] ], [ [ -77.41809, 38.96026 ], [ -77.4186, 38.9592 ], [ -77.41842, 38.95913 ], [ -77.41767, 38.96017 ], [ -77.41809, 38.96026 ] ], [ [ -77.4184, 38.95755 ], [ -77.4185, 38.95761 ], [ -77.41841, 38.95754 ], [ -77.4184, 38.95755 ] ], [ [ -77.41161, 38.95513 ], [ -77.41151, 38.9549 ], [ -77.41142, 38.95477 ], [ -77.41161, 38.95513 ] ], [ [ -77.41207, 38.95328 ], [ -77.41302, 38.95236 ], [ -77.41266, 38.95214 ], [ -77.41205, 38.9527 ], [ -77.41207, 38.95328 ] ], [ [ -77.4114, 38.94952 ], [ -77.41211, 38.9484 ], [ -77.41099, 38.94815 ], [ -77.41099, 38.94867 ], [ -77.41021, 38.94904 ], [ -77.4114, 38.94952 ] ], [ [ -77.40838, 38.94678 ], [ -77.40822, 38.94667 ], [ -77.40826, 38.94683 ], [ -77.40838, 38.94678 ] ], [ [ -77.41552, 38.95479 ], [ -77.41538, 38.95384 ], [ -77.41452, 38.95315 ], [ -77.41387, 38.95321 ], [ -77.41281, 38.95425 ], [ -77.41316, 38.95598 ], [ -77.41431, 38.95592 ], [ -77.41552, 38.95479 ] ], [ [ -77.4125, 38.95052 ], [ -77.41616, 38.95164 ], [ -77.41296, 38.94999 ], [ -77.4125, 38.95052 ] ], [ [ -77.41416, 38.94891 ], [ -77.41362, 38.94891 ], [ -77.4135, 38.94917 ], [ -77.41352, 38.94917 ], [ -77.41416, 38.94891 ] ], [ [ -77.41152, 38.94646 ], [ -77.41142, 38.94667 ], [ -77.41161, 38.94674 ], [ -77.41152, 38.94646 ] ], [ [ -77.40912, 38.95149 ], [ -77.41035, 38.95046 ], [ -77.40895, 38.94965 ], [ -77.40674, 38.95029 ], [ -77.40912, 38.95149 ] ], [ [ -77.40999, 38.95414 ], [ -77.40945, 38.95422 ], [ -77.41008, 38.95447 ], [ -77.40999, 38.95414 ] ], [ [ -77.40751, 38.94623 ], [ -77.40685, 38.94612 ], [ -77.4069, 38.9466 ], [ -77.40751, 38.94623 ] ] ] } },
{ "type": "Feature", "properties": { "variant": "T0", "miles": 1.5 }, "geometry": { "type": "Polygon", "coordinates": [ [ [ -77.42845, 38.94026 ], [ -77.42937, 38.94082 ], [ -77.42903, 38.94138 ], [ -77.42936, 38.94253 ], [ -77.42895, 38.94508 ], [ -77.42801, 38.94528 ], [ -77.42682, 38.94338 ], [ -77.42416, 38.94447 ], [ -77.43076, 38.94816 ], [ -77.43017, 38.94892 ], [ -77.42637, 38.94719 ], [ -77.42595, 38.94781 ], [ -77.42616, 38.94854 ], [ -77.42575, 38.94925 ], [ -77.4281, 38.95015 ], [ -77.42827, 38.95055 ], [ -77.42793, 38.95137 ], [ -77.42703, 38.95201 ], [ -77.42713, 38.95308 ], [ -77.42812, 38.9523 ], [ -77.42872, 38.95291 ], [ -77.42799, 38.95608 ], [ -77.42702, 38.95598 ], [ -77.4271, 38.95417 ], [ -77.42655, 38.95411 ], [ -77.42511, 38.95621 ], [ -77.42589, 38.95672 ], [ -77.42577, 38.95726 ], [ -77.42536, 38.95754 ], [ -77.42425, 38.95745 ], [ -77.42488, 38.95877 ], [ -77.42471, 38.95929 ], [ -77.42583, 38.95815 ], [ -77.42635, 38.95805 ], [ -77.42694, 38.95866 ], [ -77.42375, 38.96198 ], [ -77.42285, 38.962 ], [ -77.42163, 38.9611 ], [ -77.42028, 38.96168 ], [ -77.4184, 38.96146 ], [ -77.41288, 38.95978 ], [ -77.41138, 38.95829 ], [ -77.41143, 38.95641 ], [ -77.41101, 38.95713 ], [ -77.41008, 38.95736 ], [ -77.40618, 38.95585 ], [ -77.40296, 38.95915 ], [ -77.40324, 38.9596 ], [ -77.40276, 38.96014 ], [ -77.402, 38.96006 ], [ -77.39982, 38.95877 ], [ -77.39956, 38.95842 ], [ -77.40016, 38.95781 ], [ -77.40177, 38.95835 ], [ -77.4052, 38.95485 ], [ -77.4048, 38.95436 ], [ -77.40287, 38.95501 ], [ -77.40156, 38.95493 ], [ -77.40124, 38.9546 ], [ -77.4017, 38.95396 ], [ -77.40053, 38.95337 ], [ -77.3991, 38.9534 ], [ -77.3989, 38.95302 ], [ -77.40031, 38.95205 ], [ -77.39634, 38.94964 ], [ -77.39657, 38.9489 ], [ -77.39744, 38.94843 ], [ -77.39845, 38.94861 ], [ -77.39845, 38.94803 ], [ -77.3993, 38.94715 ], [ -77.40016, 38.94703 ], [ -77.3986, 38.94562 ], [ -77.39819, 38.94465 ], [ -77.40105, 38.94329 ], [ -77.40123, 38.94276 ], [ -77.40229, 38.94291 ], [ -77.40847, 38.9411 ], [ -77.41021, 38.94093 ], [ -77.41048, 38.94039 ], [ -77.41101, 38.94033 ], [ -77.41196, 38.94119 ], [ -77.41311, 38.94142 ], [ -77.41239, 38.93748 ], [ -77.40997, 38.93645 ], [ -77.41076, 38.93462 ], [ -77.41173, 38.93473 ], [ -77.41161, 38.93609 ], [ -77.41236, 38.93632 ], [ -77.41301, 38.93398 ], [ -77.41419, 38.93406 ], [ -77.41403, 38.9361 ], [ -77.41728, 38.93749 ], [ -77.41781, 38.93852 ], [ -77.41896, 38.93852 ], [ -77.41965, 38.93906 ], [ -77.41895, 38.9396 ], [ -77.41677, 38.9396 ], [ -77.41677, 38.93987 ], [ -77.41799, 38.94003 ], [ -77.41819, 38.94154 ], [ -77.42127, 38.94298 ], [ -77.4222, 38.94265 ], [ -77.42392, 38.94327 ], [ -77.42542, 38.94276 ], [ -77.42501, 38.94122 ], [ -77.42602, 38.9404 ], [ -77.42707, 38.94031 ], [ -77.42701, 38.93862 ], [ -77.42765, 38.93804 ], [ -77.42839, 38.93855 ], [ -77.42845, 38.94026 ] ], [ [ -77.41474, 38.95923 ], [ -77.41737, 38.95683 ], [ -77.41718, 38.95671 ], [ -77.41617, 38.95728 ], [ -77.41516, 38.95678 ], [ -77.414, 38.95713 ], [ -77.41282, 38.95702 ], [ -77.4131, 38.95829 ], [ -77.41474, 38.95923 ] ], [ [ -77.41542, 38.95492 ], [ -77.41553, 38.95401 ], [ -77.41423, 38.95306 ], [ -77.41281, 38.95425 ], [ -77.41316, 38.95598 ], [ -77.41423, 38.95596 ], [ -77.41542, 38.95492 ] ], [ [ -77.4125, 38.95052 ], [ -77.41616, 38.95164 ], [ -77.41296, 38.94999 ], [ -77.4125, 38.95052 ] ], [ [ -77.41362, 38.94891 ], [ -77.41356, 38.94914 ], [ -77.41424, 38.94887 ], [ -77.41362, 38.94891 ] ], [ [ -77.40968, 38.94598 ], [ -77.41066, 38.94467 ], [ -77.40963, 38.94542 ], [ -77.4088, 38.94543 ], [ -77.40968, 38.94598 ] ], [ [ -77.4113, 38.94393 ], [ -77.41124, 38.94341 ], [ -77.41126, 38.94328 ], [ -77.41083, 38.94373 ], [ -77.4113, 38.94393 ] ], [ [ -77.42191, 38.95825 ], [ -77.42028, 38.95648 ], [ -77.42019, 38.9549 ], [ -77.42086, 38.95441 ], [ -77.41971, 38.95425 ], [ -77.41805, 38.95587 ], [ -77.42191, 38.95825 ] ], [ [ -77.42191, 38.95523 ], [ -77.42292, 38.95478 ], [ -77.42363, 38.95583 ], [ -77.42511, 38.95361 ], [ -77.42444, 38.95331 ], [ -77.42351, 38.95484 ], [ -77.42148, 38.95458 ], [ -77.42191, 38.95523 ] ], [ [ -77.42055, 38.95261 ], [ -77.42113, 38.95186 ], [ -77.41893, 38.95087 ], [ -77.41861, 38.95113 ], [ -77.41879, 38.95214 ], [ -77.4198, 38.95268 ], [ -77.42055, 38.95261 ] ], [ [ -77.42461, 38.9517 ], [ -77.42091, 38.94958 ], [ -77.41931, 38.94978 ], [ -77.42437, 38.95203 ], [ -77.42461, 38.9517 ] ], [ [ -77.4174, 38.94383 ], [ -77.41828, 38.94524 ], [ -77.41709, 38.94646 ], [ -77.41778, 38.94677 ], [ -77.41874, 38.94644 ], [ -77.42051, 38.94725 ], [ -77.42206, 38.94473 ], [ -77.41752, 38.94249 ], [ -77.41478, 38.94259 ], [ -77.41467, 38.94343 ], [ -77.4157, 38.94335 ], [ -77.4174, 38.94383 ] ], [ [ -77.41502, 38.94149 ], [ -77.41547, 38.94141 ], [ -77.41544, 38.94095 ], [ -77.41465, 38.94094 ], [ -77.41502, 38.94149 ] ], [ [ -77.42377, 38.94666 ], [ -77.42333, 38.94549 ], [ -77.42275, 38.94611 ], [ -77.42311, 38.94683 ], [ -77.42377, 38.94666 ] ], [ [ -77.42565, 38.95049 ], [ -77.42502, 38.95021 ], [ -77.42542, 38.95062 ], [ -77.42565, 38.95049 ] ], [ [ -77.41629, 38.93852 ], [ -77.41547, 38.93786 ], [ -77.41401, 38.93774 ], [ -77.4142, 38.93861 ], [ -77.41629, 38.93852 ] ], [ [ -77.41636, 38.9598 ], [ -77.41739, 38.95829 ], [ -77.41616, 38.95973 ], [ -77.41636, 38.9598 ] ], [ [ -77.41703, 38.9544 ], [ -77.41776, 38.95376 ], [ -77.41825, 38.95319 ], [ -77.417, 38.95412 ], [ -77.41703, 38.9544 ] ], [ [ -77.41644, 38.95306 ], [ -77.41696, 38.95218 ], [ -77.41639, 38.9531 ], [ -77.41644, 38.95306 ] ], [ [ -77.42121, 38.9593 ], [ -77.42115, 38.95927 ], [ -77.42117, 38.95935 ], [ -77.42121, 38.9593 ] ], [ [ -77.42089, 38.95973 ], [ -77.41967, 38.95996 ], [ -77.41943, 38.96055 ], [ -77.42025, 38.96053 ], [ -77.42089, 38.95973 ] ], [ [ -77.41809, 38.96026 ], [ -77.4186, 38.9592 ], [ -77.41842, 38.95913 ], [ -77.41767, 38.96017 ], [ -77.41809, 38.96026 ] ], [ [ -77.4184, 38.95755 ], [ -77.4185, 38.95761 ], [ -77.41841, 38.95754 ], [ -77.4184, 38.95755 ] ], [ [ -77.41441, 38.93968 ], [ -77.41445, 38.93993 ], [ -77.41539, 38.93987 ], [ -77.41539, 38.9396 ], [ -77.41441, 38.93968 ] ], [ [ -77.41188, 38.94244 ], [ -77.41131, 38.94309 ], [ -77.41129, 38.94317 ], [ -77.41188, 38.94244 ] ], [ [ -77.40511, 38.94685 ], [ -77.40554, 38.94518 ], [ -77.40374, 38.94694 ], [ -77.40255, 38.94728 ], [ -77.40349, 38.94803 ], [ -77.40374, 38.94737 ], [ -77.40511, 38.94685 ] ], [ [ -77.40508, 38.944 ], [ -77.40502, 38.9434 ], [ -77.40497, 38.94341 ], [ -77.40508, 38.944 ] ], [ [ -77.41138, 38.955 ], [ -77.41155, 38.95499 ], [ -77.41142, 38.95477 ], [ -77.41138, 38.955 ] ], [ [ -77.41035, 38.95046 ], [ -77.40857, 38.94964 ], [ -77.40674, 38.95029 ], [ -77.40912, 38.95149 ], [ -77.41035, 38.95046 ] ], [ [ -77.41127, 38.94965 ], [ -77.41211, 38.9484 ], [ -77.41099, 38.94815 ], [ -77.41099, 38.94867 ], [ -77.41021, 38.94904 ], [ -77.41127, 38.94965 ] ], [ [ -77.41134, 38.94663 ], [ -77.41156, 38.94666 ], [ -77.41152, 38.94646 ], [ -77.41134, 38.94663 ] ], [ [ -77.41302, 38.95236 ], [ -77.41205, 38.9527 ], [ -77.41194, 38.95339 ], [ -77.41302, 38.95236 ] ], [ [ -77.40999, 38.95414 ], [ -77.40945, 38.95422 ], [ -77.41008, 38.95447 ], [ -77.40999, 38.95414 ] ], [ [ -77.40284, 38.95302 ], [ -77.40369, 38.95251 ], [ -77.40339, 38.95191 ], [ -77.40171, 38.95224 ], [ -77.40152, 38.95258 ], [ -77.40284, 38.95302 ] ], [ [ -77.40511, 38.95186 ], [ -77.4049, 38.95197 ], [ -77.40514, 38.95194 ], [ -77.40511, 38.95186 ] ], [ [ -77.40662, 38.95242 ], [ -77.40654, 38.9526 ], [ -77.4068, 38.9527 ], [ -77.40662, 38.95242 ] ], [ [ -77.40097, 38.94551 ], [ -77.40074, 38.9458 ], [ -77.40104, 38.94557 ], [ -77.40097, 38.94551 ] ] ] } },
{ "type": "Feature", "properties": { "variant": "T2s", "miles": 0.5 }, "geometry": { "type": "Polygon", "coordinates": [ [ [ -77.41785, 38.94749 ], [ -77.41851, 38.94701 ], [ -77.41938, 38.94736 ], [ -77.41898, 38.94843 ], [ -77.41925, 38.94958 ], [ -77.41861, 38.95113 ], [ -77.41879, 38.95214 ], [ -77.42061, 38.95272 ], [ -77.42166, 38.95351 ], [ -77.42347, 38.95363 ], [ -77.42392, 38.95458 ], [ -77.42351, 38.95484 ], [ -77.42063, 38.95424 ], [ -77.4201, 38.95441 ], [ -77.41815, 38.95313 ], [ -77.417, 38.95412 ], [ -77.41685, 38.95511 ], [ -77.41808, 38.95439 ], [ -77.41858, 38.95451 ], [ -77.41868, 38.95527 ], [ -77.41805, 38.95587 ], [ -77.41885, 38.95638 ], [ -77.41895, 38.95714 ], [ -77.41797, 38.95721 ], [ -77.41718, 38.95671 ], [ -77.41615, 38.95728 ], [ -77.41443, 38.95611 ], [ -77.41556, 38.95473 ], [ -77.41553, 38.95401 ], [ -77.41237, 38.95194 ], [ -77.41185, 38.95121 ], [ -77.41256, 38.95063 ], [ -77.41374, 38.95062 ], [ -77.41616, 38.95164 ], [ -77.41278, 38.94981 ], [ -77.41284, 38.9494 ], [ -77.41424, 38.94887 ], [ -77.41339, 38.94884 ], [ -77.41266, 38.94821 ], [ -77.4128, 38.94746 ], [ -77.41435, 38.94757 ], [ -77.41491, 38.94708 ], [ -77.41542, 38.94719 ], [ -77.41607, 38.94838 ], [ -77.4165, 38.948 ], [ -77.4163, 38.94734 ], [ -77.41713, 38.94665 ], [ -77.41796, 38.94705 ], [ -77.41785, 38.94749 ] ], [ [ -77.41644, 38.95306 ], [ -77.41715, 38.95238 ], [ -77.41714, 38.95224 ], [ -77.41696, 38.95218 ], [ -77.41644, 38.95306 ] ], [ [ -77.4179, 38.9486 ], [ -77.41796, 38.94867 ], [ -77.41807, 38.94856 ], [ -77.4179, 38.9486 ] ] ] } },
{ "type": "Feature", "properties": { "variant": "T2s", "miles": 1.0 }, "geometry": { "type": "Polygon", "coordinates": [ [ [ -77.42474, 38.9522 ], [ -77.42523, 38.95304 ], [ -77.42444, 38.95326 ], [ -77.42351, 38.95484 ], [ -77.41971, 38.95425 ], [ -77.41805, 38.95587 ], [ -77.42184, 38.95834 ], [ -77.42204, 38.95806 ], [ -77.42099, 38.95739 ], [ -77.42107, 38.95633 ], [ -77.4231, 38.95658 ], [ -77.42371, 38.95594 ], [ -77.42476, 38.95629 ], [ -77.42425, 38.95745 ], [ -77.42488, 38.95877 ], [ -77.42456, 38.9595 ], [ -77.42532, 38.96001 ], [ -77.42526, 38.96042 ], [ -77.42397, 38.96182 ], [ -77.42316, 38.96208 ], [ -77.42163, 38.9611 ], [ -77.42076, 38.96158 ], [ -77.41949, 38.96167 ], [ -77.41612, 38.9609 ], [ -77.41263, 38.95948 ], [ -77.41142, 38.95785 ], [ -77.41183, 38.95553 ], [ -77.41155, 38.9547 ], [ -77.41072, 38.95578 ], [ -77.40985, 38.95542 ], [ -77.40999, 38.95414 ], [ -77.4078, 38.95518 ], [ -77.40685, 38.955 ], [ -77.40708, 38.95426 ], [ -77.40655, 38.9536 ], [ -77.40803, 38.95241 ], [ -77.40747, 38.95206 ], [ -77.40651, 38.95228 ], [ -77.4064, 38.95134 ], [ -77.40495, 38.95091 ], [ -77.40485, 38.9505 ], [ -77.40515, 38.95016 ], [ -77.40632, 38.95018 ], [ -77.40912, 38.95149 ], [ -77.41141, 38.94985 ], [ -77.41253, 38.94782 ], [ -77.41339, 38.94269 ], [ -77.41313, 38.94208 ], [ -77.41406, 38.94154 ], [ -77.41475, 38.94205 ], [ -77.41467, 38.94343 ], [ -77.41694, 38.94361 ], [ -77.41787, 38.94432 ], [ -77.41828, 38.94524 ], [ -77.41709, 38.94646 ], [ -77.41778, 38.94677 ], [ -77.41874, 38.94644 ], [ -77.42158, 38.94803 ], [ -77.42182, 38.94915 ], [ -77.42031, 38.94978 ], [ -77.41931, 38.94978 ], [ -77.42474, 38.9522 ] ], [ [ -77.41812, 38.96017 ], [ -77.4186, 38.9592 ], [ -77.41842, 38.95913 ], [ -77.41767, 38.96017 ], [ -77.41812, 38.96017 ] ], [ [ -77.41636, 38.9598 ], [ -77.41739, 38.95829 ], [ -77.41616, 38.95973 ], [ -77.41636, 38.9598 ] ], [ [ -77.41737, 38.95683 ], [ -77.41617, 38.95728 ], [ -77.41516, 38.95678 ], [ -77.414, 38.95713 ], [ -77.41282, 38.95702 ], [ -77.41285, 38.95787 ], [ -77.41344, 38.95861 ], [ -77.4149, 38.95929 ], [ -77.41583, 38.95793 ], [ -77.41737, 38.95683 ] ], [ [ -77.41703, 38.9544 ], [ -77.41738, 38.95413 ], [ -77.41825, 38.95319 ], [ -77.417, 38.95412 ], [ -77.41703, 38.9544 ] ], [ [ -77.41644, 38.95306 ], [ -77.41715, 38.95238 ], [ -77.41714, 38.95224 ], [ -77.41696, 38.95218 ], [ -77.41644, 38.95306 ] ], [ [ -77.41888, 38.95219 ], [ -77.42038, 38.95266 ], [ -77.42113, 38.95186 ], [ -77.41893, 38.95087 ], [ -77.41861, 38.95113 ], [ -77.41888, 38.95219 ] ], [ [ -77.41841, 38.95754 ], [ -77.41848, 38.95762 ], [ -77.4185, 38.95761 ], [ -77.41841, 38.95754 ] ], [ [ -77.42115, 38.95927 ], [ -77.42117, 38.95935 ], [ -77.42121, 38.9593 ], [ -77.42115, 38.95927 ] ], [ [ -77.42045, 38.96036 ], [ -77.42089, 38.95973 ], [ -77.41985, 38.95968 ], [ -77.41943, 38.96055 ], [ -77.42045, 38.96036 ] ], [ [ -77.41389, 38.95064 ], [ -77.41616, 38.95164 ], [ -77.41296, 38.94999 ], [ -77.4125, 38.95052 ], [ -77.41389, 38.95064 ] ], [ [ -77.41356, 38.94914 ], [ -77.41416, 38.94891 ], [ -77.41424, 38.94887 ], [ -77.41362, 38.94891 ], [ -77.41356, 38.94914 ] ], [ [ -77.41547, 38.95486 ], [ -77.41553, 38.95401 ], [ -77.41423, 38.95306 ], [ -77.41281, 38.95425 ], [ -77.41316, 38.95598 ], [ -77.41431, 38.95592 ], [ -77.41547, 38.95486 ] ], [ [ -77.4119, 38.95336 ], [ -77.41302, 38.95236 ], [ -77.41266, 38.95214 ], [ -77.4119, 38.95336 ] ] ] } },
{ "type": "Feature", "properties": { "variant": "T2s", "miles": 1.5 }, "geometry": { "type": "Polygon", "coordinates": [ [ [ -77.42186, 38.94266 ], [ -77.42397, 38.94332 ], [ -77.42333, 38.94405 ], [ -77.42399, 38.9446 ], [ -77.42337, 38.9453 ], [ -77.41738, 38.94246 ], [ -77.41478, 38.94259 ], [ -77.41467, 38.94343 ], [ -77.41694, 38.94361 ], [ -77.41787, 38.94432 ], [ -77.41828, 38.94524 ], [ -77.41709, 38.94646 ], [ -77.41778, 38.94677 ], [ -77.41874, 38.94644 ], [ -77.42158, 38.94803 ], [ -77.42182, 38.94915 ], [ -77.42031, 38.94978 ], [ -77.41931, 38.94978 ], [ -77.41958, 38.94992 ], [ -77.42437, 38.95203 ], [ -77.42461, 38.9517 ], [ -77.42348, 38.95098 ], [ -77.42405, 38.95022 ], [ -77.42542, 38.95062 ], [ -77.4268, 38.94997 ], [ -77.4281, 38.95015 ], [ -77.42806, 38.95117 ], [ -77.42703, 38.95201 ], [ -77.42713, 38.95308 ], [ -77.42812, 38.9523 ], [ -77.42872, 38.95291 ], [ -77.42825, 38.95572 ], [ -77.42748, 38.95619 ], [ -77.42702, 38.95598 ], [ -77.4271, 38.95417 ], [ -77.42655, 38.95411 ], [ -77.42511, 38.95621 ], [ -77.42589, 38.95672 ], [ -77.42577, 38.95726 ], [ -77.42536, 38.95754 ], [ -77.42425, 38.95745 ], [ -77.42488, 38.95877 ], [ -77.42471, 38.95929 ], [ -77.42583, 38.95815 ], [ -77.42635, 38.95805 ], [ -77.42694, 38.95866 ], [ -77.42397, 38.96182 ], [ -77.42285, 38.962 ], [ -77.42163, 38.9611 ], [ -77.41978, 38.9617 ], [ -77.4161, 38.96089 ], [ -77.41212, 38.95929 ], [ -77.41128, 38.95793 ], [ -77.41143, 38.95641 ], [ -77.41101, 38.95713 ], [ -77.41008, 38.95736 ], [ -77.40618, 38.95585 ], [ -77.40296, 38.95915 ], [ -77.40306, 38.95999 ], [ -77.40244, 38.96017 ], [ -77.40135, 38.95967 ], [ -77.40017, 38.95857 ], [ -77.4003, 38.95817 ], [ -77.40076, 38.95796 ], [ -77.40177, 38.95835 ], [ -77.4052, 38.95485 ], [ -77.4048, 38.95436 ], [ -77.40287, 38.95501 ], [ -77.40168, 38.95498 ], [ -77.40124, 38.9546 ], [ -77.4017, 38.95396 ], [ -77.40053, 38.95337 ], [ -77.3991, 38.9534 ], [ -77.39911, 38.95264 ], [ -77.40031, 38.95205 ], [ -77.39858, 38.95113 ], [ -77.39838, 38.95057 ], [ -77.39717, 38.94983 ], [ -77.39705, 38.94908 ], [ -77.39845, 38.94861 ], [ -77.39845, 38.94803 ], [ -77.3993, 38.94715 ], [ -77.40016, 38.94703 ], [ -77.39881, 38.94575 ], [ -77.39948, 38.94507 ], [ -77.40074, 38.9458 ], [ -77.40137, 38.94503 ], [ -77.40352, 38.94452 ], [ -77.40447, 38.94498 ], [ -77.40496, 38.9458 ], [ -77.40374, 38.94694 ], [ -77.40255, 38.94728 ], [ -77.40349, 38.94803 ], [ -77.40374, 38.94737 ], [ -77.40518, 38.94688 ], [ -77.40526, 38.94573 ], [ -77.40609, 38.94477 ], [ -77.40473, 38.94276 ], [ -77.40511, 38.94207 ], [ -77.41021, 38.94093 ], [ -77.41048, 38.94039 ], [ -77.41101, 38.94033 ], [ -77.41196, 38.94119 ], [ -77.41311, 38.94142 ], [ -77.41239, 38.93748 ], [ -77.41032, 38.9368 ], [ -77.41003, 38.93607 ], [ -77.41097, 38.93584 ], [ -77.41236, 38.93632 ], [ -77.41301, 38.93398 ], [ -77.41419, 38.93406 ], [ -77.41403, 38.9361 ], [ -77.41728, 38.93749 ], [ -77.41781, 38.93852 ], [ -77.41945, 38.93868 ], [ -77.41944, 38.93944 ], [ -77.41677, 38.9396 ], [ -77.41677, 38.93987 ], [ -77.41799, 38.94003 ], [ -77.41819, 38.94154 ], [ -77.42127, 38.94298 ], [ -77.42186, 38.94266 ] ], [ [ -77.41474, 38.95923 ], [ -77.41737, 38.95683 ], [ -77.41718, 38.95671 ], [ -77.41617, 38.95728 ], [ -77.41516, 38.95678 ], [ -77.414, 38.95713 ], [ -77.41282, 38.95702 ], [ -77.4131, 38.95829 ], [ -77.41474, 38.95923 ] ], [ [ -77.41542, 38.95492 ], [ -77.41553, 38.95401 ], [ -77.41423, 38.95306 ], [ -77.41281, 38.95425 ], [ -77.41316, 38.95598 ], [ -77.41423, 38.95596 ], [ -77.41542, 38.95492 ] ], [ [ -77.41374, 38.95062 ], [ -77.41559, 38.95155 ], [ -77.41616, 38.95164 ], [ -77.41296, 38.94999 ], [ -77.4125, 38.95052 ], [ -77.41374, 38.95062 ] ], [ [ -77.41362, 38.94891 ], [ -77.41356, 38.94914 ], [ -77.41424, 38.94887 ], [ -77.41362, 38.94891 ] ], [ [ -77.41152, 38.94646 ], [ -77.41142, 38.94667 ], [ -77.41161, 38.94674 ], [ -77.41152, 38.94646 ] ], [ [ -77.40977, 38.94589 ], [ -77.41076, 38.94505 ], [ -77.41066, 38.94467 ], [ -77.40963, 38.94542 ], [ -77.40805, 38.94494 ], [ -77.40977, 38.94589 ] ], [ [ -77.4113, 38.94393 ], [ -77.41124, 38.94341 ], [ -77.41126, 38.94328 ], [ -77.41083, 38.94373 ], [ -77.4113, 38.94393 ] ], [ [ -77.41502, 38.94149 ], [ -77.41547, 38.94141 ], [ -77.41544, 38.94095 ], [ -77.41465, 38.94094 ], [ -77.41502, 38.94149 ] ], [ [ -77.41445, 38.93993 ], [ -77.41539, 38.9396 ], [ -77.41441, 38.93968 ], [ -77.41445, 38.93993 ] ], [ [ -77.41629, 38.93852 ], [ -77.41547, 38.93786 ], [ -77.41401, 38.93774 ], [ -77.4142, 38.93861 ], [ -77.41629, 38.93852 ] ], [ [ -77.41812, 38.96017 ], [ -77.4186, 38.9592 ], [ -77.41842, 38.95913 ], [ -77.41767, 38.96017 ], [ -77.41812, 38.96017 ] ], [ [ -77.4185, 38.95761 ], [ -77.4184, 38.95755 ], [ -77.41848, 38.95762 ], [ -77.4185, 38.95761 ] ], [ [ -77.41805, 38.95587 ], [ -77.42184, 38.95834 ], [ -77.42204, 38.95806 ], [ -77.4212, 38.95777 ], [ -77.42028, 38.95648 ], [ -77.42019, 38.9549 ], [ -77.42086, 38.95441 ], [ -77.42063, 38.95424 ], [ -77.41971, 38.95425 ], [ -77.41805, 38.95587 ] ], [ [ -77.41703, 38.9544 ], [ -77.41815, 38.95313 ], [ -77.417, 38.95412 ], [ -77.41703, 38.9544 ] ], [ [ -77.41888, 38.95219 ], [ -77.42038, 38.95266 ], [ -77.42113, 38.95186 ], [ -77.41893, 38.95087 ], [ -77.41861, 38.95113 ], [ -77.41888, 38.95219 ] ], [ [ -77.42363, 38.95583 ], [ -77.42511, 38.95361 ], [ -77.42444, 38.95331 ], [ -77.42351, 38.95484 ], [ -77.42148, 38.95458 ], [ -77.42184, 38.95542 ], [ -77.42222, 38.95488 ], [ -77.42314, 38.95487 ], [ -77.42363, 38.95583 ] ], [ [ -77.42041, 38.96041 ], [ -77.42089, 38.95973 ], [ -77.41985, 38.95968 ], [ -77.41943, 38.96055 ], [ -77.42041, 38.96041 ] ], [ [ -77.42115, 38.95927 ], [ -77.42117, 38.95935 ], [ -77.42121, 38.9593 ], [ -77.42115, 38.95927 ] ], [ [ -77.41644, 38.95306 ], [ -77.41696, 38.95218 ], [ -77.41639, 38.9531 ], [ -77.41644, 38.95306 ] ], [ [ -77.41636, 38.9598 ], [ -77.41739, 38.95829 ], [ -77.41616, 38.95973 ], [ -77.41636, 38.9598 ] ], [ [ -77.41171, 38.94239 ], [ -77.41129, 38.94317 ], [ -77.41188, 38.94244 ], [ -77.41171, 38.94239 ] ], [ [ -77.40511, 38.95186 ], [ -77.4049, 38.95197 ], [ -77.40514, 38.95194 ], [ -77.40511, 38.95186 ] ], [ [ -77.41008, 38.95447 ], [ -77.40999, 38.95414 ], [ -77.40945, 38.95422 ], [ -77.41008, 38.95447 ] ], [ [ -77.41035, 38.95046 ], [ -77.40857, 38.94964 ], [ -77.40674, 38.95029 ], [ -77.40912, 38.95149 ], [ -77.41035, 38.95046 ] ], [ [ -77.40838, 38.94678 ], [ -77.40822, 38.94667 ], [ -77.40826, 38.94683 ], [ -77.40838, 38.94678 ] ], [ [ -77.41127, 38.94965 ], [ -77.41211, 38.9484 ], [ -77.41099, 38.94815 ], [ -77.41099, 38.94867 ], [ -77.41021, 38.94904 ], [ -77.41127, 38.94965 ] ], [ [ -77.41259, 38.95224 ], [ -77.41205, 38.9527 ], [ -77.41194, 38.95339 ], [ -77.41302, 38.95236 ], [ -77.41259, 38.95224 ] ], [ [ -77.41155, 38.95499 ], [ -77.41138, 38.955 ], [ -77.41161, 38.95513 ], [ -77.41155, 38.95499 ] ], [ [ -77.40702, 38.94587 ], [ -77.40682, 38.94626 ], [ -77.4069, 38.9466 ], [ -77.40751, 38.94623 ], [ -77.40702, 38.94587 ] ], [ [ -77.40284, 38.95302 ], [ -77.40369, 38.95251 ], [ -77.40339, 38.95191 ], [ -77.40171, 38.95224 ], [ -77.40152, 38.95258 ], [ -77.40284, 38.95302 ] ], [ [ -77.4068, 38.9527 ], [ -77.40662, 38.95242 ], [ -77.40654, 38.9526 ], [ -77.4068, 38.9527 ] ] ] } }
]
}
