{
"type": "FeatureCollection",
"name": "286",
"crs": { "type": "name", "properties": { "name": "urn:ogc:def:crs:OGC:1.3:CRS84" } },
"xy_coordinate_resolution": 1e-05,
"features": [
{ "type": "Feature", "properties": { "variant": "T0", "miles": 0.5 }, "geometry": { "type": "Polygon", "coordinates": [ [ [ -77.41564, 38.92972 ], [ -77.41455, 38.93393 ], [ -77.41689, 38.93407 ], [ -77.41697, 38.93326 ], [ -77.41771, 38.93276 ], [ -77.41835, 38.93334 ], [ -77.41827, 38.93416 ], [ -77.41944, 38.93429 ], [ -77.41993, 38.93472 ], [ -77.41938, 38.93535 ], [ -77.41815, 38.93524 ], [ -77.41752, 38.93768 ], [ -77.41761, 38.93944 ], [ -77.41441, 38.93968 ], [ -77.41433, 38.94049 ], [ -77.41369, 38.94073 ], [ -77.4129, 38.94028 ], [ -77.41239, 38.93748 ], [ -77.40994, 38.93664 ], [ -77.40742, 38.93521 ], [ -77.40794, 38.93457 ], [ -77.41037, 38.93558 ], [ -77.40962, 38.93489 ], [ -77.41015, 38.93425 ], [ -77.41139, 38.93453 ], [ -77.41277, 38.93432 ], [ -77.41363, 38.93175 ], [ -77.41314, 38.93156 ], [ -77.41322, 38.9308 ], [ -77.41495, 38.92948 ], [ -77.41564, 38.92972 ] ], [ [ -77.41431, 38.93859 ], [ -77.41642, 38.93852 ], [ -77.41642, 38.93835 ], [ -77.4154, 38.93784 ], [ -77.41401, 38.93774 ], [ -77.41431, 38.93859 ] ], [ [ -77.41403, 38.9361 ], [ -77.41502, 38.93671 ], [ -77.4164, 38.93704 ], [ -77.41677, 38.93515 ], [ -77.41419, 38.93499 ], [ -77.41403, 38.9361 ] ], [ [ -77.41237, 38.93547 ], [ -77.41178, 38.93559 ], [ -77.41161, 38.93609 ], [ -77.41236, 38.93632 ], [ -77.41237, 38.93547 ] ] ] } },
{ "type": "Feature", "properties": { "variant": "T0", "miles": 1.0 }, "geometry": { "type": "Polygon", "coordinates": [ [ [ -77.41624, 38.92762 ], [ -77.41725, 38.9279 ], [ -77.41888, 38.92935 ], [ -77.41959, 38.9294 ], [ -77.41976, 38.9303 ], [ -77.41913, 38.93089 ], [ -77.41802, 38.93024 ], [ -77.41717, 38.93029 ], [ -77.41691, 38.92939 ], [ -77.4159, 38.92937 ], [ -77.41565, 38.93071 ], [ -77.4167, 38.93094 ], [ -77.4181, 38.93206 ], [ -77.41827, 38.93416 ], [ -77.41944, 38.93429 ], [ -77.41993, 38.93472 ], [ -77.41938, 38.93535 ], [ -77.41815, 38.93524 ], [ -77.41812, 38.93552 ], [ -77.42022, 38.93566 ], [ -77.4209, 38.93611 ], [ -77.42041, 38.93677 ], [ -77.418, 38.93659 ], [ -77.41752, 38.93768 ], [ -77.41781, 38.93852 ], [ -77.42036, 38.93851 ], [ -77.4205, 38.93769 ], [ -77.4215, 38.93782 ], [ -77.42258, 38.93955 ], [ -77.42277, 38.94086 ], [ -77.42205, 38.94174 ], [ -77.42075, 38.9419 ], [ -77.41893, 38.94108 ], [ -77.41828, 38.9396 ], [ -77.41677, 38.9396 ], [ -77.41677, 38.93987 ], [ -77.41799, 38.94003 ], [ -77.41819, 38.94154 ], [ -77.42127, 38.94298 ], [ -77.42188, 38.94293 ], [ -77.4223, 38.94362 ], [ -77.42149, 38.9442 ], [ -77.41738, 38.94246 ], [ -77.41478, 38.94259 ], [ -77.41467, 38.94343 ], [ -77.41694, 38.94361 ], [ -77.41787, 38.94432 ], [ -77.41766, 38.94578 ], [ -77.41646, 38.94627 ], [ -77.41796, 38.94705 ], [ -77.41736, 38.94797 ], [ -77.41538, 38.94773 ], [ -77.41519, 38.94858 ], [ -77.41388, 38.94899 ], [ -77.41233, 38.94801 ], [ -77.40925, 38.94729 ], [ -77.40913, 38.94654 ], [ -77.41077, 38.94491 ], [ -77.41066, 38.94467 ], [ -77.40995, 38.9452 ], [ -77.40876, 38.94474 ], [ -77.40816, 38.94493 ], [ -77.40709, 38.94435 ], [ -77.40691, 38.9436 ], [ -77.40806, 38.94332 ], [ -77.40764, 38.9426 ], [ -77.40567, 38.94321 ], [ -77.40473, 38.94276 ], [ -77.40511, 38.94207 ], [ -77.41021, 38.94093 ], [ -77.41048, 38.94039 ], [ -77.41101, 38.94033 ], [ -77.41196, 38.94119 ], [ -77.41311, 38.94142 ], [ -77.41239, 38.93748 ], [ -77.40716, 38.93528 ], [ -77.40406, 38.93324 ], [ -77.40299, 38.93386 ], [ -77.40199, 38.93372 ], [ -77.40123, 38.93404 ], [ -77.4007, 38.93402 ], [ -77.40036, 38.93331 ], [ -77.4008, 38.93225 ], [ -77.4017, 38.9322 ], [ -77.4027, 38.93267 ], [ -77.40321, 38.93238 ], [ -77.40276, 38.93164 ], [ -77.40143, 38.93187 ], [ -77.40119, 38.93113 ], [ -77.40419, 38.92978 ], [ -77.40516, 38.9299 ], [ -77.40501, 38.93065 ], [ -77.40399, 38.93114 ], [ -77.40526, 38.93264 ], [ -77.40564, 38.93112 ], [ -77.40722, 38.93089 ], [ -77.40883, 38.93125 ], [ -77.40818, 38.93058 ], [ -77.40815, 38.92985 ], [ -77.41005, 38.92821 ], [ -77.40991, 38.92758 ], [ -77.41034, 38.92733 ], [ -77.41164, 38.92794 ], [ -77.41189, 38.92753 ], [ -77.41286, 38.92763 ], [ -77.41431, 38.92914 ], [ -77.41626, 38.92316 ], [ -77.41713, 38.92281 ], [ -77.41755, 38.92355 ], [ -77.41624, 38.92762 ] ], [ [ -77.41158, 38.9425 ], [ -77.41129, 38.94317 ], [ -77.41182, 38.9428 ], [ -77.41188, 38.94244 ], [ -77.41158, 38.9425 ] ], [ [ -77.41248, 38.93544 ], [ -77.41178, 38.93559 ], [ -77.41161, 38.93609 ], [ -77.41236, 38.93632 ], [ -77.41248, 38.93544 ] ], [ [ -77.41278, 38.93427 ], [ -77.41329, 38.93273 ], [ -77.41208, 38.93346 ], [ -77.41145, 38.93452 ], [ -77.41278, 38.93427 ] ], [ [ -77.41298, 38.93117 ], [ -77.41409, 38.93038 ], [ -77.41303, 38.92983 ], [ -77.41041, 38.93159 ], [ -77.41132, 38.93178 ], [ -77.4117, 38.93238 ], [ -77.41277, 38.93197 ], [ -77.41338, 38.93248 ], [ -77.41354, 38.93201 ], [ -77.41298, 38.93117 ] ], [ [ -77.41547, 38.94141 ], [ -77.41544, 38.94095 ], [ -77.41465, 38.94094 ], [ -77.41502, 38.94149 ], [ -77.41547, 38.94141 ] ], [ [ -77.41441, 38.93968 ], [ -77.41445, 38.93993 ], [ -77.41539, 38.93987 ], [ -77.41441, 38.93968 ] ], [ [ -77.41547, 38.93786 ], [ -77.41401, 38.93774 ], [ -77.4142, 38.93861 ], [ -77.41629, 38.93852 ], [ -77.41547, 38.93786 ] ], [ [ -77.41677, 38.93515 ], [ -77.41419, 38.93499 ], [ -77.41403, 38.9361 ], [ -77.41486, 38.9363 ], [ -77.41502, 38.93671 ], [ -77.41656, 38.93683 ], [ -77.41677, 38.93515 ] ], [ [ -77.4147, 38.93348 ], [ -77.41455, 38.93393 ], [ -77.41689, 38.93407 ], [ -77.41692, 38.9338 ], [ -77.4147, 38.93348 ] ], [ [ -77.41539, 38.93152 ], [ -77.41497, 38.93269 ], [ -77.41697, 38.93272 ], [ -77.41539, 38.93152 ] ], [ [ -77.41966, 38.9396 ], [ -77.42009, 38.94046 ], [ -77.42124, 38.94085 ], [ -77.42041, 38.94023 ], [ -77.42082, 38.93954 ], [ -77.41966, 38.9396 ] ], [ [ -77.41152, 38.94646 ], [ -77.41134, 38.94663 ], [ -77.41156, 38.94666 ], [ -77.41152, 38.94646 ] ], [ [ -77.41124, 38.94341 ], [ -77.41126, 38.94328 ], [ -77.41083, 38.94373 ], [ -77.4113, 38.94386 ], [ -77.41124, 38.94341 ] ], [ [ -77.40921, 38.93488 ], [ -77.40912, 38.93497 ], [ -77.41037, 38.93558 ], [ -77.40921, 38.93488 ] ], [ [ -77.40939, 38.933 ], [ -77.4092, 38.93289 ], [ -77.40746, 38.93412 ], [ -77.40794, 38.93439 ], [ -77.40939, 38.933 ] ], [ [ -77.40993, 38.93165 ], [ -77.40966, 38.93163 ], [ -77.40971, 38.93173 ], [ -77.40993, 38.93165 ] ], [ [ -77.4106, 38.93356 ], [ -77.4101, 38.93404 ], [ -77.41014, 38.93406 ], [ -77.4106, 38.93356 ] ], [ [ -77.40668, 38.93228 ], [ -77.40728, 38.93295 ], [ -77.40787, 38.93257 ], [ -77.40741, 38.93205 ], [ -77.40668, 38.93228 ] ] ] } },
{ "type": "Feature", "properties": { "variant": "T0", "miles": 1.5 }, "geometry": { "type": "Polygon", "coordinates": [ [ [ -77.42392, 38.91862 ], [ -77.42435, 38.91934 ], [ -77.42429, 38.92093 ], [ -77.42342, 38.92147 ], [ -77.42311, 38.92303 ], [ -77.42385, 38.92362 ], [ -77.42374, 38.92402 ], [ -77.4232, 38.92435 ], [ -77.42107, 38.92393 ], [ -77.42011, 38.92507 ], [ -77.42462, 38.92799 ], [ -77.42473, 38.92875 ], [ -77.42375, 38.92883 ], [ -77.41731, 38.9247 ], [ -77.41624, 38.92762 ], [ -77.41725, 38.9279 ], [ -77.41888, 38.92935 ], [ -77.41959, 38.9294 ], [ -77.41976, 38.9303 ], [ -77.41913, 38.93089 ], [ -77.41802, 38.93024 ], [ -77.41717, 38.93029 ], [ -77.41691, 38.92939 ], [ -77.4159, 38.92937 ], [ -77.41565, 38.93071 ], [ -77.4167, 38.93094 ], [ -77.4181, 38.93206 ], [ -77.41827, 38.93416 ], [ -77.41944, 38.93429 ], [ -77.41993, 38.93472 ], [ -77.41938, 38.93535 ], [ -77.41815, 38.93524 ], [ -77.41812, 38.93552 ], [ -77.42022, 38.93566 ], [ -77.4209, 38.93611 ], [ -77.42041, 38.93677 ], [ -77.418, 38.93659 ], [ -77.41752, 38.93768 ], [ -77.41781, 38.93852 ], [ -77.42036, 38.93851 ], [ -77.4205, 38.93769 ], [ -77.42138, 38.93775 ], [ -77.42258, 38.93955 ], [ -77.42273, 38.941 ], [ -77.42199, 38.94177 ], [ -77.42075, 38.9419 ], [ -77.41893, 38.94108 ], [ -77.41828, 38.9396 ], [ -77.41677, 38.9396 ], [ -77.41677, 38.93987 ], [ -77.41799, 38.94003 ], [ -77.41819, 38.94154 ], [ -77.42127, 38.94298 ], [ -77.4222, 38.94265 ], [ -77.42392, 38.94327 ], [ -77.42542, 38.94276 ], [ -77.42496, 38.94138 ], [ -77.4258, 38.9405 ], [ -77.42776, 38.94018 ], [ -77.42906, 38.94049 ], [ -77.42936, 38.94256 ], [ -77.42894, 38.94464 ], [ -77.42786, 38.94485 ], [ -77.42682, 38.94338 ], [ -77.42416, 38.94447 ], [ -77.43046, 38.94782 ], [ -77.43067, 38.94857 ], [ -77.42964, 38.94885 ], [ -77.42613, 38.94706 ], [ -77.42374, 38.94781 ], [ -77.42424, 38.94803 ], [ -77.42553, 38.94748 ], [ -77.42617, 38.94846 ], [ -77.42528, 38.94957 ], [ -77.42388, 38.94912 ], [ -77.42458, 38.94975 ], [ -77.42415, 38.95044 ], [ -77.42277, 38.95005 ], [ -77.42208, 38.95028 ], [ -77.42091, 38.94958 ], [ -77.41918, 38.94978 ], [ -77.41861, 38.95113 ], [ -77.41862, 38.95259 ], [ -77.41671, 38.95426 ], [ -77.41593, 38.95435 ], [ -77.41423, 38.95306 ], [ -77.41208, 38.95466 ], [ -77.41063, 38.95409 ], [ -77.40871, 38.95414 ], [ -77.4084, 38.95373 ], [ -77.40858, 38.95457 ], [ -77.40762, 38.95472 ], [ -77.40655, 38.9536 ], [ -77.40803, 38.95241 ], [ -77.40747, 38.95206 ], [ -77.40651, 38.95228 ], [ -77.40625, 38.95155 ], [ -77.40728, 38.95061 ], [ -77.40912, 38.95149 ], [ -77.41035, 38.95046 ], [ -77.40895, 38.94965 ], [ -77.40588, 38.95048 ], [ -77.40475, 38.95004 ], [ -77.40342, 38.95013 ], [ -77.40299, 38.94926 ], [ -77.40168, 38.94825 ], [ -77.40103, 38.94866 ], [ -77.40007, 38.94829 ], [ -77.39982, 38.94793 ], [ -77.40036, 38.94719 ], [ -77.39945, 38.94642 ], [ -77.39851, 38.94666 ], [ -77.39806, 38.94621 ], [ -77.39732, 38.94645 ], [ -77.39667, 38.94551 ], [ -77.39802, 38.94472 ], [ -77.39832, 38.94383 ], [ -77.4, 38.94367 ], [ -77.40022, 38.94223 ], [ -77.40103, 38.94164 ], [ -77.40213, 38.94182 ], [ -77.40288, 38.94274 ], [ -77.40847, 38.9411 ], [ -77.41021, 38.94093 ], [ -77.41048, 38.94039 ], [ -77.41101, 38.94033 ], [ -77.41196, 38.94119 ], [ -77.41311, 38.94142 ], [ -77.41239, 38.93748 ], [ -77.40716, 38.93528 ], [ -77.40406, 38.93324 ], [ -77.40069, 38.93521 ], [ -77.40249, 38.93619 ], [ -77.40241, 38.937 ], [ -77.40195, 38.93714 ], [ -77.40314, 38.93703 ], [ -77.40384, 38.93733 ], [ -77.40378, 38.93809 ], [ -77.40275, 38.9381 ], [ -77.4036, 38.93859 ], [ -77.4036, 38.939 ], [ -77.40277, 38.93935 ], [ -77.40336, 38.93992 ], [ -77.40309, 38.94066 ], [ -77.40212, 38.94041 ], [ -77.401, 38.94083 ], [ -77.40056, 38.9406 ], [ -77.40077, 38.93983 ], [ -77.40041, 38.93976 ], [ -77.39998, 38.94029 ], [ -77.39887, 38.94 ], [ -77.3985, 38.94049 ], [ -77.39797, 38.94049 ], [ -77.3955, 38.9384 ], [ -77.39543, 38.93958 ], [ -77.39476, 38.94015 ], [ -77.39427, 38.94 ], [ -77.39401, 38.9389 ], [ -77.39468, 38.93737 ], [ -77.39357, 38.93679 ], [ -77.39335, 38.93605 ], [ -77.3943, 38.93587 ], [ -77.39573, 38.93666 ], [ -77.39619, 38.93639 ], [ -77.39531, 38.93564 ], [ -77.3954, 38.93488 ], [ -77.39908, 38.93312 ], [ -77.39783, 38.93326 ], [ -77.39676, 38.93282 ], [ -77.39539, 38.93324 ], [ -77.39545, 38.93407 ], [ -77.39439, 38.93399 ], [ -77.39374, 38.9345 ], [ -77.39286, 38.93416 ], [ -77.39316, 38.93345 ], [ -77.39256, 38.93291 ], [ -77.39398, 38.9317 ], [ -77.39413, 38.93074 ], [ -77.3951, 38.93078 ], [ -77.39539, 38.93152 ], [ -77.3961, 38.93085 ], [ -77.39549, 38.92944 ], [ -77.39743, 38.92755 ], [ -77.39704, 38.92708 ], [ -77.3973, 38.92622 ], [ -77.39832, 38.92636 ], [ -77.39841, 38.92598 ], [ -77.39966, 38.92565 ], [ -77.39942, 38.92508 ], [ -77.39975, 38.92472 ], [ -77.40403, 38.9247 ], [ -77.40913, 38.92267 ], [ -77.4088, 38.92102 ], [ -77.40945, 38.92045 ], [ -77.41018, 38.92095 ], [ -77.41042, 38.9222 ], [ -77.41188, 38.92186 ], [ -77.41218, 38.92066 ], [ -77.41433, 38.9189 ], [ -77.41329, 38.91826 ], [ -77.41406, 38.91718 ], [ -77.41523, 38.91699 ], [ -77.41561, 38.91728 ], [ -77.41514, 38.91802 ], [ -77.41559, 38.91836 ], [ -77.4176, 38.91743 ], [ -77.41688, 38.9169 ], [ -77.41698, 38.91649 ], [ -77.41827, 38.91648 ], [ -77.41852, 38.91566 ], [ -77.42027, 38.91495 ], [ -77.42099, 38.91563 ], [ -77.42045, 38.91702 ], [ -77.42272, 38.91766 ], [ -77.42291, 38.9187 ], [ -77.42392, 38.91862 ] ], [ [ -77.41679, 38.95191 ], [ -77.41699, 38.95237 ], [ -77.41639, 38.9531 ], [ -77.41743, 38.95195 ], [ -77.41552, 38.95067 ], [ -77.41363, 38.95014 ], [ -77.41322, 38.94963 ], [ -77.4125, 38.95052 ], [ -77.41679, 38.95191 ] ], [ [ -77.41416, 38.94891 ], [ -77.41424, 38.94887 ], [ -77.41362, 38.94891 ], [ -77.41356, 38.94914 ], [ -77.41416, 38.94891 ] ], [ [ -77.41124, 38.94341 ], [ -77.41126, 38.94328 ], [ -77.41083, 38.94373 ], [ -77.4111, 38.94404 ], [ -77.41124, 38.94341 ] ], [ [ -77.41182, 38.9428 ], [ -77.41188, 38.94244 ], [ -77.41158, 38.9425 ], [ -77.41133, 38.94312 ], [ -77.41182, 38.9428 ] ], [ [ -77.40921, 38.93488 ], [ -77.40912, 38.93497 ], [ -77.41037, 38.93558 ], [ -77.40921, 38.93488 ] ], [ [ -77.41074, 38.93347 ], [ -77.4101, 38.93404 ], [ -77.41014, 38.93406 ], [ -77.41074, 38.93347 ] ], [ [ -77.41277, 38.93197 ], [ -77.41338, 38.93248 ], [ -77.41363, 38.93175 ], [ -77.41298, 38.93117 ], [ -77.41409, 38.93038 ], [ -77.41329, 38.9299 ], [ -77.41249, 38.92995 ], [ -77.41041, 38.93159 ], [ -77.41132, 38.93178 ], [ -77.41174, 38.93238 ], [ -77.41277, 38.93197 ] ], [ [ -77.40975, 38.93164 ], [ -77.40966, 38.93163 ], [ -77.40971, 38.93173 ], [ -77.40975, 38.93164 ] ], [ [ -77.40816, 38.93053 ], [ -77.40816, 38.92985 ], [ -77.40719, 38.93019 ], [ -77.4068, 38.93091 ], [ -77.40876, 38.93119 ], [ -77.40816, 38.93053 ] ], [ [ -77.41033, 38.92734 ], [ -77.40955, 38.92763 ], [ -77.40991, 38.92758 ], [ -77.41033, 38.92734 ] ], [ [ -77.41086, 38.92508 ], [ -77.41161, 38.92575 ], [ -77.41131, 38.92668 ], [ -77.41034, 38.92733 ], [ -77.41164, 38.92794 ], [ -77.41189, 38.92753 ], [ -77.41286, 38.92763 ], [ -77.41431, 38.92914 ], [ -77.41599, 38.92383 ], [ -77.41431, 38.92289 ], [ -77.41178, 38.92297 ], [ -77.405, 38.92555 ], [ -77.40627, 38.92529 ], [ -77.40695, 38.92581 ], [ -77.40809, 38.92562 ], [ -77.40831, 38.9267 ], [ -77.40909, 38.92636 ], [ -77.40922, 38.92571 ], [ -77.41086, 38.92508 ] ], [ [ -77.41692, 38.92162 ], [ -77.41587, 38.92093 ], [ -77.41472, 38.92074 ], [ -77.414, 38.92134 ], [ -77.41423, 38.92178 ], [ -77.41644, 38.9227 ], [ -77.41692, 38.92162 ] ], [ [ -77.42063, 38.92194 ], [ -77.41888, 38.92093 ], [ -77.41774, 38.92358 ], [ -77.41879, 38.92424 ], [ -77.4199, 38.92301 ], [ -77.42182, 38.92265 ], [ -77.42202, 38.922 ], [ -77.42063, 38.92194 ] ], [ [ -77.4198, 38.91868 ], [ -77.42012, 38.91876 ], [ -77.42037, 38.91813 ], [ -77.4198, 38.91868 ] ], [ [ -77.42206, 38.94473 ], [ -77.41752, 38.94249 ], [ -77.41478, 38.94259 ], [ -77.41467, 38.94343 ], [ -77.41694, 38.94361 ], [ -77.41787, 38.94432 ], [ -77.41828, 38.94524 ], [ -77.41709, 38.94646 ], [ -77.41778, 38.94677 ], [ -77.41874, 38.94644 ], [ -77.42042, 38.94716 ], [ -77.42206, 38.94473 ] ], [ [ -77.42229, 38.94824 ], [ -77.42231, 38.94824 ], [ -77.42231, 38.94823 ], [ -77.42229, 38.94824 ] ], [ [ -77.42275, 38.94611 ], [ -77.42311, 38.94683 ], [ -77.42377, 38.94666 ], [ -77.42348, 38.94558 ], [ -77.42275, 38.94611 ] ], [ [ -77.41966, 38.9396 ], [ -77.4199, 38.94029 ], [ -77.42048, 38.94064 ], [ -77.42129, 38.94084 ], [ -77.42041, 38.94023 ], [ -77.42108, 38.93963 ], [ -77.41966, 38.9396 ] ], [ [ -77.41544, 38.94095 ], [ -77.41465, 38.94094 ], [ -77.41474, 38.94151 ], [ -77.41537, 38.94143 ], [ -77.41544, 38.94095 ] ], [ [ -77.41441, 38.93968 ], [ -77.41445, 38.93993 ], [ -77.41539, 38.93987 ], [ -77.41539, 38.9396 ], [ -77.41441, 38.93968 ] ], [ [ -77.41547, 38.93786 ], [ -77.41401, 38.93774 ], [ -77.4142, 38.93861 ], [ -77.41642, 38.93852 ], [ -77.41547, 38.93786 ] ], [ [ -77.4164, 38.93704 ], [ -77.41677, 38.93515 ], [ -77.41419, 38.93499 ], [ -77.41403, 38.9361 ], [ -77.41486, 38.9363 ], [ -77.41503, 38.9367 ], [ -77.4164, 38.93704 ] ], [ [ -77.41208, 38.93346 ], [ -77.41145, 38.93452 ], [ -77.41277, 38.93432 ], [ -77.41317, 38.93292 ], [ -77.41208, 38.93346 ] ], [ [ -77.41539, 38.93152 ], [ -77.41497, 38.93269 ], [ -77.41697, 38.93272 ], [ -77.41539, 38.93152 ] ], [ [ -77.41455, 38.93393 ], [ -77.41689, 38.93407 ], [ -77.41692, 38.9338 ], [ -77.41471, 38.9335 ], [ -77.41455, 38.93393 ] ], [ [ -77.41178, 38.93559 ], [ -77.41161, 38.93609 ], [ -77.41236, 38.93632 ], [ -77.41225, 38.93551 ], [ -77.41178, 38.93559 ] ], [ [ -77.40554, 38.94518 ], [ -77.40374, 38.94694 ], [ -77.40255, 38.94728 ], [ -77.40349, 38.94803 ], [ -77.40374, 38.94737 ], [ -77.40511, 38.94685 ], [ -77.40554, 38.94518 ] ], [ [ -77.40502, 38.9434 ], [ -77.40497, 38.94341 ], [ -77.40508, 38.944 ], [ -77.40502, 38.9434 ] ], [ [ -77.41302, 38.95236 ], [ -77.41266, 38.95214 ], [ -77.4119, 38.95336 ], [ -77.41302, 38.95236 ] ], [ [ -77.41211, 38.9484 ], [ -77.41099, 38.94815 ], [ -77.41099, 38.94867 ], [ -77.41021, 38.94904 ], [ -77.41127, 38.94965 ], [ -77.41211, 38.9484 ] ], [ [ -77.40968, 38.94598 ], [ -77.41076, 38.94505 ], [ -77.41066, 38.94467 ], [ -77.40963, 38.94542 ], [ -77.40897, 38.94529 ], [ -77.40968, 38.94598 ] ], [ [ -77.41152, 38.94646 ], [ -77.41134, 38.94663 ], [ -77.41156, 38.94666 ], [ -77.41152, 38.94646 ] ], [ [ -77.40504, 38.93247 ], [ -77.40526, 38.93264 ], [ -77.40535, 38.93198 ], [ -77.40457, 38.93208 ], [ -77.40504, 38.93247 ] ], [ [ -77.40563, 38.92704 ], [ -77.40415, 38.9266 ], [ -77.40476, 38.92713 ], [ -77.40464, 38.92753 ], [ -77.40357, 38.92762 ], [ -77.40264, 38.92832 ], [ -77.40288, 38.92881 ], [ -77.40418, 38.92827 ], [ -77.40463, 38.9285 ], [ -77.40465, 38.92931 ], [ -77.40563, 38.92704 ] ], [ [ -77.40939, 38.933 ], [ -77.4092, 38.93289 ], [ -77.40746, 38.93412 ], [ -77.40794, 38.93439 ], [ -77.40939, 38.933 ] ], [ [ -77.40738, 38.93204 ], [ -77.40672, 38.93222 ], [ -77.40728, 38.93295 ], [ -77.40774, 38.93275 ], [ -77.40738, 38.93204 ] ], [ [ -77.40559, 38.93017 ], [ -77.40554, 38.93022 ], [ -77.40565, 38.93031 ], [ -77.40559, 38.93017 ] ], [ [ -77.40014, 38.93381 ], [ -77.40043, 38.93401 ], [ -77.40058, 38.93392 ], [ -77.40035, 38.93358 ], [ -77.40014, 38.93381 ] ], [ [ -77.40079, 38.93197 ], [ -77.40036, 38.93199 ], [ -77.40057, 38.93218 ], [ -77.40079, 38.93197 ] ], [ [ -77.40196, 38.92991 ], [ -77.40144, 38.92888 ], [ -77.3996, 38.93099 ], [ -77.40089, 38.93089 ], [ -77.40097, 38.93047 ], [ -77.40196, 38.92991 ] ], [ [ -77.40084, 38.92783 ], [ -77.40025, 38.92666 ], [ -77.39924, 38.92679 ], [ -77.40058, 38.928 ], [ -77.40084, 38.92783 ] ], [ [ -77.40206, 38.92731 ], [ -77.40226, 38.92717 ], [ -77.40193, 38.92705 ], [ -77.40206, 38.92731 ] ], [ [ -77.40231, 38.9259 ], [ -77.402, 38.92588 ], [ -77.40203, 38.92591 ], [ -77.40231, 38.9259 ] ], [ [ -77.40214, 38.92597 ], [ -77.40212, 38.92595 ], [ -77.4021, 38.92598 ], [ -77.40214, 38.92597 ] ], [ [ -77.40276, 38.93164 ], [ -77.40265, 38.9317 ], [ -77.4027, 38.93172 ], [ -77.40276, 38.93164 ] ], [ [ -77.40192, 38.93715 ], [ -77.40126, 38.93672 ], [ -77.40134, 38.93738 ], [ -77.40192, 38.93715 ] ], [ [ -77.40129, 38.93673 ], [ -77.40128, 38.9367 ], [ -77.40127, 38.93671 ], [ -77.40129, 38.93673 ] ], [ [ -77.39733, 38.93574 ], [ -77.39735, 38.93573 ], [ -77.39732, 38.93572 ], [ -77.39733, 38.93574 ] ], [ [ -77.3979, 38.93085 ], [ -77.39776, 38.93085 ], [ -77.39782, 38.93092 ], [ -77.3979, 38.93085 ] ], [ [ -77.39843, 38.9266 ], [ -77.3985, 38.9266 ], [ -77.39836, 38.92644 ], [ -77.39843, 38.9266 ] ], [ [ -77.39931, 38.92871 ], [ -77.39934, 38.92959 ], [ -77.39986, 38.92912 ], [ -77.39931, 38.92871 ] ], [ [ -77.39717, 38.92931 ], [ -77.39785, 38.92948 ], [ -77.39792, 38.92871 ], [ -77.39717, 38.92931 ] ], [ [ -77.39816, 38.9322 ], [ -77.39875, 38.93191 ], [ -77.39865, 38.93182 ], [ -77.39816, 38.9322 ] ], [ [ -77.39807, 38.93665 ], [ -77.39859, 38.93773 ], [ -77.3996, 38.93791 ], [ -77.40003, 38.93779 ], [ -77.39991, 38.9372 ], [ -77.39988, 38.93721 ], [ -77.39916, 38.93746 ], [ -77.39874, 38.9372 ], [ -77.39885, 38.93651 ], [ -77.39974, 38.93612 ], [ -77.39958, 38.93586 ], [ -77.39807, 38.93665 ] ], [ [ -77.39695, 38.9373 ], [ -77.39648, 38.93756 ], [ -77.39717, 38.93837 ], [ -77.39695, 38.9373 ] ], [ [ -77.39963, 38.93908 ], [ -77.39962, 38.93909 ], [ -77.39963, 38.9391 ], [ -77.39963, 38.93908 ] ] ] } },
{ "type": "Feature", "properties": { "variant": "T2s", "miles": 0.5 }, "geometry": { "type": "Polygon", "coordinates": [ [ [ -77.41564, 38.92971 ], [ -77.41455, 38.93393 ], [ -77.41689, 38.93407 ], [ -77.41697, 38.93326 ], [ -77.41771, 38.93276 ], [ -77.41835, 38.93334 ], [ -77.41827, 38.93416 ], [ -77.41944, 38.93429 ], [ -77.41993, 38.93472 ], [ -77.41938, 38.93535 ], [ -77.41815, 38.93524 ], [ -77.41752, 38.93768 ], [ -77.41761, 38.93944 ], [ -77.41441, 38.93968 ], [ -77.41433, 38.94049 ], [ -77.41369, 38.94073 ], [ -77.4129, 38.94028 ], [ -77.41239, 38.93748 ], [ -77.41029, 38.93678 ], [ -77.40997, 38.93645 ], [ -77.41041, 38.93543 ], [ -77.40962, 38.93489 ], [ -77.41015, 38.93425 ], [ -77.41139, 38.93453 ], [ -77.41277, 38.93432 ], [ -77.41363, 38.93175 ], [ -77.41298, 38.93117 ], [ -77.41409, 38.93039 ], [ -77.41444, 38.92959 ], [ -77.41564, 38.92971 ] ], [ [ -77.41628, 38.93852 ], [ -77.41547, 38.93786 ], [ -77.41401, 38.93774 ], [ -77.4142, 38.93861 ], [ -77.41628, 38.93852 ] ], [ [ -77.41403, 38.9361 ], [ -77.41502, 38.93671 ], [ -77.4164, 38.93704 ], [ -77.41677, 38.93515 ], [ -77.41419, 38.93499 ], [ -77.41403, 38.9361 ] ], [ [ -77.41237, 38.93547 ], [ -77.41178, 38.93559 ], [ -77.41161, 38.93609 ], [ -77.41236, 38.93632 ], [ -77.41237, 38.93547 ] ] ] } },
{ "type": "Feature", "properties": { "variant": "T2s", "miles": 1.0 }, "geometry": { "type": "Polygon", "coordinates": [ [ [ -77.41624, 38.92762 ], [ -77.41725, 38.9279 ], [ -77.41888, 38.92935 ], [ -77.41959, 38.9294 ], [ -77.41976, 38.9303 ], [ -77.41913, 38.93089 ], [ -77.41802, 38.93024 ], [ -77.41717, 38.93029 ], [ -77.41691, 38.92939 ], [ -77.4159, 38.92937 ], [ -77.41565, 38.93071 ], [ -77.4167, 38.93094 ], [ -77.4181, 38.93206 ], [ -77.41827, 38.93416 ], [ -77.41944, 38.93429 ], [ -77.41993, 38.93472 ], [ -77.41938, 38.93535 ], [ -77.41815, 38.93524 ], [ -77.41812, 38.93552 ], [ -77.42022, 38.93566 ], [ -77.4209, 38.93611 ], [ -77.42041, 38.93677 ], [ -77.418, 38.93659 ], [ -77.41752, 38.93768 ], [ -77.41781, 38.93852 ], [ -77.42036, 38.93851 ], [ -77.4205, 38.93769 ], [ -77.4215, 38.93782 ], [ -77.42258, 38.93955 ], [ -77.42277, 38.94081 ], [ -77.42205, 38.94174 ], [ -77.42075, 38.9419 ], [ -77.41893, 38.94108 ], [ -77.41828, 38.9396 ], [ -77.41677, 38.9396 ], [ -77.41677, 38.93987 ], [ -77.41799, 38.94003 ], [ -77.41819, 38.94154 ], [ -77.42127, 38.94298 ], [ -77.42188, 38.94293 ], [ -77.4223, 38.94362 ], [ -77.42149, 38.9442 ], [ -77.41738, 38.94246 ], [ -77.41478, 38.94259 ], [ -77.41467, 38.94343 ], [ -77.41694, 38.94361 ], [ -77.41801, 38.94472 ], [ -77.41766, 38.94578 ], [ -77.41646, 38.94627 ], [ -77.41796, 38.94703 ], [ -77.41765, 38.94776 ], [ -77.41673, 38.94803 ], [ -77.41538, 38.94773 ], [ -77.41476, 38.94883 ], [ -77.40987, 38.94712 ], [ -77.40962, 38.94629 ], [ -77.41076, 38.94505 ], [ -77.41066, 38.94467 ], [ -77.40995, 38.9452 ], [ -77.40876, 38.94474 ], [ -77.40767, 38.94477 ], [ -77.40732, 38.9442 ], [ -77.40806, 38.9432 ], [ -77.40764, 38.9426 ], [ -77.40589, 38.94314 ], [ -77.40499, 38.94285 ], [ -77.40529, 38.94202 ], [ -77.41021, 38.94093 ], [ -77.41048, 38.94039 ], [ -77.41101, 38.94033 ], [ -77.41196, 38.94119 ], [ -77.41311, 38.94142 ], [ -77.41239, 38.93748 ], [ -77.40574, 38.93454 ], [ -77.40344, 38.93252 ], [ -77.40416, 38.932 ], [ -77.40526, 38.93264 ], [ -77.40564, 38.93112 ], [ -77.40613, 38.93096 ], [ -77.40883, 38.93125 ], [ -77.40818, 38.93058 ], [ -77.40815, 38.92985 ], [ -77.41005, 38.92821 ], [ -77.40991, 38.92758 ], [ -77.41034, 38.92733 ], [ -77.41164, 38.92794 ], [ -77.41189, 38.92753 ], [ -77.41286, 38.92763 ], [ -77.41431, 38.92914 ], [ -77.41626, 38.92316 ], [ -77.41713, 38.92281 ], [ -77.41755, 38.92355 ], [ -77.41624, 38.92762 ] ], [ [ -77.41248, 38.93544 ], [ -77.41178, 38.93559 ], [ -77.41161, 38.93609 ], [ -77.41236, 38.93632 ], [ -77.41248, 38.93544 ] ], [ [ -77.41278, 38.93427 ], [ -77.41329, 38.93273 ], [ -77.41208, 38.93346 ], [ -77.41145, 38.93452 ], [ -77.41278, 38.93427 ] ], [ [ -77.41298, 38.93117 ], [ -77.41409, 38.93038 ], [ -77.41303, 38.92983 ], [ -77.41041, 38.93159 ], [ -77.41132, 38.93178 ], [ -77.4117, 38.93238 ], [ -77.41277, 38.93197 ], [ -77.41338, 38.93248 ], [ -77.41354, 38.93201 ], [ -77.41298, 38.93117 ] ], [ [ -77.41547, 38.93786 ], [ -77.41401, 38.93774 ], [ -77.4142, 38.93861 ], [ -77.41629, 38.93852 ], [ -77.41547, 38.93786 ] ], [ [ -77.41677, 38.93515 ], [ -77.41419, 38.93499 ], [ -77.41403, 38.9361 ], [ -77.41486, 38.9363 ], [ -77.41502, 38.93671 ], [ -77.41656, 38.93683 ], [ -77.41677, 38.93515 ] ], [ [ -77.4147, 38.93348 ], [ -77.41455, 38.93393 ], [ -77.41689, 38.93407 ], [ -77.41692, 38.9338 ], [ -77.4147, 38.93348 ] ], [ [ -77.41539, 38.93152 ], [ -77.41497, 38.93269 ], [ -77.41697, 38.93272 ], [ -77.41539, 38.93152 ] ], [ [ -77.41966, 38.9396 ], [ -77.41984, 38.94019 ], [ -77.42022, 38.94053 ], [ -77.42127, 38.94085 ], [ -77.42041, 38.94023 ], [ -77.42108, 38.93963 ], [ -77.41966, 38.9396 ] ], [ [ -77.41547, 38.94141 ], [ -77.41544, 38.94095 ], [ -77.41465, 38.94094 ], [ -77.41502, 38.94149 ], [ -77.41547, 38.94141 ] ], [ [ -77.41539, 38.9396 ], [ -77.41441, 38.93968 ], [ -77.41445, 38.93993 ], [ -77.41539, 38.93987 ], [ -77.41539, 38.9396 ] ], [ [ -77.41129, 38.94317 ], [ -77.41188, 38.94244 ], [ -77.41158, 38.9425 ], [ -77.41129, 38.94317 ] ], [ [ -77.41083, 38.94373 ], [ -77.4111, 38.94404 ], [ -77.41126, 38.94328 ], [ -77.41083, 38.94373 ] ], [ [ -77.41116, 38.94654 ], [ -77.41161, 38.94674 ], [ -77.4114, 38.94603 ], [ -77.41116, 38.94654 ] ], [ [ -77.40921, 38.93488 ], [ -77.40912, 38.93497 ], [ -77.41037, 38.93558 ], [ -77.40921, 38.93488 ] ], [ [ -77.4106, 38.93356 ], [ -77.4101, 38.93404 ], [ -77.41014, 38.93406 ], [ -77.4106, 38.93356 ] ], [ [ -77.40939, 38.933 ], [ -77.4092, 38.93289 ], [ -77.40746, 38.93412 ], [ -77.40794, 38.93439 ], [ -77.40939, 38.933 ] ], [ [ -77.40993, 38.93165 ], [ -77.40966, 38.93163 ], [ -77.40971, 38.93173 ], [ -77.40993, 38.93165 ] ], [ [ -77.40668, 38.93228 ], [ -77.40728, 38.93295 ], [ -77.40787, 38.93255 ], [ -77.40727, 38.93199 ], [ -77.40668, 38.93228 ] ] ] } },
{ "type": "Feature", "properties": { "variant": "T2s", "miles": 1.5 }, "geometry": { "type": "Polygon", "coordinates": [ [ [ -77.42282, 38.91777 ], [ -77.42291, 38.9187 ], [ -77.42392, 38.91862 ], [ -77.42429, 38.91905 ], [ -77.42429, 38.92093 ], [ -77.42342, 38.92147 ], [ -77.42311, 38.92303 ], [ -77.42385, 38.92362 ], [ -77.4232, 38.92435 ], [ -77.42093, 38.92397 ], [ -77.42011, 38.92507 ], [ -77.42462, 38.92799 ], [ -77.42473, 38.92875 ], [ -77.42375, 38.92883 ], [ -77.41731, 38.9247 ], [ -77.41624, 38.92762 ], [ -77.41725, 38.9279 ], [ -77.41888, 38.92935 ], [ -77.41959, 38.9294 ], [ -77.41976, 38.9303 ], [ -77.41913, 38.93089 ], [ -77.41802, 38.93024 ], [ -77.41717, 38.93029 ], [ -77.41691, 38.92939 ], [ -77.4159, 38.92937 ], [ -77.41565, 38.93071 ], [ -77.4167, 38.93094 ], [ -77.4181, 38.93206 ], [ -77.41827, 38.93416 ], [ -77.41944, 38.93429 ], [ -77.41993, 38.93472 ], [ -77.41938, 38.93535 ], [ -77.41815, 38.93524 ], [ -77.41812, 38.93552 ], [ -77.42022, 38.93566 ], [ -77.4209, 38.93611 ], [ -77.42041, 38.93677 ], [ -77.418, 38.93659 ], [ -77.41752, 38.93768 ], [ -77.41781, 38.93852 ], [ -77.42036, 38.93851 ], [ -77.4205, 38.93769 ], [ -77.42138, 38.93775 ], [ -77.42258, 38.93955 ], [ -77.42273, 38.941 ], [ -77.42199, 38.94177 ], [ -77.42075, 38.9419 ], [ -77.41893, 38.94108 ], [ -77.41828, 38.9396 ], [ -77.41677, 38.9396 ], [ -77.41677, 38.93987 ], [ -77.41799, 38.94003 ], [ -77.41819, 38.94154 ], [ -77.42127, 38.94298 ], [ -77.4222, 38.94265 ], [ -77.42392, 38.94327 ], [ -77.42542, 38.94276 ], [ -77.42496, 38.94138 ], [ -77.4258, 38.9405 ], [ -77.42852, 38.94027 ], [ -77.42937, 38.94082 ], [ -77.42903, 38.94138 ], [ -77.42926, 38.94336 ], [ -77.42899, 38.94372 ], [ -77.42749, 38.9439 ], [ -77.42682, 38.94338 ], [ -77.42438, 38.94433 ], [ -77.42333, 38.9453 ], [ -77.4176, 38.94252 ], [ -77.41478, 38.94259 ], [ -77.41467, 38.94343 ], [ -77.41694, 38.94361 ], [ -77.41787, 38.94432 ], [ -77.41828, 38.94524 ], [ -77.41709, 38.94646 ], [ -77.41778, 38.94677 ], [ -77.41874, 38.94644 ], [ -77.42042, 38.94716 ], [ -77.42158, 38.94803 ], [ -77.42182, 38.94915 ], [ -77.41883, 38.95009 ], [ -77.41863, 38.95256 ], [ -77.41664, 38.95429 ], [ -77.41593, 38.95435 ], [ -77.41423, 38.95306 ], [ -77.41208, 38.95466 ], [ -77.40994, 38.95391 ], [ -77.40927, 38.95319 ], [ -77.40737, 38.95425 ], [ -77.40655, 38.9536 ], [ -77.40803, 38.95241 ], [ -77.40687, 38.95169 ], [ -77.40673, 38.95097 ], [ -77.40779, 38.95069 ], [ -77.40912, 38.95149 ], [ -77.41035, 38.95046 ], [ -77.40895, 38.94965 ], [ -77.40588, 38.95048 ], [ -77.40475, 38.95004 ], [ -77.40342, 38.95013 ], [ -77.40299, 38.94926 ], [ -77.40146, 38.94807 ], [ -77.40059, 38.94804 ], [ -77.40055, 38.94734 ], [ -77.39865, 38.94568 ], [ -77.39715, 38.94618 ], [ -77.39667, 38.94551 ], [ -77.39802, 38.94472 ], [ -77.39832, 38.94383 ], [ -77.39949, 38.94388 ], [ -77.40062, 38.94343 ], [ -77.40009, 38.9426 ], [ -77.40103, 38.94164 ], [ -77.40213, 38.94182 ], [ -77.40288, 38.94274 ], [ -77.40847, 38.9411 ], [ -77.41021, 38.94093 ], [ -77.41048, 38.94039 ], [ -77.41101, 38.94033 ], [ -77.41196, 38.94119 ], [ -77.41311, 38.94142 ], [ -77.41239, 38.93748 ], [ -77.40716, 38.93528 ], [ -77.40406, 38.93324 ], [ -77.40069, 38.93521 ], [ -77.40256, 38.93632 ], [ -77.40241, 38.937 ], [ -77.40192, 38.93715 ], [ -77.40126, 38.93672 ], [ -77.40134, 38.93738 ], [ -77.40237, 38.93755 ], [ -77.40209, 38.93828 ], [ -77.4006, 38.93861 ], [ -77.39991, 38.9372 ], [ -77.3999, 38.93719 ], [ -77.39988, 38.93721 ], [ -77.39916, 38.93746 ], [ -77.39874, 38.9372 ], [ -77.39876, 38.93662 ], [ -77.39974, 38.93612 ], [ -77.39958, 38.93586 ], [ -77.39546, 38.93795 ], [ -77.39488, 38.93734 ], [ -77.39619, 38.93639 ], [ -77.39531, 38.93564 ], [ -77.3954, 38.93488 ], [ -77.39908, 38.93312 ], [ -77.39783, 38.93326 ], [ -77.39676, 38.93282 ], [ -77.39528, 38.93311 ], [ -77.39486, 38.93243 ], [ -77.39548, 38.93204 ], [ -77.39557, 38.93101 ], [ -77.39655, 38.93098 ], [ -77.39679, 38.93164 ], [ -77.39841, 38.9304 ], [ -77.39806, 38.92981 ], [ -77.39832, 38.92945 ], [ -77.39934, 38.92959 ], [ -77.39986, 38.92912 ], [ -77.39785, 38.92702 ], [ -77.39854, 38.92665 ], [ -77.39841, 38.92598 ], [ -77.39966, 38.92565 ], [ -77.39971, 38.92474 ], [ -77.40403, 38.9247 ], [ -77.40913, 38.92267 ], [ -77.4088, 38.92102 ], [ -77.40945, 38.92045 ], [ -77.41018, 38.92095 ], [ -77.41042, 38.9222 ], [ -77.41188, 38.92186 ], [ -77.41218, 38.92066 ], [ -77.41433, 38.9189 ], [ -77.41329, 38.91826 ], [ -77.41365, 38.91744 ], [ -77.41523, 38.91699 ], [ -77.41561, 38.91769 ], [ -77.41514, 38.91802 ], [ -77.41559, 38.91836 ], [ -77.4176, 38.91743 ], [ -77.41688, 38.9169 ], [ -77.41698, 38.91649 ], [ -77.41827, 38.91648 ], [ -77.41852, 38.91566 ], [ -77.41938, 38.91552 ], [ -77.41977, 38.915 ], [ -77.42092, 38.91525 ], [ -77.42045, 38.91702 ], [ -77.42282, 38.91777 ] ], [ [ -77.41679, 38.95191 ], [ -77.41699, 38.95237 ], [ -77.41639, 38.9531 ], [ -77.41743, 38.95195 ], [ -77.41552, 38.95067 ], [ -77.41363, 38.95014 ], [ -77.41322, 38.94963 ], [ -77.4125, 38.95052 ], [ -77.41679, 38.95191 ] ], [ [ -77.41416, 38.94891 ], [ -77.41424, 38.94887 ], [ -77.41362, 38.94891 ], [ -77.41356, 38.94914 ], [ -77.41416, 38.94891 ] ], [ [ -77.41124, 38.94341 ], [ -77.41126, 38.94328 ], [ -77.41083, 38.94373 ], [ -77.41129, 38.94389 ], [ -77.41124, 38.94341 ] ], [ [ -77.41182, 38.9428 ], [ -77.41188, 38.94244 ], [ -77.41158, 38.9425 ], [ -77.41133, 38.94312 ], [ -77.41182, 38.9428 ] ], [ [ -77.41236, 38.93632 ], [ -77.41248, 38.93544 ], [ -77.41178, 38.93559 ], [ -77.41161, 38.93609 ], [ -77.41236, 38.93632 ] ], [ [ -77.41277, 38.93432 ], [ -77.41329, 38.93273 ], [ -77.41208, 38.93346 ], [ -77.41155, 38.93452 ], [ -77.41277, 38.93432 ] ], [ [ -77.41277, 38.93197 ], [ -77.41338, 38.93248 ], [ -77.41363, 38.93175 ], [ -77.41298, 38.93117 ], [ -77.41409, 38.93038 ], [ -77.41329, 38.9299 ], [ -77.41249, 38.92995 ], [ -77.41041, 38.93159 ], [ -77.41132, 38.93178 ], [ -77.41174, 38.93238 ], [ -77.41277, 38.93197 ] ], [ [ -77.41086, 38.92739 ], [ -77.41164, 38.92794 ], [ -77.4124, 38.92742 ], [ -77.41431, 38.92914 ], [ -77.41599, 38.92383 ], [ -77.4142, 38.92287 ], [ -77.41106, 38.92316 ], [ -77.40411, 38.9258 ], [ -77.40464, 38.92753 ], [ -77.40357, 38.92762 ], [ -77.40264, 38.92832 ], [ -77.40288, 38.92881 ], [ -77.40408, 38.92826 ], [ -77.40463, 38.9285 ], [ -77.40462, 38.92935 ], [ -77.40534, 38.92737 ], [ -77.40757, 38.92557 ], [ -77.40841, 38.92595 ], [ -77.40805, 38.92654 ], [ -77.40839, 38.92681 ], [ -77.40875, 38.92647 ], [ -77.40967, 38.92672 ], [ -77.40952, 38.92763 ], [ -77.41086, 38.92739 ] ], [ [ -77.41692, 38.92162 ], [ -77.41587, 38.92093 ], [ -77.41472, 38.92074 ], [ -77.41395, 38.92134 ], [ -77.41418, 38.92177 ], [ -77.41644, 38.9227 ], [ -77.41692, 38.92162 ] ], [ [ -77.42204, 38.92145 ], [ -77.42024, 38.92155 ], [ -77.41888, 38.92093 ], [ -77.41774, 38.92358 ], [ -77.41879, 38.92424 ], [ -77.4199, 38.92301 ], [ -77.42182, 38.92265 ], [ -77.42204, 38.92145 ] ], [ [ -77.4198, 38.91868 ], [ -77.42012, 38.91876 ], [ -77.42037, 38.91813 ], [ -77.4198, 38.91868 ] ], [ [ -77.41812, 38.91843 ], [ -77.41654, 38.91918 ], [ -77.41775, 38.91961 ], [ -77.41812, 38.91843 ] ], [ [ -77.41966, 38.9396 ], [ -77.4199, 38.94029 ], [ -77.42048, 38.94064 ], [ -77.42129, 38.94084 ], [ -77.42041, 38.94023 ], [ -77.42108, 38.93963 ], [ -77.41966, 38.9396 ] ], [ [ -77.41642, 38.93852 ], [ -77.41642, 38.93835 ], [ -77.4154, 38.93784 ], [ -77.41401, 38.93774 ], [ -77.4142, 38.93861 ], [ -77.41642, 38.93852 ] ], [ [ -77.4164, 38.93704 ], [ -77.41677, 38.93515 ], [ -77.41419, 38.93499 ], [ -77.41403, 38.9361 ], [ -77.41486, 38.9363 ], [ -77.41503, 38.9367 ], [ -77.4164, 38.93704 ] ], [ [ -77.41539, 38.93152 ], [ -77.41497, 38.93269 ], [ -77.41697, 38.93272 ], [ -77.41539, 38.93152 ] ], [ [ -77.41544, 38.94095 ], [ -77.41465, 38.94094 ], [ -77.41474, 38.94151 ], [ -77.4154, 38.94142 ], [ -77.41544, 38.94095 ] ], [ [ -77.41441, 38.93968 ], [ -77.41445, 38.93993 ], [ -77.41539, 38.93987 ], [ -77.41537, 38.9396 ], [ -77.41441, 38.93968 ] ], [ [ -77.41692, 38.9338 ], [ -77.4147, 38.93348 ], [ -77.41455, 38.93393 ], [ -77.41689, 38.93407 ], [ -77.41692, 38.9338 ] ], [ [ -77.40554, 38.94518 ], [ -77.40374, 38.94694 ], [ -77.40255, 38.94728 ], [ -77.40349, 38.94803 ], [ -77.40374, 38.94737 ], [ -77.40522, 38.94679 ], [ -77.40554, 38.94518 ] ], [ [ -77.40963, 38.94542 ], [ -77.4088, 38.94543 ], [ -77.40968, 38.94598 ], [ -77.41076, 38.94505 ], [ -77.41066, 38.94467 ], [ -77.40963, 38.94542 ] ], [ [ -77.41302, 38.95236 ], [ -77.41266, 38.95214 ], [ -77.4119, 38.95336 ], [ -77.41302, 38.95236 ] ], [ [ -77.41211, 38.9484 ], [ -77.41099, 38.94815 ], [ -77.41099, 38.94867 ], [ -77.41021, 38.94904 ], [ -77.41127, 38.94965 ], [ -77.41211, 38.9484 ] ], [ [ -77.41152, 38.94646 ], [ -77.41134, 38.94663 ], [ -77.41156, 38.94666 ], [ -77.41152, 38.94646 ] ], [ [ -77.40519, 38.94381 ], [ -77.40508, 38.944 ], [ -77.40526, 38.94386 ], [ -77.405, 38.94342 ], [ -77.40519, 38.94381 ] ], [ [ -77.40535, 38.93198 ], [ -77.40457, 38.93208 ], [ -77.40526, 38.93264 ], [ -77.40535, 38.93198 ] ], [ [ -77.40559, 38.93017 ], [ -77.40554, 38.93022 ], [ -77.40565, 38.93031 ], [ -77.40559, 38.93017 ] ], [ [ -77.40939, 38.933 ], [ -77.4092, 38.93289 ], [ -77.40746, 38.93412 ], [ -77.40794, 38.93439 ], [ -77.40939, 38.933 ] ], [ [ -77.40816, 38.92985 ], [ -77.40719, 38.93019 ], [ -77.4068, 38.93091 ], [ -77.40859, 38.93127 ], [ -77.40816, 38.92985 ] ], [ [ -77.40971, 38.93173 ], [ -77.40993, 38.93165 ], [ -77.40981, 38.93165 ], [ -77.40971, 38.93173 ] ], [ [ -77.40912, 38.93497 ], [ -77.41037, 38.93558 ], [ -77.41041, 38.93543 ], [ -77.40912, 38.93497 ] ], [ [ -77.4106, 38.93356 ], [ -77.4101, 38.93404 ], [ -77.41014, 38.93406 ], [ -77.4106, 38.93356 ] ], [ [ -77.40668, 38.93228 ], [ -77.40728, 38.93295 ], [ -77.40786, 38.93262 ], [ -77.40748, 38.9321 ], [ -77.40668, 38.93228 ] ], [ [ -77.40079, 38.93197 ], [ -77.40036, 38.93199 ], [ -77.40057, 38.93218 ], [ -77.40079, 38.93197 ] ], [ [ -77.40196, 38.92991 ], [ -77.40144, 38.92888 ], [ -77.3996, 38.93099 ], [ -77.40089, 38.93089 ], [ -77.40097, 38.93047 ], [ -77.40196, 38.92991 ] ], [ [ -77.40193, 38.92705 ], [ -77.40206, 38.92731 ], [ -77.40226, 38.92717 ], [ -77.40193, 38.92705 ] ], [ [ -77.40226, 38.92599 ], [ -77.40231, 38.9259 ], [ -77.402, 38.92588 ], [ -77.40226, 38.92599 ] ], [ [ -77.4021, 38.92598 ], [ -77.40214, 38.92597 ], [ -77.40212, 38.92595 ], [ -77.4021, 38.92598 ] ], [ [ -77.40276, 38.93164 ], [ -77.40265, 38.9317 ], [ -77.40283, 38.93177 ], [ -77.40276, 38.93164 ] ], [ [ -77.39851, 38.93213 ], [ -77.39875, 38.93191 ], [ -77.39865, 38.93182 ], [ -77.39819, 38.93219 ], [ -77.39851, 38.93213 ] ], [ [ -77.39924, 38.92679 ], [ -77.40046, 38.9281 ], [ -77.40084, 38.92783 ], [ -77.39999, 38.92671 ], [ -77.39924, 38.92679 ] ], [ [ -77.40043, 38.93401 ], [ -77.40058, 38.93392 ], [ -77.40035, 38.93358 ], [ -77.40043, 38.93401 ] ], [ [ -77.39735, 38.93573 ], [ -77.39732, 38.93572 ], [ -77.39733, 38.93574 ], [ -77.39735, 38.93573 ] ] ] } }
]
}
