{
"type": "FeatureCollection",
"name": "287",
"crs": { "type": "name", "properties": { "name": "urn:ogc:def:crs:OGC:1.3:CRS84" } },
"xy_coordinate_resolution": 1e-05,
"features": [
{ "type": "Feature", "properties": { "variant": "T0", "miles": 0.5 }, "geometry": { "type": "Polygon", "coordinates": [ [ [ -77.41152, 38.96044 ], [ -77.41173, 38.96207 ], [ -77.40919, 38.96348 ], [ -77.40874, 38.96392 ], [ -77.40866, 38.96538 ], [ -77.40769, 38.96548 ], [ -77.40738, 38.96422 ], [ -77.40682, 38.96388 ], [ -77.40419, 38.96407 ], [ -77.40253, 38.963 ], [ -77.40241, 38.96248 ], [ -77.40172, 38.96213 ], [ -77.40276, 38.96059 ], [ -77.40224, 38.96012 ], [ -77.40105, 38.96137 ], [ -77.39997, 38.96152 ], [ -77.3997, 38.9608 ], [ -77.4008, 38.95933 ], [ -77.39982, 38.95877 ], [ -77.39891, 38.95748 ], [ -77.39968, 38.95701 ], [ -77.40177, 38.95835 ], [ -77.40312, 38.95702 ], [ -77.4041, 38.95699 ], [ -77.40431, 38.95779 ], [ -77.40296, 38.95915 ], [ -77.40752, 38.96198 ], [ -77.40929, 38.96101 ], [ -77.40943, 38.96058 ], [ -77.41075, 38.96017 ], [ -77.41152, 38.96044 ] ] ] } },
{ "type": "Feature", "properties": { "variant": "T0", "miles": 1.0 }, "geometry": { "type": "Polygon", "coordinates": [ [ [ -77.40871, 38.95183 ], [ -77.40963, 38.95181 ], [ -77.41036, 38.95297 ], [ -77.40916, 38.95377 ], [ -77.41015, 38.95469 ], [ -77.40954, 38.9559 ], [ -77.40861, 38.95611 ], [ -77.40723, 38.95541 ], [ -77.40673, 38.95588 ], [ -77.40618, 38.95585 ], [ -77.40296, 38.95915 ], [ -77.40752, 38.96198 ], [ -77.40929, 38.96101 ], [ -77.41037, 38.95985 ], [ -77.41275, 38.96044 ], [ -77.41231, 38.96163 ], [ -77.40874, 38.96392 ], [ -77.40878, 38.96483 ], [ -77.41061, 38.96486 ], [ -77.41124, 38.96541 ], [ -77.41052, 38.96597 ], [ -77.40994, 38.96772 ], [ -77.40848, 38.96771 ], [ -77.40555, 38.9654 ], [ -77.40538, 38.9648 ], [ -77.40587, 38.96432 ], [ -77.40738, 38.96422 ], [ -77.40682, 38.96388 ], [ -77.40419, 38.96407 ], [ -77.40249, 38.96292 ], [ -77.40259, 38.96398 ], [ -77.40206, 38.96461 ], [ -77.40372, 38.96557 ], [ -77.40348, 38.96661 ], [ -77.40271, 38.96683 ], [ -77.40063, 38.96603 ], [ -77.40071, 38.96515 ], [ -77.39995, 38.96545 ], [ -77.40077, 38.96659 ], [ -77.40038, 38.96729 ], [ -77.39941, 38.96721 ], [ -77.39762, 38.96596 ], [ -77.39681, 38.96711 ], [ -77.39608, 38.96702 ], [ -77.39578, 38.96632 ], [ -77.39641, 38.96543 ], [ -77.39368, 38.96416 ], [ -77.39492, 38.9619 ], [ -77.39318, 38.96103 ], [ -77.39364, 38.96008 ], [ -77.39298, 38.95964 ], [ -77.39342, 38.95896 ], [ -77.39431, 38.95913 ], [ -77.39469, 38.95888 ], [ -77.39522, 38.95891 ], [ -77.39593, 38.95976 ], [ -77.397, 38.95951 ], [ -77.39658, 38.95897 ], [ -77.39687, 38.95834 ], [ -77.39522, 38.95718 ], [ -77.39436, 38.9576 ], [ -77.39254, 38.95692 ], [ -77.39176, 38.95456 ], [ -77.39372, 38.95423 ], [ -77.39717, 38.95476 ], [ -77.40122, 38.95596 ], [ -77.40318, 38.95695 ], [ -77.4052, 38.95485 ], [ -77.4048, 38.95433 ], [ -77.40519, 38.95342 ], [ -77.40462, 38.95321 ], [ -77.40457, 38.95217 ], [ -77.40553, 38.95205 ], [ -77.40723, 38.9529 ], [ -77.40871, 38.95183 ] ], [ [ -77.40113, 38.96191 ], [ -77.40276, 38.96059 ], [ -77.40204, 38.96007 ], [ -77.40007, 38.96274 ], [ -77.40076, 38.96309 ], [ -77.40113, 38.96191 ] ], [ [ -77.40013, 38.96015 ], [ -77.40066, 38.95948 ], [ -77.39934, 38.95861 ], [ -77.39859, 38.95887 ], [ -77.39985, 38.95958 ], [ -77.40013, 38.96015 ] ], [ [ -77.40034, 38.95741 ], [ -77.40166, 38.95789 ], [ -77.40197, 38.95761 ], [ -77.39994, 38.95688 ], [ -77.40034, 38.95741 ] ], [ [ -77.39955, 38.96526 ], [ -77.39991, 38.96406 ], [ -77.39923, 38.96373 ], [ -77.39835, 38.96494 ], [ -77.39955, 38.96526 ] ], [ [ -77.39804, 38.96306 ], [ -77.39742, 38.96239 ], [ -77.39623, 38.96415 ], [ -77.39709, 38.96449 ], [ -77.39804, 38.96306 ] ], [ [ -77.39872, 38.96184 ], [ -77.39898, 38.96177 ], [ -77.39851, 38.96156 ], [ -77.39872, 38.96184 ] ], [ [ -77.39418, 38.95583 ], [ -77.39389, 38.95601 ], [ -77.39411, 38.95612 ], [ -77.39418, 38.95583 ] ] ] } },
{ "type": "Feature", "properties": { "variant": "T0", "miles": 1.5 }, "geometry": { "type": "Polygon", "coordinates": [ [ [ -77.41397, 38.94745 ], [ -77.41435, 38.94757 ], [ -77.41491, 38.94708 ], [ -77.41592, 38.94772 ], [ -77.41511, 38.94867 ], [ -77.41362, 38.94891 ], [ -77.4125, 38.95052 ], [ -77.41389, 38.95064 ], [ -77.4167, 38.95183 ], [ -77.41699, 38.95237 ], [ -77.41632, 38.95303 ], [ -77.41684, 38.95405 ], [ -77.41593, 38.95435 ], [ -77.41462, 38.9532 ], [ -77.41387, 38.95321 ], [ -77.41281, 38.95425 ], [ -77.41316, 38.95598 ], [ -77.41398, 38.95603 ], [ -77.41508, 38.95551 ], [ -77.4159, 38.95585 ], [ -77.41601, 38.95661 ], [ -77.41406, 38.95712 ], [ -77.41282, 38.95702 ], [ -77.41312, 38.9588 ], [ -77.41235, 38.95927 ], [ -77.41136, 38.95822 ], [ -77.41143, 38.95641 ], [ -77.41101, 38.95713 ], [ -77.41008, 38.95736 ], [ -77.40618, 38.95585 ], [ -77.40296, 38.95915 ], [ -77.40752, 38.96198 ], [ -77.40929, 38.96101 ], [ -77.41037, 38.95985 ], [ -77.41262, 38.96032 ], [ -77.41281, 38.96085 ], [ -77.41231, 38.96163 ], [ -77.40874, 38.96392 ], [ -77.40878, 38.96483 ], [ -77.41057, 38.96361 ], [ -77.41199, 38.96316 ], [ -77.41224, 38.96217 ], [ -77.41287, 38.96172 ], [ -77.41339, 38.96181 ], [ -77.41355, 38.96255 ], [ -77.41472, 38.96345 ], [ -77.41489, 38.96404 ], [ -77.41487, 38.96446 ], [ -77.41342, 38.9654 ], [ -77.41324, 38.96607 ], [ -77.41367, 38.96679 ], [ -77.41242, 38.96745 ], [ -77.4125, 38.96813 ], [ -77.4118, 38.96875 ], [ -77.41228, 38.96957 ], [ -77.41187, 38.96983 ], [ -77.41002, 38.96953 ], [ -77.4097, 38.97002 ], [ -77.41045, 38.97053 ], [ -77.41038, 38.97094 ], [ -77.40996, 38.97119 ], [ -77.40894, 38.97093 ], [ -77.40867, 38.97148 ], [ -77.40792, 38.97142 ], [ -77.40685, 38.97198 ], [ -77.40386, 38.97744 ], [ -77.4016, 38.97843 ], [ -77.39616, 38.97848 ], [ -77.38953, 38.98033 ], [ -77.38749, 38.98269 ], [ -77.38585, 38.98329 ], [ -77.38419, 38.98325 ], [ -77.38208, 38.98264 ], [ -77.37924, 38.98323 ], [ -77.37526, 38.98287 ], [ -77.37079, 38.98083 ], [ -77.36998, 38.9794 ], [ -77.37057, 38.97565 ], [ -77.36946, 38.97351 ], [ -77.36915, 38.97089 ], [ -77.37012, 38.96825 ], [ -77.37124, 38.96725 ], [ -77.37161, 38.9663 ], [ -77.37108, 38.96332 ], [ -77.37207, 38.96056 ], [ -77.37576, 38.9568 ], [ -77.37786, 38.95584 ], [ -77.37951, 38.95447 ], [ -77.38107, 38.95407 ], [ -77.38566, 38.95474 ], [ -77.38762, 38.95596 ], [ -77.38709, 38.95476 ], [ -77.38523, 38.95409 ], [ -77.38504, 38.95356 ], [ -77.38581, 38.95303 ], [ -77.38681, 38.95313 ], [ -77.38773, 38.95378 ], [ -77.38852, 38.95148 ], [ -77.38939, 38.95051 ], [ -77.39026, 38.95084 ], [ -77.39007, 38.95151 ], [ -77.39124, 38.95203 ], [ -77.39131, 38.95244 ], [ -77.39047, 38.95283 ], [ -77.38978, 38.9526 ], [ -77.3892, 38.95434 ], [ -77.39051, 38.95464 ], [ -77.39312, 38.95422 ], [ -77.39559, 38.95447 ], [ -77.40122, 38.95596 ], [ -77.40318, 38.95695 ], [ -77.4052, 38.95485 ], [ -77.4048, 38.95436 ], [ -77.40287, 38.95501 ], [ -77.40168, 38.95498 ], [ -77.40124, 38.9546 ], [ -77.4017, 38.95396 ], [ -77.40053, 38.95337 ], [ -77.3991, 38.9534 ], [ -77.3989, 38.95302 ], [ -77.40031, 38.95205 ], [ -77.39858, 38.95113 ], [ -77.39839, 38.95047 ], [ -77.39895, 38.94968 ], [ -77.39986, 38.94956 ], [ -77.39943, 38.94885 ], [ -77.40058, 38.94728 ], [ -77.4019, 38.94649 ], [ -77.40349, 38.94803 ], [ -77.40374, 38.94737 ], [ -77.40459, 38.94694 ], [ -77.40567, 38.94718 ], [ -77.40666, 38.9467 ], [ -77.40811, 38.94784 ], [ -77.4082, 38.94685 ], [ -77.40973, 38.94619 ], [ -77.41238, 38.94717 ], [ -77.41268, 38.94534 ], [ -77.41346, 38.94487 ], [ -77.4143, 38.9455 ], [ -77.41397, 38.94745 ] ], [ [ -77.39994, 38.95688 ], [ -77.40166, 38.95789 ], [ -77.40197, 38.95761 ], [ -77.39994, 38.95688 ] ], [ [ -77.40674, 38.95029 ], [ -77.40912, 38.95149 ], [ -77.41035, 38.95046 ], [ -77.40863, 38.94942 ], [ -77.40824, 38.94988 ], [ -77.40674, 38.95029 ] ], [ [ -77.41008, 38.95447 ], [ -77.40999, 38.95414 ], [ -77.40945, 38.95422 ], [ -77.41008, 38.95447 ] ], [ [ -77.41127, 38.94965 ], [ -77.41211, 38.9484 ], [ -77.41099, 38.94815 ], [ -77.41099, 38.94867 ], [ -77.41021, 38.94904 ], [ -77.41127, 38.94965 ] ], [ [ -77.41138, 38.955 ], [ -77.41155, 38.95499 ], [ -77.41142, 38.95477 ], [ -77.41138, 38.955 ] ], [ [ -77.41302, 38.95236 ], [ -77.41205, 38.9527 ], [ -77.41194, 38.95339 ], [ -77.41302, 38.95236 ] ], [ [ -77.40284, 38.95302 ], [ -77.40369, 38.95251 ], [ -77.40339, 38.95191 ], [ -77.40171, 38.95224 ], [ -77.40152, 38.95258 ], [ -77.40284, 38.95302 ] ], [ [ -77.40511, 38.95186 ], [ -77.4049, 38.95197 ], [ -77.40514, 38.95194 ], [ -77.40511, 38.95186 ] ], [ [ -77.40662, 38.95242 ], [ -77.40654, 38.9526 ], [ -77.4068, 38.9527 ], [ -77.40662, 38.95242 ] ], [ [ -77.40497, 38.9723 ], [ -77.40249, 38.97219 ], [ -77.40105, 38.97094 ], [ -77.40082, 38.97123 ], [ -77.40163, 38.97215 ], [ -77.40029, 38.97285 ], [ -77.39808, 38.9713 ], [ -77.39681, 38.9719 ], [ -77.39524, 38.97087 ], [ -77.39474, 38.9709 ], [ -77.39254, 38.97107 ], [ -77.39191, 38.97171 ], [ -77.39116, 38.97116 ], [ -77.38912, 38.97112 ], [ -77.38882, 38.97006 ], [ -77.38736, 38.96995 ], [ -77.38679, 38.96879 ], [ -77.38808, 38.96653 ], [ -77.38777, 38.96615 ], [ -77.38683, 38.9661 ], [ -77.38655, 38.96482 ], [ -77.38766, 38.96461 ], [ -77.38774, 38.96395 ], [ -77.38823, 38.9638 ], [ -77.38991, 38.96431 ], [ -77.39068, 38.96374 ], [ -77.39, 38.96287 ], [ -77.389, 38.96336 ], [ -77.38862, 38.96307 ], [ -77.38877, 38.96237 ], [ -77.38544, 38.96063 ], [ -77.38712, 38.95777 ], [ -77.38597, 38.95621 ], [ -77.385, 38.95571 ], [ -77.38075, 38.9552 ], [ -77.37657, 38.95772 ], [ -77.37374, 38.96035 ], [ -77.37266, 38.96252 ], [ -77.37296, 38.96654 ], [ -77.37246, 38.96777 ], [ -77.37141, 38.96865 ], [ -77.37049, 38.97122 ], [ -77.3708, 38.97326 ], [ -77.37195, 38.97553 ], [ -77.37138, 38.97957 ], [ -77.37408, 38.98133 ], [ -77.37557, 38.98181 ], [ -77.3791, 38.98215 ], [ -77.38213, 38.98156 ], [ -77.3845, 38.9822 ], [ -77.38597, 38.98218 ], [ -77.38786, 38.98005 ], [ -77.38916, 38.97919 ], [ -77.39585, 38.97743 ], [ -77.40102, 38.97741 ], [ -77.40248, 38.97695 ], [ -77.40497, 38.9723 ] ], [ [ -77.40284, 38.96482 ], [ -77.40282, 38.96484 ], [ -77.40284, 38.96486 ], [ -77.40284, 38.96482 ] ], [ [ -77.40294, 38.96314 ], [ -77.40249, 38.96292 ], [ -77.40226, 38.96323 ], [ -77.4025, 38.96343 ], [ -77.40294, 38.96314 ] ], [ [ -77.40262, 38.96039 ], [ -77.40204, 38.96007 ], [ -77.40007, 38.96274 ], [ -77.40076, 38.96309 ], [ -77.40113, 38.96191 ], [ -77.40182, 38.96167 ], [ -77.40262, 38.96039 ] ], [ [ -77.41176, 38.96437 ], [ -77.41164, 38.96437 ], [ -77.41169, 38.96447 ], [ -77.41176, 38.96437 ] ], [ [ -77.41274, 38.96511 ], [ -77.41275, 38.96511 ], [ -77.41275, 38.9651 ], [ -77.41274, 38.96511 ] ], [ [ -77.41276, 38.96514 ], [ -77.41276, 38.96513 ], [ -77.41274, 38.96513 ], [ -77.41276, 38.96514 ] ], [ [ -77.41048, 38.96692 ], [ -77.41036, 38.96684 ], [ -77.41032, 38.96693 ], [ -77.41048, 38.96692 ] ], [ [ -77.40569, 38.96576 ], [ -77.40546, 38.96463 ], [ -77.40597, 38.96429 ], [ -77.40739, 38.96444 ], [ -77.40682, 38.96388 ], [ -77.40461, 38.96408 ], [ -77.40493, 38.9648 ], [ -77.40396, 38.96604 ], [ -77.4047, 38.9665 ], [ -77.40569, 38.96576 ] ], [ [ -77.40616, 38.96691 ], [ -77.4058, 38.96718 ], [ -77.40622, 38.96696 ], [ -77.40616, 38.96691 ] ], [ [ -77.40453, 38.96914 ], [ -77.40465, 38.96916 ], [ -77.4046, 38.9691 ], [ -77.40453, 38.96914 ] ], [ [ -77.3991, 38.96945 ], [ -77.39977, 38.97048 ], [ -77.40009, 38.97034 ], [ -77.39999, 38.96983 ], [ -77.3991, 38.96945 ] ], [ [ -77.39843, 38.96861 ], [ -77.39705, 38.96842 ], [ -77.39703, 38.9678 ], [ -77.39813, 38.96616 ], [ -77.39762, 38.96596 ], [ -77.39609, 38.96816 ], [ -77.39691, 38.96881 ], [ -77.39782, 38.96875 ], [ -77.3982, 38.96914 ], [ -77.39843, 38.96861 ] ], [ [ -77.39835, 38.96494 ], [ -77.39988, 38.9641 ], [ -77.3992, 38.96377 ], [ -77.39835, 38.96494 ] ], [ [ -77.39418, 38.95583 ], [ -77.39389, 38.95601 ], [ -77.39411, 38.95612 ], [ -77.39418, 38.95583 ] ], [ [ -77.39914, 38.96696 ], [ -77.39879, 38.96747 ], [ -77.3996, 38.96764 ], [ -77.39929, 38.96732 ], [ -77.39914, 38.96696 ] ], [ [ -77.39859, 38.95887 ], [ -77.39985, 38.95958 ], [ -77.40013, 38.96015 ], [ -77.40066, 38.95948 ], [ -77.39934, 38.95861 ], [ -77.39859, 38.95887 ] ], [ [ -77.40148, 38.96825 ], [ -77.4016, 38.9682 ], [ -77.40149, 38.96821 ], [ -77.40148, 38.96825 ] ], [ [ -77.40294, 38.97097 ], [ -77.40245, 38.97072 ], [ -77.4032, 38.97121 ], [ -77.40294, 38.97097 ] ], [ [ -77.39872, 38.96184 ], [ -77.39898, 38.96177 ], [ -77.39851, 38.96156 ], [ -77.39872, 38.96184 ] ], [ [ -77.3993, 38.97005 ], [ -77.39927, 38.97004 ], [ -77.39929, 38.97005 ], [ -77.3993, 38.97005 ] ], [ [ -77.397, 38.95951 ], [ -77.39606, 38.95882 ], [ -77.39593, 38.95918 ], [ -77.39642, 38.9596 ], [ -77.397, 38.95951 ] ], [ [ -77.39485, 38.95752 ], [ -77.39583, 38.9577 ], [ -77.39522, 38.95718 ], [ -77.39485, 38.95752 ] ], [ [ -77.3973, 38.96266 ], [ -77.39623, 38.96415 ], [ -77.39709, 38.96449 ], [ -77.39805, 38.96315 ], [ -77.3973, 38.96266 ] ], [ [ -77.39478, 38.96777 ], [ -77.3942, 38.96755 ], [ -77.39421, 38.96777 ], [ -77.39478, 38.96777 ] ], [ [ -77.39322, 38.96659 ], [ -77.39569, 38.96645 ], [ -77.39637, 38.96549 ], [ -77.39376, 38.96445 ], [ -77.39137, 38.96793 ], [ -77.39283, 38.96786 ], [ -77.39322, 38.96659 ] ], [ [ -77.38989, 38.96067 ], [ -77.38981, 38.96067 ], [ -77.38982, 38.96077 ], [ -77.38989, 38.96067 ] ], [ [ -77.39001, 38.9561 ], [ -77.3891, 38.95571 ], [ -77.38909, 38.95725 ], [ -77.38921, 38.9573 ], [ -77.39001, 38.9561 ] ], [ [ -77.39537, 38.96913 ], [ -77.39517, 38.96979 ], [ -77.39696, 38.97065 ], [ -77.39711, 38.97053 ], [ -77.39537, 38.96913 ] ], [ [ -77.39804, 38.96905 ], [ -77.39804, 38.96903 ], [ -77.39803, 38.96904 ], [ -77.39804, 38.96905 ] ], [ [ -77.39166, 38.96057 ], [ -77.39156, 38.9605 ], [ -77.3914, 38.96073 ], [ -77.39166, 38.96057 ] ], [ [ -77.3913, 38.96089 ], [ -77.3911, 38.9612 ], [ -77.39089, 38.96151 ], [ -77.39139, 38.96132 ], [ -77.3913, 38.96089 ] ], [ [ -77.39063, 38.9619 ], [ -77.39076, 38.96195 ], [ -77.39078, 38.96167 ], [ -77.39063, 38.9619 ] ], [ [ -77.39105, 38.97008 ], [ -77.3902, 38.96998 ], [ -77.39021, 38.97013 ], [ -77.39105, 38.97008 ] ], [ [ -77.39253, 38.96985 ], [ -77.39243, 38.96999 ], [ -77.39254, 38.96999 ], [ -77.39253, 38.96985 ] ], [ [ -77.38708, 38.96021 ], [ -77.38758, 38.96045 ], [ -77.38801, 38.95923 ], [ -77.38773, 38.95921 ], [ -77.38708, 38.96021 ] ] ] } },
{ "type": "Feature", "properties": { "variant": "T2s", "miles": 0.5 }, "geometry": { "type": "Polygon", "coordinates": [ [ [ -77.41152, 38.96044 ], [ -77.41173, 38.96207 ], [ -77.40874, 38.96392 ], [ -77.4088, 38.96498 ], [ -77.4082, 38.96559 ], [ -77.40769, 38.96548 ], [ -77.40738, 38.96422 ], [ -77.40682, 38.96388 ], [ -77.40419, 38.96407 ], [ -77.40253, 38.963 ], [ -77.40241, 38.96248 ], [ -77.40172, 38.96213 ], [ -77.40276, 38.96059 ], [ -77.40224, 38.96012 ], [ -77.40063, 38.96163 ], [ -77.39964, 38.96119 ], [ -77.40085, 38.9595 ], [ -77.40369, 38.95692 ], [ -77.40446, 38.95739 ], [ -77.40296, 38.95915 ], [ -77.40752, 38.96198 ], [ -77.40929, 38.96101 ], [ -77.40943, 38.96058 ], [ -77.41075, 38.96017 ], [ -77.41152, 38.96044 ] ] ] } },
{ "type": "Feature", "properties": { "variant": "T2s", "miles": 1.0 }, "geometry": { "type": "Polygon", "coordinates": [ [ [ -77.40869, 38.95186 ], [ -77.40963, 38.95181 ], [ -77.41036, 38.95297 ], [ -77.40916, 38.95377 ], [ -77.41015, 38.95469 ], [ -77.40954, 38.9559 ], [ -77.40861, 38.95611 ], [ -77.40723, 38.95541 ], [ -77.40673, 38.95588 ], [ -77.40618, 38.95585 ], [ -77.40296, 38.95915 ], [ -77.40752, 38.96198 ], [ -77.40929, 38.96101 ], [ -77.41037, 38.95985 ], [ -77.41275, 38.96044 ], [ -77.41231, 38.96163 ], [ -77.40874, 38.96392 ], [ -77.40878, 38.96483 ], [ -77.41061, 38.96486 ], [ -77.41124, 38.96541 ], [ -77.41052, 38.96597 ], [ -77.40994, 38.96772 ], [ -77.40848, 38.96771 ], [ -77.40555, 38.9654 ], [ -77.40538, 38.9648 ], [ -77.40587, 38.96432 ], [ -77.40738, 38.96422 ], [ -77.40682, 38.96388 ], [ -77.40419, 38.96407 ], [ -77.40249, 38.96292 ], [ -77.40259, 38.96398 ], [ -77.40206, 38.96461 ], [ -77.40372, 38.96557 ], [ -77.40348, 38.96661 ], [ -77.40271, 38.96683 ], [ -77.40063, 38.96603 ], [ -77.40071, 38.96515 ], [ -77.39995, 38.96545 ], [ -77.40077, 38.96659 ], [ -77.40038, 38.96729 ], [ -77.39941, 38.96721 ], [ -77.39762, 38.96596 ], [ -77.39681, 38.96711 ], [ -77.39608, 38.96702 ], [ -77.39578, 38.96632 ], [ -77.39641, 38.96543 ], [ -77.39368, 38.96416 ], [ -77.39492, 38.9619 ], [ -77.39318, 38.96103 ], [ -77.39364, 38.96008 ], [ -77.39298, 38.95964 ], [ -77.39302, 38.95922 ], [ -77.39522, 38.95891 ], [ -77.39593, 38.95976 ], [ -77.397, 38.95951 ], [ -77.39658, 38.95897 ], [ -77.39698, 38.95837 ], [ -77.3964, 38.9579 ], [ -77.3969, 38.95739 ], [ -77.39622, 38.95706 ], [ -77.3961, 38.9563 ], [ -77.39707, 38.9562 ], [ -77.39808, 38.95679 ], [ -77.39765, 38.95615 ], [ -77.3985, 38.95547 ], [ -77.40122, 38.95596 ], [ -77.40318, 38.95695 ], [ -77.40869, 38.95186 ] ], [ [ -77.40113, 38.96191 ], [ -77.40276, 38.96059 ], [ -77.40204, 38.96007 ], [ -77.40007, 38.96274 ], [ -77.40076, 38.96309 ], [ -77.40113, 38.96191 ] ], [ [ -77.39923, 38.96373 ], [ -77.39835, 38.96494 ], [ -77.39955, 38.96526 ], [ -77.39991, 38.96406 ], [ -77.39923, 38.96373 ] ], [ [ -77.39721, 38.96432 ], [ -77.39809, 38.9631 ], [ -77.39742, 38.96239 ], [ -77.39623, 38.96415 ], [ -77.39721, 38.96432 ] ], [ [ -77.39859, 38.95887 ], [ -77.39985, 38.95958 ], [ -77.40013, 38.96015 ], [ -77.4008, 38.95933 ], [ -77.39942, 38.95852 ], [ -77.39859, 38.95887 ] ], [ [ -77.40078, 38.95775 ], [ -77.40197, 38.95761 ], [ -77.39994, 38.95688 ], [ -77.40078, 38.95775 ] ], [ [ -77.39872, 38.96184 ], [ -77.39898, 38.96177 ], [ -77.39851, 38.96156 ], [ -77.39872, 38.96184 ] ] ] } },
{ "type": "Feature", "properties": { "variant": "T2s", "miles": 1.5 }, "geometry": { "type": "Polygon", "coordinates": [ [ [ -77.40973, 38.94619 ], [ -77.41195, 38.94711 ], [ -77.41435, 38.94757 ], [ -77.41491, 38.94708 ], [ -77.41569, 38.94735 ], [ -77.41578, 38.94808 ], [ -77.41476, 38.94883 ], [ -77.41362, 38.94891 ], [ -77.4125, 38.95052 ], [ -77.41389, 38.95064 ], [ -77.4167, 38.95183 ], [ -77.41699, 38.95237 ], [ -77.41632, 38.95303 ], [ -77.41684, 38.95405 ], [ -77.41593, 38.95435 ], [ -77.41423, 38.95306 ], [ -77.41281, 38.95425 ], [ -77.41316, 38.95598 ], [ -77.41398, 38.95603 ], [ -77.41508, 38.95551 ], [ -77.41615, 38.95621 ], [ -77.41554, 38.95681 ], [ -77.41282, 38.95702 ], [ -77.41286, 38.95916 ], [ -77.41189, 38.95906 ], [ -77.41147, 38.95848 ], [ -77.41143, 38.95641 ], [ -77.41101, 38.95713 ], [ -77.41008, 38.95736 ], [ -77.40618, 38.95585 ], [ -77.40296, 38.95915 ], [ -77.40752, 38.96198 ], [ -77.40929, 38.96101 ], [ -77.41037, 38.95985 ], [ -77.41262, 38.96032 ], [ -77.41281, 38.96085 ], [ -77.41231, 38.96163 ], [ -77.40874, 38.96392 ], [ -77.40878, 38.96483 ], [ -77.41057, 38.96361 ], [ -77.41199, 38.96316 ], [ -77.41224, 38.96217 ], [ -77.41287, 38.96172 ], [ -77.41339, 38.96181 ], [ -77.41355, 38.96255 ], [ -77.41472, 38.96345 ], [ -77.41489, 38.96404 ], [ -77.41487, 38.96446 ], [ -77.41342, 38.9654 ], [ -77.41324, 38.96607 ], [ -77.41367, 38.96679 ], [ -77.41242, 38.96745 ], [ -77.4125, 38.96813 ], [ -77.4118, 38.96875 ], [ -77.41228, 38.96957 ], [ -77.41187, 38.96983 ], [ -77.41003, 38.96953 ], [ -77.40997, 38.96879 ], [ -77.40837, 38.96734 ], [ -77.40778, 38.96722 ], [ -77.40642, 38.96816 ], [ -77.4072, 38.97083 ], [ -77.40386, 38.97744 ], [ -77.4016, 38.97843 ], [ -77.39616, 38.97848 ], [ -77.38953, 38.98033 ], [ -77.38749, 38.98269 ], [ -77.38585, 38.98329 ], [ -77.38419, 38.98325 ], [ -77.38208, 38.98264 ], [ -77.37924, 38.98323 ], [ -77.37526, 38.98287 ], [ -77.37079, 38.98083 ], [ -77.36998, 38.9794 ], [ -77.37057, 38.97565 ], [ -77.36946, 38.97351 ], [ -77.36915, 38.97089 ], [ -77.37012, 38.96825 ], [ -77.37124, 38.96725 ], [ -77.37161, 38.9663 ], [ -77.37108, 38.96332 ], [ -77.37204, 38.96061 ], [ -77.37551, 38.95702 ], [ -77.37786, 38.95584 ], [ -77.37951, 38.95447 ], [ -77.38138, 38.95406 ], [ -77.38571, 38.95476 ], [ -77.38712, 38.95539 ], [ -77.38771, 38.95611 ], [ -77.38751, 38.9546 ], [ -77.38782, 38.95427 ], [ -77.39061, 38.95464 ], [ -77.39419, 38.95426 ], [ -77.40122, 38.95596 ], [ -77.40318, 38.95695 ], [ -77.4052, 38.95485 ], [ -77.4048, 38.95436 ], [ -77.40287, 38.95501 ], [ -77.40168, 38.95498 ], [ -77.40124, 38.9546 ], [ -77.40131, 38.95419 ], [ -77.40228, 38.95396 ], [ -77.4027, 38.95315 ], [ -77.40369, 38.95251 ], [ -77.40339, 38.95191 ], [ -77.40188, 38.95223 ], [ -77.40063, 38.952 ], [ -77.40102, 38.94988 ], [ -77.40288, 38.94823 ], [ -77.40373, 38.94875 ], [ -77.40416, 38.94847 ], [ -77.40354, 38.94776 ], [ -77.40374, 38.94737 ], [ -77.40614, 38.94761 ], [ -77.40623, 38.94872 ], [ -77.40734, 38.94779 ], [ -77.40811, 38.94784 ], [ -77.4082, 38.94685 ], [ -77.40973, 38.94619 ] ], [ [ -77.40497, 38.9723 ], [ -77.40249, 38.97219 ], [ -77.40105, 38.97094 ], [ -77.40082, 38.97123 ], [ -77.40163, 38.97215 ], [ -77.40029, 38.97285 ], [ -77.39808, 38.9713 ], [ -77.39681, 38.9719 ], [ -77.39524, 38.97087 ], [ -77.39474, 38.9709 ], [ -77.39254, 38.97107 ], [ -77.39191, 38.97171 ], [ -77.39116, 38.97116 ], [ -77.38912, 38.97112 ], [ -77.38882, 38.97006 ], [ -77.38736, 38.96995 ], [ -77.38679, 38.96879 ], [ -77.38808, 38.96653 ], [ -77.38777, 38.96615 ], [ -77.38683, 38.9661 ], [ -77.38655, 38.96482 ], [ -77.38766, 38.96461 ], [ -77.38774, 38.96395 ], [ -77.38823, 38.9638 ], [ -77.38991, 38.96431 ], [ -77.39068, 38.96374 ], [ -77.39, 38.96287 ], [ -77.389, 38.96336 ], [ -77.38862, 38.96307 ], [ -77.38877, 38.96237 ], [ -77.38544, 38.96063 ], [ -77.38712, 38.95777 ], [ -77.38597, 38.95621 ], [ -77.385, 38.95571 ], [ -77.38075, 38.9552 ], [ -77.37657, 38.95772 ], [ -77.37374, 38.96035 ], [ -77.37266, 38.96252 ], [ -77.37296, 38.96654 ], [ -77.37246, 38.96777 ], [ -77.37141, 38.96865 ], [ -77.37049, 38.97122 ], [ -77.3708, 38.97326 ], [ -77.37195, 38.97553 ], [ -77.37138, 38.97957 ], [ -77.37408, 38.98133 ], [ -77.37557, 38.98181 ], [ -77.3791, 38.98215 ], [ -77.38213, 38.98156 ], [ -77.3845, 38.9822 ], [ -77.38597, 38.98218 ], [ -77.38786, 38.98005 ], [ -77.38916, 38.97919 ], [ -77.39585, 38.97743 ], [ -77.40102, 38.97741 ], [ -77.40248, 38.97695 ], [ -77.40497, 38.9723 ] ], [ [ -77.40402, 38.96606 ], [ -77.4047, 38.9665 ], [ -77.40592, 38.96571 ], [ -77.40537, 38.96511 ], [ -77.40552, 38.96455 ], [ -77.40738, 38.96422 ], [ -77.40682, 38.96388 ], [ -77.40461, 38.96408 ], [ -77.40493, 38.9648 ], [ -77.40402, 38.96606 ] ], [ [ -77.40284, 38.96482 ], [ -77.40282, 38.96484 ], [ -77.40284, 38.96486 ], [ -77.40284, 38.96482 ] ], [ [ -77.40294, 38.96314 ], [ -77.40249, 38.96292 ], [ -77.40226, 38.96323 ], [ -77.4025, 38.96343 ], [ -77.40294, 38.96314 ] ], [ [ -77.40076, 38.96309 ], [ -77.40113, 38.96191 ], [ -77.40276, 38.96059 ], [ -77.40204, 38.96007 ], [ -77.40007, 38.96274 ], [ -77.40076, 38.96309 ] ], [ [ -77.40013, 38.96015 ], [ -77.40066, 38.95948 ], [ -77.39934, 38.95861 ], [ -77.39859, 38.95887 ], [ -77.39985, 38.95958 ], [ -77.40013, 38.96015 ] ], [ [ -77.40034, 38.95741 ], [ -77.40166, 38.95789 ], [ -77.40197, 38.95761 ], [ -77.39994, 38.95688 ], [ -77.40034, 38.95741 ] ], [ [ -77.41138, 38.955 ], [ -77.41155, 38.95499 ], [ -77.41142, 38.95477 ], [ -77.41138, 38.955 ] ], [ [ -77.41035, 38.95046 ], [ -77.40824, 38.94893 ], [ -77.40632, 38.94984 ], [ -77.40629, 38.95018 ], [ -77.40912, 38.95149 ], [ -77.41035, 38.95046 ] ], [ [ -77.41127, 38.94965 ], [ -77.41211, 38.9484 ], [ -77.41089, 38.94812 ], [ -77.4098, 38.94879 ], [ -77.41127, 38.94965 ] ], [ [ -77.41302, 38.95236 ], [ -77.41205, 38.9527 ], [ -77.41194, 38.95339 ], [ -77.41302, 38.95236 ] ], [ [ -77.40999, 38.95414 ], [ -77.40945, 38.95422 ], [ -77.41008, 38.95447 ], [ -77.40999, 38.95414 ] ], [ [ -77.41176, 38.96437 ], [ -77.41164, 38.96437 ], [ -77.41169, 38.96447 ], [ -77.41176, 38.96437 ] ], [ [ -77.41276, 38.96513 ], [ -77.41274, 38.96513 ], [ -77.41276, 38.96514 ], [ -77.41276, 38.96513 ] ], [ [ -77.41275, 38.9651 ], [ -77.41274, 38.96511 ], [ -77.41275, 38.96511 ], [ -77.41275, 38.9651 ] ], [ [ -77.41048, 38.96692 ], [ -77.41036, 38.96684 ], [ -77.41032, 38.96693 ], [ -77.41048, 38.96692 ] ], [ [ -77.40511, 38.95186 ], [ -77.4049, 38.95197 ], [ -77.40514, 38.95194 ], [ -77.40511, 38.95186 ] ], [ [ -77.4068, 38.9527 ], [ -77.40662, 38.95242 ], [ -77.40654, 38.9526 ], [ -77.4068, 38.9527 ] ], [ [ -77.40616, 38.96691 ], [ -77.4058, 38.96718 ], [ -77.40622, 38.96696 ], [ -77.40616, 38.96691 ] ], [ [ -77.40465, 38.96916 ], [ -77.4046, 38.9691 ], [ -77.40453, 38.96914 ], [ -77.40465, 38.96916 ] ], [ [ -77.39839, 38.969 ], [ -77.39812, 38.96845 ], [ -77.39705, 38.96842 ], [ -77.39703, 38.9678 ], [ -77.39813, 38.96616 ], [ -77.39762, 38.96596 ], [ -77.39609, 38.96816 ], [ -77.39691, 38.96881 ], [ -77.39839, 38.969 ] ], [ [ -77.39721, 38.96432 ], [ -77.39805, 38.96315 ], [ -77.39739, 38.96247 ], [ -77.39623, 38.96415 ], [ -77.39721, 38.96432 ] ], [ [ -77.39418, 38.95583 ], [ -77.39389, 38.95601 ], [ -77.39411, 38.95612 ], [ -77.39418, 38.95583 ] ], [ [ -77.39999, 38.96983 ], [ -77.39938, 38.96947 ], [ -77.3991, 38.96945 ], [ -77.39977, 38.97048 ], [ -77.39999, 38.96983 ] ], [ [ -77.39914, 38.96696 ], [ -77.39879, 38.96747 ], [ -77.3996, 38.96764 ], [ -77.39929, 38.96732 ], [ -77.39914, 38.96696 ] ], [ [ -77.39707, 38.95938 ], [ -77.39666, 38.95905 ], [ -77.39606, 38.95882 ], [ -77.39642, 38.9596 ], [ -77.39707, 38.95938 ] ], [ [ -77.3992, 38.96377 ], [ -77.39842, 38.96485 ], [ -77.39835, 38.96494 ], [ -77.39988, 38.9641 ], [ -77.3992, 38.96377 ] ], [ [ -77.4016, 38.9682 ], [ -77.40158, 38.96827 ], [ -77.40163, 38.96829 ], [ -77.4016, 38.9682 ] ], [ [ -77.40294, 38.97097 ], [ -77.40245, 38.97072 ], [ -77.4032, 38.97121 ], [ -77.40294, 38.97097 ] ], [ [ -77.39872, 38.96184 ], [ -77.39898, 38.96177 ], [ -77.39851, 38.96156 ], [ -77.39872, 38.96184 ] ], [ [ -77.39929, 38.97005 ], [ -77.3993, 38.97005 ], [ -77.39927, 38.97004 ], [ -77.39929, 38.97005 ] ], [ [ -77.39522, 38.95718 ], [ -77.39534, 38.95773 ], [ -77.39583, 38.9577 ], [ -77.39522, 38.95718 ] ], [ [ -77.39163, 38.96791 ], [ -77.39283, 38.96786 ], [ -77.39287, 38.9669 ], [ -77.39329, 38.96656 ], [ -77.39569, 38.96645 ], [ -77.39637, 38.96549 ], [ -77.39376, 38.96445 ], [ -77.39281, 38.96623 ], [ -77.39196, 38.96661 ], [ -77.39163, 38.96791 ] ], [ [ -77.39063, 38.9619 ], [ -77.39076, 38.96195 ], [ -77.39078, 38.96167 ], [ -77.39063, 38.9619 ] ], [ [ -77.39139, 38.96132 ], [ -77.3913, 38.96089 ], [ -77.39089, 38.96151 ], [ -77.39139, 38.96132 ] ], [ [ -77.39166, 38.96057 ], [ -77.39156, 38.9605 ], [ -77.3914, 38.96073 ], [ -77.39166, 38.96057 ] ], [ [ -77.39001, 38.9561 ], [ -77.3891, 38.95571 ], [ -77.38921, 38.9573 ], [ -77.39001, 38.9561 ] ], [ [ -77.39478, 38.96777 ], [ -77.3942, 38.96755 ], [ -77.39421, 38.96777 ], [ -77.39478, 38.96777 ] ], [ [ -77.39537, 38.96913 ], [ -77.39517, 38.96979 ], [ -77.39711, 38.97053 ], [ -77.39537, 38.96913 ] ], [ [ -77.39806, 38.96905 ], [ -77.39803, 38.96904 ], [ -77.39804, 38.96905 ], [ -77.39806, 38.96905 ] ], [ [ -77.3902, 38.96998 ], [ -77.39105, 38.97008 ], [ -77.39104, 38.96993 ], [ -77.3902, 38.96998 ] ], [ [ -77.39243, 38.96999 ], [ -77.39253, 38.96985 ], [ -77.39242, 38.96985 ], [ -77.39243, 38.96999 ] ], [ [ -77.38721, 38.9603 ], [ -77.38758, 38.96045 ], [ -77.38801, 38.95923 ], [ -77.38773, 38.95921 ], [ -77.38721, 38.9603 ] ], [ [ -77.38981, 38.96067 ], [ -77.38982, 38.96077 ], [ -77.38989, 38.96067 ], [ -77.38981, 38.96067 ] ] ] } }
]
}
