{
"type": "FeatureCollection",
"name": "295",
"crs": { "type": "name", "properties": { "name": "urn:ogc:def:crs:OGC:1.3:CRS84" } },
"xy_coordinate_resolution": 1e-05,
"features": [
{ "type": "Feature", "properties": { "variant": "T0", "miles": 0.5 }, "geometry": { "type": "Polygon", "coordinates": [ [ [ -77.32997, 38.98923 ], [ -77.33136, 38.99023 ], [ -77.33069, 38.99078 ], [ -77.33015, 38.99061 ], [ -77.33004, 38.99229 ], [ -77.33091, 38.99165 ], [ -77.33143, 38.9917 ], [ -77.33181, 38.9923 ], [ -77.33152, 38.99456 ], [ -77.33054, 38.99456 ], [ -77.33006, 38.99337 ], [ -77.33004, 38.99597 ], [ -77.33174, 38.99622 ], [ -77.33187, 38.99769 ], [ -77.33147, 38.99824 ], [ -77.33094, 38.99827 ], [ -77.33043, 38.99702 ], [ -77.33008, 38.99706 ], [ -77.33024, 38.99975 ], [ -77.32957, 39.00031 ], [ -77.32885, 38.99979 ], [ -77.32865, 38.99592 ], [ -77.32783, 38.99618 ], [ -77.32764, 38.9968 ], [ -77.32715, 38.99695 ], [ -77.32662, 38.9967 ], [ -77.32372, 38.99682 ], [ -77.32292, 38.99637 ], [ -77.32349, 38.99575 ], [ -77.32494, 38.99568 ], [ -77.32489, 38.9951 ], [ -77.3254, 38.99469 ], [ -77.32465, 38.99421 ], [ -77.32509, 38.99353 ], [ -77.32732, 38.99414 ], [ -77.32811, 38.99491 ], [ -77.32865, 38.99483 ], [ -77.32871, 38.99072 ], [ -77.32925, 38.98963 ], [ -77.32997, 38.98923 ] ], [ [ -77.32685, 38.99538 ], [ -77.32621, 38.99494 ], [ -77.32633, 38.99563 ], [ -77.32685, 38.99538 ] ] ] } },
{ "type": "Feature", "properties": { "variant": "T0", "miles": 1.0 }, "geometry": { "type": "Polygon", "coordinates": [ [ [ -77.33066, 38.98801 ], [ -77.32861, 38.98779 ], [ -77.32777, 38.98729 ], [ -77.32758, 38.98759 ], [ -77.33114, 38.98985 ], [ -77.33914, 38.99617 ], [ -77.33881, 38.9967 ], [ -77.33783, 38.99674 ], [ -77.33181, 38.99222 ], [ -77.33152, 38.99456 ], [ -77.33054, 38.99456 ], [ -77.33006, 38.99337 ], [ -77.33004, 38.99597 ], [ -77.33205, 38.99587 ], [ -77.33386, 38.99421 ], [ -77.33533, 38.99519 ], [ -77.33536, 38.9956 ], [ -77.33181, 38.99708 ], [ -77.33147, 38.99824 ], [ -77.33054, 38.998 ], [ -77.33043, 38.99702 ], [ -77.33008, 38.99706 ], [ -77.33021, 38.99926 ], [ -77.33363, 38.99951 ], [ -77.3329, 38.99838 ], [ -77.33366, 38.99789 ], [ -77.33456, 38.99849 ], [ -77.33641, 38.99893 ], [ -77.33645, 38.99934 ], [ -77.33567, 38.99969 ], [ -77.33877, 38.99991 ], [ -77.33939, 39.0005 ], [ -77.33864, 39.00099 ], [ -77.33642, 39.00082 ], [ -77.33625, 39.00197 ], [ -77.33541, 39.00242 ], [ -77.3348, 39.00182 ], [ -77.33503, 39.0007 ], [ -77.33404, 39.00062 ], [ -77.33454, 39.00324 ], [ -77.33386, 39.00379 ], [ -77.33298, 39.00318 ], [ -77.33316, 39.00197 ], [ -77.33265, 39.00053 ], [ -77.33028, 39.00035 ], [ -77.33048, 39.00449 ], [ -77.32965, 39.00588 ], [ -77.32874, 39.00617 ], [ -77.32837, 39.00547 ], [ -77.32914, 39.00421 ], [ -77.32889, 39.00029 ], [ -77.32504, 39.00014 ], [ -77.32574, 39.00196 ], [ -77.32549, 39.00259 ], [ -77.32498, 39.00272 ], [ -77.32451, 39.00253 ], [ -77.32365, 39.00009 ], [ -77.32089, 38.99995 ], [ -77.32024, 38.99937 ], [ -77.32098, 38.99887 ], [ -77.32642, 38.99911 ], [ -77.3265, 38.99766 ], [ -77.32739, 38.99696 ], [ -77.32815, 38.99758 ], [ -77.32778, 38.99892 ], [ -77.32881, 38.9992 ], [ -77.32865, 38.99592 ], [ -77.32783, 38.99618 ], [ -77.32764, 38.9968 ], [ -77.32715, 38.99695 ], [ -77.32662, 38.9967 ], [ -77.32207, 38.99699 ], [ -77.32133, 38.9965 ], [ -77.32149, 38.9961 ], [ -77.32273, 38.99585 ], [ -77.32151, 38.99589 ], [ -77.32102, 38.99523 ], [ -77.32232, 38.99467 ], [ -77.32254, 38.99255 ], [ -77.32173, 38.99201 ], [ -77.32265, 38.99147 ], [ -77.32222, 38.98802 ], [ -77.32135, 38.98745 ], [ -77.32061, 38.9855 ], [ -77.32075, 38.98463 ], [ -77.32211, 38.98324 ], [ -77.32309, 38.98326 ], [ -77.3236, 38.98477 ], [ -77.32645, 38.98695 ], [ -77.32716, 38.98457 ], [ -77.32589, 38.98344 ], [ -77.32583, 38.98225 ], [ -77.3268, 38.98216 ], [ -77.32735, 38.98314 ], [ -77.32975, 38.98279 ], [ -77.32991, 38.98354 ], [ -77.32833, 38.98391 ], [ -77.32852, 38.98487 ], [ -77.32797, 38.98583 ], [ -77.32898, 38.98674 ], [ -77.33145, 38.98722 ], [ -77.33151, 38.98763 ], [ -77.33066, 38.98801 ] ], [ [ -77.32865, 38.99483 ], [ -77.32896, 38.99 ], [ -77.32538, 38.98791 ], [ -77.32445, 38.98916 ], [ -77.32392, 38.98919 ], [ -77.3235, 38.9887 ], [ -77.32368, 38.99019 ], [ -77.32469, 38.99054 ], [ -77.32402, 38.99124 ], [ -77.3237, 38.99476 ], [ -77.32411, 38.99569 ], [ -77.32494, 38.99568 ], [ -77.32489, 38.9951 ], [ -77.3254, 38.99469 ], [ -77.32465, 38.99421 ], [ -77.32509, 38.99353 ], [ -77.32732, 38.99414 ], [ -77.32811, 38.99491 ], [ -77.32865, 38.99483 ] ], [ [ -77.33004, 38.99229 ], [ -77.33113, 38.99167 ], [ -77.33009, 38.99084 ], [ -77.33004, 38.99229 ] ], [ [ -77.3352, 38.9996 ], [ -77.33501, 38.99961 ], [ -77.33541, 38.99965 ], [ -77.3352, 38.9996 ] ], [ [ -77.32685, 38.99538 ], [ -77.32621, 38.99494 ], [ -77.32633, 38.99563 ], [ -77.32685, 38.99538 ] ], [ [ -77.32288, 38.98614 ], [ -77.32248, 38.98572 ], [ -77.322, 38.98513 ], [ -77.32268, 38.98654 ], [ -77.32288, 38.98614 ] ], [ [ -77.32424, 38.98724 ], [ -77.32448, 38.98755 ], [ -77.3248, 38.98756 ], [ -77.32424, 38.98724 ] ] ] } },
{ "type": "Feature", "properties": { "variant": "T0", "miles": 1.5 }, "geometry": { "type": "Polygon", "coordinates": [ [ [ -77.34266, 38.98602 ], [ -77.34344, 38.98667 ], [ -77.34251, 38.98773 ], [ -77.344, 38.98771 ], [ -77.34436, 38.98847 ], [ -77.34317, 38.98877 ], [ -77.34406, 38.98992 ], [ -77.3439, 38.99032 ], [ -77.34292, 38.99038 ], [ -77.34191, 38.98952 ], [ -77.34314, 38.99141 ], [ -77.34298, 38.99181 ], [ -77.34178, 38.99198 ], [ -77.34298, 38.992 ], [ -77.34359, 38.9926 ], [ -77.34209, 38.99505 ], [ -77.34119, 38.99546 ], [ -77.34051, 38.99492 ], [ -77.34097, 38.99435 ], [ -77.34042, 38.99383 ], [ -77.34055, 38.99343 ], [ -77.3417, 38.9932 ], [ -77.34042, 38.99299 ], [ -77.34011, 38.99394 ], [ -77.33907, 38.99455 ], [ -77.33984, 38.99545 ], [ -77.33945, 38.99592 ], [ -77.34188, 38.99763 ], [ -77.34244, 38.99722 ], [ -77.34319, 38.99728 ], [ -77.34414, 38.99588 ], [ -77.34507, 38.99565 ], [ -77.34536, 38.99638 ], [ -77.34369, 38.99889 ], [ -77.34767, 39.00122 ], [ -77.34789, 39.00196 ], [ -77.34745, 39.0022 ], [ -77.34541, 39.00138 ], [ -77.34471, 39.00155 ], [ -77.34364, 39.0036 ], [ -77.34276, 39.00387 ], [ -77.34188, 39.00344 ], [ -77.34185, 39.00302 ], [ -77.34261, 39.0027 ], [ -77.34327, 39.00145 ], [ -77.33926, 39.00104 ], [ -77.33813, 39.00521 ], [ -77.34021, 39.00597 ], [ -77.34035, 39.00637 ], [ -77.33947, 39.00682 ], [ -77.33721, 39.00602 ], [ -77.3355, 39.00832 ], [ -77.3341, 39.00868 ], [ -77.33358, 39.00861 ], [ -77.33337, 39.00786 ], [ -77.33452, 39.00751 ], [ -77.33541, 39.00616 ], [ -77.33262, 39.00512 ], [ -77.33139, 39.00043 ], [ -77.33028, 39.00035 ], [ -77.33053, 39.00418 ], [ -77.32992, 39.00545 ], [ -77.33083, 39.006 ], [ -77.33297, 39.00571 ], [ -77.33421, 39.00622 ], [ -77.33424, 39.00663 ], [ -77.33389, 39.00694 ], [ -77.33233, 39.0067 ], [ -77.33077, 39.00708 ], [ -77.32926, 39.00648 ], [ -77.32671, 39.01093 ], [ -77.32766, 39.01126 ], [ -77.32775, 39.01167 ], [ -77.32744, 39.012 ], [ -77.32647, 39.012 ], [ -77.32635, 39.01242 ], [ -77.32714, 39.01281 ], [ -77.32706, 39.01322 ], [ -77.32632, 39.01353 ], [ -77.32529, 39.01338 ], [ -77.3248, 39.01273 ], [ -77.32533, 39.01081 ], [ -77.32352, 39.01085 ], [ -77.32304, 39.01169 ], [ -77.32252, 39.01175 ], [ -77.32201, 39.0111 ], [ -77.32275, 39.00991 ], [ -77.3245, 39.00954 ], [ -77.32581, 39.00979 ], [ -77.32913, 39.00427 ], [ -77.32889, 39.00029 ], [ -77.32504, 39.00014 ], [ -77.32574, 39.00167 ], [ -77.32633, 39.00114 ], [ -77.3273, 39.00125 ], [ -77.32737, 39.00189 ], [ -77.32843, 39.00253 ], [ -77.32829, 39.00293 ], [ -77.32782, 39.00313 ], [ -77.32552, 39.00274 ], [ -77.32416, 39.00352 ], [ -77.32353, 39.00431 ], [ -77.32421, 39.00482 ], [ -77.32506, 39.00503 ], [ -77.32609, 39.00446 ], [ -77.3266, 39.00458 ], [ -77.3267, 39.00534 ], [ -77.32542, 39.00608 ], [ -77.32393, 39.00595 ], [ -77.32201, 39.00712 ], [ -77.32118, 39.00685 ], [ -77.32109, 39.00644 ], [ -77.32283, 39.00528 ], [ -77.32221, 39.00483 ], [ -77.32074, 39.0049 ], [ -77.32001, 39.00596 ], [ -77.31957, 39.0062 ], [ -77.31905, 39.00612 ], [ -77.31873, 39.00545 ], [ -77.31994, 39.00402 ], [ -77.32236, 39.00374 ], [ -77.32316, 39.00277 ], [ -77.3243, 39.00222 ], [ -77.32365, 39.00009 ], [ -77.32148, 38.99998 ], [ -77.32119, 39.00093 ], [ -77.31972, 39.00173 ], [ -77.32033, 39.00284 ], [ -77.31975, 39.00353 ], [ -77.31865, 39.0029 ], [ -77.31828, 39.00182 ], [ -77.31871, 39.00093 ], [ -77.3201, 39.00027 ], [ -77.3201, 38.99991 ], [ -77.31446, 38.99965 ], [ -77.31408, 39.0015 ], [ -77.3131, 39.00146 ], [ -77.31293, 39.00107 ], [ -77.31364, 38.99722 ], [ -77.31433, 38.99674 ], [ -77.31572, 38.99736 ], [ -77.31485, 38.99859 ], [ -77.32034, 38.99884 ], [ -77.32148, 38.99766 ], [ -77.32257, 38.99737 ], [ -77.32374, 38.99746 ], [ -77.32434, 38.99807 ], [ -77.32408, 38.99843 ], [ -77.32242, 38.99848 ], [ -77.32196, 38.99892 ], [ -77.32642, 38.99911 ], [ -77.3265, 38.99766 ], [ -77.32739, 38.99696 ], [ -77.32815, 38.99758 ], [ -77.32778, 38.99892 ], [ -77.32881, 38.9992 ], [ -77.32865, 38.99592 ], [ -77.32783, 38.99618 ], [ -77.32764, 38.9968 ], [ -77.32715, 38.99695 ], [ -77.32662, 38.9967 ], [ -77.32207, 38.99699 ], [ -77.32133, 38.9965 ], [ -77.32149, 38.9961 ], [ -77.32273, 38.99585 ], [ -77.32151, 38.99589 ], [ -77.32102, 38.99523 ], [ -77.32232, 38.99467 ], [ -77.32254, 38.99408 ], [ -77.32254, 38.99255 ], [ -77.32173, 38.99201 ], [ -77.32265, 38.99147 ], [ -77.32257, 38.99101 ], [ -77.32239, 38.99063 ], [ -77.32126, 38.99034 ], [ -77.32211, 38.98922 ], [ -77.32119, 38.9891 ], [ -77.32123, 38.98777 ], [ -77.31992, 38.98773 ], [ -77.31916, 38.98723 ], [ -77.31874, 38.98442 ], [ -77.31739, 38.98581 ], [ -77.31647, 38.98554 ], [ -77.3168, 38.98456 ], [ -77.31896, 38.9825 ], [ -77.31798, 38.98258 ], [ -77.31763, 38.98178 ], [ -77.3183, 38.98136 ], [ -77.31929, 38.98139 ], [ -77.31714, 38.97954 ], [ -77.31476, 38.97823 ], [ -77.31457, 38.97748 ], [ -77.31501, 38.97725 ], [ -77.31707, 38.9777 ], [ -77.31996, 38.97995 ], [ -77.32247, 38.98313 ], [ -77.32398, 38.98374 ], [ -77.3245, 38.98515 ], [ -77.32594, 38.9858 ], [ -77.32653, 38.9858 ], [ -77.32716, 38.98462 ], [ -77.32579, 38.98322 ], [ -77.32558, 38.98181 ], [ -77.32596, 38.98061 ], [ -77.32306, 38.98019 ], [ -77.32295, 38.97943 ], [ -77.32379, 38.97922 ], [ -77.325, 38.97956 ], [ -77.32449, 38.97887 ], [ -77.32521, 38.97835 ], [ -77.32619, 38.979 ], [ -77.32901, 38.97812 ], [ -77.33047, 38.97855 ], [ -77.33018, 38.97928 ], [ -77.3292, 38.97919 ], [ -77.32701, 38.97987 ], [ -77.32739, 38.98078 ], [ -77.32698, 38.98198 ], [ -77.32797, 38.9824 ], [ -77.32726, 38.9831 ], [ -77.32856, 38.98277 ], [ -77.32861, 38.98177 ], [ -77.32951, 38.98119 ], [ -77.33067, 38.98135 ], [ -77.33154, 38.98223 ], [ -77.3315, 38.98311 ], [ -77.33094, 38.98353 ], [ -77.33011, 38.98312 ], [ -77.32987, 38.98224 ], [ -77.33019, 38.98408 ], [ -77.33097, 38.98463 ], [ -77.33076, 38.98501 ], [ -77.32942, 38.98503 ], [ -77.32875, 38.98384 ], [ -77.32835, 38.98389 ], [ -77.32852, 38.98491 ], [ -77.32797, 38.98583 ], [ -77.32898, 38.98674 ], [ -77.33159, 38.9873 ], [ -77.33154, 38.99018 ], [ -77.33246, 38.99092 ], [ -77.33257, 38.98954 ], [ -77.3333, 38.98904 ], [ -77.33395, 38.98961 ], [ -77.33399, 38.99114 ], [ -77.33554, 38.99188 ], [ -77.33606, 38.99125 ], [ -77.33534, 38.9899 ], [ -77.33635, 38.98831 ], [ -77.33732, 38.98839 ], [ -77.33711, 38.98963 ], [ -77.33784, 38.98869 ], [ -77.33879, 38.98885 ], [ -77.33875, 38.98971 ], [ -77.33806, 38.99044 ], [ -77.33994, 38.98896 ], [ -77.34157, 38.98667 ], [ -77.34266, 38.98602 ] ], [ [ -77.33621, 39.00522 ], [ -77.33591, 39.00344 ], [ -77.33666, 39.00296 ], [ -77.33713, 39.00315 ], [ -77.33728, 39.00415 ], [ -77.33782, 39.00093 ], [ -77.33642, 39.00082 ], [ -77.33625, 39.00197 ], [ -77.33541, 39.00242 ], [ -77.3348, 39.00182 ], [ -77.33503, 39.0007 ], [ -77.33404, 39.00062 ], [ -77.33454, 39.00324 ], [ -77.33434, 39.00363 ], [ -77.33363, 39.00372 ], [ -77.3338, 39.00452 ], [ -77.33621, 39.00522 ] ], [ [ -77.3358, 38.9997 ], [ -77.3381, 38.99986 ], [ -77.33972, 38.99783 ], [ -77.33843, 38.99859 ], [ -77.33793, 38.99846 ], [ -77.33769, 38.99798 ], [ -77.33836, 38.99711 ], [ -77.33691, 38.99608 ], [ -77.33601, 38.99742 ], [ -77.33506, 38.99761 ], [ -77.33482, 38.99687 ], [ -77.33598, 38.99519 ], [ -77.33181, 38.99222 ], [ -77.33152, 38.99456 ], [ -77.33054, 38.99456 ], [ -77.33006, 38.99337 ], [ -77.33004, 38.99597 ], [ -77.33205, 38.99587 ], [ -77.33386, 38.99421 ], [ -77.33533, 38.99519 ], [ -77.33536, 38.9956 ], [ -77.33181, 38.99708 ], [ -77.33147, 38.99824 ], [ -77.33054, 38.998 ], [ -77.33043, 38.99702 ], [ -77.33008, 38.99706 ], [ -77.33021, 38.99926 ], [ -77.33363, 38.99951 ], [ -77.3329, 38.99838 ], [ -77.33366, 38.99789 ], [ -77.33456, 38.99849 ], [ -77.33641, 38.99893 ], [ -77.33645, 38.99934 ], [ -77.3358, 38.9997 ] ], [ [ -77.32865, 38.9946 ], [ -77.32896, 38.99 ], [ -77.32538, 38.98791 ], [ -77.32445, 38.98916 ], [ -77.32392, 38.98919 ], [ -77.3235, 38.9887 ], [ -77.32368, 38.99019 ], [ -77.32469, 38.99054 ], [ -77.32402, 38.99124 ], [ -77.32374, 38.99493 ], [ -77.32411, 38.99569 ], [ -77.32494, 38.99568 ], [ -77.32489, 38.9951 ], [ -77.3254, 38.99469 ], [ -77.32465, 38.99421 ], [ -77.32509, 38.99353 ], [ -77.32732, 38.99414 ], [ -77.32811, 38.99491 ], [ -77.32865, 38.9946 ] ], [ [ -77.32937, 38.98861 ], [ -77.32949, 38.98789 ], [ -77.32777, 38.98729 ], [ -77.32758, 38.98759 ], [ -77.32937, 38.98861 ] ], [ [ -77.34132, 38.9907 ], [ -77.34119, 38.99096 ], [ -77.34142, 38.991 ], [ -77.34141, 38.99097 ], [ -77.34132, 38.9907 ] ], [ [ -77.34162, 38.98923 ], [ -77.34149, 38.9893 ], [ -77.3418, 38.98944 ], [ -77.34162, 38.98923 ] ], [ [ -77.34095, 39.00008 ], [ -77.34321, 39.00025 ], [ -77.34204, 38.99946 ], [ -77.34188, 38.99983 ], [ -77.34095, 39.00008 ] ], [ [ -77.33675, 38.99003 ], [ -77.3367, 38.99016 ], [ -77.33681, 38.98997 ], [ -77.33675, 38.99003 ] ], [ [ -77.33622, 38.99365 ], [ -77.33664, 38.99271 ], [ -77.3352, 38.99293 ], [ -77.33622, 38.99365 ] ], [ [ -77.33756, 38.99456 ], [ -77.3374, 38.99445 ], [ -77.33768, 38.99467 ], [ -77.33756, 38.99456 ] ], [ [ -77.33937, 38.99111 ], [ -77.33962, 38.99125 ], [ -77.33992, 38.99138 ], [ -77.33937, 38.99111 ] ], [ [ -77.33843, 38.99219 ], [ -77.33794, 38.99354 ], [ -77.33825, 38.99363 ], [ -77.33904, 38.99314 ], [ -77.33843, 38.99219 ] ], [ [ -77.34063, 38.99847 ], [ -77.34008, 38.99921 ], [ -77.34126, 38.99891 ], [ -77.34063, 38.99847 ] ], [ [ -77.34098, 38.99997 ], [ -77.3411, 38.99998 ], [ -77.34093, 38.99995 ], [ -77.34098, 38.99997 ] ], [ [ -77.33009, 38.99084 ], [ -77.33004, 38.99229 ], [ -77.33041, 38.99228 ], [ -77.33113, 38.99167 ], [ -77.33009, 38.99084 ] ], [ [ -77.3352, 38.9996 ], [ -77.33501, 38.99961 ], [ -77.33541, 38.99965 ], [ -77.3352, 38.9996 ] ], [ [ -77.32685, 38.99538 ], [ -77.32621, 38.99494 ], [ -77.32633, 38.99563 ], [ -77.32685, 38.99538 ] ], [ [ -77.32268, 38.98654 ], [ -77.32292, 38.98618 ], [ -77.322, 38.98513 ], [ -77.32268, 38.98654 ] ], [ [ -77.32645, 38.98695 ], [ -77.32634, 38.98687 ], [ -77.32631, 38.98687 ], [ -77.32645, 38.98695 ] ], [ [ -77.32424, 38.98724 ], [ -77.32448, 38.98755 ], [ -77.3248, 38.98756 ], [ -77.32424, 38.98724 ] ], [ [ -77.32009, 39.00561 ], [ -77.3201, 39.00561 ], [ -77.32011, 39.00556 ], [ -77.32009, 39.00561 ] ], [ [ -77.32066, 38.98323 ], [ -77.31952, 38.98353 ], [ -77.32018, 38.98429 ], [ -77.32037, 38.98669 ], [ -77.32128, 38.98669 ], [ -77.32061, 38.9855 ], [ -77.32125, 38.98407 ], [ -77.32066, 38.98323 ] ], [ [ -77.3188, 38.98232 ], [ -77.31876, 38.98236 ], [ -77.31882, 38.98233 ], [ -77.3188, 38.98232 ] ] ] } },
{ "type": "Feature", "properties": { "variant": "T2s", "miles": 0.5 }, "geometry": { "type": "Polygon", "coordinates": [ [ [ -77.33091, 38.99165 ], [ -77.33181, 38.99222 ], [ -77.33173, 38.99418 ], [ -77.33152, 38.99456 ], [ -77.33054, 38.99456 ], [ -77.33006, 38.99337 ], [ -77.33004, 38.99597 ], [ -77.33174, 38.99622 ], [ -77.33186, 38.99781 ], [ -77.33094, 38.99827 ], [ -77.33043, 38.99702 ], [ -77.33008, 38.99706 ], [ -77.33024, 38.99975 ], [ -77.32957, 39.00031 ], [ -77.32885, 38.99979 ], [ -77.32865, 38.99592 ], [ -77.32783, 38.99618 ], [ -77.32764, 38.9968 ], [ -77.32715, 38.99695 ], [ -77.32662, 38.9967 ], [ -77.32372, 38.99682 ], [ -77.32292, 38.99637 ], [ -77.32349, 38.99575 ], [ -77.32494, 38.99568 ], [ -77.32489, 38.9951 ], [ -77.3254, 38.99469 ], [ -77.32465, 38.99421 ], [ -77.32509, 38.99353 ], [ -77.32732, 38.99414 ], [ -77.32811, 38.99491 ], [ -77.32865, 38.99483 ], [ -77.32886, 38.99246 ], [ -77.33042, 38.99228 ], [ -77.33091, 38.99165 ] ], [ [ -77.32685, 38.99538 ], [ -77.32621, 38.99494 ], [ -77.32633, 38.99563 ], [ -77.32685, 38.99538 ] ] ] } },
{ "type": "Feature", "properties": { "variant": "T2s", "miles": 1.0 }, "geometry": { "type": "MultiPolygon", "coordinates": [ [ [ [ -77.3363, 38.99393 ], [ -77.33891, 38.9958 ], [ -77.33881, 38.9967 ], [ -77.33783, 38.99674 ], [ -77.33573, 38.99499 ], [ -77.33567, 38.99426 ], [ -77.3363, 38.99393 ] ] ], [ [ [ -77.33386, 38.99421 ], [ -77.33536, 38.9956 ], [ -77.33181, 38.99708 ], [ -77.33147, 38.99824 ], [ -77.33054, 38.998 ], [ -77.33043, 38.99702 ], [ -77.33008, 38.99706 ], [ -77.33021, 38.99926 ], [ -77.33363, 38.99951 ], [ -77.3329, 38.99838 ], [ -77.33366, 38.99789 ], [ -77.33456, 38.99849 ], [ -77.33641, 38.99893 ], [ -77.33645, 38.99934 ], [ -77.33567, 38.99969 ], [ -77.33924, 39.0001 ], [ -77.33915, 39.00087 ], [ -77.32682, 39.00005 ], [ -77.3264, 38.99892 ], [ -77.32689, 38.99711 ], [ -77.32796, 38.99719 ], [ -77.32778, 38.99892 ], [ -77.32881, 38.9992 ], [ -77.32865, 38.99592 ], [ -77.32783, 38.99618 ], [ -77.32764, 38.9968 ], [ -77.32715, 38.99695 ], [ -77.32662, 38.9967 ], [ -77.32207, 38.99699 ], [ -77.32133, 38.9965 ], [ -77.32149, 38.9961 ], [ -77.32273, 38.99585 ], [ -77.32151, 38.99589 ], [ -77.32102, 38.99523 ], [ -77.32232, 38.99467 ], [ -77.32255, 38.99404 ], [ -77.32254, 38.99255 ], [ -77.32173, 38.99201 ], [ -77.32265, 38.99147 ], [ -77.32222, 38.98802 ], [ -77.32135, 38.98745 ], [ -77.32139, 38.98703 ], [ -77.32333, 38.98674 ], [ -77.32539, 38.98787 ], [ -77.32445, 38.98916 ], [ -77.32392, 38.98919 ], [ -77.3235, 38.9887 ], [ -77.32368, 38.99019 ], [ -77.32469, 38.99054 ], [ -77.32402, 38.99124 ], [ -77.3237, 38.99476 ], [ -77.32411, 38.99569 ], [ -77.32494, 38.99568 ], [ -77.32489, 38.9951 ], [ -77.3254, 38.99469 ], [ -77.32465, 38.99421 ], [ -77.32509, 38.99353 ], [ -77.32732, 38.99414 ], [ -77.32811, 38.99491 ], [ -77.32865, 38.99483 ], [ -77.32886, 38.99246 ], [ -77.33042, 38.99228 ], [ -77.33091, 38.99165 ], [ -77.33178, 38.99213 ], [ -77.33173, 38.99418 ], [ -77.33152, 38.99456 ], [ -77.33054, 38.99456 ], [ -77.33006, 38.99337 ], [ -77.33004, 38.99597 ], [ -77.33205, 38.99587 ], [ -77.33386, 38.99421 ] ], [ [ -77.3352, 38.9996 ], [ -77.33501, 38.99961 ], [ -77.33541, 38.99965 ], [ -77.3352, 38.9996 ] ], [ [ -77.32684, 38.99535 ], [ -77.3266, 38.99507 ], [ -77.32621, 38.99494 ], [ -77.32633, 38.99563 ], [ -77.32684, 38.99535 ] ] ] ] } },
{ "type": "Feature", "properties": { "variant": "T2s", "miles": 1.5 }, "geometry": { "type": "Polygon", "coordinates": [ [ [ -77.34218, 38.98615 ], [ -77.34314, 38.98619 ], [ -77.34344, 38.98666 ], [ -77.34251, 38.98773 ], [ -77.34343, 38.98752 ], [ -77.34441, 38.98806 ], [ -77.34395, 38.98873 ], [ -77.34149, 38.9893 ], [ -77.34253, 38.99015 ], [ -77.34314, 38.99141 ], [ -77.34298, 38.99181 ], [ -77.34178, 38.99198 ], [ -77.34298, 38.992 ], [ -77.34359, 38.9926 ], [ -77.34209, 38.99505 ], [ -77.34119, 38.99546 ], [ -77.34051, 38.99492 ], [ -77.34097, 38.99435 ], [ -77.34042, 38.99383 ], [ -77.34055, 38.99343 ], [ -77.3417, 38.9932 ], [ -77.34042, 38.99299 ], [ -77.34011, 38.99394 ], [ -77.33907, 38.99455 ], [ -77.33984, 38.99545 ], [ -77.33945, 38.99592 ], [ -77.34188, 38.99763 ], [ -77.34271, 38.99718 ], [ -77.34381, 38.99755 ], [ -77.34414, 38.99787 ], [ -77.34369, 38.99889 ], [ -77.34767, 39.00122 ], [ -77.34798, 39.00156 ], [ -77.34745, 39.0022 ], [ -77.34541, 39.00138 ], [ -77.34373, 39.00133 ], [ -77.34375, 39.00061 ], [ -77.34204, 38.99946 ], [ -77.34143, 39.00004 ], [ -77.33942, 39.00034 ], [ -77.33864, 39.00099 ], [ -77.32682, 39.00005 ], [ -77.3264, 38.99892 ], [ -77.32689, 38.99711 ], [ -77.32796, 38.99719 ], [ -77.32778, 38.99892 ], [ -77.32881, 38.9992 ], [ -77.32865, 38.99592 ], [ -77.32783, 38.99618 ], [ -77.32764, 38.9968 ], [ -77.32715, 38.99695 ], [ -77.32662, 38.9967 ], [ -77.32157, 38.99687 ], [ -77.32149, 38.9961 ], [ -77.32273, 38.99585 ], [ -77.32151, 38.99589 ], [ -77.32102, 38.99523 ], [ -77.32232, 38.99467 ], [ -77.32254, 38.99408 ], [ -77.32254, 38.99255 ], [ -77.32173, 38.99201 ], [ -77.32265, 38.99147 ], [ -77.32257, 38.99101 ], [ -77.32239, 38.99063 ], [ -77.32126, 38.99034 ], [ -77.32211, 38.98922 ], [ -77.32119, 38.9891 ], [ -77.32123, 38.98777 ], [ -77.31992, 38.98773 ], [ -77.31916, 38.98723 ], [ -77.31878, 38.98445 ], [ -77.31739, 38.98581 ], [ -77.31647, 38.98554 ], [ -77.31644, 38.98513 ], [ -77.31896, 38.9825 ], [ -77.31798, 38.98258 ], [ -77.31766, 38.98174 ], [ -77.3183, 38.98136 ], [ -77.3193, 38.9814 ], [ -77.32049, 38.98244 ], [ -77.32055, 38.98285 ], [ -77.31952, 38.98353 ], [ -77.32018, 38.98429 ], [ -77.32038, 38.98671 ], [ -77.32333, 38.98674 ], [ -77.32539, 38.98787 ], [ -77.32445, 38.98916 ], [ -77.32392, 38.98919 ], [ -77.3235, 38.9887 ], [ -77.32368, 38.99019 ], [ -77.32469, 38.99054 ], [ -77.32402, 38.99124 ], [ -77.3237, 38.99476 ], [ -77.32411, 38.99569 ], [ -77.32494, 38.99568 ], [ -77.32489, 38.9951 ], [ -77.3254, 38.99469 ], [ -77.32465, 38.99421 ], [ -77.32509, 38.99353 ], [ -77.32732, 38.99414 ], [ -77.32811, 38.99491 ], [ -77.32865, 38.99483 ], [ -77.32871, 38.99072 ], [ -77.32925, 38.98963 ], [ -77.32997, 38.98923 ], [ -77.33622, 38.99365 ], [ -77.33704, 38.99167 ], [ -77.33573, 38.99102 ], [ -77.33532, 38.99009 ], [ -77.33635, 38.98831 ], [ -77.33732, 38.98839 ], [ -77.33711, 38.98963 ], [ -77.33784, 38.98869 ], [ -77.33879, 38.98885 ], [ -77.33875, 38.98971 ], [ -77.33806, 38.99044 ], [ -77.33994, 38.98896 ], [ -77.34218, 38.98615 ] ], [ [ -77.33813, 38.99965 ], [ -77.33972, 38.99783 ], [ -77.33843, 38.99859 ], [ -77.33793, 38.99846 ], [ -77.33769, 38.99798 ], [ -77.33836, 38.99711 ], [ -77.33691, 38.99608 ], [ -77.33601, 38.99742 ], [ -77.33506, 38.99761 ], [ -77.33482, 38.99687 ], [ -77.33598, 38.99519 ], [ -77.33181, 38.99222 ], [ -77.33152, 38.99456 ], [ -77.33054, 38.99456 ], [ -77.33006, 38.99337 ], [ -77.33004, 38.99597 ], [ -77.33205, 38.99587 ], [ -77.33386, 38.99421 ], [ -77.33533, 38.99519 ], [ -77.33536, 38.9956 ], [ -77.33181, 38.99708 ], [ -77.33147, 38.99824 ], [ -77.33054, 38.998 ], [ -77.33043, 38.99702 ], [ -77.33008, 38.99706 ], [ -77.33021, 38.99926 ], [ -77.33363, 38.99951 ], [ -77.3329, 38.99838 ], [ -77.33366, 38.99789 ], [ -77.33456, 38.99849 ], [ -77.33641, 38.99893 ], [ -77.33645, 38.99934 ], [ -77.33567, 38.99969 ], [ -77.33813, 38.99965 ] ], [ [ -77.3374, 38.99445 ], [ -77.33751, 38.99455 ], [ -77.33768, 38.99467 ], [ -77.3374, 38.99445 ] ], [ [ -77.33794, 38.99354 ], [ -77.33904, 38.99314 ], [ -77.33871, 38.99221 ], [ -77.33826, 38.99255 ], [ -77.33794, 38.99354 ] ], [ [ -77.33672, 38.99008 ], [ -77.33677, 38.99005 ], [ -77.33681, 38.98997 ], [ -77.33672, 38.99008 ] ], [ [ -77.34132, 38.9907 ], [ -77.34119, 38.99096 ], [ -77.34142, 38.991 ], [ -77.34132, 38.9907 ] ], [ [ -77.3399, 38.99134 ], [ -77.33929, 38.99117 ], [ -77.33992, 38.99138 ], [ -77.3399, 38.99134 ] ], [ [ -77.34063, 38.99847 ], [ -77.34008, 38.99921 ], [ -77.34126, 38.99891 ], [ -77.34063, 38.99847 ] ], [ [ -77.34093, 38.99995 ], [ -77.34106, 38.99998 ], [ -77.3411, 38.99998 ], [ -77.34093, 38.99995 ] ], [ [ -77.33009, 38.99084 ], [ -77.33004, 38.99229 ], [ -77.33041, 38.99228 ], [ -77.33113, 38.99167 ], [ -77.33009, 38.99084 ] ], [ [ -77.33501, 38.99956 ], [ -77.33526, 38.99963 ], [ -77.33541, 38.99965 ], [ -77.33501, 38.99956 ] ], [ [ -77.3188, 38.98232 ], [ -77.31876, 38.98236 ], [ -77.31882, 38.98233 ], [ -77.3188, 38.98232 ] ], [ [ -77.32685, 38.99538 ], [ -77.32621, 38.99494 ], [ -77.32633, 38.99563 ], [ -77.32685, 38.99538 ] ] ] } }
]
}
