{
"type": "FeatureCollection",
"name": "300",
"crs": { "type": "name", "properties": { "name": "urn:ogc:def:crs:OGC:1.3:CRS84" } },
"xy_coordinate_resolution": 1e-05,
"features": [
{ "type": "Feature", "properties": { "variant": "T0", "miles": 1.0 }, "geometry": { "type": "Polygon", "coordinates": [ [ [ -77.17488, 38.81152 ], [ -77.17515, 38.81583 ], [ -77.17384, 38.81587 ], [ -77.17379, 38.81662 ], [ -77.17267, 38.81693 ], [ -77.17159, 38.81651 ], [ -77.17131, 38.81588 ], [ -77.17198, 38.81547 ], [ -77.17111, 38.815 ], [ -77.1707, 38.81493 ], [ -77.16972, 38.81594 ], [ -77.17136, 38.81648 ], [ -77.17134, 38.81712 ], [ -77.17413, 38.81949 ], [ -77.17443, 38.82194 ], [ -77.17564, 38.8215 ], [ -77.17635, 38.82202 ], [ -77.17393, 38.82467 ], [ -77.17565, 38.82495 ], [ -77.17715, 38.82449 ], [ -77.17801, 38.82471 ], [ -77.17834, 38.82681 ], [ -77.17745, 38.82713 ], [ -77.17532, 38.82647 ], [ -77.17472, 38.82736 ], [ -77.17333, 38.82798 ], [ -77.17299, 38.82726 ], [ -77.17399, 38.82617 ], [ -77.17113, 38.82803 ], [ -77.17046, 38.82747 ], [ -77.17101, 38.82686 ], [ -77.17061, 38.82636 ], [ -77.16885, 38.82635 ], [ -77.16812, 38.82713 ], [ -77.16728, 38.82673 ], [ -77.16739, 38.82628 ], [ -77.16659, 38.82573 ], [ -77.1674, 38.82432 ], [ -77.16563, 38.82371 ], [ -77.1668, 38.8202 ], [ -77.16643, 38.81896 ], [ -77.16577, 38.81882 ], [ -77.16533, 38.81982 ], [ -77.16617, 38.82022 ], [ -77.16588, 38.82106 ], [ -77.16508, 38.82106 ], [ -77.16474, 38.82176 ], [ -77.16372, 38.82164 ], [ -77.16326, 38.82097 ], [ -77.16418, 38.81878 ], [ -77.16333, 38.81774 ], [ -77.16407, 38.81725 ], [ -77.16471, 38.8176 ], [ -77.1671, 38.81403 ], [ -77.16797, 38.81439 ], [ -77.16792, 38.8148 ], [ -77.16677, 38.81666 ], [ -77.16927, 38.81451 ], [ -77.16729, 38.81328 ], [ -77.16585, 38.81165 ], [ -77.16599, 38.81089 ], [ -77.16696, 38.811 ], [ -77.16832, 38.81254 ], [ -77.16908, 38.81147 ], [ -77.16961, 38.81145 ], [ -77.17002, 38.81214 ], [ -77.16931, 38.81329 ], [ -77.16978, 38.8135 ], [ -77.17101, 38.81199 ], [ -77.17196, 38.81149 ], [ -77.17441, 38.81134 ], [ -77.17488, 38.81152 ] ], [ [ -77.17136, 38.81393 ], [ -77.17285, 38.81461 ], [ -77.17394, 38.81478 ], [ -77.17136, 38.8136 ], [ -77.17136, 38.81393 ] ], [ [ -77.1738, 38.81349 ], [ -77.17371, 38.8125 ], [ -77.1722, 38.81273 ], [ -77.17311, 38.81339 ], [ -77.1738, 38.81349 ] ], [ [ -77.17236, 38.82428 ], [ -77.17314, 38.8237 ], [ -77.17325, 38.82357 ], [ -77.17236, 38.82428 ] ], [ [ -77.17143, 38.82324 ], [ -77.17143, 38.82317 ], [ -77.17145, 38.82337 ], [ -77.17143, 38.82324 ] ], [ [ -77.17168, 38.82258 ], [ -77.17161, 38.8227 ], [ -77.1716, 38.82272 ], [ -77.17168, 38.82258 ] ], [ [ -77.17187, 38.82221 ], [ -77.17181, 38.82239 ], [ -77.172, 38.82224 ], [ -77.17187, 38.82221 ] ], [ [ -77.1702, 38.82076 ], [ -77.17276, 38.82127 ], [ -77.16948, 38.82031 ], [ -77.16971, 38.81957 ], [ -77.17024, 38.81951 ], [ -77.17289, 38.81999 ], [ -77.16965, 38.81904 ], [ -77.16993, 38.81831 ], [ -77.171, 38.81839 ], [ -77.16884, 38.81684 ], [ -77.16782, 38.81887 ], [ -77.16819, 38.82028 ], [ -77.16717, 38.823 ], [ -77.16758, 38.82291 ], [ -77.16763, 38.82227 ], [ -77.16859, 38.82214 ], [ -77.16898, 38.82253 ], [ -77.16881, 38.82341 ], [ -77.16985, 38.82367 ], [ -77.17053, 38.82194 ], [ -77.16943, 38.82155 ], [ -77.16936, 38.82114 ], [ -77.1702, 38.82076 ] ], [ [ -77.1738, 38.82298 ], [ -77.17354, 38.82278 ], [ -77.17351, 38.82329 ], [ -77.1738, 38.82298 ] ], [ [ -77.16679, 38.81787 ], [ -77.16664, 38.8179 ], [ -77.16676, 38.81794 ], [ -77.16679, 38.81787 ] ] ] } },
{ "type": "Feature", "properties": { "variant": "T0", "miles": 1.5 }, "geometry": { "type": "Polygon", "coordinates": [ [ [ -77.18164, 38.81018 ], [ -77.18146, 38.81135 ], [ -77.18198, 38.81195 ], [ -77.18177, 38.81233 ], [ -77.18037, 38.81261 ], [ -77.1825, 38.81247 ], [ -77.18324, 38.81298 ], [ -77.18259, 38.81355 ], [ -77.18056, 38.81368 ], [ -77.1813, 38.81426 ], [ -77.18115, 38.81466 ], [ -77.17998, 38.8149 ], [ -77.17925, 38.8144 ], [ -77.1787, 38.81247 ], [ -77.1796, 38.82113 ], [ -77.17909, 38.82171 ], [ -77.17773, 38.82192 ], [ -77.17743, 38.82264 ], [ -77.17882, 38.82284 ], [ -77.17993, 38.82345 ], [ -77.18103, 38.8253 ], [ -77.18317, 38.82664 ], [ -77.18325, 38.82745 ], [ -77.18604, 38.82817 ], [ -77.18591, 38.82983 ], [ -77.18521, 38.83025 ], [ -77.1828, 38.82964 ], [ -77.18121, 38.82886 ], [ -77.18097, 38.82811 ], [ -77.18035, 38.82791 ], [ -77.17729, 38.83243 ], [ -77.17641, 38.83319 ], [ -77.17589, 38.83318 ], [ -77.17553, 38.83287 ], [ -77.17591, 38.83195 ], [ -77.17531, 38.8313 ], [ -77.17538, 38.83066 ], [ -77.17375, 38.8303 ], [ -77.17222, 38.83084 ], [ -77.17184, 38.83055 ], [ -77.17164, 38.82852 ], [ -77.1709, 38.82902 ], [ -77.16983, 38.82909 ], [ -77.17008, 38.82954 ], [ -77.16971, 38.82996 ], [ -77.16869, 38.82983 ], [ -77.16738, 38.83067 ], [ -77.16828, 38.83163 ], [ -77.16812, 38.83202 ], [ -77.16764, 38.83221 ], [ -77.16631, 38.83136 ], [ -77.16598, 38.83156 ], [ -77.16656, 38.83247 ], [ -77.16576, 38.83291 ], [ -77.16438, 38.83194 ], [ -77.16445, 38.83117 ], [ -77.17093, 38.82683 ], [ -77.17013, 38.8268 ], [ -77.16748, 38.82876 ], [ -77.1639, 38.82768 ], [ -77.16354, 38.82702 ], [ -77.16177, 38.82629 ], [ -77.16169, 38.82588 ], [ -77.1626, 38.82513 ], [ -77.16261, 38.82432 ], [ -77.16355, 38.82338 ], [ -77.15825, 38.82693 ], [ -77.15727, 38.82686 ], [ -77.15736, 38.8261 ], [ -77.15912, 38.825 ], [ -77.15753, 38.82494 ], [ -77.15735, 38.8242 ], [ -77.15678, 38.8239 ], [ -77.15798, 38.82218 ], [ -77.15673, 38.8217 ], [ -77.15669, 38.82129 ], [ -77.15718, 38.82069 ], [ -77.15947, 38.82111 ], [ -77.15971, 38.81648 ], [ -77.1563, 38.8132 ], [ -77.15616, 38.81254 ], [ -77.15805, 38.81032 ], [ -77.15887, 38.81073 ], [ -77.15873, 38.8112 ], [ -77.15951, 38.81062 ], [ -77.16004, 38.81067 ], [ -77.1627, 38.81161 ], [ -77.16313, 38.81229 ], [ -77.16278, 38.8126 ], [ -77.16143, 38.81242 ], [ -77.16054, 38.81368 ], [ -77.16378, 38.81671 ], [ -77.16525, 38.81316 ], [ -77.16605, 38.81271 ], [ -77.16797, 38.81439 ], [ -77.16677, 38.81666 ], [ -77.16718, 38.81656 ], [ -77.16927, 38.81451 ], [ -77.16751, 38.81351 ], [ -77.16532, 38.81085 ], [ -77.16611, 38.8104 ], [ -77.16675, 38.80913 ], [ -77.16661, 38.80837 ], [ -77.16834, 38.8056 ], [ -77.16814, 38.80457 ], [ -77.16933, 38.80395 ], [ -77.17011, 38.8045 ], [ -77.17035, 38.80387 ], [ -77.17084, 38.80373 ], [ -77.17132, 38.8039 ], [ -77.17177, 38.80506 ], [ -77.17203, 38.8036 ], [ -77.17281, 38.80314 ], [ -77.1734, 38.80374 ], [ -77.17313, 38.80529 ], [ -77.17675, 38.80584 ], [ -77.17682, 38.80853 ], [ -77.17857, 38.81049 ], [ -77.17907, 38.81048 ], [ -77.17927, 38.80897 ], [ -77.18025, 38.80897 ], [ -77.18071, 38.80975 ], [ -77.18164, 38.81018 ] ], [ [ -77.17268, 38.82776 ], [ -77.17248, 38.82727 ], [ -77.17202, 38.8276 ], [ -77.17268, 38.82776 ] ], [ [ -77.17314, 38.8237 ], [ -77.17325, 38.82357 ], [ -77.17236, 38.82428 ], [ -77.17314, 38.8237 ] ], [ [ -77.17145, 38.82337 ], [ -77.17143, 38.82317 ], [ -77.17143, 38.82324 ], [ -77.17145, 38.82337 ] ], [ [ -77.17181, 38.82239 ], [ -77.172, 38.82224 ], [ -77.17187, 38.82221 ], [ -77.17181, 38.82239 ] ], [ [ -77.17276, 38.82127 ], [ -77.16948, 38.82031 ], [ -77.16971, 38.81957 ], [ -77.17024, 38.81951 ], [ -77.17289, 38.81999 ], [ -77.16965, 38.81904 ], [ -77.16993, 38.81831 ], [ -77.171, 38.81839 ], [ -77.16884, 38.81684 ], [ -77.16782, 38.81887 ], [ -77.16819, 38.82028 ], [ -77.16717, 38.823 ], [ -77.16858, 38.82169 ], [ -77.17005, 38.82193 ], [ -77.17022, 38.8225 ], [ -77.17053, 38.82194 ], [ -77.16943, 38.82155 ], [ -77.16968, 38.82081 ], [ -77.17276, 38.82127 ] ], [ [ -77.17427, 38.81975 ], [ -77.17404, 38.82074 ], [ -77.17442, 38.82193 ], [ -77.17463, 38.8221 ], [ -77.17564, 38.8215 ], [ -77.17631, 38.82195 ], [ -77.17635, 38.82072 ], [ -77.17458, 38.81983 ], [ -77.17433, 38.81837 ], [ -77.17286, 38.81691 ], [ -77.17167, 38.81659 ], [ -77.17131, 38.81588 ], [ -77.17198, 38.81547 ], [ -77.1707, 38.81493 ], [ -77.16972, 38.81594 ], [ -77.17136, 38.81648 ], [ -77.17134, 38.81712 ], [ -77.17427, 38.81975 ] ], [ [ -77.17, 38.81172 ], [ -77.16931, 38.81329 ], [ -77.16978, 38.8135 ], [ -77.17117, 38.81185 ], [ -77.17064, 38.81097 ], [ -77.17088, 38.80681 ], [ -77.17, 38.80859 ], [ -77.16838, 38.80903 ], [ -77.16924, 38.81 ], [ -77.16875, 38.81174 ], [ -77.16908, 38.81147 ], [ -77.17, 38.81172 ] ], [ [ -77.16967, 38.80624 ], [ -77.16954, 38.80618 ], [ -77.16867, 38.80794 ], [ -77.16967, 38.80624 ] ], [ [ -77.1758, 38.82857 ], [ -77.17518, 38.8287 ], [ -77.17311, 38.82796 ], [ -77.17487, 38.8288 ], [ -77.17516, 38.82946 ], [ -77.17715, 38.83016 ], [ -77.17782, 38.82923 ], [ -77.1758, 38.82857 ] ], [ [ -77.17581, 38.81929 ], [ -77.17622, 38.81952 ], [ -77.17546, 38.81248 ], [ -77.17509, 38.81248 ], [ -77.17581, 38.81929 ] ], [ [ -77.17732, 38.81247 ], [ -77.17684, 38.81247 ], [ -77.17775, 38.82082 ], [ -77.1782, 38.82077 ], [ -77.17732, 38.81247 ] ], [ [ -77.18015, 38.81132 ], [ -77.18071, 38.8113 ], [ -77.18041, 38.81095 ], [ -77.18015, 38.81132 ] ], [ [ -77.17899, 38.8276 ], [ -77.17803, 38.8273 ], [ -77.1776, 38.82799 ], [ -77.1785, 38.82828 ], [ -77.17899, 38.8276 ] ], [ [ -77.17841, 38.82581 ], [ -77.17914, 38.82605 ], [ -77.17956, 38.82528 ], [ -77.1791, 38.82499 ], [ -77.17841, 38.82581 ] ], [ [ -77.18467, 38.82906 ], [ -77.18468, 38.82904 ], [ -77.18462, 38.82903 ], [ -77.18467, 38.82906 ] ], [ [ -77.17598, 38.82426 ], [ -77.1754, 38.82488 ], [ -77.17555, 38.82492 ], [ -77.17657, 38.82363 ], [ -77.17598, 38.82426 ] ], [ [ -77.17356, 38.82312 ], [ -77.17351, 38.82329 ], [ -77.1738, 38.82298 ], [ -77.17354, 38.82279 ], [ -77.17356, 38.82312 ] ], [ [ -77.17368, 38.82639 ], [ -77.17298, 38.82692 ], [ -77.17334, 38.82689 ], [ -77.17368, 38.82639 ] ], [ [ -77.17322, 38.82926 ], [ -77.17316, 38.82923 ], [ -77.17318, 38.82931 ], [ -77.17322, 38.82926 ] ], [ [ -77.17394, 38.81478 ], [ -77.17136, 38.8136 ], [ -77.17121, 38.8139 ], [ -77.17394, 38.81478 ] ], [ [ -77.17282, 38.80721 ], [ -77.17224, 38.80711 ], [ -77.17202, 38.81093 ], [ -77.17261, 38.81138 ], [ -77.17282, 38.80721 ] ], [ [ -77.17452, 38.80744 ], [ -77.17419, 38.80739 ], [ -77.174, 38.81133 ], [ -77.17423, 38.81134 ], [ -77.17452, 38.80744 ] ], [ [ -77.17389, 38.81618 ], [ -77.17412, 38.81641 ], [ -77.17405, 38.81589 ], [ -77.17389, 38.81618 ] ], [ [ -77.17311, 38.81339 ], [ -77.1738, 38.81349 ], [ -77.17371, 38.8125 ], [ -77.17227, 38.81267 ], [ -77.17311, 38.81339 ] ], [ [ -77.16605, 38.82166 ], [ -77.16605, 38.82184 ], [ -77.16616, 38.82186 ], [ -77.16632, 38.82142 ], [ -77.16605, 38.82166 ] ], [ [ -77.1636, 38.82011 ], [ -77.1621, 38.81871 ], [ -77.16201, 38.82174 ], [ -77.1629, 38.82196 ], [ -77.1636, 38.82011 ] ], [ [ -77.16412, 38.81891 ], [ -77.1607, 38.81551 ], [ -77.16056, 38.8156 ], [ -77.16412, 38.81891 ] ], [ [ -77.16996, 38.82331 ], [ -77.16928, 38.82337 ], [ -77.16922, 38.82351 ], [ -77.16987, 38.82361 ], [ -77.16996, 38.82331 ] ], [ [ -77.16643, 38.81896 ], [ -77.16577, 38.81882 ], [ -77.16533, 38.81982 ], [ -77.16617, 38.82022 ], [ -77.16648, 38.82101 ], [ -77.16678, 38.82026 ], [ -77.16643, 38.81896 ] ], [ [ -77.16647, 38.81462 ], [ -77.16625, 38.81443 ], [ -77.1653, 38.81655 ], [ -77.16647, 38.81462 ] ], [ [ -77.16664, 38.8179 ], [ -77.16676, 38.81794 ], [ -77.16679, 38.81787 ], [ -77.16664, 38.8179 ] ], [ [ -77.16668, 38.82585 ], [ -77.1666, 38.82575 ], [ -77.16637, 38.82579 ], [ -77.16668, 38.82585 ] ], [ [ -77.15766, 38.81267 ], [ -77.15968, 38.81476 ], [ -77.15981, 38.81468 ], [ -77.15766, 38.81267 ] ], [ [ -77.15925, 38.81248 ], [ -77.15951, 38.81273 ], [ -77.16015, 38.81201 ], [ -77.1595, 38.81167 ], [ -77.15925, 38.81248 ] ], [ [ -77.16142, 38.82331 ], [ -77.16167, 38.82314 ], [ -77.16104, 38.82297 ], [ -77.16099, 38.82331 ], [ -77.16142, 38.82331 ] ], [ [ -77.15924, 38.82262 ], [ -77.1597, 38.82259 ], [ -77.15932, 38.8225 ], [ -77.15924, 38.82262 ] ], [ [ -77.16122, 38.81787 ], [ -77.16078, 38.81747 ], [ -77.1608, 38.81816 ], [ -77.16122, 38.81787 ] ], [ [ -77.16718, 38.81123 ], [ -77.16741, 38.81146 ], [ -77.16762, 38.81102 ], [ -77.16787, 38.81026 ], [ -77.16718, 38.81123 ] ] ] } },
{ "type": "Feature", "properties": { "variant": "T0", "miles": 2.0 }, "geometry": { "type": "Polygon", "coordinates": [ [ [ -77.18921, 38.80882 ], [ -77.18941, 38.80962 ], [ -77.1901, 38.81016 ], [ -77.19012, 38.81122 ], [ -77.19256, 38.81134 ], [ -77.19257, 38.81221 ], [ -77.18715, 38.81245 ], [ -77.18732, 38.8148 ], [ -77.18808, 38.8161 ], [ -77.1873, 38.81656 ], [ -77.18613, 38.81546 ], [ -77.18582, 38.81372 ], [ -77.18377, 38.81357 ], [ -77.18353, 38.81249 ], [ -77.18258, 38.81249 ], [ -77.18324, 38.81298 ], [ -77.18271, 38.81351 ], [ -77.18353, 38.81823 ], [ -77.18329, 38.81985 ], [ -77.18232, 38.81993 ], [ -77.18215, 38.81837 ], [ -77.18165, 38.81846 ], [ -77.18145, 38.82123 ], [ -77.1807, 38.82145 ], [ -77.17959, 38.82084 ], [ -77.17935, 38.82157 ], [ -77.17773, 38.82192 ], [ -77.17743, 38.82264 ], [ -77.17974, 38.8233 ], [ -77.18103, 38.8253 ], [ -77.18317, 38.82664 ], [ -77.18325, 38.82745 ], [ -77.18485, 38.82781 ], [ -77.18503, 38.82701 ], [ -77.18384, 38.82658 ], [ -77.18273, 38.82506 ], [ -77.18109, 38.82422 ], [ -77.18087, 38.82348 ], [ -77.18183, 38.82331 ], [ -77.18366, 38.82425 ], [ -77.18511, 38.82593 ], [ -77.18589, 38.82514 ], [ -77.18341, 38.82386 ], [ -77.18325, 38.8231 ], [ -77.1837, 38.82289 ], [ -77.18503, 38.82336 ], [ -77.18639, 38.82121 ], [ -77.18846, 38.82163 ], [ -77.18896, 38.82228 ], [ -77.18813, 38.8234 ], [ -77.18783, 38.8249 ], [ -77.18627, 38.82652 ], [ -77.18623, 38.82812 ], [ -77.18713, 38.82831 ], [ -77.18749, 38.82558 ], [ -77.18826, 38.82511 ], [ -77.18886, 38.82571 ], [ -77.1885, 38.82845 ], [ -77.18973, 38.82867 ], [ -77.19155, 38.8277 ], [ -77.19385, 38.82799 ], [ -77.19452, 38.82759 ], [ -77.19508, 38.82779 ], [ -77.19515, 38.83139 ], [ -77.19208, 38.83299 ], [ -77.1914, 38.83296 ], [ -77.18752, 38.8346 ], [ -77.18764, 38.83519 ], [ -77.18723, 38.83545 ], [ -77.18618, 38.83518 ], [ -77.18458, 38.83555 ], [ -77.18415, 38.83472 ], [ -77.18651, 38.8337 ], [ -77.18574, 38.83242 ], [ -77.18401, 38.83231 ], [ -77.18387, 38.83428 ], [ -77.18314, 38.83433 ], [ -77.18141, 38.83355 ], [ -77.18116, 38.83281 ], [ -77.18236, 38.83273 ], [ -77.1828, 38.83177 ], [ -77.18026, 38.82986 ], [ -77.18027, 38.82945 ], [ -77.18065, 38.82916 ], [ -77.18164, 38.82932 ], [ -77.18403, 38.83123 ], [ -77.18514, 38.83121 ], [ -77.18399, 38.83088 ], [ -77.18035, 38.82791 ], [ -77.17744, 38.83209 ], [ -77.17798, 38.83292 ], [ -77.17782, 38.83528 ], [ -77.17716, 38.83565 ], [ -77.17616, 38.83538 ], [ -77.17493, 38.83658 ], [ -77.17208, 38.83745 ], [ -77.17158, 38.83679 ], [ -77.17245, 38.83621 ], [ -77.1719, 38.83572 ], [ -77.17077, 38.836 ], [ -77.17016, 38.8357 ], [ -77.17019, 38.83637 ], [ -77.16972, 38.83656 ], [ -77.16833, 38.83655 ], [ -77.16779, 38.83615 ], [ -77.1673, 38.83709 ], [ -77.16864, 38.83742 ], [ -77.16869, 38.83819 ], [ -77.1665, 38.83841 ], [ -77.166, 38.83664 ], [ -77.16428, 38.8364 ], [ -77.16404, 38.8371 ], [ -77.16306, 38.83707 ], [ -77.16315, 38.83334 ], [ -77.16168, 38.83799 ], [ -77.15678, 38.83667 ], [ -77.15649, 38.83633 ], [ -77.15694, 38.83539 ], [ -77.15778, 38.83538 ], [ -77.1597, 38.83414 ], [ -77.15786, 38.83265 ], [ -77.15765, 38.83126 ], [ -77.15801, 38.83095 ], [ -77.15488, 38.83005 ], [ -77.15321, 38.8301 ], [ -77.15294, 38.83208 ], [ -77.15216, 38.83254 ], [ -77.15171, 38.83232 ], [ -77.15168, 38.83138 ], [ -77.15055, 38.82919 ], [ -77.15047, 38.82663 ], [ -77.14945, 38.82649 ], [ -77.14924, 38.82611 ], [ -77.14943, 38.82572 ], [ -77.15045, 38.82555 ], [ -77.15038, 38.82173 ], [ -77.14949, 38.82097 ], [ -77.14938, 38.8201 ], [ -77.14773, 38.81982 ], [ -77.14732, 38.81907 ], [ -77.14768, 38.81812 ], [ -77.14818, 38.81799 ], [ -77.14882, 38.81866 ], [ -77.14909, 38.81791 ], [ -77.14961, 38.81784 ], [ -77.15097, 38.81845 ], [ -77.15345, 38.81313 ], [ -77.1536, 38.81141 ], [ -77.15245, 38.81166 ], [ -77.15205, 38.81139 ], [ -77.15242, 38.80969 ], [ -77.15339, 38.80974 ], [ -77.15355, 38.81029 ], [ -77.15475, 38.81033 ], [ -77.15563, 38.80975 ], [ -77.15416, 38.81022 ], [ -77.15374, 38.80997 ], [ -77.15398, 38.80923 ], [ -77.15862, 38.80676 ], [ -77.15888, 38.80588 ], [ -77.16039, 38.80482 ], [ -77.16471, 38.80341 ], [ -77.16279, 38.80255 ], [ -77.16022, 38.80304 ], [ -77.15959, 38.80271 ], [ -77.15952, 38.8023 ], [ -77.1605, 38.80173 ], [ -77.16059, 38.80089 ], [ -77.16168, 38.80117 ], [ -77.16199, 38.80071 ], [ -77.16339, 38.80073 ], [ -77.16374, 38.80148 ], [ -77.1687, 38.80421 ], [ -77.16933, 38.80395 ], [ -77.17011, 38.8045 ], [ -77.17035, 38.80387 ], [ -77.17132, 38.8039 ], [ -77.17173, 38.80506 ], [ -77.17209, 38.80322 ], [ -77.17286, 38.80275 ], [ -77.17356, 38.80321 ], [ -77.17396, 38.80174 ], [ -77.17836, 38.80236 ], [ -77.17906, 38.802 ], [ -77.17961, 38.80247 ], [ -77.18122, 38.8026 ], [ -77.18183, 38.80221 ], [ -77.18252, 38.80275 ], [ -77.18254, 38.80433 ], [ -77.18185, 38.80488 ], [ -77.18067, 38.80445 ], [ -77.18088, 38.80489 ], [ -77.18043, 38.80534 ], [ -77.18113, 38.80637 ], [ -77.18372, 38.80638 ], [ -77.18369, 38.80548 ], [ -77.18466, 38.80534 ], [ -77.18604, 38.80861 ], [ -77.18921, 38.80882 ] ], [ [ -77.17264, 38.83414 ], [ -77.17223, 38.8335 ], [ -77.17118, 38.83342 ], [ -77.1711, 38.83481 ], [ -77.17264, 38.83414 ] ], [ [ -77.1718, 38.8309 ], [ -77.17171, 38.83092 ], [ -77.17178, 38.831 ], [ -77.1718, 38.8309 ] ], [ [ -77.17164, 38.82852 ], [ -77.1709, 38.82902 ], [ -77.16983, 38.82909 ], [ -77.17008, 38.82954 ], [ -77.16922, 38.83007 ], [ -77.17031, 38.83048 ], [ -77.17187, 38.82972 ], [ -77.17164, 38.82852 ] ], [ [ -77.17268, 38.82776 ], [ -77.17248, 38.82727 ], [ -77.17202, 38.8276 ], [ -77.17268, 38.82776 ] ], [ [ -77.17013, 38.8268 ], [ -77.16748, 38.82876 ], [ -77.1639, 38.82768 ], [ -77.16354, 38.82702 ], [ -77.16177, 38.82629 ], [ -77.16169, 38.82588 ], [ -77.1626, 38.82513 ], [ -77.16261, 38.82432 ], [ -77.16355, 38.82338 ], [ -77.16013, 38.82575 ], [ -77.16444, 38.82872 ], [ -77.16593, 38.83025 ], [ -77.17092, 38.82692 ], [ -77.17013, 38.8268 ] ], [ [ -77.17314, 38.8237 ], [ -77.17325, 38.82357 ], [ -77.17236, 38.82428 ], [ -77.17314, 38.8237 ] ], [ [ -77.17145, 38.82337 ], [ -77.17143, 38.82317 ], [ -77.17143, 38.82324 ], [ -77.17145, 38.82337 ] ], [ [ -77.16996, 38.82331 ], [ -77.16928, 38.82337 ], [ -77.16922, 38.82351 ], [ -77.16987, 38.82361 ], [ -77.16996, 38.82331 ] ], [ [ -77.16909, 38.82161 ], [ -77.17005, 38.82193 ], [ -77.17022, 38.8225 ], [ -77.17053, 38.82194 ], [ -77.16943, 38.82155 ], [ -77.16968, 38.82081 ], [ -77.17276, 38.82127 ], [ -77.16948, 38.82031 ], [ -77.16971, 38.81957 ], [ -77.17024, 38.81951 ], [ -77.17289, 38.81999 ], [ -77.16965, 38.81904 ], [ -77.16993, 38.81831 ], [ -77.171, 38.81839 ], [ -77.16884, 38.81684 ], [ -77.16782, 38.81887 ], [ -77.16819, 38.82028 ], [ -77.16717, 38.823 ], [ -77.16758, 38.82291 ], [ -77.16763, 38.82227 ], [ -77.16909, 38.82161 ] ], [ [ -77.16927, 38.81451 ], [ -77.16758, 38.81357 ], [ -77.16545, 38.81125 ], [ -77.16532, 38.81085 ], [ -77.16611, 38.8104 ], [ -77.16675, 38.80913 ], [ -77.16655, 38.80856 ], [ -77.16558, 38.81009 ], [ -77.16467, 38.80983 ], [ -77.16636, 38.80535 ], [ -77.1659, 38.80507 ], [ -77.16507, 38.80574 ], [ -77.16488, 38.80649 ], [ -77.16305, 38.8071 ], [ -77.16132, 38.80639 ], [ -77.16177, 38.80563 ], [ -77.16123, 38.80568 ], [ -77.16003, 38.80649 ], [ -77.16, 38.8077 ], [ -77.16052, 38.80815 ], [ -77.15981, 38.80877 ], [ -77.15966, 38.80954 ], [ -77.16052, 38.80859 ], [ -77.16132, 38.80903 ], [ -77.16064, 38.81093 ], [ -77.16189, 38.8093 ], [ -77.16284, 38.80912 ], [ -77.16306, 38.80986 ], [ -77.16194, 38.8113 ], [ -77.16204, 38.81144 ], [ -77.16293, 38.81009 ], [ -77.16344, 38.80998 ], [ -77.16403, 38.81059 ], [ -77.16264, 38.81326 ], [ -77.16185, 38.8135 ], [ -77.16143, 38.81325 ], [ -77.16143, 38.81242 ], [ -77.16054, 38.81368 ], [ -77.16378, 38.81671 ], [ -77.16525, 38.81316 ], [ -77.16605, 38.81271 ], [ -77.16797, 38.81439 ], [ -77.16677, 38.81666 ], [ -77.16927, 38.81451 ] ], [ [ -77.16787, 38.81026 ], [ -77.16773, 38.81012 ], [ -77.16718, 38.81123 ], [ -77.16742, 38.81145 ], [ -77.16787, 38.81026 ] ], [ [ -77.16837, 38.80553 ], [ -77.16801, 38.80531 ], [ -77.16673, 38.80819 ], [ -77.16837, 38.80553 ] ], [ [ -77.17458, 38.81983 ], [ -77.17433, 38.81837 ], [ -77.17286, 38.81691 ], [ -77.17159, 38.81651 ], [ -77.17131, 38.81588 ], [ -77.17198, 38.81547 ], [ -77.1707, 38.81493 ], [ -77.16972, 38.81594 ], [ -77.17136, 38.81648 ], [ -77.17134, 38.81712 ], [ -77.17413, 38.81949 ], [ -77.17443, 38.82194 ], [ -77.17564, 38.8215 ], [ -77.17631, 38.82195 ], [ -77.17638, 38.82101 ], [ -77.17458, 38.81983 ] ], [ [ -77.17546, 38.81248 ], [ -77.17509, 38.81248 ], [ -77.1758, 38.81923 ], [ -77.17622, 38.81952 ], [ -77.17546, 38.81248 ] ], [ [ -77.17677, 38.81049 ], [ -77.17701, 38.81049 ], [ -77.17677, 38.8103 ], [ -77.17677, 38.81049 ] ], [ [ -77.17603, 38.80342 ], [ -77.17585, 38.80402 ], [ -77.17587, 38.80403 ], [ -77.17603, 38.80342 ] ], [ [ -77.18492, 38.81264 ], [ -77.18578, 38.81263 ], [ -77.18577, 38.81247 ], [ -77.18492, 38.81264 ] ], [ [ -77.18037, 38.81261 ], [ -77.18213, 38.81249 ], [ -77.1804, 38.81249 ], [ -77.18037, 38.81261 ] ], [ [ -77.18041, 38.81095 ], [ -77.18015, 38.81132 ], [ -77.18056, 38.8113 ], [ -77.18041, 38.81095 ] ], [ [ -77.18103, 38.80912 ], [ -77.18045, 38.80882 ], [ -77.18045, 38.80968 ], [ -77.18103, 38.80912 ] ], [ [ -77.18394, 38.80921 ], [ -77.18474, 38.80895 ], [ -77.18403, 38.80748 ], [ -77.18092, 38.80747 ], [ -77.18222, 38.80844 ], [ -77.18319, 38.8085 ], [ -77.18394, 38.80921 ] ], [ [ -77.18398, 38.81081 ], [ -77.18332, 38.81129 ], [ -77.1856, 38.81128 ], [ -77.18516, 38.80998 ], [ -77.18402, 38.80991 ], [ -77.18398, 38.81081 ] ], [ [ -77.18253, 38.81005 ], [ -77.18178, 38.81031 ], [ -77.18242, 38.81034 ], [ -77.18253, 38.81005 ] ], [ [ -77.18175, 38.81476 ], [ -77.18134, 38.81363 ], [ -77.18056, 38.81368 ], [ -77.1813, 38.81426 ], [ -77.18077, 38.81482 ], [ -77.18177, 38.81733 ], [ -77.18175, 38.81476 ] ], [ [ -77.17788, 38.80346 ], [ -77.17793, 38.80341 ], [ -77.1778, 38.8034 ], [ -77.17788, 38.80346 ] ], [ [ -77.17775, 38.82082 ], [ -77.1782, 38.82077 ], [ -77.17732, 38.81247 ], [ -77.17684, 38.81247 ], [ -77.17775, 38.82082 ] ], [ [ -77.17885, 38.80555 ], [ -77.17893, 38.80555 ], [ -77.17889, 38.80551 ], [ -77.17885, 38.80555 ] ], [ [ -77.17749, 38.80554 ], [ -77.17777, 38.80554 ], [ -77.17766, 38.80538 ], [ -77.17749, 38.80554 ] ], [ [ -77.17936, 38.81502 ], [ -77.1787, 38.81247 ], [ -77.17918, 38.81695 ], [ -77.17963, 38.8169 ], [ -77.17924, 38.81648 ], [ -77.17997, 38.81579 ], [ -77.17936, 38.81502 ] ], [ [ -77.17928, 38.81791 ], [ -77.17951, 38.82003 ], [ -77.1803, 38.81995 ], [ -77.18026, 38.81935 ], [ -77.17954, 38.81877 ], [ -77.18011, 38.81827 ], [ -77.17928, 38.81791 ] ], [ [ -77.18718, 38.82251 ], [ -77.18694, 38.82239 ], [ -77.1862, 38.82396 ], [ -77.18662, 38.82421 ], [ -77.18718, 38.82251 ] ], [ [ -77.18841, 38.83164 ], [ -77.18929, 38.82999 ], [ -77.18601, 38.82934 ], [ -77.18667, 38.83135 ], [ -77.18722, 38.83101 ], [ -77.188, 38.83146 ], [ -77.18795, 38.83239 ], [ -77.18739, 38.83261 ], [ -77.18772, 38.83317 ], [ -77.18858, 38.8327 ], [ -77.18841, 38.83164 ] ], [ [ -77.19075, 38.83022 ], [ -77.1907, 38.8304 ], [ -77.19228, 38.83131 ], [ -77.19366, 38.83064 ], [ -77.19075, 38.83022 ] ], [ [ -77.1901, 38.83219 ], [ -77.19091, 38.83188 ], [ -77.19024, 38.83148 ], [ -77.1901, 38.83219 ] ], [ [ -77.19185, 38.82877 ], [ -77.19124, 38.82893 ], [ -77.19372, 38.82926 ], [ -77.19185, 38.82877 ] ], [ [ -77.18462, 38.82905 ], [ -77.18467, 38.82906 ], [ -77.18468, 38.82904 ], [ -77.18462, 38.82905 ] ], [ [ -77.17841, 38.82581 ], [ -77.17914, 38.82605 ], [ -77.17956, 38.82528 ], [ -77.1789, 38.82487 ], [ -77.17841, 38.82581 ] ], [ [ -77.17508, 38.832 ], [ -77.17518, 38.83192 ], [ -77.17386, 38.83163 ], [ -77.17424, 38.83205 ], [ -77.17508, 38.832 ] ], [ [ -77.17538, 38.83066 ], [ -77.17392, 38.8303 ], [ -77.17318, 38.83043 ], [ -77.17538, 38.83066 ] ], [ [ -77.17715, 38.83016 ], [ -77.17782, 38.82923 ], [ -77.17311, 38.82796 ], [ -77.17487, 38.8288 ], [ -77.17521, 38.82947 ], [ -77.17715, 38.83016 ] ], [ [ -77.17899, 38.8276 ], [ -77.17803, 38.8273 ], [ -77.1776, 38.82799 ], [ -77.1785, 38.82828 ], [ -77.17899, 38.8276 ] ], [ [ -77.1754, 38.82488 ], [ -77.17555, 38.82492 ], [ -77.17657, 38.82363 ], [ -77.1754, 38.82488 ] ], [ [ -77.17384, 38.81587 ], [ -77.17412, 38.81641 ], [ -77.17412, 38.81637 ], [ -77.17384, 38.81587 ] ], [ [ -77.17224, 38.81422 ], [ -77.17136, 38.8136 ], [ -77.17121, 38.8139 ], [ -77.17285, 38.81461 ], [ -77.17394, 38.81478 ], [ -77.17224, 38.81422 ] ], [ [ -77.17371, 38.8125 ], [ -77.1722, 38.81273 ], [ -77.17311, 38.81339 ], [ -77.1738, 38.81349 ], [ -77.17371, 38.8125 ] ], [ [ -77.17452, 38.80744 ], [ -77.17419, 38.80739 ], [ -77.174, 38.81133 ], [ -77.17423, 38.81134 ], [ -77.17452, 38.80744 ] ], [ [ -77.17064, 38.81097 ], [ -77.17088, 38.80681 ], [ -77.17, 38.80859 ], [ -77.16838, 38.80903 ], [ -77.16926, 38.81009 ], [ -77.16875, 38.81174 ], [ -77.16961, 38.81145 ], [ -77.17, 38.81172 ], [ -77.16931, 38.81329 ], [ -77.16978, 38.8135 ], [ -77.17117, 38.81185 ], [ -77.17064, 38.81097 ] ], [ [ -77.17202, 38.81093 ], [ -77.17246, 38.8114 ], [ -77.17282, 38.80721 ], [ -77.17224, 38.80711 ], [ -77.17202, 38.81093 ] ], [ [ -77.17183, 38.82231 ], [ -77.17176, 38.82246 ], [ -77.172, 38.82224 ], [ -77.17183, 38.82231 ] ], [ [ -77.17356, 38.82312 ], [ -77.17351, 38.82329 ], [ -77.1738, 38.82298 ], [ -77.17354, 38.82279 ], [ -77.17356, 38.82312 ] ], [ [ -77.17383, 38.82653 ], [ -77.17399, 38.82617 ], [ -77.17298, 38.82692 ], [ -77.17383, 38.82653 ] ], [ [ -77.17318, 38.82931 ], [ -77.17326, 38.82928 ], [ -77.17316, 38.82923 ], [ -77.17318, 38.82931 ] ], [ [ -77.16897, 38.80785 ], [ -77.16954, 38.80618 ], [ -77.16879, 38.80774 ], [ -77.16897, 38.80785 ] ], [ [ -77.16189, 38.83209 ], [ -77.15906, 38.83126 ], [ -77.16242, 38.83241 ], [ -77.16189, 38.83209 ] ], [ [ -77.16368, 38.83164 ], [ -77.16393, 38.83148 ], [ -77.16309, 38.83121 ], [ -77.1631, 38.8306 ], [ -77.16271, 38.83024 ], [ -77.16306, 38.8313 ], [ -77.16368, 38.83164 ] ], [ [ -77.1609, 38.82329 ], [ -77.16167, 38.82314 ], [ -77.1611, 38.823 ], [ -77.1609, 38.82329 ] ], [ [ -77.16122, 38.81787 ], [ -77.16078, 38.81747 ], [ -77.1608, 38.81816 ], [ -77.16122, 38.81787 ] ], [ [ -77.16412, 38.81891 ], [ -77.1607, 38.81551 ], [ -77.16056, 38.8156 ], [ -77.16412, 38.81891 ] ], [ [ -77.16846, 38.83522 ], [ -77.16754, 38.83482 ], [ -77.16784, 38.83578 ], [ -77.16846, 38.83522 ] ], [ [ -77.1685, 38.83382 ], [ -77.16833, 38.83393 ], [ -77.16855, 38.83402 ], [ -77.1685, 38.83382 ] ], [ [ -77.16846, 38.83269 ], [ -77.16869, 38.83255 ], [ -77.1683, 38.83249 ], [ -77.16846, 38.83269 ] ], [ [ -77.17068, 38.83217 ], [ -77.171, 38.8321 ], [ -77.16778, 38.83042 ], [ -77.16738, 38.83067 ], [ -77.16823, 38.83135 ], [ -77.17068, 38.83217 ] ], [ [ -77.16668, 38.82585 ], [ -77.1666, 38.82575 ], [ -77.16637, 38.82579 ], [ -77.16668, 38.82585 ] ], [ [ -77.17006, 38.83558 ], [ -77.17001, 38.83559 ], [ -77.17008, 38.8356 ], [ -77.17006, 38.83558 ] ], [ [ -77.16664, 38.8179 ], [ -77.16676, 38.81794 ], [ -77.16679, 38.81787 ], [ -77.16664, 38.8179 ] ], [ [ -77.16617, 38.82022 ], [ -77.16648, 38.82101 ], [ -77.1668, 38.8202 ], [ -77.16643, 38.81896 ], [ -77.16577, 38.81882 ], [ -77.16533, 38.81982 ], [ -77.16617, 38.82022 ] ], [ [ -77.1653, 38.81655 ], [ -77.16647, 38.81462 ], [ -77.16625, 38.81443 ], [ -77.1653, 38.81655 ] ], [ [ -77.16616, 38.82186 ], [ -77.16632, 38.82142 ], [ -77.16612, 38.82157 ], [ -77.16616, 38.82186 ] ], [ [ -77.16453, 38.83431 ], [ -77.16451, 38.8349 ], [ -77.16455, 38.8352 ], [ -77.16453, 38.83431 ] ], [ [ -77.16491, 38.83225 ], [ -77.16424, 38.83267 ], [ -77.16481, 38.83247 ], [ -77.16491, 38.83225 ] ], [ [ -77.16673, 38.83176 ], [ -77.16631, 38.83136 ], [ -77.16598, 38.83156 ], [ -77.16667, 38.8323 ], [ -77.16673, 38.83176 ] ], [ [ -77.16593, 38.83505 ], [ -77.16635, 38.83558 ], [ -77.16595, 38.83331 ], [ -77.16593, 38.83505 ] ], [ [ -77.16441, 38.83044 ], [ -77.16415, 38.83015 ], [ -77.16415, 38.83038 ], [ -77.16441, 38.83044 ] ], [ [ -77.16191, 38.81884 ], [ -77.16201, 38.82174 ], [ -77.1629, 38.82196 ], [ -77.16342, 38.81992 ], [ -77.16191, 38.81884 ] ], [ [ -77.1595, 38.81167 ], [ -77.15951, 38.81273 ], [ -77.16009, 38.81211 ], [ -77.1595, 38.81167 ] ], [ [ -77.15854, 38.80807 ], [ -77.15854, 38.80806 ], [ -77.15741, 38.80869 ], [ -77.15674, 38.80911 ], [ -77.15854, 38.80807 ] ], [ [ -77.15906, 38.8301 ], [ -77.15773, 38.8289 ], [ -77.15769, 38.82972 ], [ -77.15906, 38.8301 ] ], [ [ -77.15898, 38.82832 ], [ -77.15916, 38.82845 ], [ -77.15778, 38.82722 ], [ -77.15898, 38.82832 ] ], [ [ -77.15873, 38.82526 ], [ -77.15912, 38.825 ], [ -77.15872, 38.82495 ], [ -77.15873, 38.82526 ] ], [ [ -77.1563, 38.82255 ], [ -77.15749, 38.82297 ], [ -77.15798, 38.82218 ], [ -77.15594, 38.82167 ], [ -77.1553, 38.82288 ], [ -77.15478, 38.82298 ], [ -77.15306, 38.8222 ], [ -77.15287, 38.82083 ], [ -77.15074, 38.82035 ], [ -77.15174, 38.82147 ], [ -77.15183, 38.82572 ], [ -77.15263, 38.82578 ], [ -77.15279, 38.82494 ], [ -77.15213, 38.82437 ], [ -77.15235, 38.82399 ], [ -77.15385, 38.82343 ], [ -77.15444, 38.82419 ], [ -77.1563, 38.82255 ] ], [ [ -77.15583, 38.813 ], [ -77.15499, 38.81246 ], [ -77.15504, 38.81204 ], [ -77.15545, 38.81178 ], [ -77.1566, 38.81193 ], [ -77.15518, 38.81153 ], [ -77.15489, 38.8118 ], [ -77.15457, 38.81399 ], [ -77.15522, 38.81386 ], [ -77.15583, 38.813 ] ], [ [ -77.15704, 38.81774 ], [ -77.15645, 38.81717 ], [ -77.15647, 38.8178 ], [ -77.15735, 38.81794 ], [ -77.1575, 38.81845 ], [ -77.15804, 38.81853 ], [ -77.15767, 38.81797 ], [ -77.15704, 38.81774 ] ], [ [ -77.15834, 38.81581 ], [ -77.1566, 38.81537 ], [ -77.15797, 38.81691 ], [ -77.15773, 38.81661 ], [ -77.15834, 38.81581 ] ], [ [ -77.15882, 38.81565 ], [ -77.15875, 38.81572 ], [ -77.15896, 38.81578 ], [ -77.15882, 38.81565 ] ], [ [ -77.15656, 38.81419 ], [ -77.15773, 38.81455 ], [ -77.15735, 38.81418 ], [ -77.15688, 38.81375 ], [ -77.15656, 38.81419 ] ], [ [ -77.15968, 38.81476 ], [ -77.15981, 38.81468 ], [ -77.15766, 38.81267 ], [ -77.15968, 38.81476 ] ], [ [ -77.15939, 38.81673 ], [ -77.1594, 38.81707 ], [ -77.15971, 38.81648 ], [ -77.15933, 38.81612 ], [ -77.15939, 38.81673 ] ], [ [ -77.1594, 38.82109 ], [ -77.15947, 38.82111 ], [ -77.15946, 38.8202 ], [ -77.15944, 38.81975 ], [ -77.1594, 38.82109 ] ], [ [ -77.15924, 38.82262 ], [ -77.1597, 38.82259 ], [ -77.15932, 38.8225 ], [ -77.15924, 38.82262 ] ], [ [ -77.15888, 38.82654 ], [ -77.1611, 38.82807 ], [ -77.16118, 38.82791 ], [ -77.15888, 38.82654 ] ], [ [ -77.16035, 38.83049 ], [ -77.16152, 38.83083 ], [ -77.16044, 38.82906 ], [ -77.16035, 38.83049 ] ], [ [ -77.16057, 38.83655 ], [ -77.16087, 38.83666 ], [ -77.16116, 38.83553 ], [ -77.16057, 38.83655 ] ], [ [ -77.16077, 38.83346 ], [ -77.16124, 38.83316 ], [ -77.16005, 38.83281 ], [ -77.16077, 38.83346 ] ], [ [ -77.15912, 38.8359 ], [ -77.15898, 38.83599 ], [ -77.1593, 38.83611 ], [ -77.1596, 38.83559 ], [ -77.15912, 38.8359 ] ], [ [ -77.15725, 38.81988 ], [ -77.15737, 38.81961 ], [ -77.1565, 38.81981 ], [ -77.15652, 38.82039 ], [ -77.15704, 38.82051 ], [ -77.15725, 38.81988 ] ], [ [ -77.15651, 38.81069 ], [ -77.15662, 38.81073 ], [ -77.15646, 38.81061 ], [ -77.15651, 38.81069 ] ], [ [ -77.15657, 38.82798 ], [ -77.15498, 38.82897 ], [ -77.15636, 38.82933 ], [ -77.15657, 38.82798 ] ], [ [ -77.15725, 38.82502 ], [ -77.15625, 38.82502 ], [ -77.15628, 38.82564 ], [ -77.15558, 38.82585 ], [ -77.15567, 38.8263 ], [ -77.15652, 38.82661 ], [ -77.15725, 38.82502 ] ], [ [ -77.15584, 38.82482 ], [ -77.15588, 38.82483 ], [ -77.15585, 38.8248 ], [ -77.15584, 38.82482 ] ], [ [ -77.15567, 38.82476 ], [ -77.15584, 38.82479 ], [ -77.15572, 38.82471 ], [ -77.15567, 38.82476 ] ], [ [ -77.15286, 38.81959 ], [ -77.15293, 38.8196 ], [ -77.15292, 38.81955 ], [ -77.15286, 38.81959 ] ], [ [ -77.15436, 38.82542 ], [ -77.15416, 38.82509 ], [ -77.154, 38.82593 ], [ -77.15478, 38.82566 ], [ -77.15436, 38.82542 ] ], [ [ -77.15191, 38.82899 ], [ -77.15197, 38.82914 ], [ -77.15242, 38.82684 ], [ -77.15186, 38.82705 ], [ -77.15191, 38.82899 ] ], [ [ -77.15349, 38.82851 ], [ -77.15535, 38.82736 ], [ -77.15379, 38.827 ], [ -77.15349, 38.82851 ] ] ] } },
{ "type": "Feature", "properties": { "variant": "T2s", "miles": 1.0 }, "geometry": { "type": "Polygon", "coordinates": [ [ [ -77.17505, 38.8138 ], [ -77.17522, 38.81577 ], [ -77.17384, 38.81587 ], [ -77.1738, 38.8166 ], [ -77.17337, 38.81684 ], [ -77.1717, 38.81661 ], [ -77.17131, 38.81588 ], [ -77.17198, 38.81547 ], [ -77.17102, 38.81497 ], [ -77.16972, 38.81594 ], [ -77.17136, 38.81648 ], [ -77.17134, 38.81712 ], [ -77.17413, 38.81949 ], [ -77.17443, 38.82194 ], [ -77.17564, 38.8215 ], [ -77.17635, 38.82202 ], [ -77.17393, 38.82467 ], [ -77.17565, 38.82495 ], [ -77.17715, 38.82449 ], [ -77.17801, 38.82471 ], [ -77.17816, 38.82629 ], [ -77.17771, 38.82674 ], [ -77.1657, 38.82362 ], [ -77.1668, 38.8202 ], [ -77.16643, 38.81896 ], [ -77.16577, 38.81882 ], [ -77.16533, 38.81982 ], [ -77.16617, 38.82022 ], [ -77.16588, 38.82106 ], [ -77.16508, 38.82106 ], [ -77.16474, 38.82176 ], [ -77.16344, 38.82137 ], [ -77.16498, 38.81743 ], [ -77.1673, 38.81664 ], [ -77.17142, 38.81182 ], [ -77.1737, 38.81154 ], [ -77.17382, 38.8123 ], [ -77.1722, 38.81273 ], [ -77.17311, 38.81339 ], [ -77.17505, 38.8138 ] ], [ [ -77.17121, 38.8139 ], [ -77.17394, 38.81478 ], [ -77.17136, 38.8136 ], [ -77.17121, 38.8139 ] ], [ [ -77.17272, 38.82115 ], [ -77.16948, 38.82031 ], [ -77.16971, 38.81957 ], [ -77.17024, 38.81951 ], [ -77.17289, 38.81999 ], [ -77.16965, 38.81904 ], [ -77.16993, 38.81831 ], [ -77.171, 38.81839 ], [ -77.16884, 38.81684 ], [ -77.16782, 38.81887 ], [ -77.16819, 38.82028 ], [ -77.16717, 38.823 ], [ -77.16758, 38.82291 ], [ -77.16763, 38.82227 ], [ -77.16859, 38.82214 ], [ -77.16898, 38.82253 ], [ -77.16881, 38.82341 ], [ -77.16985, 38.82367 ], [ -77.17053, 38.82194 ], [ -77.16943, 38.82155 ], [ -77.16968, 38.82081 ], [ -77.17272, 38.82115 ] ], [ [ -77.17236, 38.82428 ], [ -77.17314, 38.8237 ], [ -77.17325, 38.82357 ], [ -77.17236, 38.82428 ] ], [ [ -77.17351, 38.82329 ], [ -77.1738, 38.82298 ], [ -77.17354, 38.82278 ], [ -77.17351, 38.82329 ] ], [ [ -77.17143, 38.82324 ], [ -77.17137, 38.82334 ], [ -77.17145, 38.82337 ], [ -77.17143, 38.82324 ] ], [ [ -77.17187, 38.82221 ], [ -77.17176, 38.82246 ], [ -77.172, 38.82224 ], [ -77.17187, 38.82221 ] ], [ [ -77.17167, 38.8226 ], [ -77.1716, 38.82272 ], [ -77.17168, 38.82258 ], [ -77.17167, 38.8226 ] ], [ [ -77.16664, 38.8179 ], [ -77.16676, 38.81794 ], [ -77.16679, 38.81787 ], [ -77.16664, 38.8179 ] ] ] } },
{ "type": "Feature", "properties": { "variant": "T2s", "miles": 1.5 }, "geometry": { "type": "MultiPolygon", "coordinates": [ [ [ [ -77.18307, 38.81337 ], [ -77.18056, 38.81368 ], [ -77.1813, 38.81426 ], [ -77.18069, 38.81486 ], [ -77.17949, 38.81477 ], [ -77.17925, 38.8144 ], [ -77.17913, 38.81318 ], [ -77.17979, 38.81263 ], [ -77.183, 38.81261 ], [ -77.18307, 38.81337 ] ] ], [ [ [ -77.17743, 38.82264 ], [ -77.17996, 38.82347 ], [ -77.18103, 38.8253 ], [ -77.18317, 38.82664 ], [ -77.18325, 38.82745 ], [ -77.18611, 38.82826 ], [ -77.18584, 38.829 ], [ -77.18264, 38.82843 ], [ -77.17491, 38.82603 ], [ -77.16758, 38.82437 ], [ -77.16678, 38.82574 ], [ -77.16543, 38.82554 ], [ -77.16567, 38.82648 ], [ -77.16489, 38.82693 ], [ -77.16417, 38.82634 ], [ -77.16409, 38.82529 ], [ -77.16283, 38.82465 ], [ -77.16355, 38.82338 ], [ -77.15948, 38.82617 ], [ -77.15851, 38.82607 ], [ -77.15837, 38.82567 ], [ -77.15912, 38.825 ], [ -77.15756, 38.82474 ], [ -77.15742, 38.82398 ], [ -77.15853, 38.82377 ], [ -77.15885, 38.82294 ], [ -77.1597, 38.82259 ], [ -77.15713, 38.82197 ], [ -77.15669, 38.82129 ], [ -77.15718, 38.82069 ], [ -77.15947, 38.82111 ], [ -77.15971, 38.81648 ], [ -77.15891, 38.81549 ], [ -77.15981, 38.81468 ], [ -77.15915, 38.81405 ], [ -77.15924, 38.81329 ], [ -77.16021, 38.81336 ], [ -77.16378, 38.81671 ], [ -77.16525, 38.81316 ], [ -77.16605, 38.81271 ], [ -77.168, 38.81455 ], [ -77.16677, 38.81666 ], [ -77.16927, 38.81451 ], [ -77.17129, 38.81191 ], [ -77.1737, 38.81154 ], [ -77.17382, 38.8123 ], [ -77.1722, 38.81273 ], [ -77.17311, 38.81339 ], [ -77.17513, 38.81384 ], [ -77.17581, 38.81929 ], [ -77.17686, 38.82005 ], [ -77.1768, 38.82047 ], [ -77.17586, 38.82067 ], [ -77.17458, 38.81983 ], [ -77.17433, 38.81837 ], [ -77.17286, 38.81691 ], [ -77.17202, 38.81682 ], [ -77.17143, 38.81628 ], [ -77.17131, 38.81588 ], [ -77.17198, 38.81547 ], [ -77.1707, 38.81493 ], [ -77.16972, 38.81594 ], [ -77.17136, 38.81648 ], [ -77.17134, 38.81712 ], [ -77.17413, 38.81949 ], [ -77.17443, 38.82194 ], [ -77.17564, 38.8215 ], [ -77.17631, 38.82195 ], [ -77.17661, 38.82105 ], [ -77.1771, 38.8209 ], [ -77.17778, 38.82144 ], [ -77.17743, 38.82264 ] ], [ [ -77.16987, 38.82361 ], [ -77.16996, 38.82331 ], [ -77.16928, 38.82337 ], [ -77.16922, 38.82351 ], [ -77.16987, 38.82361 ] ], [ [ -77.17023, 38.82249 ], [ -77.17053, 38.82194 ], [ -77.16943, 38.82155 ], [ -77.16968, 38.82081 ], [ -77.17276, 38.82127 ], [ -77.1699, 38.82055 ], [ -77.1694, 38.8199 ], [ -77.16971, 38.81957 ], [ -77.17289, 38.81999 ], [ -77.16965, 38.81904 ], [ -77.16993, 38.81831 ], [ -77.171, 38.81839 ], [ -77.16884, 38.81684 ], [ -77.16782, 38.81887 ], [ -77.16819, 38.82028 ], [ -77.16717, 38.823 ], [ -77.16858, 38.82169 ], [ -77.17005, 38.82193 ], [ -77.17023, 38.82249 ] ], [ [ -77.16646, 38.82083 ], [ -77.1668, 38.8202 ], [ -77.16643, 38.81896 ], [ -77.16577, 38.81882 ], [ -77.16533, 38.81982 ], [ -77.16617, 38.82022 ], [ -77.16646, 38.82083 ] ], [ [ -77.1653, 38.81655 ], [ -77.16647, 38.81462 ], [ -77.16625, 38.81443 ], [ -77.1653, 38.81655 ] ], [ [ -77.17657, 38.82363 ], [ -77.17607, 38.82417 ], [ -77.1754, 38.82488 ], [ -77.17555, 38.82492 ], [ -77.17657, 38.82363 ] ], [ [ -77.1789, 38.82487 ], [ -77.17841, 38.82581 ], [ -77.17914, 38.82605 ], [ -77.17956, 38.82528 ], [ -77.1789, 38.82487 ] ], [ [ -77.17405, 38.81589 ], [ -77.17389, 38.81618 ], [ -77.17412, 38.81641 ], [ -77.17405, 38.81589 ] ], [ [ -77.17394, 38.81478 ], [ -77.17136, 38.8136 ], [ -77.17121, 38.8139 ], [ -77.17285, 38.81461 ], [ -77.17394, 38.81478 ] ], [ [ -77.172, 38.82224 ], [ -77.17178, 38.82243 ], [ -77.17176, 38.82246 ], [ -77.172, 38.82224 ] ], [ [ -77.17355, 38.82278 ], [ -77.17356, 38.82312 ], [ -77.17351, 38.82329 ], [ -77.1738, 38.82298 ], [ -77.17355, 38.82278 ] ], [ [ -77.17325, 38.82357 ], [ -77.17279, 38.82383 ], [ -77.17236, 38.82428 ], [ -77.17325, 38.82357 ] ], [ [ -77.17137, 38.82334 ], [ -77.17145, 38.82337 ], [ -77.17143, 38.82317 ], [ -77.17137, 38.82334 ] ], [ [ -77.17168, 38.82258 ], [ -77.17161, 38.8227 ], [ -77.1716, 38.82272 ], [ -77.17168, 38.82258 ] ], [ [ -77.16676, 38.81794 ], [ -77.16679, 38.81787 ], [ -77.16664, 38.8179 ], [ -77.16676, 38.81794 ] ], [ [ -77.16612, 38.82157 ], [ -77.16616, 38.82186 ], [ -77.16632, 38.82142 ], [ -77.16612, 38.82157 ] ], [ [ -77.1611, 38.823 ], [ -77.1609, 38.82329 ], [ -77.16167, 38.82314 ], [ -77.1611, 38.823 ] ], [ [ -77.1629, 38.82196 ], [ -77.1636, 38.82011 ], [ -77.1621, 38.81871 ], [ -77.16201, 38.82174 ], [ -77.1629, 38.82196 ] ], [ [ -77.16056, 38.8156 ], [ -77.16412, 38.81891 ], [ -77.1607, 38.81551 ], [ -77.16056, 38.8156 ] ], [ [ -77.16078, 38.81747 ], [ -77.1608, 38.81816 ], [ -77.16122, 38.81787 ], [ -77.16078, 38.81747 ] ], [ [ -77.15973, 38.8226 ], [ -77.15974, 38.82261 ], [ -77.15974, 38.8226 ], [ -77.15973, 38.8226 ] ] ] ] } },
{ "type": "Feature", "properties": { "variant": "T2s", "miles": 2.0 }, "geometry": { "type": "Polygon", "coordinates": [ [ [ -77.18604, 38.80861 ], [ -77.18921, 38.80882 ], [ -77.18941, 38.80962 ], [ -77.1901, 38.81016 ], [ -77.19012, 38.81122 ], [ -77.19256, 38.81134 ], [ -77.19257, 38.81221 ], [ -77.18715, 38.81245 ], [ -77.18732, 38.8148 ], [ -77.18808, 38.8161 ], [ -77.1873, 38.81656 ], [ -77.18613, 38.81546 ], [ -77.18582, 38.81372 ], [ -77.18377, 38.81357 ], [ -77.18353, 38.81249 ], [ -77.18258, 38.81249 ], [ -77.18324, 38.81298 ], [ -77.18271, 38.81351 ], [ -77.18353, 38.81823 ], [ -77.18329, 38.81985 ], [ -77.18232, 38.81993 ], [ -77.18215, 38.81837 ], [ -77.18165, 38.81846 ], [ -77.18145, 38.82123 ], [ -77.1807, 38.82145 ], [ -77.17959, 38.82084 ], [ -77.17935, 38.82157 ], [ -77.17773, 38.82192 ], [ -77.17743, 38.82264 ], [ -77.17974, 38.8233 ], [ -77.18103, 38.8253 ], [ -77.18317, 38.82664 ], [ -77.18325, 38.82745 ], [ -77.18485, 38.82781 ], [ -77.18503, 38.82701 ], [ -77.18384, 38.82658 ], [ -77.18273, 38.82506 ], [ -77.18109, 38.82422 ], [ -77.18087, 38.82348 ], [ -77.18183, 38.82331 ], [ -77.18366, 38.82425 ], [ -77.18511, 38.82593 ], [ -77.18589, 38.82514 ], [ -77.18341, 38.82386 ], [ -77.18325, 38.8231 ], [ -77.1837, 38.82289 ], [ -77.18503, 38.82336 ], [ -77.18649, 38.82118 ], [ -77.18888, 38.82187 ], [ -77.18783, 38.8249 ], [ -77.18627, 38.82652 ], [ -77.18623, 38.82812 ], [ -77.18713, 38.82831 ], [ -77.18749, 38.82558 ], [ -77.18826, 38.82511 ], [ -77.18886, 38.82571 ], [ -77.1885, 38.82845 ], [ -77.18973, 38.82867 ], [ -77.1907, 38.82792 ], [ -77.19197, 38.82769 ], [ -77.1946, 38.82813 ], [ -77.19521, 38.82868 ], [ -77.19482, 38.8312 ], [ -77.19384, 38.83117 ], [ -77.19367, 38.83064 ], [ -77.19075, 38.83022 ], [ -77.19008, 38.83191 ], [ -77.19052, 38.833 ], [ -77.19012, 38.8336 ], [ -77.1893, 38.83347 ], [ -77.1885, 38.83263 ], [ -77.18841, 38.83164 ], [ -77.18929, 38.82999 ], [ -77.18735, 38.82976 ], [ -77.17808, 38.82703 ], [ -77.17711, 38.82703 ], [ -77.17621, 38.82819 ], [ -77.17492, 38.82854 ], [ -77.17295, 38.82792 ], [ -77.17248, 38.82727 ], [ -77.17162, 38.82788 ], [ -77.17065, 38.82785 ], [ -77.17068, 38.82677 ], [ -77.16876, 38.82759 ], [ -77.16748, 38.82876 ], [ -77.16521, 38.82828 ], [ -77.1639, 38.82768 ], [ -77.16354, 38.82702 ], [ -77.16177, 38.82629 ], [ -77.16169, 38.82588 ], [ -77.1626, 38.82513 ], [ -77.16261, 38.82432 ], [ -77.16355, 38.82338 ], [ -77.16013, 38.82575 ], [ -77.16444, 38.82872 ], [ -77.16593, 38.83025 ], [ -77.16649, 38.83008 ], [ -77.16712, 38.83067 ], [ -77.16486, 38.83212 ], [ -77.16422, 38.83154 ], [ -77.16484, 38.83091 ], [ -77.16415, 38.83015 ], [ -77.16388, 38.83068 ], [ -77.16336, 38.83075 ], [ -77.16271, 38.83024 ], [ -77.1629, 38.83156 ], [ -77.16242, 38.83208 ], [ -77.16189, 38.83209 ], [ -77.16077, 38.82928 ], [ -77.16044, 38.82906 ], [ -77.16024, 38.82987 ], [ -77.15926, 38.82987 ], [ -77.15926, 38.82824 ], [ -77.15727, 38.82686 ], [ -77.15693, 38.8257 ], [ -77.15725, 38.82502 ], [ -77.15625, 38.82502 ], [ -77.15628, 38.82564 ], [ -77.15566, 38.82586 ], [ -77.15454, 38.82556 ], [ -77.15404, 38.82485 ], [ -77.15511, 38.82316 ], [ -77.1563, 38.82255 ], [ -77.15749, 38.82297 ], [ -77.15798, 38.82218 ], [ -77.15594, 38.82167 ], [ -77.1553, 38.82288 ], [ -77.15478, 38.82298 ], [ -77.15306, 38.8222 ], [ -77.15287, 38.82083 ], [ -77.14792, 38.81988 ], [ -77.14739, 38.8195 ], [ -77.14754, 38.81869 ], [ -77.14889, 38.81867 ], [ -77.14909, 38.81791 ], [ -77.15097, 38.81845 ], [ -77.15345, 38.81313 ], [ -77.1536, 38.81141 ], [ -77.15245, 38.81166 ], [ -77.15205, 38.81139 ], [ -77.15242, 38.80969 ], [ -77.15339, 38.80974 ], [ -77.15355, 38.81029 ], [ -77.15475, 38.81033 ], [ -77.15563, 38.80975 ], [ -77.15416, 38.81022 ], [ -77.15374, 38.80997 ], [ -77.15398, 38.80923 ], [ -77.1584, 38.8068 ], [ -77.15982, 38.8069 ], [ -77.16052, 38.80815 ], [ -77.15981, 38.80877 ], [ -77.15966, 38.80954 ], [ -77.16052, 38.80859 ], [ -77.16132, 38.80903 ], [ -77.16055, 38.81089 ], [ -77.16231, 38.80906 ], [ -77.16315, 38.80946 ], [ -77.16188, 38.8114 ], [ -77.16293, 38.81009 ], [ -77.16389, 38.81019 ], [ -77.16397, 38.81082 ], [ -77.16267, 38.81323 ], [ -77.16185, 38.8135 ], [ -77.16143, 38.81325 ], [ -77.16143, 38.81242 ], [ -77.16054, 38.81368 ], [ -77.16378, 38.81671 ], [ -77.16553, 38.81281 ], [ -77.16649, 38.81294 ], [ -77.16797, 38.81439 ], [ -77.16677, 38.81666 ], [ -77.16927, 38.81451 ], [ -77.16751, 38.81351 ], [ -77.16532, 38.81085 ], [ -77.16611, 38.8104 ], [ -77.16675, 38.80913 ], [ -77.16661, 38.80837 ], [ -77.16759, 38.8076 ], [ -77.16809, 38.80772 ], [ -77.16801, 38.80864 ], [ -77.16924, 38.81 ], [ -77.16875, 38.81174 ], [ -77.16961, 38.81145 ], [ -77.17, 38.81172 ], [ -77.16931, 38.81329 ], [ -77.16978, 38.8135 ], [ -77.17152, 38.81163 ], [ -77.17428, 38.81134 ], [ -77.17424, 38.81067 ], [ -77.17539, 38.8105 ], [ -77.17568, 38.80965 ], [ -77.17661, 38.80988 ], [ -77.17677, 38.81133 ], [ -77.17796, 38.81133 ], [ -77.17865, 38.81185 ], [ -77.17918, 38.81695 ], [ -77.17963, 38.8169 ], [ -77.17941, 38.81609 ], [ -77.17999, 38.8159 ], [ -77.1793, 38.81482 ], [ -77.17931, 38.81281 ], [ -77.18213, 38.81249 ], [ -77.1808, 38.81233 ], [ -77.1806, 38.81184 ], [ -77.18129, 38.8113 ], [ -77.1856, 38.81128 ], [ -77.18516, 38.80998 ], [ -77.18432, 38.81005 ], [ -77.18377, 38.80941 ], [ -77.18474, 38.80895 ], [ -77.18448, 38.80786 ], [ -77.18488, 38.80759 ], [ -77.18541, 38.80761 ], [ -77.18604, 38.80861 ] ], [ [ -77.16668, 38.82585 ], [ -77.1663, 38.82577 ], [ -77.16631, 38.82583 ], [ -77.16668, 38.82585 ] ], [ [ -77.17638, 38.82101 ], [ -77.17458, 38.81983 ], [ -77.17433, 38.81837 ], [ -77.17286, 38.81691 ], [ -77.17159, 38.81651 ], [ -77.17131, 38.81588 ], [ -77.17198, 38.81547 ], [ -77.1707, 38.81493 ], [ -77.16972, 38.81594 ], [ -77.17136, 38.81648 ], [ -77.17134, 38.81712 ], [ -77.17413, 38.81949 ], [ -77.17443, 38.82194 ], [ -77.17564, 38.8215 ], [ -77.17631, 38.82195 ], [ -77.17638, 38.82101 ] ], [ [ -77.17622, 38.81952 ], [ -77.17546, 38.81248 ], [ -77.17509, 38.81248 ], [ -77.1758, 38.81923 ], [ -77.17622, 38.81952 ] ], [ [ -77.17412, 38.81637 ], [ -77.17384, 38.81587 ], [ -77.17412, 38.81641 ], [ -77.17412, 38.81637 ] ], [ [ -77.17121, 38.8139 ], [ -77.17394, 38.81478 ], [ -77.17136, 38.8136 ], [ -77.17121, 38.8139 ] ], [ [ -77.1738, 38.81349 ], [ -77.17371, 38.8125 ], [ -77.1722, 38.81273 ], [ -77.17311, 38.81339 ], [ -77.1738, 38.81349 ] ], [ [ -77.1782, 38.82077 ], [ -77.17732, 38.81247 ], [ -77.17684, 38.81247 ], [ -77.17775, 38.82082 ], [ -77.1782, 38.82077 ] ], [ [ -77.18203, 38.81724 ], [ -77.18134, 38.81363 ], [ -77.18056, 38.81368 ], [ -77.1813, 38.81426 ], [ -77.18077, 38.81482 ], [ -77.18131, 38.81553 ], [ -77.18153, 38.81736 ], [ -77.18203, 38.81724 ] ], [ [ -77.18011, 38.81827 ], [ -77.17928, 38.81791 ], [ -77.17951, 38.82003 ], [ -77.1803, 38.81995 ], [ -77.18026, 38.81935 ], [ -77.17954, 38.81877 ], [ -77.18011, 38.81827 ] ], [ [ -77.18578, 38.81263 ], [ -77.18491, 38.81248 ], [ -77.18492, 38.81264 ], [ -77.18578, 38.81263 ] ], [ [ -77.18004, 38.81701 ], [ -77.18011, 38.81698 ], [ -77.18, 38.81699 ], [ -77.18004, 38.81701 ] ], [ [ -77.17956, 38.82528 ], [ -77.1789, 38.82487 ], [ -77.17841, 38.82581 ], [ -77.17914, 38.82605 ], [ -77.17956, 38.82528 ] ], [ [ -77.18662, 38.82421 ], [ -77.18718, 38.82251 ], [ -77.18694, 38.82239 ], [ -77.1862, 38.82396 ], [ -77.18662, 38.82421 ] ], [ [ -77.19372, 38.82926 ], [ -77.19189, 38.82877 ], [ -77.19124, 38.82893 ], [ -77.19372, 38.82926 ] ], [ [ -77.171, 38.81839 ], [ -77.16884, 38.81684 ], [ -77.16849, 38.81722 ], [ -77.16781, 38.81895 ], [ -77.16816, 38.82041 ], [ -77.16717, 38.823 ], [ -77.16858, 38.82169 ], [ -77.17005, 38.82193 ], [ -77.17022, 38.8225 ], [ -77.17053, 38.82194 ], [ -77.16943, 38.82155 ], [ -77.16968, 38.82081 ], [ -77.17276, 38.82127 ], [ -77.16948, 38.82031 ], [ -77.16971, 38.81957 ], [ -77.17024, 38.81951 ], [ -77.17289, 38.81999 ], [ -77.16965, 38.81904 ], [ -77.16993, 38.81831 ], [ -77.171, 38.81839 ] ], [ [ -77.16741, 38.81146 ], [ -77.16787, 38.81026 ], [ -77.16773, 38.81012 ], [ -77.16741, 38.81146 ] ], [ [ -77.17399, 38.82617 ], [ -77.17368, 38.82639 ], [ -77.17298, 38.82692 ], [ -77.17334, 38.82689 ], [ -77.17399, 38.82617 ] ], [ [ -77.17236, 38.82428 ], [ -77.17314, 38.8237 ], [ -77.17325, 38.82357 ], [ -77.17236, 38.82428 ] ], [ [ -77.17351, 38.82329 ], [ -77.1738, 38.82298 ], [ -77.17354, 38.82278 ], [ -77.17351, 38.82329 ] ], [ [ -77.17657, 38.82363 ], [ -77.17598, 38.82426 ], [ -77.1754, 38.82488 ], [ -77.17555, 38.82492 ], [ -77.17657, 38.82363 ] ], [ [ -77.17187, 38.82221 ], [ -77.17176, 38.82246 ], [ -77.172, 38.82224 ], [ -77.17187, 38.82221 ] ], [ [ -77.17143, 38.82324 ], [ -77.17143, 38.82317 ], [ -77.17145, 38.82337 ], [ -77.17143, 38.82324 ] ], [ [ -77.16928, 38.82337 ], [ -77.16985, 38.82367 ], [ -77.16996, 38.82331 ], [ -77.16928, 38.82337 ] ], [ [ -77.17168, 38.82258 ], [ -77.17161, 38.8227 ], [ -77.1716, 38.82272 ], [ -77.17168, 38.82258 ] ], [ [ -77.16676, 38.81794 ], [ -77.16679, 38.81787 ], [ -77.16664, 38.8179 ], [ -77.16676, 38.81794 ] ], [ [ -77.1653, 38.81655 ], [ -77.16647, 38.81462 ], [ -77.16625, 38.81443 ], [ -77.1661, 38.81469 ], [ -77.1653, 38.81655 ] ], [ [ -77.16612, 38.82157 ], [ -77.16616, 38.82186 ], [ -77.16632, 38.82142 ], [ -77.16612, 38.82157 ] ], [ [ -77.16643, 38.81896 ], [ -77.16577, 38.81882 ], [ -77.16533, 38.81982 ], [ -77.16617, 38.82022 ], [ -77.16648, 38.82101 ], [ -77.1668, 38.8202 ], [ -77.16643, 38.81896 ] ], [ [ -77.15704, 38.82051 ], [ -77.15737, 38.81961 ], [ -77.1565, 38.81981 ], [ -77.15652, 38.82039 ], [ -77.15704, 38.82051 ] ], [ [ -77.15803, 38.81806 ], [ -77.1571, 38.81777 ], [ -77.15645, 38.81717 ], [ -77.15647, 38.8178 ], [ -77.15735, 38.81794 ], [ -77.1575, 38.81845 ], [ -77.15804, 38.81853 ], [ -77.15803, 38.81806 ] ], [ [ -77.15773, 38.81455 ], [ -77.15688, 38.81375 ], [ -77.15656, 38.81419 ], [ -77.15773, 38.81455 ] ], [ [ -77.1566, 38.81193 ], [ -77.15518, 38.81153 ], [ -77.15494, 38.81173 ], [ -77.15457, 38.81399 ], [ -77.15516, 38.814 ], [ -77.15583, 38.813 ], [ -77.15499, 38.81246 ], [ -77.15504, 38.81204 ], [ -77.15545, 38.81178 ], [ -77.1566, 38.81193 ] ], [ [ -77.15655, 38.81067 ], [ -77.15639, 38.81066 ], [ -77.15662, 38.81073 ], [ -77.15655, 38.81067 ] ], [ [ -77.15674, 38.80911 ], [ -77.15854, 38.80807 ], [ -77.15854, 38.80806 ], [ -77.15741, 38.80869 ], [ -77.15674, 38.80911 ] ], [ [ -77.1611, 38.823 ], [ -77.1609, 38.82329 ], [ -77.16167, 38.82314 ], [ -77.1611, 38.823 ] ], [ [ -77.1594, 38.82109 ], [ -77.15946, 38.8202 ], [ -77.15944, 38.81975 ], [ -77.1594, 38.82109 ] ], [ [ -77.15942, 38.81854 ], [ -77.15943, 38.81903 ], [ -77.15944, 38.81928 ], [ -77.15942, 38.81854 ] ], [ [ -77.1594, 38.81707 ], [ -77.15971, 38.81648 ], [ -77.15933, 38.81612 ], [ -77.1594, 38.81707 ] ], [ [ -77.1607, 38.81551 ], [ -77.16337, 38.81822 ], [ -77.16412, 38.81891 ], [ -77.1607, 38.81551 ] ], [ [ -77.16346, 38.81996 ], [ -77.16191, 38.81884 ], [ -77.16201, 38.82174 ], [ -77.1629, 38.82196 ], [ -77.16346, 38.81996 ] ], [ [ -77.16078, 38.81747 ], [ -77.1608, 38.81816 ], [ -77.16122, 38.81787 ], [ -77.16078, 38.81747 ] ], [ [ -77.15958, 38.81262 ], [ -77.16015, 38.81201 ], [ -77.1595, 38.81167 ], [ -77.15925, 38.81248 ], [ -77.15958, 38.81262 ] ], [ [ -77.15896, 38.81578 ], [ -77.15882, 38.81565 ], [ -77.15875, 38.81572 ], [ -77.15896, 38.81578 ] ], [ [ -77.1566, 38.81537 ], [ -77.1577, 38.8167 ], [ -77.15797, 38.81691 ], [ -77.15785, 38.81621 ], [ -77.15834, 38.81581 ], [ -77.1566, 38.81537 ] ], [ [ -77.15766, 38.81267 ], [ -77.15968, 38.81476 ], [ -77.15981, 38.81468 ], [ -77.15766, 38.81267 ] ], [ [ -77.15974, 38.8226 ], [ -77.15973, 38.8226 ], [ -77.15974, 38.82261 ], [ -77.15974, 38.8226 ] ], [ [ -77.1597, 38.82259 ], [ -77.15932, 38.8225 ], [ -77.15924, 38.82262 ], [ -77.1597, 38.82259 ] ], [ [ -77.1611, 38.82807 ], [ -77.15903, 38.82644 ], [ -77.15888, 38.82654 ], [ -77.1611, 38.82807 ] ], [ [ -77.15912, 38.825 ], [ -77.15862, 38.82522 ], [ -77.15857, 38.82535 ], [ -77.15912, 38.825 ] ], [ [ -77.15567, 38.82476 ], [ -77.15584, 38.82479 ], [ -77.15572, 38.82471 ], [ -77.15567, 38.82476 ] ], [ [ -77.15588, 38.82483 ], [ -77.15585, 38.8248 ], [ -77.15584, 38.82482 ], [ -77.15588, 38.82483 ] ], [ [ -77.15292, 38.81955 ], [ -77.15272, 38.81955 ], [ -77.15293, 38.8196 ], [ -77.15292, 38.81955 ] ], [ [ -77.15425, 38.82134 ], [ -77.15426, 38.8215 ], [ -77.15426, 38.82123 ], [ -77.15425, 38.82134 ] ] ] } }
]
}
