{
"type": "FeatureCollection",
"name": "307",
"crs": { "type": "name", "properties": { "name": "urn:ogc:def:crs:OGC:1.3:CRS84" } },
"xy_coordinate_resolution": 1e-05,
"features": [
{ "type": "Feature", "properties": { "variant": "T0", "miles": 0.5 }, "geometry": { "type": "Polygon", "coordinates": [ [ [ -77.34752, 38.96317 ], [ -77.34969, 38.96346 ], [ -77.35043, 38.96446 ], [ -77.35039, 38.96594 ], [ -77.35152, 38.96622 ], [ -77.35152, 38.96698 ], [ -77.34921, 38.96724 ], [ -77.34869, 38.96714 ], [ -77.34855, 38.96639 ], [ -77.3476, 38.96655 ], [ -77.34627, 38.96758 ], [ -77.34411, 38.96796 ], [ -77.34412, 38.96965 ], [ -77.34303, 38.97034 ], [ -77.34215, 38.97038 ], [ -77.34102, 38.96917 ], [ -77.34066, 38.96793 ], [ -77.34131, 38.96727 ], [ -77.3399, 38.96574 ], [ -77.34028, 38.96504 ], [ -77.34085, 38.96502 ], [ -77.34173, 38.96593 ], [ -77.34216, 38.96487 ], [ -77.34057, 38.96443 ], [ -77.34067, 38.9637 ], [ -77.33939, 38.96298 ], [ -77.33976, 38.96174 ], [ -77.34059, 38.96136 ], [ -77.34313, 38.96176 ], [ -77.34386, 38.96295 ], [ -77.34466, 38.96342 ], [ -77.34601, 38.96326 ], [ -77.34552, 38.96211 ], [ -77.34641, 38.96178 ], [ -77.34752, 38.96317 ] ], [ [ -77.34478, 38.96652 ], [ -77.34495, 38.96594 ], [ -77.34375, 38.96627 ], [ -77.34478, 38.96652 ] ], [ [ -77.34638, 38.96597 ], [ -77.34806, 38.96535 ], [ -77.34793, 38.96447 ], [ -77.34716, 38.96462 ], [ -77.34603, 38.96557 ], [ -77.34638, 38.96597 ] ], [ [ -77.34224, 38.9627 ], [ -77.34167, 38.96253 ], [ -77.34125, 38.96252 ], [ -77.34224, 38.9627 ] ] ] } },
{ "type": "Feature", "properties": { "variant": "T0", "miles": 1.0 }, "geometry": { "type": "Polygon", "coordinates": [ [ [ -77.35178, 38.95947 ], [ -77.35461, 38.95956 ], [ -77.35517, 38.96011 ], [ -77.35471, 38.96074 ], [ -77.35373, 38.96072 ], [ -77.35355, 38.962 ], [ -77.35264, 38.96211 ], [ -77.35274, 38.96241 ], [ -77.35426, 38.96238 ], [ -77.35459, 38.96271 ], [ -77.35415, 38.96523 ], [ -77.35315, 38.96538 ], [ -77.35378, 38.96593 ], [ -77.35367, 38.96633 ], [ -77.35256, 38.9666 ], [ -77.35178, 38.9674 ], [ -77.34963, 38.9679 ], [ -77.34774, 38.96771 ], [ -77.34643, 38.96844 ], [ -77.34613, 38.96921 ], [ -77.34485, 38.96972 ], [ -77.34411, 38.96963 ], [ -77.34482, 38.97035 ], [ -77.34652, 38.97012 ], [ -77.34684, 38.97089 ], [ -77.34567, 38.972 ], [ -77.34352, 38.97092 ], [ -77.34299, 38.97117 ], [ -77.34366, 38.97149 ], [ -77.34372, 38.97225 ], [ -77.34203, 38.97215 ], [ -77.34172, 38.97242 ], [ -77.34164, 38.97302 ], [ -77.34221, 38.97373 ], [ -77.34136, 38.97415 ], [ -77.3419, 38.97506 ], [ -77.34171, 38.97544 ], [ -77.3407, 38.97557 ], [ -77.33912, 38.97217 ], [ -77.33848, 38.97243 ], [ -77.3372, 38.97192 ], [ -77.33627, 38.97209 ], [ -77.3358, 38.97147 ], [ -77.33432, 38.97123 ], [ -77.33423, 38.97039 ], [ -77.33289, 38.97012 ], [ -77.33274, 38.96972 ], [ -77.3335, 38.96924 ], [ -77.33502, 38.9694 ], [ -77.33541, 38.96858 ], [ -77.33594, 38.96861 ], [ -77.3367, 38.96959 ], [ -77.33727, 38.96941 ], [ -77.3358, 38.96827 ], [ -77.3359, 38.96761 ], [ -77.33479, 38.9665 ], [ -77.33495, 38.9658 ], [ -77.33737, 38.9662 ], [ -77.34027, 38.96723 ], [ -77.34069, 38.96699 ], [ -77.34031, 38.96605 ], [ -77.33672, 38.96434 ], [ -77.33621, 38.96378 ], [ -77.33524, 38.96438 ], [ -77.33373, 38.96412 ], [ -77.33385, 38.96336 ], [ -77.33496, 38.96331 ], [ -77.33524, 38.96289 ], [ -77.33333, 38.96313 ], [ -77.33317, 38.96238 ], [ -77.33578, 38.96139 ], [ -77.33676, 38.96175 ], [ -77.33748, 38.96159 ], [ -77.33816, 38.96216 ], [ -77.33867, 38.96181 ], [ -77.33958, 38.96211 ], [ -77.34035, 38.96138 ], [ -77.34176, 38.96145 ], [ -77.34346, 38.96193 ], [ -77.34386, 38.96295 ], [ -77.34466, 38.96342 ], [ -77.34569, 38.9634 ], [ -77.346, 38.96325 ], [ -77.34552, 38.96211 ], [ -77.34588, 38.9618 ], [ -77.34691, 38.96224 ], [ -77.34737, 38.96173 ], [ -77.34817, 38.9616 ], [ -77.35029, 38.9623 ], [ -77.3502, 38.96064 ], [ -77.34776, 38.95953 ], [ -77.34755, 38.95825 ], [ -77.34789, 38.95793 ], [ -77.34841, 38.95789 ], [ -77.35011, 38.9591 ], [ -77.35213, 38.95806 ], [ -77.35257, 38.95874 ], [ -77.35178, 38.95947 ] ], [ [ -77.34173, 38.96593 ], [ -77.34207, 38.96556 ], [ -77.34188, 38.96539 ], [ -77.34155, 38.96547 ], [ -77.34173, 38.96593 ] ], [ [ -77.34158, 38.96261 ], [ -77.34224, 38.9627 ], [ -77.34125, 38.96252 ], [ -77.34158, 38.96261 ] ], [ [ -77.35165, 38.96464 ], [ -77.35044, 38.96506 ], [ -77.35039, 38.96558 ], [ -77.35118, 38.96592 ], [ -77.35176, 38.9653 ], [ -77.35165, 38.96464 ] ], [ [ -77.34411, 38.96796 ], [ -77.34473, 38.96858 ], [ -77.34492, 38.9685 ], [ -77.34461, 38.96798 ], [ -77.34411, 38.96796 ] ], [ [ -77.34478, 38.96652 ], [ -77.34495, 38.96594 ], [ -77.34375, 38.96627 ], [ -77.34478, 38.96652 ] ], [ [ -77.34793, 38.96447 ], [ -77.34716, 38.96462 ], [ -77.34603, 38.96557 ], [ -77.34638, 38.96597 ], [ -77.34806, 38.96535 ], [ -77.34793, 38.96447 ] ], [ [ -77.34089, 38.97135 ], [ -77.33987, 38.97056 ], [ -77.33935, 38.97188 ], [ -77.34038, 38.97214 ], [ -77.34089, 38.97135 ] ] ] } },
{ "type": "Feature", "properties": { "variant": "T0", "miles": 1.5 }, "geometry": { "type": "Polygon", "coordinates": [ [ [ -77.35636, 38.95221 ], [ -77.35692, 38.95284 ], [ -77.35578, 38.95687 ], [ -77.36023, 38.95631 ], [ -77.36087, 38.95678 ], [ -77.36106, 38.95769 ], [ -77.36218, 38.95785 ], [ -77.36237, 38.9599 ], [ -77.3637, 38.96009 ], [ -77.3639, 38.96048 ], [ -77.36284, 38.96271 ], [ -77.36193, 38.96285 ], [ -77.36128, 38.96357 ], [ -77.36026, 38.96324 ], [ -77.36019, 38.96389 ], [ -77.35923, 38.96402 ], [ -77.35855, 38.96361 ], [ -77.35839, 38.96275 ], [ -77.3571, 38.96277 ], [ -77.3566, 38.96445 ], [ -77.35732, 38.96679 ], [ -77.35456, 38.96756 ], [ -77.35592, 38.9687 ], [ -77.35584, 38.96911 ], [ -77.35462, 38.97005 ], [ -77.35297, 38.97008 ], [ -77.35283, 38.97073 ], [ -77.35296, 38.97231 ], [ -77.35255, 38.9735 ], [ -77.35414, 38.97314 ], [ -77.35536, 38.97349 ], [ -77.35536, 38.97425 ], [ -77.35384, 38.97456 ], [ -77.35382, 38.97525 ], [ -77.35327, 38.97561 ], [ -77.35212, 38.97585 ], [ -77.35127, 38.97554 ], [ -77.35036, 38.97697 ], [ -77.35165, 38.97768 ], [ -77.35122, 38.97836 ], [ -77.34889, 38.97761 ], [ -77.34826, 38.97792 ], [ -77.34645, 38.97676 ], [ -77.34426, 38.97727 ], [ -77.34393, 38.97694 ], [ -77.34425, 38.97623 ], [ -77.34602, 38.97565 ], [ -77.34509, 38.97509 ], [ -77.34559, 38.97429 ], [ -77.34656, 38.97417 ], [ -77.34776, 38.9749 ], [ -77.34666, 38.97348 ], [ -77.34574, 38.97315 ], [ -77.3458, 38.97278 ], [ -77.3445, 38.97257 ], [ -77.34392, 38.97197 ], [ -77.34136, 38.97415 ], [ -77.3419, 38.97506 ], [ -77.34122, 38.97561 ], [ -77.34031, 38.97535 ], [ -77.33928, 38.97289 ], [ -77.33461, 38.97402 ], [ -77.33629, 38.97848 ], [ -77.33512, 38.9792 ], [ -77.3339, 38.9792 ], [ -77.33343, 38.97853 ], [ -77.33457, 38.9782 ], [ -77.33396, 38.977 ], [ -77.33281, 38.97718 ], [ -77.33245, 38.97843 ], [ -77.33147, 38.97841 ], [ -77.33137, 38.97703 ], [ -77.33256, 38.97604 ], [ -77.33229, 38.97487 ], [ -77.3331, 38.97424 ], [ -77.33022, 38.97466 ], [ -77.33073, 38.97523 ], [ -77.33021, 38.97564 ], [ -77.33076, 38.97592 ], [ -77.33059, 38.97667 ], [ -77.32955, 38.97662 ], [ -77.32742, 38.97545 ], [ -77.32812, 38.97471 ], [ -77.3282, 38.97384 ], [ -77.33282, 38.97304 ], [ -77.33251, 38.97089 ], [ -77.33079, 38.97087 ], [ -77.33192, 38.97256 ], [ -77.33111, 38.97299 ], [ -77.32935, 38.97176 ], [ -77.32898, 38.97089 ], [ -77.32747, 38.97059 ], [ -77.3274, 38.9719 ], [ -77.32651, 38.97222 ], [ -77.32612, 38.97194 ], [ -77.3261, 38.97077 ], [ -77.32513, 38.97126 ], [ -77.32443, 38.97073 ], [ -77.32537, 38.96961 ], [ -77.32981, 38.96954 ], [ -77.32872, 38.96764 ], [ -77.32799, 38.96776 ], [ -77.3273, 38.96721 ], [ -77.32819, 38.96654 ], [ -77.32732, 38.9658 ], [ -77.32793, 38.9652 ], [ -77.3298, 38.96638 ], [ -77.33046, 38.96597 ], [ -77.33094, 38.96615 ], [ -77.3311, 38.96683 ], [ -77.33215, 38.9674 ], [ -77.33187, 38.96595 ], [ -77.33308, 38.96295 ], [ -77.33251, 38.96123 ], [ -77.33333, 38.95955 ], [ -77.33244, 38.95999 ], [ -77.3317, 38.9599 ], [ -77.33154, 38.96073 ], [ -77.33104, 38.96087 ], [ -77.32992, 38.95964 ], [ -77.3304, 38.95754 ], [ -77.33083, 38.95729 ], [ -77.33135, 38.95734 ], [ -77.33206, 38.95813 ], [ -77.33392, 38.95741 ], [ -77.33407, 38.95641 ], [ -77.33352, 38.95476 ], [ -77.33417, 38.95305 ], [ -77.33539, 38.95327 ], [ -77.33554, 38.95709 ], [ -77.33624, 38.95773 ], [ -77.33662, 38.9571 ], [ -77.33715, 38.95711 ], [ -77.33771, 38.95793 ], [ -77.3409, 38.95556 ], [ -77.34304, 38.95515 ], [ -77.3435, 38.95535 ], [ -77.34352, 38.95593 ], [ -77.3447, 38.956 ], [ -77.34483, 38.95494 ], [ -77.34536, 38.95456 ], [ -77.3462, 38.95496 ], [ -77.34634, 38.95612 ], [ -77.3471, 38.95649 ], [ -77.34744, 38.95642 ], [ -77.34751, 38.95519 ], [ -77.34811, 38.95491 ], [ -77.3494, 38.95493 ], [ -77.35088, 38.95586 ], [ -77.35107, 38.95529 ], [ -77.34888, 38.95408 ], [ -77.34936, 38.95326 ], [ -77.35173, 38.95416 ], [ -77.35363, 38.95352 ], [ -77.35405, 38.95377 ], [ -77.35386, 38.95446 ], [ -77.35486, 38.95441 ], [ -77.35542, 38.95258 ], [ -77.35636, 38.95221 ] ], [ [ -77.34699, 38.97114 ], [ -77.34811, 38.97331 ], [ -77.34872, 38.97308 ], [ -77.348, 38.97176 ], [ -77.34699, 38.97114 ] ], [ [ -77.34613, 38.9697 ], [ -77.34696, 38.97005 ], [ -77.34684, 38.96939 ], [ -77.34613, 38.9697 ] ], [ [ -77.34638, 38.96597 ], [ -77.34806, 38.96535 ], [ -77.34793, 38.96447 ], [ -77.34716, 38.96462 ], [ -77.34603, 38.96557 ], [ -77.34638, 38.96597 ] ], [ [ -77.346, 38.96325 ], [ -77.34555, 38.96252 ], [ -77.34588, 38.9618 ], [ -77.34691, 38.96224 ], [ -77.34737, 38.96173 ], [ -77.34817, 38.9616 ], [ -77.35029, 38.9623 ], [ -77.35037, 38.96109 ], [ -77.3502, 38.96064 ], [ -77.3482, 38.95982 ], [ -77.34665, 38.95991 ], [ -77.34571, 38.961 ], [ -77.34545, 38.96201 ], [ -77.3447, 38.96208 ], [ -77.34325, 38.96148 ], [ -77.34258, 38.95981 ], [ -77.34333, 38.95932 ], [ -77.3438, 38.95951 ], [ -77.34437, 38.96071 ], [ -77.34591, 38.95883 ], [ -77.34607, 38.95797 ], [ -77.34563, 38.95707 ], [ -77.34305, 38.95695 ], [ -77.3424, 38.95745 ], [ -77.34041, 38.95729 ], [ -77.3396, 38.95802 ], [ -77.34012, 38.95871 ], [ -77.33901, 38.95973 ], [ -77.33688, 38.96018 ], [ -77.33483, 38.95977 ], [ -77.33402, 38.96132 ], [ -77.33413, 38.96192 ], [ -77.33578, 38.96139 ], [ -77.33676, 38.96175 ], [ -77.33748, 38.96159 ], [ -77.33816, 38.96216 ], [ -77.33867, 38.96181 ], [ -77.33958, 38.96211 ], [ -77.34035, 38.96138 ], [ -77.34196, 38.96148 ], [ -77.34346, 38.96193 ], [ -77.34386, 38.96295 ], [ -77.34466, 38.96342 ], [ -77.346, 38.96325 ] ], [ [ -77.35136, 38.97026 ], [ -77.35247, 38.96803 ], [ -77.34863, 38.96889 ], [ -77.34866, 38.97071 ], [ -77.34981, 38.97232 ], [ -77.35012, 38.97165 ], [ -77.34988, 38.96956 ], [ -77.35083, 38.96938 ], [ -77.35136, 38.97026 ] ], [ [ -77.35309, 38.96657 ], [ -77.35256, 38.9666 ], [ -77.35224, 38.96683 ], [ -77.35309, 38.96657 ] ], [ [ -77.3532, 38.96543 ], [ -77.35314, 38.96551 ], [ -77.35319, 38.96552 ], [ -77.3532, 38.96543 ] ], [ [ -77.35235, 38.95953 ], [ -77.35221, 38.95906 ], [ -77.35164, 38.95948 ], [ -77.35235, 38.95953 ] ], [ [ -77.35244, 38.95727 ], [ -77.35357, 38.95618 ], [ -77.35429, 38.95662 ], [ -77.35456, 38.95565 ], [ -77.35236, 38.95575 ], [ -77.35244, 38.95727 ] ], [ [ -77.35927, 38.96 ], [ -77.35966, 38.95998 ], [ -77.35927, 38.95997 ], [ -77.35927, 38.96 ] ], [ [ -77.35855, 38.96122 ], [ -77.35777, 38.9617 ], [ -77.35966, 38.9616 ], [ -77.35965, 38.96121 ], [ -77.35855, 38.96122 ] ], [ [ -77.35564, 38.96593 ], [ -77.35532, 38.9651 ], [ -77.35478, 38.96508 ], [ -77.35469, 38.96629 ], [ -77.35564, 38.96593 ] ], [ [ -77.35491, 38.9634 ], [ -77.35486, 38.964 ], [ -77.35511, 38.96401 ], [ -77.3553, 38.96372 ], [ -77.35491, 38.9634 ] ], [ [ -77.3535, 38.96117 ], [ -77.35355, 38.96122 ], [ -77.35356, 38.96109 ], [ -77.3535, 38.96117 ] ], [ [ -77.35366, 38.96911 ], [ -77.35398, 38.96908 ], [ -77.35427, 38.96896 ], [ -77.35377, 38.96869 ], [ -77.35366, 38.96911 ] ], [ [ -77.34901, 38.97638 ], [ -77.34989, 38.97497 ], [ -77.34859, 38.97606 ], [ -77.34901, 38.97638 ] ], [ [ -77.35145, 38.97207 ], [ -77.35108, 38.97274 ], [ -77.35102, 38.97299 ], [ -77.35125, 38.9728 ], [ -77.35145, 38.97207 ] ], [ [ -77.35037, 38.95806 ], [ -77.35108, 38.95804 ], [ -77.35109, 38.95803 ], [ -77.35038, 38.95776 ], [ -77.35037, 38.95806 ] ], [ [ -77.35177, 38.96475 ], [ -77.35044, 38.96506 ], [ -77.35039, 38.96558 ], [ -77.35118, 38.96592 ], [ -77.35177, 38.96475 ] ], [ [ -77.34833, 38.96771 ], [ -77.34774, 38.96771 ], [ -77.34763, 38.96787 ], [ -77.34833, 38.96771 ] ], [ [ -77.34787, 38.9697 ], [ -77.34788, 38.96972 ], [ -77.34788, 38.9697 ], [ -77.34787, 38.9697 ] ], [ [ -77.33716, 38.95898 ], [ -77.33586, 38.95878 ], [ -77.33581, 38.95896 ], [ -77.33672, 38.9591 ], [ -77.33716, 38.95898 ] ], [ [ -77.34027, 38.96723 ], [ -77.34069, 38.96699 ], [ -77.34031, 38.96605 ], [ -77.33672, 38.96434 ], [ -77.33621, 38.96378 ], [ -77.33537, 38.96435 ], [ -77.33408, 38.96427 ], [ -77.33358, 38.96543 ], [ -77.33577, 38.96543 ], [ -77.3383, 38.96597 ], [ -77.34027, 38.96723 ] ], [ [ -77.34224, 38.9627 ], [ -77.34167, 38.96253 ], [ -77.34125, 38.96252 ], [ -77.3417, 38.96263 ], [ -77.34224, 38.9627 ] ], [ [ -77.34207, 38.96556 ], [ -77.34155, 38.96547 ], [ -77.34173, 38.96593 ], [ -77.34181, 38.96569 ], [ -77.34207, 38.96556 ] ], [ [ -77.34476, 38.96596 ], [ -77.34407, 38.96602 ], [ -77.34375, 38.96627 ], [ -77.34478, 38.96652 ], [ -77.34476, 38.96596 ] ], [ [ -77.34426, 38.96815 ], [ -77.34473, 38.96858 ], [ -77.34492, 38.9685 ], [ -77.34461, 38.96798 ], [ -77.34426, 38.96815 ] ], [ [ -77.34445, 38.9714 ], [ -77.34352, 38.97092 ], [ -77.34299, 38.97117 ], [ -77.34398, 38.97166 ], [ -77.34445, 38.9714 ] ], [ [ -77.34047, 38.97086 ], [ -77.33987, 38.97056 ], [ -77.33962, 38.97126 ], [ -77.34047, 38.97086 ] ], [ [ -77.33523, 38.96296 ], [ -77.33453, 38.96311 ], [ -77.3345, 38.96326 ], [ -77.33496, 38.96331 ], [ -77.33523, 38.96296 ] ], [ [ -77.33702, 38.9694 ], [ -77.3372, 38.96944 ], [ -77.33727, 38.96941 ], [ -77.33702, 38.9694 ] ], [ [ -77.33266, 38.96918 ], [ -77.33245, 38.96809 ], [ -77.33225, 38.96762 ], [ -77.33208, 38.96824 ], [ -77.33252, 38.96862 ], [ -77.33212, 38.96916 ], [ -77.33266, 38.96918 ] ] ] } },
{ "type": "Feature", "properties": { "variant": "T2s", "miles": 0.5 }, "geometry": { "type": "Polygon", "coordinates": [ [ [ -77.34752, 38.96317 ], [ -77.34969, 38.96346 ], [ -77.35043, 38.96446 ], [ -77.35039, 38.96594 ], [ -77.35152, 38.96622 ], [ -77.35152, 38.96698 ], [ -77.34921, 38.96724 ], [ -77.34869, 38.96714 ], [ -77.34855, 38.96639 ], [ -77.3476, 38.96655 ], [ -77.34627, 38.96758 ], [ -77.34411, 38.96796 ], [ -77.34412, 38.96965 ], [ -77.34303, 38.97034 ], [ -77.34215, 38.97038 ], [ -77.34102, 38.96917 ], [ -77.34066, 38.96793 ], [ -77.34131, 38.96727 ], [ -77.3399, 38.96574 ], [ -77.34028, 38.96504 ], [ -77.34085, 38.96502 ], [ -77.34173, 38.96593 ], [ -77.34216, 38.96487 ], [ -77.34057, 38.96443 ], [ -77.34067, 38.9637 ], [ -77.33939, 38.96298 ], [ -77.33976, 38.96174 ], [ -77.34059, 38.96136 ], [ -77.34313, 38.96176 ], [ -77.34386, 38.96295 ], [ -77.34466, 38.96342 ], [ -77.34601, 38.96326 ], [ -77.34552, 38.96211 ], [ -77.34641, 38.96178 ], [ -77.34752, 38.96317 ] ], [ [ -77.34478, 38.96652 ], [ -77.34495, 38.96594 ], [ -77.34375, 38.96627 ], [ -77.34478, 38.96652 ] ], [ [ -77.34638, 38.96597 ], [ -77.34806, 38.96535 ], [ -77.34793, 38.96447 ], [ -77.34716, 38.96462 ], [ -77.34603, 38.96557 ], [ -77.34638, 38.96597 ] ], [ [ -77.34224, 38.9627 ], [ -77.34167, 38.96253 ], [ -77.34125, 38.96252 ], [ -77.34224, 38.9627 ] ] ] } },
{ "type": "Feature", "properties": { "variant": "T2s", "miles": 1.0 }, "geometry": { "type": "Polygon", "coordinates": [ [ [ -77.35178, 38.95947 ], [ -77.35312, 38.95964 ], [ -77.35374, 38.9602 ], [ -77.35347, 38.96119 ], [ -77.35377, 38.96162 ], [ -77.35355, 38.962 ], [ -77.35264, 38.96211 ], [ -77.35274, 38.96241 ], [ -77.35426, 38.96238 ], [ -77.35459, 38.96271 ], [ -77.35415, 38.96523 ], [ -77.35315, 38.96538 ], [ -77.35378, 38.96593 ], [ -77.35367, 38.96633 ], [ -77.35256, 38.9666 ], [ -77.35178, 38.9674 ], [ -77.34919, 38.96797 ], [ -77.34774, 38.96771 ], [ -77.34643, 38.96844 ], [ -77.3462, 38.96918 ], [ -77.3451, 38.96965 ], [ -77.34411, 38.96963 ], [ -77.34303, 38.97034 ], [ -77.3412, 38.97083 ], [ -77.33987, 38.97056 ], [ -77.33926, 38.97205 ], [ -77.33848, 38.97243 ], [ -77.3372, 38.97192 ], [ -77.33627, 38.97209 ], [ -77.3358, 38.97147 ], [ -77.33432, 38.97123 ], [ -77.33423, 38.97039 ], [ -77.33289, 38.97012 ], [ -77.333, 38.96936 ], [ -77.33502, 38.9694 ], [ -77.33541, 38.96858 ], [ -77.33594, 38.96861 ], [ -77.3367, 38.96959 ], [ -77.33727, 38.96941 ], [ -77.3358, 38.96827 ], [ -77.3359, 38.96761 ], [ -77.33479, 38.9665 ], [ -77.33495, 38.9658 ], [ -77.33737, 38.9662 ], [ -77.34027, 38.96723 ], [ -77.34069, 38.96699 ], [ -77.34031, 38.96605 ], [ -77.33672, 38.96434 ], [ -77.33621, 38.96378 ], [ -77.33524, 38.96438 ], [ -77.33373, 38.96412 ], [ -77.33385, 38.96336 ], [ -77.33496, 38.96331 ], [ -77.33525, 38.96294 ], [ -77.33396, 38.96321 ], [ -77.33314, 38.9628 ], [ -77.33432, 38.96176 ], [ -77.33578, 38.96139 ], [ -77.33676, 38.96175 ], [ -77.33748, 38.96159 ], [ -77.33806, 38.96215 ], [ -77.33867, 38.96181 ], [ -77.33958, 38.96211 ], [ -77.34023, 38.96142 ], [ -77.34183, 38.96145 ], [ -77.34346, 38.96193 ], [ -77.34386, 38.96295 ], [ -77.34466, 38.96342 ], [ -77.34569, 38.9634 ], [ -77.346, 38.96325 ], [ -77.34552, 38.96211 ], [ -77.34588, 38.9618 ], [ -77.34691, 38.96224 ], [ -77.34737, 38.96173 ], [ -77.34817, 38.9616 ], [ -77.35029, 38.9623 ], [ -77.3502, 38.96064 ], [ -77.34776, 38.95953 ], [ -77.34755, 38.95825 ], [ -77.34789, 38.95793 ], [ -77.34841, 38.95789 ], [ -77.35011, 38.9591 ], [ -77.35213, 38.95806 ], [ -77.35257, 38.95874 ], [ -77.35178, 38.95947 ] ], [ [ -77.34478, 38.96652 ], [ -77.34495, 38.96594 ], [ -77.34375, 38.96627 ], [ -77.34478, 38.96652 ] ], [ [ -77.34207, 38.96556 ], [ -77.34155, 38.96547 ], [ -77.34173, 38.96593 ], [ -77.34181, 38.96569 ], [ -77.34207, 38.96556 ] ], [ [ -77.34158, 38.96261 ], [ -77.34224, 38.9627 ], [ -77.34125, 38.96252 ], [ -77.34158, 38.96261 ] ], [ [ -77.35049, 38.96556 ], [ -77.35118, 38.96592 ], [ -77.35174, 38.96471 ], [ -77.35088, 38.96519 ], [ -77.35044, 38.96506 ], [ -77.35049, 38.96556 ] ], [ [ -77.34638, 38.96597 ], [ -77.34806, 38.96535 ], [ -77.34793, 38.96447 ], [ -77.34716, 38.96462 ], [ -77.34603, 38.96557 ], [ -77.34638, 38.96597 ] ], [ [ -77.34411, 38.96796 ], [ -77.34473, 38.96858 ], [ -77.34492, 38.9685 ], [ -77.34461, 38.96798 ], [ -77.34411, 38.96796 ] ] ] } },
{ "type": "Feature", "properties": { "variant": "T2s", "miles": 1.5 }, "geometry": { "type": "Polygon", "coordinates": [ [ [ -77.3567, 38.95305 ], [ -77.35563, 38.95742 ], [ -77.35533, 38.95777 ], [ -77.35425, 38.95773 ], [ -77.35381, 38.95875 ], [ -77.35347, 38.96119 ], [ -77.3546, 38.96238 ], [ -77.35415, 38.96523 ], [ -77.35315, 38.96538 ], [ -77.35378, 38.96593 ], [ -77.35367, 38.96633 ], [ -77.35256, 38.9666 ], [ -77.35178, 38.9674 ], [ -77.34963, 38.9679 ], [ -77.34774, 38.96771 ], [ -77.34643, 38.96844 ], [ -77.3462, 38.96918 ], [ -77.34485, 38.96972 ], [ -77.34411, 38.96963 ], [ -77.34286, 38.9704 ], [ -77.34098, 38.97085 ], [ -77.33987, 38.97056 ], [ -77.33889, 38.97234 ], [ -77.33442, 38.97335 ], [ -77.33528, 38.97622 ], [ -77.33477, 38.97687 ], [ -77.3341, 38.97684 ], [ -77.33291, 38.97357 ], [ -77.33251, 38.97099 ], [ -77.33277, 38.96871 ], [ -77.33195, 38.966 ], [ -77.33315, 38.96303 ], [ -77.33262, 38.96138 ], [ -77.33415, 38.95705 ], [ -77.33399, 38.95412 ], [ -77.33433, 38.95307 ], [ -77.33531, 38.95316 ], [ -77.33545, 38.95356 ], [ -77.33554, 38.95709 ], [ -77.33624, 38.95773 ], [ -77.33662, 38.9571 ], [ -77.33715, 38.95711 ], [ -77.33771, 38.95793 ], [ -77.3409, 38.95556 ], [ -77.34304, 38.95515 ], [ -77.3435, 38.95535 ], [ -77.34352, 38.95593 ], [ -77.3447, 38.956 ], [ -77.34483, 38.95494 ], [ -77.34536, 38.95456 ], [ -77.3462, 38.95496 ], [ -77.34634, 38.95612 ], [ -77.3471, 38.95649 ], [ -77.34744, 38.95642 ], [ -77.34753, 38.95517 ], [ -77.34935, 38.95492 ], [ -77.35053, 38.95586 ], [ -77.35199, 38.95599 ], [ -77.35244, 38.95727 ], [ -77.35306, 38.95627 ], [ -77.35429, 38.95662 ], [ -77.35535, 38.95281 ], [ -77.35618, 38.9524 ], [ -77.3567, 38.95305 ] ], [ [ -77.34492, 38.9685 ], [ -77.34411, 38.96796 ], [ -77.34473, 38.96858 ], [ -77.34492, 38.9685 ] ], [ [ -77.3439, 38.96297 ], [ -77.34466, 38.96342 ], [ -77.34569, 38.9634 ], [ -77.346, 38.96325 ], [ -77.34552, 38.96211 ], [ -77.34588, 38.9618 ], [ -77.34691, 38.96224 ], [ -77.34792, 38.96159 ], [ -77.35029, 38.9623 ], [ -77.35021, 38.96064 ], [ -77.34876, 38.95988 ], [ -77.34665, 38.95991 ], [ -77.34571, 38.961 ], [ -77.34545, 38.96201 ], [ -77.3447, 38.96208 ], [ -77.34325, 38.96148 ], [ -77.34258, 38.95981 ], [ -77.34333, 38.95932 ], [ -77.3438, 38.95951 ], [ -77.34437, 38.96071 ], [ -77.34591, 38.95883 ], [ -77.34607, 38.95797 ], [ -77.34563, 38.95707 ], [ -77.34305, 38.95695 ], [ -77.3424, 38.95745 ], [ -77.34041, 38.95729 ], [ -77.3396, 38.95802 ], [ -77.34012, 38.95871 ], [ -77.33901, 38.95973 ], [ -77.33688, 38.96018 ], [ -77.33483, 38.95977 ], [ -77.33402, 38.96132 ], [ -77.33413, 38.96192 ], [ -77.33578, 38.96139 ], [ -77.33676, 38.96175 ], [ -77.33748, 38.96159 ], [ -77.33816, 38.96216 ], [ -77.33867, 38.96181 ], [ -77.33958, 38.96211 ], [ -77.34035, 38.96138 ], [ -77.34196, 38.96148 ], [ -77.34346, 38.96193 ], [ -77.3439, 38.96297 ] ], [ [ -77.35118, 38.96592 ], [ -77.35165, 38.96464 ], [ -77.35088, 38.96519 ], [ -77.35044, 38.96506 ], [ -77.35039, 38.96558 ], [ -77.35118, 38.96592 ] ], [ [ -77.35037, 38.95806 ], [ -77.35109, 38.95803 ], [ -77.35038, 38.95776 ], [ -77.35037, 38.95806 ] ], [ [ -77.35164, 38.95948 ], [ -77.35235, 38.95953 ], [ -77.35221, 38.95906 ], [ -77.35164, 38.95948 ] ], [ [ -77.34638, 38.96597 ], [ -77.34806, 38.96535 ], [ -77.34793, 38.96447 ], [ -77.34716, 38.96462 ], [ -77.34603, 38.96557 ], [ -77.34638, 38.96597 ] ], [ [ -77.34494, 38.96596 ], [ -77.3441, 38.96601 ], [ -77.34375, 38.96627 ], [ -77.34478, 38.96652 ], [ -77.34494, 38.96596 ] ], [ [ -77.33589, 38.96545 ], [ -77.33869, 38.96611 ], [ -77.34027, 38.96723 ], [ -77.34069, 38.96699 ], [ -77.34031, 38.96605 ], [ -77.33672, 38.96434 ], [ -77.33621, 38.96378 ], [ -77.33537, 38.96435 ], [ -77.33408, 38.96427 ], [ -77.33358, 38.96543 ], [ -77.33589, 38.96545 ] ], [ [ -77.34202, 38.96264 ], [ -77.34125, 38.96252 ], [ -77.34224, 38.9627 ], [ -77.34202, 38.96264 ] ], [ [ -77.34207, 38.96556 ], [ -77.34163, 38.96562 ], [ -77.34173, 38.96593 ], [ -77.34207, 38.96556 ] ], [ [ -77.33586, 38.95878 ], [ -77.3361, 38.95904 ], [ -77.33717, 38.95908 ], [ -77.33718, 38.95899 ], [ -77.33586, 38.95878 ] ], [ [ -77.33702, 38.9694 ], [ -77.3372, 38.96944 ], [ -77.33727, 38.96941 ], [ -77.33702, 38.9694 ] ], [ [ -77.33501, 38.96298 ], [ -77.33453, 38.96311 ], [ -77.3345, 38.96326 ], [ -77.33496, 38.96331 ], [ -77.33501, 38.96298 ] ] ] } }
]
}
