{
"type": "FeatureCollection",
"name": "31",
"crs": { "type": "name", "properties": { "name": "urn:ogc:def:crs:OGC:1.3:CRS84" } },
"xy_coordinate_resolution": 1e-05,
"features": [
{ "type": "Feature", "properties": { "variant": "T0", "miles": 1.0 }, "geometry": { "type": "Polygon", "coordinates": [ [ [ -77.18224, 38.90097 ], [ -77.18049, 38.90191 ], [ -77.18081, 38.90235 ], [ -77.1827, 38.90186 ], [ -77.18374, 38.90399 ], [ -77.18601, 38.9035 ], [ -77.18681, 38.90395 ], [ -77.18624, 38.90457 ], [ -77.18413, 38.90503 ], [ -77.18495, 38.90714 ], [ -77.18459, 38.90785 ], [ -77.18371, 38.90764 ], [ -77.18308, 38.90616 ], [ -77.18276, 38.90626 ], [ -77.18398, 38.90938 ], [ -77.18197, 38.91022 ], [ -77.18149, 38.9098 ], [ -77.1805, 38.91 ], [ -77.18012, 38.90971 ], [ -77.1798, 38.9081 ], [ -77.18037, 38.90775 ], [ -77.18013, 38.90722 ], [ -77.18069, 38.90629 ], [ -77.18001, 38.90631 ], [ -77.17978, 38.90759 ], [ -77.17883, 38.90771 ], [ -77.17897, 38.90893 ], [ -77.1779, 38.90941 ], [ -77.17513, 38.90905 ], [ -77.1752, 38.90845 ], [ -77.17583, 38.90812 ], [ -77.17561, 38.90756 ], [ -77.17332, 38.90782 ], [ -77.17358, 38.91121 ], [ -77.17469, 38.91057 ], [ -77.1752, 38.91068 ], [ -77.17541, 38.91196 ], [ -77.17462, 38.9122 ], [ -77.176, 38.91314 ], [ -77.17608, 38.9139 ], [ -77.1751, 38.91396 ], [ -77.17399, 38.9132 ], [ -77.17249, 38.91426 ], [ -77.17177, 38.91374 ], [ -77.17215, 38.91246 ], [ -77.17001, 38.91267 ], [ -77.16875, 38.91232 ], [ -77.16954, 38.90864 ], [ -77.16776, 38.90465 ], [ -77.16888, 38.90149 ], [ -77.17008, 38.90075 ], [ -77.17228, 38.90101 ], [ -77.17237, 38.90177 ], [ -77.17184, 38.90196 ], [ -77.17242, 38.90285 ], [ -77.17541, 38.90248 ], [ -77.17762, 38.90175 ], [ -77.17755, 38.90127 ], [ -77.17845, 38.90083 ], [ -77.17839, 38.90009 ], [ -77.1788, 38.89983 ], [ -77.17933, 38.89988 ], [ -77.17993, 38.90089 ], [ -77.18028, 38.90003 ], [ -77.18251, 38.90023 ], [ -77.18224, 38.90097 ] ], [ [ -77.17578, 38.90353 ], [ -77.1727, 38.90391 ], [ -77.17338, 38.90672 ], [ -77.17513, 38.9065 ], [ -77.17374, 38.90503 ], [ -77.17418, 38.90434 ], [ -77.17528, 38.90429 ], [ -77.17578, 38.90353 ] ], [ [ -77.18249, 38.90871 ], [ -77.18237, 38.90846 ], [ -77.1824, 38.90888 ], [ -77.18249, 38.90871 ] ], [ [ -77.18214, 38.90354 ], [ -77.18137, 38.90338 ], [ -77.18226, 38.90525 ], [ -77.18272, 38.90512 ], [ -77.18214, 38.90354 ] ], [ [ -77.17663, 38.90529 ], [ -77.17652, 38.90506 ], [ -77.17646, 38.90522 ], [ -77.17663, 38.90529 ] ], [ [ -77.17823, 38.90723 ], [ -77.17834, 38.90733 ], [ -77.17823, 38.90708 ], [ -77.17823, 38.90723 ] ], [ [ -77.17193, 38.90806 ], [ -77.17199, 38.90676 ], [ -77.17046, 38.90711 ], [ -77.17063, 38.90867 ], [ -77.17102, 38.90811 ], [ -77.17193, 38.90806 ] ], [ [ -77.17025, 38.90196 ], [ -77.1696, 38.90328 ], [ -77.17101, 38.90305 ], [ -77.17025, 38.90196 ] ] ] } },
{ "type": "Feature", "properties": { "variant": "T0", "miles": 1.5 }, "geometry": { "type": "Polygon", "coordinates": [ [ [ -77.18904, 38.89696 ], [ -77.19006, 38.89769 ], [ -77.18995, 38.89809 ], [ -77.18885, 38.89827 ], [ -77.18825, 38.89881 ], [ -77.18808, 38.89994 ], [ -77.18626, 38.90014 ], [ -77.18509, 38.89975 ], [ -77.1844, 38.90019 ], [ -77.1862, 38.90105 ], [ -77.18673, 38.90348 ], [ -77.18734, 38.90391 ], [ -77.18689, 38.90445 ], [ -77.18727, 38.90795 ], [ -77.18626, 38.90896 ], [ -77.18748, 38.90874 ], [ -77.18851, 38.90789 ], [ -77.1878, 38.90781 ], [ -77.18759, 38.90743 ], [ -77.18776, 38.90596 ], [ -77.18828, 38.90587 ], [ -77.18969, 38.90689 ], [ -77.19082, 38.90612 ], [ -77.19156, 38.90662 ], [ -77.1908, 38.90754 ], [ -77.19226, 38.90846 ], [ -77.19286, 38.90975 ], [ -77.19175, 38.91092 ], [ -77.19079, 38.91063 ], [ -77.19008, 38.91104 ], [ -77.18957, 38.91092 ], [ -77.18933, 38.91055 ], [ -77.18975, 38.90992 ], [ -77.18882, 38.90929 ], [ -77.18509, 38.9106 ], [ -77.18505, 38.91115 ], [ -77.18551, 38.91096 ], [ -77.18731, 38.91152 ], [ -77.18864, 38.91262 ], [ -77.18803, 38.91324 ], [ -77.18724, 38.91325 ], [ -77.18642, 38.91241 ], [ -77.18559, 38.91224 ], [ -77.1861, 38.91332 ], [ -77.18692, 38.91319 ], [ -77.18767, 38.91442 ], [ -77.18766, 38.91484 ], [ -77.18693, 38.91512 ], [ -77.18757, 38.91674 ], [ -77.18667, 38.91706 ], [ -77.18603, 38.91629 ], [ -77.18511, 38.91662 ], [ -77.1844, 38.91561 ], [ -77.18365, 38.91579 ], [ -77.18328, 38.91551 ], [ -77.18155, 38.9163 ], [ -77.18059, 38.91577 ], [ -77.18021, 38.91624 ], [ -77.18065, 38.91714 ], [ -77.17995, 38.91754 ], [ -77.18126, 38.91958 ], [ -77.18083, 38.92027 ], [ -77.17995, 38.91994 ], [ -77.17917, 38.91868 ], [ -77.17791, 38.91865 ], [ -77.1778, 38.91789 ], [ -77.17846, 38.91767 ], [ -77.17771, 38.9166 ], [ -77.17644, 38.91772 ], [ -77.17573, 38.91921 ], [ -77.17222, 38.91824 ], [ -77.17322, 38.9188 ], [ -77.17279, 38.91949 ], [ -77.17025, 38.91864 ], [ -77.16957, 38.92008 ], [ -77.16866, 38.92036 ], [ -77.16829, 38.92006 ], [ -77.16849, 38.9193 ], [ -77.16582, 38.91827 ], [ -77.16662, 38.91639 ], [ -77.1651, 38.91588 ], [ -77.16463, 38.91633 ], [ -77.16411, 38.91626 ], [ -77.16343, 38.91483 ], [ -77.16199, 38.91511 ], [ -77.16158, 38.91441 ], [ -77.16532, 38.91278 ], [ -77.16351, 38.91219 ], [ -77.16313, 38.91148 ], [ -77.16381, 38.91119 ], [ -77.16353, 38.91066 ], [ -77.16382, 38.91035 ], [ -77.16331, 38.90977 ], [ -77.16358, 38.90941 ], [ -77.16449, 38.90938 ], [ -77.16429, 38.90868 ], [ -77.16524, 38.9085 ], [ -77.16614, 38.90951 ], [ -77.16616, 38.90878 ], [ -77.16566, 38.90849 ], [ -77.16608, 38.90775 ], [ -77.16537, 38.90726 ], [ -77.16554, 38.90687 ], [ -77.16732, 38.90668 ], [ -77.16779, 38.90688 ], [ -77.1678, 38.90778 ], [ -77.16877, 38.90816 ], [ -77.16851, 38.90889 ], [ -77.16757, 38.90885 ], [ -77.16752, 38.9095 ], [ -77.16755, 38.90975 ], [ -77.1684, 38.90973 ], [ -77.16854, 38.91135 ], [ -77.16897, 38.91142 ], [ -77.16954, 38.90864 ], [ -77.16903, 38.90695 ], [ -77.16808, 38.90596 ], [ -77.16809, 38.90496 ], [ -77.16582, 38.90439 ], [ -77.16559, 38.90359 ], [ -77.16402, 38.90393 ], [ -77.16343, 38.90347 ], [ -77.16085, 38.90452 ], [ -77.16036, 38.90437 ], [ -77.16033, 38.90361 ], [ -77.16123, 38.90308 ], [ -77.16125, 38.90261 ], [ -77.16165, 38.90234 ], [ -77.16262, 38.90258 ], [ -77.16218, 38.90068 ], [ -77.16122, 38.90053 ], [ -77.16069, 38.89988 ], [ -77.16152, 38.89947 ], [ -77.16334, 38.89976 ], [ -77.16273, 38.8981 ], [ -77.16363, 38.8978 ], [ -77.16423, 38.8985 ], [ -77.1649, 38.89807 ], [ -77.16472, 38.89734 ], [ -77.16595, 38.8966 ], [ -77.16576, 38.89583 ], [ -77.16663, 38.89557 ], [ -77.16603, 38.89501 ], [ -77.16667, 38.89348 ], [ -77.16762, 38.89401 ], [ -77.16864, 38.89371 ], [ -77.16906, 38.89396 ], [ -77.16914, 38.89437 ], [ -77.16807, 38.89507 ], [ -77.16911, 38.89536 ], [ -77.16932, 38.89574 ], [ -77.16876, 38.89633 ], [ -77.16906, 38.89689 ], [ -77.1699, 38.89675 ], [ -77.17023, 38.89707 ], [ -77.1707, 38.89853 ], [ -77.17153, 38.89614 ], [ -77.17202, 38.89598 ], [ -77.17437, 38.89676 ], [ -77.17506, 38.89635 ], [ -77.17476, 38.89555 ], [ -77.17387, 38.89542 ], [ -77.17365, 38.89505 ], [ -77.17411, 38.89347 ], [ -77.17456, 38.89325 ], [ -77.17742, 38.8935 ], [ -77.17905, 38.89442 ], [ -77.17992, 38.89408 ], [ -77.18032, 38.89435 ], [ -77.18062, 38.89519 ], [ -77.17921, 38.89643 ], [ -77.17929, 38.89732 ], [ -77.18023, 38.89765 ], [ -77.18174, 38.89691 ], [ -77.18091, 38.89566 ], [ -77.1812, 38.89493 ], [ -77.18214, 38.89516 ], [ -77.18293, 38.89635 ], [ -77.1839, 38.89586 ], [ -77.18435, 38.89495 ], [ -77.18529, 38.89516 ], [ -77.18541, 38.89564 ], [ -77.18622, 38.89525 ], [ -77.18684, 38.89575 ], [ -77.18747, 38.89549 ], [ -77.18823, 38.8959 ], [ -77.18895, 38.8955 ], [ -77.18945, 38.89563 ], [ -77.18963, 38.89642 ], [ -77.18904, 38.89696 ] ], [ [ -77.17823, 38.91515 ], [ -77.18051, 38.91363 ], [ -77.18401, 38.91206 ], [ -77.18363, 38.91126 ], [ -77.17945, 38.91342 ], [ -77.17857, 38.91302 ], [ -77.17828, 38.91182 ], [ -77.17737, 38.91201 ], [ -77.17778, 38.91271 ], [ -77.17648, 38.91357 ], [ -77.17823, 38.91515 ] ], [ [ -77.17758, 38.91048 ], [ -77.17753, 38.90977 ], [ -77.1784, 38.90928 ], [ -77.17553, 38.90932 ], [ -77.17509, 38.90863 ], [ -77.17583, 38.90812 ], [ -77.17561, 38.90756 ], [ -77.17332, 38.90782 ], [ -77.17349, 38.91066 ], [ -77.17532, 38.91054 ], [ -77.17602, 38.91 ], [ -77.17758, 38.91048 ] ], [ [ -77.17663, 38.90529 ], [ -77.17652, 38.90506 ], [ -77.17646, 38.90522 ], [ -77.17663, 38.90529 ] ], [ [ -77.17578, 38.90353 ], [ -77.1727, 38.90391 ], [ -77.17338, 38.90672 ], [ -77.17513, 38.9065 ], [ -77.17374, 38.90503 ], [ -77.17378, 38.90461 ], [ -77.17527, 38.90431 ], [ -77.17578, 38.90353 ] ], [ [ -77.17573, 38.90038 ], [ -77.17586, 38.90012 ], [ -77.1753, 38.90031 ], [ -77.17573, 38.90038 ] ], [ [ -77.17412, 38.89964 ], [ -77.17417, 38.89968 ], [ -77.17428, 38.89958 ], [ -77.17412, 38.89964 ] ], [ [ -77.1767, 38.89773 ], [ -77.1774, 38.89789 ], [ -77.17703, 38.89724 ], [ -77.1752, 38.89726 ], [ -77.17528, 38.89806 ], [ -77.1767, 38.89773 ] ], [ [ -77.17634, 38.89609 ], [ -77.17601, 38.89621 ], [ -77.1764, 38.89619 ], [ -77.17634, 38.89609 ] ], [ [ -77.18252, 38.90882 ], [ -77.18237, 38.90846 ], [ -77.18228, 38.9085 ], [ -77.18252, 38.90882 ] ], [ [ -77.18214, 38.90354 ], [ -77.18137, 38.90338 ], [ -77.18226, 38.90525 ], [ -77.18272, 38.90512 ], [ -77.18214, 38.90354 ] ], [ [ -77.18303, 38.90181 ], [ -77.18276, 38.90191 ], [ -77.18309, 38.90204 ], [ -77.18303, 38.90181 ] ], [ [ -77.18346, 38.8993 ], [ -77.18238, 38.89785 ], [ -77.18047, 38.89876 ], [ -77.17906, 38.89843 ], [ -77.17942, 38.89955 ], [ -77.1801, 38.89926 ], [ -77.1806, 38.8994 ], [ -77.18071, 38.90002 ], [ -77.18346, 38.8993 ] ], [ [ -77.18642, 38.8973 ], [ -77.1864, 38.89726 ], [ -77.18635, 38.89734 ], [ -77.18592, 38.89766 ], [ -77.18642, 38.8973 ] ], [ [ -77.18568, 38.90679 ], [ -77.18568, 38.90666 ], [ -77.18545, 38.90672 ], [ -77.18568, 38.90679 ] ], [ [ -77.1855, 38.90472 ], [ -77.18557, 38.90493 ], [ -77.18554, 38.90475 ], [ -77.1855, 38.90472 ] ], [ [ -77.1852, 38.90269 ], [ -77.18481, 38.90281 ], [ -77.18512, 38.90368 ], [ -77.1852, 38.90269 ] ], [ [ -77.18439, 38.90162 ], [ -77.18443, 38.90177 ], [ -77.18498, 38.90158 ], [ -77.18439, 38.90162 ] ], [ [ -77.18971, 38.90846 ], [ -77.19062, 38.90908 ], [ -77.1908, 38.9089 ], [ -77.18971, 38.90846 ] ], [ [ -77.18374, 38.90399 ], [ -77.18379, 38.90398 ], [ -77.1834, 38.90306 ], [ -77.18374, 38.90399 ] ], [ [ -77.18322, 38.90068 ], [ -77.18325, 38.9007 ], [ -77.18324, 38.90068 ], [ -77.18322, 38.90068 ] ], [ [ -77.18417, 38.90502 ], [ -77.18413, 38.90503 ], [ -77.1847, 38.90674 ], [ -77.18496, 38.90669 ], [ -77.18417, 38.90502 ] ], [ [ -77.18308, 38.90616 ], [ -77.18276, 38.90626 ], [ -77.18384, 38.90847 ], [ -77.18467, 38.9085 ], [ -77.18498, 38.9078 ], [ -77.18367, 38.9076 ], [ -77.18308, 38.90616 ] ], [ [ -77.18436, 38.90956 ], [ -77.18432, 38.90955 ], [ -77.18432, 38.90959 ], [ -77.18436, 38.90956 ] ], [ [ -77.17899, 38.90889 ], [ -77.17905, 38.90889 ], [ -77.17903, 38.90876 ], [ -77.17899, 38.90889 ] ], [ [ -77.18037, 38.90775 ], [ -77.18013, 38.90722 ], [ -77.18064, 38.90624 ], [ -77.17992, 38.90642 ], [ -77.17978, 38.90759 ], [ -77.17883, 38.90771 ], [ -77.17904, 38.90862 ], [ -77.18037, 38.90775 ] ], [ [ -77.18101, 38.90228 ], [ -77.18067, 38.90181 ], [ -77.18049, 38.90191 ], [ -77.18101, 38.90228 ] ], [ [ -77.18004, 38.90083 ], [ -77.17992, 38.90056 ], [ -77.17982, 38.90061 ], [ -77.18004, 38.90083 ] ], [ [ -77.18078, 38.91083 ], [ -77.18082, 38.91084 ], [ -77.18081, 38.91082 ], [ -77.18078, 38.91083 ] ], [ [ -77.17765, 38.89528 ], [ -77.17744, 38.89537 ], [ -77.17797, 38.89517 ], [ -77.17765, 38.89528 ] ], [ [ -77.17754, 38.90143 ], [ -77.17735, 38.9015 ], [ -77.17749, 38.90159 ], [ -77.17754, 38.90143 ] ], [ [ -77.17834, 38.90733 ], [ -77.17823, 38.90708 ], [ -77.17817, 38.90716 ], [ -77.17834, 38.90733 ] ], [ [ -77.17574, 38.91666 ], [ -77.17493, 38.91595 ], [ -77.17463, 38.91727 ], [ -77.17398, 38.91765 ], [ -77.17492, 38.91799 ], [ -77.17574, 38.91666 ] ], [ [ -77.17065, 38.91442 ], [ -77.17031, 38.91418 ], [ -77.17012, 38.91425 ], [ -77.17065, 38.91442 ] ], [ [ -77.16941, 38.91401 ], [ -77.16949, 38.91404 ], [ -77.16944, 38.91395 ], [ -77.16941, 38.91401 ] ], [ [ -77.17021, 38.91267 ], [ -77.17001, 38.91267 ], [ -77.17047, 38.9129 ], [ -77.17021, 38.91267 ] ], [ [ -77.17084, 38.90278 ], [ -77.17056, 38.90311 ], [ -77.17096, 38.90306 ], [ -77.17084, 38.90278 ] ], [ [ -77.16998, 38.90215 ], [ -77.16994, 38.90219 ], [ -77.17043, 38.90221 ], [ -77.16998, 38.90215 ] ], [ [ -77.17177, 38.90793 ], [ -77.1716, 38.90796 ], [ -77.17193, 38.90806 ], [ -77.17177, 38.90793 ] ], [ [ -77.17252, 38.89747 ], [ -77.17239, 38.89794 ], [ -77.17308, 38.89771 ], [ -77.17346, 38.89758 ], [ -77.17252, 38.89747 ] ], [ [ -77.17218, 38.9149 ], [ -77.17217, 38.91492 ], [ -77.17224, 38.91494 ], [ -77.17218, 38.9149 ] ], [ [ -77.17204, 38.91247 ], [ -77.1717, 38.91251 ], [ -77.17202, 38.91272 ], [ -77.17204, 38.91247 ] ], [ [ -77.17531, 38.91211 ], [ -77.17462, 38.9122 ], [ -77.17549, 38.9128 ], [ -77.17531, 38.91211 ] ], [ [ -77.17545, 38.91444 ], [ -77.17542, 38.9145 ], [ -77.17556, 38.91439 ], [ -77.17545, 38.91444 ] ], [ [ -77.17399, 38.9132 ], [ -77.17383, 38.91334 ], [ -77.17443, 38.91371 ], [ -77.17399, 38.9132 ] ], [ [ -77.17036, 38.90848 ], [ -77.17085, 38.90869 ], [ -77.17114, 38.90806 ], [ -77.17036, 38.90848 ] ], [ [ -77.17199, 38.90676 ], [ -77.17168, 38.90691 ], [ -77.17192, 38.90694 ], [ -77.17199, 38.90676 ] ], [ [ -77.16808, 38.91325 ], [ -77.16782, 38.91331 ], [ -77.16809, 38.9134 ], [ -77.16808, 38.91325 ] ], [ [ -77.16715, 38.91309 ], [ -77.16705, 38.91281 ], [ -77.16687, 38.91299 ], [ -77.16715, 38.91309 ] ], [ [ -77.16934, 38.91736 ], [ -77.16937, 38.9173 ], [ -77.16789, 38.91681 ], [ -77.16934, 38.91736 ] ], [ [ -77.16623, 38.91396 ], [ -77.16566, 38.91401 ], [ -77.16602, 38.91413 ], [ -77.16623, 38.91396 ] ], [ [ -77.16698, 38.90313 ], [ -77.16702, 38.90303 ], [ -77.16698, 38.90301 ], [ -77.16698, 38.90313 ] ], [ [ -77.16639, 38.89768 ], [ -77.16642, 38.89775 ], [ -77.16665, 38.89756 ], [ -77.16639, 38.89768 ] ], [ [ -77.16836, 38.90224 ], [ -77.16827, 38.90227 ], [ -77.16835, 38.90228 ], [ -77.16836, 38.90224 ] ], [ [ -77.16851, 38.89933 ], [ -77.16844, 38.89947 ], [ -77.16851, 38.8994 ], [ -77.16851, 38.89933 ] ] ] } },
{ "type": "Feature", "properties": { "variant": "T0", "miles": 2.0 }, "geometry": { "type": "Polygon", "coordinates": [ [ [ -77.19535, 38.89108 ], [ -77.19602, 38.89159 ], [ -77.19593, 38.8923 ], [ -77.19466, 38.89362 ], [ -77.19608, 38.89471 ], [ -77.19486, 38.89678 ], [ -77.19602, 38.89752 ], [ -77.19611, 38.89829 ], [ -77.19506, 38.89844 ], [ -77.19312, 38.8972 ], [ -77.19149, 38.898 ], [ -77.19041, 38.89769 ], [ -77.19101, 38.89847 ], [ -77.19075, 38.89921 ], [ -77.19023, 38.89926 ], [ -77.18898, 38.89823 ], [ -77.18763, 38.90015 ], [ -77.18509, 38.89975 ], [ -77.1844, 38.90019 ], [ -77.1862, 38.90105 ], [ -77.18673, 38.90348 ], [ -77.18734, 38.90391 ], [ -77.18689, 38.90445 ], [ -77.18727, 38.90795 ], [ -77.18626, 38.90896 ], [ -77.18748, 38.90874 ], [ -77.18851, 38.90789 ], [ -77.1878, 38.90781 ], [ -77.18759, 38.90743 ], [ -77.18787, 38.90698 ], [ -77.18748, 38.90631 ], [ -77.18803, 38.90538 ], [ -77.19085, 38.90373 ], [ -77.19182, 38.90362 ], [ -77.19196, 38.90438 ], [ -77.19011, 38.90556 ], [ -77.19071, 38.90597 ], [ -77.19207, 38.90438 ], [ -77.19292, 38.90401 ], [ -77.19253, 38.90353 ], [ -77.19277, 38.90316 ], [ -77.19403, 38.90297 ], [ -77.19527, 38.90181 ], [ -77.19509, 38.90094 ], [ -77.19549, 38.90067 ], [ -77.19626, 38.90091 ], [ -77.19706, 38.90017 ], [ -77.19783, 38.90008 ], [ -77.19819, 38.90079 ], [ -77.19754, 38.90139 ], [ -77.1985, 38.90135 ], [ -77.19873, 38.90172 ], [ -77.19771, 38.9029 ], [ -77.19712, 38.90305 ], [ -77.1983, 38.90383 ], [ -77.1984, 38.90459 ], [ -77.19742, 38.90467 ], [ -77.19542, 38.90333 ], [ -77.19464, 38.90409 ], [ -77.19762, 38.90504 ], [ -77.19769, 38.9063 ], [ -77.1953, 38.90719 ], [ -77.1953, 38.9078 ], [ -77.19487, 38.90804 ], [ -77.19383, 38.90754 ], [ -77.19367, 38.90783 ], [ -77.19499, 38.90853 ], [ -77.19506, 38.90929 ], [ -77.19458, 38.90947 ], [ -77.19366, 38.90907 ], [ -77.19357, 38.90952 ], [ -77.19281, 38.90967 ], [ -77.19163, 38.91091 ], [ -77.19179, 38.91156 ], [ -77.19121, 38.91185 ], [ -77.19133, 38.91239 ], [ -77.19094, 38.91267 ], [ -77.18948, 38.91209 ], [ -77.18835, 38.91217 ], [ -77.18759, 38.91062 ], [ -77.18837, 38.91016 ], [ -77.18903, 38.91058 ], [ -77.18975, 38.90992 ], [ -77.18882, 38.90929 ], [ -77.18525, 38.91041 ], [ -77.18494, 38.91092 ], [ -77.18731, 38.91152 ], [ -77.18864, 38.91262 ], [ -77.18803, 38.91324 ], [ -77.18724, 38.91325 ], [ -77.18642, 38.91241 ], [ -77.18559, 38.91224 ], [ -77.1861, 38.91332 ], [ -77.18692, 38.91319 ], [ -77.18724, 38.91351 ], [ -77.18766, 38.91484 ], [ -77.18693, 38.91512 ], [ -77.18766, 38.9165 ], [ -77.1895, 38.9155 ], [ -77.19046, 38.91561 ], [ -77.19319, 38.91955 ], [ -77.19323, 38.91997 ], [ -77.19061, 38.92204 ], [ -77.18893, 38.92281 ], [ -77.18833, 38.92246 ], [ -77.18693, 38.92258 ], [ -77.18617, 38.92211 ], [ -77.18671, 38.92124 ], [ -77.18501, 38.92106 ], [ -77.1843, 38.92183 ], [ -77.18289, 38.92226 ], [ -77.18252, 38.92259 ], [ -77.1825, 38.92351 ], [ -77.18297, 38.92234 ], [ -77.18347, 38.92222 ], [ -77.18409, 38.92281 ], [ -77.18389, 38.92559 ], [ -77.18308, 38.92586 ], [ -77.18343, 38.92679 ], [ -77.18254, 38.92711 ], [ -77.18137, 38.92555 ], [ -77.18072, 38.92595 ], [ -77.17749, 38.92543 ], [ -77.17712, 38.9248 ], [ -77.17742, 38.92385 ], [ -77.17662, 38.92339 ], [ -77.17546, 38.92346 ], [ -77.17483, 38.92422 ], [ -77.17268, 38.92376 ], [ -77.17236, 38.92264 ], [ -77.17142, 38.92255 ], [ -77.17115, 38.9222 ], [ -77.17248, 38.92112 ], [ -77.17186, 38.92044 ], [ -77.17024, 38.92242 ], [ -77.17154, 38.9235 ], [ -77.17167, 38.92462 ], [ -77.17067, 38.92507 ], [ -77.17032, 38.92427 ], [ -77.16955, 38.92422 ], [ -77.17007, 38.92555 ], [ -77.16975, 38.92588 ], [ -77.16678, 38.92548 ], [ -77.16383, 38.92353 ], [ -77.16323, 38.92385 ], [ -77.16247, 38.92357 ], [ -77.16171, 38.92374 ], [ -77.16135, 38.92303 ], [ -77.1618, 38.9222 ], [ -77.16089, 38.92154 ], [ -77.16099, 38.92113 ], [ -77.16142, 38.9209 ], [ -77.16235, 38.92118 ], [ -77.1633, 38.9194 ], [ -77.16254, 38.91879 ], [ -77.16167, 38.91875 ], [ -77.1619, 38.91681 ], [ -77.1608, 38.91625 ], [ -77.15744, 38.91814 ], [ -77.15552, 38.92031 ], [ -77.15455, 38.92038 ], [ -77.15447, 38.91962 ], [ -77.15568, 38.91808 ], [ -77.15497, 38.91764 ], [ -77.15493, 38.91635 ], [ -77.15742, 38.91487 ], [ -77.15801, 38.91374 ], [ -77.15732, 38.91306 ], [ -77.1576, 38.91195 ], [ -77.15647, 38.91206 ], [ -77.15596, 38.91141 ], [ -77.15689, 38.91086 ], [ -77.1584, 38.90774 ], [ -77.15759, 38.90826 ], [ -77.15688, 38.9077 ], [ -77.15599, 38.90831 ], [ -77.15529, 38.90777 ], [ -77.15588, 38.90676 ], [ -77.15513, 38.9061 ], [ -77.15613, 38.9057 ], [ -77.15652, 38.90489 ], [ -77.15512, 38.90394 ], [ -77.15397, 38.90411 ], [ -77.15406, 38.90324 ], [ -77.15355, 38.90252 ], [ -77.15483, 38.9013 ], [ -77.15393, 38.90121 ], [ -77.15355, 38.90065 ], [ -77.15427, 38.90014 ], [ -77.15575, 38.9002 ], [ -77.15622, 38.89881 ], [ -77.15546, 38.89956 ], [ -77.15353, 38.89843 ], [ -77.15384, 38.89736 ], [ -77.15559, 38.89642 ], [ -77.15597, 38.89416 ], [ -77.15747, 38.89359 ], [ -77.15806, 38.89373 ], [ -77.15998, 38.89272 ], [ -77.15983, 38.8911 ], [ -77.16207, 38.88992 ], [ -77.1604, 38.88845 ], [ -77.16053, 38.88784 ], [ -77.16149, 38.88771 ], [ -77.16331, 38.88938 ], [ -77.16391, 38.88936 ], [ -77.16477, 38.88893 ], [ -77.16568, 38.88778 ], [ -77.16551, 38.88731 ], [ -77.16631, 38.88687 ], [ -77.16805, 38.88733 ], [ -77.16758, 38.88816 ], [ -77.17203, 38.88915 ], [ -77.1721, 38.8884 ], [ -77.1743, 38.88667 ], [ -77.17683, 38.88847 ], [ -77.17782, 38.88774 ], [ -77.179, 38.88827 ], [ -77.18006, 38.88752 ], [ -77.18287, 38.88913 ], [ -77.1834, 38.88884 ], [ -77.18445, 38.88925 ], [ -77.1849, 38.88885 ], [ -77.18594, 38.88941 ], [ -77.1875, 38.88887 ], [ -77.18797, 38.88954 ], [ -77.18667, 38.89032 ], [ -77.18775, 38.89111 ], [ -77.18768, 38.89152 ], [ -77.1869, 38.89173 ], [ -77.18912, 38.89314 ], [ -77.19041, 38.89187 ], [ -77.19209, 38.89201 ], [ -77.19279, 38.89134 ], [ -77.19535, 38.89108 ] ], [ [ -77.17885, 38.92315 ], [ -77.17939, 38.9232 ], [ -77.17811, 38.9227 ], [ -77.17885, 38.92315 ] ], [ [ -77.17695, 38.92061 ], [ -77.17632, 38.92126 ], [ -77.17509, 38.92042 ], [ -77.17467, 38.92073 ], [ -77.17535, 38.92144 ], [ -77.17372, 38.92294 ], [ -77.17474, 38.92245 ], [ -77.17681, 38.92231 ], [ -77.17695, 38.92061 ] ], [ [ -77.17428, 38.91927 ], [ -77.17353, 38.91868 ], [ -77.17222, 38.91824 ], [ -77.17327, 38.91886 ], [ -77.17361, 38.92001 ], [ -77.17428, 38.91927 ] ], [ [ -77.17574, 38.91666 ], [ -77.17493, 38.91595 ], [ -77.17443, 38.91748 ], [ -77.17505, 38.91757 ], [ -77.17574, 38.91666 ] ], [ [ -77.17399, 38.9132 ], [ -77.17383, 38.91334 ], [ -77.17443, 38.91371 ], [ -77.17399, 38.9132 ] ], [ [ -77.17531, 38.91211 ], [ -77.17462, 38.9122 ], [ -77.17549, 38.9128 ], [ -77.17531, 38.91211 ] ], [ [ -77.17602, 38.91 ], [ -77.17758, 38.91048 ], [ -77.17753, 38.90977 ], [ -77.1784, 38.90928 ], [ -77.17553, 38.90932 ], [ -77.17509, 38.90863 ], [ -77.17583, 38.90812 ], [ -77.17561, 38.90756 ], [ -77.17332, 38.90782 ], [ -77.17349, 38.91066 ], [ -77.17532, 38.91054 ], [ -77.17602, 38.91 ] ], [ [ -77.17374, 38.90503 ], [ -77.17378, 38.90461 ], [ -77.17527, 38.90431 ], [ -77.17578, 38.90353 ], [ -77.1727, 38.90391 ], [ -77.17338, 38.90672 ], [ -77.17512, 38.90647 ], [ -77.17374, 38.90503 ] ], [ [ -77.17573, 38.90038 ], [ -77.17586, 38.90012 ], [ -77.1753, 38.90031 ], [ -77.1757, 38.9006 ], [ -77.17573, 38.90038 ] ], [ [ -77.17412, 38.89964 ], [ -77.17417, 38.89968 ], [ -77.17428, 38.89958 ], [ -77.17412, 38.89964 ] ], [ [ -77.17367, 38.89558 ], [ -77.17088, 38.89554 ], [ -77.17037, 38.8963 ], [ -77.16927, 38.89565 ], [ -77.16873, 38.89625 ], [ -77.16906, 38.89689 ], [ -77.1699, 38.89675 ], [ -77.17023, 38.89707 ], [ -77.1707, 38.89853 ], [ -77.17153, 38.89614 ], [ -77.17416, 38.89645 ], [ -77.17367, 38.89558 ] ], [ [ -77.17255, 38.89304 ], [ -77.17255, 38.8933 ], [ -77.17359, 38.89328 ], [ -77.17255, 38.89304 ] ], [ [ -77.18781, 38.92115 ], [ -77.18775, 38.92116 ], [ -77.18786, 38.92125 ], [ -77.18781, 38.92115 ] ], [ [ -77.18713, 38.92008 ], [ -77.18543, 38.92002 ], [ -77.18651, 38.92017 ], [ -77.18713, 38.92008 ] ], [ [ -77.18381, 38.91771 ], [ -77.18385, 38.91764 ], [ -77.18377, 38.91762 ], [ -77.18381, 38.91771 ] ], [ [ -77.1844, 38.91561 ], [ -77.18382, 38.91579 ], [ -77.18403, 38.91612 ], [ -77.1844, 38.91561 ] ], [ [ -77.18363, 38.91126 ], [ -77.17935, 38.91342 ], [ -77.17857, 38.91302 ], [ -77.17828, 38.91182 ], [ -77.17737, 38.91201 ], [ -77.17778, 38.91271 ], [ -77.17648, 38.91357 ], [ -77.17823, 38.91515 ], [ -77.18051, 38.91363 ], [ -77.18382, 38.91212 ], [ -77.18363, 38.91126 ] ], [ [ -77.18467, 38.9085 ], [ -77.18498, 38.9078 ], [ -77.18393, 38.90781 ], [ -77.18308, 38.90616 ], [ -77.18276, 38.90626 ], [ -77.18399, 38.90846 ], [ -77.18467, 38.9085 ] ], [ [ -77.1834, 38.90306 ], [ -77.18374, 38.90399 ], [ -77.18379, 38.90398 ], [ -77.1834, 38.90306 ] ], [ [ -77.18303, 38.90181 ], [ -77.18276, 38.90191 ], [ -77.18309, 38.90204 ], [ -77.18303, 38.90181 ] ], [ [ -77.18325, 38.9007 ], [ -77.18324, 38.90068 ], [ -77.18322, 38.90068 ], [ -77.18325, 38.9007 ] ], [ [ -77.18346, 38.8993 ], [ -77.18238, 38.89785 ], [ -77.18047, 38.89876 ], [ -77.17906, 38.89843 ], [ -77.17942, 38.89955 ], [ -77.1806, 38.8994 ], [ -77.18071, 38.90002 ], [ -77.18118, 38.9002 ], [ -77.18346, 38.8993 ] ], [ [ -77.18368, 38.89494 ], [ -77.18361, 38.895 ], [ -77.18369, 38.89499 ], [ -77.18368, 38.89494 ] ], [ [ -77.18319, 38.89335 ], [ -77.18351, 38.89376 ], [ -77.18347, 38.89348 ], [ -77.18319, 38.89335 ] ], [ [ -77.18185, 38.88988 ], [ -77.18168, 38.88998 ], [ -77.18269, 38.89062 ], [ -77.18185, 38.88988 ] ], [ [ -77.18612, 38.89752 ], [ -77.18611, 38.89751 ], [ -77.18591, 38.89765 ], [ -77.18612, 38.89752 ] ], [ [ -77.1877, 38.89365 ], [ -77.1865, 38.89288 ], [ -77.18618, 38.89319 ], [ -77.18712, 38.89407 ], [ -77.1877, 38.89365 ] ], [ [ -77.1854, 38.89223 ], [ -77.18462, 38.89174 ], [ -77.18477, 38.89282 ], [ -77.1854, 38.89223 ] ], [ [ -77.19123, 38.89293 ], [ -77.19022, 38.8938 ], [ -77.19031, 38.89385 ], [ -77.19123, 38.89293 ] ], [ [ -77.19386, 38.89451 ], [ -77.19383, 38.89454 ], [ -77.19395, 38.89456 ], [ -77.19386, 38.89451 ] ], [ [ -77.19188, 38.89483 ], [ -77.19238, 38.89428 ], [ -77.19192, 38.89408 ], [ -77.19159, 38.89465 ], [ -77.19188, 38.89483 ] ], [ [ -77.1876, 38.8955 ], [ -77.18823, 38.8959 ], [ -77.18937, 38.89478 ], [ -77.18878, 38.89433 ], [ -77.1876, 38.8955 ] ], [ [ -77.18913, 38.89701 ], [ -77.18925, 38.89689 ], [ -77.18917, 38.89684 ], [ -77.18913, 38.89701 ] ], [ [ -77.18982, 38.90836 ], [ -77.18971, 38.90846 ], [ -77.19062, 38.90908 ], [ -77.18982, 38.90836 ] ], [ [ -77.19094, 38.90742 ], [ -77.1908, 38.90754 ], [ -77.19214, 38.90838 ], [ -77.19094, 38.90742 ] ], [ [ -77.19256, 38.90708 ], [ -77.19264, 38.90603 ], [ -77.19365, 38.90595 ], [ -77.19301, 38.90552 ], [ -77.19189, 38.90655 ], [ -77.19256, 38.90708 ] ], [ [ -77.19155, 38.91942 ], [ -77.19139, 38.91918 ], [ -77.19125, 38.91924 ], [ -77.19155, 38.91942 ] ], [ [ -77.19047, 38.91863 ], [ -77.19037, 38.9187 ], [ -77.19045, 38.91875 ], [ -77.19047, 38.91863 ] ], [ [ -77.18969, 38.90689 ], [ -77.18981, 38.90679 ], [ -77.18895, 38.9062 ], [ -77.18969, 38.90689 ] ], [ [ -77.18647, 38.91727 ], [ -77.18657, 38.9173 ], [ -77.18654, 38.91725 ], [ -77.18647, 38.91727 ] ], [ [ -77.18957, 38.91781 ], [ -77.18953, 38.91779 ], [ -77.18955, 38.91782 ], [ -77.18957, 38.91781 ] ], [ [ -77.18975, 38.91669 ], [ -77.18947, 38.91683 ], [ -77.18969, 38.91679 ], [ -77.18975, 38.91669 ] ], [ [ -77.1893, 38.9169 ], [ -77.18912, 38.91695 ], [ -77.18917, 38.91706 ], [ -77.1893, 38.9169 ] ], [ [ -77.18945, 38.9213 ], [ -77.19001, 38.92099 ], [ -77.18886, 38.92025 ], [ -77.18945, 38.9213 ] ], [ [ -77.1847, 38.90674 ], [ -77.18496, 38.90669 ], [ -77.18417, 38.90502 ], [ -77.1847, 38.90674 ] ], [ [ -77.1852, 38.90269 ], [ -77.18481, 38.90281 ], [ -77.18512, 38.90368 ], [ -77.1852, 38.90269 ] ], [ [ -77.18491, 38.90141 ], [ -77.18443, 38.90177 ], [ -77.18472, 38.90167 ], [ -77.18491, 38.90141 ] ], [ [ -77.18432, 38.90959 ], [ -77.18436, 38.90956 ], [ -77.18432, 38.90955 ], [ -77.18432, 38.90959 ] ], [ [ -77.18568, 38.90679 ], [ -77.18568, 38.90666 ], [ -77.18545, 38.90672 ], [ -77.18568, 38.90679 ] ], [ [ -77.18062, 38.91701 ], [ -77.17995, 38.91754 ], [ -77.18031, 38.91805 ], [ -77.1812, 38.91766 ], [ -77.18062, 38.91701 ] ], [ [ -77.18382, 38.92049 ], [ -77.18375, 38.92036 ], [ -77.18352, 38.92053 ], [ -77.18382, 38.92049 ] ], [ [ -77.18176, 38.91865 ], [ -77.18183, 38.91871 ], [ -77.18185, 38.91861 ], [ -77.18176, 38.91865 ] ], [ [ -77.18081, 38.91082 ], [ -77.18078, 38.91083 ], [ -77.18082, 38.91084 ], [ -77.18081, 38.91082 ] ], [ [ -77.18013, 38.90722 ], [ -77.18064, 38.90624 ], [ -77.17992, 38.90642 ], [ -77.17978, 38.90759 ], [ -77.17883, 38.90771 ], [ -77.17904, 38.90862 ], [ -77.18022, 38.9078 ], [ -77.18013, 38.90722 ] ], [ [ -77.17646, 38.90522 ], [ -77.17663, 38.90529 ], [ -77.1766, 38.90523 ], [ -77.17646, 38.90522 ] ], [ [ -77.17749, 38.90159 ], [ -77.17753, 38.90163 ], [ -77.17754, 38.90143 ], [ -77.17749, 38.90159 ] ], [ [ -77.17703, 38.89724 ], [ -77.1752, 38.89726 ], [ -77.17528, 38.89806 ], [ -77.17731, 38.89772 ], [ -77.17703, 38.89724 ] ], [ [ -77.1779, 38.89506 ], [ -77.17744, 38.89537 ], [ -77.17765, 38.89528 ], [ -77.1779, 38.89506 ] ], [ [ -77.17697, 38.89195 ], [ -77.17691, 38.89194 ], [ -77.17747, 38.89284 ], [ -77.17697, 38.89195 ] ], [ [ -77.17587, 38.88925 ], [ -77.1753, 38.88979 ], [ -77.17706, 38.8901 ], [ -77.17587, 38.88925 ] ], [ [ -77.1802, 38.89648 ], [ -77.17984, 38.89596 ], [ -77.17921, 38.89643 ], [ -77.17925, 38.89727 ], [ -77.18023, 38.89765 ], [ -77.18056, 38.89748 ], [ -77.17976, 38.89693 ], [ -77.1802, 38.89648 ] ], [ [ -77.17923, 38.89231 ], [ -77.17869, 38.89222 ], [ -77.17889, 38.89256 ], [ -77.17923, 38.89231 ] ], [ [ -77.17919, 38.88978 ], [ -77.17906, 38.8899 ], [ -77.17949, 38.89017 ], [ -77.17919, 38.88978 ] ], [ [ -77.18021, 38.88882 ], [ -77.18007, 38.88895 ], [ -77.18058, 38.88927 ], [ -77.18021, 38.88882 ] ], [ [ -77.1802, 38.89137 ], [ -77.18164, 38.89134 ], [ -77.18131, 38.89113 ], [ -77.18068, 38.89074 ], [ -77.1802, 38.89137 ] ], [ [ -77.17982, 38.90061 ], [ -77.17993, 38.90089 ], [ -77.18004, 38.90083 ], [ -77.17982, 38.90061 ] ], [ [ -77.18067, 38.90181 ], [ -77.18049, 38.90191 ], [ -77.18081, 38.90235 ], [ -77.18067, 38.90181 ] ], [ [ -77.18137, 38.90338 ], [ -77.18226, 38.90525 ], [ -77.18272, 38.90512 ], [ -77.18214, 38.90354 ], [ -77.18137, 38.90338 ] ], [ [ -77.18238, 38.90879 ], [ -77.1824, 38.90888 ], [ -77.18237, 38.90846 ], [ -77.18238, 38.90879 ] ], [ [ -77.1779, 38.88916 ], [ -77.17799, 38.88921 ], [ -77.17812, 38.8891 ], [ -77.1779, 38.88916 ] ], [ [ -77.17834, 38.90733 ], [ -77.17823, 38.90708 ], [ -77.17817, 38.90716 ], [ -77.17834, 38.90733 ] ], [ [ -77.17904, 38.90882 ], [ -77.17903, 38.90876 ], [ -77.17899, 38.90889 ], [ -77.17904, 38.90882 ] ], [ [ -77.1793, 38.92042 ], [ -77.1792, 38.92042 ], [ -77.17923, 38.92047 ], [ -77.1793, 38.92042 ] ], [ [ -77.17876, 38.9246 ], [ -77.17868, 38.92437 ], [ -77.1786, 38.92458 ], [ -77.17876, 38.9246 ] ], [ [ -77.17519, 38.89164 ], [ -77.17513, 38.89163 ], [ -77.1761, 38.89311 ], [ -77.17519, 38.89164 ] ], [ [ -77.17601, 38.89621 ], [ -77.1764, 38.89619 ], [ -77.17634, 38.89609 ], [ -77.17601, 38.89621 ] ], [ [ -77.17545, 38.91444 ], [ -77.17542, 38.9145 ], [ -77.17556, 38.91439 ], [ -77.17545, 38.91444 ] ], [ [ -77.16732, 38.92447 ], [ -77.16818, 38.92466 ], [ -77.16817, 38.92452 ], [ -77.16732, 38.92447 ] ], [ [ -77.16711, 38.92071 ], [ -77.16672, 38.92093 ], [ -77.16709, 38.92106 ], [ -77.16711, 38.92071 ] ], [ [ -77.16584, 38.92055 ], [ -77.16587, 38.92056 ], [ -77.16586, 38.92055 ], [ -77.16584, 38.92055 ] ], [ [ -77.16534, 38.91838 ], [ -77.16551, 38.91831 ], [ -77.16541, 38.91824 ], [ -77.16534, 38.91838 ] ], [ [ -77.16589, 38.91722 ], [ -77.16572, 38.91721 ], [ -77.16604, 38.91725 ], [ -77.16589, 38.91722 ] ], [ [ -77.16589, 38.91384 ], [ -77.16566, 38.91401 ], [ -77.16602, 38.91413 ], [ -77.16589, 38.91384 ] ], [ [ -77.16393, 38.91233 ], [ -77.16433, 38.91346 ], [ -77.16532, 38.91278 ], [ -77.16393, 38.91233 ] ], [ [ -77.16589, 38.90866 ], [ -77.16614, 38.90951 ], [ -77.16612, 38.9091 ], [ -77.16589, 38.90866 ] ], [ [ -77.16531, 38.90593 ], [ -77.16361, 38.90583 ], [ -77.16401, 38.9071 ], [ -77.16534, 38.90673 ], [ -77.16531, 38.90593 ] ], [ [ -77.16744, 38.90483 ], [ -77.1667, 38.90446 ], [ -77.16543, 38.9047 ], [ -77.16744, 38.90483 ] ], [ [ -77.166, 38.89362 ], [ -77.16493, 38.89391 ], [ -77.16516, 38.89412 ], [ -77.166, 38.89362 ] ], [ [ -77.16566, 38.89047 ], [ -77.16455, 38.89041 ], [ -77.16565, 38.89102 ], [ -77.16566, 38.89047 ] ], [ [ -77.17021, 38.91267 ], [ -77.17001, 38.91267 ], [ -77.17047, 38.9129 ], [ -77.17021, 38.91267 ] ], [ [ -77.1705, 38.9082 ], [ -77.17036, 38.90848 ], [ -77.17085, 38.90869 ], [ -77.17114, 38.90806 ], [ -77.1705, 38.9082 ] ], [ [ -77.17194, 38.90783 ], [ -77.1716, 38.90796 ], [ -77.17193, 38.90806 ], [ -77.17194, 38.90783 ] ], [ [ -77.17168, 38.90691 ], [ -77.17197, 38.90698 ], [ -77.17199, 38.90676 ], [ -77.17168, 38.90691 ] ], [ [ -77.16836, 38.90224 ], [ -77.16827, 38.90227 ], [ -77.16835, 38.90228 ], [ -77.16836, 38.90224 ] ], [ [ -77.16851, 38.89933 ], [ -77.16844, 38.89947 ], [ -77.16851, 38.8994 ], [ -77.16851, 38.89933 ] ], [ [ -77.16639, 38.89768 ], [ -77.16642, 38.89775 ], [ -77.16665, 38.89756 ], [ -77.16639, 38.89768 ] ], [ [ -77.16927, 38.89341 ], [ -77.1696, 38.89266 ], [ -77.17024, 38.89252 ], [ -77.17029, 38.89185 ], [ -77.17108, 38.89156 ], [ -77.17107, 38.89137 ], [ -77.17007, 38.89093 ], [ -77.16897, 38.89124 ], [ -77.16947, 38.8922 ], [ -77.16878, 38.89274 ], [ -77.1675, 38.89236 ], [ -77.16704, 38.89089 ], [ -77.167, 38.89238 ], [ -77.16765, 38.89286 ], [ -77.16737, 38.89341 ], [ -77.16927, 38.89341 ] ], [ [ -77.16965, 38.88982 ], [ -77.17004, 38.88985 ], [ -77.16765, 38.88931 ], [ -77.16737, 38.88949 ], [ -77.16965, 38.88982 ] ], [ [ -77.17125, 38.89438 ], [ -77.1697, 38.89444 ], [ -77.17055, 38.89509 ], [ -77.17125, 38.89438 ] ], [ [ -77.17064, 38.89273 ], [ -77.1708, 38.89331 ], [ -77.17117, 38.8933 ], [ -77.17116, 38.8929 ], [ -77.17064, 38.89273 ] ], [ [ -77.17244, 38.89122 ], [ -77.1733, 38.89118 ], [ -77.17243, 38.89095 ], [ -77.17244, 38.89122 ] ], [ [ -77.17217, 38.91492 ], [ -77.17224, 38.91494 ], [ -77.17218, 38.9149 ], [ -77.17217, 38.91492 ] ], [ [ -77.17101, 38.90305 ], [ -77.17084, 38.90278 ], [ -77.17056, 38.90311 ], [ -77.17101, 38.90305 ] ], [ [ -77.17252, 38.89747 ], [ -77.17239, 38.89794 ], [ -77.17366, 38.89752 ], [ -77.17252, 38.89747 ] ], [ [ -77.17204, 38.91247 ], [ -77.1717, 38.91251 ], [ -77.17202, 38.91272 ], [ -77.17204, 38.91247 ] ], [ [ -77.1742, 38.9176 ], [ -77.17398, 38.91765 ], [ -77.17408, 38.91769 ], [ -77.1742, 38.9176 ] ], [ [ -77.16836, 38.89492 ], [ -77.16807, 38.89507 ], [ -77.16836, 38.89505 ], [ -77.16836, 38.89492 ] ], [ [ -77.17025, 38.90196 ], [ -77.16994, 38.90219 ], [ -77.17043, 38.90221 ], [ -77.17025, 38.90196 ] ], [ [ -77.16886, 38.91727 ], [ -77.16937, 38.9173 ], [ -77.16789, 38.91681 ], [ -77.16886, 38.91727 ] ], [ [ -77.16782, 38.91331 ], [ -77.16809, 38.9134 ], [ -77.16808, 38.91325 ], [ -77.16782, 38.91331 ] ], [ [ -77.16954, 38.90864 ], [ -77.16903, 38.90694 ], [ -77.16799, 38.90583 ], [ -77.16757, 38.90592 ], [ -77.16804, 38.90648 ], [ -77.1678, 38.9068 ], [ -77.16875, 38.90679 ], [ -77.16897, 38.90717 ], [ -77.16872, 38.9092 ], [ -77.16825, 38.90969 ], [ -77.16864, 38.9101 ], [ -77.16854, 38.91135 ], [ -77.16897, 38.91142 ], [ -77.16954, 38.90864 ] ], [ [ -77.17065, 38.91442 ], [ -77.17031, 38.91418 ], [ -77.17012, 38.91425 ], [ -77.17065, 38.91442 ] ], [ [ -77.16944, 38.91395 ], [ -77.16941, 38.91401 ], [ -77.16949, 38.91404 ], [ -77.16944, 38.91395 ] ], [ [ -77.1692, 38.92196 ], [ -77.16934, 38.92202 ], [ -77.16934, 38.92191 ], [ -77.1692, 38.92196 ] ], [ [ -77.16771, 38.90685 ], [ -77.16775, 38.90686 ], [ -77.16776, 38.90684 ], [ -77.16771, 38.90685 ] ], [ [ -77.16698, 38.90301 ], [ -77.16698, 38.90313 ], [ -77.16702, 38.90303 ], [ -77.16698, 38.90301 ] ], [ [ -77.16687, 38.91299 ], [ -77.16715, 38.91309 ], [ -77.16705, 38.91281 ], [ -77.16687, 38.91299 ] ], [ [ -77.16754, 38.90969 ], [ -77.16755, 38.90975 ], [ -77.16764, 38.90971 ], [ -77.16754, 38.90969 ] ], [ [ -77.16534, 38.92314 ], [ -77.16565, 38.92286 ], [ -77.16349, 38.92183 ], [ -77.16534, 38.92314 ] ], [ [ -77.1637, 38.91659 ], [ -77.16407, 38.91663 ], [ -77.164, 38.91646 ], [ -77.1637, 38.91659 ] ], [ [ -77.16376, 38.91041 ], [ -77.16345, 38.91044 ], [ -77.16303, 38.91145 ], [ -77.16381, 38.91119 ], [ -77.16376, 38.91041 ] ], [ [ -77.16255, 38.90727 ], [ -77.161, 38.90666 ], [ -77.16113, 38.90874 ], [ -77.16232, 38.90867 ], [ -77.16375, 38.90937 ], [ -77.16255, 38.90727 ] ], [ [ -77.16203, 38.90407 ], [ -77.16196, 38.90408 ], [ -77.162, 38.90411 ], [ -77.16203, 38.90407 ] ], [ [ -77.16292, 38.90386 ], [ -77.16291, 38.90386 ], [ -77.16299, 38.9039 ], [ -77.16292, 38.90386 ] ], [ [ -77.16154, 38.90168 ], [ -77.1625, 38.90266 ], [ -77.16262, 38.90258 ], [ -77.16232, 38.90134 ], [ -77.16154, 38.90168 ] ], [ [ -77.16301, 38.89073 ], [ -77.163, 38.89072 ], [ -77.16271, 38.89093 ], [ -77.16301, 38.89073 ] ], [ [ -77.16334, 38.89961 ], [ -77.16319, 38.89973 ], [ -77.16334, 38.89976 ], [ -77.16334, 38.89961 ] ], [ [ -77.16365, 38.90449 ], [ -77.16403, 38.90477 ], [ -77.16406, 38.90447 ], [ -77.16365, 38.90449 ] ], [ [ -77.16466, 38.90825 ], [ -77.16508, 38.90809 ], [ -77.1646, 38.90808 ], [ -77.16466, 38.90825 ] ], [ [ -77.16584, 38.91613 ], [ -77.16524, 38.91593 ], [ -77.16532, 38.91613 ], [ -77.16584, 38.91613 ] ], [ [ -77.16565, 38.92175 ], [ -77.16583, 38.92179 ], [ -77.16544, 38.92161 ], [ -77.16565, 38.92175 ] ], [ [ -77.15924, 38.89441 ], [ -77.16072, 38.8955 ], [ -77.162, 38.89436 ], [ -77.16126, 38.89335 ], [ -77.15924, 38.89441 ] ], [ [ -77.15967, 38.91526 ], [ -77.15924, 38.91589 ], [ -77.16019, 38.91519 ], [ -77.15967, 38.91526 ] ], [ [ -77.15883, 38.91286 ], [ -77.1589, 38.91233 ], [ -77.15883, 38.91269 ], [ -77.15883, 38.91286 ] ], [ [ -77.1591, 38.91186 ], [ -77.15895, 38.91218 ], [ -77.15892, 38.91227 ], [ -77.1591, 38.91186 ] ], [ [ -77.16027, 38.91252 ], [ -77.16192, 38.91247 ], [ -77.16269, 38.91389 ], [ -77.16302, 38.9138 ], [ -77.16253, 38.91249 ], [ -77.16116, 38.9117 ], [ -77.16212, 38.90975 ], [ -77.16067, 38.91005 ], [ -77.15973, 38.91097 ], [ -77.16077, 38.91108 ], [ -77.16027, 38.91252 ] ], [ [ -77.15896, 38.90971 ], [ -77.15867, 38.91026 ], [ -77.15893, 38.91006 ], [ -77.15896, 38.90971 ] ], [ [ -77.16066, 38.9046 ], [ -77.16011, 38.9042 ], [ -77.15911, 38.90426 ], [ -77.15866, 38.90317 ], [ -77.15907, 38.90563 ], [ -77.16066, 38.9046 ] ], [ [ -77.15908, 38.90091 ], [ -77.15843, 38.90042 ], [ -77.15748, 38.90064 ], [ -77.15915, 38.90198 ], [ -77.15908, 38.90091 ] ], [ [ -77.16039, 38.90273 ], [ -77.1607, 38.90243 ], [ -77.16021, 38.90281 ], [ -77.16039, 38.90273 ] ], [ [ -77.16083, 38.90233 ], [ -77.16073, 38.9024 ], [ -77.16077, 38.90239 ], [ -77.16083, 38.90233 ] ], [ [ -77.16166, 38.90535 ], [ -77.16133, 38.90561 ], [ -77.16199, 38.90559 ], [ -77.16166, 38.90535 ] ], [ [ -77.15946, 38.90868 ], [ -77.15969, 38.90879 ], [ -77.15978, 38.90849 ], [ -77.1598, 38.90812 ], [ -77.15946, 38.90868 ] ], [ [ -77.16076, 38.91416 ], [ -77.16118, 38.91443 ], [ -77.1614, 38.91432 ], [ -77.16107, 38.91364 ], [ -77.16076, 38.91416 ] ], [ [ -77.15712, 38.90731 ], [ -77.15745, 38.90672 ], [ -77.15729, 38.90673 ], [ -77.15712, 38.90731 ] ], [ [ -77.15639, 38.90337 ], [ -77.15664, 38.90354 ], [ -77.15677, 38.90336 ], [ -77.15639, 38.90337 ] ], [ [ -77.15759, 38.90564 ], [ -77.15765, 38.90564 ], [ -77.15762, 38.90556 ], [ -77.15759, 38.90564 ] ], [ [ -77.15788, 38.91593 ], [ -77.15704, 38.91636 ], [ -77.15752, 38.91667 ], [ -77.1587, 38.91612 ], [ -77.15788, 38.91593 ] ], [ [ -77.1563, 38.91728 ], [ -77.15634, 38.91747 ], [ -77.15646, 38.91738 ], [ -77.1563, 38.91728 ] ] ] } },
{ "type": "Feature", "properties": { "variant": "T2s", "miles": 1.0 }, "geometry": { "type": "Polygon", "coordinates": [ [ [ -77.17839, 38.90009 ], [ -77.17933, 38.89988 ], [ -77.17993, 38.90089 ], [ -77.18028, 38.90003 ], [ -77.1816, 38.9006 ], [ -77.18146, 38.90135 ], [ -77.18049, 38.90191 ], [ -77.18131, 38.90325 ], [ -77.18104, 38.90378 ], [ -77.18137, 38.90444 ], [ -77.18082, 38.9048 ], [ -77.1816, 38.90511 ], [ -77.18302, 38.90721 ], [ -77.1824, 38.90888 ], [ -77.18364, 38.90862 ], [ -77.18401, 38.90932 ], [ -77.18197, 38.91022 ], [ -77.18149, 38.9098 ], [ -77.1805, 38.91 ], [ -77.18012, 38.90971 ], [ -77.1798, 38.9081 ], [ -77.18037, 38.90775 ], [ -77.18013, 38.90722 ], [ -77.18064, 38.90624 ], [ -77.17992, 38.90642 ], [ -77.17978, 38.90759 ], [ -77.17883, 38.90771 ], [ -77.17891, 38.90901 ], [ -77.1779, 38.90941 ], [ -77.17513, 38.90905 ], [ -77.1752, 38.90845 ], [ -77.17583, 38.90812 ], [ -77.17561, 38.90756 ], [ -77.17332, 38.90782 ], [ -77.17358, 38.91121 ], [ -77.17469, 38.91057 ], [ -77.1752, 38.91068 ], [ -77.17541, 38.91196 ], [ -77.17462, 38.9122 ], [ -77.17624, 38.91351 ], [ -77.17561, 38.91409 ], [ -77.17399, 38.9132 ], [ -77.17297, 38.91408 ], [ -77.17199, 38.91412 ], [ -77.17215, 38.91246 ], [ -77.1708, 38.91261 ], [ -77.17002, 38.91216 ], [ -77.1705, 38.91114 ], [ -77.17214, 38.91096 ], [ -77.17206, 38.91049 ], [ -77.17112, 38.90999 ], [ -77.1719, 38.90941 ], [ -77.172, 38.90671 ], [ -77.17134, 38.90411 ], [ -77.16935, 38.90446 ], [ -77.16863, 38.905 ], [ -77.1681, 38.90497 ], [ -77.16781, 38.90424 ], [ -77.16875, 38.90348 ], [ -77.17101, 38.90305 ], [ -77.16987, 38.9015 ], [ -77.17008, 38.90076 ], [ -77.17228, 38.90101 ], [ -77.17237, 38.90177 ], [ -77.17184, 38.90196 ], [ -77.17242, 38.90285 ], [ -77.17541, 38.90248 ], [ -77.17762, 38.90175 ], [ -77.17755, 38.90127 ], [ -77.17845, 38.90083 ], [ -77.17839, 38.90009 ] ], [ [ -77.17823, 38.90708 ], [ -77.17817, 38.90716 ], [ -77.17834, 38.90733 ], [ -77.17823, 38.90708 ] ], [ [ -77.17508, 38.90644 ], [ -77.17374, 38.90503 ], [ -77.17378, 38.90461 ], [ -77.17527, 38.90431 ], [ -77.17578, 38.90353 ], [ -77.1727, 38.90391 ], [ -77.17338, 38.90672 ], [ -77.17508, 38.90644 ] ], [ [ -77.17652, 38.90506 ], [ -77.17646, 38.90522 ], [ -77.17663, 38.90529 ], [ -77.17652, 38.90506 ] ] ] } },
{ "type": "Feature", "properties": { "variant": "T2s", "miles": 1.5 }, "geometry": { "type": "Polygon", "coordinates": [ [ [ -77.1867, 38.89543 ], [ -77.18643, 38.89661 ], [ -77.18765, 38.89573 ], [ -77.18872, 38.89572 ], [ -77.18944, 38.89624 ], [ -77.18874, 38.89706 ], [ -77.18934, 38.89782 ], [ -77.18825, 38.89881 ], [ -77.18808, 38.89994 ], [ -77.18626, 38.90014 ], [ -77.18509, 38.89975 ], [ -77.1844, 38.90019 ], [ -77.1862, 38.90105 ], [ -77.18673, 38.90348 ], [ -77.18734, 38.90391 ], [ -77.18675, 38.90452 ], [ -77.1855, 38.90472 ], [ -77.18594, 38.90617 ], [ -77.18545, 38.90672 ], [ -77.18646, 38.90707 ], [ -77.18661, 38.90783 ], [ -77.18609, 38.90811 ], [ -77.18397, 38.90782 ], [ -77.18308, 38.90616 ], [ -77.18276, 38.90626 ], [ -77.18384, 38.90847 ], [ -77.18643, 38.90897 ], [ -77.18757, 38.90869 ], [ -77.18851, 38.90789 ], [ -77.1878, 38.90781 ], [ -77.18759, 38.90743 ], [ -77.18776, 38.90596 ], [ -77.18828, 38.90587 ], [ -77.18969, 38.90689 ], [ -77.19082, 38.90612 ], [ -77.19132, 38.90625 ], [ -77.19156, 38.90662 ], [ -77.1908, 38.90754 ], [ -77.19248, 38.90882 ], [ -77.19166, 38.90979 ], [ -77.19216, 38.91066 ], [ -77.18957, 38.91092 ], [ -77.18933, 38.91055 ], [ -77.18975, 38.90992 ], [ -77.18882, 38.90929 ], [ -77.18525, 38.91041 ], [ -77.18505, 38.91115 ], [ -77.18551, 38.91096 ], [ -77.18731, 38.91152 ], [ -77.18864, 38.91262 ], [ -77.18803, 38.91324 ], [ -77.18724, 38.91325 ], [ -77.18642, 38.91241 ], [ -77.18559, 38.91224 ], [ -77.1861, 38.91332 ], [ -77.18692, 38.91319 ], [ -77.18767, 38.91442 ], [ -77.18766, 38.91484 ], [ -77.18693, 38.91512 ], [ -77.18757, 38.91674 ], [ -77.18667, 38.91706 ], [ -77.18603, 38.91629 ], [ -77.18511, 38.91662 ], [ -77.1844, 38.91561 ], [ -77.18365, 38.91579 ], [ -77.18328, 38.91551 ], [ -77.18155, 38.9163 ], [ -77.18059, 38.91577 ], [ -77.18021, 38.91624 ], [ -77.18065, 38.91714 ], [ -77.17995, 38.91754 ], [ -77.18126, 38.91958 ], [ -77.18083, 38.92027 ], [ -77.17995, 38.91994 ], [ -77.17917, 38.91868 ], [ -77.17791, 38.91865 ], [ -77.1778, 38.91789 ], [ -77.17846, 38.91767 ], [ -77.17771, 38.9166 ], [ -77.17644, 38.91772 ], [ -77.17573, 38.91921 ], [ -77.17222, 38.91824 ], [ -77.17322, 38.9188 ], [ -77.17279, 38.91949 ], [ -77.17025, 38.91864 ], [ -77.16957, 38.92008 ], [ -77.16866, 38.92036 ], [ -77.16829, 38.92006 ], [ -77.16849, 38.9193 ], [ -77.16582, 38.91827 ], [ -77.16662, 38.91639 ], [ -77.1651, 38.91588 ], [ -77.16463, 38.91633 ], [ -77.16411, 38.91626 ], [ -77.16343, 38.91483 ], [ -77.16199, 38.91511 ], [ -77.16158, 38.91441 ], [ -77.16532, 38.91278 ], [ -77.16351, 38.91219 ], [ -77.16313, 38.91148 ], [ -77.16381, 38.91119 ], [ -77.16353, 38.91066 ], [ -77.16382, 38.91035 ], [ -77.16331, 38.90977 ], [ -77.16358, 38.90941 ], [ -77.16614, 38.90957 ], [ -77.16616, 38.90878 ], [ -77.16566, 38.90849 ], [ -77.16608, 38.90775 ], [ -77.16537, 38.90726 ], [ -77.16554, 38.90687 ], [ -77.16732, 38.90668 ], [ -77.16779, 38.90688 ], [ -77.1678, 38.90778 ], [ -77.16877, 38.90816 ], [ -77.16851, 38.90889 ], [ -77.16757, 38.90885 ], [ -77.16752, 38.9095 ], [ -77.16755, 38.90975 ], [ -77.1684, 38.90973 ], [ -77.16854, 38.91135 ], [ -77.16897, 38.91142 ], [ -77.16954, 38.90864 ], [ -77.16903, 38.90695 ], [ -77.16808, 38.90596 ], [ -77.16809, 38.90496 ], [ -77.16582, 38.90439 ], [ -77.16559, 38.90359 ], [ -77.16402, 38.90393 ], [ -77.16362, 38.90346 ], [ -77.16253, 38.90399 ], [ -77.16164, 38.90396 ], [ -77.16125, 38.90261 ], [ -77.16165, 38.90234 ], [ -77.16262, 38.90258 ], [ -77.16234, 38.90131 ], [ -77.16218, 38.90068 ], [ -77.16122, 38.90053 ], [ -77.16069, 38.89988 ], [ -77.16152, 38.89947 ], [ -77.16334, 38.89976 ], [ -77.16315, 38.89888 ], [ -77.16419, 38.89868 ], [ -77.1649, 38.89807 ], [ -77.16472, 38.89734 ], [ -77.16595, 38.8966 ], [ -77.16576, 38.89583 ], [ -77.16663, 38.89557 ], [ -77.16603, 38.89501 ], [ -77.16667, 38.89348 ], [ -77.16762, 38.89401 ], [ -77.16864, 38.89371 ], [ -77.16906, 38.89396 ], [ -77.16914, 38.89437 ], [ -77.16807, 38.89507 ], [ -77.16911, 38.89536 ], [ -77.16932, 38.89574 ], [ -77.16876, 38.89633 ], [ -77.16906, 38.89689 ], [ -77.1699, 38.89675 ], [ -77.17023, 38.89707 ], [ -77.1707, 38.89853 ], [ -77.17104, 38.89841 ], [ -77.17133, 38.89652 ], [ -77.17202, 38.89598 ], [ -77.17509, 38.89692 ], [ -77.17528, 38.89806 ], [ -77.1767, 38.89773 ], [ -77.1788, 38.89826 ], [ -77.17942, 38.89955 ], [ -77.1806, 38.8994 ], [ -77.18071, 38.90002 ], [ -77.18118, 38.9002 ], [ -77.18346, 38.8993 ], [ -77.18086, 38.89525 ], [ -77.18173, 38.8949 ], [ -77.18293, 38.89635 ], [ -77.1839, 38.89586 ], [ -77.18435, 38.89495 ], [ -77.18559, 38.89548 ], [ -77.1867, 38.89543 ] ], [ [ -77.18051, 38.91363 ], [ -77.18401, 38.91206 ], [ -77.18363, 38.91126 ], [ -77.17945, 38.91342 ], [ -77.17857, 38.91302 ], [ -77.17828, 38.91182 ], [ -77.17737, 38.91201 ], [ -77.17778, 38.91271 ], [ -77.17648, 38.91357 ], [ -77.1783, 38.91509 ], [ -77.18051, 38.91363 ] ], [ [ -77.17753, 38.90977 ], [ -77.1784, 38.90928 ], [ -77.17553, 38.90932 ], [ -77.17509, 38.90863 ], [ -77.17583, 38.90812 ], [ -77.17561, 38.90756 ], [ -77.17332, 38.90782 ], [ -77.17349, 38.91066 ], [ -77.17532, 38.91054 ], [ -77.17602, 38.91 ], [ -77.17762, 38.91043 ], [ -77.17753, 38.90977 ] ], [ [ -77.17904, 38.90882 ], [ -77.17903, 38.90876 ], [ -77.17899, 38.90889 ], [ -77.17904, 38.90882 ] ], [ [ -77.18037, 38.90775 ], [ -77.18013, 38.90722 ], [ -77.18064, 38.90624 ], [ -77.17992, 38.90642 ], [ -77.17978, 38.90759 ], [ -77.17883, 38.90771 ], [ -77.17906, 38.90849 ], [ -77.18037, 38.90775 ] ], [ [ -77.17817, 38.90716 ], [ -77.17834, 38.90733 ], [ -77.17823, 38.90708 ], [ -77.17817, 38.90716 ] ], [ [ -77.17513, 38.9065 ], [ -77.17374, 38.90503 ], [ -77.17378, 38.90461 ], [ -77.17527, 38.90431 ], [ -77.17578, 38.90353 ], [ -77.1727, 38.90391 ], [ -77.17341, 38.90672 ], [ -77.17513, 38.9065 ] ], [ [ -77.17366, 38.89752 ], [ -77.17252, 38.89747 ], [ -77.17239, 38.89794 ], [ -77.17366, 38.89752 ] ], [ [ -77.18436, 38.90956 ], [ -77.18432, 38.90955 ], [ -77.18432, 38.90959 ], [ -77.18436, 38.90956 ] ], [ [ -77.18252, 38.90882 ], [ -77.18237, 38.90846 ], [ -77.18228, 38.9085 ], [ -77.18252, 38.90882 ] ], [ [ -77.18272, 38.90512 ], [ -77.18214, 38.90354 ], [ -77.18137, 38.90338 ], [ -77.18221, 38.90511 ], [ -77.18272, 38.90512 ] ], [ [ -77.18049, 38.90191 ], [ -77.18081, 38.90235 ], [ -77.18101, 38.90228 ], [ -77.18049, 38.90191 ] ], [ [ -77.18642, 38.8973 ], [ -77.1864, 38.89726 ], [ -77.18635, 38.89734 ], [ -77.18592, 38.89766 ], [ -77.18642, 38.8973 ] ], [ [ -77.1852, 38.90269 ], [ -77.18481, 38.90281 ], [ -77.18512, 38.90368 ], [ -77.1852, 38.90269 ] ], [ [ -77.18439, 38.90162 ], [ -77.18443, 38.90177 ], [ -77.18498, 38.90158 ], [ -77.18439, 38.90162 ] ], [ [ -77.18496, 38.90669 ], [ -77.18413, 38.90503 ], [ -77.18457, 38.90645 ], [ -77.18496, 38.90669 ] ], [ [ -77.18982, 38.90836 ], [ -77.18971, 38.90846 ], [ -77.19062, 38.90908 ], [ -77.18982, 38.90836 ] ], [ [ -77.18325, 38.9007 ], [ -77.18324, 38.90068 ], [ -77.18322, 38.90068 ], [ -77.18325, 38.9007 ] ], [ [ -77.18276, 38.90191 ], [ -77.18308, 38.90219 ], [ -77.18303, 38.90181 ], [ -77.18276, 38.90191 ] ], [ [ -77.18346, 38.90306 ], [ -77.1834, 38.90306 ], [ -77.18349, 38.90331 ], [ -77.18374, 38.90399 ], [ -77.18346, 38.90306 ] ], [ [ -77.18078, 38.91083 ], [ -77.18082, 38.91084 ], [ -77.18081, 38.91082 ], [ -77.18078, 38.91083 ] ], [ [ -77.17749, 38.90159 ], [ -77.17753, 38.90163 ], [ -77.17754, 38.90143 ], [ -77.17749, 38.90159 ] ], [ [ -77.18004, 38.90083 ], [ -77.17992, 38.90056 ], [ -77.17982, 38.90061 ], [ -77.18004, 38.90083 ] ], [ [ -77.17646, 38.90522 ], [ -77.17663, 38.90529 ], [ -77.17652, 38.90506 ], [ -77.17646, 38.90522 ] ], [ [ -77.1757, 38.9006 ], [ -77.17586, 38.90012 ], [ -77.1753, 38.90031 ], [ -77.1757, 38.9006 ] ], [ [ -77.17417, 38.89968 ], [ -77.17428, 38.89958 ], [ -77.17412, 38.89964 ], [ -77.17417, 38.89968 ] ], [ [ -77.17065, 38.91442 ], [ -77.17031, 38.91418 ], [ -77.17012, 38.91425 ], [ -77.17065, 38.91442 ] ], [ [ -77.17021, 38.91267 ], [ -77.17001, 38.91267 ], [ -77.17047, 38.9129 ], [ -77.17021, 38.91267 ] ], [ [ -77.17085, 38.90869 ], [ -77.17114, 38.90806 ], [ -77.1705, 38.9082 ], [ -77.17085, 38.90869 ] ], [ [ -77.17084, 38.90278 ], [ -77.17056, 38.90311 ], [ -77.17096, 38.90306 ], [ -77.17084, 38.90278 ] ], [ [ -77.16998, 38.90215 ], [ -77.16994, 38.90219 ], [ -77.17043, 38.90221 ], [ -77.16998, 38.90215 ] ], [ [ -77.16639, 38.89768 ], [ -77.16642, 38.89775 ], [ -77.16665, 38.89756 ], [ -77.16639, 38.89768 ] ], [ [ -77.17574, 38.91666 ], [ -77.17493, 38.91595 ], [ -77.17463, 38.91727 ], [ -77.17398, 38.91765 ], [ -77.17492, 38.91799 ], [ -77.17574, 38.91666 ] ], [ [ -77.17399, 38.9132 ], [ -77.17383, 38.91334 ], [ -77.17443, 38.91371 ], [ -77.17399, 38.9132 ] ], [ [ -77.17549, 38.9128 ], [ -77.17531, 38.91211 ], [ -77.17462, 38.9122 ], [ -77.17549, 38.9128 ] ], [ [ -77.17556, 38.91439 ], [ -77.17553, 38.91437 ], [ -77.17545, 38.91444 ], [ -77.17556, 38.91439 ] ], [ [ -77.17168, 38.90691 ], [ -77.17197, 38.90698 ], [ -77.17199, 38.90676 ], [ -77.17168, 38.90691 ] ], [ [ -77.1717, 38.91251 ], [ -77.17202, 38.91272 ], [ -77.17204, 38.91247 ], [ -77.1717, 38.91251 ] ], [ [ -77.17193, 38.90806 ], [ -77.17194, 38.90783 ], [ -77.17177, 38.90793 ], [ -77.17193, 38.90806 ] ], [ [ -77.17218, 38.9149 ], [ -77.17217, 38.91492 ], [ -77.17224, 38.91494 ], [ -77.17218, 38.9149 ] ], [ [ -77.16698, 38.90313 ], [ -77.16702, 38.90303 ], [ -77.16698, 38.90301 ], [ -77.16698, 38.90313 ] ], [ [ -77.16836, 38.90224 ], [ -77.16827, 38.90227 ], [ -77.16829, 38.90227 ], [ -77.16836, 38.90224 ] ], [ [ -77.16855, 38.89944 ], [ -77.16851, 38.89933 ], [ -77.16851, 38.8994 ], [ -77.16855, 38.89944 ] ], [ [ -77.16808, 38.91325 ], [ -77.16782, 38.91331 ], [ -77.16809, 38.9134 ], [ -77.16808, 38.91325 ] ], [ [ -77.16715, 38.91309 ], [ -77.16705, 38.91281 ], [ -77.16687, 38.91299 ], [ -77.16715, 38.91309 ] ], [ [ -77.16944, 38.91395 ], [ -77.16941, 38.91401 ], [ -77.16949, 38.91404 ], [ -77.16944, 38.91395 ] ], [ [ -77.16913, 38.91732 ], [ -77.16937, 38.9173 ], [ -77.16789, 38.91681 ], [ -77.16913, 38.91732 ] ], [ [ -77.16623, 38.91396 ], [ -77.16566, 38.91401 ], [ -77.16602, 38.91413 ], [ -77.16623, 38.91396 ] ] ] } },
{ "type": "Feature", "properties": { "variant": "T2s", "miles": 2.0 }, "geometry": { "type": "Polygon", "coordinates": [ [ [ -77.19517, 38.89283 ], [ -77.19383, 38.89454 ], [ -77.19523, 38.89534 ], [ -77.19486, 38.89678 ], [ -77.19592, 38.8976 ], [ -77.19603, 38.89836 ], [ -77.19506, 38.89844 ], [ -77.19312, 38.8972 ], [ -77.19149, 38.898 ], [ -77.19041, 38.89769 ], [ -77.19101, 38.89847 ], [ -77.19075, 38.89921 ], [ -77.19023, 38.89926 ], [ -77.18898, 38.89823 ], [ -77.18763, 38.90015 ], [ -77.18509, 38.89975 ], [ -77.1844, 38.90019 ], [ -77.1862, 38.90105 ], [ -77.18673, 38.90348 ], [ -77.18734, 38.90391 ], [ -77.18689, 38.90445 ], [ -77.18727, 38.90795 ], [ -77.18643, 38.90897 ], [ -77.18757, 38.90869 ], [ -77.18851, 38.90789 ], [ -77.1878, 38.90781 ], [ -77.18759, 38.90743 ], [ -77.18787, 38.90698 ], [ -77.18748, 38.90631 ], [ -77.18803, 38.90538 ], [ -77.19085, 38.90373 ], [ -77.19182, 38.90362 ], [ -77.19196, 38.90438 ], [ -77.19011, 38.90556 ], [ -77.19071, 38.90597 ], [ -77.19207, 38.90438 ], [ -77.19292, 38.90401 ], [ -77.19253, 38.90353 ], [ -77.19277, 38.90316 ], [ -77.19403, 38.90297 ], [ -77.19527, 38.90181 ], [ -77.19509, 38.90094 ], [ -77.19549, 38.90067 ], [ -77.19626, 38.90091 ], [ -77.1973, 38.90007 ], [ -77.1982, 38.90038 ], [ -77.19712, 38.90178 ], [ -77.19788, 38.9025 ], [ -77.19712, 38.90305 ], [ -77.1983, 38.90383 ], [ -77.1984, 38.90459 ], [ -77.19742, 38.90467 ], [ -77.19542, 38.90333 ], [ -77.19464, 38.90409 ], [ -77.19762, 38.90504 ], [ -77.19767, 38.90636 ], [ -77.1953, 38.90719 ], [ -77.1953, 38.9078 ], [ -77.19487, 38.90804 ], [ -77.19383, 38.90754 ], [ -77.19367, 38.90783 ], [ -77.19499, 38.90853 ], [ -77.19506, 38.90929 ], [ -77.19458, 38.90947 ], [ -77.19366, 38.90907 ], [ -77.19357, 38.90952 ], [ -77.19281, 38.90967 ], [ -77.19163, 38.91091 ], [ -77.19133, 38.91239 ], [ -77.19042, 38.91265 ], [ -77.18948, 38.91209 ], [ -77.18835, 38.91217 ], [ -77.18759, 38.91062 ], [ -77.18837, 38.91016 ], [ -77.18903, 38.91058 ], [ -77.18975, 38.90992 ], [ -77.18882, 38.90929 ], [ -77.18525, 38.91041 ], [ -77.18494, 38.91092 ], [ -77.18731, 38.91152 ], [ -77.18864, 38.91262 ], [ -77.18803, 38.91324 ], [ -77.18724, 38.91325 ], [ -77.18642, 38.91241 ], [ -77.18559, 38.91224 ], [ -77.1861, 38.91332 ], [ -77.18692, 38.91319 ], [ -77.18724, 38.91351 ], [ -77.18766, 38.91484 ], [ -77.18693, 38.91512 ], [ -77.18864, 38.91848 ], [ -77.18957, 38.91781 ], [ -77.18905, 38.91721 ], [ -77.18933, 38.91686 ], [ -77.19094, 38.91647 ], [ -77.19319, 38.91955 ], [ -77.19323, 38.91997 ], [ -77.19061, 38.92204 ], [ -77.18893, 38.92281 ], [ -77.18833, 38.92246 ], [ -77.18693, 38.92258 ], [ -77.18642, 38.92247 ], [ -77.18631, 38.92171 ], [ -77.18795, 38.92141 ], [ -77.18781, 38.92115 ], [ -77.18501, 38.92106 ], [ -77.1843, 38.92183 ], [ -77.18289, 38.92226 ], [ -77.18252, 38.92259 ], [ -77.1825, 38.92351 ], [ -77.18297, 38.92234 ], [ -77.18347, 38.92222 ], [ -77.18409, 38.92281 ], [ -77.18389, 38.92559 ], [ -77.18308, 38.92586 ], [ -77.18343, 38.92679 ], [ -77.18254, 38.92711 ], [ -77.18137, 38.92555 ], [ -77.18072, 38.92595 ], [ -77.17749, 38.92543 ], [ -77.17712, 38.9248 ], [ -77.17742, 38.92385 ], [ -77.17662, 38.92339 ], [ -77.17546, 38.92346 ], [ -77.17483, 38.92422 ], [ -77.17268, 38.92376 ], [ -77.17236, 38.92264 ], [ -77.17142, 38.92255 ], [ -77.17115, 38.9222 ], [ -77.17248, 38.92112 ], [ -77.17186, 38.92044 ], [ -77.17024, 38.92242 ], [ -77.17154, 38.9235 ], [ -77.17166, 38.92465 ], [ -77.17067, 38.92507 ], [ -77.17032, 38.92427 ], [ -77.16955, 38.92422 ], [ -77.16918, 38.92573 ], [ -77.16822, 38.92558 ], [ -77.16817, 38.92452 ], [ -77.1662, 38.924 ], [ -77.16542, 38.92444 ], [ -77.16492, 38.9243 ], [ -77.1629, 38.9229 ], [ -77.16224, 38.92374 ], [ -77.16171, 38.92374 ], [ -77.16135, 38.92303 ], [ -77.1618, 38.9222 ], [ -77.16089, 38.92154 ], [ -77.16099, 38.92113 ], [ -77.16142, 38.9209 ], [ -77.16235, 38.92118 ], [ -77.1633, 38.9194 ], [ -77.16254, 38.91879 ], [ -77.16167, 38.91875 ], [ -77.1619, 38.91681 ], [ -77.1608, 38.91625 ], [ -77.15744, 38.91814 ], [ -77.15576, 38.9201 ], [ -77.15478, 38.92018 ], [ -77.15468, 38.91942 ], [ -77.15568, 38.91808 ], [ -77.15497, 38.91764 ], [ -77.15493, 38.91635 ], [ -77.15742, 38.91487 ], [ -77.15801, 38.91374 ], [ -77.15732, 38.91306 ], [ -77.1576, 38.91195 ], [ -77.15647, 38.91206 ], [ -77.15596, 38.91141 ], [ -77.15689, 38.91086 ], [ -77.1584, 38.90774 ], [ -77.15759, 38.90826 ], [ -77.15688, 38.9077 ], [ -77.15599, 38.90831 ], [ -77.15529, 38.90777 ], [ -77.15588, 38.90676 ], [ -77.15513, 38.9061 ], [ -77.15613, 38.9057 ], [ -77.15652, 38.90489 ], [ -77.15548, 38.90398 ], [ -77.15565, 38.90359 ], [ -77.15677, 38.90336 ], [ -77.15584, 38.90333 ], [ -77.15495, 38.90408 ], [ -77.15397, 38.90411 ], [ -77.15406, 38.90324 ], [ -77.15355, 38.90252 ], [ -77.15483, 38.9013 ], [ -77.15393, 38.90121 ], [ -77.15355, 38.90065 ], [ -77.15427, 38.90014 ], [ -77.15575, 38.9002 ], [ -77.15622, 38.89881 ], [ -77.15594, 38.89938 ], [ -77.15496, 38.89941 ], [ -77.15469, 38.89824 ], [ -77.15367, 38.89775 ], [ -77.15459, 38.89716 ], [ -77.15475, 38.89662 ], [ -77.15559, 38.89642 ], [ -77.15597, 38.89416 ], [ -77.15747, 38.89359 ], [ -77.15806, 38.89373 ], [ -77.15998, 38.89272 ], [ -77.15983, 38.8911 ], [ -77.16207, 38.88992 ], [ -77.16057, 38.88864 ], [ -77.16051, 38.88787 ], [ -77.16149, 38.88782 ], [ -77.16331, 38.88938 ], [ -77.16391, 38.88936 ], [ -77.16568, 38.88778 ], [ -77.16579, 38.88696 ], [ -77.16763, 38.88708 ], [ -77.16812, 38.88774 ], [ -77.16724, 38.8883 ], [ -77.16787, 38.88892 ], [ -77.16737, 38.88949 ], [ -77.17208, 38.88989 ], [ -77.17244, 38.89122 ], [ -77.17446, 38.89092 ], [ -77.17605, 38.89312 ], [ -77.17506, 38.89108 ], [ -77.17562, 38.89066 ], [ -77.17666, 38.89079 ], [ -77.178, 38.88945 ], [ -77.17949, 38.89017 ], [ -77.18052, 38.88944 ], [ -77.18103, 38.88956 ], [ -77.18298, 38.89082 ], [ -77.1841, 38.89092 ], [ -77.18456, 38.89139 ], [ -77.18477, 38.89282 ], [ -77.18634, 38.89158 ], [ -77.18912, 38.89314 ], [ -77.19041, 38.89187 ], [ -77.19209, 38.89201 ], [ -77.19288, 38.89145 ], [ -77.19517, 38.89283 ] ], [ [ -77.17695, 38.92061 ], [ -77.17632, 38.92126 ], [ -77.17509, 38.92042 ], [ -77.17467, 38.92073 ], [ -77.17535, 38.92144 ], [ -77.17372, 38.92294 ], [ -77.17474, 38.92245 ], [ -77.17681, 38.92231 ], [ -77.17695, 38.92061 ] ], [ [ -77.17574, 38.91666 ], [ -77.17493, 38.91595 ], [ -77.17443, 38.91748 ], [ -77.17505, 38.91757 ], [ -77.17574, 38.91666 ] ], [ [ -77.17545, 38.91444 ], [ -77.17542, 38.9145 ], [ -77.17556, 38.91439 ], [ -77.17545, 38.91444 ] ], [ [ -77.17823, 38.91515 ], [ -77.18051, 38.91363 ], [ -77.18401, 38.91206 ], [ -77.18363, 38.91126 ], [ -77.17945, 38.91342 ], [ -77.17857, 38.91302 ], [ -77.17828, 38.91182 ], [ -77.17737, 38.91201 ], [ -77.17778, 38.91271 ], [ -77.17692, 38.91302 ], [ -77.17648, 38.91357 ], [ -77.17823, 38.91515 ] ], [ [ -77.17531, 38.91211 ], [ -77.17462, 38.9122 ], [ -77.17549, 38.9128 ], [ -77.17531, 38.91211 ] ], [ [ -77.17602, 38.91 ], [ -77.17758, 38.91048 ], [ -77.17753, 38.90977 ], [ -77.1784, 38.90928 ], [ -77.17553, 38.90932 ], [ -77.17509, 38.90863 ], [ -77.17583, 38.90812 ], [ -77.17561, 38.90756 ], [ -77.17332, 38.90782 ], [ -77.17349, 38.91066 ], [ -77.17531, 38.91052 ], [ -77.17602, 38.91 ] ], [ [ -77.17194, 38.90783 ], [ -77.1716, 38.90796 ], [ -77.17193, 38.90806 ], [ -77.17194, 38.90783 ] ], [ [ -77.17199, 38.90676 ], [ -77.17168, 38.90691 ], [ -77.17197, 38.90698 ], [ -77.17199, 38.90676 ] ], [ [ -77.17133, 38.89652 ], [ -77.17202, 38.89598 ], [ -77.17509, 38.89692 ], [ -77.17528, 38.89806 ], [ -77.1767, 38.89773 ], [ -77.1788, 38.89826 ], [ -77.17942, 38.89955 ], [ -77.1806, 38.8994 ], [ -77.18071, 38.90002 ], [ -77.18118, 38.9002 ], [ -77.18346, 38.8993 ], [ -77.18061, 38.8952 ], [ -77.17981, 38.89567 ], [ -77.1795, 38.89642 ], [ -77.17897, 38.89644 ], [ -77.17723, 38.894 ], [ -77.17665, 38.89412 ], [ -77.17719, 38.89527 ], [ -77.17627, 38.89558 ], [ -77.17593, 38.89624 ], [ -77.17503, 38.89598 ], [ -77.1744, 38.89646 ], [ -77.1739, 38.89631 ], [ -77.17367, 38.89558 ], [ -77.17088, 38.89554 ], [ -77.17037, 38.8963 ], [ -77.16927, 38.89565 ], [ -77.16873, 38.89625 ], [ -77.16906, 38.89689 ], [ -77.1699, 38.89675 ], [ -77.1707, 38.89853 ], [ -77.17133, 38.89652 ] ], [ [ -77.17125, 38.89438 ], [ -77.1697, 38.89444 ], [ -77.17055, 38.89509 ], [ -77.17125, 38.89438 ] ], [ [ -77.17115, 38.89266 ], [ -77.17064, 38.89273 ], [ -77.1708, 38.89331 ], [ -77.17115, 38.89266 ] ], [ [ -77.17104, 38.8909 ], [ -77.16897, 38.89124 ], [ -77.16947, 38.8922 ], [ -77.16878, 38.89274 ], [ -77.1675, 38.89236 ], [ -77.16704, 38.89089 ], [ -77.167, 38.89238 ], [ -77.16765, 38.89286 ], [ -77.16737, 38.89341 ], [ -77.16927, 38.89341 ], [ -77.1696, 38.89266 ], [ -77.17024, 38.89252 ], [ -77.17029, 38.89185 ], [ -77.17108, 38.89151 ], [ -77.17104, 38.8909 ] ], [ [ -77.1873, 38.92011 ], [ -77.18543, 38.92002 ], [ -77.18641, 38.92016 ], [ -77.1873, 38.92011 ] ], [ [ -77.18654, 38.91725 ], [ -77.18647, 38.91727 ], [ -77.18657, 38.9173 ], [ -77.18654, 38.91725 ] ], [ [ -77.18252, 38.90882 ], [ -77.18237, 38.90846 ], [ -77.18228, 38.9085 ], [ -77.18252, 38.90882 ] ], [ [ -77.18214, 38.90354 ], [ -77.18137, 38.90338 ], [ -77.18226, 38.90525 ], [ -77.18272, 38.90512 ], [ -77.18214, 38.90354 ] ], [ [ -77.18303, 38.90181 ], [ -77.18276, 38.90191 ], [ -77.18309, 38.90204 ], [ -77.18303, 38.90181 ] ], [ [ -77.18612, 38.89752 ], [ -77.18611, 38.89751 ], [ -77.18591, 38.89765 ], [ -77.18612, 38.89752 ] ], [ [ -77.19123, 38.89293 ], [ -77.19022, 38.8938 ], [ -77.19031, 38.89385 ], [ -77.19123, 38.89293 ] ], [ [ -77.19188, 38.89483 ], [ -77.19238, 38.89428 ], [ -77.19192, 38.89408 ], [ -77.19159, 38.89465 ], [ -77.19188, 38.89483 ] ], [ [ -77.18618, 38.89319 ], [ -77.18724, 38.89415 ], [ -77.1877, 38.89365 ], [ -77.1865, 38.89288 ], [ -77.18618, 38.89319 ] ], [ [ -77.1876, 38.8955 ], [ -77.18823, 38.8959 ], [ -77.18937, 38.89478 ], [ -77.18878, 38.89433 ], [ -77.1876, 38.8955 ] ], [ [ -77.18925, 38.89689 ], [ -77.18917, 38.89684 ], [ -77.18904, 38.89696 ], [ -77.18925, 38.89689 ] ], [ [ -77.18982, 38.90836 ], [ -77.18971, 38.90846 ], [ -77.19062, 38.90908 ], [ -77.18982, 38.90836 ] ], [ [ -77.19214, 38.90838 ], [ -77.19233, 38.90836 ], [ -77.19094, 38.90742 ], [ -77.19214, 38.90838 ] ], [ [ -77.19301, 38.90552 ], [ -77.19183, 38.9066 ], [ -77.19256, 38.90708 ], [ -77.19264, 38.90603 ], [ -77.19362, 38.90597 ], [ -77.19301, 38.90552 ] ], [ [ -77.19155, 38.91942 ], [ -77.19139, 38.91918 ], [ -77.19125, 38.91924 ], [ -77.19155, 38.91942 ] ], [ [ -77.19047, 38.91863 ], [ -77.19037, 38.9187 ], [ -77.19045, 38.91875 ], [ -77.19047, 38.91863 ] ], [ [ -77.18568, 38.90679 ], [ -77.18568, 38.90666 ], [ -77.18545, 38.90672 ], [ -77.18568, 38.90679 ] ], [ [ -77.18481, 38.90281 ], [ -77.18512, 38.90368 ], [ -77.18536, 38.90363 ], [ -77.18522, 38.90284 ], [ -77.18481, 38.90281 ] ], [ [ -77.18443, 38.90177 ], [ -77.18498, 38.90158 ], [ -77.18491, 38.90141 ], [ -77.18443, 38.90177 ] ], [ [ -77.18969, 38.90689 ], [ -77.18981, 38.90679 ], [ -77.18895, 38.9062 ], [ -77.18969, 38.90689 ] ], [ [ -77.18981, 38.91677 ], [ -77.18985, 38.91676 ], [ -77.18981, 38.91676 ], [ -77.18981, 38.91677 ] ], [ [ -77.18945, 38.9213 ], [ -77.19001, 38.92099 ], [ -77.18892, 38.92038 ], [ -77.18945, 38.9213 ] ], [ [ -77.18324, 38.90068 ], [ -77.18322, 38.90068 ], [ -77.18325, 38.9007 ], [ -77.18324, 38.90068 ] ], [ [ -77.18369, 38.89499 ], [ -77.18368, 38.89494 ], [ -77.18364, 38.89497 ], [ -77.18369, 38.89499 ] ], [ [ -77.18345, 38.89332 ], [ -77.18319, 38.89335 ], [ -77.18333, 38.89353 ], [ -77.18349, 38.89373 ], [ -77.18345, 38.89332 ] ], [ [ -77.18417, 38.90502 ], [ -77.18413, 38.90503 ], [ -77.1847, 38.90674 ], [ -77.18496, 38.90669 ], [ -77.18417, 38.90502 ] ], [ [ -77.18308, 38.90616 ], [ -77.18276, 38.90626 ], [ -77.18384, 38.90847 ], [ -77.18467, 38.9085 ], [ -77.18498, 38.9078 ], [ -77.18367, 38.9076 ], [ -77.18308, 38.90616 ] ], [ [ -77.18346, 38.90306 ], [ -77.1834, 38.90306 ], [ -77.18349, 38.90331 ], [ -77.18374, 38.90399 ], [ -77.18346, 38.90306 ] ], [ [ -77.18436, 38.90956 ], [ -77.18432, 38.90955 ], [ -77.18432, 38.90959 ], [ -77.18436, 38.90956 ] ], [ [ -77.1793, 38.92042 ], [ -77.1792, 38.92042 ], [ -77.17923, 38.92047 ], [ -77.1793, 38.92042 ] ], [ [ -77.18382, 38.92049 ], [ -77.18375, 38.92036 ], [ -77.18352, 38.92053 ], [ -77.18382, 38.92049 ] ], [ [ -77.18176, 38.91865 ], [ -77.18183, 38.91871 ], [ -77.18185, 38.91861 ], [ -77.18176, 38.91865 ] ], [ [ -77.18382, 38.91579 ], [ -77.18403, 38.91612 ], [ -77.18451, 38.91581 ], [ -77.18382, 38.91579 ] ], [ [ -77.18385, 38.91764 ], [ -77.18377, 38.91762 ], [ -77.18381, 38.91771 ], [ -77.18385, 38.91764 ] ], [ [ -77.17995, 38.91754 ], [ -77.18031, 38.91805 ], [ -77.1812, 38.91766 ], [ -77.18065, 38.91714 ], [ -77.17995, 38.91754 ] ], [ [ -77.1786, 38.92458 ], [ -77.17876, 38.9246 ], [ -77.17868, 38.92437 ], [ -77.1786, 38.92458 ] ], [ [ -77.17955, 38.89236 ], [ -77.17869, 38.89222 ], [ -77.17889, 38.89256 ], [ -77.17955, 38.89236 ] ], [ [ -77.18124, 38.89154 ], [ -77.18164, 38.89134 ], [ -77.18068, 38.89074 ], [ -77.18027, 38.89138 ], [ -77.18124, 38.89154 ] ], [ [ -77.17752, 38.89283 ], [ -77.17691, 38.89194 ], [ -77.1771, 38.89225 ], [ -77.17752, 38.89283 ] ], [ [ -77.17392, 38.89216 ], [ -77.17358, 38.89308 ], [ -77.17255, 38.89304 ], [ -77.17255, 38.8933 ], [ -77.17459, 38.89325 ], [ -77.17392, 38.89216 ] ], [ [ -77.17899, 38.90889 ], [ -77.17905, 38.90889 ], [ -77.17903, 38.90876 ], [ -77.17899, 38.90889 ] ], [ [ -77.18037, 38.90775 ], [ -77.18013, 38.90722 ], [ -77.18064, 38.90624 ], [ -77.17992, 38.90642 ], [ -77.17978, 38.90759 ], [ -77.17883, 38.90771 ], [ -77.17904, 38.90862 ], [ -77.18037, 38.90775 ] ], [ [ -77.18101, 38.90228 ], [ -77.18067, 38.90181 ], [ -77.18049, 38.90191 ], [ -77.18101, 38.90228 ] ], [ [ -77.17982, 38.90061 ], [ -77.17993, 38.90089 ], [ -77.18004, 38.90083 ], [ -77.17982, 38.90061 ] ], [ [ -77.18081, 38.91082 ], [ -77.18078, 38.91083 ], [ -77.18082, 38.91084 ], [ -77.18081, 38.91082 ] ], [ [ -77.17378, 38.90461 ], [ -77.17527, 38.90431 ], [ -77.17578, 38.90353 ], [ -77.1727, 38.90391 ], [ -77.17338, 38.90672 ], [ -77.17502, 38.90639 ], [ -77.17378, 38.90461 ] ], [ [ -77.17578, 38.90026 ], [ -77.17586, 38.90012 ], [ -77.1753, 38.90031 ], [ -77.17578, 38.90026 ] ], [ [ -77.17417, 38.89968 ], [ -77.17428, 38.89958 ], [ -77.17412, 38.89964 ], [ -77.17417, 38.89968 ] ], [ [ -77.17753, 38.90163 ], [ -77.17754, 38.90143 ], [ -77.17735, 38.9015 ], [ -77.17753, 38.90163 ] ], [ [ -77.17646, 38.90522 ], [ -77.17663, 38.90529 ], [ -77.17652, 38.90506 ], [ -77.17646, 38.90522 ] ], [ [ -77.17834, 38.90733 ], [ -77.17823, 38.90708 ], [ -77.17817, 38.90716 ], [ -77.17834, 38.90733 ] ], [ [ -77.17252, 38.89747 ], [ -77.17239, 38.89794 ], [ -77.17308, 38.89771 ], [ -77.17348, 38.89757 ], [ -77.17252, 38.89747 ] ], [ [ -77.16711, 38.92071 ], [ -77.16672, 38.92093 ], [ -77.16709, 38.92106 ], [ -77.16711, 38.92071 ] ], [ [ -77.16589, 38.91384 ], [ -77.16566, 38.91401 ], [ -77.16602, 38.91413 ], [ -77.16589, 38.91384 ] ], [ [ -77.16589, 38.90866 ], [ -77.16614, 38.90951 ], [ -77.16612, 38.9091 ], [ -77.16589, 38.90866 ] ], [ [ -77.16531, 38.90593 ], [ -77.16361, 38.90583 ], [ -77.16401, 38.9071 ], [ -77.16534, 38.90673 ], [ -77.16531, 38.90593 ] ], [ [ -77.16744, 38.90483 ], [ -77.1667, 38.90446 ], [ -77.16543, 38.9047 ], [ -77.16744, 38.90483 ] ], [ [ -77.16282, 38.89087 ], [ -77.16301, 38.89073 ], [ -77.16271, 38.89093 ], [ -77.16282, 38.89087 ] ], [ [ -77.17343, 38.91915 ], [ -77.17361, 38.92001 ], [ -77.17428, 38.91927 ], [ -77.17353, 38.91868 ], [ -77.17222, 38.91824 ], [ -77.17343, 38.91915 ] ], [ [ -77.1687, 38.91722 ], [ -77.16937, 38.9173 ], [ -77.16789, 38.91681 ], [ -77.1687, 38.91722 ] ], [ [ -77.16941, 38.91401 ], [ -77.16949, 38.91404 ], [ -77.16944, 38.91395 ], [ -77.16941, 38.91401 ] ], [ [ -77.16954, 38.90864 ], [ -77.16903, 38.90694 ], [ -77.16799, 38.90583 ], [ -77.16757, 38.90592 ], [ -77.16804, 38.90648 ], [ -77.1678, 38.9068 ], [ -77.16875, 38.90679 ], [ -77.16897, 38.90717 ], [ -77.16872, 38.9092 ], [ -77.16825, 38.90969 ], [ -77.16864, 38.9101 ], [ -77.16854, 38.91135 ], [ -77.16897, 38.91142 ], [ -77.16954, 38.90864 ] ], [ [ -77.16835, 38.90228 ], [ -77.16836, 38.90224 ], [ -77.16827, 38.90227 ], [ -77.16835, 38.90228 ] ], [ [ -77.16851, 38.89933 ], [ -77.16844, 38.89947 ], [ -77.16851, 38.8994 ], [ -77.16851, 38.89933 ] ], [ [ -77.17408, 38.91769 ], [ -77.1742, 38.9176 ], [ -77.17411, 38.91763 ], [ -77.17408, 38.91769 ] ], [ [ -77.17218, 38.9149 ], [ -77.17217, 38.91492 ], [ -77.17224, 38.91494 ], [ -77.17218, 38.9149 ] ], [ [ -77.1717, 38.91251 ], [ -77.17202, 38.91272 ], [ -77.17204, 38.91247 ], [ -77.1717, 38.91251 ] ], [ [ -77.17383, 38.91334 ], [ -77.17443, 38.91371 ], [ -77.17455, 38.9136 ], [ -77.17383, 38.91334 ] ], [ [ -77.17085, 38.90869 ], [ -77.17114, 38.90806 ], [ -77.1705, 38.9082 ], [ -77.17036, 38.90848 ], [ -77.17085, 38.90869 ] ], [ [ -77.17025, 38.90196 ], [ -77.16994, 38.90219 ], [ -77.17043, 38.90221 ], [ -77.17025, 38.90196 ] ], [ [ -77.17081, 38.90296 ], [ -77.17056, 38.90311 ], [ -77.17101, 38.90305 ], [ -77.17081, 38.90296 ] ], [ [ -77.17012, 38.91425 ], [ -77.17065, 38.91442 ], [ -77.17031, 38.91418 ], [ -77.17012, 38.91425 ] ], [ [ -77.17057, 38.91264 ], [ -77.17001, 38.91267 ], [ -77.17047, 38.9129 ], [ -77.17057, 38.91264 ] ], [ [ -77.16934, 38.92202 ], [ -77.16934, 38.92191 ], [ -77.1692, 38.92196 ], [ -77.16934, 38.92202 ] ], [ [ -77.16516, 38.89412 ], [ -77.16604, 38.89373 ], [ -77.166, 38.89362 ], [ -77.16493, 38.89391 ], [ -77.16516, 38.89412 ] ], [ [ -77.16566, 38.89047 ], [ -77.16455, 38.89041 ], [ -77.16565, 38.89102 ], [ -77.16566, 38.89047 ] ], [ [ -77.16639, 38.89768 ], [ -77.16642, 38.89775 ], [ -77.16665, 38.89756 ], [ -77.16639, 38.89768 ] ], [ [ -77.16754, 38.90969 ], [ -77.16755, 38.90975 ], [ -77.16764, 38.90971 ], [ -77.16754, 38.90969 ] ], [ [ -77.16698, 38.90301 ], [ -77.16698, 38.90313 ], [ -77.16702, 38.90303 ], [ -77.16698, 38.90301 ] ], [ [ -77.16776, 38.90684 ], [ -77.16771, 38.90685 ], [ -77.16775, 38.90686 ], [ -77.16776, 38.90684 ] ], [ [ -77.16782, 38.91331 ], [ -77.16809, 38.9134 ], [ -77.16808, 38.91325 ], [ -77.16782, 38.91331 ] ], [ [ -77.16687, 38.91299 ], [ -77.16715, 38.91309 ], [ -77.16705, 38.91281 ], [ -77.16687, 38.91299 ] ], [ [ -77.16534, 38.92314 ], [ -77.16565, 38.92286 ], [ -77.16349, 38.92183 ], [ -77.16534, 38.92314 ] ], [ [ -77.1637, 38.91659 ], [ -77.16407, 38.91663 ], [ -77.164, 38.91646 ], [ -77.1637, 38.91659 ] ], [ [ -77.16532, 38.91278 ], [ -77.16393, 38.91233 ], [ -77.16433, 38.91346 ], [ -77.16532, 38.91278 ] ], [ [ -77.16376, 38.91041 ], [ -77.16345, 38.91044 ], [ -77.16303, 38.91145 ], [ -77.16381, 38.91119 ], [ -77.16376, 38.91041 ] ], [ [ -77.16255, 38.90727 ], [ -77.161, 38.90666 ], [ -77.16113, 38.90874 ], [ -77.16246, 38.9087 ], [ -77.16375, 38.90937 ], [ -77.16255, 38.90727 ] ], [ [ -77.16365, 38.90449 ], [ -77.16403, 38.90477 ], [ -77.16406, 38.90447 ], [ -77.16365, 38.90449 ] ], [ [ -77.16291, 38.90386 ], [ -77.16299, 38.9039 ], [ -77.16301, 38.90381 ], [ -77.16291, 38.90386 ] ], [ [ -77.15866, 38.90317 ], [ -77.15872, 38.90456 ], [ -77.15939, 38.90564 ], [ -77.16066, 38.9046 ], [ -77.16011, 38.9042 ], [ -77.15911, 38.90426 ], [ -77.15866, 38.90317 ] ], [ [ -77.15908, 38.90091 ], [ -77.15843, 38.90042 ], [ -77.15752, 38.90062 ], [ -77.15731, 38.9008 ], [ -77.15918, 38.90203 ], [ -77.15908, 38.90091 ] ], [ [ -77.16072, 38.8955 ], [ -77.162, 38.89436 ], [ -77.16126, 38.89335 ], [ -77.15924, 38.89441 ], [ -77.16072, 38.8955 ] ], [ [ -77.16334, 38.89961 ], [ -77.16319, 38.89973 ], [ -77.16334, 38.89976 ], [ -77.16334, 38.89961 ] ], [ [ -77.16466, 38.90825 ], [ -77.16508, 38.90809 ], [ -77.1646, 38.90808 ], [ -77.16466, 38.90825 ] ], [ [ -77.1656, 38.91612 ], [ -77.16584, 38.91613 ], [ -77.16524, 38.91593 ], [ -77.1656, 38.91612 ] ], [ [ -77.16579, 38.91721 ], [ -77.16572, 38.91721 ], [ -77.16604, 38.91725 ], [ -77.16579, 38.91721 ] ], [ [ -77.16534, 38.91838 ], [ -77.16551, 38.91831 ], [ -77.16541, 38.91824 ], [ -77.16534, 38.91838 ] ], [ [ -77.16586, 38.92055 ], [ -77.16584, 38.92055 ], [ -77.16587, 38.92056 ], [ -77.16586, 38.92055 ] ], [ [ -77.16565, 38.92175 ], [ -77.16583, 38.92179 ], [ -77.16544, 38.92161 ], [ -77.16565, 38.92175 ] ], [ [ -77.16154, 38.90168 ], [ -77.1625, 38.90266 ], [ -77.16262, 38.90258 ], [ -77.16224, 38.90137 ], [ -77.16154, 38.90168 ] ], [ [ -77.16083, 38.90236 ], [ -77.16083, 38.90233 ], [ -77.16073, 38.9024 ], [ -77.16083, 38.90236 ] ], [ [ -77.16042, 38.90297 ], [ -77.1607, 38.90243 ], [ -77.16039, 38.90273 ], [ -77.16042, 38.90297 ] ], [ [ -77.15967, 38.91526 ], [ -77.15924, 38.91589 ], [ -77.16019, 38.91519 ], [ -77.15967, 38.91526 ] ], [ [ -77.15883, 38.91286 ], [ -77.1589, 38.91233 ], [ -77.15883, 38.91269 ], [ -77.15883, 38.91286 ] ], [ [ -77.1591, 38.91186 ], [ -77.15895, 38.91218 ], [ -77.15892, 38.91227 ], [ -77.1591, 38.91186 ] ], [ [ -77.16027, 38.91252 ], [ -77.16192, 38.91247 ], [ -77.16269, 38.91389 ], [ -77.16302, 38.9138 ], [ -77.16253, 38.91249 ], [ -77.16116, 38.9117 ], [ -77.16212, 38.90975 ], [ -77.16067, 38.91005 ], [ -77.15973, 38.91097 ], [ -77.16077, 38.91108 ], [ -77.16027, 38.91252 ] ], [ [ -77.15896, 38.90971 ], [ -77.15867, 38.91026 ], [ -77.15893, 38.91006 ], [ -77.15896, 38.90971 ] ], [ [ -77.1598, 38.90827 ], [ -77.15977, 38.90795 ], [ -77.15946, 38.90868 ], [ -77.1598, 38.90827 ] ], [ [ -77.16199, 38.90559 ], [ -77.16166, 38.90535 ], [ -77.16133, 38.90561 ], [ -77.16199, 38.90559 ] ], [ [ -77.16196, 38.90408 ], [ -77.162, 38.90411 ], [ -77.16203, 38.90407 ], [ -77.16196, 38.90408 ] ], [ [ -77.16076, 38.91416 ], [ -77.16118, 38.91443 ], [ -77.1611, 38.91346 ], [ -77.16076, 38.91416 ] ], [ [ -77.1572, 38.9071 ], [ -77.15712, 38.90731 ], [ -77.15745, 38.90682 ], [ -77.1572, 38.9071 ] ], [ [ -77.15762, 38.90556 ], [ -77.15759, 38.90564 ], [ -77.15765, 38.90564 ], [ -77.15762, 38.90556 ] ], [ [ -77.15788, 38.91593 ], [ -77.15704, 38.91636 ], [ -77.15752, 38.91667 ], [ -77.15877, 38.91611 ], [ -77.15788, 38.91593 ] ], [ [ -77.1563, 38.91728 ], [ -77.15634, 38.91747 ], [ -77.15646, 38.91738 ], [ -77.1563, 38.91728 ] ] ] } }
]
}
