{
"type": "FeatureCollection",
"name": "320",
"crs": { "type": "name", "properties": { "name": "urn:ogc:def:crs:OGC:1.3:CRS84" } },
"xy_coordinate_resolution": 1e-05,
"features": [
{ "type": "Feature", "properties": { "variant": "T0", "miles": 1.0 }, "geometry": { "type": "Polygon", "coordinates": [ [ [ -77.34659, 38.93126 ], [ -77.34813, 38.93057 ], [ -77.34962, 38.93112 ], [ -77.34981, 38.9321 ], [ -77.35043, 38.93265 ], [ -77.34996, 38.93309 ], [ -77.34981, 38.93455 ], [ -77.35021, 38.93476 ], [ -77.35058, 38.93397 ], [ -77.35156, 38.93401 ], [ -77.35135, 38.93538 ], [ -77.35197, 38.93621 ], [ -77.35173, 38.93658 ], [ -77.35082, 38.93654 ], [ -77.35017, 38.93695 ], [ -77.34882, 38.93556 ], [ -77.34706, 38.93602 ], [ -77.34608, 38.93557 ], [ -77.3461, 38.93636 ], [ -77.34726, 38.93678 ], [ -77.34786, 38.93983 ], [ -77.34852, 38.94054 ], [ -77.34815, 38.94142 ], [ -77.3471, 38.94192 ], [ -77.34615, 38.94174 ], [ -77.34522, 38.94055 ], [ -77.34287, 38.94126 ], [ -77.3424, 38.94107 ], [ -77.34258, 38.93954 ], [ -77.34379, 38.93974 ], [ -77.34454, 38.93938 ], [ -77.3422, 38.93933 ], [ -77.3419, 38.93899 ], [ -77.34217, 38.93835 ], [ -77.34127, 38.93858 ], [ -77.34092, 38.93826 ], [ -77.34123, 38.93744 ], [ -77.34086, 38.93715 ], [ -77.34095, 38.93786 ], [ -77.34051, 38.93809 ], [ -77.33949, 38.93767 ], [ -77.33706, 38.93822 ], [ -77.33601, 38.93709 ], [ -77.33539, 38.93763 ], [ -77.33454, 38.93725 ], [ -77.33442, 38.93675 ], [ -77.33305, 38.93659 ], [ -77.33306, 38.93582 ], [ -77.33359, 38.93567 ], [ -77.33314, 38.93518 ], [ -77.33144, 38.93705 ], [ -77.33191, 38.93763 ], [ -77.33184, 38.9385 ], [ -77.33114, 38.9389 ], [ -77.33063, 38.93999 ], [ -77.32919, 38.94 ], [ -77.32868, 38.93898 ], [ -77.32728, 38.93903 ], [ -77.32733, 38.93826 ], [ -77.32851, 38.9378 ], [ -77.33055, 38.93604 ], [ -77.3295, 38.93548 ], [ -77.32791, 38.93345 ], [ -77.32848, 38.93115 ], [ -77.32993, 38.93105 ], [ -77.33133, 38.93152 ], [ -77.33162, 38.93035 ], [ -77.33396, 38.93008 ], [ -77.33481, 38.9292 ], [ -77.33551, 38.92937 ], [ -77.33641, 38.93104 ], [ -77.33603, 38.92918 ], [ -77.33693, 38.92889 ], [ -77.33744, 38.93019 ], [ -77.33801, 38.92953 ], [ -77.33899, 38.92933 ], [ -77.34034, 38.92977 ], [ -77.34134, 38.93063 ], [ -77.34309, 38.93107 ], [ -77.34434, 38.93041 ], [ -77.34659, 38.93126 ] ], [ [ -77.33812, 38.93544 ], [ -77.34166, 38.93608 ], [ -77.34222, 38.9343 ], [ -77.33915, 38.93421 ], [ -77.33812, 38.93544 ] ], [ [ -77.346, 38.93866 ], [ -77.34628, 38.93862 ], [ -77.34608, 38.93826 ], [ -77.346, 38.93866 ] ], [ [ -77.34602, 38.93817 ], [ -77.34594, 38.93788 ], [ -77.34594, 38.93785 ], [ -77.34602, 38.93817 ] ], [ [ -77.34472, 38.93637 ], [ -77.34472, 38.93379 ], [ -77.34409, 38.93363 ], [ -77.3434, 38.93259 ], [ -77.34146, 38.93188 ], [ -77.33918, 38.93171 ], [ -77.33932, 38.93314 ], [ -77.34228, 38.93311 ], [ -77.34332, 38.93357 ], [ -77.34352, 38.93564 ], [ -77.34281, 38.9368 ], [ -77.34373, 38.93763 ], [ -77.34391, 38.9368 ], [ -77.34472, 38.93637 ] ], [ [ -77.34488, 38.93175 ], [ -77.34491, 38.93174 ], [ -77.34486, 38.93172 ], [ -77.34488, 38.93175 ] ], [ [ -77.33883, 38.9304 ], [ -77.339, 38.93051 ], [ -77.33918, 38.9305 ], [ -77.33883, 38.9304 ] ], [ [ -77.33768, 38.93195 ], [ -77.33687, 38.9322 ], [ -77.33696, 38.93263 ], [ -77.33765, 38.93315 ], [ -77.33768, 38.93195 ] ], [ [ -77.33258, 38.93359 ], [ -77.33263, 38.93329 ], [ -77.33245, 38.93304 ], [ -77.33258, 38.93359 ] ] ] } },
{ "type": "Feature", "properties": { "variant": "T0", "miles": 1.5 }, "geometry": { "type": "Polygon", "coordinates": [ [ [ -77.35217, 38.93342 ], [ -77.35237, 38.93427 ], [ -77.3532, 38.93418 ], [ -77.3535, 38.93452 ], [ -77.35358, 38.9358 ], [ -77.35429, 38.93484 ], [ -77.35559, 38.93485 ], [ -77.35582, 38.93522 ], [ -77.35519, 38.93578 ], [ -77.35513, 38.93681 ], [ -77.3558, 38.93776 ], [ -77.35653, 38.93737 ], [ -77.35735, 38.93779 ], [ -77.35668, 38.93863 ], [ -77.35539, 38.93889 ], [ -77.35516, 38.93974 ], [ -77.35726, 38.94027 ], [ -77.35797, 38.94115 ], [ -77.35741, 38.94202 ], [ -77.35688, 38.94203 ], [ -77.3563, 38.94138 ], [ -77.35368, 38.94081 ], [ -77.352, 38.93999 ], [ -77.3512, 38.94026 ], [ -77.35044, 38.93906 ], [ -77.35132, 38.93866 ], [ -77.35061, 38.93831 ], [ -77.35021, 38.93693 ], [ -77.34829, 38.936 ], [ -77.34691, 38.93649 ], [ -77.34769, 38.93908 ], [ -77.34861, 38.93998 ], [ -77.34847, 38.94213 ], [ -77.34897, 38.94385 ], [ -77.34961, 38.94385 ], [ -77.35008, 38.94204 ], [ -77.35096, 38.94171 ], [ -77.35177, 38.94206 ], [ -77.35252, 38.94325 ], [ -77.35395, 38.9431 ], [ -77.35464, 38.94363 ], [ -77.35366, 38.94446 ], [ -77.35239, 38.94434 ], [ -77.35278, 38.94535 ], [ -77.35247, 38.94569 ], [ -77.34861, 38.94492 ], [ -77.35011, 38.94762 ], [ -77.34924, 38.94819 ], [ -77.34794, 38.94727 ], [ -77.3472, 38.94857 ], [ -77.34635, 38.94897 ], [ -77.34574, 38.94837 ], [ -77.34679, 38.94659 ], [ -77.34449, 38.94589 ], [ -77.34428, 38.94513 ], [ -77.34498, 38.94462 ], [ -77.34704, 38.94496 ], [ -77.34753, 38.94356 ], [ -77.3472, 38.94308 ], [ -77.34421, 38.94216 ], [ -77.34344, 38.94105 ], [ -77.34287, 38.94126 ], [ -77.34228, 38.94074 ], [ -77.3412, 38.94082 ], [ -77.34053, 38.94016 ], [ -77.33973, 38.94038 ], [ -77.33882, 38.94005 ], [ -77.33853, 38.93882 ], [ -77.3396, 38.93818 ], [ -77.34053, 38.93839 ], [ -77.34112, 38.93918 ], [ -77.34224, 38.93961 ], [ -77.34461, 38.93958 ], [ -77.3422, 38.93933 ], [ -77.3419, 38.93899 ], [ -77.34217, 38.93835 ], [ -77.34127, 38.93858 ], [ -77.34092, 38.93826 ], [ -77.34123, 38.93744 ], [ -77.34086, 38.93715 ], [ -77.34095, 38.93786 ], [ -77.34051, 38.93809 ], [ -77.33949, 38.93767 ], [ -77.33706, 38.93822 ], [ -77.33601, 38.93709 ], [ -77.33539, 38.93763 ], [ -77.33454, 38.93725 ], [ -77.33442, 38.93675 ], [ -77.33305, 38.93659 ], [ -77.33306, 38.93582 ], [ -77.33359, 38.93567 ], [ -77.33314, 38.93518 ], [ -77.33144, 38.93705 ], [ -77.33191, 38.93763 ], [ -77.33184, 38.9385 ], [ -77.33109, 38.93908 ], [ -77.33167, 38.93978 ], [ -77.33144, 38.94092 ], [ -77.33265, 38.9415 ], [ -77.33323, 38.93997 ], [ -77.33456, 38.94018 ], [ -77.33529, 38.94146 ], [ -77.33472, 38.94187 ], [ -77.33606, 38.94216 ], [ -77.33645, 38.94281 ], [ -77.33599, 38.94327 ], [ -77.33389, 38.94295 ], [ -77.33348, 38.94366 ], [ -77.33295, 38.9437 ], [ -77.33246, 38.94326 ], [ -77.33254, 38.94271 ], [ -77.33185, 38.9426 ], [ -77.33176, 38.94345 ], [ -77.33071, 38.9442 ], [ -77.32999, 38.94369 ], [ -77.33048, 38.94245 ], [ -77.32982, 38.94238 ], [ -77.32955, 38.94323 ], [ -77.32888, 38.94371 ], [ -77.32727, 38.94356 ], [ -77.32618, 38.94182 ], [ -77.32388, 38.94117 ], [ -77.32422, 38.93954 ], [ -77.3235, 38.93958 ], [ -77.32297, 38.93879 ], [ -77.32217, 38.93876 ], [ -77.32195, 38.93838 ], [ -77.32271, 38.93758 ], [ -77.32221, 38.937 ], [ -77.32241, 38.93661 ], [ -77.32355, 38.93672 ], [ -77.32302, 38.93578 ], [ -77.32152, 38.93488 ], [ -77.32156, 38.93447 ], [ -77.32197, 38.9342 ], [ -77.32311, 38.93443 ], [ -77.32483, 38.93623 ], [ -77.32512, 38.93592 ], [ -77.32425, 38.93424 ], [ -77.3248, 38.93366 ], [ -77.32409, 38.93207 ], [ -77.32444, 38.93109 ], [ -77.3255, 38.93132 ], [ -77.32611, 38.93331 ], [ -77.32683, 38.93284 ], [ -77.32774, 38.93327 ], [ -77.3294, 38.93598 ], [ -77.3294, 38.93689 ], [ -77.32888, 38.93741 ], [ -77.33055, 38.93604 ], [ -77.3295, 38.93548 ], [ -77.32791, 38.93345 ], [ -77.32848, 38.93115 ], [ -77.32993, 38.93105 ], [ -77.33133, 38.93152 ], [ -77.33162, 38.93035 ], [ -77.33396, 38.93008 ], [ -77.33481, 38.9292 ], [ -77.33551, 38.92937 ], [ -77.33641, 38.93104 ], [ -77.33599, 38.92979 ], [ -77.3364, 38.92889 ], [ -77.3373, 38.92918 ], [ -77.33744, 38.93019 ], [ -77.33801, 38.92953 ], [ -77.33891, 38.92932 ], [ -77.34034, 38.92977 ], [ -77.34134, 38.93063 ], [ -77.34309, 38.93107 ], [ -77.34434, 38.93041 ], [ -77.34483, 38.9308 ], [ -77.34539, 38.93074 ], [ -77.3438, 38.92977 ], [ -77.34303, 38.9297 ], [ -77.34249, 38.92905 ], [ -77.34249, 38.92829 ], [ -77.34309, 38.92799 ], [ -77.34278, 38.9263 ], [ -77.34078, 38.92619 ], [ -77.34007, 38.92566 ], [ -77.34075, 38.92511 ], [ -77.34391, 38.92543 ], [ -77.3436, 38.92386 ], [ -77.34438, 38.92288 ], [ -77.34522, 38.92327 ], [ -77.34496, 38.9242 ], [ -77.34588, 38.92453 ], [ -77.34575, 38.92584 ], [ -77.3481, 38.92618 ], [ -77.34876, 38.92674 ], [ -77.34854, 38.92711 ], [ -77.34708, 38.92719 ], [ -77.34563, 38.92805 ], [ -77.34502, 38.92746 ], [ -77.34555, 38.92692 ], [ -77.3449, 38.92678 ], [ -77.34524, 38.92895 ], [ -77.34736, 38.9312 ], [ -77.34813, 38.93057 ], [ -77.34962, 38.93112 ], [ -77.35029, 38.93289 ], [ -77.35106, 38.93283 ], [ -77.35217, 38.93342 ] ], [ [ -77.34207, 38.93419 ], [ -77.33915, 38.93421 ], [ -77.33812, 38.93544 ], [ -77.34169, 38.93601 ], [ -77.34207, 38.93419 ] ], [ [ -77.34658, 38.93633 ], [ -77.34609, 38.93621 ], [ -77.3461, 38.93636 ], [ -77.34658, 38.93633 ] ], [ [ -77.34488, 38.93175 ], [ -77.34491, 38.93174 ], [ -77.34486, 38.93172 ], [ -77.34488, 38.93175 ] ], [ [ -77.35, 38.93308 ], [ -77.34996, 38.93309 ], [ -77.34998, 38.93313 ], [ -77.35, 38.93308 ] ], [ [ -77.35385, 38.93759 ], [ -77.35384, 38.9375 ], [ -77.35348, 38.93779 ], [ -77.35385, 38.93809 ], [ -77.35385, 38.93759 ] ], [ [ -77.35223, 38.93542 ], [ -77.35225, 38.93511 ], [ -77.35135, 38.93538 ], [ -77.35179, 38.93579 ], [ -77.35223, 38.93542 ] ], [ [ -77.34472, 38.93378 ], [ -77.34409, 38.93363 ], [ -77.34333, 38.93255 ], [ -77.34118, 38.93183 ], [ -77.33918, 38.93171 ], [ -77.33932, 38.93312 ], [ -77.34228, 38.93311 ], [ -77.34332, 38.93357 ], [ -77.34352, 38.93564 ], [ -77.34281, 38.9368 ], [ -77.34373, 38.93763 ], [ -77.34391, 38.9368 ], [ -77.34472, 38.93637 ], [ -77.34472, 38.93378 ] ], [ [ -77.34482, 38.94093 ], [ -77.34498, 38.94063 ], [ -77.34485, 38.94071 ], [ -77.34482, 38.94093 ] ], [ [ -77.33696, 38.93263 ], [ -77.33765, 38.93315 ], [ -77.33768, 38.93195 ], [ -77.33687, 38.9322 ], [ -77.33696, 38.93263 ] ], [ [ -77.339, 38.93051 ], [ -77.33918, 38.9305 ], [ -77.33883, 38.9304 ], [ -77.339, 38.93051 ] ], [ [ -77.33258, 38.93359 ], [ -77.33268, 38.93363 ], [ -77.33279, 38.93347 ], [ -77.33247, 38.93306 ], [ -77.33258, 38.93359 ] ], [ [ -77.32812, 38.9427 ], [ -77.32833, 38.94271 ], [ -77.32845, 38.94224 ], [ -77.32767, 38.94214 ], [ -77.32812, 38.9427 ] ], [ [ -77.32995, 38.94009 ], [ -77.33009, 38.94016 ], [ -77.33016, 38.94009 ], [ -77.32995, 38.94009 ] ], [ [ -77.32529, 38.94034 ], [ -77.32591, 38.94049 ], [ -77.32538, 38.94015 ], [ -77.32529, 38.94034 ] ] ] } },
{ "type": "Feature", "properties": { "variant": "T0", "miles": 2.0 }, "geometry": { "type": "Polygon", "coordinates": [ [ [ -77.35541, 38.92841 ], [ -77.35696, 38.92861 ], [ -77.3572, 38.92898 ], [ -77.35657, 38.92956 ], [ -77.35562, 38.92955 ], [ -77.35616, 38.92991 ], [ -77.35575, 38.93061 ], [ -77.35419, 38.9303 ], [ -77.35405, 38.93137 ], [ -77.35332, 38.93188 ], [ -77.35209, 38.9308 ], [ -77.35211, 38.93027 ], [ -77.35097, 38.92974 ], [ -77.35085, 38.92923 ], [ -77.35143, 38.92866 ], [ -77.35121, 38.92799 ], [ -77.35104, 38.92875 ], [ -77.35007, 38.92888 ], [ -77.34978, 38.92752 ], [ -77.3494, 38.92772 ], [ -77.35003, 38.9291 ], [ -77.34983, 38.93014 ], [ -77.34885, 38.93013 ], [ -77.34867, 38.92957 ], [ -77.34714, 38.92975 ], [ -77.34568, 38.92947 ], [ -77.34736, 38.9312 ], [ -77.34813, 38.93057 ], [ -77.34962, 38.93112 ], [ -77.35029, 38.93289 ], [ -77.35165, 38.933 ], [ -77.35237, 38.93427 ], [ -77.3532, 38.93418 ], [ -77.3535, 38.93452 ], [ -77.35358, 38.9358 ], [ -77.35429, 38.93484 ], [ -77.35559, 38.93485 ], [ -77.35582, 38.93522 ], [ -77.35519, 38.93578 ], [ -77.35513, 38.9368 ], [ -77.3558, 38.93776 ], [ -77.35566, 38.93601 ], [ -77.35636, 38.93547 ], [ -77.35685, 38.93564 ], [ -77.35732, 38.93812 ], [ -77.3565, 38.93872 ], [ -77.35539, 38.93889 ], [ -77.35516, 38.93974 ], [ -77.35689, 38.94011 ], [ -77.35729, 38.93973 ], [ -77.35871, 38.93954 ], [ -77.35751, 38.93853 ], [ -77.35836, 38.93711 ], [ -77.35985, 38.93749 ], [ -77.36007, 38.93829 ], [ -77.36071, 38.93849 ], [ -77.36141, 38.93794 ], [ -77.36114, 38.93726 ], [ -77.36154, 38.93699 ], [ -77.36308, 38.93685 ], [ -77.36395, 38.93751 ], [ -77.36253, 38.93873 ], [ -77.36242, 38.93971 ], [ -77.36297, 38.9397 ], [ -77.36333, 38.94041 ], [ -77.36234, 38.94139 ], [ -77.36245, 38.94194 ], [ -77.36188, 38.94259 ], [ -77.36314, 38.94261 ], [ -77.36302, 38.94197 ], [ -77.36375, 38.94135 ], [ -77.36427, 38.94141 ], [ -77.36466, 38.94231 ], [ -77.36552, 38.94199 ], [ -77.36636, 38.94237 ], [ -77.3655, 38.94358 ], [ -77.36433, 38.94338 ], [ -77.36299, 38.94383 ], [ -77.36168, 38.94378 ], [ -77.35909, 38.9472 ], [ -77.35823, 38.94684 ], [ -77.35832, 38.94636 ], [ -77.35755, 38.94653 ], [ -77.35675, 38.94843 ], [ -77.35465, 38.9496 ], [ -77.35389, 38.95076 ], [ -77.35269, 38.95064 ], [ -77.35189, 38.94985 ], [ -77.35094, 38.94964 ], [ -77.34989, 38.95069 ], [ -77.34766, 38.95 ], [ -77.34774, 38.9487 ], [ -77.34903, 38.94818 ], [ -77.34794, 38.94727 ], [ -77.3472, 38.94857 ], [ -77.34604, 38.9494 ], [ -77.34486, 38.94918 ], [ -77.34446, 38.94848 ], [ -77.34604, 38.94797 ], [ -77.34679, 38.94661 ], [ -77.34544, 38.94608 ], [ -77.3441, 38.94655 ], [ -77.34476, 38.94753 ], [ -77.34417, 38.94814 ], [ -77.34329, 38.94776 ], [ -77.34271, 38.94658 ], [ -77.34123, 38.94688 ], [ -77.34041, 38.94653 ], [ -77.33999, 38.94727 ], [ -77.3386, 38.94674 ], [ -77.33799, 38.9479 ], [ -77.33694, 38.94816 ], [ -77.33657, 38.94745 ], [ -77.33789, 38.94531 ], [ -77.3351, 38.94486 ], [ -77.33399, 38.94397 ], [ -77.33268, 38.94358 ], [ -77.33254, 38.94271 ], [ -77.33185, 38.9426 ], [ -77.33176, 38.94345 ], [ -77.33071, 38.9442 ], [ -77.32999, 38.94369 ], [ -77.33048, 38.94245 ], [ -77.32982, 38.94238 ], [ -77.32913, 38.9436 ], [ -77.32796, 38.9438 ], [ -77.32699, 38.94333 ], [ -77.32618, 38.94182 ], [ -77.32438, 38.94141 ], [ -77.32375, 38.94143 ], [ -77.32324, 38.94157 ], [ -77.32435, 38.94168 ], [ -77.32415, 38.94242 ], [ -77.32317, 38.94265 ], [ -77.32218, 38.9423 ], [ -77.32161, 38.94283 ], [ -77.32256, 38.943 ], [ -77.32265, 38.94341 ], [ -77.32032, 38.94455 ], [ -77.31897, 38.94406 ], [ -77.31709, 38.94456 ], [ -77.31419, 38.94315 ], [ -77.31465, 38.94233 ], [ -77.31836, 38.94293 ], [ -77.31633, 38.94096 ], [ -77.31657, 38.94059 ], [ -77.31749, 38.94063 ], [ -77.31805, 38.93976 ], [ -77.31779, 38.93927 ], [ -77.31888, 38.93806 ], [ -77.31816, 38.93737 ], [ -77.31826, 38.93669 ], [ -77.31873, 38.9365 ], [ -77.31944, 38.93694 ], [ -77.32029, 38.9369 ], [ -77.32075, 38.93741 ], [ -77.3224, 38.93782 ], [ -77.32271, 38.93758 ], [ -77.32221, 38.937 ], [ -77.32241, 38.93661 ], [ -77.32355, 38.93672 ], [ -77.32252, 38.93541 ], [ -77.32193, 38.93586 ], [ -77.32107, 38.93549 ], [ -77.32095, 38.93404 ], [ -77.32191, 38.93387 ], [ -77.32395, 38.93497 ], [ -77.32483, 38.93623 ], [ -77.32512, 38.93592 ], [ -77.32425, 38.93424 ], [ -77.32475, 38.93353 ], [ -77.3232, 38.93397 ], [ -77.32168, 38.9333 ], [ -77.3221, 38.93261 ], [ -77.32371, 38.93279 ], [ -77.32406, 38.9317 ], [ -77.32332, 38.93057 ], [ -77.32253, 38.93084 ], [ -77.32174, 38.92998 ], [ -77.32136, 38.92844 ], [ -77.3218, 38.92747 ], [ -77.32033, 38.92658 ], [ -77.3207, 38.92587 ], [ -77.3234, 38.92671 ], [ -77.32637, 38.92481 ], [ -77.32734, 38.92475 ], [ -77.32742, 38.92551 ], [ -77.32613, 38.92642 ], [ -77.32679, 38.92734 ], [ -77.32652, 38.92769 ], [ -77.32601, 38.92779 ], [ -77.32513, 38.92717 ], [ -77.32417, 38.9282 ], [ -77.32409, 38.92934 ], [ -77.32505, 38.93084 ], [ -77.32988, 38.92679 ], [ -77.33178, 38.92585 ], [ -77.33207, 38.92429 ], [ -77.33254, 38.9241 ], [ -77.33358, 38.92465 ], [ -77.33594, 38.92435 ], [ -77.33744, 38.92521 ], [ -77.33689, 38.9241 ], [ -77.33613, 38.92423 ], [ -77.33565, 38.92357 ], [ -77.33741, 38.92279 ], [ -77.33956, 38.9228 ], [ -77.34028, 38.92309 ], [ -77.34027, 38.9239 ], [ -77.34142, 38.9251 ], [ -77.34391, 38.92543 ], [ -77.34368, 38.92359 ], [ -77.34576, 38.92104 ], [ -77.3437, 38.92095 ], [ -77.34365, 38.92167 ], [ -77.34319, 38.92189 ], [ -77.34268, 38.92179 ], [ -77.34233, 38.9211 ], [ -77.34031, 38.92126 ], [ -77.34012, 38.92051 ], [ -77.34353, 38.91987 ], [ -77.34169, 38.91935 ], [ -77.34155, 38.91895 ], [ -77.34232, 38.91848 ], [ -77.34621, 38.91927 ], [ -77.34721, 38.9179 ], [ -77.34748, 38.91644 ], [ -77.34832, 38.91606 ], [ -77.34881, 38.91672 ], [ -77.34814, 38.9188 ], [ -77.35013, 38.91915 ], [ -77.35012, 38.91992 ], [ -77.34948, 38.92007 ], [ -77.34984, 38.92056 ], [ -77.35185, 38.92051 ], [ -77.35205, 38.92126 ], [ -77.35116, 38.92193 ], [ -77.34952, 38.92162 ], [ -77.34883, 38.92202 ], [ -77.34751, 38.92176 ], [ -77.34712, 38.92121 ], [ -77.34567, 38.92326 ], [ -77.34647, 38.92414 ], [ -77.34585, 38.9245 ], [ -77.34575, 38.92584 ], [ -77.34681, 38.92605 ], [ -77.34686, 38.92507 ], [ -77.3477, 38.92445 ], [ -77.35012, 38.92458 ], [ -77.35149, 38.92566 ], [ -77.35095, 38.9263 ], [ -77.34972, 38.92562 ], [ -77.34982, 38.92617 ], [ -77.3512, 38.92649 ], [ -77.35242, 38.9273 ], [ -77.35192, 38.9256 ], [ -77.35286, 38.9254 ], [ -77.35351, 38.92663 ], [ -77.35378, 38.92624 ], [ -77.35475, 38.92633 ], [ -77.35456, 38.92761 ], [ -77.35541, 38.92841 ] ], [ [ -77.34704, 38.94496 ], [ -77.34758, 38.94396 ], [ -77.3472, 38.94308 ], [ -77.34427, 38.9422 ], [ -77.34344, 38.94105 ], [ -77.34287, 38.94126 ], [ -77.34228, 38.94074 ], [ -77.3412, 38.94082 ], [ -77.34053, 38.94016 ], [ -77.33919, 38.94028 ], [ -77.33846, 38.93905 ], [ -77.3389, 38.9384 ], [ -77.33976, 38.93818 ], [ -77.34224, 38.93961 ], [ -77.34309, 38.93942 ], [ -77.34379, 38.93974 ], [ -77.34454, 38.93938 ], [ -77.3422, 38.93933 ], [ -77.3419, 38.93899 ], [ -77.34217, 38.93835 ], [ -77.34127, 38.93858 ], [ -77.34092, 38.93826 ], [ -77.34123, 38.93744 ], [ -77.34074, 38.93711 ], [ -77.34095, 38.93786 ], [ -77.34051, 38.93809 ], [ -77.33949, 38.93767 ], [ -77.33917, 38.93797 ], [ -77.33828, 38.93776 ], [ -77.33757, 38.93832 ], [ -77.3364, 38.93781 ], [ -77.33601, 38.93709 ], [ -77.33539, 38.93763 ], [ -77.33489, 38.9375 ], [ -77.33442, 38.93675 ], [ -77.33305, 38.93659 ], [ -77.33306, 38.93582 ], [ -77.33359, 38.93567 ], [ -77.33314, 38.93518 ], [ -77.33144, 38.93705 ], [ -77.33191, 38.93763 ], [ -77.33184, 38.9385 ], [ -77.33109, 38.93908 ], [ -77.33218, 38.94143 ], [ -77.33265, 38.9415 ], [ -77.33227, 38.94035 ], [ -77.33304, 38.93879 ], [ -77.33469, 38.93902 ], [ -77.33545, 38.93868 ], [ -77.33595, 38.93921 ], [ -77.33755, 38.9396 ], [ -77.33828, 38.94047 ], [ -77.3395, 38.94057 ], [ -77.33965, 38.94103 ], [ -77.33901, 38.94187 ], [ -77.34048, 38.94227 ], [ -77.34115, 38.94315 ], [ -77.34275, 38.943 ], [ -77.34441, 38.94354 ], [ -77.34524, 38.94422 ], [ -77.34515, 38.94463 ], [ -77.34704, 38.94496 ] ], [ [ -77.34166, 38.93608 ], [ -77.34222, 38.9343 ], [ -77.33915, 38.93421 ], [ -77.33812, 38.93544 ], [ -77.34166, 38.93608 ] ], [ [ -77.33808, 38.92949 ], [ -77.33899, 38.92933 ], [ -77.34034, 38.92977 ], [ -77.34134, 38.93063 ], [ -77.34309, 38.93107 ], [ -77.34434, 38.93041 ], [ -77.34483, 38.9308 ], [ -77.34539, 38.93074 ], [ -77.3438, 38.92977 ], [ -77.34303, 38.9297 ], [ -77.34249, 38.92905 ], [ -77.34249, 38.92829 ], [ -77.34309, 38.92799 ], [ -77.34278, 38.9263 ], [ -77.3401, 38.9262 ], [ -77.33975, 38.92687 ], [ -77.33922, 38.92688 ], [ -77.33871, 38.92623 ], [ -77.33759, 38.92628 ], [ -77.33784, 38.92675 ], [ -77.33943, 38.92696 ], [ -77.33974, 38.92729 ], [ -77.33904, 38.92797 ], [ -77.3368, 38.92781 ], [ -77.33653, 38.92732 ], [ -77.33536, 38.92754 ], [ -77.33513, 38.92717 ], [ -77.33563, 38.92647 ], [ -77.33491, 38.92654 ], [ -77.33523, 38.92781 ], [ -77.33446, 38.92828 ], [ -77.33346, 38.92722 ], [ -77.33196, 38.92715 ], [ -77.33238, 38.92751 ], [ -77.33207, 38.92821 ], [ -77.33084, 38.92842 ], [ -77.32893, 38.9303 ], [ -77.32575, 38.9321 ], [ -77.32611, 38.93331 ], [ -77.32683, 38.93284 ], [ -77.32774, 38.93327 ], [ -77.32932, 38.9358 ], [ -77.3294, 38.93689 ], [ -77.32888, 38.93741 ], [ -77.33055, 38.93604 ], [ -77.3295, 38.93548 ], [ -77.32791, 38.93345 ], [ -77.32844, 38.93118 ], [ -77.32993, 38.93105 ], [ -77.33133, 38.93152 ], [ -77.33162, 38.93035 ], [ -77.33396, 38.93008 ], [ -77.33481, 38.9292 ], [ -77.33551, 38.92937 ], [ -77.33641, 38.93104 ], [ -77.33599, 38.92979 ], [ -77.3364, 38.92889 ], [ -77.3373, 38.92918 ], [ -77.33749, 38.93011 ], [ -77.33808, 38.92949 ] ], [ [ -77.35423, 38.92901 ], [ -77.35429, 38.92907 ], [ -77.35453, 38.92925 ], [ -77.35423, 38.92901 ] ], [ [ -77.35278, 38.92835 ], [ -77.35281, 38.92855 ], [ -77.35334, 38.92834 ], [ -77.35278, 38.92835 ] ], [ [ -77.34808, 38.92618 ], [ -77.34842, 38.92619 ], [ -77.34833, 38.92545 ], [ -77.34808, 38.92618 ] ], [ [ -77.3539, 38.94846 ], [ -77.35539, 38.94783 ], [ -77.356, 38.94615 ], [ -77.35708, 38.94532 ], [ -77.35737, 38.94329 ], [ -77.35708, 38.94203 ], [ -77.35498, 38.94217 ], [ -77.35497, 38.944 ], [ -77.35294, 38.94471 ], [ -77.35247, 38.94569 ], [ -77.35166, 38.94572 ], [ -77.3523, 38.9463 ], [ -77.35551, 38.94633 ], [ -77.35569, 38.94672 ], [ -77.35497, 38.94793 ], [ -77.35448, 38.94809 ], [ -77.35378, 38.94755 ], [ -77.35326, 38.9478 ], [ -77.35263, 38.9474 ], [ -77.35088, 38.94758 ], [ -77.3539, 38.94846 ] ], [ [ -77.35324, 38.94175 ], [ -77.35447, 38.94097 ], [ -77.352, 38.93999 ], [ -77.3512, 38.94026 ], [ -77.35081, 38.93998 ], [ -77.35044, 38.93906 ], [ -77.35134, 38.93873 ], [ -77.35061, 38.93831 ], [ -77.35021, 38.93693 ], [ -77.34829, 38.936 ], [ -77.34691, 38.93649 ], [ -77.34769, 38.93908 ], [ -77.34861, 38.93998 ], [ -77.34847, 38.94213 ], [ -77.34897, 38.94385 ], [ -77.34961, 38.94385 ], [ -77.35008, 38.94204 ], [ -77.35137, 38.94161 ], [ -77.35324, 38.94175 ] ], [ [ -77.35223, 38.93542 ], [ -77.35225, 38.93511 ], [ -77.35135, 38.93538 ], [ -77.35179, 38.93579 ], [ -77.35223, 38.93542 ] ], [ [ -77.34998, 38.93313 ], [ -77.35, 38.93308 ], [ -77.34996, 38.93309 ], [ -77.34998, 38.93313 ] ], [ [ -77.36126, 38.94132 ], [ -77.3612, 38.94142 ], [ -77.36172, 38.94119 ], [ -77.36126, 38.94132 ] ], [ [ -77.35864, 38.94376 ], [ -77.35845, 38.94517 ], [ -77.35892, 38.94517 ], [ -77.35869, 38.94449 ], [ -77.35909, 38.94393 ], [ -77.35864, 38.94376 ] ], [ [ -77.35385, 38.93809 ], [ -77.35384, 38.9375 ], [ -77.35348, 38.93779 ], [ -77.35385, 38.93809 ] ], [ [ -77.34882, 38.92006 ], [ -77.34828, 38.92003 ], [ -77.34823, 38.92026 ], [ -77.34882, 38.92006 ] ], [ [ -77.34486, 38.93172 ], [ -77.34488, 38.93175 ], [ -77.34491, 38.93174 ], [ -77.34486, 38.93172 ] ], [ [ -77.34478, 38.92759 ], [ -77.34555, 38.92692 ], [ -77.3449, 38.92678 ], [ -77.34478, 38.92759 ] ], [ [ -77.34497, 38.92419 ], [ -77.34495, 38.92418 ], [ -77.34496, 38.9242 ], [ -77.34497, 38.92419 ] ], [ [ -77.34954, 38.9469 ], [ -77.35004, 38.94672 ], [ -77.34944, 38.94636 ], [ -77.34954, 38.9469 ] ], [ [ -77.34957, 38.94502 ], [ -77.34957, 38.94493 ], [ -77.34861, 38.94492 ], [ -77.34957, 38.94502 ] ], [ [ -77.34391, 38.9368 ], [ -77.34472, 38.93637 ], [ -77.34472, 38.93378 ], [ -77.34239, 38.93215 ], [ -77.33918, 38.93171 ], [ -77.33932, 38.93312 ], [ -77.34228, 38.93311 ], [ -77.34332, 38.93357 ], [ -77.34352, 38.93564 ], [ -77.34281, 38.9368 ], [ -77.34373, 38.93763 ], [ -77.34391, 38.9368 ] ], [ [ -77.34676, 38.93642 ], [ -77.34609, 38.93621 ], [ -77.3461, 38.93636 ], [ -77.34676, 38.93642 ] ], [ [ -77.34476, 38.94068 ], [ -77.34482, 38.94093 ], [ -77.34485, 38.94071 ], [ -77.34476, 38.94068 ] ], [ [ -77.33918, 38.9305 ], [ -77.33882, 38.9304 ], [ -77.33885, 38.93052 ], [ -77.33918, 38.9305 ] ], [ [ -77.33568, 38.94334 ], [ -77.33488, 38.94314 ], [ -77.33588, 38.94397 ], [ -77.33649, 38.94387 ], [ -77.33568, 38.94334 ] ], [ [ -77.33708, 38.94106 ], [ -77.33684, 38.94058 ], [ -77.33654, 38.94037 ], [ -77.33469, 38.94015 ], [ -77.33503, 38.94057 ], [ -77.33584, 38.94032 ], [ -77.33708, 38.94106 ] ], [ [ -77.33966, 38.94551 ], [ -77.3396, 38.94559 ], [ -77.3398, 38.94554 ], [ -77.33966, 38.94551 ] ], [ [ -77.33932, 38.94373 ], [ -77.33949, 38.94416 ], [ -77.33979, 38.94393 ], [ -77.33932, 38.94373 ] ], [ [ -77.34187, 38.94444 ], [ -77.34189, 38.94444 ], [ -77.34186, 38.94442 ], [ -77.34187, 38.94444 ] ], [ [ -77.33543, 38.9254 ], [ -77.33556, 38.92539 ], [ -77.33554, 38.92538 ], [ -77.33543, 38.9254 ] ], [ [ -77.33279, 38.93347 ], [ -77.33245, 38.93304 ], [ -77.33258, 38.93359 ], [ -77.33279, 38.93347 ] ], [ [ -77.33687, 38.9322 ], [ -77.33763, 38.93315 ], [ -77.33765, 38.93315 ], [ -77.33768, 38.93195 ], [ -77.33687, 38.9322 ] ], [ [ -77.32995, 38.94009 ], [ -77.33009, 38.94016 ], [ -77.33016, 38.94009 ], [ -77.32995, 38.94009 ] ], [ [ -77.32845, 38.94224 ], [ -77.32767, 38.94214 ], [ -77.32812, 38.9427 ], [ -77.32845, 38.94224 ] ], [ [ -77.32289, 38.92778 ], [ -77.32272, 38.92776 ], [ -77.3228, 38.92801 ], [ -77.32289, 38.92778 ] ], [ [ -77.32211, 38.94066 ], [ -77.32391, 38.94019 ], [ -77.32422, 38.93954 ], [ -77.3235, 38.93958 ], [ -77.32299, 38.93884 ], [ -77.3222, 38.93898 ], [ -77.32211, 38.94066 ] ], [ [ -77.3183, 38.9413 ], [ -77.31908, 38.94185 ], [ -77.31985, 38.94161 ], [ -77.32067, 38.94184 ], [ -77.3211, 38.94144 ], [ -77.32058, 38.93924 ], [ -77.32031, 38.93911 ], [ -77.3183, 38.9413 ] ], [ [ -77.32538, 38.94015 ], [ -77.32529, 38.94034 ], [ -77.32591, 38.94049 ], [ -77.32538, 38.94015 ] ] ] } },
{ "type": "Feature", "properties": { "variant": "T2s", "miles": 1.0 }, "geometry": { "type": "Polygon", "coordinates": [ [ [ -77.34474, 38.9315 ], [ -77.34717, 38.93394 ], [ -77.34908, 38.93457 ], [ -77.35084, 38.93591 ], [ -77.35066, 38.9368 ], [ -77.35017, 38.93695 ], [ -77.34882, 38.93556 ], [ -77.34706, 38.93602 ], [ -77.34608, 38.93557 ], [ -77.3461, 38.93636 ], [ -77.34726, 38.93678 ], [ -77.34786, 38.93983 ], [ -77.34848, 38.94032 ], [ -77.34815, 38.94142 ], [ -77.34658, 38.94198 ], [ -77.34522, 38.94055 ], [ -77.34287, 38.94126 ], [ -77.3424, 38.94107 ], [ -77.34258, 38.93954 ], [ -77.34379, 38.93974 ], [ -77.34454, 38.93938 ], [ -77.3422, 38.93933 ], [ -77.3419, 38.93899 ], [ -77.34217, 38.93835 ], [ -77.34127, 38.93858 ], [ -77.34092, 38.93826 ], [ -77.34123, 38.93744 ], [ -77.34074, 38.93711 ], [ -77.34095, 38.93786 ], [ -77.34051, 38.93809 ], [ -77.33949, 38.93767 ], [ -77.33917, 38.93797 ], [ -77.33828, 38.93776 ], [ -77.33757, 38.93832 ], [ -77.3364, 38.93781 ], [ -77.33601, 38.93709 ], [ -77.33539, 38.93763 ], [ -77.33489, 38.9375 ], [ -77.33442, 38.93675 ], [ -77.33305, 38.93659 ], [ -77.33306, 38.93582 ], [ -77.33359, 38.93567 ], [ -77.33314, 38.93518 ], [ -77.33144, 38.93705 ], [ -77.33191, 38.93763 ], [ -77.33184, 38.9385 ], [ -77.33114, 38.9389 ], [ -77.33085, 38.93983 ], [ -77.33021, 38.94009 ], [ -77.32898, 38.93987 ], [ -77.32821, 38.93825 ], [ -77.33055, 38.93604 ], [ -77.3295, 38.93548 ], [ -77.32791, 38.93345 ], [ -77.32848, 38.93115 ], [ -77.32993, 38.93105 ], [ -77.33133, 38.93152 ], [ -77.33162, 38.93035 ], [ -77.33396, 38.93008 ], [ -77.33481, 38.9292 ], [ -77.33551, 38.92937 ], [ -77.33641, 38.93104 ], [ -77.33603, 38.92918 ], [ -77.33693, 38.92889 ], [ -77.33742, 38.93018 ], [ -77.33808, 38.92949 ], [ -77.33919, 38.92935 ], [ -77.34134, 38.93063 ], [ -77.34309, 38.93107 ], [ -77.34434, 38.93041 ], [ -77.34478, 38.93063 ], [ -77.34474, 38.9315 ] ], [ [ -77.34373, 38.93763 ], [ -77.34391, 38.9368 ], [ -77.34472, 38.93637 ], [ -77.34472, 38.93378 ], [ -77.34239, 38.93215 ], [ -77.33918, 38.93171 ], [ -77.33932, 38.93314 ], [ -77.34228, 38.93311 ], [ -77.34332, 38.93357 ], [ -77.34352, 38.93564 ], [ -77.34281, 38.9368 ], [ -77.34373, 38.93763 ] ], [ [ -77.34602, 38.93864 ], [ -77.34628, 38.93862 ], [ -77.34608, 38.93826 ], [ -77.34602, 38.93864 ] ], [ [ -77.34593, 38.93787 ], [ -77.34602, 38.93817 ], [ -77.34594, 38.93785 ], [ -77.34593, 38.93787 ] ], [ [ -77.33896, 38.93043 ], [ -77.33885, 38.93052 ], [ -77.33918, 38.9305 ], [ -77.33896, 38.93043 ] ], [ [ -77.33763, 38.93315 ], [ -77.33768, 38.93195 ], [ -77.33687, 38.9322 ], [ -77.33763, 38.93315 ] ], [ [ -77.34166, 38.93608 ], [ -77.34215, 38.93421 ], [ -77.33967, 38.93404 ], [ -77.33812, 38.93544 ], [ -77.34166, 38.93608 ] ], [ [ -77.33258, 38.93359 ], [ -77.33263, 38.93329 ], [ -77.33245, 38.93304 ], [ -77.33258, 38.93359 ] ] ] } },
{ "type": "Feature", "properties": { "variant": "T2s", "miles": 1.5 }, "geometry": { "type": "Polygon", "coordinates": [ [ [ -77.35029, 38.93289 ], [ -77.35165, 38.933 ], [ -77.35233, 38.93371 ], [ -77.3523, 38.93508 ], [ -77.35135, 38.93538 ], [ -77.35253, 38.93657 ], [ -77.35238, 38.93712 ], [ -77.35312, 38.93832 ], [ -77.35284, 38.939 ], [ -77.35364, 38.9401 ], [ -77.35307, 38.94044 ], [ -77.352, 38.93999 ], [ -77.3512, 38.94026 ], [ -77.35044, 38.93906 ], [ -77.35132, 38.93866 ], [ -77.35061, 38.93831 ], [ -77.35021, 38.93693 ], [ -77.34829, 38.936 ], [ -77.34691, 38.93649 ], [ -77.34769, 38.93908 ], [ -77.34861, 38.93998 ], [ -77.34847, 38.94213 ], [ -77.34897, 38.94385 ], [ -77.34961, 38.94385 ], [ -77.35008, 38.94204 ], [ -77.35096, 38.94171 ], [ -77.35177, 38.94206 ], [ -77.35252, 38.94325 ], [ -77.35395, 38.9431 ], [ -77.35464, 38.94363 ], [ -77.35366, 38.94446 ], [ -77.35239, 38.94434 ], [ -77.35278, 38.94535 ], [ -77.35247, 38.94569 ], [ -77.34861, 38.94492 ], [ -77.35011, 38.94756 ], [ -77.34943, 38.94811 ], [ -77.34681, 38.94612 ], [ -77.34445, 38.94552 ], [ -77.34428, 38.94513 ], [ -77.34501, 38.94462 ], [ -77.34704, 38.94496 ], [ -77.34758, 38.94396 ], [ -77.3472, 38.94308 ], [ -77.34427, 38.9422 ], [ -77.34344, 38.94105 ], [ -77.34287, 38.94126 ], [ -77.34228, 38.94074 ], [ -77.3412, 38.94082 ], [ -77.34053, 38.94016 ], [ -77.33946, 38.94036 ], [ -77.33871, 38.93993 ], [ -77.33853, 38.93882 ], [ -77.3396, 38.93818 ], [ -77.34053, 38.93839 ], [ -77.34112, 38.93918 ], [ -77.34224, 38.93961 ], [ -77.34461, 38.93958 ], [ -77.3422, 38.93933 ], [ -77.3419, 38.93899 ], [ -77.34217, 38.93835 ], [ -77.34127, 38.93858 ], [ -77.34092, 38.93826 ], [ -77.34123, 38.93744 ], [ -77.34077, 38.93712 ], [ -77.34095, 38.93786 ], [ -77.34051, 38.93809 ], [ -77.33949, 38.93767 ], [ -77.33706, 38.93822 ], [ -77.33601, 38.93709 ], [ -77.33539, 38.93763 ], [ -77.33454, 38.93725 ], [ -77.33442, 38.93675 ], [ -77.33305, 38.93659 ], [ -77.33306, 38.93582 ], [ -77.33359, 38.93567 ], [ -77.33314, 38.93518 ], [ -77.33144, 38.93705 ], [ -77.33191, 38.93763 ], [ -77.33184, 38.9385 ], [ -77.33109, 38.93908 ], [ -77.33167, 38.93978 ], [ -77.33144, 38.94092 ], [ -77.33265, 38.9415 ], [ -77.33323, 38.93997 ], [ -77.33456, 38.94018 ], [ -77.33529, 38.94146 ], [ -77.33472, 38.94187 ], [ -77.33644, 38.94245 ], [ -77.33599, 38.94327 ], [ -77.33389, 38.94295 ], [ -77.33348, 38.94366 ], [ -77.33295, 38.9437 ], [ -77.33246, 38.94326 ], [ -77.33254, 38.94271 ], [ -77.33185, 38.9426 ], [ -77.33176, 38.94345 ], [ -77.33071, 38.9442 ], [ -77.32999, 38.94369 ], [ -77.33048, 38.94245 ], [ -77.32982, 38.94238 ], [ -77.32927, 38.94351 ], [ -77.3279, 38.94379 ], [ -77.32699, 38.94333 ], [ -77.32618, 38.94182 ], [ -77.32388, 38.94117 ], [ -77.32408, 38.94031 ], [ -77.3265, 38.94063 ], [ -77.32779, 38.93964 ], [ -77.32699, 38.9394 ], [ -77.32729, 38.93833 ], [ -77.32684, 38.93681 ], [ -77.32781, 38.93672 ], [ -77.32854, 38.93776 ], [ -77.33055, 38.93604 ], [ -77.3295, 38.93548 ], [ -77.32791, 38.93345 ], [ -77.32848, 38.93115 ], [ -77.32993, 38.93105 ], [ -77.33133, 38.93152 ], [ -77.33162, 38.93035 ], [ -77.33396, 38.93008 ], [ -77.33481, 38.9292 ], [ -77.33551, 38.92937 ], [ -77.33641, 38.93104 ], [ -77.33599, 38.92979 ], [ -77.3364, 38.92889 ], [ -77.3373, 38.92918 ], [ -77.33744, 38.93019 ], [ -77.33801, 38.92953 ], [ -77.33891, 38.92932 ], [ -77.34034, 38.92977 ], [ -77.34134, 38.93063 ], [ -77.34309, 38.93107 ], [ -77.34434, 38.93041 ], [ -77.34483, 38.9308 ], [ -77.34539, 38.93074 ], [ -77.34293, 38.9288 ], [ -77.34354, 38.92816 ], [ -77.34443, 38.92793 ], [ -77.34736, 38.9312 ], [ -77.34813, 38.93057 ], [ -77.34962, 38.93112 ], [ -77.35029, 38.93289 ] ], [ [ -77.33826, 38.93544 ], [ -77.34166, 38.93608 ], [ -77.34222, 38.9343 ], [ -77.33915, 38.93421 ], [ -77.33826, 38.93544 ] ], [ [ -77.33763, 38.93315 ], [ -77.33768, 38.93195 ], [ -77.33687, 38.9322 ], [ -77.33763, 38.93315 ] ], [ [ -77.34472, 38.93637 ], [ -77.34472, 38.93378 ], [ -77.34409, 38.93363 ], [ -77.34333, 38.93255 ], [ -77.34118, 38.93183 ], [ -77.33918, 38.93171 ], [ -77.33932, 38.93312 ], [ -77.34228, 38.93311 ], [ -77.34332, 38.93357 ], [ -77.34352, 38.93564 ], [ -77.34281, 38.9368 ], [ -77.34373, 38.93763 ], [ -77.34391, 38.9368 ], [ -77.34472, 38.93637 ] ], [ [ -77.34486, 38.93172 ], [ -77.34488, 38.93175 ], [ -77.34491, 38.93174 ], [ -77.34486, 38.93172 ] ], [ [ -77.34998, 38.93313 ], [ -77.35, 38.93308 ], [ -77.34996, 38.93309 ], [ -77.34998, 38.93313 ] ], [ [ -77.3461, 38.93636 ], [ -77.34658, 38.93633 ], [ -77.34609, 38.93621 ], [ -77.3461, 38.93636 ] ], [ [ -77.34485, 38.94071 ], [ -77.34498, 38.94063 ], [ -77.34482, 38.94093 ], [ -77.34485, 38.94071 ] ], [ [ -77.33896, 38.93043 ], [ -77.33885, 38.93052 ], [ -77.33918, 38.9305 ], [ -77.33896, 38.93043 ] ], [ [ -77.33279, 38.93347 ], [ -77.33245, 38.93304 ], [ -77.33268, 38.93363 ], [ -77.33279, 38.93347 ] ], [ [ -77.33009, 38.94016 ], [ -77.33016, 38.94009 ], [ -77.32995, 38.94009 ], [ -77.33009, 38.94016 ] ], [ [ -77.32812, 38.9427 ], [ -77.32845, 38.94224 ], [ -77.32767, 38.94214 ], [ -77.32812, 38.9427 ] ] ] } },
{ "type": "Feature", "properties": { "variant": "T2s", "miles": 2.0 }, "geometry": { "type": "Polygon", "coordinates": [ [ [ -77.35381, 38.93583 ], [ -77.35429, 38.93484 ], [ -77.35559, 38.93485 ], [ -77.35582, 38.93522 ], [ -77.35519, 38.93578 ], [ -77.35513, 38.9368 ], [ -77.3558, 38.93776 ], [ -77.35587, 38.93563 ], [ -77.35636, 38.93547 ], [ -77.35704, 38.93602 ], [ -77.35732, 38.93812 ], [ -77.3565, 38.93872 ], [ -77.35539, 38.93889 ], [ -77.35516, 38.93974 ], [ -77.35689, 38.94011 ], [ -77.35766, 38.93962 ], [ -77.35821, 38.93973 ], [ -77.3591, 38.94094 ], [ -77.35958, 38.94026 ], [ -77.36011, 38.94022 ], [ -77.36057, 38.94089 ], [ -77.36008, 38.94183 ], [ -77.36256, 38.94277 ], [ -77.36314, 38.94261 ], [ -77.36303, 38.94196 ], [ -77.36399, 38.94181 ], [ -77.36596, 38.94291 ], [ -77.3655, 38.94358 ], [ -77.36433, 38.94338 ], [ -77.36299, 38.94383 ], [ -77.36168, 38.94378 ], [ -77.35942, 38.94665 ], [ -77.35841, 38.94618 ], [ -77.35909, 38.94393 ], [ -77.35752, 38.94344 ], [ -77.35708, 38.94203 ], [ -77.35498, 38.94217 ], [ -77.35497, 38.944 ], [ -77.35294, 38.94471 ], [ -77.35247, 38.94569 ], [ -77.35166, 38.94572 ], [ -77.3523, 38.9463 ], [ -77.35551, 38.94633 ], [ -77.35569, 38.94672 ], [ -77.35448, 38.94809 ], [ -77.35378, 38.94755 ], [ -77.35326, 38.9478 ], [ -77.35263, 38.9474 ], [ -77.35097, 38.94755 ], [ -77.35161, 38.94841 ], [ -77.35071, 38.9487 ], [ -77.34911, 38.94809 ], [ -77.3462, 38.94585 ], [ -77.34365, 38.94582 ], [ -77.34297, 38.9465 ], [ -77.34123, 38.94688 ], [ -77.34038, 38.94649 ], [ -77.34039, 38.94565 ], [ -77.33966, 38.94551 ], [ -77.33799, 38.9479 ], [ -77.33708, 38.9482 ], [ -77.33657, 38.94745 ], [ -77.33789, 38.94531 ], [ -77.3351, 38.94486 ], [ -77.33399, 38.94397 ], [ -77.33268, 38.94358 ], [ -77.33242, 38.94269 ], [ -77.33185, 38.9426 ], [ -77.33176, 38.94345 ], [ -77.33071, 38.9442 ], [ -77.32999, 38.94369 ], [ -77.33048, 38.94245 ], [ -77.32982, 38.94238 ], [ -77.32899, 38.94367 ], [ -77.32766, 38.94374 ], [ -77.32632, 38.94249 ], [ -77.32618, 38.94182 ], [ -77.32438, 38.94141 ], [ -77.32324, 38.94157 ], [ -77.32435, 38.94168 ], [ -77.32415, 38.94242 ], [ -77.32317, 38.94265 ], [ -77.32218, 38.9423 ], [ -77.31959, 38.94392 ], [ -77.31777, 38.94415 ], [ -77.31643, 38.94386 ], [ -77.31662, 38.94311 ], [ -77.31843, 38.94304 ], [ -77.31633, 38.94096 ], [ -77.31657, 38.94059 ], [ -77.31749, 38.94063 ], [ -77.31805, 38.93976 ], [ -77.31779, 38.93927 ], [ -77.31888, 38.93806 ], [ -77.31816, 38.93737 ], [ -77.31826, 38.93669 ], [ -77.31873, 38.9365 ], [ -77.31944, 38.93694 ], [ -77.32029, 38.9369 ], [ -77.32075, 38.93741 ], [ -77.3224, 38.93782 ], [ -77.32271, 38.93758 ], [ -77.32221, 38.937 ], [ -77.32241, 38.93661 ], [ -77.32355, 38.93672 ], [ -77.32252, 38.93541 ], [ -77.32193, 38.93586 ], [ -77.32107, 38.93549 ], [ -77.32095, 38.93404 ], [ -77.32191, 38.93387 ], [ -77.32395, 38.93497 ], [ -77.32483, 38.93623 ], [ -77.32512, 38.93592 ], [ -77.32428, 38.93443 ], [ -77.3248, 38.93366 ], [ -77.32406, 38.93166 ], [ -77.32552, 38.93053 ], [ -77.32601, 38.93038 ], [ -77.3267, 38.93092 ], [ -77.32565, 38.93182 ], [ -77.32611, 38.93331 ], [ -77.32666, 38.93285 ], [ -77.3275, 38.93304 ], [ -77.32936, 38.93587 ], [ -77.3294, 38.93689 ], [ -77.32888, 38.93741 ], [ -77.33055, 38.93604 ], [ -77.3295, 38.93548 ], [ -77.32791, 38.93345 ], [ -77.32848, 38.93115 ], [ -77.32993, 38.93105 ], [ -77.33133, 38.93152 ], [ -77.33162, 38.93035 ], [ -77.33396, 38.93008 ], [ -77.33481, 38.9292 ], [ -77.33551, 38.92937 ], [ -77.33641, 38.93104 ], [ -77.33599, 38.92979 ], [ -77.3364, 38.92889 ], [ -77.3373, 38.92918 ], [ -77.33744, 38.93019 ], [ -77.33801, 38.92953 ], [ -77.33891, 38.92932 ], [ -77.34034, 38.92977 ], [ -77.34134, 38.93063 ], [ -77.34309, 38.93107 ], [ -77.34434, 38.93041 ], [ -77.34483, 38.9308 ], [ -77.34539, 38.93074 ], [ -77.3438, 38.92977 ], [ -77.34303, 38.9297 ], [ -77.34249, 38.92905 ], [ -77.34249, 38.92829 ], [ -77.34309, 38.92799 ], [ -77.34278, 38.9263 ], [ -77.3401, 38.9262 ], [ -77.33975, 38.92687 ], [ -77.33883, 38.9266 ], [ -77.33894, 38.9253 ], [ -77.33998, 38.92512 ], [ -77.33878, 38.92415 ], [ -77.33878, 38.92333 ], [ -77.33948, 38.9228 ], [ -77.34028, 38.92309 ], [ -77.34027, 38.9239 ], [ -77.34142, 38.9251 ], [ -77.34391, 38.92543 ], [ -77.3436, 38.92386 ], [ -77.34438, 38.92288 ], [ -77.34639, 38.92373 ], [ -77.34647, 38.92414 ], [ -77.34585, 38.9245 ], [ -77.34575, 38.92584 ], [ -77.34842, 38.92619 ], [ -77.34873, 38.92465 ], [ -77.34969, 38.9248 ], [ -77.34982, 38.92617 ], [ -77.35149, 38.92676 ], [ -77.35129, 38.92745 ], [ -77.35034, 38.92764 ], [ -77.34962, 38.92724 ], [ -77.34948, 38.92879 ], [ -77.34855, 38.92962 ], [ -77.34568, 38.92947 ], [ -77.34736, 38.9312 ], [ -77.34813, 38.93057 ], [ -77.34962, 38.93112 ], [ -77.35029, 38.93289 ], [ -77.35165, 38.933 ], [ -77.35237, 38.93427 ], [ -77.3532, 38.93418 ], [ -77.35381, 38.93583 ] ], [ [ -77.33979, 38.94393 ], [ -77.33954, 38.94365 ], [ -77.33932, 38.94373 ], [ -77.33951, 38.94407 ], [ -77.33979, 38.94393 ] ], [ [ -77.34048, 38.94227 ], [ -77.34115, 38.94315 ], [ -77.34275, 38.943 ], [ -77.34441, 38.94354 ], [ -77.34524, 38.94422 ], [ -77.34511, 38.94462 ], [ -77.34704, 38.94496 ], [ -77.34754, 38.94412 ], [ -77.3472, 38.94308 ], [ -77.34427, 38.9422 ], [ -77.34344, 38.94105 ], [ -77.34287, 38.94126 ], [ -77.34228, 38.94074 ], [ -77.3412, 38.94082 ], [ -77.34053, 38.94016 ], [ -77.33919, 38.94028 ], [ -77.33846, 38.93905 ], [ -77.3389, 38.9384 ], [ -77.33976, 38.93818 ], [ -77.34224, 38.93961 ], [ -77.34309, 38.93942 ], [ -77.34379, 38.93974 ], [ -77.34454, 38.93938 ], [ -77.3422, 38.93933 ], [ -77.3419, 38.93899 ], [ -77.34217, 38.93835 ], [ -77.34127, 38.93858 ], [ -77.34092, 38.93826 ], [ -77.34123, 38.93744 ], [ -77.34074, 38.93711 ], [ -77.34095, 38.93786 ], [ -77.34051, 38.93809 ], [ -77.33949, 38.93767 ], [ -77.33917, 38.93797 ], [ -77.33828, 38.93776 ], [ -77.33757, 38.93832 ], [ -77.3364, 38.93781 ], [ -77.33601, 38.93709 ], [ -77.33539, 38.93763 ], [ -77.33489, 38.9375 ], [ -77.33442, 38.93675 ], [ -77.33305, 38.93659 ], [ -77.33306, 38.93582 ], [ -77.33359, 38.93567 ], [ -77.33314, 38.93518 ], [ -77.33144, 38.93705 ], [ -77.33191, 38.93763 ], [ -77.33184, 38.9385 ], [ -77.33109, 38.93908 ], [ -77.33218, 38.94143 ], [ -77.33265, 38.9415 ], [ -77.33227, 38.94035 ], [ -77.33304, 38.93879 ], [ -77.33469, 38.93902 ], [ -77.33545, 38.93868 ], [ -77.33595, 38.93921 ], [ -77.33755, 38.9396 ], [ -77.33828, 38.94047 ], [ -77.3395, 38.94057 ], [ -77.33965, 38.94103 ], [ -77.33905, 38.94187 ], [ -77.34048, 38.94227 ] ], [ [ -77.34166, 38.93608 ], [ -77.34222, 38.9343 ], [ -77.33915, 38.93421 ], [ -77.33812, 38.93544 ], [ -77.34166, 38.93608 ] ], [ [ -77.34228, 38.93311 ], [ -77.34332, 38.93357 ], [ -77.34352, 38.93564 ], [ -77.34281, 38.9368 ], [ -77.34373, 38.93763 ], [ -77.34391, 38.9368 ], [ -77.34472, 38.93637 ], [ -77.34472, 38.93378 ], [ -77.34409, 38.93363 ], [ -77.34333, 38.93255 ], [ -77.34057, 38.93174 ], [ -77.33918, 38.93171 ], [ -77.33937, 38.9331 ], [ -77.34228, 38.93311 ] ], [ [ -77.35004, 38.94672 ], [ -77.3493, 38.94623 ], [ -77.34948, 38.94684 ], [ -77.35004, 38.94672 ] ], [ [ -77.34957, 38.94502 ], [ -77.34957, 38.94493 ], [ -77.34861, 38.94492 ], [ -77.34957, 38.94502 ] ], [ [ -77.35043, 38.94173 ], [ -77.35324, 38.94175 ], [ -77.35447, 38.94097 ], [ -77.352, 38.93999 ], [ -77.3512, 38.94026 ], [ -77.35081, 38.93998 ], [ -77.35044, 38.93906 ], [ -77.35132, 38.93866 ], [ -77.35061, 38.93831 ], [ -77.35021, 38.93693 ], [ -77.34829, 38.936 ], [ -77.34691, 38.93649 ], [ -77.34769, 38.93908 ], [ -77.34861, 38.93998 ], [ -77.34847, 38.94213 ], [ -77.34897, 38.94385 ], [ -77.3496, 38.94374 ], [ -77.35043, 38.94173 ] ], [ [ -77.35386, 38.93794 ], [ -77.35384, 38.9375 ], [ -77.35348, 38.93779 ], [ -77.35386, 38.93794 ] ], [ [ -77.35225, 38.93511 ], [ -77.35135, 38.93538 ], [ -77.35179, 38.93579 ], [ -77.35225, 38.93511 ] ], [ [ -77.35, 38.93308 ], [ -77.34996, 38.93309 ], [ -77.34998, 38.93313 ], [ -77.35, 38.93308 ] ], [ [ -77.34491, 38.93174 ], [ -77.34486, 38.93172 ], [ -77.34488, 38.93175 ], [ -77.34491, 38.93174 ] ], [ [ -77.34478, 38.92759 ], [ -77.34555, 38.92692 ], [ -77.3449, 38.92678 ], [ -77.34478, 38.92759 ] ], [ [ -77.34497, 38.92419 ], [ -77.34495, 38.92418 ], [ -77.34496, 38.9242 ], [ -77.34497, 38.92419 ] ], [ [ -77.34658, 38.93633 ], [ -77.34609, 38.93621 ], [ -77.3461, 38.93636 ], [ -77.34658, 38.93633 ] ], [ [ -77.34482, 38.94093 ], [ -77.34498, 38.94063 ], [ -77.34485, 38.94071 ], [ -77.34482, 38.94093 ] ], [ [ -77.339, 38.93051 ], [ -77.33918, 38.9305 ], [ -77.33882, 38.9304 ], [ -77.339, 38.93051 ] ], [ [ -77.33263, 38.93329 ], [ -77.33245, 38.93304 ], [ -77.33258, 38.93359 ], [ -77.33263, 38.93329 ] ], [ [ -77.33696, 38.93263 ], [ -77.33765, 38.93315 ], [ -77.33768, 38.93195 ], [ -77.3369, 38.93232 ], [ -77.33696, 38.93263 ] ], [ [ -77.33568, 38.94334 ], [ -77.33488, 38.94314 ], [ -77.33588, 38.94397 ], [ -77.33649, 38.94387 ], [ -77.33568, 38.94334 ] ], [ [ -77.3364, 38.94033 ], [ -77.33469, 38.94015 ], [ -77.33503, 38.94057 ], [ -77.33651, 38.9405 ], [ -77.33708, 38.94106 ], [ -77.3364, 38.94033 ] ], [ [ -77.32812, 38.9427 ], [ -77.32833, 38.94271 ], [ -77.32845, 38.94224 ], [ -77.32767, 38.94214 ], [ -77.32812, 38.9427 ] ], [ [ -77.33016, 38.94009 ], [ -77.32995, 38.94009 ], [ -77.33009, 38.94016 ], [ -77.33016, 38.94009 ] ], [ [ -77.32198, 38.93893 ], [ -77.32211, 38.94066 ], [ -77.32391, 38.94019 ], [ -77.32422, 38.93954 ], [ -77.3235, 38.93958 ], [ -77.32299, 38.93884 ], [ -77.32198, 38.93893 ] ], [ [ -77.3183, 38.9413 ], [ -77.31908, 38.94185 ], [ -77.31985, 38.94161 ], [ -77.32067, 38.94184 ], [ -77.3211, 38.94144 ], [ -77.32058, 38.93924 ], [ -77.32031, 38.93911 ], [ -77.3183, 38.9413 ] ], [ [ -77.32529, 38.94034 ], [ -77.32591, 38.94049 ], [ -77.32538, 38.94015 ], [ -77.32529, 38.94034 ] ] ] } }
]
}
