{
"type": "FeatureCollection",
"name": "321",
"crs": { "type": "name", "properties": { "name": "urn:ogc:def:crs:OGC:1.3:CRS84" } },
"xy_coordinate_resolution": 1e-05,
"features": [
{ "type": "Feature", "properties": { "variant": "T0", "miles": 1.0 }, "geometry": { "type": "Polygon", "coordinates": [ [ [ -77.34778, 38.93205 ], [ -77.3491, 38.93206 ], [ -77.3498, 38.9326 ], [ -77.34915, 38.93313 ], [ -77.3494, 38.93529 ], [ -77.34706, 38.93602 ], [ -77.34608, 38.93557 ], [ -77.3461, 38.93636 ], [ -77.34726, 38.93678 ], [ -77.34769, 38.93908 ], [ -77.34861, 38.93998 ], [ -77.34847, 38.94213 ], [ -77.34897, 38.94385 ], [ -77.35052, 38.94393 ], [ -77.35079, 38.94429 ], [ -77.35021, 38.9449 ], [ -77.34861, 38.94492 ], [ -77.34789, 38.94568 ], [ -77.34736, 38.94563 ], [ -77.34703, 38.94531 ], [ -77.34758, 38.94378 ], [ -77.3472, 38.94308 ], [ -77.34427, 38.9422 ], [ -77.34344, 38.94105 ], [ -77.34287, 38.94126 ], [ -77.34228, 38.94074 ], [ -77.3412, 38.94082 ], [ -77.34053, 38.94016 ], [ -77.33973, 38.94038 ], [ -77.33887, 38.94009 ], [ -77.33849, 38.93892 ], [ -77.33949, 38.93819 ], [ -77.34053, 38.93839 ], [ -77.34112, 38.93918 ], [ -77.34224, 38.93961 ], [ -77.34461, 38.93958 ], [ -77.3422, 38.93933 ], [ -77.3419, 38.93899 ], [ -77.34217, 38.93835 ], [ -77.34127, 38.93858 ], [ -77.34092, 38.93826 ], [ -77.34123, 38.93744 ], [ -77.34086, 38.93715 ], [ -77.34095, 38.93786 ], [ -77.34051, 38.93809 ], [ -77.33949, 38.93767 ], [ -77.33706, 38.93822 ], [ -77.33601, 38.93709 ], [ -77.33539, 38.93763 ], [ -77.33454, 38.93725 ], [ -77.33442, 38.93675 ], [ -77.33305, 38.93659 ], [ -77.33306, 38.93582 ], [ -77.33359, 38.93567 ], [ -77.33314, 38.93518 ], [ -77.33144, 38.93705 ], [ -77.33191, 38.93763 ], [ -77.33184, 38.9385 ], [ -77.33114, 38.9389 ], [ -77.33082, 38.93986 ], [ -77.32834, 38.94087 ], [ -77.32771, 38.94028 ], [ -77.32802, 38.93975 ], [ -77.32696, 38.93982 ], [ -77.32729, 38.93833 ], [ -77.32644, 38.93809 ], [ -77.32626, 38.93734 ], [ -77.3273, 38.93661 ], [ -77.32781, 38.93672 ], [ -77.32854, 38.93776 ], [ -77.33055, 38.93604 ], [ -77.3295, 38.93548 ], [ -77.32791, 38.93345 ], [ -77.32848, 38.93115 ], [ -77.32993, 38.93105 ], [ -77.33133, 38.93152 ], [ -77.33162, 38.93035 ], [ -77.33396, 38.93008 ], [ -77.33481, 38.9292 ], [ -77.33551, 38.92937 ], [ -77.33641, 38.93104 ], [ -77.33603, 38.92918 ], [ -77.33693, 38.92889 ], [ -77.33742, 38.93018 ], [ -77.33808, 38.92949 ], [ -77.33919, 38.92935 ], [ -77.34134, 38.93063 ], [ -77.34309, 38.93107 ], [ -77.34434, 38.93041 ], [ -77.34478, 38.93063 ], [ -77.34488, 38.93175 ], [ -77.3458, 38.93154 ], [ -77.34614, 38.93187 ], [ -77.3467, 38.93125 ], [ -77.34778, 38.93205 ] ], [ [ -77.33812, 38.93544 ], [ -77.34166, 38.93608 ], [ -77.34222, 38.9343 ], [ -77.33915, 38.93421 ], [ -77.33812, 38.93544 ] ], [ [ -77.34476, 38.94068 ], [ -77.34485, 38.94071 ], [ -77.34498, 38.94063 ], [ -77.34476, 38.94068 ] ], [ [ -77.34472, 38.93637 ], [ -77.34472, 38.93379 ], [ -77.34409, 38.93363 ], [ -77.3434, 38.93259 ], [ -77.34146, 38.93188 ], [ -77.33918, 38.93171 ], [ -77.33932, 38.93312 ], [ -77.34228, 38.93311 ], [ -77.34332, 38.93357 ], [ -77.34352, 38.93564 ], [ -77.34281, 38.9368 ], [ -77.34373, 38.93763 ], [ -77.34391, 38.9368 ], [ -77.34472, 38.93637 ] ], [ [ -77.34776, 38.93327 ], [ -77.3475, 38.93364 ], [ -77.34776, 38.93374 ], [ -77.34776, 38.93327 ] ], [ [ -77.33896, 38.93043 ], [ -77.33885, 38.93052 ], [ -77.33918, 38.9305 ], [ -77.33896, 38.93043 ] ], [ [ -77.3369, 38.93232 ], [ -77.33696, 38.93263 ], [ -77.33765, 38.93315 ], [ -77.33768, 38.93195 ], [ -77.3369, 38.93232 ] ], [ [ -77.33258, 38.93359 ], [ -77.33279, 38.93347 ], [ -77.33245, 38.93304 ], [ -77.33258, 38.93359 ] ] ] } },
{ "type": "Feature", "properties": { "variant": "T0", "miles": 1.5 }, "geometry": { "type": "Polygon", "coordinates": [ [ [ -77.352, 38.93324 ], [ -77.35242, 38.93407 ], [ -77.3523, 38.93508 ], [ -77.35135, 38.93538 ], [ -77.35179, 38.93579 ], [ -77.35237, 38.93537 ], [ -77.35335, 38.93548 ], [ -77.35509, 38.9367 ], [ -77.35524, 38.9378 ], [ -77.35584, 38.93841 ], [ -77.35488, 38.93892 ], [ -77.35524, 38.93942 ], [ -77.3549, 38.94008 ], [ -77.35364, 38.93983 ], [ -77.35307, 38.94044 ], [ -77.352, 38.93999 ], [ -77.3512, 38.94026 ], [ -77.35044, 38.93906 ], [ -77.35132, 38.93866 ], [ -77.35061, 38.93831 ], [ -77.35021, 38.93693 ], [ -77.34829, 38.936 ], [ -77.34691, 38.93649 ], [ -77.34769, 38.93908 ], [ -77.34861, 38.93998 ], [ -77.34847, 38.94213 ], [ -77.34897, 38.94385 ], [ -77.34961, 38.94385 ], [ -77.34967, 38.94285 ], [ -77.35043, 38.94173 ], [ -77.35366, 38.94155 ], [ -77.35418, 38.94165 ], [ -77.35474, 38.94249 ], [ -77.35522, 38.94364 ], [ -77.35497, 38.944 ], [ -77.35294, 38.94471 ], [ -77.35247, 38.94569 ], [ -77.35166, 38.94572 ], [ -77.3523, 38.9463 ], [ -77.35496, 38.94649 ], [ -77.35496, 38.94726 ], [ -77.35326, 38.9478 ], [ -77.35263, 38.9474 ], [ -77.35088, 38.94758 ], [ -77.35442, 38.94859 ], [ -77.35468, 38.94912 ], [ -77.354, 38.94967 ], [ -77.35094, 38.94964 ], [ -77.35037, 38.95054 ], [ -77.34956, 38.95065 ], [ -77.34864, 38.95024 ], [ -77.34891, 38.94955 ], [ -77.34854, 38.94881 ], [ -77.34903, 38.94818 ], [ -77.34794, 38.94727 ], [ -77.3472, 38.94857 ], [ -77.34604, 38.9494 ], [ -77.34447, 38.94889 ], [ -77.34483, 38.94818 ], [ -77.34604, 38.94797 ], [ -77.34679, 38.94661 ], [ -77.34621, 38.94626 ], [ -77.34502, 38.94605 ], [ -77.3441, 38.94655 ], [ -77.34476, 38.94753 ], [ -77.34417, 38.94814 ], [ -77.34329, 38.94776 ], [ -77.34271, 38.94658 ], [ -77.3407, 38.94682 ], [ -77.34039, 38.94565 ], [ -77.33855, 38.94498 ], [ -77.33864, 38.94445 ], [ -77.33979, 38.94393 ], [ -77.3396, 38.9432 ], [ -77.34004, 38.94297 ], [ -77.34181, 38.9431 ], [ -77.34286, 38.94366 ], [ -77.34394, 38.94334 ], [ -77.34497, 38.94387 ], [ -77.34511, 38.94462 ], [ -77.34704, 38.94496 ], [ -77.34745, 38.94341 ], [ -77.34421, 38.94216 ], [ -77.34344, 38.94105 ], [ -77.34287, 38.94126 ], [ -77.34228, 38.94074 ], [ -77.3412, 38.94082 ], [ -77.34053, 38.94016 ], [ -77.33973, 38.94038 ], [ -77.33882, 38.94005 ], [ -77.33853, 38.93882 ], [ -77.3396, 38.93818 ], [ -77.34053, 38.93839 ], [ -77.34112, 38.93918 ], [ -77.34224, 38.93961 ], [ -77.34461, 38.93958 ], [ -77.3422, 38.93933 ], [ -77.3419, 38.93899 ], [ -77.34217, 38.93835 ], [ -77.34127, 38.93858 ], [ -77.34092, 38.93826 ], [ -77.34123, 38.93744 ], [ -77.34086, 38.93715 ], [ -77.34095, 38.93786 ], [ -77.34051, 38.93809 ], [ -77.33949, 38.93767 ], [ -77.33706, 38.93822 ], [ -77.33601, 38.93709 ], [ -77.33539, 38.93763 ], [ -77.33454, 38.93725 ], [ -77.33442, 38.93675 ], [ -77.33305, 38.93659 ], [ -77.33306, 38.93582 ], [ -77.33359, 38.93567 ], [ -77.33314, 38.93518 ], [ -77.33144, 38.93705 ], [ -77.33191, 38.93763 ], [ -77.33184, 38.9385 ], [ -77.33109, 38.93908 ], [ -77.33218, 38.94143 ], [ -77.33265, 38.9415 ], [ -77.33226, 38.94053 ], [ -77.33252, 38.93975 ], [ -77.33334, 38.93919 ], [ -77.33428, 38.93941 ], [ -77.33544, 38.94129 ], [ -77.336, 38.94113 ], [ -77.33664, 38.9415 ], [ -77.33659, 38.94252 ], [ -77.33602, 38.94326 ], [ -77.33389, 38.94295 ], [ -77.33348, 38.94366 ], [ -77.33295, 38.9437 ], [ -77.33246, 38.94326 ], [ -77.33254, 38.94271 ], [ -77.33185, 38.9426 ], [ -77.33176, 38.94345 ], [ -77.33071, 38.9442 ], [ -77.32999, 38.94369 ], [ -77.33048, 38.94245 ], [ -77.32982, 38.94238 ], [ -77.32933, 38.94346 ], [ -77.32802, 38.94381 ], [ -77.32699, 38.94333 ], [ -77.32618, 38.94182 ], [ -77.32398, 38.94141 ], [ -77.32211, 38.94206 ], [ -77.32133, 38.94142 ], [ -77.32224, 38.94059 ], [ -77.32391, 38.94019 ], [ -77.32422, 38.93954 ], [ -77.3235, 38.93958 ], [ -77.32297, 38.93879 ], [ -77.32217, 38.93876 ], [ -77.32195, 38.93838 ], [ -77.32271, 38.93758 ], [ -77.32221, 38.937 ], [ -77.32241, 38.93661 ], [ -77.32355, 38.93672 ], [ -77.32252, 38.93541 ], [ -77.32193, 38.93586 ], [ -77.32107, 38.93549 ], [ -77.32095, 38.93404 ], [ -77.32191, 38.93387 ], [ -77.32333, 38.93454 ], [ -77.32483, 38.93623 ], [ -77.32512, 38.93592 ], [ -77.32425, 38.93424 ], [ -77.3248, 38.93366 ], [ -77.32409, 38.93207 ], [ -77.3244, 38.93111 ], [ -77.32601, 38.93038 ], [ -77.3265, 38.93054 ], [ -77.32649, 38.9313 ], [ -77.32565, 38.93182 ], [ -77.32611, 38.93331 ], [ -77.32683, 38.93284 ], [ -77.32774, 38.93327 ], [ -77.3294, 38.93598 ], [ -77.3294, 38.93689 ], [ -77.32888, 38.93741 ], [ -77.33055, 38.93604 ], [ -77.3295, 38.93548 ], [ -77.32791, 38.93345 ], [ -77.32848, 38.93115 ], [ -77.32993, 38.93105 ], [ -77.33133, 38.93152 ], [ -77.33162, 38.93035 ], [ -77.33396, 38.93008 ], [ -77.33481, 38.9292 ], [ -77.33551, 38.92937 ], [ -77.33641, 38.93104 ], [ -77.33599, 38.92979 ], [ -77.3364, 38.92889 ], [ -77.3373, 38.92918 ], [ -77.33744, 38.93019 ], [ -77.33801, 38.92953 ], [ -77.33891, 38.92932 ], [ -77.34034, 38.92977 ], [ -77.34134, 38.93063 ], [ -77.34309, 38.93107 ], [ -77.34434, 38.93041 ], [ -77.34483, 38.9308 ], [ -77.34539, 38.93074 ], [ -77.3438, 38.92977 ], [ -77.34303, 38.9297 ], [ -77.34229, 38.92867 ], [ -77.34309, 38.92799 ], [ -77.34267, 38.92614 ], [ -77.34309, 38.92539 ], [ -77.34474, 38.92511 ], [ -77.34524, 38.92573 ], [ -77.34721, 38.92628 ], [ -77.34701, 38.92703 ], [ -77.3449, 38.92678 ], [ -77.34516, 38.92882 ], [ -77.34736, 38.9312 ], [ -77.34813, 38.93057 ], [ -77.34962, 38.93112 ], [ -77.35029, 38.93289 ], [ -77.352, 38.93324 ] ], [ [ -77.34166, 38.93608 ], [ -77.34222, 38.9343 ], [ -77.33915, 38.93421 ], [ -77.33812, 38.93544 ], [ -77.34166, 38.93608 ] ], [ [ -77.34228, 38.93311 ], [ -77.34332, 38.93357 ], [ -77.34352, 38.93564 ], [ -77.34281, 38.9368 ], [ -77.34373, 38.93763 ], [ -77.34391, 38.9368 ], [ -77.34472, 38.93637 ], [ -77.34472, 38.93378 ], [ -77.34409, 38.93363 ], [ -77.34333, 38.93255 ], [ -77.34057, 38.93174 ], [ -77.33918, 38.93171 ], [ -77.33937, 38.9331 ], [ -77.34228, 38.93311 ] ], [ [ -77.34631, 38.93629 ], [ -77.34609, 38.93621 ], [ -77.3461, 38.93636 ], [ -77.34676, 38.93642 ], [ -77.34631, 38.93629 ] ], [ [ -77.35, 38.93308 ], [ -77.34996, 38.93309 ], [ -77.34998, 38.93313 ], [ -77.35, 38.93308 ] ], [ [ -77.35385, 38.93809 ], [ -77.35384, 38.9375 ], [ -77.35348, 38.93779 ], [ -77.35385, 38.93809 ] ], [ [ -77.34957, 38.94493 ], [ -77.34859, 38.94495 ], [ -77.34954, 38.9469 ], [ -77.35004, 38.94672 ], [ -77.34941, 38.94601 ], [ -77.34964, 38.94564 ], [ -77.35056, 38.94567 ], [ -77.34957, 38.94493 ] ], [ [ -77.34488, 38.93175 ], [ -77.34491, 38.93174 ], [ -77.34486, 38.93172 ], [ -77.34488, 38.93175 ] ], [ [ -77.34476, 38.94068 ], [ -77.34482, 38.94093 ], [ -77.34485, 38.94071 ], [ -77.34476, 38.94068 ] ], [ [ -77.339, 38.93051 ], [ -77.33918, 38.9305 ], [ -77.33883, 38.9304 ], [ -77.339, 38.93051 ] ], [ [ -77.34187, 38.94444 ], [ -77.34189, 38.94444 ], [ -77.34186, 38.94442 ], [ -77.34187, 38.94444 ] ], [ [ -77.33279, 38.93347 ], [ -77.33245, 38.93304 ], [ -77.33258, 38.93359 ], [ -77.33279, 38.93347 ] ], [ [ -77.33696, 38.93263 ], [ -77.33765, 38.93315 ], [ -77.33768, 38.93195 ], [ -77.33687, 38.9322 ], [ -77.33696, 38.93263 ] ], [ [ -77.33525, 38.94197 ], [ -77.33529, 38.94198 ], [ -77.33529, 38.94194 ], [ -77.33525, 38.94197 ] ], [ [ -77.32812, 38.9427 ], [ -77.32833, 38.94271 ], [ -77.32845, 38.94224 ], [ -77.32767, 38.94214 ], [ -77.32812, 38.9427 ] ], [ [ -77.33016, 38.94009 ], [ -77.32995, 38.94009 ], [ -77.33009, 38.94016 ], [ -77.33016, 38.94009 ] ], [ [ -77.32529, 38.94034 ], [ -77.32591, 38.94049 ], [ -77.32538, 38.94015 ], [ -77.32529, 38.94034 ] ] ] } },
{ "type": "Feature", "properties": { "variant": "T0", "miles": 2.0 }, "geometry": { "type": "Polygon", "coordinates": [ [ [ -77.35377, 38.92819 ], [ -77.35278, 38.92835 ], [ -77.35306, 38.92892 ], [ -77.3541, 38.92933 ], [ -77.35394, 38.93008 ], [ -77.35193, 38.93017 ], [ -77.35187, 38.9295 ], [ -77.35121, 38.92799 ], [ -77.35104, 38.92875 ], [ -77.35007, 38.92888 ], [ -77.34959, 38.92747 ], [ -77.35007, 38.92939 ], [ -77.34983, 38.93014 ], [ -77.34885, 38.93013 ], [ -77.34867, 38.92957 ], [ -77.34714, 38.92975 ], [ -77.34568, 38.92947 ], [ -77.34736, 38.9312 ], [ -77.34813, 38.93057 ], [ -77.34962, 38.93112 ], [ -77.35029, 38.93289 ], [ -77.35165, 38.933 ], [ -77.35237, 38.93427 ], [ -77.3532, 38.93418 ], [ -77.3535, 38.93452 ], [ -77.35358, 38.9358 ], [ -77.35429, 38.93484 ], [ -77.35559, 38.93485 ], [ -77.35582, 38.93522 ], [ -77.35519, 38.93578 ], [ -77.35513, 38.9368 ], [ -77.3558, 38.93776 ], [ -77.35566, 38.93601 ], [ -77.35636, 38.93547 ], [ -77.35685, 38.93564 ], [ -77.35732, 38.93812 ], [ -77.3565, 38.93872 ], [ -77.35539, 38.93889 ], [ -77.35516, 38.93974 ], [ -77.35689, 38.94011 ], [ -77.35766, 38.93962 ], [ -77.35833, 38.93981 ], [ -77.36008, 38.93847 ], [ -77.36137, 38.93893 ], [ -77.36238, 38.93871 ], [ -77.36237, 38.93979 ], [ -77.3632, 38.94032 ], [ -77.36315, 38.94073 ], [ -77.36274, 38.94099 ], [ -77.36176, 38.94076 ], [ -77.3612, 38.94142 ], [ -77.36216, 38.94122 ], [ -77.3625, 38.94153 ], [ -77.36188, 38.94259 ], [ -77.36276, 38.94289 ], [ -77.36293, 38.94354 ], [ -77.36168, 38.94378 ], [ -77.36029, 38.9458 ], [ -77.36176, 38.94656 ], [ -77.36165, 38.94741 ], [ -77.36116, 38.94757 ], [ -77.35955, 38.94686 ], [ -77.35857, 38.94716 ], [ -77.35832, 38.94636 ], [ -77.35774, 38.94643 ], [ -77.3567, 38.94849 ], [ -77.35465, 38.9496 ], [ -77.35407, 38.95066 ], [ -77.35343, 38.95084 ], [ -77.35094, 38.94964 ], [ -77.34989, 38.95069 ], [ -77.34766, 38.95 ], [ -77.34774, 38.9487 ], [ -77.34903, 38.94818 ], [ -77.34794, 38.94727 ], [ -77.3472, 38.94857 ], [ -77.34604, 38.9494 ], [ -77.34486, 38.94918 ], [ -77.34446, 38.94848 ], [ -77.34604, 38.94797 ], [ -77.34678, 38.94664 ], [ -77.34589, 38.94617 ], [ -77.34502, 38.94605 ], [ -77.3441, 38.94655 ], [ -77.34476, 38.94753 ], [ -77.34417, 38.94814 ], [ -77.34329, 38.94776 ], [ -77.34271, 38.94658 ], [ -77.34123, 38.94688 ], [ -77.34041, 38.94653 ], [ -77.33999, 38.94727 ], [ -77.3386, 38.94674 ], [ -77.33782, 38.94818 ], [ -77.33923, 38.94799 ], [ -77.33962, 38.94827 ], [ -77.33948, 38.94901 ], [ -77.34099, 38.94943 ], [ -77.34142, 38.95012 ], [ -77.34106, 38.95042 ], [ -77.33984, 38.95025 ], [ -77.33908, 38.95138 ], [ -77.33648, 38.95078 ], [ -77.33604, 38.95178 ], [ -77.33521, 38.95214 ], [ -77.33456, 38.95144 ], [ -77.33571, 38.94894 ], [ -77.33393, 38.94836 ], [ -77.33339, 38.94893 ], [ -77.33286, 38.94892 ], [ -77.33249, 38.94862 ], [ -77.33266, 38.94792 ], [ -77.33182, 38.94745 ], [ -77.33183, 38.94704 ], [ -77.33357, 38.94668 ], [ -77.33515, 38.94706 ], [ -77.33553, 38.9466 ], [ -77.33606, 38.94661 ], [ -77.33657, 38.94739 ], [ -77.33789, 38.94531 ], [ -77.3351, 38.94486 ], [ -77.33399, 38.94397 ], [ -77.33268, 38.94358 ], [ -77.33254, 38.94271 ], [ -77.33185, 38.9426 ], [ -77.33176, 38.94345 ], [ -77.33071, 38.9442 ], [ -77.32999, 38.94369 ], [ -77.33048, 38.94245 ], [ -77.32982, 38.94238 ], [ -77.32913, 38.9436 ], [ -77.32796, 38.9438 ], [ -77.32699, 38.94333 ], [ -77.32618, 38.94182 ], [ -77.32438, 38.94141 ], [ -77.32375, 38.94143 ], [ -77.32324, 38.94157 ], [ -77.32435, 38.94168 ], [ -77.32415, 38.94242 ], [ -77.32317, 38.94265 ], [ -77.32218, 38.9423 ], [ -77.32161, 38.94283 ], [ -77.32256, 38.943 ], [ -77.32265, 38.94341 ], [ -77.32087, 38.94445 ], [ -77.31786, 38.94415 ], [ -77.31629, 38.94499 ], [ -77.31616, 38.94555 ], [ -77.31481, 38.9459 ], [ -77.31327, 38.94522 ], [ -77.31328, 38.94375 ], [ -77.31465, 38.94233 ], [ -77.31573, 38.94251 ], [ -77.31593, 38.94115 ], [ -77.31659, 38.94058 ], [ -77.31749, 38.94063 ], [ -77.31805, 38.93976 ], [ -77.31779, 38.93927 ], [ -77.31888, 38.93806 ], [ -77.31687, 38.93669 ], [ -77.31692, 38.93593 ], [ -77.31741, 38.93579 ], [ -77.31944, 38.93694 ], [ -77.32029, 38.9369 ], [ -77.32075, 38.93741 ], [ -77.3224, 38.93782 ], [ -77.32271, 38.93758 ], [ -77.32221, 38.937 ], [ -77.32241, 38.93661 ], [ -77.32351, 38.93657 ], [ -77.3225, 38.9354 ], [ -77.32193, 38.93586 ], [ -77.32107, 38.93549 ], [ -77.32129, 38.93485 ], [ -77.32086, 38.93445 ], [ -77.32138, 38.9338 ], [ -77.3235, 38.93464 ], [ -77.32483, 38.93623 ], [ -77.32512, 38.93592 ], [ -77.32425, 38.93424 ], [ -77.32475, 38.93353 ], [ -77.3232, 38.93397 ], [ -77.32168, 38.9333 ], [ -77.3221, 38.93261 ], [ -77.32371, 38.93279 ], [ -77.32406, 38.9317 ], [ -77.32332, 38.93057 ], [ -77.32253, 38.93084 ], [ -77.32166, 38.92981 ], [ -77.32136, 38.92844 ], [ -77.3218, 38.92747 ], [ -77.32116, 38.92711 ], [ -77.31994, 38.92826 ], [ -77.31912, 38.92784 ], [ -77.32001, 38.92651 ], [ -77.31917, 38.92586 ], [ -77.31969, 38.92522 ], [ -77.32084, 38.92564 ], [ -77.32161, 38.92507 ], [ -77.32247, 38.92501 ], [ -77.32276, 38.92574 ], [ -77.32199, 38.92625 ], [ -77.32327, 38.92672 ], [ -77.32637, 38.92481 ], [ -77.32734, 38.92475 ], [ -77.32742, 38.92551 ], [ -77.32613, 38.92642 ], [ -77.32745, 38.92572 ], [ -77.32795, 38.92584 ], [ -77.32804, 38.92661 ], [ -77.32652, 38.92769 ], [ -77.32601, 38.92779 ], [ -77.32513, 38.92717 ], [ -77.32444, 38.92753 ], [ -77.32403, 38.92906 ], [ -77.32467, 38.93025 ], [ -77.32532, 38.92893 ], [ -77.32999, 38.92521 ], [ -77.33029, 38.92448 ], [ -77.33122, 38.92472 ], [ -77.33147, 38.92536 ], [ -77.32978, 38.92687 ], [ -77.33185, 38.92583 ], [ -77.33405, 38.92554 ], [ -77.33388, 38.92474 ], [ -77.33425, 38.92445 ], [ -77.33515, 38.92475 ], [ -77.33543, 38.9254 ], [ -77.33744, 38.92521 ], [ -77.33689, 38.9241 ], [ -77.33613, 38.92423 ], [ -77.33565, 38.92357 ], [ -77.33741, 38.92279 ], [ -77.33998, 38.92287 ], [ -77.34041, 38.92334 ], [ -77.34027, 38.9239 ], [ -77.34142, 38.9251 ], [ -77.34391, 38.92543 ], [ -77.34368, 38.92359 ], [ -77.34576, 38.92104 ], [ -77.34251, 38.9209 ], [ -77.34234, 38.92015 ], [ -77.34353, 38.91987 ], [ -77.34425, 38.91891 ], [ -77.34621, 38.91927 ], [ -77.34713, 38.91838 ], [ -77.34864, 38.91926 ], [ -77.34855, 38.91966 ], [ -77.34746, 38.91976 ], [ -77.34736, 38.92015 ], [ -77.34859, 38.92031 ], [ -77.34936, 38.92 ], [ -77.34986, 38.92065 ], [ -77.3493, 38.92191 ], [ -77.34879, 38.92202 ], [ -77.3482, 38.92135 ], [ -77.34712, 38.92121 ], [ -77.34567, 38.92326 ], [ -77.34647, 38.92414 ], [ -77.34585, 38.9245 ], [ -77.34575, 38.92584 ], [ -77.34681, 38.92605 ], [ -77.34708, 38.9248 ], [ -77.34853, 38.92438 ], [ -77.35086, 38.92491 ], [ -77.35139, 38.92607 ], [ -77.35043, 38.92622 ], [ -77.34972, 38.92562 ], [ -77.34982, 38.92617 ], [ -77.3512, 38.92649 ], [ -77.35232, 38.92733 ], [ -77.35296, 38.92675 ], [ -77.35394, 38.92681 ], [ -77.35377, 38.92819 ] ], [ [ -77.34186, 38.94442 ], [ -77.34187, 38.94444 ], [ -77.34189, 38.94444 ], [ -77.34186, 38.94442 ] ], [ [ -77.34394, 38.94334 ], [ -77.34497, 38.94387 ], [ -77.34511, 38.94462 ], [ -77.34704, 38.94496 ], [ -77.34756, 38.94404 ], [ -77.3472, 38.94308 ], [ -77.34427, 38.9422 ], [ -77.34344, 38.94105 ], [ -77.34287, 38.94126 ], [ -77.34228, 38.94074 ], [ -77.3412, 38.94082 ], [ -77.34053, 38.94016 ], [ -77.33908, 38.94023 ], [ -77.33846, 38.93905 ], [ -77.3389, 38.9384 ], [ -77.33976, 38.93818 ], [ -77.34224, 38.93961 ], [ -77.34309, 38.93942 ], [ -77.34379, 38.93974 ], [ -77.34454, 38.93938 ], [ -77.3422, 38.93933 ], [ -77.3419, 38.93899 ], [ -77.34217, 38.93835 ], [ -77.34127, 38.93858 ], [ -77.34092, 38.93826 ], [ -77.34123, 38.93744 ], [ -77.34074, 38.93711 ], [ -77.34095, 38.93786 ], [ -77.34051, 38.93809 ], [ -77.33949, 38.93767 ], [ -77.33917, 38.93797 ], [ -77.33828, 38.93776 ], [ -77.33757, 38.93832 ], [ -77.3364, 38.93781 ], [ -77.33601, 38.93709 ], [ -77.33539, 38.93763 ], [ -77.33489, 38.9375 ], [ -77.33442, 38.93675 ], [ -77.33305, 38.93659 ], [ -77.33306, 38.93582 ], [ -77.33359, 38.93567 ], [ -77.33314, 38.93518 ], [ -77.33144, 38.93705 ], [ -77.33191, 38.93763 ], [ -77.33184, 38.9385 ], [ -77.33109, 38.93908 ], [ -77.33218, 38.94143 ], [ -77.33265, 38.9415 ], [ -77.33227, 38.94035 ], [ -77.33304, 38.93879 ], [ -77.33469, 38.93902 ], [ -77.33545, 38.93868 ], [ -77.33595, 38.93921 ], [ -77.33755, 38.9396 ], [ -77.33828, 38.94047 ], [ -77.33927, 38.94039 ], [ -77.33965, 38.94103 ], [ -77.33901, 38.94187 ], [ -77.34033, 38.94219 ], [ -77.34115, 38.94315 ], [ -77.34394, 38.94334 ] ], [ [ -77.33768, 38.93195 ], [ -77.33687, 38.9322 ], [ -77.33765, 38.93315 ], [ -77.33768, 38.93195 ] ], [ [ -77.33599, 38.92994 ], [ -77.3364, 38.92889 ], [ -77.3373, 38.92918 ], [ -77.33744, 38.93019 ], [ -77.33801, 38.92953 ], [ -77.33891, 38.92932 ], [ -77.34034, 38.92977 ], [ -77.34134, 38.93063 ], [ -77.34309, 38.93107 ], [ -77.34434, 38.93041 ], [ -77.34483, 38.9308 ], [ -77.34539, 38.93074 ], [ -77.3438, 38.92977 ], [ -77.34303, 38.9297 ], [ -77.34249, 38.92905 ], [ -77.34249, 38.92829 ], [ -77.34309, 38.92799 ], [ -77.34278, 38.9263 ], [ -77.3401, 38.9262 ], [ -77.33975, 38.92687 ], [ -77.33922, 38.92688 ], [ -77.33871, 38.92623 ], [ -77.33759, 38.92628 ], [ -77.33791, 38.92738 ], [ -77.33722, 38.92792 ], [ -77.33653, 38.92732 ], [ -77.33536, 38.92754 ], [ -77.33513, 38.92717 ], [ -77.33563, 38.92647 ], [ -77.33325, 38.92671 ], [ -77.33384, 38.92807 ], [ -77.33358, 38.92843 ], [ -77.33212, 38.9282 ], [ -77.33267, 38.92866 ], [ -77.33225, 38.92935 ], [ -77.33134, 38.92915 ], [ -77.33079, 38.9285 ], [ -77.32893, 38.9303 ], [ -77.32575, 38.9321 ], [ -77.32611, 38.93331 ], [ -77.32683, 38.93284 ], [ -77.32774, 38.93327 ], [ -77.32932, 38.9358 ], [ -77.3294, 38.93689 ], [ -77.32888, 38.93741 ], [ -77.33055, 38.93604 ], [ -77.3295, 38.93548 ], [ -77.32791, 38.93345 ], [ -77.32844, 38.93118 ], [ -77.32993, 38.93105 ], [ -77.33133, 38.93152 ], [ -77.33162, 38.93035 ], [ -77.33396, 38.93008 ], [ -77.33481, 38.9292 ], [ -77.33551, 38.92937 ], [ -77.33651, 38.93099 ], [ -77.33599, 38.92994 ] ], [ [ -77.34509, 38.92722 ], [ -77.34555, 38.92692 ], [ -77.3449, 38.92678 ], [ -77.34482, 38.92753 ], [ -77.34509, 38.92722 ] ], [ [ -77.34808, 38.92618 ], [ -77.34842, 38.92619 ], [ -77.34833, 38.92545 ], [ -77.34808, 38.92618 ] ], [ [ -77.3539, 38.94846 ], [ -77.35539, 38.94783 ], [ -77.356, 38.94615 ], [ -77.35708, 38.94532 ], [ -77.35737, 38.94329 ], [ -77.35708, 38.94203 ], [ -77.35498, 38.94217 ], [ -77.35497, 38.944 ], [ -77.35294, 38.94471 ], [ -77.35247, 38.94569 ], [ -77.35166, 38.94572 ], [ -77.3523, 38.9463 ], [ -77.35551, 38.94633 ], [ -77.35569, 38.94672 ], [ -77.35497, 38.94793 ], [ -77.35448, 38.94809 ], [ -77.35378, 38.94755 ], [ -77.35326, 38.9478 ], [ -77.35263, 38.9474 ], [ -77.35088, 38.94758 ], [ -77.3539, 38.94846 ] ], [ [ -77.34869, 38.94503 ], [ -77.34957, 38.94502 ], [ -77.34957, 38.94493 ], [ -77.34869, 38.94503 ] ], [ [ -77.34967, 38.94285 ], [ -77.35043, 38.94173 ], [ -77.35324, 38.94175 ], [ -77.35447, 38.94097 ], [ -77.352, 38.93999 ], [ -77.3512, 38.94026 ], [ -77.35081, 38.93998 ], [ -77.35044, 38.93906 ], [ -77.35132, 38.93866 ], [ -77.35061, 38.93831 ], [ -77.35021, 38.93693 ], [ -77.34829, 38.936 ], [ -77.34691, 38.93649 ], [ -77.34769, 38.93908 ], [ -77.34861, 38.93998 ], [ -77.34847, 38.94213 ], [ -77.34897, 38.94385 ], [ -77.34961, 38.94385 ], [ -77.34967, 38.94285 ] ], [ [ -77.34998, 38.93313 ], [ -77.35, 38.93308 ], [ -77.34996, 38.93309 ], [ -77.34998, 38.93313 ] ], [ [ -77.35386, 38.93781 ], [ -77.35384, 38.9375 ], [ -77.35348, 38.93779 ], [ -77.35386, 38.93781 ] ], [ [ -77.35845, 38.94517 ], [ -77.35887, 38.94525 ], [ -77.35869, 38.94449 ], [ -77.35909, 38.94393 ], [ -77.35864, 38.94376 ], [ -77.35845, 38.94517 ] ], [ [ -77.35179, 38.93579 ], [ -77.35225, 38.93511 ], [ -77.35189, 38.93534 ], [ -77.35141, 38.93531 ], [ -77.35179, 38.93579 ] ], [ [ -77.34658, 38.93633 ], [ -77.34609, 38.93621 ], [ -77.3461, 38.93636 ], [ -77.34658, 38.93633 ] ], [ [ -77.34146, 38.93188 ], [ -77.33918, 38.93171 ], [ -77.33932, 38.93312 ], [ -77.34228, 38.93311 ], [ -77.34332, 38.93357 ], [ -77.34352, 38.93564 ], [ -77.34281, 38.9368 ], [ -77.34373, 38.93763 ], [ -77.34391, 38.9368 ], [ -77.34472, 38.93637 ], [ -77.34497, 38.93474 ], [ -77.34472, 38.93378 ], [ -77.34146, 38.93188 ] ], [ [ -77.34488, 38.93175 ], [ -77.34491, 38.93174 ], [ -77.34486, 38.93172 ], [ -77.34488, 38.93175 ] ], [ [ -77.3493, 38.94623 ], [ -77.34954, 38.9469 ], [ -77.35004, 38.94672 ], [ -77.3493, 38.94623 ] ], [ [ -77.34497, 38.92419 ], [ -77.34495, 38.92418 ], [ -77.34496, 38.9242 ], [ -77.34497, 38.92419 ] ], [ [ -77.34207, 38.93419 ], [ -77.33915, 38.93421 ], [ -77.33812, 38.93544 ], [ -77.34166, 38.93608 ], [ -77.34207, 38.93419 ] ], [ [ -77.34476, 38.94068 ], [ -77.34482, 38.94093 ], [ -77.34485, 38.94071 ], [ -77.34476, 38.94068 ] ], [ [ -77.339, 38.93051 ], [ -77.33918, 38.9305 ], [ -77.33883, 38.9304 ], [ -77.339, 38.93051 ] ], [ [ -77.33826, 38.924 ], [ -77.33858, 38.92452 ], [ -77.33896, 38.92442 ], [ -77.33882, 38.92388 ], [ -77.33826, 38.924 ] ], [ [ -77.33568, 38.94334 ], [ -77.33488, 38.94314 ], [ -77.33588, 38.94397 ], [ -77.33649, 38.94387 ], [ -77.33568, 38.94334 ] ], [ [ -77.3364, 38.94033 ], [ -77.33469, 38.94015 ], [ -77.33503, 38.94057 ], [ -77.33651, 38.9405 ], [ -77.33708, 38.94106 ], [ -77.3364, 38.94033 ] ], [ [ -77.33979, 38.94393 ], [ -77.33954, 38.94365 ], [ -77.33932, 38.94373 ], [ -77.33949, 38.94416 ], [ -77.33979, 38.94393 ] ], [ [ -77.33966, 38.94551 ], [ -77.3396, 38.94559 ], [ -77.3398, 38.94554 ], [ -77.33966, 38.94551 ] ], [ [ -77.3373, 38.94986 ], [ -77.33747, 38.94953 ], [ -77.33714, 38.94939 ], [ -77.3373, 38.94986 ] ], [ [ -77.33632, 38.94774 ], [ -77.33615, 38.94791 ], [ -77.33623, 38.94794 ], [ -77.33632, 38.94774 ] ], [ [ -77.33233, 38.92685 ], [ -77.33224, 38.92687 ], [ -77.33228, 38.92688 ], [ -77.33233, 38.92685 ] ], [ [ -77.33258, 38.93359 ], [ -77.33268, 38.93363 ], [ -77.33279, 38.93347 ], [ -77.33245, 38.93304 ], [ -77.33258, 38.93359 ] ], [ [ -77.32995, 38.94009 ], [ -77.33009, 38.94016 ], [ -77.33016, 38.94009 ], [ -77.32995, 38.94009 ] ], [ [ -77.3288, 38.92769 ], [ -77.32848, 38.92804 ], [ -77.32958, 38.92704 ], [ -77.3288, 38.92769 ] ], [ [ -77.32845, 38.94224 ], [ -77.32767, 38.94214 ], [ -77.32812, 38.9427 ], [ -77.32845, 38.94224 ] ], [ [ -77.32289, 38.92778 ], [ -77.32272, 38.92776 ], [ -77.3228, 38.92801 ], [ -77.32289, 38.92778 ] ], [ [ -77.32529, 38.94034 ], [ -77.32591, 38.94049 ], [ -77.32538, 38.94015 ], [ -77.32529, 38.94034 ] ], [ [ -77.32422, 38.93954 ], [ -77.3235, 38.93958 ], [ -77.32299, 38.93884 ], [ -77.32198, 38.93893 ], [ -77.32211, 38.94066 ], [ -77.32391, 38.94019 ], [ -77.32422, 38.93954 ] ], [ [ -77.3183, 38.9413 ], [ -77.31908, 38.94185 ], [ -77.31985, 38.94161 ], [ -77.32067, 38.94184 ], [ -77.3211, 38.94144 ], [ -77.32058, 38.93924 ], [ -77.32031, 38.93911 ], [ -77.3183, 38.9413 ] ], [ [ -77.31748, 38.94218 ], [ -77.31708, 38.94187 ], [ -77.31694, 38.94287 ], [ -77.31836, 38.94293 ], [ -77.31748, 38.94218 ] ], [ [ -77.3144, 38.94443 ], [ -77.31465, 38.94482 ], [ -77.31596, 38.94387 ], [ -77.31522, 38.94365 ], [ -77.3144, 38.94443 ] ] ] } },
{ "type": "Feature", "properties": { "variant": "T2s", "miles": 1.0 }, "geometry": { "type": "Polygon", "coordinates": [ [ [ -77.34478, 38.93063 ], [ -77.34468, 38.93227 ], [ -77.34601, 38.93336 ], [ -77.34617, 38.93417 ], [ -77.34753, 38.93399 ], [ -77.34943, 38.93488 ], [ -77.34901, 38.93557 ], [ -77.34747, 38.93595 ], [ -77.34608, 38.93557 ], [ -77.3461, 38.93636 ], [ -77.34726, 38.93678 ], [ -77.34769, 38.93908 ], [ -77.34861, 38.93998 ], [ -77.34847, 38.94213 ], [ -77.34897, 38.94385 ], [ -77.35052, 38.94393 ], [ -77.35066, 38.94469 ], [ -77.34861, 38.94492 ], [ -77.34789, 38.94568 ], [ -77.34736, 38.94563 ], [ -77.34703, 38.94531 ], [ -77.34758, 38.94378 ], [ -77.3472, 38.94308 ], [ -77.34427, 38.9422 ], [ -77.34344, 38.94105 ], [ -77.34287, 38.94126 ], [ -77.34228, 38.94074 ], [ -77.3412, 38.94082 ], [ -77.34053, 38.94016 ], [ -77.33919, 38.94028 ], [ -77.33846, 38.93905 ], [ -77.3389, 38.9384 ], [ -77.33976, 38.93818 ], [ -77.34224, 38.93961 ], [ -77.34309, 38.93942 ], [ -77.34379, 38.93974 ], [ -77.34454, 38.93938 ], [ -77.3422, 38.93933 ], [ -77.3419, 38.93899 ], [ -77.34217, 38.93835 ], [ -77.34127, 38.93858 ], [ -77.34092, 38.93826 ], [ -77.34123, 38.93744 ], [ -77.34074, 38.93711 ], [ -77.34095, 38.93786 ], [ -77.34051, 38.93809 ], [ -77.33949, 38.93767 ], [ -77.33917, 38.93797 ], [ -77.33828, 38.93776 ], [ -77.33757, 38.93832 ], [ -77.3364, 38.93781 ], [ -77.33601, 38.93709 ], [ -77.33539, 38.93763 ], [ -77.33489, 38.9375 ], [ -77.33442, 38.93675 ], [ -77.33305, 38.93659 ], [ -77.33306, 38.93582 ], [ -77.33359, 38.93567 ], [ -77.33314, 38.93518 ], [ -77.33144, 38.93705 ], [ -77.33191, 38.93763 ], [ -77.33184, 38.9385 ], [ -77.33114, 38.9389 ], [ -77.33085, 38.93983 ], [ -77.32967, 38.94009 ], [ -77.32923, 38.94063 ], [ -77.32836, 38.94027 ], [ -77.32844, 38.93813 ], [ -77.33106, 38.93548 ], [ -77.32995, 38.93506 ], [ -77.32887, 38.93374 ], [ -77.32993, 38.93234 ], [ -77.32925, 38.93199 ], [ -77.32957, 38.93127 ], [ -77.33133, 38.93152 ], [ -77.33162, 38.93035 ], [ -77.33396, 38.93008 ], [ -77.33481, 38.9292 ], [ -77.33551, 38.92937 ], [ -77.33641, 38.93104 ], [ -77.33603, 38.92918 ], [ -77.33693, 38.92889 ], [ -77.33742, 38.93018 ], [ -77.33808, 38.92949 ], [ -77.33919, 38.92935 ], [ -77.34134, 38.93063 ], [ -77.34309, 38.93107 ], [ -77.34434, 38.93041 ], [ -77.34478, 38.93063 ] ], [ [ -77.33812, 38.93544 ], [ -77.34166, 38.93608 ], [ -77.34222, 38.9343 ], [ -77.33915, 38.93421 ], [ -77.33812, 38.93544 ] ], [ [ -77.34373, 38.93763 ], [ -77.34391, 38.9368 ], [ -77.34472, 38.93637 ], [ -77.34472, 38.93378 ], [ -77.34409, 38.93363 ], [ -77.34341, 38.93247 ], [ -77.34118, 38.93183 ], [ -77.33918, 38.93171 ], [ -77.33932, 38.93312 ], [ -77.34228, 38.93311 ], [ -77.34332, 38.93357 ], [ -77.34352, 38.93564 ], [ -77.34281, 38.9368 ], [ -77.34373, 38.93763 ] ], [ [ -77.33768, 38.93195 ], [ -77.33687, 38.9322 ], [ -77.33763, 38.93315 ], [ -77.33765, 38.93315 ], [ -77.33768, 38.93195 ] ], [ [ -77.34476, 38.94068 ], [ -77.34485, 38.94071 ], [ -77.34498, 38.94063 ], [ -77.34476, 38.94068 ] ], [ [ -77.33896, 38.93043 ], [ -77.33885, 38.93052 ], [ -77.33918, 38.9305 ], [ -77.33896, 38.93043 ] ], [ [ -77.33258, 38.93359 ], [ -77.33263, 38.93329 ], [ -77.33245, 38.93304 ], [ -77.33258, 38.93359 ] ] ] } },
{ "type": "Feature", "properties": { "variant": "T2s", "miles": 1.5 }, "geometry": { "type": "Polygon", "coordinates": [ [ [ -77.35178, 38.93385 ], [ -77.35201, 38.9346 ], [ -77.35135, 38.93538 ], [ -77.35216, 38.93707 ], [ -77.35173, 38.93744 ], [ -77.35365, 38.93969 ], [ -77.35325, 38.94039 ], [ -77.35081, 38.93998 ], [ -77.35044, 38.93906 ], [ -77.35134, 38.93873 ], [ -77.35061, 38.93831 ], [ -77.35021, 38.93693 ], [ -77.34829, 38.936 ], [ -77.34691, 38.93649 ], [ -77.34769, 38.93908 ], [ -77.34861, 38.93998 ], [ -77.34847, 38.94213 ], [ -77.34897, 38.94385 ], [ -77.34961, 38.94385 ], [ -77.34967, 38.94285 ], [ -77.35043, 38.94173 ], [ -77.35183, 38.94156 ], [ -77.35418, 38.94165 ], [ -77.35522, 38.94364 ], [ -77.35458, 38.94423 ], [ -77.35294, 38.94471 ], [ -77.35247, 38.94569 ], [ -77.35166, 38.94572 ], [ -77.3523, 38.9463 ], [ -77.35496, 38.94649 ], [ -77.35496, 38.94726 ], [ -77.35326, 38.9478 ], [ -77.35263, 38.9474 ], [ -77.35091, 38.94757 ], [ -77.35162, 38.948 ], [ -77.35124, 38.9487 ], [ -77.34916, 38.94812 ], [ -77.3462, 38.94585 ], [ -77.33891, 38.94529 ], [ -77.33856, 38.94458 ], [ -77.33979, 38.94393 ], [ -77.3396, 38.9432 ], [ -77.34004, 38.94297 ], [ -77.34181, 38.9431 ], [ -77.34286, 38.94366 ], [ -77.34394, 38.94334 ], [ -77.34497, 38.94387 ], [ -77.34511, 38.94462 ], [ -77.34704, 38.94496 ], [ -77.34754, 38.94359 ], [ -77.3472, 38.94308 ], [ -77.34421, 38.94216 ], [ -77.34344, 38.94105 ], [ -77.34287, 38.94126 ], [ -77.34228, 38.94074 ], [ -77.3412, 38.94082 ], [ -77.34053, 38.94016 ], [ -77.33973, 38.94038 ], [ -77.33882, 38.94005 ], [ -77.33853, 38.93882 ], [ -77.3396, 38.93818 ], [ -77.34053, 38.93839 ], [ -77.34112, 38.93918 ], [ -77.34224, 38.93961 ], [ -77.34461, 38.93958 ], [ -77.3422, 38.93933 ], [ -77.3419, 38.93899 ], [ -77.34217, 38.93835 ], [ -77.34127, 38.93858 ], [ -77.34092, 38.93826 ], [ -77.34123, 38.93744 ], [ -77.34086, 38.93715 ], [ -77.34095, 38.93786 ], [ -77.34051, 38.93809 ], [ -77.33949, 38.93767 ], [ -77.33706, 38.93822 ], [ -77.33601, 38.93709 ], [ -77.33539, 38.93763 ], [ -77.33454, 38.93725 ], [ -77.33442, 38.93675 ], [ -77.33305, 38.93659 ], [ -77.33306, 38.93582 ], [ -77.33359, 38.93567 ], [ -77.33314, 38.93518 ], [ -77.33144, 38.93705 ], [ -77.33191, 38.93763 ], [ -77.33184, 38.9385 ], [ -77.33109, 38.93908 ], [ -77.33218, 38.94143 ], [ -77.33265, 38.9415 ], [ -77.33226, 38.94053 ], [ -77.33252, 38.93975 ], [ -77.33334, 38.93919 ], [ -77.33428, 38.93941 ], [ -77.33544, 38.94129 ], [ -77.336, 38.94113 ], [ -77.33664, 38.9415 ], [ -77.33659, 38.94252 ], [ -77.33602, 38.94326 ], [ -77.33389, 38.94295 ], [ -77.33348, 38.94366 ], [ -77.33295, 38.9437 ], [ -77.33246, 38.94326 ], [ -77.33254, 38.94271 ], [ -77.33185, 38.9426 ], [ -77.33176, 38.94345 ], [ -77.33071, 38.9442 ], [ -77.32999, 38.94369 ], [ -77.33048, 38.94245 ], [ -77.32982, 38.94238 ], [ -77.32933, 38.94346 ], [ -77.32802, 38.94381 ], [ -77.32699, 38.94333 ], [ -77.32618, 38.94182 ], [ -77.32393, 38.94127 ], [ -77.322, 38.94197 ], [ -77.32133, 38.94141 ], [ -77.32224, 38.94059 ], [ -77.32391, 38.94019 ], [ -77.32431, 38.93937 ], [ -77.324, 38.93867 ], [ -77.32439, 38.93839 ], [ -77.32598, 38.93874 ], [ -77.32529, 38.94034 ], [ -77.3265, 38.94063 ], [ -77.32735, 38.93998 ], [ -77.32593, 38.93855 ], [ -77.32622, 38.93682 ], [ -77.32779, 38.93671 ], [ -77.32854, 38.93776 ], [ -77.33055, 38.93604 ], [ -77.3295, 38.93548 ], [ -77.32795, 38.93354 ], [ -77.32822, 38.93141 ], [ -77.32943, 38.931 ], [ -77.33133, 38.93152 ], [ -77.33162, 38.93035 ], [ -77.33396, 38.93008 ], [ -77.33457, 38.92924 ], [ -77.33551, 38.92937 ], [ -77.33641, 38.93104 ], [ -77.33599, 38.92979 ], [ -77.3364, 38.92889 ], [ -77.3373, 38.92918 ], [ -77.33742, 38.93018 ], [ -77.33808, 38.92949 ], [ -77.33909, 38.92934 ], [ -77.34034, 38.92977 ], [ -77.34134, 38.93063 ], [ -77.34309, 38.93107 ], [ -77.34434, 38.93041 ], [ -77.34722, 38.93134 ], [ -77.34813, 38.93057 ], [ -77.34962, 38.93112 ], [ -77.34981, 38.9321 ], [ -77.35043, 38.93265 ], [ -77.34996, 38.93309 ], [ -77.34981, 38.93455 ], [ -77.35021, 38.93476 ], [ -77.35058, 38.93397 ], [ -77.35178, 38.93385 ] ], [ [ -77.33812, 38.93544 ], [ -77.34166, 38.93608 ], [ -77.34215, 38.93421 ], [ -77.33915, 38.93421 ], [ -77.33812, 38.93544 ] ], [ [ -77.34472, 38.93637 ], [ -77.34472, 38.93379 ], [ -77.34409, 38.93363 ], [ -77.3434, 38.93259 ], [ -77.34146, 38.93188 ], [ -77.33918, 38.93171 ], [ -77.33932, 38.93312 ], [ -77.34228, 38.93311 ], [ -77.34332, 38.93357 ], [ -77.34352, 38.93564 ], [ -77.34281, 38.9368 ], [ -77.34373, 38.93763 ], [ -77.34391, 38.9368 ], [ -77.34472, 38.93637 ] ], [ [ -77.34486, 38.93172 ], [ -77.34488, 38.93175 ], [ -77.34491, 38.93174 ], [ -77.34486, 38.93172 ] ], [ [ -77.3461, 38.93636 ], [ -77.34658, 38.93633 ], [ -77.34609, 38.93621 ], [ -77.3461, 38.93636 ] ], [ [ -77.34974, 38.94686 ], [ -77.35004, 38.94672 ], [ -77.34941, 38.94601 ], [ -77.34964, 38.94564 ], [ -77.35056, 38.94567 ], [ -77.34957, 38.94493 ], [ -77.34861, 38.94492 ], [ -77.34974, 38.94686 ] ], [ [ -77.34485, 38.94071 ], [ -77.34476, 38.94068 ], [ -77.34482, 38.94093 ], [ -77.34485, 38.94071 ] ], [ [ -77.34186, 38.94442 ], [ -77.34187, 38.94444 ], [ -77.34189, 38.94444 ], [ -77.34186, 38.94442 ] ], [ [ -77.33687, 38.9322 ], [ -77.33696, 38.93263 ], [ -77.33765, 38.93315 ], [ -77.33768, 38.93195 ], [ -77.33687, 38.9322 ] ], [ [ -77.33883, 38.9304 ], [ -77.339, 38.93051 ], [ -77.33918, 38.9305 ], [ -77.33883, 38.9304 ] ], [ [ -77.33268, 38.93363 ], [ -77.33247, 38.93305 ], [ -77.33245, 38.93304 ], [ -77.33268, 38.93363 ] ], [ [ -77.33529, 38.94197 ], [ -77.33529, 38.94194 ], [ -77.33525, 38.94197 ], [ -77.33529, 38.94197 ] ], [ [ -77.33016, 38.94009 ], [ -77.32995, 38.94009 ], [ -77.33009, 38.94016 ], [ -77.33016, 38.94009 ] ], [ [ -77.32812, 38.9427 ], [ -77.32845, 38.94224 ], [ -77.32767, 38.94214 ], [ -77.32812, 38.9427 ] ] ] } },
{ "type": "Feature", "properties": { "variant": "T2s", "miles": 2.0 }, "geometry": { "type": "Polygon", "coordinates": [ [ [ -77.35381, 38.93583 ], [ -77.35429, 38.93484 ], [ -77.35559, 38.93485 ], [ -77.35582, 38.93522 ], [ -77.35519, 38.93578 ], [ -77.35513, 38.93681 ], [ -77.3558, 38.93776 ], [ -77.35653, 38.93737 ], [ -77.35735, 38.93779 ], [ -77.35668, 38.93863 ], [ -77.35539, 38.93889 ], [ -77.35516, 38.93974 ], [ -77.35823, 38.94041 ], [ -77.35881, 38.94138 ], [ -77.36297, 38.94313 ], [ -77.36253, 38.94381 ], [ -77.36168, 38.94378 ], [ -77.35909, 38.9472 ], [ -77.35823, 38.94684 ], [ -77.35832, 38.94636 ], [ -77.35742, 38.94626 ], [ -77.35716, 38.9459 ], [ -77.35725, 38.94216 ], [ -77.35664, 38.94186 ], [ -77.35587, 38.9423 ], [ -77.35498, 38.94217 ], [ -77.35497, 38.944 ], [ -77.35294, 38.94471 ], [ -77.35247, 38.94569 ], [ -77.35166, 38.94572 ], [ -77.3523, 38.9463 ], [ -77.35551, 38.94633 ], [ -77.35569, 38.94672 ], [ -77.35497, 38.94793 ], [ -77.35448, 38.94809 ], [ -77.35378, 38.94755 ], [ -77.35326, 38.9478 ], [ -77.35263, 38.9474 ], [ -77.35097, 38.94755 ], [ -77.35161, 38.94841 ], [ -77.35071, 38.9487 ], [ -77.34911, 38.94809 ], [ -77.34726, 38.94643 ], [ -77.34502, 38.94605 ], [ -77.3441, 38.94655 ], [ -77.34476, 38.94753 ], [ -77.34417, 38.94814 ], [ -77.34329, 38.94776 ], [ -77.34271, 38.94658 ], [ -77.34123, 38.94688 ], [ -77.34041, 38.94653 ], [ -77.33999, 38.94727 ], [ -77.3386, 38.94674 ], [ -77.33782, 38.94818 ], [ -77.33923, 38.94799 ], [ -77.33962, 38.94827 ], [ -77.33948, 38.94901 ], [ -77.34099, 38.94943 ], [ -77.34142, 38.95012 ], [ -77.34053, 38.95045 ], [ -77.33874, 38.94996 ], [ -77.33799, 38.95104 ], [ -77.33648, 38.95078 ], [ -77.33604, 38.95178 ], [ -77.33521, 38.95214 ], [ -77.33461, 38.95182 ], [ -77.33473, 38.95092 ], [ -77.33789, 38.94531 ], [ -77.3351, 38.94486 ], [ -77.33399, 38.94397 ], [ -77.33268, 38.94358 ], [ -77.33254, 38.94271 ], [ -77.33185, 38.9426 ], [ -77.33176, 38.94345 ], [ -77.33071, 38.9442 ], [ -77.32999, 38.94369 ], [ -77.33048, 38.94245 ], [ -77.32982, 38.94238 ], [ -77.32913, 38.9436 ], [ -77.32796, 38.9438 ], [ -77.32699, 38.94333 ], [ -77.32618, 38.94182 ], [ -77.32398, 38.94141 ], [ -77.32324, 38.94157 ], [ -77.32435, 38.94168 ], [ -77.32415, 38.94242 ], [ -77.32317, 38.94265 ], [ -77.32218, 38.9423 ], [ -77.32082, 38.9434 ], [ -77.31882, 38.94409 ], [ -77.31637, 38.94399 ], [ -77.31418, 38.94314 ], [ -77.31465, 38.94233 ], [ -77.31843, 38.94304 ], [ -77.31633, 38.94096 ], [ -77.31657, 38.94059 ], [ -77.31749, 38.94063 ], [ -77.31805, 38.93976 ], [ -77.31779, 38.93927 ], [ -77.31888, 38.93806 ], [ -77.31687, 38.93669 ], [ -77.31692, 38.93593 ], [ -77.31741, 38.93579 ], [ -77.31944, 38.93694 ], [ -77.32029, 38.9369 ], [ -77.32075, 38.93741 ], [ -77.3224, 38.93782 ], [ -77.32271, 38.93758 ], [ -77.32221, 38.937 ], [ -77.32241, 38.93661 ], [ -77.32351, 38.93657 ], [ -77.3225, 38.9354 ], [ -77.32193, 38.93586 ], [ -77.32107, 38.93549 ], [ -77.32129, 38.93485 ], [ -77.32086, 38.93445 ], [ -77.32138, 38.9338 ], [ -77.3235, 38.93464 ], [ -77.32483, 38.93623 ], [ -77.32512, 38.93592 ], [ -77.32428, 38.93443 ], [ -77.3248, 38.93366 ], [ -77.32406, 38.93166 ], [ -77.32552, 38.93053 ], [ -77.32644, 38.9305 ], [ -77.32714, 38.93124 ], [ -77.32694, 38.93162 ], [ -77.32565, 38.93182 ], [ -77.32611, 38.93331 ], [ -77.32666, 38.93285 ], [ -77.3275, 38.93304 ], [ -77.32932, 38.9358 ], [ -77.3294, 38.93689 ], [ -77.32888, 38.93741 ], [ -77.33055, 38.93604 ], [ -77.3295, 38.93548 ], [ -77.32791, 38.93345 ], [ -77.32848, 38.93115 ], [ -77.32993, 38.93105 ], [ -77.33133, 38.93152 ], [ -77.33162, 38.93035 ], [ -77.33396, 38.93008 ], [ -77.33481, 38.9292 ], [ -77.33551, 38.92937 ], [ -77.33641, 38.93104 ], [ -77.33599, 38.92979 ], [ -77.3364, 38.92889 ], [ -77.3373, 38.92918 ], [ -77.33744, 38.93019 ], [ -77.33801, 38.92953 ], [ -77.33891, 38.92932 ], [ -77.34034, 38.92977 ], [ -77.34134, 38.93063 ], [ -77.34309, 38.93107 ], [ -77.34434, 38.93041 ], [ -77.34483, 38.9308 ], [ -77.34539, 38.93074 ], [ -77.3438, 38.92977 ], [ -77.34303, 38.9297 ], [ -77.34249, 38.92905 ], [ -77.34249, 38.92829 ], [ -77.34309, 38.92799 ], [ -77.34278, 38.9263 ], [ -77.34078, 38.92619 ], [ -77.34007, 38.92566 ], [ -77.34075, 38.92511 ], [ -77.34391, 38.92543 ], [ -77.3436, 38.92386 ], [ -77.34438, 38.92288 ], [ -77.34522, 38.92327 ], [ -77.34496, 38.9242 ], [ -77.34588, 38.92453 ], [ -77.34575, 38.92584 ], [ -77.3492, 38.92617 ], [ -77.34992, 38.92669 ], [ -77.34973, 38.92708 ], [ -77.34885, 38.92726 ], [ -77.34855, 38.92787 ], [ -77.34802, 38.92791 ], [ -77.34708, 38.92719 ], [ -77.34671, 38.92756 ], [ -77.34704, 38.92808 ], [ -77.34633, 38.9286 ], [ -77.34516, 38.92785 ], [ -77.34502, 38.92746 ], [ -77.34555, 38.92692 ], [ -77.3449, 38.92678 ], [ -77.34481, 38.92788 ], [ -77.34533, 38.92907 ], [ -77.34736, 38.9312 ], [ -77.34813, 38.93057 ], [ -77.34962, 38.93112 ], [ -77.35029, 38.93289 ], [ -77.35165, 38.933 ], [ -77.35237, 38.93427 ], [ -77.3532, 38.93418 ], [ -77.35381, 38.93583 ] ], [ [ -77.33979, 38.94393 ], [ -77.33954, 38.94365 ], [ -77.33932, 38.94373 ], [ -77.33951, 38.94407 ], [ -77.33979, 38.94393 ] ], [ [ -77.34048, 38.94227 ], [ -77.34115, 38.94315 ], [ -77.34275, 38.943 ], [ -77.34441, 38.94354 ], [ -77.34524, 38.94422 ], [ -77.34511, 38.94462 ], [ -77.34704, 38.94496 ], [ -77.34754, 38.94412 ], [ -77.3472, 38.94308 ], [ -77.34427, 38.9422 ], [ -77.34344, 38.94105 ], [ -77.34287, 38.94126 ], [ -77.34228, 38.94074 ], [ -77.3412, 38.94082 ], [ -77.34053, 38.94016 ], [ -77.33919, 38.94028 ], [ -77.33846, 38.93905 ], [ -77.3389, 38.9384 ], [ -77.33976, 38.93818 ], [ -77.34224, 38.93961 ], [ -77.34309, 38.93942 ], [ -77.34379, 38.93974 ], [ -77.34454, 38.93938 ], [ -77.3422, 38.93933 ], [ -77.3419, 38.93899 ], [ -77.34217, 38.93835 ], [ -77.34127, 38.93858 ], [ -77.34092, 38.93826 ], [ -77.34123, 38.93744 ], [ -77.34074, 38.93711 ], [ -77.34095, 38.93786 ], [ -77.34051, 38.93809 ], [ -77.33949, 38.93767 ], [ -77.33917, 38.93797 ], [ -77.33828, 38.93776 ], [ -77.33757, 38.93832 ], [ -77.3364, 38.93781 ], [ -77.33601, 38.93709 ], [ -77.33539, 38.93763 ], [ -77.33489, 38.9375 ], [ -77.33442, 38.93675 ], [ -77.33305, 38.93659 ], [ -77.33306, 38.93582 ], [ -77.33359, 38.93567 ], [ -77.33314, 38.93518 ], [ -77.33144, 38.93705 ], [ -77.33191, 38.93763 ], [ -77.33184, 38.9385 ], [ -77.33109, 38.93908 ], [ -77.33218, 38.94143 ], [ -77.33265, 38.9415 ], [ -77.33227, 38.94035 ], [ -77.33304, 38.93879 ], [ -77.33469, 38.93902 ], [ -77.33545, 38.93868 ], [ -77.33595, 38.93921 ], [ -77.33755, 38.9396 ], [ -77.33828, 38.94047 ], [ -77.3395, 38.94057 ], [ -77.33965, 38.94103 ], [ -77.33905, 38.94187 ], [ -77.34048, 38.94227 ] ], [ [ -77.34166, 38.93608 ], [ -77.34222, 38.9343 ], [ -77.33915, 38.93421 ], [ -77.33812, 38.93544 ], [ -77.34166, 38.93608 ] ], [ [ -77.33768, 38.93195 ], [ -77.33687, 38.9322 ], [ -77.33763, 38.93315 ], [ -77.33768, 38.93195 ] ], [ [ -77.34861, 38.93998 ], [ -77.34847, 38.94213 ], [ -77.34897, 38.94385 ], [ -77.34961, 38.94385 ], [ -77.34967, 38.94285 ], [ -77.35043, 38.94173 ], [ -77.35324, 38.94175 ], [ -77.35447, 38.94097 ], [ -77.352, 38.93999 ], [ -77.3512, 38.94026 ], [ -77.35081, 38.93998 ], [ -77.35044, 38.93906 ], [ -77.35132, 38.93866 ], [ -77.35061, 38.93831 ], [ -77.35021, 38.93693 ], [ -77.34829, 38.936 ], [ -77.34691, 38.93649 ], [ -77.34861, 38.93998 ] ], [ [ -77.35225, 38.93511 ], [ -77.35135, 38.93538 ], [ -77.35179, 38.93579 ], [ -77.35225, 38.93511 ] ], [ [ -77.35348, 38.93779 ], [ -77.35385, 38.93809 ], [ -77.35386, 38.93794 ], [ -77.35385, 38.93758 ], [ -77.35348, 38.93779 ] ], [ [ -77.35845, 38.94517 ], [ -77.35887, 38.94525 ], [ -77.35869, 38.94449 ], [ -77.35909, 38.94393 ], [ -77.35859, 38.94389 ], [ -77.35845, 38.94517 ] ], [ [ -77.35, 38.93308 ], [ -77.34996, 38.93309 ], [ -77.34998, 38.93313 ], [ -77.35, 38.93308 ] ], [ [ -77.34957, 38.94502 ], [ -77.34957, 38.94493 ], [ -77.34861, 38.94492 ], [ -77.34957, 38.94502 ] ], [ [ -77.3493, 38.94623 ], [ -77.34954, 38.9469 ], [ -77.35004, 38.94672 ], [ -77.3493, 38.94623 ] ], [ [ -77.34472, 38.93637 ], [ -77.34472, 38.93378 ], [ -77.34239, 38.93215 ], [ -77.33918, 38.93171 ], [ -77.33932, 38.93312 ], [ -77.34228, 38.93311 ], [ -77.34332, 38.93357 ], [ -77.34352, 38.93564 ], [ -77.34281, 38.9368 ], [ -77.34373, 38.93763 ], [ -77.34391, 38.9368 ], [ -77.34472, 38.93637 ] ], [ [ -77.34486, 38.93172 ], [ -77.34488, 38.93175 ], [ -77.34491, 38.93174 ], [ -77.34486, 38.93172 ] ], [ [ -77.34658, 38.93633 ], [ -77.34609, 38.93621 ], [ -77.3461, 38.93636 ], [ -77.34658, 38.93633 ] ], [ [ -77.34476, 38.94068 ], [ -77.34482, 38.94093 ], [ -77.34485, 38.94071 ], [ -77.34476, 38.94068 ] ], [ [ -77.33885, 38.93052 ], [ -77.33918, 38.9305 ], [ -77.33896, 38.93043 ], [ -77.33885, 38.93052 ] ], [ [ -77.34187, 38.94444 ], [ -77.34189, 38.94444 ], [ -77.34186, 38.94442 ], [ -77.34187, 38.94444 ] ], [ [ -77.3398, 38.94554 ], [ -77.33966, 38.94551 ], [ -77.3396, 38.94559 ], [ -77.3398, 38.94554 ] ], [ [ -77.3373, 38.94986 ], [ -77.33747, 38.94953 ], [ -77.33714, 38.94939 ], [ -77.33693, 38.94976 ], [ -77.3373, 38.94986 ] ], [ [ -77.33568, 38.94334 ], [ -77.33488, 38.94314 ], [ -77.33609, 38.94403 ], [ -77.33649, 38.94387 ], [ -77.33568, 38.94334 ] ], [ [ -77.33708, 38.94106 ], [ -77.33684, 38.94058 ], [ -77.33654, 38.94037 ], [ -77.33469, 38.94015 ], [ -77.33503, 38.94057 ], [ -77.33651, 38.9405 ], [ -77.33708, 38.94106 ] ], [ [ -77.33263, 38.93329 ], [ -77.33245, 38.93304 ], [ -77.33258, 38.93359 ], [ -77.33263, 38.93329 ] ], [ [ -77.32812, 38.9427 ], [ -77.32833, 38.94271 ], [ -77.32845, 38.94224 ], [ -77.32767, 38.94214 ], [ -77.32812, 38.9427 ] ], [ [ -77.33016, 38.94009 ], [ -77.32995, 38.94009 ], [ -77.33009, 38.94016 ], [ -77.33016, 38.94009 ] ], [ [ -77.32529, 38.94034 ], [ -77.32591, 38.94049 ], [ -77.32538, 38.94015 ], [ -77.32529, 38.94034 ] ], [ [ -77.32198, 38.93893 ], [ -77.32211, 38.94066 ], [ -77.32391, 38.94019 ], [ -77.32422, 38.93954 ], [ -77.3235, 38.93958 ], [ -77.32315, 38.93905 ], [ -77.32198, 38.93893 ] ], [ [ -77.3183, 38.9413 ], [ -77.31908, 38.94185 ], [ -77.31985, 38.94161 ], [ -77.32067, 38.94184 ], [ -77.3211, 38.94144 ], [ -77.32058, 38.93924 ], [ -77.32031, 38.93911 ], [ -77.3183, 38.9413 ] ] ] } }
]
}
