{
"type": "FeatureCollection",
"name": "327",
"crs": { "type": "name", "properties": { "name": "urn:ogc:def:crs:OGC:1.3:CRS84" } },
"xy_coordinate_resolution": 1e-05,
"features": [
{ "type": "Feature", "properties": { "variant": "T0", "miles": 0.5 }, "geometry": { "type": "Polygon", "coordinates": [ [ [ -77.36553, 38.9275 ], [ -77.36733, 38.9277 ], [ -77.36843, 38.9287 ], [ -77.36819, 38.92907 ], [ -77.36728, 38.92917 ], [ -77.36748, 38.92985 ], [ -77.36706, 38.9301 ], [ -77.36555, 38.92951 ], [ -77.36413, 38.93046 ], [ -77.36513, 38.93136 ], [ -77.36558, 38.93138 ], [ -77.36562, 38.93056 ], [ -77.36707, 38.93019 ], [ -77.36792, 38.93069 ], [ -77.36996, 38.93045 ], [ -77.37039, 38.93124 ], [ -77.36964, 38.93174 ], [ -77.36779, 38.93184 ], [ -77.36569, 38.934 ], [ -77.36713, 38.93432 ], [ -77.36763, 38.93528 ], [ -77.36648, 38.93577 ], [ -77.36577, 38.9372 ], [ -77.36529, 38.93737 ], [ -77.36433, 38.9369 ], [ -77.36508, 38.93766 ], [ -77.36491, 38.93805 ], [ -77.36372, 38.93794 ], [ -77.36317, 38.93853 ], [ -77.36245, 38.93842 ], [ -77.36158, 38.93792 ], [ -77.36116, 38.93588 ], [ -77.36011, 38.93438 ], [ -77.36086, 38.93376 ], [ -77.36174, 38.93411 ], [ -77.36196, 38.93217 ], [ -77.36057, 38.93129 ], [ -77.35995, 38.9321 ], [ -77.35907, 38.93177 ], [ -77.35886, 38.92982 ], [ -77.35951, 38.92944 ], [ -77.35934, 38.92912 ], [ -77.35663, 38.92955 ], [ -77.35583, 38.92911 ], [ -77.35595, 38.92871 ], [ -77.35998, 38.92793 ], [ -77.36022, 38.92713 ], [ -77.36101, 38.92711 ], [ -77.36167, 38.9266 ], [ -77.36237, 38.92713 ], [ -77.3622, 38.92804 ], [ -77.36369, 38.92932 ], [ -77.36528, 38.92828 ], [ -77.36553, 38.9275 ] ], [ [ -77.36429, 38.93393 ], [ -77.36448, 38.934 ], [ -77.36419, 38.93386 ], [ -77.36429, 38.93393 ] ], [ [ -77.36299, 38.93317 ], [ -77.36307, 38.93322 ], [ -77.36312, 38.93325 ], [ -77.36299, 38.93317 ] ] ] } },
{ "type": "Feature", "properties": { "variant": "T0", "miles": 1.0 }, "geometry": { "type": "Polygon", "coordinates": [ [ [ -77.37417, 38.92642 ], [ -77.37352, 38.92683 ], [ -77.37564, 38.92862 ], [ -77.37538, 38.92898 ], [ -77.37457, 38.92896 ], [ -77.37622, 38.93093 ], [ -77.37606, 38.93185 ], [ -77.37506, 38.93276 ], [ -77.37579, 38.93344 ], [ -77.37517, 38.93403 ], [ -77.37381, 38.93322 ], [ -77.37292, 38.93351 ], [ -77.37402, 38.93387 ], [ -77.37393, 38.93428 ], [ -77.37313, 38.93458 ], [ -77.37102, 38.9339 ], [ -77.37059, 38.93468 ], [ -77.37111, 38.93496 ], [ -77.37236, 38.9346 ], [ -77.37282, 38.93528 ], [ -77.37123, 38.93641 ], [ -77.3703, 38.93654 ], [ -77.37112, 38.93715 ], [ -77.37055, 38.93913 ], [ -77.36791, 38.9405 ], [ -77.36903, 38.94184 ], [ -77.36816, 38.94218 ], [ -77.36688, 38.94155 ], [ -77.36525, 38.94152 ], [ -77.36451, 38.94092 ], [ -77.36497, 38.94039 ], [ -77.36424, 38.94012 ], [ -77.36156, 38.94362 ], [ -77.35922, 38.94283 ], [ -77.35845, 38.94363 ], [ -77.35752, 38.94344 ], [ -77.35706, 38.9428 ], [ -77.35725, 38.94216 ], [ -77.35604, 38.94083 ], [ -77.35639, 38.94049 ], [ -77.35813, 38.94043 ], [ -77.35871, 38.93954 ], [ -77.35751, 38.93853 ], [ -77.35843, 38.93645 ], [ -77.3594, 38.93571 ], [ -77.35869, 38.93572 ], [ -77.35816, 38.93501 ], [ -77.35687, 38.93592 ], [ -77.35634, 38.9359 ], [ -77.35598, 38.93559 ], [ -77.35635, 38.93434 ], [ -77.35305, 38.93384 ], [ -77.35313, 38.93318 ], [ -77.35166, 38.93237 ], [ -77.3515, 38.93172 ], [ -77.35024, 38.93107 ], [ -77.34989, 38.93047 ], [ -77.35016, 38.92986 ], [ -77.35098, 38.92974 ], [ -77.35085, 38.92923 ], [ -77.35143, 38.92866 ], [ -77.35125, 38.92805 ], [ -77.35104, 38.92875 ], [ -77.35007, 38.92888 ], [ -77.34978, 38.92752 ], [ -77.34875, 38.92711 ], [ -77.34872, 38.92634 ], [ -77.35066, 38.9263 ], [ -77.35232, 38.92733 ], [ -77.35192, 38.9256 ], [ -77.35286, 38.9254 ], [ -77.35351, 38.92663 ], [ -77.35378, 38.92624 ], [ -77.35475, 38.92633 ], [ -77.35487, 38.92689 ], [ -77.35434, 38.9275 ], [ -77.35538, 38.9284 ], [ -77.35826, 38.92839 ], [ -77.35896, 38.92806 ], [ -77.35976, 38.92534 ], [ -77.35927, 38.92431 ], [ -77.35961, 38.9234 ], [ -77.35831, 38.92327 ], [ -77.35828, 38.92183 ], [ -77.35877, 38.92167 ], [ -77.35947, 38.92232 ], [ -77.36096, 38.92262 ], [ -77.36351, 38.9202 ], [ -77.36401, 38.92032 ], [ -77.36459, 38.92141 ], [ -77.36334, 38.92265 ], [ -77.36423, 38.92274 ], [ -77.36498, 38.92217 ], [ -77.3656, 38.92287 ], [ -77.36748, 38.92321 ], [ -77.3678, 38.92439 ], [ -77.3676, 38.92544 ], [ -77.36713, 38.92563 ], [ -77.3658, 38.92475 ], [ -77.36559, 38.92517 ], [ -77.36409, 38.9254 ], [ -77.36338, 38.92613 ], [ -77.36286, 38.92615 ], [ -77.36246, 38.92569 ], [ -77.36076, 38.92701 ], [ -77.36167, 38.9266 ], [ -77.36216, 38.92675 ], [ -77.3622, 38.92804 ], [ -77.36369, 38.92932 ], [ -77.36446, 38.92881 ], [ -77.3631, 38.92737 ], [ -77.36387, 38.9269 ], [ -77.36499, 38.92776 ], [ -77.36599, 38.92726 ], [ -77.365, 38.92722 ], [ -77.36472, 38.92687 ], [ -77.3653, 38.92625 ], [ -77.36715, 38.92641 ], [ -77.36762, 38.92755 ], [ -77.36833, 38.92762 ], [ -77.36899, 38.92711 ], [ -77.36989, 38.9275 ], [ -77.37004, 38.92643 ], [ -77.37043, 38.92615 ], [ -77.37127, 38.92643 ], [ -77.37289, 38.92457 ], [ -77.37407, 38.9246 ], [ -77.37417, 38.92642 ] ], [ [ -77.36334, 38.93886 ], [ -77.3627, 38.93845 ], [ -77.36242, 38.93971 ], [ -77.36334, 38.93886 ] ], [ [ -77.36448, 38.934 ], [ -77.36419, 38.93386 ], [ -77.36441, 38.93411 ], [ -77.36448, 38.934 ] ], [ [ -77.36196, 38.93217 ], [ -77.36057, 38.93129 ], [ -77.35995, 38.9321 ], [ -77.35942, 38.93208 ], [ -77.35907, 38.93177 ], [ -77.35922, 38.93071 ], [ -77.35865, 38.93132 ], [ -77.3588, 38.93183 ], [ -77.36174, 38.93411 ], [ -77.36196, 38.93217 ] ], [ [ -77.36672, 38.93368 ], [ -77.36658, 38.93337 ], [ -77.36591, 38.93391 ], [ -77.36672, 38.93368 ] ], [ [ -77.36555, 38.92951 ], [ -77.36482, 38.92999 ], [ -77.36498, 38.9301 ], [ -77.36555, 38.92951 ] ], [ [ -77.36999, 38.93618 ], [ -77.37013, 38.93575 ], [ -77.36973, 38.93553 ], [ -77.36864, 38.93599 ], [ -77.36856, 38.93667 ], [ -77.3695, 38.93609 ], [ -77.36999, 38.93618 ] ], [ [ -77.36974, 38.93347 ], [ -77.36995, 38.93188 ], [ -77.36791, 38.93486 ], [ -77.36922, 38.93437 ], [ -77.36974, 38.93347 ] ], [ [ -77.36783, 38.93062 ], [ -77.36792, 38.93069 ], [ -77.3683, 38.93047 ], [ -77.36783, 38.93062 ] ], [ [ -77.37288, 38.92779 ], [ -77.37221, 38.92873 ], [ -77.37312, 38.92843 ], [ -77.37405, 38.92859 ], [ -77.37288, 38.92779 ] ], [ [ -77.37485, 38.9311 ], [ -77.3732, 38.92951 ], [ -77.37432, 38.93087 ], [ -77.37421, 38.93162 ], [ -77.37323, 38.93153 ], [ -77.37215, 38.93038 ], [ -77.37136, 38.93174 ], [ -77.37216, 38.93137 ], [ -77.37259, 38.93161 ], [ -77.37255, 38.93246 ], [ -77.3743, 38.93185 ], [ -77.37485, 38.9311 ] ], [ [ -77.36746, 38.93829 ], [ -77.36736, 38.93844 ], [ -77.36758, 38.9383 ], [ -77.36746, 38.93829 ] ], [ [ -77.36554, 38.93124 ], [ -77.36512, 38.93133 ], [ -77.36513, 38.93136 ], [ -77.36554, 38.93124 ] ], [ [ -77.3644, 38.93697 ], [ -77.36458, 38.93709 ], [ -77.36433, 38.9369 ], [ -77.3644, 38.93697 ] ], [ [ -77.36491, 38.93915 ], [ -77.36503, 38.93917 ], [ -77.365, 38.93901 ], [ -77.36491, 38.93915 ] ], [ [ -77.36553, 38.94028 ], [ -77.36526, 38.94036 ], [ -77.3656, 38.94044 ], [ -77.36553, 38.94028 ] ], [ [ -77.3612, 38.92416 ], [ -77.36075, 38.92391 ], [ -77.36067, 38.92429 ], [ -77.3612, 38.92416 ] ], [ [ -77.35886, 38.93352 ], [ -77.35827, 38.93396 ], [ -77.35835, 38.93397 ], [ -77.35909, 38.93388 ], [ -77.35886, 38.93352 ] ], [ [ -77.36147, 38.94107 ], [ -77.3612, 38.94142 ], [ -77.36172, 38.94119 ], [ -77.36147, 38.94107 ] ], [ [ -77.36078, 38.93801 ], [ -77.36021, 38.93781 ], [ -77.36007, 38.93829 ], [ -77.36088, 38.9383 ], [ -77.36078, 38.93801 ] ], [ [ -77.35951, 38.93736 ], [ -77.36002, 38.93763 ], [ -77.35988, 38.93741 ], [ -77.35951, 38.93736 ] ], [ [ -77.35896, 38.93025 ], [ -77.35895, 38.93024 ], [ -77.35895, 38.93025 ], [ -77.35896, 38.93025 ] ], [ [ -77.35566, 38.92955 ], [ -77.35562, 38.92955 ], [ -77.35578, 38.9296 ], [ -77.35566, 38.92955 ] ], [ [ -77.35934, 38.92912 ], [ -77.35856, 38.92945 ], [ -77.3574, 38.92943 ], [ -77.3572, 38.92957 ], [ -77.35833, 38.92956 ], [ -77.35888, 38.92993 ], [ -77.35951, 38.92944 ], [ -77.35934, 38.92912 ] ], [ [ -77.35662, 38.93423 ], [ -77.35658, 38.93418 ], [ -77.35639, 38.93431 ], [ -77.35662, 38.93423 ] ], [ [ -77.35428, 38.92921 ], [ -77.35453, 38.92925 ], [ -77.35439, 38.92916 ], [ -77.35428, 38.92921 ] ], [ [ -77.35281, 38.92855 ], [ -77.35334, 38.92834 ], [ -77.35313, 38.92831 ], [ -77.35281, 38.92855 ] ], [ [ -77.35409, 38.93179 ], [ -77.35402, 38.93178 ], [ -77.35402, 38.93182 ], [ -77.35409, 38.93179 ] ] ] } },
{ "type": "Feature", "properties": { "variant": "T0", "miles": 1.5 }, "geometry": { "type": "Polygon", "coordinates": [ [ [ -77.37771, 38.91929 ], [ -77.37711, 38.91989 ], [ -77.37616, 38.91958 ], [ -77.37573, 38.92064 ], [ -77.37619, 38.92108 ], [ -77.37572, 38.92206 ], [ -77.3776, 38.92282 ], [ -77.37719, 38.92351 ], [ -77.37645, 38.92342 ], [ -77.37674, 38.92391 ], [ -77.37626, 38.92457 ], [ -77.3774, 38.92381 ], [ -77.37904, 38.92388 ], [ -77.37969, 38.92242 ], [ -77.38066, 38.92251 ], [ -77.38058, 38.92402 ], [ -77.38084, 38.92352 ], [ -77.3818, 38.92339 ], [ -77.38211, 38.92396 ], [ -77.38173, 38.92465 ], [ -77.38055, 38.92513 ], [ -77.3778, 38.92484 ], [ -77.37773, 38.92536 ], [ -77.37845, 38.92523 ], [ -77.3793, 38.92573 ], [ -77.38034, 38.92524 ], [ -77.3816, 38.92543 ], [ -77.38169, 38.9262 ], [ -77.38079, 38.92629 ], [ -77.38121, 38.92643 ], [ -77.38129, 38.92724 ], [ -77.38081, 38.92793 ], [ -77.38015, 38.92813 ], [ -77.38236, 38.92909 ], [ -77.3833, 38.92914 ], [ -77.38351, 38.92989 ], [ -77.38216, 38.93017 ], [ -77.38187, 38.93058 ], [ -77.38103, 38.93052 ], [ -77.38068, 38.93109 ], [ -77.38016, 38.93115 ], [ -77.37891, 38.92995 ], [ -77.37786, 38.93031 ], [ -77.37856, 38.93124 ], [ -77.37827, 38.93198 ], [ -77.37966, 38.93415 ], [ -77.3787, 38.93487 ], [ -77.37774, 38.93472 ], [ -77.37799, 38.93384 ], [ -77.37549, 38.93484 ], [ -77.375, 38.93435 ], [ -77.37434, 38.93432 ], [ -77.37381, 38.93322 ], [ -77.37292, 38.93351 ], [ -77.37402, 38.93387 ], [ -77.3735, 38.93452 ], [ -77.37246, 38.93454 ], [ -77.37102, 38.9339 ], [ -77.37059, 38.93468 ], [ -77.37111, 38.93496 ], [ -77.37236, 38.9346 ], [ -77.37282, 38.93528 ], [ -77.37123, 38.93641 ], [ -77.3703, 38.93654 ], [ -77.37112, 38.93715 ], [ -77.37055, 38.93913 ], [ -77.36791, 38.9405 ], [ -77.36888, 38.94063 ], [ -77.36902, 38.93996 ], [ -77.36953, 38.93985 ], [ -77.37114, 38.94042 ], [ -77.37233, 38.93949 ], [ -77.37286, 38.93948 ], [ -77.37326, 38.94018 ], [ -77.37245, 38.94098 ], [ -77.37423, 38.94004 ], [ -77.37447, 38.93946 ], [ -77.37545, 38.93949 ], [ -77.37539, 38.94064 ], [ -77.3737, 38.94154 ], [ -77.37717, 38.94298 ], [ -77.37726, 38.94374 ], [ -77.37641, 38.94391 ], [ -77.37669, 38.94455 ], [ -77.37415, 38.94594 ], [ -77.37318, 38.94422 ], [ -77.3725, 38.94501 ], [ -77.37091, 38.94569 ], [ -77.36459, 38.9434 ], [ -77.36168, 38.94378 ], [ -77.36029, 38.9458 ], [ -77.36355, 38.94767 ], [ -77.36364, 38.94851 ], [ -77.36268, 38.94867 ], [ -77.36121, 38.94778 ], [ -77.35968, 38.94942 ], [ -77.35797, 38.94888 ], [ -77.35743, 38.95034 ], [ -77.3566, 38.95075 ], [ -77.35608, 38.9501 ], [ -77.35667, 38.94851 ], [ -77.35506, 38.9495 ], [ -77.35351, 38.94952 ], [ -77.35344, 38.94865 ], [ -77.35529, 38.94792 ], [ -77.35606, 38.94606 ], [ -77.35708, 38.94532 ], [ -77.35725, 38.94216 ], [ -77.35664, 38.94186 ], [ -77.35587, 38.9423 ], [ -77.35498, 38.94217 ], [ -77.3541, 38.94311 ], [ -77.35313, 38.94304 ], [ -77.35356, 38.94155 ], [ -77.35447, 38.94097 ], [ -77.352, 38.93999 ], [ -77.3512, 38.94026 ], [ -77.35081, 38.93998 ], [ -77.35044, 38.93906 ], [ -77.35134, 38.93873 ], [ -77.3514, 38.93831 ], [ -77.35071, 38.93679 ], [ -77.35214, 38.93629 ], [ -77.3528, 38.93781 ], [ -77.35385, 38.93809 ], [ -77.35398, 38.93629 ], [ -77.3545, 38.93623 ], [ -77.35552, 38.93691 ], [ -77.3558, 38.93776 ], [ -77.35705, 38.93745 ], [ -77.35725, 38.9382 ], [ -77.35539, 38.93889 ], [ -77.35516, 38.93974 ], [ -77.35689, 38.94011 ], [ -77.35729, 38.93973 ], [ -77.35871, 38.93954 ], [ -77.35751, 38.93853 ], [ -77.35843, 38.93645 ], [ -77.3594, 38.93571 ], [ -77.35869, 38.93572 ], [ -77.35816, 38.93501 ], [ -77.35687, 38.93592 ], [ -77.35634, 38.9359 ], [ -77.35598, 38.93559 ], [ -77.35635, 38.93434 ], [ -77.35305, 38.93384 ], [ -77.35313, 38.93318 ], [ -77.35166, 38.93237 ], [ -77.3515, 38.93172 ], [ -77.35024, 38.93107 ], [ -77.34989, 38.93047 ], [ -77.35016, 38.92986 ], [ -77.35098, 38.92974 ], [ -77.35085, 38.92923 ], [ -77.35143, 38.92866 ], [ -77.35121, 38.92799 ], [ -77.35104, 38.92875 ], [ -77.35007, 38.92888 ], [ -77.34959, 38.92747 ], [ -77.35008, 38.92953 ], [ -77.34934, 38.9303 ], [ -77.34867, 38.92957 ], [ -77.34619, 38.92962 ], [ -77.34478, 38.92877 ], [ -77.34358, 38.92937 ], [ -77.34293, 38.9288 ], [ -77.34347, 38.92821 ], [ -77.34272, 38.92753 ], [ -77.34278, 38.9263 ], [ -77.33946, 38.92621 ], [ -77.33875, 38.92568 ], [ -77.33894, 38.9253 ], [ -77.34198, 38.92509 ], [ -77.34391, 38.92543 ], [ -77.34367, 38.92362 ], [ -77.34435, 38.92288 ], [ -77.34487, 38.92292 ], [ -77.34639, 38.92373 ], [ -77.34647, 38.92414 ], [ -77.34585, 38.9245 ], [ -77.34575, 38.92584 ], [ -77.34681, 38.92605 ], [ -77.34686, 38.92507 ], [ -77.3477, 38.92445 ], [ -77.35012, 38.92458 ], [ -77.35149, 38.92566 ], [ -77.35095, 38.9263 ], [ -77.34972, 38.92562 ], [ -77.34982, 38.92617 ], [ -77.3512, 38.92649 ], [ -77.35242, 38.9273 ], [ -77.35192, 38.9256 ], [ -77.35286, 38.9254 ], [ -77.35351, 38.92663 ], [ -77.35378, 38.92624 ], [ -77.35475, 38.92633 ], [ -77.35487, 38.92689 ], [ -77.35434, 38.9275 ], [ -77.35538, 38.9284 ], [ -77.35821, 38.9284 ], [ -77.35896, 38.92806 ], [ -77.35964, 38.92638 ], [ -77.35933, 38.92601 ], [ -77.35976, 38.92534 ], [ -77.35927, 38.92423 ], [ -77.35961, 38.9234 ], [ -77.35626, 38.92329 ], [ -77.35613, 38.92454 ], [ -77.35484, 38.92504 ], [ -77.35442, 38.92435 ], [ -77.35497, 38.92395 ], [ -77.35488, 38.92321 ], [ -77.35444, 38.924 ], [ -77.35392, 38.92407 ], [ -77.35349, 38.92383 ], [ -77.35353, 38.92276 ], [ -77.35272, 38.92371 ], [ -77.35219, 38.92373 ], [ -77.3512, 38.92235 ], [ -77.35096, 38.923 ], [ -77.34999, 38.9231 ], [ -77.35, 38.92176 ], [ -77.34833, 38.92182 ], [ -77.34883, 38.92006 ], [ -77.34936, 38.92 ], [ -77.35056, 38.92076 ], [ -77.3507, 38.9201 ], [ -77.35165, 38.91992 ], [ -77.35203, 38.92046 ], [ -77.35326, 38.92079 ], [ -77.35358, 38.91943 ], [ -77.35524, 38.91914 ], [ -77.3548, 38.91838 ], [ -77.35501, 38.91697 ], [ -77.35594, 38.91696 ], [ -77.35574, 38.91616 ], [ -77.35664, 38.91587 ], [ -77.35752, 38.91713 ], [ -77.35787, 38.9196 ], [ -77.3589, 38.9202 ], [ -77.36067, 38.91835 ], [ -77.36039, 38.91678 ], [ -77.36062, 38.91597 ], [ -77.36142, 38.91554 ], [ -77.36198, 38.91617 ], [ -77.36185, 38.91894 ], [ -77.36348, 38.91998 ], [ -77.36614, 38.91732 ], [ -77.36405, 38.91437 ], [ -77.36432, 38.91363 ], [ -77.36526, 38.91385 ], [ -77.36669, 38.91584 ], [ -77.36869, 38.91438 ], [ -77.36957, 38.91423 ], [ -77.37023, 38.91478 ], [ -77.37015, 38.91518 ], [ -77.36941, 38.9154 ], [ -77.36941, 38.9165 ], [ -77.36847, 38.91673 ], [ -77.36815, 38.91623 ], [ -77.36737, 38.91682 ], [ -77.37276, 38.9242 ], [ -77.37294, 38.92346 ], [ -77.37235, 38.92312 ], [ -77.37239, 38.92271 ], [ -77.3734, 38.92241 ], [ -77.37422, 38.9204 ], [ -77.37329, 38.91967 ], [ -77.37343, 38.91928 ], [ -77.37467, 38.91929 ], [ -77.37526, 38.91808 ], [ -77.37623, 38.91789 ], [ -77.37771, 38.91929 ] ], [ [ -77.36334, 38.93886 ], [ -77.3627, 38.93845 ], [ -77.36242, 38.93971 ], [ -77.36334, 38.93886 ] ], [ [ -77.36196, 38.93217 ], [ -77.36057, 38.93129 ], [ -77.35995, 38.9321 ], [ -77.35942, 38.93208 ], [ -77.35907, 38.93177 ], [ -77.35922, 38.93071 ], [ -77.35865, 38.93132 ], [ -77.3588, 38.93183 ], [ -77.36174, 38.93411 ], [ -77.36196, 38.93217 ] ], [ [ -77.36312, 38.93325 ], [ -77.36299, 38.93317 ], [ -77.36299, 38.9332 ], [ -77.36312, 38.93325 ] ], [ [ -77.36369, 38.92932 ], [ -77.36446, 38.92881 ], [ -77.36324, 38.92776 ], [ -77.36336, 38.92701 ], [ -77.36433, 38.9271 ], [ -77.36499, 38.92776 ], [ -77.36599, 38.92726 ], [ -77.365, 38.92722 ], [ -77.36485, 38.92647 ], [ -77.36633, 38.92618 ], [ -77.36749, 38.92666 ], [ -77.36762, 38.92755 ], [ -77.36833, 38.92762 ], [ -77.36899, 38.92711 ], [ -77.36993, 38.92749 ], [ -77.37004, 38.92643 ], [ -77.37043, 38.92615 ], [ -77.37127, 38.92643 ], [ -77.37217, 38.9252 ], [ -77.36998, 38.92515 ], [ -77.36896, 38.92565 ], [ -77.36654, 38.92537 ], [ -77.36619, 38.92591 ], [ -77.36466, 38.92608 ], [ -77.36247, 38.92709 ], [ -77.3622, 38.92804 ], [ -77.36369, 38.92932 ] ], [ [ -77.36255, 38.92593 ], [ -77.36246, 38.92569 ], [ -77.36223, 38.92597 ], [ -77.36255, 38.92593 ] ], [ [ -77.36259, 38.92081 ], [ -77.36202, 38.92044 ], [ -77.36022, 38.92235 ], [ -77.36096, 38.92262 ], [ -77.36259, 38.92081 ] ], [ [ -77.36101, 38.91991 ], [ -77.35942, 38.92142 ], [ -77.36081, 38.92012 ], [ -77.36101, 38.91991 ] ], [ [ -77.36748, 38.93826 ], [ -77.36736, 38.93844 ], [ -77.36758, 38.9383 ], [ -77.36748, 38.93826 ] ], [ [ -77.36999, 38.93618 ], [ -77.37013, 38.93575 ], [ -77.36973, 38.93553 ], [ -77.36864, 38.93599 ], [ -77.36856, 38.93667 ], [ -77.36999, 38.93618 ] ], [ [ -77.36963, 38.93374 ], [ -77.36995, 38.93188 ], [ -77.36791, 38.93486 ], [ -77.36862, 38.9348 ], [ -77.36963, 38.93374 ] ], [ [ -77.36797, 38.9304 ], [ -77.36783, 38.93062 ], [ -77.36792, 38.93069 ], [ -77.3683, 38.93047 ], [ -77.36797, 38.9304 ] ], [ [ -77.36938, 38.92281 ], [ -77.36983, 38.92302 ], [ -77.36987, 38.92405 ], [ -77.37102, 38.92417 ], [ -77.36681, 38.91827 ], [ -77.36634, 38.91862 ], [ -77.36711, 38.91952 ], [ -77.36739, 38.92167 ], [ -77.36657, 38.92208 ], [ -77.36614, 38.92185 ], [ -77.36565, 38.9196 ], [ -77.36417, 38.92102 ], [ -77.36446, 38.92181 ], [ -77.36334, 38.92265 ], [ -77.36423, 38.92274 ], [ -77.36498, 38.92217 ], [ -77.3656, 38.92287 ], [ -77.36748, 38.92321 ], [ -77.36747, 38.92382 ], [ -77.36849, 38.92392 ], [ -77.3686, 38.92328 ], [ -77.36938, 38.92281 ] ], [ [ -77.37486, 38.93113 ], [ -77.37321, 38.92951 ], [ -77.37432, 38.93087 ], [ -77.37421, 38.93162 ], [ -77.37323, 38.93153 ], [ -77.37215, 38.93038 ], [ -77.37136, 38.93174 ], [ -77.37216, 38.93137 ], [ -77.37259, 38.93161 ], [ -77.37255, 38.93246 ], [ -77.374, 38.93199 ], [ -77.37486, 38.93113 ] ], [ [ -77.37312, 38.92843 ], [ -77.37405, 38.92859 ], [ -77.37288, 38.92779 ], [ -77.3723, 38.92868 ], [ -77.37312, 38.92843 ] ], [ [ -77.37865, 38.92697 ], [ -77.37878, 38.92673 ], [ -77.37875, 38.92672 ], [ -77.37865, 38.92697 ] ], [ [ -77.37634, 38.92565 ], [ -77.37418, 38.92558 ], [ -77.37417, 38.92642 ], [ -77.37352, 38.92683 ], [ -77.37509, 38.92787 ], [ -77.37647, 38.92719 ], [ -77.37634, 38.92565 ] ], [ [ -77.3753, 38.92378 ], [ -77.37607, 38.92329 ], [ -77.37556, 38.92316 ], [ -77.3753, 38.92378 ] ], [ [ -77.38042, 38.92636 ], [ -77.38059, 38.92631 ], [ -77.38053, 38.92631 ], [ -77.38042, 38.92636 ] ], [ [ -77.37812, 38.92875 ], [ -77.37817, 38.92898 ], [ -77.3789, 38.92863 ], [ -77.37859, 38.92829 ], [ -77.37812, 38.92875 ] ], [ [ -77.37586, 38.93212 ], [ -77.37509, 38.93278 ], [ -77.37691, 38.93229 ], [ -77.37625, 38.93136 ], [ -77.37586, 38.93212 ] ], [ [ -77.37533, 38.94399 ], [ -77.37616, 38.94384 ], [ -77.37492, 38.9433 ], [ -77.37533, 38.94399 ] ], [ [ -77.36979, 38.94109 ], [ -77.36983, 38.94109 ], [ -77.3696, 38.94099 ], [ -77.36979, 38.94109 ] ], [ [ -77.36948, 38.94268 ], [ -77.3695, 38.94377 ], [ -77.37091, 38.94437 ], [ -77.3714, 38.94418 ], [ -77.37138, 38.94348 ], [ -77.37198, 38.94287 ], [ -77.37037, 38.94218 ], [ -77.36948, 38.94268 ] ], [ [ -77.36543, 38.94183 ], [ -77.3653, 38.94189 ], [ -77.36536, 38.94191 ], [ -77.36543, 38.94183 ] ], [ [ -77.36566, 38.94157 ], [ -77.36555, 38.94156 ], [ -77.36547, 38.94177 ], [ -77.36566, 38.94157 ] ], [ [ -77.36452, 38.94029 ], [ -77.36442, 38.94047 ], [ -77.36463, 38.94061 ], [ -77.36452, 38.94029 ] ], [ [ -77.36526, 38.94036 ], [ -77.3656, 38.94044 ], [ -77.36553, 38.94028 ], [ -77.36526, 38.94036 ] ], [ [ -77.365, 38.93901 ], [ -77.36491, 38.93915 ], [ -77.36503, 38.93917 ], [ -77.365, 38.93901 ] ], [ [ -77.36672, 38.93368 ], [ -77.36658, 38.93337 ], [ -77.36591, 38.93391 ], [ -77.36672, 38.93368 ] ], [ [ -77.36512, 38.93133 ], [ -77.36513, 38.93136 ], [ -77.36558, 38.93138 ], [ -77.36512, 38.93133 ] ], [ [ -77.36555, 38.92951 ], [ -77.36482, 38.92999 ], [ -77.36498, 38.9301 ], [ -77.36555, 38.92951 ] ], [ [ -77.36419, 38.93386 ], [ -77.36453, 38.93409 ], [ -77.36448, 38.934 ], [ -77.36419, 38.93386 ] ], [ [ -77.36458, 38.93709 ], [ -77.36433, 38.9369 ], [ -77.3644, 38.93697 ], [ -77.36458, 38.93709 ] ], [ [ -77.36012, 38.94711 ], [ -77.35955, 38.94686 ], [ -77.35876, 38.94799 ], [ -77.35923, 38.94818 ], [ -77.36012, 38.94711 ] ], [ [ -77.35731, 38.9468 ], [ -77.35714, 38.94774 ], [ -77.35812, 38.94635 ], [ -77.35731, 38.9468 ] ], [ [ -77.35662, 38.93423 ], [ -77.35658, 38.93418 ], [ -77.35639, 38.93431 ], [ -77.35662, 38.93423 ] ], [ [ -77.35888, 38.92993 ], [ -77.35951, 38.92944 ], [ -77.35934, 38.92912 ], [ -77.35856, 38.92945 ], [ -77.3574, 38.92943 ], [ -77.3572, 38.92957 ], [ -77.35888, 38.92993 ] ], [ [ -77.35679, 38.92226 ], [ -77.35686, 38.92226 ], [ -77.35683, 38.92221 ], [ -77.35679, 38.92226 ] ], [ [ -77.36078, 38.93801 ], [ -77.36021, 38.93781 ], [ -77.36007, 38.93829 ], [ -77.36071, 38.93849 ], [ -77.36078, 38.93801 ] ], [ [ -77.35955, 38.93733 ], [ -77.35951, 38.93736 ], [ -77.36002, 38.93763 ], [ -77.35955, 38.93733 ] ], [ [ -77.35883, 38.93369 ], [ -77.35827, 38.93396 ], [ -77.35924, 38.93388 ], [ -77.35883, 38.93369 ] ], [ [ -77.36172, 38.94119 ], [ -77.36161, 38.94087 ], [ -77.36126, 38.94132 ], [ -77.36172, 38.94119 ] ], [ [ -77.36068, 38.92431 ], [ -77.3612, 38.92416 ], [ -77.36099, 38.92406 ], [ -77.36075, 38.92391 ], [ -77.36068, 38.92431 ] ], [ [ -77.35896, 38.93025 ], [ -77.35895, 38.93024 ], [ -77.35895, 38.93025 ], [ -77.35896, 38.93025 ] ], [ [ -77.35864, 38.94376 ], [ -77.35845, 38.94517 ], [ -77.35892, 38.94517 ], [ -77.35869, 38.94449 ], [ -77.35909, 38.94393 ], [ -77.35864, 38.94376 ] ], [ [ -77.35552, 38.92202 ], [ -77.35543, 38.92213 ], [ -77.35556, 38.92214 ], [ -77.35552, 38.92202 ] ], [ [ -77.35457, 38.92019 ], [ -77.35501, 38.92023 ], [ -77.35476, 38.92016 ], [ -77.35457, 38.92019 ] ], [ [ -77.35557, 38.92169 ], [ -77.3556, 38.92154 ], [ -77.35553, 38.92152 ], [ -77.35557, 38.92169 ] ], [ [ -77.35278, 38.92835 ], [ -77.35281, 38.92855 ], [ -77.35288, 38.92845 ], [ -77.35329, 38.92833 ], [ -77.35278, 38.92835 ] ], [ [ -77.35402, 38.93182 ], [ -77.35409, 38.93179 ], [ -77.35402, 38.93178 ], [ -77.35402, 38.93182 ] ], [ [ -77.35562, 38.92955 ], [ -77.35578, 38.9296 ], [ -77.3558, 38.92956 ], [ -77.35562, 38.92955 ] ], [ [ -77.35428, 38.92921 ], [ -77.35453, 38.92925 ], [ -77.35439, 38.92916 ], [ -77.35428, 38.92921 ] ], [ [ -77.34479, 38.92723 ], [ -77.34478, 38.92759 ], [ -77.34555, 38.92692 ], [ -77.3449, 38.92678 ], [ -77.34479, 38.92723 ] ], [ [ -77.34497, 38.92419 ], [ -77.34495, 38.92418 ], [ -77.34496, 38.9242 ], [ -77.34497, 38.92419 ] ], [ [ -77.34808, 38.92618 ], [ -77.34842, 38.92619 ], [ -77.34833, 38.92545 ], [ -77.34808, 38.92618 ] ] ] } },
{ "type": "Feature", "properties": { "variant": "T2s", "miles": 0.5 }, "geometry": { "type": "Polygon", "coordinates": [ [ [ -77.36553, 38.9275 ], [ -77.36729, 38.92768 ], [ -77.36826, 38.92831 ], [ -77.36819, 38.92907 ], [ -77.36728, 38.92917 ], [ -77.36748, 38.92985 ], [ -77.36706, 38.9301 ], [ -77.36555, 38.92951 ], [ -77.36413, 38.93046 ], [ -77.36513, 38.93136 ], [ -77.36558, 38.93138 ], [ -77.36562, 38.93056 ], [ -77.36707, 38.93019 ], [ -77.36815, 38.93088 ], [ -77.36831, 38.93127 ], [ -77.36733, 38.93265 ], [ -77.36554, 38.93423 ], [ -77.36676, 38.93481 ], [ -77.36697, 38.93538 ], [ -77.36577, 38.9372 ], [ -77.36529, 38.93737 ], [ -77.36433, 38.9369 ], [ -77.36508, 38.93766 ], [ -77.36491, 38.93805 ], [ -77.36372, 38.93794 ], [ -77.36317, 38.93853 ], [ -77.36245, 38.93842 ], [ -77.36158, 38.93792 ], [ -77.36116, 38.93588 ], [ -77.36011, 38.93438 ], [ -77.36086, 38.93376 ], [ -77.36174, 38.93411 ], [ -77.36196, 38.93217 ], [ -77.36057, 38.93129 ], [ -77.35995, 38.9321 ], [ -77.35907, 38.93177 ], [ -77.35886, 38.92982 ], [ -77.35951, 38.92944 ], [ -77.35934, 38.92912 ], [ -77.35663, 38.92955 ], [ -77.35583, 38.92911 ], [ -77.35595, 38.92871 ], [ -77.35998, 38.92793 ], [ -77.36022, 38.92713 ], [ -77.36101, 38.92711 ], [ -77.36167, 38.9266 ], [ -77.36237, 38.92713 ], [ -77.3622, 38.92804 ], [ -77.36369, 38.92932 ], [ -77.36528, 38.92828 ], [ -77.36553, 38.9275 ] ], [ [ -77.36299, 38.9332 ], [ -77.36312, 38.93325 ], [ -77.36299, 38.93317 ], [ -77.36299, 38.9332 ] ], [ [ -77.3648, 38.93428 ], [ -77.36419, 38.93386 ], [ -77.36453, 38.93432 ], [ -77.3648, 38.93428 ] ] ] } },
{ "type": "Feature", "properties": { "variant": "T2s", "miles": 1.0 }, "geometry": { "type": "Polygon", "coordinates": [ [ [ -77.37416, 38.92479 ], [ -77.37417, 38.92642 ], [ -77.37352, 38.92683 ], [ -77.3755, 38.92822 ], [ -77.37538, 38.92898 ], [ -77.37441, 38.92889 ], [ -77.37156, 38.92724 ], [ -77.36963, 38.93073 ], [ -77.36869, 38.93095 ], [ -77.36788, 38.93047 ], [ -77.36865, 38.93179 ], [ -77.36814, 38.93395 ], [ -77.36647, 38.93571 ], [ -77.36577, 38.9372 ], [ -77.36529, 38.93737 ], [ -77.36433, 38.9369 ], [ -77.36508, 38.93766 ], [ -77.36456, 38.93824 ], [ -77.36467, 38.93882 ], [ -77.36373, 38.93903 ], [ -77.36264, 38.9385 ], [ -77.36242, 38.93971 ], [ -77.36297, 38.9397 ], [ -77.36333, 38.94041 ], [ -77.36234, 38.94139 ], [ -77.36245, 38.94194 ], [ -77.36184, 38.94261 ], [ -77.36204, 38.94327 ], [ -77.36085, 38.94351 ], [ -77.35813, 38.94219 ], [ -77.35662, 38.94102 ], [ -77.35711, 38.94042 ], [ -77.35813, 38.94043 ], [ -77.35871, 38.93954 ], [ -77.35751, 38.93853 ], [ -77.35843, 38.93645 ], [ -77.3594, 38.93571 ], [ -77.35869, 38.93572 ], [ -77.35816, 38.93501 ], [ -77.35687, 38.93592 ], [ -77.35634, 38.9359 ], [ -77.35598, 38.93559 ], [ -77.35635, 38.93434 ], [ -77.35305, 38.93384 ], [ -77.35313, 38.93318 ], [ -77.35166, 38.93237 ], [ -77.3515, 38.93172 ], [ -77.35024, 38.93107 ], [ -77.34989, 38.93047 ], [ -77.35016, 38.92986 ], [ -77.35098, 38.92974 ], [ -77.35085, 38.92923 ], [ -77.35143, 38.92866 ], [ -77.35125, 38.92805 ], [ -77.35104, 38.92875 ], [ -77.35007, 38.92888 ], [ -77.34978, 38.92752 ], [ -77.34875, 38.92711 ], [ -77.34872, 38.92634 ], [ -77.35066, 38.9263 ], [ -77.35232, 38.92733 ], [ -77.35192, 38.9256 ], [ -77.35286, 38.9254 ], [ -77.35351, 38.92663 ], [ -77.35378, 38.92624 ], [ -77.35475, 38.92633 ], [ -77.35487, 38.92689 ], [ -77.35434, 38.9275 ], [ -77.35538, 38.9284 ], [ -77.35822, 38.9284 ], [ -77.35896, 38.92806 ], [ -77.35964, 38.92638 ], [ -77.35944, 38.92356 ], [ -77.3603, 38.92319 ], [ -77.36072, 38.92346 ], [ -77.36068, 38.92431 ], [ -77.36563, 38.9244 ], [ -77.36559, 38.92517 ], [ -77.36414, 38.92538 ], [ -77.36338, 38.92613 ], [ -77.36286, 38.92615 ], [ -77.36246, 38.92569 ], [ -77.36076, 38.92701 ], [ -77.36167, 38.9266 ], [ -77.36216, 38.92675 ], [ -77.3622, 38.92804 ], [ -77.36369, 38.92932 ], [ -77.36446, 38.92881 ], [ -77.36324, 38.92776 ], [ -77.36336, 38.92701 ], [ -77.36433, 38.9271 ], [ -77.36499, 38.92776 ], [ -77.36599, 38.92726 ], [ -77.365, 38.92722 ], [ -77.36485, 38.92647 ], [ -77.36633, 38.92618 ], [ -77.36749, 38.92666 ], [ -77.36762, 38.92755 ], [ -77.36833, 38.92762 ], [ -77.36899, 38.92711 ], [ -77.36993, 38.92749 ], [ -77.37004, 38.92643 ], [ -77.37043, 38.92615 ], [ -77.37127, 38.92643 ], [ -77.37289, 38.92457 ], [ -77.37359, 38.92443 ], [ -77.37416, 38.92479 ] ], [ [ -77.36172, 38.94119 ], [ -77.36161, 38.94087 ], [ -77.3612, 38.94142 ], [ -77.36172, 38.94119 ] ], [ [ -77.36076, 38.93845 ], [ -77.36078, 38.93801 ], [ -77.36021, 38.93781 ], [ -77.36007, 38.93829 ], [ -77.36076, 38.93845 ] ], [ [ -77.36002, 38.93763 ], [ -77.35988, 38.93741 ], [ -77.35951, 38.93736 ], [ -77.36002, 38.93763 ] ], [ [ -77.3588, 38.93183 ], [ -77.36174, 38.93411 ], [ -77.36196, 38.93217 ], [ -77.36057, 38.93129 ], [ -77.35995, 38.9321 ], [ -77.35942, 38.93208 ], [ -77.35907, 38.93177 ], [ -77.35922, 38.93071 ], [ -77.35865, 38.93132 ], [ -77.3588, 38.93183 ] ], [ [ -77.36453, 38.93409 ], [ -77.36433, 38.93394 ], [ -77.36419, 38.93386 ], [ -77.36453, 38.93409 ] ], [ [ -77.36308, 38.93322 ], [ -77.36299, 38.9332 ], [ -77.36312, 38.93325 ], [ -77.36308, 38.93322 ] ], [ [ -77.36558, 38.93138 ], [ -77.36512, 38.93133 ], [ -77.36513, 38.93136 ], [ -77.36558, 38.93138 ] ], [ [ -77.36497, 38.93009 ], [ -77.36532, 38.92978 ], [ -77.36577, 38.92967 ], [ -77.36555, 38.92951 ], [ -77.36497, 38.93009 ] ], [ [ -77.36645, 38.93402 ], [ -77.36658, 38.93337 ], [ -77.36591, 38.93391 ], [ -77.36645, 38.93402 ] ], [ [ -77.35909, 38.93388 ], [ -77.35886, 38.93352 ], [ -77.35827, 38.93396 ], [ -77.35835, 38.93397 ], [ -77.35909, 38.93388 ] ], [ [ -77.35578, 38.9296 ], [ -77.35566, 38.92955 ], [ -77.35562, 38.92955 ], [ -77.35578, 38.9296 ] ], [ [ -77.35896, 38.93025 ], [ -77.35895, 38.93024 ], [ -77.35895, 38.93025 ], [ -77.35896, 38.93025 ] ], [ [ -77.35951, 38.92944 ], [ -77.35934, 38.92912 ], [ -77.35856, 38.92945 ], [ -77.3574, 38.92943 ], [ -77.3572, 38.92957 ], [ -77.35833, 38.92956 ], [ -77.35888, 38.92993 ], [ -77.35951, 38.92944 ] ], [ [ -77.35658, 38.93418 ], [ -77.35639, 38.93431 ], [ -77.35662, 38.93423 ], [ -77.35658, 38.93418 ] ], [ [ -77.35439, 38.92916 ], [ -77.35428, 38.92921 ], [ -77.35453, 38.92925 ], [ -77.35439, 38.92916 ] ], [ [ -77.35304, 38.92831 ], [ -77.35281, 38.92855 ], [ -77.35334, 38.92834 ], [ -77.35304, 38.92831 ] ], [ [ -77.35359, 38.92841 ], [ -77.35364, 38.92843 ], [ -77.35363, 38.92843 ], [ -77.35359, 38.92841 ] ], [ [ -77.35402, 38.93182 ], [ -77.35409, 38.93179 ], [ -77.35402, 38.93178 ], [ -77.35402, 38.93182 ] ] ] } },
{ "type": "Feature", "properties": { "variant": "T2s", "miles": 1.5 }, "geometry": { "type": "Polygon", "coordinates": [ [ [ -77.37771, 38.91929 ], [ -77.37711, 38.91989 ], [ -77.37616, 38.91958 ], [ -77.37573, 38.92064 ], [ -77.37619, 38.92108 ], [ -77.37572, 38.92206 ], [ -77.3776, 38.92282 ], [ -77.37719, 38.92351 ], [ -77.37645, 38.92342 ], [ -77.37674, 38.92391 ], [ -77.37626, 38.92457 ], [ -77.3774, 38.92381 ], [ -77.37904, 38.92388 ], [ -77.37969, 38.92242 ], [ -77.38066, 38.92251 ], [ -77.38058, 38.92402 ], [ -77.38084, 38.92352 ], [ -77.3818, 38.92339 ], [ -77.38211, 38.92396 ], [ -77.38173, 38.92465 ], [ -77.38055, 38.92513 ], [ -77.3778, 38.92484 ], [ -77.37773, 38.92536 ], [ -77.37845, 38.92523 ], [ -77.3793, 38.92573 ], [ -77.38034, 38.92524 ], [ -77.3816, 38.92543 ], [ -77.38169, 38.9262 ], [ -77.38079, 38.92629 ], [ -77.38121, 38.92643 ], [ -77.38129, 38.92724 ], [ -77.38081, 38.92793 ], [ -77.38015, 38.92813 ], [ -77.38236, 38.92909 ], [ -77.3833, 38.92914 ], [ -77.38351, 38.92989 ], [ -77.38216, 38.93017 ], [ -77.38187, 38.93058 ], [ -77.38103, 38.93052 ], [ -77.38068, 38.93109 ], [ -77.38016, 38.93115 ], [ -77.37891, 38.92995 ], [ -77.37721, 38.9302 ], [ -77.3766, 38.92956 ], [ -77.37562, 38.9293 ], [ -77.37562, 38.92888 ], [ -77.37477, 38.92908 ], [ -77.37288, 38.92779 ], [ -77.37192, 38.92911 ], [ -77.37299, 38.92948 ], [ -77.37447, 38.93126 ], [ -77.3737, 38.93174 ], [ -77.37207, 38.93045 ], [ -77.37145, 38.93134 ], [ -77.37123, 38.93282 ], [ -77.37219, 38.93274 ], [ -77.37256, 38.93345 ], [ -77.37102, 38.9339 ], [ -77.36975, 38.93537 ], [ -77.36897, 38.9349 ], [ -77.36971, 38.93356 ], [ -77.36995, 38.93188 ], [ -77.36443, 38.93985 ], [ -77.36442, 38.94047 ], [ -77.36534, 38.94106 ], [ -77.36547, 38.94177 ], [ -77.36622, 38.94096 ], [ -77.36579, 38.93928 ], [ -77.36676, 38.93921 ], [ -77.36705, 38.93978 ], [ -77.36769, 38.93992 ], [ -77.36797, 38.94086 ], [ -77.369, 38.94143 ], [ -77.36903, 38.94184 ], [ -77.36816, 38.94218 ], [ -77.36719, 38.94176 ], [ -77.3667, 38.94229 ], [ -77.36931, 38.94289 ], [ -77.3695, 38.94377 ], [ -77.37026, 38.94442 ], [ -77.36997, 38.94477 ], [ -77.36854, 38.94479 ], [ -77.36451, 38.94339 ], [ -77.36299, 38.94383 ], [ -77.36168, 38.94378 ], [ -77.36029, 38.9458 ], [ -77.36355, 38.94767 ], [ -77.36374, 38.94842 ], [ -77.36278, 38.94857 ], [ -77.36132, 38.94769 ], [ -77.36027, 38.94868 ], [ -77.35974, 38.94868 ], [ -77.35937, 38.94797 ], [ -77.36012, 38.94711 ], [ -77.35955, 38.94686 ], [ -77.35844, 38.94846 ], [ -77.3575, 38.94868 ], [ -77.35722, 38.94795 ], [ -77.35832, 38.94636 ], [ -77.35745, 38.94661 ], [ -77.35691, 38.9478 ], [ -77.35625, 38.94784 ], [ -77.35572, 38.9472 ], [ -77.35606, 38.94606 ], [ -77.35708, 38.94532 ], [ -77.35725, 38.94216 ], [ -77.35664, 38.94186 ], [ -77.35577, 38.94231 ], [ -77.35412, 38.94193 ], [ -77.35401, 38.94117 ], [ -77.35564, 38.94107 ], [ -77.35395, 38.94072 ], [ -77.3525, 38.93988 ], [ -77.35083, 38.93676 ], [ -77.35214, 38.93629 ], [ -77.3528, 38.93781 ], [ -77.35385, 38.93809 ], [ -77.35398, 38.93629 ], [ -77.3545, 38.93623 ], [ -77.35552, 38.93691 ], [ -77.3558, 38.93776 ], [ -77.35705, 38.93745 ], [ -77.35725, 38.9382 ], [ -77.35539, 38.93889 ], [ -77.35516, 38.93974 ], [ -77.35689, 38.94011 ], [ -77.35729, 38.93973 ], [ -77.35871, 38.93954 ], [ -77.35751, 38.93853 ], [ -77.35843, 38.93645 ], [ -77.35933, 38.93563 ], [ -77.35869, 38.93572 ], [ -77.35816, 38.93501 ], [ -77.35687, 38.93592 ], [ -77.35634, 38.9359 ], [ -77.35598, 38.93559 ], [ -77.35635, 38.93434 ], [ -77.35305, 38.93384 ], [ -77.35313, 38.93318 ], [ -77.35166, 38.93237 ], [ -77.3515, 38.93172 ], [ -77.35024, 38.93107 ], [ -77.34989, 38.93047 ], [ -77.35016, 38.92986 ], [ -77.35098, 38.92974 ], [ -77.35085, 38.92923 ], [ -77.35143, 38.92866 ], [ -77.35121, 38.92799 ], [ -77.35104, 38.92875 ], [ -77.35007, 38.92888 ], [ -77.34959, 38.92747 ], [ -77.35008, 38.92953 ], [ -77.34934, 38.9303 ], [ -77.34867, 38.92957 ], [ -77.34619, 38.92962 ], [ -77.34478, 38.92877 ], [ -77.34358, 38.92937 ], [ -77.34293, 38.9288 ], [ -77.34347, 38.92821 ], [ -77.34272, 38.92753 ], [ -77.34278, 38.9263 ], [ -77.33946, 38.92621 ], [ -77.33875, 38.92568 ], [ -77.33894, 38.9253 ], [ -77.34198, 38.92509 ], [ -77.34391, 38.92543 ], [ -77.34367, 38.92362 ], [ -77.34435, 38.92288 ], [ -77.34487, 38.92292 ], [ -77.34639, 38.92373 ], [ -77.34647, 38.92414 ], [ -77.34585, 38.9245 ], [ -77.34575, 38.92584 ], [ -77.34681, 38.92605 ], [ -77.34686, 38.92507 ], [ -77.3477, 38.92445 ], [ -77.35012, 38.92458 ], [ -77.35149, 38.92566 ], [ -77.35095, 38.9263 ], [ -77.34972, 38.92562 ], [ -77.34982, 38.92617 ], [ -77.3512, 38.92649 ], [ -77.35242, 38.9273 ], [ -77.35192, 38.9256 ], [ -77.35286, 38.9254 ], [ -77.35351, 38.92663 ], [ -77.35378, 38.92624 ], [ -77.35475, 38.92633 ], [ -77.35487, 38.92689 ], [ -77.35434, 38.9275 ], [ -77.35538, 38.9284 ], [ -77.35818, 38.92841 ], [ -77.35896, 38.92806 ], [ -77.35964, 38.92638 ], [ -77.35944, 38.92356 ], [ -77.3603, 38.92319 ], [ -77.36072, 38.92346 ], [ -77.36068, 38.92431 ], [ -77.36563, 38.9244 ], [ -77.36559, 38.92517 ], [ -77.36414, 38.92538 ], [ -77.36338, 38.92613 ], [ -77.36286, 38.92615 ], [ -77.36246, 38.92569 ], [ -77.36076, 38.92701 ], [ -77.36167, 38.9266 ], [ -77.36216, 38.92675 ], [ -77.3622, 38.92804 ], [ -77.36369, 38.92932 ], [ -77.36446, 38.92881 ], [ -77.3631, 38.92737 ], [ -77.36387, 38.9269 ], [ -77.36499, 38.92776 ], [ -77.36599, 38.92726 ], [ -77.365, 38.92722 ], [ -77.36472, 38.92687 ], [ -77.3653, 38.92625 ], [ -77.36707, 38.92637 ], [ -77.36763, 38.92686 ], [ -77.36762, 38.92755 ], [ -77.36833, 38.92762 ], [ -77.36899, 38.92711 ], [ -77.37006, 38.92743 ], [ -77.37004, 38.92643 ], [ -77.37043, 38.92615 ], [ -77.37127, 38.92643 ], [ -77.37203, 38.92512 ], [ -77.36998, 38.92515 ], [ -77.36887, 38.92565 ], [ -77.36764, 38.92543 ], [ -77.36747, 38.92504 ], [ -77.36844, 38.92455 ], [ -77.3686, 38.92328 ], [ -77.36938, 38.92281 ], [ -77.36983, 38.92302 ], [ -77.36987, 38.92405 ], [ -77.37276, 38.9242 ], [ -77.37294, 38.92346 ], [ -77.37235, 38.92312 ], [ -77.37239, 38.92271 ], [ -77.3734, 38.92241 ], [ -77.37422, 38.9204 ], [ -77.37329, 38.91967 ], [ -77.37343, 38.91928 ], [ -77.37467, 38.91929 ], [ -77.37526, 38.91808 ], [ -77.37623, 38.91789 ], [ -77.37771, 38.91929 ] ], [ [ -77.36334, 38.93886 ], [ -77.3627, 38.93845 ], [ -77.36242, 38.93971 ], [ -77.36334, 38.93886 ] ], [ [ -77.36174, 38.93411 ], [ -77.36196, 38.93217 ], [ -77.36057, 38.93129 ], [ -77.35995, 38.9321 ], [ -77.35942, 38.93208 ], [ -77.35907, 38.93177 ], [ -77.35922, 38.93071 ], [ -77.35865, 38.93132 ], [ -77.3588, 38.93183 ], [ -77.36174, 38.93411 ] ], [ [ -77.35856, 38.92945 ], [ -77.3574, 38.92943 ], [ -77.3572, 38.92957 ], [ -77.35833, 38.92956 ], [ -77.35888, 38.92993 ], [ -77.35951, 38.92944 ], [ -77.35936, 38.92916 ], [ -77.35856, 38.92945 ] ], [ [ -77.36672, 38.93368 ], [ -77.36658, 38.93337 ], [ -77.36591, 38.93391 ], [ -77.36672, 38.93368 ] ], [ [ -77.36512, 38.93133 ], [ -77.36513, 38.93136 ], [ -77.36558, 38.93138 ], [ -77.36512, 38.93133 ] ], [ [ -77.36555, 38.92951 ], [ -77.36482, 38.92999 ], [ -77.36498, 38.9301 ], [ -77.36555, 38.92951 ] ], [ [ -77.37812, 38.92875 ], [ -77.37817, 38.92898 ], [ -77.3789, 38.92863 ], [ -77.37859, 38.92829 ], [ -77.37812, 38.92875 ] ], [ [ -77.37418, 38.92558 ], [ -77.37417, 38.92642 ], [ -77.37352, 38.92683 ], [ -77.37509, 38.92787 ], [ -77.37647, 38.92719 ], [ -77.37634, 38.92565 ], [ -77.37418, 38.92558 ] ], [ [ -77.3753, 38.92378 ], [ -77.37607, 38.92329 ], [ -77.37556, 38.92316 ], [ -77.3753, 38.92378 ] ], [ [ -77.38047, 38.92633 ], [ -77.38042, 38.92636 ], [ -77.38059, 38.92631 ], [ -77.38047, 38.92633 ] ], [ [ -77.37865, 38.92697 ], [ -77.37878, 38.92673 ], [ -77.37858, 38.92692 ], [ -77.37865, 38.92697 ] ], [ [ -77.36792, 38.93069 ], [ -77.36828, 38.93044 ], [ -77.36797, 38.9304 ], [ -77.36792, 38.93069 ] ], [ [ -77.36441, 38.93411 ], [ -77.36453, 38.93409 ], [ -77.36448, 38.934 ], [ -77.36441, 38.93411 ] ], [ [ -77.36543, 38.94183 ], [ -77.3653, 38.94189 ], [ -77.36536, 38.94191 ], [ -77.36543, 38.94183 ] ], [ [ -77.36458, 38.93708 ], [ -77.36433, 38.9369 ], [ -77.36433, 38.93691 ], [ -77.36458, 38.93708 ] ], [ [ -77.35886, 38.93352 ], [ -77.35827, 38.93396 ], [ -77.35835, 38.93397 ], [ -77.35909, 38.93388 ], [ -77.35886, 38.93352 ] ], [ [ -77.35453, 38.92925 ], [ -77.35423, 38.92901 ], [ -77.35428, 38.92921 ], [ -77.35453, 38.92925 ] ], [ [ -77.35278, 38.92835 ], [ -77.35281, 38.92855 ], [ -77.35334, 38.92834 ], [ -77.35278, 38.92835 ] ], [ [ -77.36078, 38.93801 ], [ -77.36021, 38.93781 ], [ -77.36007, 38.93829 ], [ -77.36071, 38.93849 ], [ -77.36078, 38.93801 ] ], [ [ -77.35951, 38.93736 ], [ -77.36002, 38.93763 ], [ -77.35988, 38.93741 ], [ -77.35951, 38.93736 ] ], [ [ -77.36172, 38.94119 ], [ -77.36161, 38.94087 ], [ -77.36126, 38.94132 ], [ -77.36172, 38.94119 ] ], [ [ -77.35895, 38.93025 ], [ -77.35896, 38.93025 ], [ -77.35895, 38.93024 ], [ -77.35895, 38.93025 ] ], [ [ -77.35845, 38.94517 ], [ -77.35887, 38.94525 ], [ -77.35869, 38.94449 ], [ -77.35909, 38.94393 ], [ -77.35859, 38.94388 ], [ -77.35845, 38.94517 ] ], [ [ -77.3558, 38.92956 ], [ -77.35562, 38.92955 ], [ -77.35578, 38.9296 ], [ -77.3558, 38.92956 ] ], [ [ -77.35409, 38.93179 ], [ -77.35402, 38.93178 ], [ -77.35402, 38.93182 ], [ -77.35409, 38.93179 ] ], [ [ -77.35662, 38.93423 ], [ -77.35658, 38.93418 ], [ -77.35639, 38.93431 ], [ -77.35662, 38.93423 ] ], [ [ -77.34496, 38.9242 ], [ -77.34497, 38.92419 ], [ -77.34495, 38.92418 ], [ -77.34496, 38.9242 ] ], [ [ -77.34808, 38.92618 ], [ -77.34842, 38.92619 ], [ -77.34833, 38.92545 ], [ -77.34808, 38.92618 ] ], [ [ -77.34479, 38.92723 ], [ -77.34478, 38.92759 ], [ -77.34555, 38.92692 ], [ -77.3449, 38.92678 ], [ -77.34479, 38.92723 ] ] ] } }
]
}
