{
"type": "FeatureCollection",
"name": "331",
"crs": { "type": "name", "properties": { "name": "urn:ogc:def:crs:OGC:1.3:CRS84" } },
"xy_coordinate_resolution": 1e-05,
"features": [
{ "type": "Feature", "properties": { "variant": "T0", "miles": 1.0 }, "geometry": { "type": "Polygon", "coordinates": [ [ [ -77.42543, 38.90161 ], [ -77.42435, 38.90436 ], [ -77.42653, 38.90417 ], [ -77.42721, 38.90472 ], [ -77.4265, 38.90525 ], [ -77.42422, 38.90544 ], [ -77.42275, 38.91012 ], [ -77.42341, 38.91038 ], [ -77.42362, 38.91097 ], [ -77.42266, 38.91181 ], [ -77.42223, 38.91342 ], [ -77.42416, 38.91378 ], [ -77.42465, 38.91564 ], [ -77.42395, 38.91604 ], [ -77.42368, 38.91684 ], [ -77.42526, 38.91805 ], [ -77.42464, 38.91864 ], [ -77.42298, 38.91779 ], [ -77.42261, 38.91846 ], [ -77.4216, 38.91868 ], [ -77.42102, 38.9196 ], [ -77.42016, 38.91941 ], [ -77.41985, 38.91996 ], [ -77.41932, 38.92 ], [ -77.41832, 38.91928 ], [ -77.41873, 38.91772 ], [ -77.41777, 38.91748 ], [ -77.41644, 38.91791 ], [ -77.41519, 38.9176 ], [ -77.41479, 38.9169 ], [ -77.41589, 38.91665 ], [ -77.4158, 38.91565 ], [ -77.41325, 38.91519 ], [ -77.41242, 38.91462 ], [ -77.41306, 38.914 ], [ -77.41197, 38.91258 ], [ -77.41318, 38.91055 ], [ -77.41226, 38.91076 ], [ -77.41056, 38.91237 ], [ -77.40908, 38.91193 ], [ -77.40903, 38.91056 ], [ -77.41049, 38.91003 ], [ -77.40898, 38.90968 ], [ -77.40859, 38.90881 ], [ -77.40927, 38.90775 ], [ -77.40798, 38.90768 ], [ -77.40757, 38.90687 ], [ -77.40783, 38.90595 ], [ -77.40704, 38.9054 ], [ -77.40725, 38.90502 ], [ -77.40848, 38.9049 ], [ -77.40934, 38.90363 ], [ -77.40986, 38.90371 ], [ -77.41009, 38.90431 ], [ -77.41204, 38.9039 ], [ -77.41186, 38.90318 ], [ -77.40994, 38.90203 ], [ -77.40881, 38.90235 ], [ -77.40864, 38.9016 ], [ -77.41072, 38.90034 ], [ -77.41354, 38.90055 ], [ -77.41524, 38.89924 ], [ -77.41474, 38.8972 ], [ -77.414, 38.89758 ], [ -77.41326, 38.89708 ], [ -77.41381, 38.89639 ], [ -77.41514, 38.89601 ], [ -77.41628, 38.89604 ], [ -77.41714, 38.89648 ], [ -77.41677, 38.89719 ], [ -77.41614, 38.89716 ], [ -77.41634, 38.89801 ], [ -77.41702, 38.89786 ], [ -77.41748, 38.89827 ], [ -77.41728, 38.89897 ], [ -77.41663, 38.89918 ], [ -77.41781, 38.90359 ], [ -77.4211, 38.91004 ], [ -77.42263, 38.90523 ], [ -77.42144, 38.90562 ], [ -77.41989, 38.90534 ], [ -77.4193, 38.90456 ], [ -77.41942, 38.90323 ], [ -77.42096, 38.90306 ], [ -77.42299, 38.90416 ], [ -77.42366, 38.90226 ], [ -77.4246, 38.90121 ], [ -77.42543, 38.90161 ] ], [ [ -77.41836, 38.91626 ], [ -77.41852, 38.91566 ], [ -77.41938, 38.91552 ], [ -77.41964, 38.91472 ], [ -77.41901, 38.9146 ], [ -77.41725, 38.91554 ], [ -77.41779, 38.91625 ], [ -77.41836, 38.91626 ] ], [ [ -77.41932, 38.9135 ], [ -77.41995, 38.91369 ], [ -77.42002, 38.91346 ], [ -77.41955, 38.91326 ], [ -77.41932, 38.9135 ] ], [ [ -77.41775, 38.90917 ], [ -77.41719, 38.9084 ], [ -77.41841, 38.90777 ], [ -77.41804, 38.90702 ], [ -77.41679, 38.90707 ], [ -77.41616, 38.9075 ], [ -77.41671, 38.90823 ], [ -77.41588, 38.90855 ], [ -77.41592, 38.90926 ], [ -77.41545, 38.90945 ], [ -77.41435, 38.90908 ], [ -77.41395, 38.90953 ], [ -77.41503, 38.91022 ], [ -77.41674, 38.90993 ], [ -77.41693, 38.90937 ], [ -77.41775, 38.90917 ] ], [ [ -77.41488, 38.90631 ], [ -77.41565, 38.90584 ], [ -77.41748, 38.90599 ], [ -77.41685, 38.90476 ], [ -77.41486, 38.90516 ], [ -77.41435, 38.90581 ], [ -77.41351, 38.9054 ], [ -77.4129, 38.90609 ], [ -77.412, 38.9057 ], [ -77.40947, 38.90607 ], [ -77.40897, 38.90661 ], [ -77.41015, 38.9069 ], [ -77.41295, 38.90878 ], [ -77.41322, 38.90846 ], [ -77.41172, 38.90772 ], [ -77.41149, 38.90711 ], [ -77.41183, 38.90679 ], [ -77.41286, 38.90696 ], [ -77.41417, 38.90646 ], [ -77.41498, 38.90661 ], [ -77.41488, 38.90631 ] ], [ [ -77.41479, 38.90406 ], [ -77.41471, 38.904 ], [ -77.41468, 38.90408 ], [ -77.41479, 38.90406 ] ], [ [ -77.4147, 38.90371 ], [ -77.41453, 38.9037 ], [ -77.41469, 38.90396 ], [ -77.4147, 38.90371 ] ], [ [ -77.41425, 38.90264 ], [ -77.41607, 38.90233 ], [ -77.41583, 38.90142 ], [ -77.41488, 38.90173 ], [ -77.41106, 38.9014 ], [ -77.41279, 38.90238 ], [ -77.41329, 38.90172 ], [ -77.41382, 38.90173 ], [ -77.41425, 38.90264 ] ], [ [ -77.42045, 38.91702 ], [ -77.42185, 38.91708 ], [ -77.4207, 38.91637 ], [ -77.42045, 38.91702 ] ], [ [ -77.42112, 38.91525 ], [ -77.42237, 38.91602 ], [ -77.42284, 38.91457 ], [ -77.4214, 38.91442 ], [ -77.42112, 38.91525 ] ], [ [ -77.42074, 38.91122 ], [ -77.42052, 38.91148 ], [ -77.42063, 38.91155 ], [ -77.42065, 38.91148 ], [ -77.42074, 38.91122 ] ], [ [ -77.42037, 38.91813 ], [ -77.41977, 38.91878 ], [ -77.42007, 38.91919 ], [ -77.42037, 38.91813 ] ], [ [ -77.41915, 38.91456 ], [ -77.41915, 38.91455 ], [ -77.41914, 38.91456 ], [ -77.41915, 38.91456 ] ], [ [ -77.41635, 38.9034 ], [ -77.41607, 38.90381 ], [ -77.41643, 38.90373 ], [ -77.41635, 38.9034 ] ], [ [ -77.41502, 38.91424 ], [ -77.41676, 38.91353 ], [ -77.41782, 38.91393 ], [ -77.41748, 38.91279 ], [ -77.41675, 38.91272 ], [ -77.41654, 38.91234 ], [ -77.41697, 38.911 ], [ -77.41541, 38.91127 ], [ -77.41548, 38.91211 ], [ -77.41474, 38.91318 ], [ -77.41502, 38.91424 ] ] ] } },
{ "type": "Feature", "properties": { "variant": "T0", "miles": 1.5 }, "geometry": { "type": "Polygon", "coordinates": [ [ [ -77.42647, 38.89538 ], [ -77.42919, 38.89587 ], [ -77.42997, 38.89529 ], [ -77.43048, 38.89539 ], [ -77.43072, 38.89628 ], [ -77.42826, 38.8991 ], [ -77.42955, 38.89826 ], [ -77.43035, 38.8987 ], [ -77.42914, 38.90039 ], [ -77.42904, 38.90342 ], [ -77.42861, 38.90432 ], [ -77.42721, 38.90515 ], [ -77.42422, 38.90544 ], [ -77.42275, 38.91012 ], [ -77.42341, 38.91038 ], [ -77.42362, 38.91097 ], [ -77.42266, 38.91181 ], [ -77.42223, 38.91342 ], [ -77.4237, 38.91357 ], [ -77.42422, 38.91396 ], [ -77.42526, 38.91314 ], [ -77.42812, 38.91289 ], [ -77.42822, 38.91208 ], [ -77.42742, 38.91151 ], [ -77.42765, 38.91113 ], [ -77.42884, 38.91104 ], [ -77.42959, 38.91162 ], [ -77.42941, 38.91355 ], [ -77.42581, 38.91427 ], [ -77.43273, 38.91478 ], [ -77.43334, 38.91538 ], [ -77.43258, 38.91586 ], [ -77.42828, 38.91567 ], [ -77.42918, 38.9168 ], [ -77.42926, 38.91884 ], [ -77.42839, 38.91965 ], [ -77.42727, 38.91937 ], [ -77.42717, 38.91984 ], [ -77.42623, 38.92011 ], [ -77.42549, 38.92222 ], [ -77.42483, 38.92248 ], [ -77.4242, 38.92225 ], [ -77.42362, 38.92334 ], [ -77.42374, 38.92402 ], [ -77.4232, 38.92435 ], [ -77.42093, 38.92397 ], [ -77.41929, 38.92574 ], [ -77.41731, 38.9247 ], [ -77.41688, 38.92593 ], [ -77.41578, 38.92626 ], [ -77.41532, 38.92559 ], [ -77.41692, 38.92162 ], [ -77.41587, 38.92093 ], [ -77.41472, 38.92074 ], [ -77.41395, 38.92134 ], [ -77.4142, 38.9219 ], [ -77.41385, 38.92221 ], [ -77.41248, 38.92241 ], [ -77.41187, 38.92185 ], [ -77.41218, 38.92066 ], [ -77.41433, 38.9189 ], [ -77.41324, 38.91849 ], [ -77.41189, 38.91855 ], [ -77.41265, 38.91882 ], [ -77.41239, 38.91956 ], [ -77.41081, 38.92007 ], [ -77.41032, 38.91992 ], [ -77.40918, 38.91946 ], [ -77.40908, 38.91877 ], [ -77.40709, 38.91801 ], [ -77.40613, 38.91665 ], [ -77.40489, 38.91631 ], [ -77.4051, 38.91533 ], [ -77.4063, 38.91505 ], [ -77.40523, 38.91335 ], [ -77.40361, 38.9149 ], [ -77.40264, 38.91476 ], [ -77.40253, 38.91436 ], [ -77.40436, 38.91247 ], [ -77.40668, 38.91134 ], [ -77.40509, 38.9111 ], [ -77.40528, 38.91029 ], [ -77.40484, 38.90937 ], [ -77.4054, 38.90905 ], [ -77.40459, 38.90872 ], [ -77.40515, 38.90746 ], [ -77.40366, 38.90706 ], [ -77.40093, 38.90751 ], [ -77.3996, 38.90873 ], [ -77.39871, 38.90842 ], [ -77.39872, 38.90801 ], [ -77.39994, 38.90651 ], [ -77.40295, 38.90603 ], [ -77.4034, 38.90519 ], [ -77.40525, 38.90462 ], [ -77.40568, 38.904 ], [ -77.40621, 38.90402 ], [ -77.40664, 38.90463 ], [ -77.40577, 38.9065 ], [ -77.40756, 38.90683 ], [ -77.40783, 38.90595 ], [ -77.40704, 38.9054 ], [ -77.40764, 38.9049 ], [ -77.40715, 38.90403 ], [ -77.40745, 38.90369 ], [ -77.40825, 38.90376 ], [ -77.4081, 38.90284 ], [ -77.4086, 38.90224 ], [ -77.40697, 38.90276 ], [ -77.40661, 38.90245 ], [ -77.4068, 38.90183 ], [ -77.40608, 38.90157 ], [ -77.40626, 38.90097 ], [ -77.4055, 38.90036 ], [ -77.40382, 38.90144 ], [ -77.4023, 38.90125 ], [ -77.40182, 38.90059 ], [ -77.40215, 38.90026 ], [ -77.40346, 38.9003 ], [ -77.40525, 38.89926 ], [ -77.4072, 38.89915 ], [ -77.40851, 38.89853 ], [ -77.40793, 38.89808 ], [ -77.40742, 38.89852 ], [ -77.40655, 38.89852 ], [ -77.40631, 38.89716 ], [ -77.40749, 38.89571 ], [ -77.40829, 38.89557 ], [ -77.40899, 38.89602 ], [ -77.40928, 38.89524 ], [ -77.41013, 38.89508 ], [ -77.4094, 38.89435 ], [ -77.40983, 38.89366 ], [ -77.41169, 38.89424 ], [ -77.41284, 38.89548 ], [ -77.41298, 38.89622 ], [ -77.4123, 38.89691 ], [ -77.41301, 38.89696 ], [ -77.41383, 38.89638 ], [ -77.41313, 38.89577 ], [ -77.41396, 38.8952 ], [ -77.41269, 38.89293 ], [ -77.41339, 38.89205 ], [ -77.41282, 38.88994 ], [ -77.4133, 38.88927 ], [ -77.41415, 38.88965 ], [ -77.41456, 38.89117 ], [ -77.41627, 38.89123 ], [ -77.41595, 38.89072 ], [ -77.41661, 38.89021 ], [ -77.41779, 38.89069 ], [ -77.41831, 38.89214 ], [ -77.41693, 38.89268 ], [ -77.41829, 38.89416 ], [ -77.41868, 38.8968 ], [ -77.41994, 38.8972 ], [ -77.42023, 38.8959 ], [ -77.42115, 38.89564 ], [ -77.42151, 38.89594 ], [ -77.4214, 38.89715 ], [ -77.42372, 38.89685 ], [ -77.42534, 38.89803 ], [ -77.42565, 38.89581 ], [ -77.42647, 38.89538 ] ], [ [ -77.4199, 38.92301 ], [ -77.4219, 38.92245 ], [ -77.42153, 38.92191 ], [ -77.42063, 38.92194 ], [ -77.41888, 38.92093 ], [ -77.41774, 38.92358 ], [ -77.41884, 38.92411 ], [ -77.4199, 38.92301 ] ], [ [ -77.41964, 38.91472 ], [ -77.41909, 38.91458 ], [ -77.4195, 38.91499 ], [ -77.41938, 38.91552 ], [ -77.41964, 38.91472 ] ], [ [ -77.41995, 38.91369 ], [ -77.42002, 38.91346 ], [ -77.41955, 38.91326 ], [ -77.41932, 38.9135 ], [ -77.41995, 38.91369 ] ], [ [ -77.41775, 38.90918 ], [ -77.41719, 38.9084 ], [ -77.41841, 38.90777 ], [ -77.41804, 38.90702 ], [ -77.41628, 38.90731 ], [ -77.41671, 38.90823 ], [ -77.41588, 38.90855 ], [ -77.41592, 38.90926 ], [ -77.41545, 38.90945 ], [ -77.41435, 38.90908 ], [ -77.41395, 38.90953 ], [ -77.41489, 38.91022 ], [ -77.41775, 38.90918 ] ], [ [ -77.41748, 38.90599 ], [ -77.41685, 38.90476 ], [ -77.41486, 38.90516 ], [ -77.41435, 38.90581 ], [ -77.41351, 38.9054 ], [ -77.4129, 38.90609 ], [ -77.412, 38.9057 ], [ -77.41115, 38.90587 ], [ -77.41137, 38.90681 ], [ -77.4108, 38.90738 ], [ -77.41295, 38.90878 ], [ -77.41322, 38.90846 ], [ -77.41154, 38.90752 ], [ -77.41183, 38.90679 ], [ -77.41289, 38.90696 ], [ -77.41417, 38.90646 ], [ -77.41498, 38.90661 ], [ -77.41514, 38.90595 ], [ -77.41748, 38.90599 ] ], [ [ -77.41607, 38.9035 ], [ -77.41607, 38.90381 ], [ -77.41643, 38.90373 ], [ -77.41607, 38.9035 ] ], [ [ -77.41583, 38.90142 ], [ -77.41488, 38.90173 ], [ -77.41106, 38.9014 ], [ -77.41279, 38.90238 ], [ -77.41329, 38.90172 ], [ -77.41382, 38.90173 ], [ -77.41425, 38.90264 ], [ -77.41607, 38.90233 ], [ -77.41583, 38.90142 ] ], [ [ -77.41632, 38.89605 ], [ -77.41722, 38.89634 ], [ -77.41575, 38.89574 ], [ -77.41632, 38.89605 ] ], [ [ -77.42485, 38.92003 ], [ -77.42485, 38.91959 ], [ -77.42437, 38.91959 ], [ -77.42433, 38.92043 ], [ -77.42485, 38.92003 ] ], [ [ -77.42107, 38.9166 ], [ -77.4207, 38.91637 ], [ -77.42045, 38.91702 ], [ -77.42173, 38.91731 ], [ -77.42107, 38.9166 ] ], [ [ -77.42237, 38.91602 ], [ -77.42284, 38.91457 ], [ -77.4214, 38.91442 ], [ -77.42112, 38.91525 ], [ -77.42237, 38.91602 ] ], [ [ -77.42052, 38.91148 ], [ -77.42063, 38.91155 ], [ -77.42065, 38.91148 ], [ -77.42074, 38.91122 ], [ -77.42052, 38.91148 ] ], [ [ -77.42263, 38.90523 ], [ -77.42044, 38.90557 ], [ -77.41951, 38.90499 ], [ -77.41931, 38.90408 ], [ -77.41795, 38.904 ], [ -77.4211, 38.91004 ], [ -77.42263, 38.90523 ] ], [ [ -77.42156, 38.90002 ], [ -77.42079, 38.90042 ], [ -77.42107, 38.90091 ], [ -77.42183, 38.90055 ], [ -77.42156, 38.90002 ] ], [ [ -77.42102, 38.89871 ], [ -77.42103, 38.8987 ], [ -77.42102, 38.8987 ], [ -77.42102, 38.89871 ] ], [ [ -77.42056, 38.89822 ], [ -77.42054, 38.89819 ], [ -77.42052, 38.89819 ], [ -77.42056, 38.89822 ] ], [ [ -77.42299, 38.90416 ], [ -77.42308, 38.9039 ], [ -77.42299, 38.90397 ], [ -77.42257, 38.90411 ], [ -77.42299, 38.90416 ] ], [ [ -77.42319, 38.90263 ], [ -77.42335, 38.90306 ], [ -77.42341, 38.90287 ], [ -77.42319, 38.90263 ] ], [ [ -77.42746, 38.89999 ], [ -77.42594, 38.90169 ], [ -77.42771, 38.90144 ], [ -77.42746, 38.89999 ] ], [ [ -77.42685, 38.89666 ], [ -77.42678, 38.89698 ], [ -77.42746, 38.89697 ], [ -77.42784, 38.89737 ], [ -77.42814, 38.89667 ], [ -77.42685, 38.89666 ] ], [ [ -77.42697, 38.89835 ], [ -77.42729, 38.89799 ], [ -77.42677, 38.89811 ], [ -77.42697, 38.89835 ] ], [ [ -77.42521, 38.90262 ], [ -77.4246, 38.90434 ], [ -77.42725, 38.9039 ], [ -77.42768, 38.90254 ], [ -77.42521, 38.90262 ] ], [ [ -77.4239, 38.91619 ], [ -77.42368, 38.91684 ], [ -77.42501, 38.91768 ], [ -77.42493, 38.91851 ], [ -77.42665, 38.9188 ], [ -77.42676, 38.91815 ], [ -77.42781, 38.91796 ], [ -77.42709, 38.91624 ], [ -77.4239, 38.91619 ] ], [ [ -77.42358, 38.91817 ], [ -77.42298, 38.91779 ], [ -77.42291, 38.9187 ], [ -77.42358, 38.91817 ] ], [ [ -77.4198, 38.91868 ], [ -77.42012, 38.91876 ], [ -77.42037, 38.91813 ], [ -77.4198, 38.91868 ] ], [ [ -77.41936, 38.90206 ], [ -77.41919, 38.90132 ], [ -77.41883, 38.90225 ], [ -77.41936, 38.90206 ] ], [ [ -77.4187, 38.89946 ], [ -77.41836, 38.8993 ], [ -77.41844, 38.89985 ], [ -77.4187, 38.89946 ] ], [ [ -77.41942, 38.89853 ], [ -77.41956, 38.89824 ], [ -77.41822, 38.89783 ], [ -77.41942, 38.89853 ] ], [ [ -77.41962, 38.90107 ], [ -77.41945, 38.90118 ], [ -77.41964, 38.90112 ], [ -77.41962, 38.90107 ] ], [ [ -77.41701, 38.89993 ], [ -77.41685, 38.89992 ], [ -77.41711, 38.90091 ], [ -77.41701, 38.89993 ] ], [ [ -77.41688, 38.89432 ], [ -77.41682, 38.89422 ], [ -77.41675, 38.8943 ], [ -77.41688, 38.89432 ] ], [ [ -77.41738, 38.90193 ], [ -77.41742, 38.90211 ], [ -77.41746, 38.9021 ], [ -77.41738, 38.90193 ] ], [ [ -77.41475, 38.91696 ], [ -77.41482, 38.91584 ], [ -77.41543, 38.9154 ], [ -77.41467, 38.91532 ], [ -77.41466, 38.91599 ], [ -77.41418, 38.91617 ], [ -77.41197, 38.91605 ], [ -77.41106, 38.91523 ], [ -77.4114, 38.91419 ], [ -77.40879, 38.91448 ], [ -77.40756, 38.91551 ], [ -77.40747, 38.91637 ], [ -77.40795, 38.91714 ], [ -77.40863, 38.91626 ], [ -77.40964, 38.91598 ], [ -77.41118, 38.9166 ], [ -77.41168, 38.91748 ], [ -77.4137, 38.91739 ], [ -77.41475, 38.91696 ] ], [ [ -77.41197, 38.9127 ], [ -77.41107, 38.91292 ], [ -77.40929, 38.9121 ], [ -77.40896, 38.91116 ], [ -77.40689, 38.9125 ], [ -77.40661, 38.91311 ], [ -77.40705, 38.91414 ], [ -77.40911, 38.91329 ], [ -77.41143, 38.91311 ], [ -77.4129, 38.91338 ], [ -77.41197, 38.9127 ] ], [ [ -77.41502, 38.91424 ], [ -77.41676, 38.91353 ], [ -77.41782, 38.91393 ], [ -77.41748, 38.91279 ], [ -77.41675, 38.91272 ], [ -77.41654, 38.91234 ], [ -77.41697, 38.911 ], [ -77.41541, 38.91127 ], [ -77.41548, 38.91211 ], [ -77.41474, 38.91318 ], [ -77.41502, 38.91424 ] ], [ [ -77.41321, 38.91059 ], [ -77.41318, 38.91055 ], [ -77.41226, 38.91076 ], [ -77.41265, 38.91145 ], [ -77.41321, 38.91059 ] ], [ [ -77.4161, 38.91787 ], [ -77.41607, 38.91814 ], [ -77.41655, 38.91791 ], [ -77.4161, 38.91787 ] ], [ [ -77.41136, 38.89774 ], [ -77.41096, 38.8977 ], [ -77.40979, 38.89909 ], [ -77.40943, 38.90041 ], [ -77.40835, 38.90065 ], [ -77.40904, 38.90116 ], [ -77.41019, 38.90048 ], [ -77.41003, 38.89968 ], [ -77.41042, 38.8994 ], [ -77.41095, 38.89943 ], [ -77.4116, 38.90037 ], [ -77.41231, 38.9003 ], [ -77.41136, 38.89774 ] ], [ [ -77.41524, 38.89924 ], [ -77.41513, 38.89878 ], [ -77.41435, 38.89896 ], [ -77.41374, 38.8985 ], [ -77.41314, 38.89893 ], [ -77.41383, 38.90035 ], [ -77.41524, 38.89924 ] ], [ [ -77.41401, 38.89774 ], [ -77.41344, 38.89799 ], [ -77.41373, 38.89834 ], [ -77.41427, 38.89791 ], [ -77.41401, 38.89774 ] ], [ [ -77.41156, 38.89599 ], [ -77.41082, 38.89515 ], [ -77.41045, 38.89515 ], [ -77.41092, 38.89662 ], [ -77.41156, 38.89599 ] ], [ [ -77.41468, 38.90408 ], [ -77.41479, 38.90406 ], [ -77.41471, 38.904 ], [ -77.41468, 38.90408 ] ], [ [ -77.41453, 38.9037 ], [ -77.41469, 38.90396 ], [ -77.4147, 38.90371 ], [ -77.41453, 38.9037 ] ], [ [ -77.41016, 38.91019 ], [ -77.41052, 38.9102 ], [ -77.40995, 38.90985 ], [ -77.4097, 38.91019 ], [ -77.41016, 38.91019 ] ], [ [ -77.40922, 38.90773 ], [ -77.40921, 38.9078 ], [ -77.40927, 38.90775 ], [ -77.40922, 38.90773 ] ], [ [ -77.41077, 38.90365 ], [ -77.41039, 38.90414 ], [ -77.41112, 38.904 ], [ -77.41077, 38.90365 ] ], [ [ -77.41213, 38.91225 ], [ -77.41214, 38.91221 ], [ -77.41213, 38.91222 ], [ -77.41213, 38.91225 ] ], [ [ -77.40457, 38.90608 ], [ -77.40466, 38.90588 ], [ -77.40439, 38.90594 ], [ -77.40457, 38.90608 ] ], [ [ -77.40661, 38.90994 ], [ -77.40723, 38.9094 ], [ -77.40776, 38.90945 ], [ -77.40817, 38.9102 ], [ -77.40839, 38.90969 ], [ -77.40592, 38.9087 ], [ -77.40548, 38.90905 ], [ -77.40626, 38.90928 ], [ -77.40661, 38.90994 ] ], [ [ -77.40753, 38.90811 ], [ -77.40766, 38.90791 ], [ -77.40745, 38.90793 ], [ -77.40708, 38.90794 ], [ -77.40753, 38.90811 ] ] ] } },
{ "type": "Feature", "properties": { "variant": "T0", "miles": 2.0 }, "geometry": { "type": "Polygon", "coordinates": [ [ [ -77.4351, 38.89166 ], [ -77.43503, 38.89366 ], [ -77.43448, 38.89478 ], [ -77.43739, 38.89597 ], [ -77.43767, 38.8967 ], [ -77.43685, 38.89696 ], [ -77.43547, 38.89662 ], [ -77.43603, 38.89711 ], [ -77.43585, 38.89783 ], [ -77.43535, 38.89798 ], [ -77.43476, 38.89759 ], [ -77.4344, 38.89895 ], [ -77.43338, 38.89972 ], [ -77.43101, 38.89987 ], [ -77.42983, 38.89955 ], [ -77.42913, 38.90044 ], [ -77.42904, 38.90342 ], [ -77.42861, 38.90432 ], [ -77.42721, 38.90515 ], [ -77.42422, 38.90544 ], [ -77.42275, 38.91012 ], [ -77.42341, 38.91038 ], [ -77.42362, 38.91097 ], [ -77.42266, 38.91181 ], [ -77.42223, 38.91342 ], [ -77.4237, 38.91357 ], [ -77.42422, 38.91396 ], [ -77.42508, 38.91321 ], [ -77.42484, 38.91259 ], [ -77.426, 38.91202 ], [ -77.42672, 38.91112 ], [ -77.42808, 38.91085 ], [ -77.42946, 38.91137 ], [ -77.43013, 38.91063 ], [ -77.42846, 38.9094 ], [ -77.42819, 38.90832 ], [ -77.42913, 38.90738 ], [ -77.42894, 38.90567 ], [ -77.42991, 38.90564 ], [ -77.43018, 38.90634 ], [ -77.43112, 38.90678 ], [ -77.43052, 38.90739 ], [ -77.4305, 38.90888 ], [ -77.43006, 38.90905 ], [ -77.43152, 38.91052 ], [ -77.43082, 38.91162 ], [ -77.43089, 38.91276 ], [ -77.42908, 38.91411 ], [ -77.42581, 38.91427 ], [ -77.43581, 38.91499 ], [ -77.43589, 38.91258 ], [ -77.43683, 38.9121 ], [ -77.43723, 38.91238 ], [ -77.43696, 38.91385 ], [ -77.43747, 38.91504 ], [ -77.43891, 38.9145 ], [ -77.44002, 38.91274 ], [ -77.44071, 38.9126 ], [ -77.4414, 38.91314 ], [ -77.44124, 38.91467 ], [ -77.43886, 38.91605 ], [ -77.43888, 38.9173 ], [ -77.43959, 38.91863 ], [ -77.43837, 38.91918 ], [ -77.43714, 38.91846 ], [ -77.43712, 38.9195 ], [ -77.43642, 38.92003 ], [ -77.43574, 38.91948 ], [ -77.43579, 38.91624 ], [ -77.42828, 38.91567 ], [ -77.42918, 38.9168 ], [ -77.42926, 38.91884 ], [ -77.42839, 38.91965 ], [ -77.42727, 38.91937 ], [ -77.42717, 38.91984 ], [ -77.42623, 38.92011 ], [ -77.42557, 38.92212 ], [ -77.42483, 38.92248 ], [ -77.4242, 38.92225 ], [ -77.42365, 38.92332 ], [ -77.42653, 38.92496 ], [ -77.42828, 38.92434 ], [ -77.42812, 38.92298 ], [ -77.42736, 38.92243 ], [ -77.42751, 38.92148 ], [ -77.42848, 38.92139 ], [ -77.42951, 38.92222 ], [ -77.42955, 38.925 ], [ -77.42713, 38.9261 ], [ -77.42678, 38.9274 ], [ -77.42524, 38.9284 ], [ -77.42671, 38.92944 ], [ -77.42667, 38.9302 ], [ -77.42569, 38.93017 ], [ -77.42414, 38.9291 ], [ -77.42324, 38.92985 ], [ -77.42348, 38.93102 ], [ -77.4225, 38.93106 ], [ -77.42186, 38.92974 ], [ -77.42307, 38.9284 ], [ -77.41731, 38.9247 ], [ -77.41624, 38.92762 ], [ -77.41725, 38.9279 ], [ -77.41888, 38.92935 ], [ -77.41959, 38.9294 ], [ -77.4196, 38.9307 ], [ -77.41913, 38.93089 ], [ -77.41802, 38.93024 ], [ -77.41717, 38.93029 ], [ -77.41693, 38.92941 ], [ -77.4159, 38.92937 ], [ -77.41477, 38.93267 ], [ -77.41361, 38.93242 ], [ -77.41363, 38.93175 ], [ -77.41298, 38.93117 ], [ -77.41409, 38.93038 ], [ -77.41309, 38.92984 ], [ -77.41245, 38.92997 ], [ -77.41066, 38.93151 ], [ -77.40931, 38.93154 ], [ -77.40829, 38.93076 ], [ -77.40811, 38.93 ], [ -77.41005, 38.92821 ], [ -77.40991, 38.92758 ], [ -77.41034, 38.92733 ], [ -77.41164, 38.92794 ], [ -77.41189, 38.92753 ], [ -77.41286, 38.92763 ], [ -77.41431, 38.92914 ], [ -77.41599, 38.92383 ], [ -77.41431, 38.92289 ], [ -77.41178, 38.92297 ], [ -77.40782, 38.92439 ], [ -77.40783, 38.92495 ], [ -77.40737, 38.92517 ], [ -77.40657, 38.92514 ], [ -77.40612, 38.92491 ], [ -77.40585, 38.92289 ], [ -77.40638, 38.92255 ], [ -77.40476, 38.92018 ], [ -77.40398, 38.91752 ], [ -77.4031, 38.91796 ], [ -77.40203, 38.91781 ], [ -77.40044, 38.91588 ], [ -77.3988, 38.91797 ], [ -77.39764, 38.91845 ], [ -77.39674, 38.918 ], [ -77.3967, 38.91725 ], [ -77.39822, 38.91677 ], [ -77.40053, 38.91388 ], [ -77.40252, 38.91039 ], [ -77.40118, 38.91005 ], [ -77.40041, 38.91066 ], [ -77.39991, 38.91053 ], [ -77.4, 38.90869 ], [ -77.39927, 38.90883 ], [ -77.3989, 38.90971 ], [ -77.39948, 38.91024 ], [ -77.39916, 38.91068 ], [ -77.39988, 38.91125 ], [ -77.39915, 38.91176 ], [ -77.39732, 38.91152 ], [ -77.3991, 38.91269 ], [ -77.39816, 38.91372 ], [ -77.39718, 38.91371 ], [ -77.39732, 38.91284 ], [ -77.39595, 38.9117 ], [ -77.39408, 38.91116 ], [ -77.39473, 38.9103 ], [ -77.39612, 38.91045 ], [ -77.39427, 38.9089 ], [ -77.39514, 38.90624 ], [ -77.39504, 38.90534 ], [ -77.39299, 38.90506 ], [ -77.39242, 38.90334 ], [ -77.39321, 38.9029 ], [ -77.39383, 38.90333 ], [ -77.39392, 38.9041 ], [ -77.39545, 38.9043 ], [ -77.39587, 38.90356 ], [ -77.3979, 38.90262 ], [ -77.39885, 38.90295 ], [ -77.39934, 38.90372 ], [ -77.39958, 38.90312 ], [ -77.4005, 38.90326 ], [ -77.39959, 38.9027 ], [ -77.39961, 38.90229 ], [ -77.40046, 38.90194 ], [ -77.40176, 38.90269 ], [ -77.40275, 38.90272 ], [ -77.4029, 38.9033 ], [ -77.40325, 38.90137 ], [ -77.40266, 38.90178 ], [ -77.40176, 38.90148 ], [ -77.40087, 38.8992 ], [ -77.39999, 38.89902 ], [ -77.39993, 38.89826 ], [ -77.40253, 38.89826 ], [ -77.40287, 38.89872 ], [ -77.40229, 38.89925 ], [ -77.40237, 38.89999 ], [ -77.40346, 38.9003 ], [ -77.40517, 38.89928 ], [ -77.40737, 38.89909 ], [ -77.40851, 38.89853 ], [ -77.40793, 38.89808 ], [ -77.40742, 38.89852 ], [ -77.40655, 38.89852 ], [ -77.40641, 38.89687 ], [ -77.40713, 38.8965 ], [ -77.40749, 38.89571 ], [ -77.40829, 38.89557 ], [ -77.40899, 38.89602 ], [ -77.40928, 38.89524 ], [ -77.41013, 38.89508 ], [ -77.4094, 38.89435 ], [ -77.40983, 38.89366 ], [ -77.41169, 38.89424 ], [ -77.41284, 38.89548 ], [ -77.41298, 38.89622 ], [ -77.4123, 38.89691 ], [ -77.41301, 38.89696 ], [ -77.41383, 38.89638 ], [ -77.41313, 38.89577 ], [ -77.41396, 38.8952 ], [ -77.41269, 38.89293 ], [ -77.41339, 38.89205 ], [ -77.41297, 38.89042 ], [ -77.4108, 38.89011 ], [ -77.41012, 38.89165 ], [ -77.4078, 38.89148 ], [ -77.40714, 38.88992 ], [ -77.40643, 38.88951 ], [ -77.40677, 38.8889 ], [ -77.40506, 38.88841 ], [ -77.40484, 38.8866 ], [ -77.40743, 38.88508 ], [ -77.41134, 38.88675 ], [ -77.41086, 38.88804 ], [ -77.40935, 38.88806 ], [ -77.41075, 38.88853 ], [ -77.41151, 38.88784 ], [ -77.41235, 38.8882 ], [ -77.4127, 38.88726 ], [ -77.41216, 38.88645 ], [ -77.41319, 38.88625 ], [ -77.41353, 38.88536 ], [ -77.41506, 38.88389 ], [ -77.41438, 38.88304 ], [ -77.4146, 38.88266 ], [ -77.41509, 38.88252 ], [ -77.41599, 38.88307 ], [ -77.4168, 38.88262 ], [ -77.41759, 38.88299 ], [ -77.41747, 38.88381 ], [ -77.41819, 38.8843 ], [ -77.41976, 38.88696 ], [ -77.41851, 38.88832 ], [ -77.42114, 38.88969 ], [ -77.42111, 38.8901 ], [ -77.42018, 38.89035 ], [ -77.41723, 38.88942 ], [ -77.41669, 38.88981 ], [ -77.4153, 38.88932 ], [ -77.41433, 38.89019 ], [ -77.41456, 38.89117 ], [ -77.41627, 38.89123 ], [ -77.41595, 38.89072 ], [ -77.41661, 38.89021 ], [ -77.41779, 38.89069 ], [ -77.41831, 38.89214 ], [ -77.41693, 38.89268 ], [ -77.41829, 38.89416 ], [ -77.41868, 38.8968 ], [ -77.41994, 38.8972 ], [ -77.4209, 38.89458 ], [ -77.42182, 38.89432 ], [ -77.42276, 38.89568 ], [ -77.42253, 38.89684 ], [ -77.42408, 38.89698 ], [ -77.42534, 38.89803 ], [ -77.42544, 38.8967 ], [ -77.42501, 38.89701 ], [ -77.42414, 38.89667 ], [ -77.42451, 38.89574 ], [ -77.4238, 38.89437 ], [ -77.42439, 38.89333 ], [ -77.42588, 38.8928 ], [ -77.42423, 38.89199 ], [ -77.42403, 38.89107 ], [ -77.42444, 38.89081 ], [ -77.42558, 38.89072 ], [ -77.42677, 38.89154 ], [ -77.42788, 38.89025 ], [ -77.43068, 38.89122 ], [ -77.43121, 38.89006 ], [ -77.43224, 38.89031 ], [ -77.43204, 38.88934 ], [ -77.43245, 38.88907 ], [ -77.43387, 38.88961 ], [ -77.43351, 38.89074 ], [ -77.4351, 38.89166 ] ], [ [ -77.4199, 38.92301 ], [ -77.4219, 38.92245 ], [ -77.42153, 38.92191 ], [ -77.42063, 38.92194 ], [ -77.41888, 38.92093 ], [ -77.41774, 38.92358 ], [ -77.41884, 38.92411 ], [ -77.4199, 38.92301 ] ], [ [ -77.41964, 38.91472 ], [ -77.41909, 38.91458 ], [ -77.4195, 38.91499 ], [ -77.41938, 38.91552 ], [ -77.41964, 38.91472 ] ], [ [ -77.41995, 38.91369 ], [ -77.42002, 38.91346 ], [ -77.41955, 38.91326 ], [ -77.41932, 38.9135 ], [ -77.41995, 38.91369 ] ], [ [ -77.41841, 38.90777 ], [ -77.41804, 38.90702 ], [ -77.4166, 38.90711 ], [ -77.41616, 38.9075 ], [ -77.41671, 38.90823 ], [ -77.41588, 38.90855 ], [ -77.41592, 38.90926 ], [ -77.41545, 38.90945 ], [ -77.41435, 38.90908 ], [ -77.41395, 38.90953 ], [ -77.41483, 38.91022 ], [ -77.41674, 38.90993 ], [ -77.41693, 38.90937 ], [ -77.41775, 38.90918 ], [ -77.41719, 38.9084 ], [ -77.41841, 38.90777 ] ], [ [ -77.41748, 38.90599 ], [ -77.41685, 38.90476 ], [ -77.41486, 38.90516 ], [ -77.41435, 38.90581 ], [ -77.41351, 38.9054 ], [ -77.4129, 38.90609 ], [ -77.412, 38.9057 ], [ -77.41115, 38.90587 ], [ -77.41137, 38.90681 ], [ -77.4108, 38.90738 ], [ -77.41295, 38.90878 ], [ -77.41322, 38.90846 ], [ -77.41154, 38.90752 ], [ -77.41183, 38.90679 ], [ -77.41289, 38.90696 ], [ -77.41417, 38.90646 ], [ -77.41498, 38.90661 ], [ -77.41514, 38.90595 ], [ -77.41748, 38.90599 ] ], [ [ -77.41607, 38.9035 ], [ -77.41607, 38.90381 ], [ -77.41643, 38.90373 ], [ -77.41607, 38.9035 ] ], [ [ -77.41583, 38.90142 ], [ -77.41488, 38.90173 ], [ -77.41106, 38.9014 ], [ -77.41279, 38.90238 ], [ -77.41329, 38.90172 ], [ -77.41382, 38.90173 ], [ -77.41425, 38.90264 ], [ -77.41607, 38.90233 ], [ -77.41583, 38.90142 ] ], [ [ -77.41632, 38.89605 ], [ -77.41722, 38.89634 ], [ -77.41575, 38.89574 ], [ -77.41632, 38.89605 ] ], [ [ -77.42329, 38.90289 ], [ -77.42335, 38.90306 ], [ -77.42341, 38.90287 ], [ -77.42329, 38.90289 ] ], [ [ -77.42156, 38.90002 ], [ -77.42079, 38.90042 ], [ -77.42107, 38.90091 ], [ -77.42183, 38.90055 ], [ -77.42156, 38.90002 ] ], [ [ -77.42102, 38.89871 ], [ -77.42103, 38.8987 ], [ -77.42102, 38.8987 ], [ -77.42102, 38.89871 ] ], [ [ -77.42056, 38.89822 ], [ -77.42054, 38.89819 ], [ -77.42052, 38.89819 ], [ -77.42056, 38.89822 ] ], [ [ -77.43153, 38.89709 ], [ -77.43248, 38.89542 ], [ -77.43157, 38.89506 ], [ -77.42826, 38.8991 ], [ -77.43153, 38.89709 ] ], [ [ -77.43016, 38.89449 ], [ -77.42719, 38.89329 ], [ -77.42523, 38.89427 ], [ -77.42541, 38.89492 ], [ -77.427, 38.89557 ], [ -77.42919, 38.89587 ], [ -77.43016, 38.89449 ] ], [ [ -77.43429, 38.8963 ], [ -77.43465, 38.89632 ], [ -77.43377, 38.89595 ], [ -77.43429, 38.8963 ] ], [ [ -77.43108, 38.89258 ], [ -77.42835, 38.8915 ], [ -77.42801, 38.89202 ], [ -77.4308, 38.89315 ], [ -77.43108, 38.89258 ] ], [ [ -77.43351, 38.89204 ], [ -77.43306, 38.89191 ], [ -77.43216, 38.89386 ], [ -77.43323, 38.89428 ], [ -77.43367, 38.89333 ], [ -77.43351, 38.89204 ] ], [ [ -77.43232, 38.89798 ], [ -77.43064, 38.89867 ], [ -77.43295, 38.89867 ], [ -77.4334, 38.89729 ], [ -77.43315, 38.89697 ], [ -77.43232, 38.89798 ] ], [ [ -77.42771, 38.90144 ], [ -77.42746, 38.89999 ], [ -77.42594, 38.90169 ], [ -77.42771, 38.90144 ] ], [ [ -77.42685, 38.89666 ], [ -77.42678, 38.89698 ], [ -77.42746, 38.89697 ], [ -77.42784, 38.89737 ], [ -77.42839, 38.89676 ], [ -77.42685, 38.89666 ] ], [ [ -77.42677, 38.89811 ], [ -77.42697, 38.89835 ], [ -77.42729, 38.89799 ], [ -77.42677, 38.89811 ] ], [ [ -77.42521, 38.90262 ], [ -77.4246, 38.90434 ], [ -77.4268, 38.90412 ], [ -77.42755, 38.90361 ], [ -77.42768, 38.90254 ], [ -77.42521, 38.90262 ] ], [ [ -77.4214, 38.89715 ], [ -77.42167, 38.89704 ], [ -77.42128, 38.89689 ], [ -77.4214, 38.89715 ] ], [ [ -77.42485, 38.92003 ], [ -77.42485, 38.91959 ], [ -77.42437, 38.91959 ], [ -77.42433, 38.92043 ], [ -77.42485, 38.92003 ] ], [ [ -77.42665, 38.9188 ], [ -77.42676, 38.91815 ], [ -77.42775, 38.9181 ], [ -77.42709, 38.91624 ], [ -77.4239, 38.91619 ], [ -77.42368, 38.91684 ], [ -77.42501, 38.91768 ], [ -77.42497, 38.91852 ], [ -77.42665, 38.9188 ] ], [ [ -77.43716, 38.91715 ], [ -77.43716, 38.91736 ], [ -77.43736, 38.91739 ], [ -77.43716, 38.91715 ] ], [ [ -77.42755, 38.9121 ], [ -77.42648, 38.91307 ], [ -77.4283, 38.91281 ], [ -77.42822, 38.91215 ], [ -77.42755, 38.9121 ] ], [ [ -77.42544, 38.92678 ], [ -77.4253, 38.92571 ], [ -77.42195, 38.92393 ], [ -77.4207, 38.92409 ], [ -77.42011, 38.92507 ], [ -77.424, 38.9276 ], [ -77.42544, 38.92678 ] ], [ [ -77.42107, 38.9166 ], [ -77.4207, 38.91637 ], [ -77.42045, 38.91702 ], [ -77.42173, 38.91731 ], [ -77.42107, 38.9166 ] ], [ [ -77.42284, 38.91457 ], [ -77.4214, 38.91442 ], [ -77.42112, 38.91525 ], [ -77.42237, 38.91602 ], [ -77.42284, 38.91457 ] ], [ [ -77.42052, 38.91148 ], [ -77.42063, 38.91155 ], [ -77.42074, 38.91122 ], [ -77.42052, 38.91148 ] ], [ [ -77.41966, 38.9073 ], [ -77.4211, 38.91004 ], [ -77.42263, 38.90523 ], [ -77.42044, 38.90557 ], [ -77.41951, 38.90499 ], [ -77.41931, 38.90408 ], [ -77.41795, 38.904 ], [ -77.41966, 38.9073 ] ], [ [ -77.41936, 38.90206 ], [ -77.41919, 38.90132 ], [ -77.41883, 38.90225 ], [ -77.41936, 38.90206 ] ], [ [ -77.4187, 38.89946 ], [ -77.41836, 38.8993 ], [ -77.41844, 38.89985 ], [ -77.4187, 38.89946 ] ], [ [ -77.41942, 38.89853 ], [ -77.41956, 38.89824 ], [ -77.41822, 38.89783 ], [ -77.41942, 38.89853 ] ], [ [ -77.42299, 38.90416 ], [ -77.42308, 38.9039 ], [ -77.42257, 38.90411 ], [ -77.42299, 38.90416 ] ], [ [ -77.42298, 38.91779 ], [ -77.42291, 38.9187 ], [ -77.42344, 38.91856 ], [ -77.42358, 38.91817 ], [ -77.42298, 38.91779 ] ], [ [ -77.41962, 38.90107 ], [ -77.41945, 38.90118 ], [ -77.41964, 38.90112 ], [ -77.41962, 38.90107 ] ], [ [ -77.42012, 38.91876 ], [ -77.42037, 38.91813 ], [ -77.42005, 38.91805 ], [ -77.4198, 38.91868 ], [ -77.42012, 38.91876 ] ], [ [ -77.41675, 38.8943 ], [ -77.41688, 38.89432 ], [ -77.41682, 38.89422 ], [ -77.41675, 38.8943 ] ], [ [ -77.41738, 38.90193 ], [ -77.41742, 38.90211 ], [ -77.41746, 38.9021 ], [ -77.41738, 38.90193 ] ], [ [ -77.41685, 38.89992 ], [ -77.41711, 38.90091 ], [ -77.41745, 38.90085 ], [ -77.41685, 38.89992 ] ], [ [ -77.41817, 38.88677 ], [ -77.41736, 38.88607 ], [ -77.41628, 38.88708 ], [ -77.41719, 38.88688 ], [ -77.41771, 38.8872 ], [ -77.41817, 38.88677 ] ], [ [ -77.41692, 38.92162 ], [ -77.41587, 38.92093 ], [ -77.41472, 38.92074 ], [ -77.41427, 38.92178 ], [ -77.41644, 38.9227 ], [ -77.41692, 38.92162 ] ], [ [ -77.41433, 38.9189 ], [ -77.41406, 38.91874 ], [ -77.41306, 38.91847 ], [ -77.41189, 38.91855 ], [ -77.41265, 38.91882 ], [ -77.41219, 38.91963 ], [ -77.41237, 38.92027 ], [ -77.4114, 38.92048 ], [ -77.41188, 38.92103 ], [ -77.41123, 38.9216 ], [ -77.41019, 38.92106 ], [ -77.41042, 38.9222 ], [ -77.41188, 38.92186 ], [ -77.41207, 38.92083 ], [ -77.4129, 38.91981 ], [ -77.41388, 38.91953 ], [ -77.41433, 38.9189 ] ], [ [ -77.41475, 38.91696 ], [ -77.41482, 38.91584 ], [ -77.41543, 38.9154 ], [ -77.41467, 38.91532 ], [ -77.41466, 38.91599 ], [ -77.41418, 38.91617 ], [ -77.41217, 38.9161 ], [ -77.41108, 38.9153 ], [ -77.41148, 38.9142 ], [ -77.40981, 38.91432 ], [ -77.4097, 38.91508 ], [ -77.41203, 38.91617 ], [ -77.41256, 38.91738 ], [ -77.4137, 38.91739 ], [ -77.41475, 38.91696 ] ], [ [ -77.40911, 38.91329 ], [ -77.41143, 38.91311 ], [ -77.41282, 38.91351 ], [ -77.41291, 38.91338 ], [ -77.41197, 38.9127 ], [ -77.41107, 38.91292 ], [ -77.40929, 38.9121 ], [ -77.40896, 38.91116 ], [ -77.40677, 38.91261 ], [ -77.40663, 38.91343 ], [ -77.4071, 38.9141 ], [ -77.40911, 38.91329 ] ], [ [ -77.41016, 38.91019 ], [ -77.41052, 38.9102 ], [ -77.40995, 38.90985 ], [ -77.40969, 38.91019 ], [ -77.41016, 38.91019 ] ], [ [ -77.4161, 38.91787 ], [ -77.41607, 38.91814 ], [ -77.41655, 38.91791 ], [ -77.4161, 38.91787 ] ], [ [ -77.41748, 38.91279 ], [ -77.41675, 38.91272 ], [ -77.41654, 38.91234 ], [ -77.41697, 38.911 ], [ -77.41541, 38.91127 ], [ -77.41548, 38.91211 ], [ -77.41474, 38.91318 ], [ -77.41502, 38.91424 ], [ -77.41676, 38.91353 ], [ -77.41729, 38.91355 ], [ -77.41763, 38.91403 ], [ -77.41748, 38.91279 ] ], [ [ -77.41321, 38.91059 ], [ -77.41318, 38.91055 ], [ -77.41226, 38.91076 ], [ -77.41265, 38.91145 ], [ -77.41321, 38.91059 ] ], [ [ -77.41214, 38.91224 ], [ -77.41214, 38.91221 ], [ -77.41213, 38.91222 ], [ -77.41214, 38.91224 ] ], [ [ -77.41019, 38.90048 ], [ -77.41003, 38.89968 ], [ -77.41042, 38.8994 ], [ -77.41095, 38.89943 ], [ -77.4116, 38.90037 ], [ -77.41235, 38.90051 ], [ -77.41136, 38.89774 ], [ -77.41043, 38.89798 ], [ -77.40937, 38.90047 ], [ -77.40835, 38.90065 ], [ -77.40904, 38.90116 ], [ -77.41019, 38.90048 ] ], [ [ -77.40942, 38.89023 ], [ -77.40839, 38.89051 ], [ -77.40917, 38.89066 ], [ -77.40942, 38.89023 ] ], [ [ -77.41524, 38.89924 ], [ -77.41513, 38.89878 ], [ -77.41435, 38.89896 ], [ -77.41374, 38.8985 ], [ -77.41314, 38.89893 ], [ -77.41383, 38.90035 ], [ -77.41524, 38.89924 ] ], [ [ -77.41401, 38.89774 ], [ -77.41344, 38.89799 ], [ -77.41373, 38.89834 ], [ -77.41427, 38.89791 ], [ -77.41401, 38.89774 ] ], [ [ -77.41238, 38.88858 ], [ -77.41235, 38.88832 ], [ -77.41177, 38.88928 ], [ -77.41261, 38.88937 ], [ -77.41238, 38.88858 ] ], [ [ -77.41468, 38.90408 ], [ -77.41479, 38.90406 ], [ -77.41471, 38.904 ], [ -77.41468, 38.90408 ] ], [ [ -77.41453, 38.9037 ], [ -77.41469, 38.90396 ], [ -77.4147, 38.90371 ], [ -77.41453, 38.9037 ] ], [ [ -77.41156, 38.89599 ], [ -77.41082, 38.89515 ], [ -77.41045, 38.89515 ], [ -77.41092, 38.89662 ], [ -77.41156, 38.89599 ] ], [ [ -77.41077, 38.90365 ], [ -77.41039, 38.90414 ], [ -77.41112, 38.904 ], [ -77.41077, 38.90365 ] ], [ [ -77.4085, 38.91867 ], [ -77.4084, 38.91883 ], [ -77.40904, 38.91908 ], [ -77.4085, 38.91867 ] ], [ [ -77.40645, 38.92044 ], [ -77.40691, 38.9211 ], [ -77.40725, 38.92014 ], [ -77.40645, 38.92044 ] ], [ [ -77.40648, 38.91924 ], [ -77.40571, 38.9185 ], [ -77.40593, 38.91944 ], [ -77.40648, 38.91924 ] ], [ [ -77.40592, 38.91714 ], [ -77.40513, 38.91719 ], [ -77.40481, 38.9159 ], [ -77.40531, 38.91517 ], [ -77.4063, 38.91505 ], [ -77.40523, 38.91335 ], [ -77.40397, 38.91466 ], [ -77.40364, 38.9156 ], [ -77.40423, 38.91712 ], [ -77.40494, 38.91704 ], [ -77.40552, 38.91785 ], [ -77.40592, 38.91714 ] ], [ [ -77.40619, 38.91683 ], [ -77.40617, 38.91678 ], [ -77.4061, 38.91702 ], [ -77.40619, 38.91683 ] ], [ [ -77.40668, 38.91134 ], [ -77.40509, 38.9111 ], [ -77.40528, 38.91029 ], [ -77.40484, 38.90937 ], [ -77.4054, 38.90905 ], [ -77.40494, 38.90903 ], [ -77.40176, 38.91437 ], [ -77.40293, 38.91395 ], [ -77.40448, 38.91237 ], [ -77.40668, 38.91134 ] ], [ [ -77.40816, 38.91022 ], [ -77.40839, 38.90969 ], [ -77.40753, 38.90931 ], [ -77.40592, 38.9087 ], [ -77.40548, 38.90905 ], [ -77.40626, 38.90928 ], [ -77.40661, 38.90994 ], [ -77.40723, 38.9094 ], [ -77.40776, 38.90945 ], [ -77.40816, 38.91022 ] ], [ [ -77.40756, 38.90683 ], [ -77.40783, 38.90595 ], [ -77.40708, 38.90549 ], [ -77.40642, 38.90674 ], [ -77.40756, 38.90683 ] ], [ [ -77.40727, 38.90476 ], [ -77.40722, 38.90507 ], [ -77.40764, 38.9049 ], [ -77.40729, 38.90449 ], [ -77.40727, 38.90476 ] ], [ [ -77.4081, 38.90284 ], [ -77.4086, 38.90224 ], [ -77.4075, 38.90277 ], [ -77.40671, 38.90254 ], [ -77.40725, 38.90392 ], [ -77.40825, 38.90376 ], [ -77.4081, 38.90284 ] ], [ [ -77.40629, 38.90172 ], [ -77.40662, 38.90234 ], [ -77.40663, 38.90204 ], [ -77.40629, 38.90172 ] ], [ [ -77.40583, 38.90081 ], [ -77.40606, 38.90126 ], [ -77.40626, 38.90097 ], [ -77.40583, 38.90081 ] ], [ [ -77.40922, 38.90773 ], [ -77.40921, 38.9078 ], [ -77.40927, 38.90775 ], [ -77.40922, 38.90773 ] ], [ [ -77.40753, 38.90811 ], [ -77.40766, 38.90791 ], [ -77.40745, 38.90793 ], [ -77.40753, 38.90811 ] ], [ [ -77.4069, 38.91791 ], [ -77.40713, 38.91838 ], [ -77.40729, 38.91815 ], [ -77.4069, 38.91791 ] ], [ [ -77.40901, 38.92272 ], [ -77.40752, 38.92238 ], [ -77.40706, 38.92273 ], [ -77.40754, 38.92328 ], [ -77.40901, 38.92272 ] ], [ [ -77.40887, 38.92155 ], [ -77.40852, 38.92156 ], [ -77.4086, 38.9217 ], [ -77.40892, 38.92181 ], [ -77.40887, 38.92155 ] ], [ [ -77.40885, 38.9201 ], [ -77.40888, 38.91991 ], [ -77.40857, 38.92048 ], [ -77.40885, 38.9201 ] ], [ [ -77.40911, 38.92262 ], [ -77.40903, 38.92271 ], [ -77.40913, 38.92267 ], [ -77.40911, 38.92262 ] ], [ [ -77.40457, 38.90608 ], [ -77.40466, 38.90588 ], [ -77.40446, 38.90593 ], [ -77.40457, 38.90608 ] ], [ [ -77.40365, 38.90503 ], [ -77.40525, 38.90462 ], [ -77.40587, 38.90401 ], [ -77.40563, 38.90334 ], [ -77.40515, 38.90388 ], [ -77.4043, 38.90405 ], [ -77.40416, 38.9047 ], [ -77.40306, 38.90451 ], [ -77.40264, 38.90541 ], [ -77.4019, 38.90532 ], [ -77.4019, 38.90628 ], [ -77.40365, 38.90503 ] ], [ [ -77.39975, 38.906 ], [ -77.39946, 38.90602 ], [ -77.4005, 38.9064 ], [ -77.39975, 38.906 ] ], [ [ -77.39637, 38.90569 ], [ -77.39639, 38.90568 ], [ -77.39636, 38.90568 ], [ -77.39637, 38.90569 ] ], [ [ -77.40498, 38.90206 ], [ -77.4047, 38.90152 ], [ -77.40464, 38.90269 ], [ -77.40532, 38.90272 ], [ -77.40498, 38.90206 ] ], [ [ -77.40167, 38.90497 ], [ -77.40166, 38.90489 ], [ -77.40162, 38.90491 ], [ -77.40167, 38.90497 ] ], [ [ -77.40184, 38.90743 ], [ -77.40197, 38.90777 ], [ -77.40253, 38.90742 ], [ -77.40303, 38.90756 ], [ -77.40325, 38.90793 ], [ -77.40321, 38.90871 ], [ -77.40268, 38.90923 ], [ -77.40305, 38.90958 ], [ -77.40461, 38.90725 ], [ -77.40184, 38.90743 ] ], [ [ -77.39844, 38.9079 ], [ -77.39836, 38.90774 ], [ -77.39782, 38.90778 ], [ -77.39844, 38.9079 ] ], [ [ -77.39613, 38.907 ], [ -77.3969, 38.90755 ], [ -77.39676, 38.90795 ], [ -77.39608, 38.9081 ], [ -77.39682, 38.90833 ], [ -77.39681, 38.908 ], [ -77.39756, 38.90769 ], [ -77.39735, 38.90677 ], [ -77.39613, 38.907 ] ], [ [ -77.39585, 38.90806 ], [ -77.39583, 38.90812 ], [ -77.396, 38.90808 ], [ -77.39585, 38.90806 ] ], [ [ -77.40184, 38.91007 ], [ -77.40182, 38.91005 ], [ -77.40181, 38.91005 ], [ -77.40184, 38.91007 ] ], [ [ -77.40226, 38.9155 ], [ -77.40209, 38.91566 ], [ -77.40225, 38.91562 ], [ -77.40226, 38.9155 ] ], [ [ -77.40278, 38.91663 ], [ -77.40251, 38.91665 ], [ -77.40274, 38.91688 ], [ -77.40278, 38.91663 ] ], [ [ -77.40998, 38.93057 ], [ -77.41138, 38.92927 ], [ -77.41102, 38.92898 ], [ -77.40955, 38.93011 ], [ -77.40998, 38.93057 ] ] ] } },
{ "type": "Feature", "properties": { "variant": "T2s", "miles": 1.0 }, "geometry": { "type": "MultiPolygon", "coordinates": [ [ [ [ -77.41944, 38.90321 ], [ -77.42051, 38.90299 ], [ -77.42165, 38.90333 ], [ -77.42285, 38.90439 ], [ -77.42254, 38.90519 ], [ -77.42148, 38.90561 ], [ -77.41989, 38.90534 ], [ -77.4193, 38.90456 ], [ -77.41944, 38.90321 ] ] ], [ [ [ -77.41374, 38.90044 ], [ -77.41524, 38.89924 ], [ -77.41474, 38.8972 ], [ -77.4135, 38.89745 ], [ -77.41342, 38.89669 ], [ -77.41511, 38.89602 ], [ -77.41677, 38.89619 ], [ -77.41714, 38.8969 ], [ -77.41614, 38.89716 ], [ -77.41634, 38.89801 ], [ -77.41702, 38.89786 ], [ -77.41752, 38.89859 ], [ -77.41663, 38.89918 ], [ -77.4179, 38.90388 ], [ -77.41996, 38.90785 ], [ -77.41995, 38.90826 ], [ -77.41919, 38.90867 ], [ -77.41977, 38.90919 ], [ -77.41949, 38.90959 ], [ -77.42068, 38.91069 ], [ -77.42052, 38.91148 ], [ -77.4209, 38.91175 ], [ -77.42091, 38.91216 ], [ -77.4195, 38.91286 ], [ -77.41931, 38.9135 ], [ -77.42022, 38.91392 ], [ -77.42002, 38.91466 ], [ -77.41901, 38.9146 ], [ -77.41725, 38.91554 ], [ -77.41827, 38.91648 ], [ -77.41852, 38.91566 ], [ -77.41948, 38.91554 ], [ -77.41978, 38.9163 ], [ -77.41906, 38.91763 ], [ -77.41777, 38.91748 ], [ -77.41648, 38.91791 ], [ -77.41519, 38.9176 ], [ -77.41479, 38.9169 ], [ -77.41589, 38.91665 ], [ -77.4158, 38.91565 ], [ -77.41325, 38.91519 ], [ -77.41242, 38.91462 ], [ -77.41306, 38.914 ], [ -77.41197, 38.91258 ], [ -77.41318, 38.91055 ], [ -77.41226, 38.91076 ], [ -77.41038, 38.91243 ], [ -77.40898, 38.91177 ], [ -77.40915, 38.9104 ], [ -77.41049, 38.91003 ], [ -77.40898, 38.90968 ], [ -77.40859, 38.90881 ], [ -77.40927, 38.90775 ], [ -77.40798, 38.90768 ], [ -77.40757, 38.90687 ], [ -77.40783, 38.90595 ], [ -77.40704, 38.9054 ], [ -77.40725, 38.90502 ], [ -77.40848, 38.9049 ], [ -77.40934, 38.90363 ], [ -77.40986, 38.90371 ], [ -77.41009, 38.90431 ], [ -77.41204, 38.9039 ], [ -77.41186, 38.90318 ], [ -77.40994, 38.90203 ], [ -77.40881, 38.90235 ], [ -77.40864, 38.9016 ], [ -77.40927, 38.90095 ], [ -77.41072, 38.90034 ], [ -77.41374, 38.90044 ] ], [ [ -77.41748, 38.90599 ], [ -77.41685, 38.90476 ], [ -77.41486, 38.90516 ], [ -77.41435, 38.90581 ], [ -77.4134, 38.90542 ], [ -77.4129, 38.90609 ], [ -77.412, 38.9057 ], [ -77.40947, 38.90607 ], [ -77.40897, 38.90661 ], [ -77.41015, 38.9069 ], [ -77.41295, 38.90878 ], [ -77.41322, 38.90846 ], [ -77.41154, 38.90752 ], [ -77.41183, 38.90679 ], [ -77.41286, 38.90696 ], [ -77.41417, 38.90646 ], [ -77.41498, 38.90661 ], [ -77.41514, 38.90595 ], [ -77.41565, 38.90584 ], [ -77.41748, 38.90599 ] ], [ [ -77.41479, 38.90406 ], [ -77.41471, 38.904 ], [ -77.41468, 38.90408 ], [ -77.41479, 38.90406 ] ], [ [ -77.4147, 38.90371 ], [ -77.41453, 38.9037 ], [ -77.41469, 38.90396 ], [ -77.4147, 38.90371 ] ], [ [ -77.41425, 38.90264 ], [ -77.41607, 38.90233 ], [ -77.41583, 38.90142 ], [ -77.41488, 38.90173 ], [ -77.41106, 38.9014 ], [ -77.41279, 38.90238 ], [ -77.41329, 38.90172 ], [ -77.41382, 38.90173 ], [ -77.41425, 38.90264 ] ], [ [ -77.41506, 38.91424 ], [ -77.41676, 38.91353 ], [ -77.41782, 38.91393 ], [ -77.41748, 38.91279 ], [ -77.41675, 38.91272 ], [ -77.41654, 38.91234 ], [ -77.41697, 38.911 ], [ -77.41541, 38.91127 ], [ -77.41548, 38.91211 ], [ -77.41474, 38.91318 ], [ -77.41506, 38.91424 ] ], [ [ -77.41458, 38.91014 ], [ -77.41674, 38.90993 ], [ -77.41693, 38.90937 ], [ -77.41775, 38.90918 ], [ -77.41719, 38.9084 ], [ -77.41841, 38.90777 ], [ -77.41804, 38.90702 ], [ -77.41632, 38.90727 ], [ -77.41671, 38.90823 ], [ -77.41588, 38.90855 ], [ -77.41592, 38.90926 ], [ -77.41545, 38.90945 ], [ -77.41435, 38.90908 ], [ -77.41395, 38.90953 ], [ -77.41458, 38.91014 ] ], [ [ -77.41914, 38.91456 ], [ -77.41915, 38.91456 ], [ -77.41915, 38.91455 ], [ -77.41914, 38.91456 ] ], [ [ -77.41635, 38.9034 ], [ -77.41607, 38.90381 ], [ -77.41643, 38.90373 ], [ -77.41635, 38.9034 ] ] ] ] } },
{ "type": "Feature", "properties": { "variant": "T2s", "miles": 1.5 }, "geometry": { "type": "Polygon", "coordinates": [ [ [ -77.42678, 38.89698 ], [ -77.42746, 38.89697 ], [ -77.42784, 38.89767 ], [ -77.42677, 38.89811 ], [ -77.42678, 38.8986 ], [ -77.42611, 38.89911 ], [ -77.42624, 38.90009 ], [ -77.42533, 38.90123 ], [ -77.42428, 38.90154 ], [ -77.42455, 38.90273 ], [ -77.42366, 38.90305 ], [ -77.42319, 38.90263 ], [ -77.42334, 38.90352 ], [ -77.42254, 38.90412 ], [ -77.42285, 38.90441 ], [ -77.42249, 38.90523 ], [ -77.42168, 38.90559 ], [ -77.42036, 38.90555 ], [ -77.41948, 38.90496 ], [ -77.41931, 38.90408 ], [ -77.41795, 38.904 ], [ -77.41996, 38.90785 ], [ -77.41995, 38.90826 ], [ -77.41919, 38.90867 ], [ -77.41958, 38.90881 ], [ -77.41949, 38.90959 ], [ -77.42019, 38.91001 ], [ -77.42016, 38.9105 ], [ -77.42068, 38.91069 ], [ -77.42091, 38.91216 ], [ -77.4195, 38.91286 ], [ -77.41931, 38.9135 ], [ -77.42008, 38.91378 ], [ -77.42032, 38.91432 ], [ -77.42002, 38.91466 ], [ -77.41903, 38.91459 ], [ -77.41981, 38.91617 ], [ -77.4185, 38.91844 ], [ -77.41858, 38.91928 ], [ -77.41757, 38.91977 ], [ -77.41626, 38.91931 ], [ -77.41576, 38.91955 ], [ -77.41861, 38.92109 ], [ -77.41774, 38.92358 ], [ -77.41989, 38.92514 ], [ -77.41929, 38.92574 ], [ -77.41731, 38.9247 ], [ -77.41688, 38.92593 ], [ -77.41578, 38.92626 ], [ -77.41532, 38.92559 ], [ -77.41692, 38.92162 ], [ -77.41587, 38.92093 ], [ -77.41472, 38.92074 ], [ -77.41395, 38.92134 ], [ -77.4142, 38.9219 ], [ -77.41385, 38.92221 ], [ -77.41248, 38.92241 ], [ -77.41187, 38.92185 ], [ -77.41218, 38.92066 ], [ -77.41433, 38.9189 ], [ -77.41324, 38.91849 ], [ -77.41189, 38.91855 ], [ -77.41265, 38.91882 ], [ -77.41239, 38.91956 ], [ -77.41081, 38.92007 ], [ -77.41032, 38.91992 ], [ -77.40918, 38.91946 ], [ -77.40908, 38.91877 ], [ -77.40709, 38.91801 ], [ -77.40613, 38.91665 ], [ -77.40489, 38.91631 ], [ -77.4051, 38.91533 ], [ -77.4063, 38.91505 ], [ -77.40523, 38.91335 ], [ -77.40361, 38.9149 ], [ -77.40264, 38.91476 ], [ -77.40253, 38.91436 ], [ -77.40436, 38.91247 ], [ -77.40668, 38.91134 ], [ -77.40509, 38.9111 ], [ -77.40528, 38.91029 ], [ -77.40484, 38.90937 ], [ -77.4054, 38.90905 ], [ -77.40459, 38.90872 ], [ -77.40515, 38.90746 ], [ -77.40366, 38.90706 ], [ -77.40093, 38.90751 ], [ -77.3996, 38.90873 ], [ -77.39871, 38.90842 ], [ -77.39872, 38.90801 ], [ -77.39994, 38.90651 ], [ -77.40295, 38.90603 ], [ -77.4034, 38.90519 ], [ -77.40525, 38.90462 ], [ -77.40568, 38.904 ], [ -77.40621, 38.90402 ], [ -77.40664, 38.90463 ], [ -77.40577, 38.9065 ], [ -77.40756, 38.90683 ], [ -77.40783, 38.90595 ], [ -77.40704, 38.9054 ], [ -77.40764, 38.9049 ], [ -77.40715, 38.90403 ], [ -77.40745, 38.90369 ], [ -77.40825, 38.90376 ], [ -77.4081, 38.90284 ], [ -77.4086, 38.90224 ], [ -77.40697, 38.90276 ], [ -77.40661, 38.90245 ], [ -77.4068, 38.90183 ], [ -77.40608, 38.90157 ], [ -77.40626, 38.90097 ], [ -77.4055, 38.90036 ], [ -77.40382, 38.90144 ], [ -77.4023, 38.90125 ], [ -77.40182, 38.90059 ], [ -77.40215, 38.90026 ], [ -77.40346, 38.9003 ], [ -77.40525, 38.89926 ], [ -77.4072, 38.89915 ], [ -77.40851, 38.89853 ], [ -77.40793, 38.89808 ], [ -77.40742, 38.89852 ], [ -77.40655, 38.89852 ], [ -77.40631, 38.89716 ], [ -77.40749, 38.89571 ], [ -77.40829, 38.89557 ], [ -77.40899, 38.89602 ], [ -77.40928, 38.89524 ], [ -77.41013, 38.89508 ], [ -77.4094, 38.89435 ], [ -77.40983, 38.89366 ], [ -77.41169, 38.89424 ], [ -77.41284, 38.89548 ], [ -77.41298, 38.89622 ], [ -77.4123, 38.89691 ], [ -77.41301, 38.89696 ], [ -77.41383, 38.89638 ], [ -77.41313, 38.89577 ], [ -77.41396, 38.8952 ], [ -77.41269, 38.89293 ], [ -77.41339, 38.89205 ], [ -77.41282, 38.88994 ], [ -77.4133, 38.88927 ], [ -77.41415, 38.88965 ], [ -77.41456, 38.89117 ], [ -77.41627, 38.89123 ], [ -77.41595, 38.89072 ], [ -77.41661, 38.89021 ], [ -77.41779, 38.89069 ], [ -77.41831, 38.89214 ], [ -77.41693, 38.89268 ], [ -77.41829, 38.89416 ], [ -77.41868, 38.8968 ], [ -77.41994, 38.8972 ], [ -77.42023, 38.8959 ], [ -77.42115, 38.89564 ], [ -77.42151, 38.89594 ], [ -77.4214, 38.89715 ], [ -77.42372, 38.89685 ], [ -77.42534, 38.89803 ], [ -77.42565, 38.89581 ], [ -77.42647, 38.89538 ], [ -77.42701, 38.89602 ], [ -77.42678, 38.89698 ] ], [ [ -77.41482, 38.91584 ], [ -77.41543, 38.9154 ], [ -77.41467, 38.91532 ], [ -77.41466, 38.91599 ], [ -77.41418, 38.91617 ], [ -77.41197, 38.91605 ], [ -77.41106, 38.91523 ], [ -77.41148, 38.9142 ], [ -77.40875, 38.9145 ], [ -77.40748, 38.91573 ], [ -77.40795, 38.91714 ], [ -77.40859, 38.91628 ], [ -77.40953, 38.91598 ], [ -77.41118, 38.9166 ], [ -77.41168, 38.91748 ], [ -77.41364, 38.91745 ], [ -77.41469, 38.917 ], [ -77.41482, 38.91584 ] ], [ [ -77.41676, 38.91353 ], [ -77.41782, 38.91393 ], [ -77.41748, 38.91279 ], [ -77.41675, 38.91272 ], [ -77.41654, 38.91234 ], [ -77.41697, 38.911 ], [ -77.41541, 38.91127 ], [ -77.41548, 38.91211 ], [ -77.41474, 38.91318 ], [ -77.41506, 38.91424 ], [ -77.41676, 38.91353 ] ], [ [ -77.41674, 38.90993 ], [ -77.41693, 38.90937 ], [ -77.41775, 38.90918 ], [ -77.41719, 38.9084 ], [ -77.41841, 38.90777 ], [ -77.41804, 38.90702 ], [ -77.41632, 38.90727 ], [ -77.41671, 38.90823 ], [ -77.41588, 38.90855 ], [ -77.41592, 38.90926 ], [ -77.41545, 38.90945 ], [ -77.41435, 38.90908 ], [ -77.41395, 38.90953 ], [ -77.41458, 38.91014 ], [ -77.41674, 38.90993 ] ], [ [ -77.41565, 38.90584 ], [ -77.41748, 38.90599 ], [ -77.41685, 38.90476 ], [ -77.41486, 38.90516 ], [ -77.41435, 38.90581 ], [ -77.41351, 38.9054 ], [ -77.4129, 38.90609 ], [ -77.412, 38.9057 ], [ -77.41115, 38.90587 ], [ -77.41137, 38.90681 ], [ -77.4108, 38.90738 ], [ -77.41295, 38.90878 ], [ -77.41322, 38.90846 ], [ -77.41172, 38.90772 ], [ -77.41149, 38.90711 ], [ -77.41183, 38.90679 ], [ -77.41286, 38.90696 ], [ -77.41417, 38.90646 ], [ -77.41498, 38.90661 ], [ -77.41488, 38.90631 ], [ -77.41565, 38.90584 ] ], [ [ -77.41471, 38.904 ], [ -77.41468, 38.90408 ], [ -77.41479, 38.90406 ], [ -77.41471, 38.904 ] ], [ [ -77.41453, 38.9037 ], [ -77.41469, 38.90396 ], [ -77.4147, 38.90371 ], [ -77.41453, 38.9037 ] ], [ [ -77.41607, 38.90233 ], [ -77.41583, 38.90142 ], [ -77.41488, 38.90173 ], [ -77.41106, 38.9014 ], [ -77.41279, 38.90238 ], [ -77.41329, 38.90172 ], [ -77.41382, 38.90173 ], [ -77.41432, 38.90262 ], [ -77.41607, 38.90233 ] ], [ [ -77.41524, 38.89924 ], [ -77.41513, 38.89878 ], [ -77.41435, 38.89896 ], [ -77.41374, 38.8985 ], [ -77.41314, 38.89893 ], [ -77.41374, 38.90044 ], [ -77.41524, 38.89924 ] ], [ [ -77.41425, 38.89784 ], [ -77.41344, 38.89799 ], [ -77.41373, 38.89834 ], [ -77.41425, 38.89784 ] ], [ [ -77.41607, 38.9035 ], [ -77.41607, 38.90381 ], [ -77.41643, 38.90373 ], [ -77.41607, 38.9035 ] ], [ [ -77.41717, 38.89623 ], [ -77.41575, 38.89574 ], [ -77.41581, 38.89597 ], [ -77.41717, 38.89623 ] ], [ [ -77.41675, 38.8943 ], [ -77.41688, 38.89432 ], [ -77.41682, 38.89422 ], [ -77.41675, 38.8943 ] ], [ [ -77.41936, 38.90206 ], [ -77.41919, 38.90132 ], [ -77.41883, 38.90225 ], [ -77.41936, 38.90206 ] ], [ [ -77.4187, 38.89946 ], [ -77.41836, 38.8993 ], [ -77.41844, 38.89985 ], [ -77.4187, 38.89946 ] ], [ [ -77.41942, 38.89853 ], [ -77.41956, 38.89824 ], [ -77.41822, 38.89783 ], [ -77.41942, 38.89853 ] ], [ [ -77.42079, 38.90042 ], [ -77.42107, 38.90091 ], [ -77.42191, 38.90056 ], [ -77.42157, 38.90004 ], [ -77.42079, 38.90042 ] ], [ [ -77.42103, 38.8987 ], [ -77.42102, 38.8987 ], [ -77.42102, 38.89871 ], [ -77.42103, 38.8987 ] ], [ [ -77.42056, 38.89822 ], [ -77.42054, 38.89819 ], [ -77.42052, 38.89819 ], [ -77.42056, 38.89822 ] ], [ [ -77.41748, 38.90194 ], [ -77.41738, 38.90193 ], [ -77.41742, 38.90211 ], [ -77.41748, 38.90194 ] ], [ [ -77.41685, 38.89992 ], [ -77.41711, 38.90091 ], [ -77.41745, 38.90085 ], [ -77.41685, 38.89992 ] ], [ [ -77.4161, 38.91787 ], [ -77.41607, 38.91814 ], [ -77.41655, 38.91791 ], [ -77.4161, 38.91787 ] ], [ [ -77.41019, 38.90048 ], [ -77.41003, 38.89968 ], [ -77.41042, 38.8994 ], [ -77.41095, 38.89943 ], [ -77.4116, 38.90037 ], [ -77.41235, 38.90051 ], [ -77.41136, 38.89774 ], [ -77.41043, 38.89798 ], [ -77.40937, 38.90047 ], [ -77.40835, 38.90065 ], [ -77.40883, 38.90105 ], [ -77.41019, 38.90048 ] ], [ [ -77.41156, 38.89599 ], [ -77.41082, 38.89515 ], [ -77.41045, 38.89515 ], [ -77.41092, 38.89662 ], [ -77.41156, 38.89599 ] ], [ [ -77.41077, 38.90365 ], [ -77.41039, 38.90414 ], [ -77.41112, 38.904 ], [ -77.41077, 38.90365 ] ], [ [ -77.41197, 38.9127 ], [ -77.41107, 38.91292 ], [ -77.40929, 38.9121 ], [ -77.40896, 38.91116 ], [ -77.40689, 38.9125 ], [ -77.40661, 38.91311 ], [ -77.40705, 38.91414 ], [ -77.40911, 38.91329 ], [ -77.41143, 38.91311 ], [ -77.4129, 38.91338 ], [ -77.41197, 38.9127 ] ], [ [ -77.41213, 38.91222 ], [ -77.41213, 38.91225 ], [ -77.41214, 38.91224 ], [ -77.41213, 38.91222 ] ], [ [ -77.41285, 38.91133 ], [ -77.41318, 38.91055 ], [ -77.41226, 38.91076 ], [ -77.41285, 38.91133 ] ], [ [ -77.41016, 38.91019 ], [ -77.41052, 38.9102 ], [ -77.40995, 38.90985 ], [ -77.4097, 38.91019 ], [ -77.41016, 38.91019 ] ], [ [ -77.40922, 38.90773 ], [ -77.40921, 38.9078 ], [ -77.40927, 38.90775 ], [ -77.40922, 38.90773 ] ], [ [ -77.40753, 38.90811 ], [ -77.40766, 38.90791 ], [ -77.40745, 38.90793 ], [ -77.40753, 38.90811 ] ], [ [ -77.40457, 38.90608 ], [ -77.40466, 38.90588 ], [ -77.40446, 38.90593 ], [ -77.40457, 38.90608 ] ], [ [ -77.40548, 38.90905 ], [ -77.40626, 38.90928 ], [ -77.40661, 38.90994 ], [ -77.40723, 38.9094 ], [ -77.40776, 38.90945 ], [ -77.40816, 38.91022 ], [ -77.40839, 38.90969 ], [ -77.40592, 38.9087 ], [ -77.40548, 38.90905 ] ] ] } },
{ "type": "Feature", "properties": { "variant": "T2s", "miles": 2.0 }, "geometry": { "type": "Polygon", "coordinates": [ [ [ -77.4351, 38.89166 ], [ -77.43503, 38.89366 ], [ -77.43439, 38.89498 ], [ -77.43601, 38.89566 ], [ -77.43629, 38.8964 ], [ -77.43535, 38.89662 ], [ -77.43377, 38.89595 ], [ -77.43464, 38.89712 ], [ -77.43374, 38.89743 ], [ -77.43212, 38.8965 ], [ -77.43248, 38.89542 ], [ -77.43157, 38.89506 ], [ -77.42969, 38.89724 ], [ -77.42814, 38.89667 ], [ -77.42685, 38.89666 ], [ -77.42678, 38.89698 ], [ -77.42784, 38.89726 ], [ -77.42784, 38.89767 ], [ -77.42677, 38.89811 ], [ -77.42678, 38.8986 ], [ -77.42611, 38.89911 ], [ -77.42624, 38.90009 ], [ -77.42533, 38.90123 ], [ -77.42428, 38.90154 ], [ -77.42455, 38.90273 ], [ -77.42366, 38.90305 ], [ -77.42319, 38.90263 ], [ -77.42334, 38.90352 ], [ -77.42254, 38.90412 ], [ -77.42285, 38.90441 ], [ -77.42249, 38.90523 ], [ -77.42168, 38.90559 ], [ -77.42036, 38.90555 ], [ -77.41948, 38.90496 ], [ -77.41931, 38.90408 ], [ -77.41795, 38.904 ], [ -77.41996, 38.90785 ], [ -77.41995, 38.90826 ], [ -77.41919, 38.90867 ], [ -77.41977, 38.90919 ], [ -77.41949, 38.90959 ], [ -77.42068, 38.91069 ], [ -77.42052, 38.91148 ], [ -77.4209, 38.91175 ], [ -77.42055, 38.91247 ], [ -77.4195, 38.91286 ], [ -77.41931, 38.9135 ], [ -77.42008, 38.91378 ], [ -77.42032, 38.91432 ], [ -77.42002, 38.91466 ], [ -77.41903, 38.91459 ], [ -77.4195, 38.91499 ], [ -77.41918, 38.91548 ], [ -77.41977, 38.915 ], [ -77.42051, 38.91499 ], [ -77.42352, 38.91653 ], [ -77.42291, 38.9187 ], [ -77.42432, 38.9179 ], [ -77.42483, 38.91851 ], [ -77.42591, 38.91861 ], [ -77.42625, 38.91897 ], [ -77.42571, 38.91961 ], [ -77.42437, 38.91959 ], [ -77.42429, 38.92093 ], [ -77.42342, 38.92147 ], [ -77.42311, 38.92303 ], [ -77.42687, 38.92538 ], [ -77.42684, 38.9273 ], [ -77.42524, 38.9284 ], [ -77.42671, 38.92944 ], [ -77.42667, 38.9302 ], [ -77.42569, 38.93017 ], [ -77.42414, 38.9291 ], [ -77.42324, 38.92985 ], [ -77.42348, 38.93102 ], [ -77.4225, 38.93106 ], [ -77.42186, 38.92974 ], [ -77.42307, 38.9284 ], [ -77.41731, 38.9247 ], [ -77.41624, 38.92762 ], [ -77.41725, 38.9279 ], [ -77.41888, 38.92935 ], [ -77.41959, 38.9294 ], [ -77.4196, 38.9307 ], [ -77.41913, 38.93089 ], [ -77.41802, 38.93024 ], [ -77.41717, 38.93029 ], [ -77.41693, 38.92941 ], [ -77.4159, 38.92937 ], [ -77.41477, 38.93267 ], [ -77.41361, 38.93242 ], [ -77.41363, 38.93175 ], [ -77.41298, 38.93117 ], [ -77.41409, 38.93038 ], [ -77.41309, 38.92984 ], [ -77.41245, 38.92997 ], [ -77.41066, 38.93151 ], [ -77.40931, 38.93154 ], [ -77.40829, 38.93076 ], [ -77.40814, 38.9299 ], [ -77.41054, 38.92783 ], [ -77.41164, 38.92794 ], [ -77.4124, 38.92742 ], [ -77.41431, 38.92914 ], [ -77.41599, 38.92383 ], [ -77.41431, 38.92289 ], [ -77.41178, 38.92297 ], [ -77.40782, 38.92439 ], [ -77.40783, 38.92495 ], [ -77.40737, 38.92517 ], [ -77.40657, 38.92514 ], [ -77.40612, 38.92491 ], [ -77.40585, 38.92289 ], [ -77.40638, 38.92255 ], [ -77.40476, 38.92018 ], [ -77.40398, 38.91752 ], [ -77.4031, 38.91796 ], [ -77.40203, 38.91781 ], [ -77.40044, 38.91588 ], [ -77.3988, 38.91797 ], [ -77.39764, 38.91845 ], [ -77.39674, 38.918 ], [ -77.3967, 38.91725 ], [ -77.39822, 38.91677 ], [ -77.40053, 38.91388 ], [ -77.40252, 38.91039 ], [ -77.40118, 38.91005 ], [ -77.40041, 38.91066 ], [ -77.39991, 38.91053 ], [ -77.4, 38.90869 ], [ -77.39927, 38.90883 ], [ -77.3989, 38.90971 ], [ -77.39948, 38.91024 ], [ -77.39916, 38.91068 ], [ -77.39988, 38.91125 ], [ -77.39915, 38.91176 ], [ -77.39732, 38.91152 ], [ -77.3991, 38.91269 ], [ -77.39816, 38.91372 ], [ -77.39718, 38.91371 ], [ -77.39732, 38.91284 ], [ -77.39595, 38.9117 ], [ -77.39408, 38.91116 ], [ -77.39473, 38.9103 ], [ -77.39612, 38.91045 ], [ -77.39427, 38.9089 ], [ -77.39514, 38.90624 ], [ -77.39504, 38.90534 ], [ -77.39299, 38.90506 ], [ -77.39242, 38.90334 ], [ -77.39321, 38.9029 ], [ -77.39383, 38.90333 ], [ -77.39392, 38.9041 ], [ -77.39545, 38.9043 ], [ -77.39587, 38.90356 ], [ -77.3979, 38.90262 ], [ -77.39885, 38.90295 ], [ -77.39934, 38.90372 ], [ -77.39958, 38.90312 ], [ -77.4005, 38.90326 ], [ -77.39959, 38.9027 ], [ -77.39961, 38.90229 ], [ -77.40046, 38.90194 ], [ -77.40176, 38.90269 ], [ -77.40275, 38.90272 ], [ -77.4029, 38.9033 ], [ -77.40325, 38.90137 ], [ -77.40266, 38.90178 ], [ -77.40176, 38.90148 ], [ -77.40087, 38.8992 ], [ -77.39999, 38.89902 ], [ -77.39993, 38.89826 ], [ -77.40253, 38.89826 ], [ -77.40287, 38.89872 ], [ -77.40229, 38.89925 ], [ -77.40237, 38.89999 ], [ -77.40346, 38.9003 ], [ -77.40517, 38.89928 ], [ -77.40737, 38.89909 ], [ -77.40851, 38.89853 ], [ -77.40793, 38.89808 ], [ -77.40742, 38.89852 ], [ -77.40655, 38.89852 ], [ -77.40641, 38.89687 ], [ -77.40713, 38.8965 ], [ -77.40749, 38.89571 ], [ -77.40829, 38.89557 ], [ -77.40899, 38.89602 ], [ -77.40928, 38.89524 ], [ -77.41013, 38.89508 ], [ -77.4094, 38.89435 ], [ -77.40983, 38.89366 ], [ -77.41169, 38.89424 ], [ -77.41284, 38.89548 ], [ -77.41298, 38.89622 ], [ -77.4123, 38.89691 ], [ -77.41301, 38.89696 ], [ -77.41383, 38.89638 ], [ -77.41313, 38.89577 ], [ -77.41396, 38.8952 ], [ -77.41269, 38.89293 ], [ -77.41339, 38.89205 ], [ -77.41297, 38.89042 ], [ -77.4108, 38.89011 ], [ -77.41039, 38.89153 ], [ -77.40793, 38.89153 ], [ -77.40714, 38.88992 ], [ -77.40643, 38.88951 ], [ -77.40677, 38.8889 ], [ -77.40506, 38.88841 ], [ -77.40485, 38.88657 ], [ -77.40669, 38.88578 ], [ -77.40691, 38.88517 ], [ -77.40743, 38.88508 ], [ -77.41134, 38.88675 ], [ -77.41086, 38.88804 ], [ -77.40935, 38.88806 ], [ -77.41075, 38.88853 ], [ -77.41151, 38.88784 ], [ -77.41203, 38.88789 ], [ -77.4123, 38.88862 ], [ -77.41177, 38.88928 ], [ -77.41382, 38.88918 ], [ -77.41312, 38.88846 ], [ -77.41409, 38.88775 ], [ -77.41705, 38.88885 ], [ -77.41716, 38.88961 ], [ -77.41669, 38.88981 ], [ -77.4153, 38.88932 ], [ -77.41433, 38.89019 ], [ -77.41456, 38.89117 ], [ -77.41627, 38.89123 ], [ -77.41595, 38.89072 ], [ -77.41658, 38.89022 ], [ -77.41769, 38.89057 ], [ -77.41831, 38.89214 ], [ -77.41693, 38.89268 ], [ -77.41829, 38.89416 ], [ -77.41868, 38.8968 ], [ -77.41994, 38.8972 ], [ -77.4209, 38.89458 ], [ -77.42182, 38.89432 ], [ -77.42276, 38.89568 ], [ -77.42253, 38.89684 ], [ -77.42408, 38.89698 ], [ -77.42534, 38.89803 ], [ -77.42544, 38.8967 ], [ -77.42501, 38.89701 ], [ -77.42414, 38.89667 ], [ -77.42451, 38.89574 ], [ -77.4238, 38.89464 ], [ -77.42431, 38.8934 ], [ -77.42588, 38.8928 ], [ -77.42423, 38.89199 ], [ -77.42466, 38.8913 ], [ -77.42667, 38.8919 ], [ -77.42741, 38.89179 ], [ -77.4308, 38.89315 ], [ -77.43108, 38.89258 ], [ -77.42838, 38.89133 ], [ -77.42882, 38.89065 ], [ -77.43068, 38.89122 ], [ -77.43121, 38.89006 ], [ -77.43224, 38.89031 ], [ -77.43204, 38.88934 ], [ -77.43245, 38.88907 ], [ -77.43387, 38.88961 ], [ -77.43351, 38.89074 ], [ -77.4351, 38.89166 ] ], [ [ -77.41692, 38.92162 ], [ -77.41587, 38.92093 ], [ -77.41472, 38.92074 ], [ -77.41427, 38.92178 ], [ -77.41644, 38.9227 ], [ -77.41692, 38.92162 ] ], [ [ -77.41655, 38.91791 ], [ -77.4161, 38.91787 ], [ -77.41614, 38.9181 ], [ -77.41655, 38.91791 ] ], [ [ -77.41482, 38.91584 ], [ -77.41543, 38.9154 ], [ -77.41467, 38.91532 ], [ -77.41466, 38.91599 ], [ -77.41418, 38.91617 ], [ -77.41217, 38.9161 ], [ -77.41108, 38.9153 ], [ -77.41148, 38.9142 ], [ -77.40981, 38.91432 ], [ -77.4097, 38.91508 ], [ -77.41203, 38.91617 ], [ -77.41256, 38.91738 ], [ -77.41364, 38.91745 ], [ -77.41479, 38.9169 ], [ -77.41482, 38.91584 ] ], [ [ -77.41676, 38.91353 ], [ -77.41782, 38.91393 ], [ -77.41748, 38.91279 ], [ -77.41675, 38.91272 ], [ -77.41654, 38.91234 ], [ -77.41697, 38.911 ], [ -77.41541, 38.91127 ], [ -77.41548, 38.91211 ], [ -77.41474, 38.91318 ], [ -77.41502, 38.91424 ], [ -77.41676, 38.91353 ] ], [ [ -77.41674, 38.90993 ], [ -77.41693, 38.90937 ], [ -77.41775, 38.90918 ], [ -77.41719, 38.9084 ], [ -77.41841, 38.90777 ], [ -77.41804, 38.90702 ], [ -77.41632, 38.90727 ], [ -77.41671, 38.90823 ], [ -77.41588, 38.90855 ], [ -77.41592, 38.90926 ], [ -77.41545, 38.90945 ], [ -77.41435, 38.90908 ], [ -77.41395, 38.90953 ], [ -77.41458, 38.91014 ], [ -77.41674, 38.90993 ] ], [ [ -77.41565, 38.90584 ], [ -77.41748, 38.90599 ], [ -77.41685, 38.90476 ], [ -77.41486, 38.90516 ], [ -77.41435, 38.90581 ], [ -77.41351, 38.9054 ], [ -77.4129, 38.90609 ], [ -77.412, 38.9057 ], [ -77.41115, 38.90587 ], [ -77.41137, 38.90681 ], [ -77.4108, 38.90738 ], [ -77.41295, 38.90878 ], [ -77.41322, 38.90846 ], [ -77.41172, 38.90772 ], [ -77.41149, 38.90711 ], [ -77.41183, 38.90679 ], [ -77.41286, 38.90696 ], [ -77.41417, 38.90646 ], [ -77.41498, 38.90661 ], [ -77.41488, 38.90631 ], [ -77.41565, 38.90584 ] ], [ [ -77.41471, 38.904 ], [ -77.41468, 38.90408 ], [ -77.41479, 38.90406 ], [ -77.41471, 38.904 ] ], [ [ -77.41453, 38.9037 ], [ -77.41469, 38.90396 ], [ -77.4147, 38.90371 ], [ -77.41453, 38.9037 ] ], [ [ -77.41607, 38.90233 ], [ -77.41583, 38.90142 ], [ -77.41488, 38.90173 ], [ -77.41106, 38.9014 ], [ -77.41279, 38.90238 ], [ -77.41329, 38.90172 ], [ -77.41382, 38.90173 ], [ -77.41425, 38.90264 ], [ -77.41607, 38.90233 ] ], [ [ -77.41524, 38.89924 ], [ -77.41513, 38.89878 ], [ -77.41435, 38.89896 ], [ -77.41374, 38.8985 ], [ -77.41314, 38.89893 ], [ -77.41374, 38.90044 ], [ -77.41524, 38.89924 ] ], [ [ -77.42156, 38.90002 ], [ -77.42079, 38.90042 ], [ -77.42107, 38.90091 ], [ -77.42183, 38.90055 ], [ -77.42156, 38.90002 ] ], [ [ -77.42102, 38.89871 ], [ -77.42103, 38.8987 ], [ -77.42102, 38.8987 ], [ -77.42102, 38.89871 ] ], [ [ -77.42056, 38.89822 ], [ -77.42054, 38.89819 ], [ -77.42052, 38.89819 ], [ -77.42056, 38.89822 ] ], [ [ -77.42539, 38.89408 ], [ -77.42528, 38.8948 ], [ -77.427, 38.89557 ], [ -77.42919, 38.89587 ], [ -77.43016, 38.89449 ], [ -77.42717, 38.89332 ], [ -77.42539, 38.89408 ] ], [ [ -77.43216, 38.89386 ], [ -77.43323, 38.89428 ], [ -77.43367, 38.89346 ], [ -77.43351, 38.89204 ], [ -77.43306, 38.89191 ], [ -77.43216, 38.89386 ] ], [ [ -77.4214, 38.89715 ], [ -77.42167, 38.89704 ], [ -77.42128, 38.89689 ], [ -77.4214, 38.89715 ] ], [ [ -77.424, 38.9276 ], [ -77.42552, 38.92659 ], [ -77.42509, 38.92554 ], [ -77.42195, 38.92393 ], [ -77.42107, 38.92393 ], [ -77.4204, 38.92438 ], [ -77.42011, 38.92507 ], [ -77.424, 38.9276 ] ], [ [ -77.42153, 38.92191 ], [ -77.42063, 38.92194 ], [ -77.41888, 38.92093 ], [ -77.41774, 38.92358 ], [ -77.41879, 38.92424 ], [ -77.4199, 38.92301 ], [ -77.4219, 38.92245 ], [ -77.42153, 38.92191 ] ], [ [ -77.42185, 38.91708 ], [ -77.4207, 38.91637 ], [ -77.42045, 38.91702 ], [ -77.42185, 38.91708 ] ], [ [ -77.41738, 38.90193 ], [ -77.41742, 38.90211 ], [ -77.41746, 38.9021 ], [ -77.41738, 38.90193 ] ], [ [ -77.41685, 38.89992 ], [ -77.41711, 38.90091 ], [ -77.41745, 38.90085 ], [ -77.41685, 38.89992 ] ], [ [ -77.41942, 38.89853 ], [ -77.41956, 38.89824 ], [ -77.41822, 38.89783 ], [ -77.41942, 38.89853 ] ], [ [ -77.41612, 38.89593 ], [ -77.41575, 38.89574 ], [ -77.41581, 38.89597 ], [ -77.41705, 38.89622 ], [ -77.41612, 38.89593 ] ], [ [ -77.41962, 38.90107 ], [ -77.41945, 38.90118 ], [ -77.41964, 38.90112 ], [ -77.41962, 38.90107 ] ], [ [ -77.4187, 38.89946 ], [ -77.41836, 38.8993 ], [ -77.41833, 38.89949 ], [ -77.4187, 38.89946 ] ], [ [ -77.41885, 38.90212 ], [ -77.41883, 38.90225 ], [ -77.41936, 38.90206 ], [ -77.41919, 38.90132 ], [ -77.41885, 38.90212 ] ], [ [ -77.42037, 38.91813 ], [ -77.42005, 38.91805 ], [ -77.4198, 38.91868 ], [ -77.42012, 38.91876 ], [ -77.42037, 38.91813 ] ], [ [ -77.41682, 38.89422 ], [ -77.41675, 38.8943 ], [ -77.41688, 38.89432 ], [ -77.41682, 38.89422 ] ], [ [ -77.41607, 38.90381 ], [ -77.41643, 38.90373 ], [ -77.41635, 38.9034 ], [ -77.41607, 38.90381 ] ], [ [ -77.40911, 38.91329 ], [ -77.41143, 38.91311 ], [ -77.41282, 38.91351 ], [ -77.41291, 38.91338 ], [ -77.41197, 38.9127 ], [ -77.41107, 38.91292 ], [ -77.40929, 38.9121 ], [ -77.40896, 38.91116 ], [ -77.40677, 38.91261 ], [ -77.40663, 38.91343 ], [ -77.4071, 38.9141 ], [ -77.40911, 38.91329 ] ], [ [ -77.41016, 38.91019 ], [ -77.41052, 38.9102 ], [ -77.40995, 38.90985 ], [ -77.40969, 38.91019 ], [ -77.41016, 38.91019 ] ], [ [ -77.40922, 38.90773 ], [ -77.40921, 38.9078 ], [ -77.40927, 38.90775 ], [ -77.40922, 38.90773 ] ], [ [ -77.41019, 38.90048 ], [ -77.41003, 38.89968 ], [ -77.41042, 38.8994 ], [ -77.41095, 38.89943 ], [ -77.4116, 38.90037 ], [ -77.41235, 38.90051 ], [ -77.41136, 38.89774 ], [ -77.41043, 38.89798 ], [ -77.40937, 38.90047 ], [ -77.40835, 38.90065 ], [ -77.40907, 38.90113 ], [ -77.41019, 38.90048 ] ], [ [ -77.40929, 38.89064 ], [ -77.40942, 38.89023 ], [ -77.40862, 38.89028 ], [ -77.40842, 38.89052 ], [ -77.40929, 38.89064 ] ], [ [ -77.41373, 38.89834 ], [ -77.41428, 38.89792 ], [ -77.41401, 38.89774 ], [ -77.4135, 38.89798 ], [ -77.41373, 38.89834 ] ], [ [ -77.41213, 38.91225 ], [ -77.41214, 38.91221 ], [ -77.41213, 38.91222 ], [ -77.41213, 38.91225 ] ], [ [ -77.41321, 38.91059 ], [ -77.41318, 38.91055 ], [ -77.41226, 38.91076 ], [ -77.41284, 38.91134 ], [ -77.41321, 38.91059 ] ], [ [ -77.41156, 38.89599 ], [ -77.41082, 38.89515 ], [ -77.41045, 38.89515 ], [ -77.41092, 38.89662 ], [ -77.41156, 38.89599 ] ], [ [ -77.41077, 38.90365 ], [ -77.41039, 38.90414 ], [ -77.41112, 38.904 ], [ -77.41077, 38.90365 ] ], [ [ -77.41188, 38.92186 ], [ -77.41218, 38.92066 ], [ -77.41306, 38.9197 ], [ -77.41387, 38.91956 ], [ -77.41428, 38.91887 ], [ -77.41315, 38.91848 ], [ -77.41189, 38.91855 ], [ -77.41265, 38.91882 ], [ -77.41219, 38.91963 ], [ -77.41237, 38.92027 ], [ -77.4114, 38.92048 ], [ -77.41188, 38.92103 ], [ -77.41123, 38.9216 ], [ -77.41019, 38.92106 ], [ -77.41052, 38.92217 ], [ -77.41188, 38.92186 ] ], [ [ -77.4085, 38.91867 ], [ -77.4084, 38.91883 ], [ -77.40904, 38.91908 ], [ -77.4085, 38.91867 ] ], [ [ -77.40648, 38.91924 ], [ -77.40571, 38.9185 ], [ -77.40593, 38.91944 ], [ -77.40648, 38.91924 ] ], [ [ -77.40592, 38.91714 ], [ -77.40513, 38.91719 ], [ -77.40481, 38.9159 ], [ -77.40531, 38.91517 ], [ -77.4063, 38.91505 ], [ -77.40523, 38.91335 ], [ -77.40397, 38.91466 ], [ -77.40364, 38.9156 ], [ -77.40423, 38.91712 ], [ -77.40494, 38.91704 ], [ -77.40552, 38.91785 ], [ -77.40592, 38.91714 ] ], [ [ -77.40619, 38.91683 ], [ -77.40617, 38.91678 ], [ -77.4061, 38.91702 ], [ -77.40619, 38.91683 ] ], [ [ -77.40668, 38.91134 ], [ -77.40509, 38.9111 ], [ -77.40528, 38.91029 ], [ -77.40484, 38.90937 ], [ -77.4054, 38.90905 ], [ -77.40494, 38.90903 ], [ -77.40176, 38.91437 ], [ -77.40293, 38.91395 ], [ -77.40448, 38.91237 ], [ -77.40668, 38.91134 ] ], [ [ -77.40587, 38.90401 ], [ -77.40563, 38.90334 ], [ -77.40515, 38.90388 ], [ -77.4043, 38.90405 ], [ -77.40416, 38.9047 ], [ -77.40306, 38.90451 ], [ -77.40264, 38.90541 ], [ -77.4019, 38.90532 ], [ -77.4019, 38.90628 ], [ -77.40295, 38.90603 ], [ -77.40365, 38.90503 ], [ -77.40527, 38.90455 ], [ -77.40587, 38.90401 ] ], [ [ -77.40725, 38.90392 ], [ -77.40825, 38.90376 ], [ -77.4081, 38.90284 ], [ -77.4086, 38.90224 ], [ -77.4075, 38.90277 ], [ -77.40671, 38.90254 ], [ -77.40725, 38.90392 ] ], [ [ -77.40629, 38.90172 ], [ -77.40662, 38.90234 ], [ -77.40663, 38.90204 ], [ -77.40629, 38.90172 ] ], [ [ -77.40583, 38.90081 ], [ -77.40606, 38.90126 ], [ -77.40626, 38.90097 ], [ -77.40583, 38.90081 ] ], [ [ -77.40642, 38.90674 ], [ -77.40756, 38.90683 ], [ -77.40783, 38.90595 ], [ -77.40706, 38.90554 ], [ -77.40642, 38.90674 ] ], [ [ -77.40764, 38.9049 ], [ -77.40729, 38.90449 ], [ -77.40728, 38.90464 ], [ -77.40764, 38.9049 ] ], [ [ -77.40661, 38.90994 ], [ -77.40723, 38.9094 ], [ -77.40776, 38.90945 ], [ -77.40817, 38.9102 ], [ -77.40839, 38.90969 ], [ -77.40592, 38.9087 ], [ -77.40548, 38.90905 ], [ -77.40633, 38.90935 ], [ -77.40661, 38.90994 ] ], [ [ -77.40766, 38.90791 ], [ -77.40708, 38.90794 ], [ -77.40753, 38.90811 ], [ -77.40766, 38.90791 ] ], [ [ -77.40879, 38.92173 ], [ -77.40892, 38.92181 ], [ -77.40887, 38.92155 ], [ -77.40879, 38.92173 ] ], [ [ -77.40754, 38.92328 ], [ -77.40901, 38.92272 ], [ -77.40752, 38.92238 ], [ -77.40717, 38.92281 ], [ -77.40754, 38.92328 ] ], [ [ -77.4069, 38.91791 ], [ -77.40713, 38.91838 ], [ -77.40729, 38.91815 ], [ -77.4069, 38.91791 ] ], [ [ -77.40645, 38.92044 ], [ -77.40691, 38.9211 ], [ -77.40725, 38.92014 ], [ -77.40645, 38.92044 ] ], [ [ -77.4088, 38.92047 ], [ -77.40888, 38.91991 ], [ -77.40857, 38.92048 ], [ -77.4088, 38.92047 ] ], [ [ -77.40903, 38.92271 ], [ -77.40913, 38.92267 ], [ -77.40911, 38.92262 ], [ -77.40903, 38.92271 ] ], [ [ -77.40184, 38.90743 ], [ -77.40197, 38.90777 ], [ -77.40253, 38.90742 ], [ -77.40303, 38.90756 ], [ -77.40325, 38.90793 ], [ -77.40321, 38.90871 ], [ -77.40268, 38.90923 ], [ -77.40305, 38.90958 ], [ -77.40461, 38.90725 ], [ -77.40184, 38.90743 ] ], [ [ -77.39613, 38.907 ], [ -77.3969, 38.90755 ], [ -77.39676, 38.90795 ], [ -77.39608, 38.9081 ], [ -77.39682, 38.90833 ], [ -77.39681, 38.908 ], [ -77.39756, 38.90769 ], [ -77.39731, 38.90674 ], [ -77.39613, 38.907 ] ], [ [ -77.40498, 38.90206 ], [ -77.4047, 38.90152 ], [ -77.40464, 38.90269 ], [ -77.40532, 38.90272 ], [ -77.40498, 38.90206 ] ], [ [ -77.40166, 38.90489 ], [ -77.40162, 38.90491 ], [ -77.40165, 38.90495 ], [ -77.40166, 38.90489 ] ], [ [ -77.39636, 38.90568 ], [ -77.39637, 38.90569 ], [ -77.39639, 38.90568 ], [ -77.39636, 38.90568 ] ], [ [ -77.39975, 38.906 ], [ -77.39946, 38.90602 ], [ -77.4005, 38.9064 ], [ -77.39975, 38.906 ] ], [ [ -77.40457, 38.90608 ], [ -77.40466, 38.90588 ], [ -77.40439, 38.90594 ], [ -77.40457, 38.90608 ] ], [ [ -77.39585, 38.90806 ], [ -77.39583, 38.90812 ], [ -77.396, 38.90808 ], [ -77.39585, 38.90806 ] ], [ [ -77.39782, 38.90778 ], [ -77.39809, 38.90799 ], [ -77.39844, 38.9079 ], [ -77.39782, 38.90778 ] ], [ [ -77.40184, 38.91007 ], [ -77.40182, 38.91005 ], [ -77.40181, 38.91005 ], [ -77.40184, 38.91007 ] ], [ [ -77.40226, 38.9155 ], [ -77.40209, 38.91566 ], [ -77.40225, 38.91562 ], [ -77.40226, 38.9155 ] ], [ [ -77.40183, 38.9159 ], [ -77.40183, 38.91592 ], [ -77.40189, 38.91584 ], [ -77.40183, 38.9159 ] ], [ [ -77.40278, 38.91663 ], [ -77.40251, 38.91665 ], [ -77.40274, 38.91688 ], [ -77.40278, 38.91663 ] ], [ [ -77.40948, 38.93016 ], [ -77.40993, 38.93057 ], [ -77.41138, 38.92927 ], [ -77.41102, 38.92898 ], [ -77.40948, 38.93016 ] ] ] } }
]
}
