{
"type": "FeatureCollection",
"name": "332",
"crs": { "type": "name", "properties": { "name": "urn:ogc:def:crs:OGC:1.3:CRS84" } },
"xy_coordinate_resolution": 1e-05,
"features": [
{ "type": "Feature", "properties": { "variant": "T0", "miles": 0.5 }, "geometry": { "type": "Polygon", "coordinates": [ [ [ -77.37937, 38.88704 ], [ -77.37998, 38.88668 ], [ -77.3806, 38.88711 ], [ -77.38186, 38.88683 ], [ -77.38284, 38.88791 ], [ -77.38427, 38.88827 ], [ -77.38515, 38.88901 ], [ -77.385, 38.88972 ], [ -77.38562, 38.89009 ], [ -77.38577, 38.89075 ], [ -77.38565, 38.89147 ], [ -77.38476, 38.8918 ], [ -77.38439, 38.89087 ], [ -77.37973, 38.89071 ], [ -77.38125, 38.89348 ], [ -77.38122, 38.89522 ], [ -77.38051, 38.89574 ], [ -77.37969, 38.89514 ], [ -77.37968, 38.8934 ], [ -77.37835, 38.8933 ], [ -77.37687, 38.8924 ], [ -77.37746, 38.89179 ], [ -77.37908, 38.89236 ], [ -77.37735, 38.88992 ], [ -77.37414, 38.8914 ], [ -77.37236, 38.8911 ], [ -77.37162, 38.89025 ], [ -77.37225, 38.88966 ], [ -77.37321, 38.89022 ], [ -77.37421, 38.89029 ], [ -77.37608, 38.88948 ], [ -77.37649, 38.88876 ], [ -77.37554, 38.88648 ], [ -77.37608, 38.88588 ], [ -77.37813, 38.88578 ], [ -77.37937, 38.88704 ] ], [ [ -77.37933, 38.88751 ], [ -77.37922, 38.88761 ], [ -77.37934, 38.88756 ], [ -77.37933, 38.88751 ] ], [ [ -77.37925, 38.88968 ], [ -77.38196, 38.88988 ], [ -77.38078, 38.88939 ], [ -77.3809, 38.88898 ], [ -77.38189, 38.8887 ], [ -77.38129, 38.88805 ], [ -77.3785, 38.88906 ], [ -77.37925, 38.88968 ] ], [ [ -77.38354, 38.88953 ], [ -77.38349, 38.88956 ], [ -77.38358, 38.88955 ], [ -77.38354, 38.88953 ] ], [ [ -77.37881, 38.88776 ], [ -77.37719, 38.88678 ], [ -77.3778, 38.88813 ], [ -77.37881, 38.88776 ] ] ] } },
{ "type": "Feature", "properties": { "variant": "T0", "miles": 1.0 }, "geometry": { "type": "Polygon", "coordinates": [ [ [ -77.38712, 38.87827 ], [ -77.3891, 38.87902 ], [ -77.38936, 38.8802 ], [ -77.38877, 38.88126 ], [ -77.38943, 38.88151 ], [ -77.38952, 38.88214 ], [ -77.38798, 38.8827 ], [ -77.38665, 38.8817 ], [ -77.38611, 38.88255 ], [ -77.38864, 38.88357 ], [ -77.39, 38.88475 ], [ -77.38995, 38.88516 ], [ -77.38855, 38.88541 ], [ -77.38833, 38.88614 ], [ -77.38783, 38.88628 ], [ -77.38718, 38.88562 ], [ -77.38648, 38.88604 ], [ -77.38575, 38.88559 ], [ -77.38467, 38.8861 ], [ -77.38451, 38.88636 ], [ -77.38454, 38.88672 ], [ -77.38373, 38.88721 ], [ -77.38474, 38.88682 ], [ -77.38502, 38.88594 ], [ -77.38592, 38.88623 ], [ -77.3861, 38.88714 ], [ -77.38793, 38.88731 ], [ -77.38916, 38.88646 ], [ -77.39003, 38.88641 ], [ -77.39107, 38.88809 ], [ -77.39048, 38.88878 ], [ -77.39134, 38.89038 ], [ -77.39108, 38.89167 ], [ -77.39193, 38.89221 ], [ -77.39187, 38.89262 ], [ -77.39146, 38.89288 ], [ -77.39008, 38.89253 ], [ -77.38836, 38.89266 ], [ -77.38806, 38.89291 ], [ -77.38879, 38.89299 ], [ -77.38894, 38.89374 ], [ -77.38786, 38.894 ], [ -77.38687, 38.89371 ], [ -77.38627, 38.89425 ], [ -77.38639, 38.89525 ], [ -77.38722, 38.89508 ], [ -77.38764, 38.89534 ], [ -77.38736, 38.89607 ], [ -77.38459, 38.89721 ], [ -77.38408, 38.89828 ], [ -77.382, 38.89839 ], [ -77.382, 38.89991 ], [ -77.38292, 38.90238 ], [ -77.38212, 38.90296 ], [ -77.38139, 38.90246 ], [ -77.38056, 38.90039 ], [ -77.38049, 38.89827 ], [ -77.37989, 38.8966 ], [ -77.37884, 38.89694 ], [ -77.3763, 38.89684 ], [ -77.37512, 38.89754 ], [ -77.37551, 38.89833 ], [ -77.37522, 38.89867 ], [ -77.3747, 38.89875 ], [ -77.37396, 38.89813 ], [ -77.37291, 38.89839 ], [ -77.3725, 38.89813 ], [ -77.37279, 38.8974 ], [ -77.37511, 38.89614 ], [ -77.37735, 38.89563 ], [ -77.37577, 38.89495 ], [ -77.37559, 38.89377 ], [ -77.37653, 38.89342 ], [ -77.37589, 38.89309 ], [ -77.37594, 38.89268 ], [ -77.37665, 38.89233 ], [ -77.37646, 38.89207 ], [ -77.37474, 38.89267 ], [ -77.37442, 38.89234 ], [ -77.3747, 38.89172 ], [ -77.37678, 38.89097 ], [ -77.37908, 38.89236 ], [ -77.37735, 38.88992 ], [ -77.3745, 38.89135 ], [ -77.37302, 38.89132 ], [ -77.37191, 38.8908 ], [ -77.37162, 38.89025 ], [ -77.37225, 38.88966 ], [ -77.37403, 38.89032 ], [ -77.37611, 38.88945 ], [ -77.37649, 38.88876 ], [ -77.37533, 38.88592 ], [ -77.37412, 38.88484 ], [ -77.37228, 38.88554 ], [ -77.37172, 38.88625 ], [ -77.37255, 38.88676 ], [ -77.37329, 38.88582 ], [ -77.37419, 38.88611 ], [ -77.37358, 38.88749 ], [ -77.37431, 38.88784 ], [ -77.37385, 38.88851 ], [ -77.37249, 38.88867 ], [ -77.37011, 38.88644 ], [ -77.37127, 38.8848 ], [ -77.37281, 38.88425 ], [ -77.37206, 38.88387 ], [ -77.37068, 38.88489 ], [ -77.36996, 38.88421 ], [ -77.36914, 38.88457 ], [ -77.36864, 38.88391 ], [ -77.3694, 38.88208 ], [ -77.36899, 38.88169 ], [ -77.36799, 38.8822 ], [ -77.3675, 38.88204 ], [ -77.36679, 38.88117 ], [ -77.36702, 38.8808 ], [ -77.36834, 38.88071 ], [ -77.36801, 38.87921 ], [ -77.36908, 38.8789 ], [ -77.37046, 38.88125 ], [ -77.3759, 38.88441 ], [ -77.37645, 38.88355 ], [ -77.37738, 38.88332 ], [ -77.37773, 38.88363 ], [ -77.37726, 38.8847 ], [ -77.37801, 38.88509 ], [ -77.3783, 38.88445 ], [ -77.37773, 38.88369 ], [ -77.37813, 38.88313 ], [ -77.37941, 38.88258 ], [ -77.38112, 38.88279 ], [ -77.38195, 38.88193 ], [ -77.38065, 38.8803 ], [ -77.38042, 38.87883 ], [ -77.38077, 38.87852 ], [ -77.38169, 38.87877 ], [ -77.38206, 38.88018 ], [ -77.3831, 38.88131 ], [ -77.38485, 38.8821 ], [ -77.38537, 38.88129 ], [ -77.38366, 38.88067 ], [ -77.38327, 38.88017 ], [ -77.38364, 38.87855 ], [ -77.38491, 38.87866 ], [ -77.38525, 38.88009 ], [ -77.38597, 38.88031 ], [ -77.38672, 38.87854 ], [ -77.38712, 38.87827 ] ], [ [ -77.38513, 38.89578 ], [ -77.38587, 38.89546 ], [ -77.38496, 38.89475 ], [ -77.38519, 38.89349 ], [ -77.38421, 38.89285 ], [ -77.38349, 38.89387 ], [ -77.38226, 38.89428 ], [ -77.38199, 38.89497 ], [ -77.38123, 38.89501 ], [ -77.38121, 38.89535 ], [ -77.38165, 38.89541 ], [ -77.38313, 38.89513 ], [ -77.38289, 38.89442 ], [ -77.38376, 38.89407 ], [ -77.38513, 38.89578 ] ], [ [ -77.38599, 38.89287 ], [ -77.38593, 38.89219 ], [ -77.38539, 38.89193 ], [ -77.38522, 38.89211 ], [ -77.38599, 38.89287 ] ], [ [ -77.38354, 38.89187 ], [ -77.38439, 38.89087 ], [ -77.3837, 38.8909 ], [ -77.38354, 38.89187 ] ], [ [ -77.38358, 38.88955 ], [ -77.38351, 38.8895 ], [ -77.38349, 38.88956 ], [ -77.38358, 38.88955 ] ], [ [ -77.38198, 38.8898 ], [ -77.38106, 38.88974 ], [ -77.38078, 38.88939 ], [ -77.3809, 38.88898 ], [ -77.38189, 38.8887 ], [ -77.38129, 38.88805 ], [ -77.3785, 38.88906 ], [ -77.37905, 38.88975 ], [ -77.38198, 38.8898 ] ], [ [ -77.38191, 38.88662 ], [ -77.38426, 38.88307 ], [ -77.38314, 38.88265 ], [ -77.38265, 38.88293 ], [ -77.38282, 38.88385 ], [ -77.38082, 38.88703 ], [ -77.38191, 38.88662 ] ], [ [ -77.38728, 38.89197 ], [ -77.38761, 38.89118 ], [ -77.38577, 38.89087 ], [ -77.38728, 38.89197 ] ], [ [ -77.38707, 38.88975 ], [ -77.3873, 38.88953 ], [ -77.38656, 38.88959 ], [ -77.38707, 38.88975 ] ], [ [ -77.38875, 38.89009 ], [ -77.38935, 38.8894 ], [ -77.38855, 38.88877 ], [ -77.38889, 38.88975 ], [ -77.38875, 38.89009 ] ], [ [ -77.38729, 38.88829 ], [ -77.38647, 38.88818 ], [ -77.38508, 38.88897 ], [ -77.38507, 38.88965 ], [ -77.38641, 38.88956 ], [ -77.38614, 38.88885 ], [ -77.38729, 38.88829 ] ], [ [ -77.38897, 38.89158 ], [ -77.38913, 38.89163 ], [ -77.38918, 38.89161 ], [ -77.38897, 38.89158 ] ], [ [ -77.38539, 38.88409 ], [ -77.38552, 38.88353 ], [ -77.38521, 38.88403 ], [ -77.38539, 38.88409 ] ], [ [ -77.38189, 38.89769 ], [ -77.38216, 38.89683 ], [ -77.38363, 38.89614 ], [ -77.38142, 38.89648 ], [ -77.38189, 38.89769 ] ], [ [ -77.37975, 38.89368 ], [ -77.37764, 38.89434 ], [ -77.37756, 38.89461 ], [ -77.37974, 38.89464 ], [ -77.37975, 38.89368 ] ], [ [ -77.38125, 38.89354 ], [ -77.38195, 38.89323 ], [ -77.38097, 38.89268 ], [ -77.38125, 38.89354 ] ], [ [ -77.37988, 38.89092 ], [ -77.37975, 38.89071 ], [ -77.37973, 38.89071 ], [ -77.37988, 38.89092 ] ], [ [ -77.38211, 38.89206 ], [ -77.3825, 38.89099 ], [ -77.38088, 38.89086 ], [ -77.38094, 38.89089 ], [ -77.38211, 38.89206 ] ], [ [ -77.37934, 38.88756 ], [ -77.37932, 38.88751 ], [ -77.37922, 38.88761 ], [ -77.37934, 38.88756 ] ], [ [ -77.38128, 38.88388 ], [ -77.37944, 38.88368 ], [ -77.37987, 38.88402 ], [ -77.37939, 38.88518 ], [ -77.3799, 38.88607 ], [ -77.38128, 38.88388 ] ], [ [ -77.37839, 38.88768 ], [ -77.37875, 38.88779 ], [ -77.37881, 38.88776 ], [ -77.37839, 38.88768 ] ], [ [ -77.37773, 38.89304 ], [ -77.37731, 38.89328 ], [ -77.3783, 38.89328 ], [ -77.37773, 38.89304 ] ], [ [ -77.37838, 38.89569 ], [ -77.37759, 38.89568 ], [ -77.37913, 38.8957 ], [ -77.37838, 38.89569 ] ], [ [ -77.37044, 38.8828 ], [ -77.37022, 38.88299 ], [ -77.37, 38.88413 ], [ -77.37101, 38.88317 ], [ -77.37044, 38.8828 ] ] ] } },
{ "type": "Feature", "properties": { "variant": "T0", "miles": 1.5 }, "geometry": { "type": "Polygon", "coordinates": [ [ [ -77.3929, 38.87305 ], [ -77.39278, 38.87473 ], [ -77.39354, 38.87492 ], [ -77.39352, 38.87574 ], [ -77.39207, 38.87653 ], [ -77.39053, 38.87617 ], [ -77.39048, 38.87709 ], [ -77.39163, 38.87719 ], [ -77.39225, 38.87654 ], [ -77.39494, 38.87623 ], [ -77.39499, 38.87716 ], [ -77.39414, 38.87745 ], [ -77.39404, 38.87796 ], [ -77.39564, 38.87873 ], [ -77.39593, 38.87946 ], [ -77.39497, 38.88125 ], [ -77.39399, 38.88122 ], [ -77.39367, 38.88029 ], [ -77.39244, 38.88181 ], [ -77.39034, 38.88222 ], [ -77.38957, 38.88199 ], [ -77.38865, 38.88264 ], [ -77.39028, 38.88452 ], [ -77.39195, 38.88881 ], [ -77.39188, 38.8893 ], [ -77.39095, 38.88947 ], [ -77.39139, 38.89091 ], [ -77.39456, 38.89234 ], [ -77.39912, 38.89758 ], [ -77.397, 38.89898 ], [ -77.39617, 38.8987 ], [ -77.39569, 38.89796 ], [ -77.39609, 38.89727 ], [ -77.39695, 38.89756 ], [ -77.39749, 38.89729 ], [ -77.39672, 38.8964 ], [ -77.3944, 38.8975 ], [ -77.39274, 38.89619 ], [ -77.39318, 38.89726 ], [ -77.39287, 38.8976 ], [ -77.39235, 38.89767 ], [ -77.39145, 38.89686 ], [ -77.39028, 38.89748 ], [ -77.39337, 38.89797 ], [ -77.39321, 38.89872 ], [ -77.39237, 38.89886 ], [ -77.39173, 38.89971 ], [ -77.39088, 38.89943 ], [ -77.39126, 38.90089 ], [ -77.39253, 38.90119 ], [ -77.39255, 38.90161 ], [ -77.39178, 38.90202 ], [ -77.39018, 38.90156 ], [ -77.38971, 38.90001 ], [ -77.38861, 38.90034 ], [ -77.38723, 38.90022 ], [ -77.38785, 38.90073 ], [ -77.38741, 38.90141 ], [ -77.38621, 38.90101 ], [ -77.38578, 38.89982 ], [ -77.38201, 38.89994 ], [ -77.38251, 38.90091 ], [ -77.38324, 38.90069 ], [ -77.3869, 38.90183 ], [ -77.38778, 38.90163 ], [ -77.38923, 38.90192 ], [ -77.38993, 38.90267 ], [ -77.38905, 38.90302 ], [ -77.38786, 38.90274 ], [ -77.38755, 38.90362 ], [ -77.38702, 38.90361 ], [ -77.38598, 38.90267 ], [ -77.38524, 38.90443 ], [ -77.38359, 38.90477 ], [ -77.38351, 38.9053 ], [ -77.38634, 38.90717 ], [ -77.38611, 38.90849 ], [ -77.38515, 38.90838 ], [ -77.38504, 38.90787 ], [ -77.383, 38.90635 ], [ -77.38174, 38.90819 ], [ -77.38089, 38.90856 ], [ -77.38023, 38.90789 ], [ -77.38063, 38.90699 ], [ -77.37888, 38.9062 ], [ -77.37838, 38.90542 ], [ -77.37843, 38.90501 ], [ -77.37936, 38.90478 ], [ -77.37983, 38.9054 ], [ -77.38119, 38.906 ], [ -77.38186, 38.90483 ], [ -77.38147, 38.903 ], [ -77.37966, 38.90352 ], [ -77.37943, 38.90262 ], [ -77.37877, 38.9034 ], [ -77.3778, 38.90338 ], [ -77.37769, 38.90262 ], [ -77.37886, 38.90163 ], [ -77.37745, 38.90182 ], [ -77.37697, 38.90115 ], [ -77.37869, 38.90034 ], [ -77.37813, 38.89975 ], [ -77.3787, 38.89913 ], [ -77.37998, 38.89992 ], [ -77.38005, 38.90108 ], [ -77.38057, 38.90178 ], [ -77.38132, 38.90192 ], [ -77.38048, 38.90012 ], [ -77.38049, 38.89827 ], [ -77.37989, 38.8966 ], [ -77.37857, 38.89695 ], [ -77.37692, 38.89666 ], [ -77.37581, 38.89708 ], [ -77.37512, 38.89754 ], [ -77.37551, 38.89833 ], [ -77.37457, 38.89869 ], [ -77.37479, 38.89983 ], [ -77.37438, 38.9001 ], [ -77.37351, 38.89975 ], [ -77.37286, 38.8986 ], [ -77.37245, 38.89877 ], [ -77.37329, 38.89995 ], [ -77.37307, 38.90033 ], [ -77.37085, 38.90043 ], [ -77.37032, 38.90102 ], [ -77.36963, 38.90084 ], [ -77.36918, 38.90023 ], [ -77.36622, 38.90104 ], [ -77.36529, 38.90078 ], [ -77.36562, 38.90006 ], [ -77.36861, 38.89923 ], [ -77.36857, 38.89894 ], [ -77.36734, 38.89894 ], [ -77.36685, 38.89829 ], [ -77.36803, 38.89786 ], [ -77.36734, 38.89646 ], [ -77.36762, 38.8961 ], [ -77.36855, 38.8962 ], [ -77.36808, 38.89493 ], [ -77.36832, 38.89442 ], [ -77.3693, 38.89447 ], [ -77.37054, 38.89663 ], [ -77.37179, 38.89601 ], [ -77.37047, 38.89424 ], [ -77.37115, 38.89369 ], [ -77.37164, 38.89385 ], [ -77.37383, 38.89694 ], [ -77.37445, 38.89658 ], [ -77.37337, 38.89423 ], [ -77.37373, 38.89352 ], [ -77.37464, 38.8938 ], [ -77.37562, 38.8959 ], [ -77.37735, 38.89563 ], [ -77.37577, 38.89495 ], [ -77.37559, 38.89377 ], [ -77.37653, 38.89342 ], [ -77.37589, 38.89309 ], [ -77.37594, 38.89268 ], [ -77.37665, 38.89233 ], [ -77.37646, 38.89207 ], [ -77.37474, 38.89267 ], [ -77.37442, 38.89234 ], [ -77.3747, 38.89172 ], [ -77.37678, 38.89097 ], [ -77.37908, 38.89236 ], [ -77.37735, 38.88992 ], [ -77.37429, 38.89138 ], [ -77.37267, 38.89122 ], [ -77.37171, 38.89056 ], [ -77.37178, 38.88985 ], [ -77.37225, 38.88966 ], [ -77.37403, 38.89032 ], [ -77.37613, 38.88941 ], [ -77.37649, 38.88876 ], [ -77.37483, 38.88527 ], [ -77.37442, 38.88608 ], [ -77.37506, 38.88693 ], [ -77.37358, 38.88749 ], [ -77.37431, 38.88784 ], [ -77.37426, 38.88825 ], [ -77.37009, 38.88972 ], [ -77.37094, 38.89011 ], [ -77.37044, 38.89077 ], [ -77.36933, 38.89102 ], [ -77.37011, 38.89154 ], [ -77.36996, 38.89194 ], [ -77.36908, 38.89213 ], [ -77.36772, 38.89144 ], [ -77.3671, 38.89233 ], [ -77.36719, 38.89344 ], [ -77.36673, 38.89365 ], [ -77.36622, 38.89354 ], [ -77.36577, 38.89272 ], [ -77.36423, 38.8923 ], [ -77.36412, 38.8919 ], [ -77.36465, 38.89152 ], [ -77.36373, 38.89052 ], [ -77.36395, 38.88951 ], [ -77.36793, 38.8884 ], [ -77.37046, 38.88579 ], [ -77.36886, 38.88565 ], [ -77.3681, 38.88619 ], [ -77.36759, 38.88609 ], [ -77.36732, 38.88573 ], [ -77.36774, 38.88502 ], [ -77.36705, 38.88536 ], [ -77.36656, 38.88519 ], [ -77.36544, 38.88403 ], [ -77.36371, 38.88518 ], [ -77.36451, 38.88589 ], [ -77.36463, 38.88676 ], [ -77.36452, 38.88717 ], [ -77.36355, 38.88731 ], [ -77.36325, 38.88633 ], [ -77.36221, 38.88564 ], [ -77.36189, 38.88494 ], [ -77.36406, 38.88373 ], [ -77.36578, 38.88205 ], [ -77.36604, 38.88125 ], [ -77.36691, 38.88145 ], [ -77.36702, 38.8808 ], [ -77.36752, 38.88067 ], [ -77.36805, 38.88089 ], [ -77.36823, 38.88078 ], [ -77.36711, 38.88008 ], [ -77.36249, 38.87861 ], [ -77.36167, 38.87939 ], [ -77.36114, 38.87937 ], [ -77.3608, 38.87865 ], [ -77.36142, 38.87669 ], [ -77.36254, 38.87565 ], [ -77.36341, 38.876 ], [ -77.36271, 38.87752 ], [ -77.36595, 38.87856 ], [ -77.366, 38.87765 ], [ -77.36724, 38.87728 ], [ -77.36665, 38.87457 ], [ -77.36443, 38.87413 ], [ -77.3652, 38.87309 ], [ -77.36655, 38.87348 ], [ -77.36766, 38.87328 ], [ -77.3683, 38.87579 ], [ -77.36973, 38.87569 ], [ -77.3722, 38.87724 ], [ -77.37194, 38.87638 ], [ -77.37262, 38.87589 ], [ -77.37599, 38.87742 ], [ -77.37575, 38.87676 ], [ -77.37674, 38.87615 ], [ -77.37595, 38.87577 ], [ -77.37594, 38.87519 ], [ -77.37701, 38.87426 ], [ -77.37754, 38.87426 ], [ -77.37827, 38.87544 ], [ -77.37952, 38.87501 ], [ -77.37981, 38.87571 ], [ -77.38065, 38.87603 ], [ -77.38076, 38.87661 ], [ -77.3818, 38.8769 ], [ -77.38141, 38.87842 ], [ -77.38206, 38.88018 ], [ -77.38328, 38.88144 ], [ -77.38485, 38.8821 ], [ -77.38537, 38.88129 ], [ -77.38343, 38.8805 ], [ -77.38214, 38.87779 ], [ -77.38348, 38.87638 ], [ -77.38066, 38.87504 ], [ -77.38034, 38.87431 ], [ -77.38126, 38.87406 ], [ -77.38653, 38.87608 ], [ -77.38689, 38.87504 ], [ -77.38604, 38.87498 ], [ -77.38488, 38.87408 ], [ -77.38444, 38.87315 ], [ -77.38477, 38.87283 ], [ -77.3863, 38.87304 ], [ -77.38767, 38.87392 ], [ -77.38951, 38.87179 ], [ -77.39001, 38.87165 ], [ -77.39061, 38.87211 ], [ -77.39192, 38.87185 ], [ -77.3929, 38.87305 ] ], [ [ -77.39076, 38.89592 ], [ -77.3904, 38.89533 ], [ -77.39174, 38.89446 ], [ -77.38795, 38.89582 ], [ -77.38901, 38.89605 ], [ -77.38921, 38.89643 ], [ -77.38868, 38.897 ], [ -77.38758, 38.89695 ], [ -77.38672, 38.89633 ], [ -77.38459, 38.89721 ], [ -77.38413, 38.89826 ], [ -77.382, 38.89839 ], [ -77.382, 38.89886 ], [ -77.38513, 38.89887 ], [ -77.39076, 38.89592 ] ], [ [ -77.38587, 38.89546 ], [ -77.38496, 38.89475 ], [ -77.38519, 38.89349 ], [ -77.38421, 38.89285 ], [ -77.38349, 38.89387 ], [ -77.38226, 38.89428 ], [ -77.38199, 38.89497 ], [ -77.38123, 38.89501 ], [ -77.38121, 38.89535 ], [ -77.38165, 38.89541 ], [ -77.38313, 38.89513 ], [ -77.38289, 38.89442 ], [ -77.38376, 38.89407 ], [ -77.38513, 38.89578 ], [ -77.38587, 38.89546 ] ], [ [ -77.38593, 38.89219 ], [ -77.38539, 38.89193 ], [ -77.38522, 38.89211 ], [ -77.38599, 38.89287 ], [ -77.38593, 38.89219 ] ], [ [ -77.38439, 38.89087 ], [ -77.3837, 38.8909 ], [ -77.38354, 38.89187 ], [ -77.38439, 38.89087 ] ], [ [ -77.38351, 38.8895 ], [ -77.38349, 38.88956 ], [ -77.38358, 38.88955 ], [ -77.38351, 38.8895 ] ], [ [ -77.38129, 38.88805 ], [ -77.3785, 38.88906 ], [ -77.37905, 38.88975 ], [ -77.38196, 38.88988 ], [ -77.38078, 38.88939 ], [ -77.3809, 38.88898 ], [ -77.38186, 38.88868 ], [ -77.38129, 38.88805 ] ], [ [ -77.38426, 38.88307 ], [ -77.38314, 38.88265 ], [ -77.38265, 38.88293 ], [ -77.38282, 38.88385 ], [ -77.38082, 38.88703 ], [ -77.38191, 38.88662 ], [ -77.38426, 38.88307 ] ], [ [ -77.38195, 38.88193 ], [ -77.38132, 38.88126 ], [ -77.38036, 38.88166 ], [ -77.37998, 38.88099 ], [ -77.37991, 38.88186 ], [ -77.37948, 38.8821 ], [ -77.37768, 38.88142 ], [ -77.37711, 38.88192 ], [ -77.37858, 38.88191 ], [ -77.37895, 38.88267 ], [ -77.38094, 38.88283 ], [ -77.38195, 38.88193 ] ], [ [ -77.38855, 38.88541 ], [ -77.38833, 38.88614 ], [ -77.38783, 38.88628 ], [ -77.38718, 38.88562 ], [ -77.38648, 38.88604 ], [ -77.38575, 38.88559 ], [ -77.38502, 38.88594 ], [ -77.38555, 38.88594 ], [ -77.3861, 38.88714 ], [ -77.38793, 38.88731 ], [ -77.38959, 38.88638 ], [ -77.38928, 38.88553 ], [ -77.38855, 38.88541 ] ], [ [ -77.38467, 38.8861 ], [ -77.38451, 38.88636 ], [ -77.38454, 38.88672 ], [ -77.38373, 38.88721 ], [ -77.38474, 38.88682 ], [ -77.38502, 38.88594 ], [ -77.38467, 38.8861 ] ], [ [ -77.38614, 38.8825 ], [ -77.38611, 38.88255 ], [ -77.38676, 38.8828 ], [ -77.38614, 38.8825 ] ], [ [ -77.39065, 38.87566 ], [ -77.39059, 38.87565 ], [ -77.39063, 38.87568 ], [ -77.39065, 38.87566 ] ], [ [ -77.38994, 38.87726 ], [ -77.38996, 38.87727 ], [ -77.38997, 38.87726 ], [ -77.38994, 38.87726 ] ], [ [ -77.39253, 38.89251 ], [ -77.39192, 38.89228 ], [ -77.39146, 38.89288 ], [ -77.39008, 38.89253 ], [ -77.38836, 38.89266 ], [ -77.38806, 38.89291 ], [ -77.38879, 38.89299 ], [ -77.38894, 38.89374 ], [ -77.38786, 38.894 ], [ -77.38687, 38.89371 ], [ -77.38627, 38.89425 ], [ -77.38639, 38.89525 ], [ -77.39079, 38.8934 ], [ -77.39307, 38.89374 ], [ -77.39216, 38.89316 ], [ -77.39253, 38.89251 ] ], [ [ -77.39388, 38.89558 ], [ -77.3944, 38.89637 ], [ -77.39592, 38.89552 ], [ -77.39531, 38.89482 ], [ -77.39388, 38.89558 ] ], [ [ -77.38703, 38.89116 ], [ -77.38577, 38.89087 ], [ -77.38728, 38.89197 ], [ -77.38765, 38.8912 ], [ -77.38703, 38.89116 ] ], [ [ -77.38696, 38.88962 ], [ -77.38656, 38.88959 ], [ -77.38707, 38.88975 ], [ -77.3873, 38.88953 ], [ -77.38696, 38.88962 ] ], [ [ -77.38935, 38.8894 ], [ -77.38855, 38.88877 ], [ -77.38889, 38.88975 ], [ -77.3886, 38.89009 ], [ -77.38935, 38.8894 ] ], [ [ -77.38897, 38.89158 ], [ -77.38895, 38.89165 ], [ -77.38904, 38.89165 ], [ -77.38897, 38.89158 ] ], [ [ -77.38521, 38.88403 ], [ -77.38539, 38.88409 ], [ -77.38571, 38.8836 ], [ -77.38521, 38.88403 ] ], [ [ -77.38525, 38.88009 ], [ -77.38597, 38.88031 ], [ -77.38661, 38.87927 ], [ -77.38546, 38.8792 ], [ -77.38525, 38.88009 ] ], [ [ -77.38641, 38.88956 ], [ -77.38614, 38.88885 ], [ -77.38731, 38.88828 ], [ -77.38647, 38.88818 ], [ -77.38508, 38.88897 ], [ -77.38534, 38.8896 ], [ -77.38641, 38.88956 ] ], [ [ -77.38818, 38.89599 ], [ -77.38818, 38.896 ], [ -77.38819, 38.89599 ], [ -77.38818, 38.89599 ] ], [ [ -77.38864, 38.89834 ], [ -77.38715, 38.89912 ], [ -77.38827, 38.89926 ], [ -77.38866, 38.89914 ], [ -77.38864, 38.89834 ] ], [ [ -77.39021, 38.89856 ], [ -77.38995, 38.89871 ], [ -77.39084, 38.89938 ], [ -77.39021, 38.89856 ] ], [ [ -77.37816, 38.89568 ], [ -77.37759, 38.89568 ], [ -77.37913, 38.8957 ], [ -77.37816, 38.89568 ] ], [ [ -77.37974, 38.89464 ], [ -77.37975, 38.89368 ], [ -77.37898, 38.89426 ], [ -77.37764, 38.89434 ], [ -77.37772, 38.89461 ], [ -77.37974, 38.89464 ] ], [ [ -77.37773, 38.89304 ], [ -77.37731, 38.89328 ], [ -77.3783, 38.89328 ], [ -77.37773, 38.89304 ] ], [ [ -77.37875, 38.88779 ], [ -77.37881, 38.88776 ], [ -77.37839, 38.88768 ], [ -77.37875, 38.88779 ] ], [ [ -77.3783, 38.88445 ], [ -77.3778, 38.88351 ], [ -77.37726, 38.8847 ], [ -77.37802, 38.88503 ], [ -77.3783, 38.88445 ] ], [ [ -77.37834, 38.88297 ], [ -77.37814, 38.88292 ], [ -77.37821, 38.88307 ], [ -77.37834, 38.88297 ] ], [ [ -77.38195, 38.89323 ], [ -77.38097, 38.89268 ], [ -77.38125, 38.89354 ], [ -77.38195, 38.89323 ] ], [ [ -77.37975, 38.89071 ], [ -77.37973, 38.89071 ], [ -77.37988, 38.89092 ], [ -77.37975, 38.89071 ] ], [ [ -77.3825, 38.89099 ], [ -77.38088, 38.89086 ], [ -77.38094, 38.89089 ], [ -77.38211, 38.89206 ], [ -77.3825, 38.89099 ] ], [ [ -77.38362, 38.89635 ], [ -77.38363, 38.89614 ], [ -77.38142, 38.89648 ], [ -77.38189, 38.89769 ], [ -77.38216, 38.89683 ], [ -77.38362, 38.89635 ] ], [ [ -77.38397, 38.90331 ], [ -77.38321, 38.90339 ], [ -77.38339, 38.90378 ], [ -77.38421, 38.90371 ], [ -77.38462, 38.9025 ], [ -77.38397, 38.90331 ] ], [ [ -77.37934, 38.88756 ], [ -77.37932, 38.88751 ], [ -77.37922, 38.88761 ], [ -77.37934, 38.88756 ] ], [ [ -77.37944, 38.88368 ], [ -77.37987, 38.88402 ], [ -77.37939, 38.88518 ], [ -77.3799, 38.88607 ], [ -77.38128, 38.88388 ], [ -77.37944, 38.88368 ] ], [ [ -77.37655, 38.87866 ], [ -77.37406, 38.87787 ], [ -77.37316, 38.87916 ], [ -77.37264, 38.87925 ], [ -77.37078, 38.8777 ], [ -77.36924, 38.87853 ], [ -77.36933, 38.87883 ], [ -77.37113, 38.8792 ], [ -77.37057, 38.87995 ], [ -77.37156, 38.88198 ], [ -77.3759, 38.88441 ], [ -77.37676, 38.88335 ], [ -77.37592, 38.8825 ], [ -77.37516, 38.883 ], [ -77.37419, 38.88294 ], [ -77.37446, 38.88205 ], [ -77.37402, 38.88143 ], [ -77.37424, 38.88105 ], [ -77.37504, 38.88103 ], [ -77.37437, 38.87921 ], [ -77.37481, 38.87898 ], [ -77.37577, 38.8796 ], [ -77.37626, 38.87944 ], [ -77.37655, 38.87866 ] ], [ [ -77.3705, 38.88823 ], [ -77.37194, 38.88783 ], [ -77.37093, 38.88714 ], [ -77.36857, 38.88936 ], [ -77.36887, 38.89 ], [ -77.36976, 38.88979 ], [ -77.36914, 38.88923 ], [ -77.3705, 38.88823 ] ], [ [ -77.37281, 38.88425 ], [ -77.37206, 38.88387 ], [ -77.37068, 38.88489 ], [ -77.36996, 38.88421 ], [ -77.36916, 38.88456 ], [ -77.37031, 38.88479 ], [ -77.37085, 38.88529 ], [ -77.37281, 38.88425 ] ], [ [ -77.37101, 38.88317 ], [ -77.37044, 38.8828 ], [ -77.37, 38.88413 ], [ -77.37101, 38.88317 ] ], [ [ -77.37255, 38.88676 ], [ -77.37335, 38.88525 ], [ -77.37228, 38.88554 ], [ -77.37172, 38.88625 ], [ -77.37255, 38.88676 ] ], [ [ -77.36894, 38.88172 ], [ -77.36925, 38.88222 ], [ -77.3694, 38.88208 ], [ -77.36894, 38.88172 ] ], [ [ -77.36748, 38.88259 ], [ -77.36734, 38.88263 ], [ -77.36738, 38.88266 ], [ -77.36748, 38.88259 ] ], [ [ -77.36732, 38.87837 ], [ -77.36777, 38.87906 ], [ -77.36782, 38.87905 ], [ -77.36732, 38.87837 ] ], [ [ -77.36927, 38.87675 ], [ -77.3693, 38.87674 ], [ -77.36927, 38.87673 ], [ -77.36927, 38.87675 ] ], [ [ -77.36881, 38.88312 ], [ -77.36824, 38.8835 ], [ -77.3687, 38.88423 ], [ -77.36881, 38.88312 ] ], [ [ -77.36688, 38.88372 ], [ -77.36673, 38.88366 ], [ -77.36693, 38.88384 ], [ -77.36688, 38.88372 ] ], [ [ -77.36506, 38.89016 ], [ -77.3653, 38.89086 ], [ -77.36494, 38.89148 ], [ -77.36603, 38.89165 ], [ -77.3666, 38.89078 ], [ -77.36755, 38.89032 ], [ -77.36727, 38.88973 ], [ -77.36506, 38.89016 ] ], [ [ -77.37052, 38.89993 ], [ -77.3708, 38.90032 ], [ -77.3707, 38.90003 ], [ -77.37052, 38.89993 ] ], [ [ -77.37261, 38.89747 ], [ -77.37235, 38.89701 ], [ -77.37115, 38.89761 ], [ -77.37261, 38.89747 ] ], [ [ -77.36891, 38.89674 ], [ -77.36996, 38.89894 ], [ -77.37048, 38.89859 ], [ -77.36891, 38.89674 ] ] ] } },
{ "type": "Feature", "properties": { "variant": "T2s", "miles": 0.5 }, "geometry": { "type": "Polygon", "coordinates": [ [ [ -77.3793, 38.88744 ], [ -77.37949, 38.88683 ], [ -77.37998, 38.88668 ], [ -77.3806, 38.88711 ], [ -77.38186, 38.88683 ], [ -77.38284, 38.88791 ], [ -77.38427, 38.88827 ], [ -77.38515, 38.88901 ], [ -77.385, 38.88972 ], [ -77.38562, 38.89009 ], [ -77.38577, 38.89075 ], [ -77.38565, 38.89147 ], [ -77.38476, 38.8918 ], [ -77.38439, 38.89087 ], [ -77.37973, 38.89071 ], [ -77.38112, 38.89348 ], [ -77.38107, 38.89524 ], [ -77.38031, 38.89573 ], [ -77.37969, 38.89514 ], [ -77.37968, 38.8934 ], [ -77.37835, 38.8933 ], [ -77.37687, 38.8924 ], [ -77.37746, 38.89179 ], [ -77.37908, 38.89236 ], [ -77.37735, 38.88992 ], [ -77.37414, 38.8914 ], [ -77.37236, 38.8911 ], [ -77.37163, 38.89033 ], [ -77.37225, 38.88966 ], [ -77.3739, 38.89033 ], [ -77.37608, 38.88948 ], [ -77.37649, 38.88876 ], [ -77.37554, 38.88648 ], [ -77.37608, 38.88588 ], [ -77.37748, 38.88566 ], [ -77.37832, 38.88597 ], [ -77.37807, 38.88671 ], [ -77.37719, 38.88678 ], [ -77.3778, 38.88813 ], [ -77.3793, 38.88744 ] ], [ [ -77.37925, 38.88968 ], [ -77.38196, 38.88988 ], [ -77.38078, 38.88939 ], [ -77.3809, 38.88898 ], [ -77.38189, 38.8887 ], [ -77.38129, 38.88805 ], [ -77.3785, 38.88906 ], [ -77.37925, 38.88968 ] ], [ [ -77.38354, 38.88953 ], [ -77.38349, 38.88956 ], [ -77.38358, 38.88955 ], [ -77.38354, 38.88953 ] ] ] } },
{ "type": "Feature", "properties": { "variant": "T2s", "miles": 1.0 }, "geometry": { "type": "Polygon", "coordinates": [ [ [ -77.38712, 38.87827 ], [ -77.3891, 38.87902 ], [ -77.38936, 38.8802 ], [ -77.38877, 38.88126 ], [ -77.38943, 38.88151 ], [ -77.38952, 38.88214 ], [ -77.38798, 38.8827 ], [ -77.38665, 38.8817 ], [ -77.38611, 38.88255 ], [ -77.38864, 38.88357 ], [ -77.39, 38.88475 ], [ -77.38995, 38.88516 ], [ -77.38855, 38.88541 ], [ -77.38833, 38.88614 ], [ -77.38783, 38.88628 ], [ -77.38718, 38.88562 ], [ -77.38648, 38.88604 ], [ -77.38575, 38.88559 ], [ -77.38467, 38.8861 ], [ -77.38451, 38.88636 ], [ -77.38454, 38.88672 ], [ -77.38373, 38.88721 ], [ -77.38474, 38.88682 ], [ -77.38502, 38.88594 ], [ -77.38592, 38.88623 ], [ -77.3861, 38.88714 ], [ -77.38793, 38.88731 ], [ -77.38916, 38.88646 ], [ -77.39003, 38.88641 ], [ -77.39107, 38.88809 ], [ -77.39048, 38.88878 ], [ -77.39134, 38.89038 ], [ -77.39108, 38.89167 ], [ -77.39193, 38.89221 ], [ -77.39187, 38.89262 ], [ -77.39146, 38.89288 ], [ -77.39008, 38.89253 ], [ -77.38836, 38.89266 ], [ -77.38806, 38.89291 ], [ -77.38879, 38.89299 ], [ -77.38894, 38.89374 ], [ -77.38786, 38.894 ], [ -77.38687, 38.89371 ], [ -77.3863, 38.89415 ], [ -77.38653, 38.89511 ], [ -77.3862, 38.89543 ], [ -77.38526, 38.89522 ], [ -77.38488, 38.89435 ], [ -77.38519, 38.89349 ], [ -77.38421, 38.89285 ], [ -77.38349, 38.89387 ], [ -77.38226, 38.89428 ], [ -77.38199, 38.89497 ], [ -77.38123, 38.89501 ], [ -77.38121, 38.89535 ], [ -77.38165, 38.89541 ], [ -77.38313, 38.89513 ], [ -77.38289, 38.89442 ], [ -77.38376, 38.89407 ], [ -77.38502, 38.89586 ], [ -77.38501, 38.89692 ], [ -77.38394, 38.89741 ], [ -77.38304, 38.89712 ], [ -77.38363, 38.89614 ], [ -77.38142, 38.89648 ], [ -77.38198, 38.89814 ], [ -77.38184, 38.89991 ], [ -77.38277, 38.90237 ], [ -77.38214, 38.90295 ], [ -77.38139, 38.90246 ], [ -77.38056, 38.90039 ], [ -77.38049, 38.89827 ], [ -77.37989, 38.8966 ], [ -77.37884, 38.89694 ], [ -77.3763, 38.89684 ], [ -77.37512, 38.89754 ], [ -77.37551, 38.89833 ], [ -77.37522, 38.89867 ], [ -77.3747, 38.89875 ], [ -77.37396, 38.89813 ], [ -77.37291, 38.89839 ], [ -77.3725, 38.89813 ], [ -77.37279, 38.8974 ], [ -77.37511, 38.89614 ], [ -77.37735, 38.89563 ], [ -77.37577, 38.89495 ], [ -77.37559, 38.89377 ], [ -77.37653, 38.89342 ], [ -77.37589, 38.89309 ], [ -77.37594, 38.89268 ], [ -77.37665, 38.89233 ], [ -77.37646, 38.89207 ], [ -77.37474, 38.89267 ], [ -77.37442, 38.89234 ], [ -77.3747, 38.89172 ], [ -77.37678, 38.89097 ], [ -77.37908, 38.89236 ], [ -77.37735, 38.88992 ], [ -77.3745, 38.89135 ], [ -77.37302, 38.89132 ], [ -77.37191, 38.8908 ], [ -77.37162, 38.89025 ], [ -77.37225, 38.88966 ], [ -77.37403, 38.89032 ], [ -77.37611, 38.88945 ], [ -77.37649, 38.88876 ], [ -77.37533, 38.88592 ], [ -77.37412, 38.88484 ], [ -77.37228, 38.88554 ], [ -77.37172, 38.88625 ], [ -77.37255, 38.88676 ], [ -77.37329, 38.88582 ], [ -77.37419, 38.88611 ], [ -77.37358, 38.88749 ], [ -77.37431, 38.88784 ], [ -77.37385, 38.88851 ], [ -77.37249, 38.88867 ], [ -77.37011, 38.88644 ], [ -77.37127, 38.8848 ], [ -77.37281, 38.88425 ], [ -77.37206, 38.88387 ], [ -77.37068, 38.88489 ], [ -77.36996, 38.88421 ], [ -77.36914, 38.88457 ], [ -77.36864, 38.88391 ], [ -77.3694, 38.88208 ], [ -77.36899, 38.88169 ], [ -77.36799, 38.8822 ], [ -77.3675, 38.88204 ], [ -77.36679, 38.88117 ], [ -77.36702, 38.8808 ], [ -77.36834, 38.88071 ], [ -77.36801, 38.87921 ], [ -77.36908, 38.8789 ], [ -77.37046, 38.88125 ], [ -77.3759, 38.88441 ], [ -77.37645, 38.88355 ], [ -77.37738, 38.88332 ], [ -77.37773, 38.88363 ], [ -77.37726, 38.8847 ], [ -77.37801, 38.88509 ], [ -77.3783, 38.88445 ], [ -77.37773, 38.88369 ], [ -77.37813, 38.88313 ], [ -77.37941, 38.88258 ], [ -77.38112, 38.88279 ], [ -77.38195, 38.88193 ], [ -77.38065, 38.8803 ], [ -77.38042, 38.87883 ], [ -77.38077, 38.87852 ], [ -77.38169, 38.87877 ], [ -77.38206, 38.88018 ], [ -77.3831, 38.88131 ], [ -77.38485, 38.8821 ], [ -77.38537, 38.88129 ], [ -77.38366, 38.88067 ], [ -77.38327, 38.88017 ], [ -77.38364, 38.87855 ], [ -77.38491, 38.87866 ], [ -77.38525, 38.88009 ], [ -77.38597, 38.88031 ], [ -77.38672, 38.87854 ], [ -77.38712, 38.87827 ] ], [ [ -77.38599, 38.89287 ], [ -77.38593, 38.89219 ], [ -77.38539, 38.89193 ], [ -77.38522, 38.89211 ], [ -77.38599, 38.89287 ] ], [ [ -77.38354, 38.89187 ], [ -77.38439, 38.89087 ], [ -77.3837, 38.8909 ], [ -77.38354, 38.89187 ] ], [ [ -77.38358, 38.88955 ], [ -77.38351, 38.8895 ], [ -77.38349, 38.88956 ], [ -77.38358, 38.88955 ] ], [ [ -77.38186, 38.88868 ], [ -77.38129, 38.88805 ], [ -77.3785, 38.88906 ], [ -77.37905, 38.88975 ], [ -77.38196, 38.88988 ], [ -77.38078, 38.88939 ], [ -77.3809, 38.88898 ], [ -77.38186, 38.88868 ] ], [ [ -77.38191, 38.88662 ], [ -77.38426, 38.88307 ], [ -77.38314, 38.88265 ], [ -77.38265, 38.88293 ], [ -77.38282, 38.88385 ], [ -77.38082, 38.88703 ], [ -77.38191, 38.88662 ] ], [ [ -77.38128, 38.88388 ], [ -77.37944, 38.88368 ], [ -77.37987, 38.88402 ], [ -77.37939, 38.88518 ], [ -77.3799, 38.88607 ], [ -77.38128, 38.88388 ] ], [ [ -77.38728, 38.89197 ], [ -77.38761, 38.89118 ], [ -77.38577, 38.89087 ], [ -77.38728, 38.89197 ] ], [ [ -77.38707, 38.88975 ], [ -77.3873, 38.88953 ], [ -77.38656, 38.88959 ], [ -77.38707, 38.88975 ] ], [ [ -77.38875, 38.89009 ], [ -77.38935, 38.8894 ], [ -77.38855, 38.88877 ], [ -77.38889, 38.88975 ], [ -77.38875, 38.89009 ] ], [ [ -77.38897, 38.89158 ], [ -77.38913, 38.89163 ], [ -77.38918, 38.89161 ], [ -77.38897, 38.89158 ] ], [ [ -77.38539, 38.88409 ], [ -77.38552, 38.88353 ], [ -77.38521, 38.88403 ], [ -77.38539, 38.88409 ] ], [ [ -77.38532, 38.8896 ], [ -77.38641, 38.88956 ], [ -77.38614, 38.88885 ], [ -77.38731, 38.88828 ], [ -77.38647, 38.88818 ], [ -77.38508, 38.88897 ], [ -77.38532, 38.8896 ] ], [ [ -77.37976, 38.89379 ], [ -77.37875, 38.89432 ], [ -77.37764, 38.89434 ], [ -77.37756, 38.89461 ], [ -77.37974, 38.89464 ], [ -77.37976, 38.89379 ] ], [ [ -77.38125, 38.89354 ], [ -77.38195, 38.89323 ], [ -77.38097, 38.89268 ], [ -77.38125, 38.89354 ] ], [ [ -77.37988, 38.89092 ], [ -77.37975, 38.89071 ], [ -77.37973, 38.89071 ], [ -77.37988, 38.89092 ] ], [ [ -77.38211, 38.89206 ], [ -77.3825, 38.89099 ], [ -77.38088, 38.89086 ], [ -77.38094, 38.89089 ], [ -77.38211, 38.89206 ] ], [ [ -77.37934, 38.88756 ], [ -77.37932, 38.88751 ], [ -77.37922, 38.88761 ], [ -77.37934, 38.88756 ] ], [ [ -77.37839, 38.88768 ], [ -77.37875, 38.88779 ], [ -77.37881, 38.88776 ], [ -77.37839, 38.88768 ] ], [ [ -77.37773, 38.89304 ], [ -77.37731, 38.89328 ], [ -77.3783, 38.89328 ], [ -77.37773, 38.89304 ] ], [ [ -77.37838, 38.89569 ], [ -77.37759, 38.89568 ], [ -77.37913, 38.8957 ], [ -77.37838, 38.89569 ] ], [ [ -77.37044, 38.8828 ], [ -77.37022, 38.88299 ], [ -77.37, 38.88413 ], [ -77.37101, 38.88317 ], [ -77.37044, 38.8828 ] ] ] } },
{ "type": "Feature", "properties": { "variant": "T2s", "miles": 1.5 }, "geometry": { "type": "MultiPolygon", "coordinates": [ [ [ [ -77.38862, 38.87795 ], [ -77.39012, 38.87845 ], [ -77.39098, 38.87827 ], [ -77.3913, 38.8788 ], [ -77.3933, 38.8794 ], [ -77.39374, 38.87988 ], [ -77.39251, 38.88178 ], [ -77.39036, 38.88222 ], [ -77.38957, 38.88199 ], [ -77.38865, 38.88264 ], [ -77.39028, 38.88452 ], [ -77.39195, 38.88881 ], [ -77.39188, 38.8893 ], [ -77.39095, 38.88947 ], [ -77.39139, 38.89091 ], [ -77.39456, 38.89234 ], [ -77.39913, 38.89757 ], [ -77.39702, 38.89898 ], [ -77.3965, 38.89891 ], [ -77.3957, 38.89755 ], [ -77.39749, 38.89729 ], [ -77.39672, 38.8964 ], [ -77.3944, 38.8975 ], [ -77.39274, 38.89619 ], [ -77.39318, 38.89726 ], [ -77.39287, 38.8976 ], [ -77.39235, 38.89767 ], [ -77.39145, 38.89686 ], [ -77.38996, 38.89764 ], [ -77.39016, 38.89964 ], [ -77.38901, 38.90028 ], [ -77.38723, 38.90022 ], [ -77.38785, 38.90073 ], [ -77.38741, 38.90141 ], [ -77.38621, 38.90101 ], [ -77.38578, 38.89982 ], [ -77.38201, 38.89994 ], [ -77.38251, 38.90091 ], [ -77.38324, 38.90069 ], [ -77.3869, 38.90183 ], [ -77.38778, 38.90163 ], [ -77.38923, 38.90192 ], [ -77.38993, 38.90267 ], [ -77.38905, 38.90302 ], [ -77.38786, 38.90274 ], [ -77.38755, 38.90362 ], [ -77.38702, 38.90361 ], [ -77.38598, 38.90267 ], [ -77.38531, 38.90437 ], [ -77.38459, 38.90478 ], [ -77.38359, 38.90477 ], [ -77.38334, 38.90575 ], [ -77.38159, 38.90811 ], [ -77.38077, 38.90853 ], [ -77.38023, 38.90789 ], [ -77.38063, 38.90699 ], [ -77.37879, 38.90613 ], [ -77.37843, 38.90501 ], [ -77.37936, 38.90478 ], [ -77.37983, 38.9054 ], [ -77.38119, 38.906 ], [ -77.38186, 38.90483 ], [ -77.38147, 38.903 ], [ -77.37966, 38.90352 ], [ -77.37943, 38.90262 ], [ -77.37877, 38.9034 ], [ -77.3778, 38.90338 ], [ -77.37769, 38.90262 ], [ -77.37886, 38.90163 ], [ -77.37745, 38.90182 ], [ -77.37697, 38.90115 ], [ -77.37869, 38.90034 ], [ -77.37813, 38.89975 ], [ -77.3787, 38.89913 ], [ -77.37998, 38.89992 ], [ -77.38005, 38.90108 ], [ -77.38057, 38.90178 ], [ -77.38132, 38.90192 ], [ -77.38048, 38.90012 ], [ -77.38049, 38.89827 ], [ -77.37989, 38.8966 ], [ -77.37857, 38.89695 ], [ -77.37692, 38.89666 ], [ -77.37581, 38.89708 ], [ -77.37512, 38.89754 ], [ -77.37551, 38.89833 ], [ -77.37457, 38.89869 ], [ -77.37479, 38.89983 ], [ -77.37438, 38.9001 ], [ -77.37351, 38.89975 ], [ -77.37286, 38.8986 ], [ -77.37245, 38.89877 ], [ -77.37329, 38.89995 ], [ -77.37307, 38.90033 ], [ -77.37085, 38.90043 ], [ -77.37032, 38.90102 ], [ -77.36963, 38.90084 ], [ -77.36918, 38.90023 ], [ -77.36622, 38.90104 ], [ -77.36529, 38.90078 ], [ -77.36562, 38.90006 ], [ -77.36861, 38.89923 ], [ -77.36857, 38.89894 ], [ -77.36734, 38.89894 ], [ -77.36685, 38.89829 ], [ -77.36803, 38.89786 ], [ -77.36734, 38.89646 ], [ -77.36762, 38.8961 ], [ -77.36855, 38.8962 ], [ -77.36808, 38.89493 ], [ -77.36832, 38.89442 ], [ -77.3693, 38.89447 ], [ -77.37054, 38.89663 ], [ -77.37179, 38.89601 ], [ -77.37047, 38.89424 ], [ -77.37115, 38.89369 ], [ -77.37164, 38.89385 ], [ -77.37383, 38.89694 ], [ -77.37445, 38.89658 ], [ -77.37337, 38.89423 ], [ -77.37373, 38.89352 ], [ -77.37464, 38.8938 ], [ -77.37562, 38.8959 ], [ -77.37735, 38.89563 ], [ -77.37577, 38.89495 ], [ -77.37559, 38.89377 ], [ -77.37653, 38.89342 ], [ -77.37589, 38.89309 ], [ -77.37594, 38.89268 ], [ -77.37665, 38.89233 ], [ -77.37646, 38.89207 ], [ -77.37474, 38.89267 ], [ -77.37442, 38.89234 ], [ -77.3747, 38.89172 ], [ -77.37678, 38.89097 ], [ -77.37908, 38.89236 ], [ -77.37735, 38.88992 ], [ -77.37429, 38.89138 ], [ -77.37267, 38.89122 ], [ -77.37171, 38.89056 ], [ -77.37178, 38.88985 ], [ -77.37225, 38.88966 ], [ -77.37403, 38.89032 ], [ -77.37613, 38.88941 ], [ -77.37649, 38.88876 ], [ -77.37483, 38.88527 ], [ -77.37442, 38.88608 ], [ -77.37506, 38.88693 ], [ -77.37358, 38.88749 ], [ -77.37431, 38.88784 ], [ -77.37426, 38.88825 ], [ -77.37009, 38.88972 ], [ -77.37094, 38.89011 ], [ -77.37044, 38.89077 ], [ -77.36933, 38.89102 ], [ -77.37011, 38.89154 ], [ -77.36996, 38.89194 ], [ -77.36908, 38.89213 ], [ -77.36772, 38.89144 ], [ -77.3671, 38.89233 ], [ -77.36719, 38.89344 ], [ -77.36673, 38.89365 ], [ -77.36622, 38.89354 ], [ -77.36577, 38.89272 ], [ -77.36423, 38.8923 ], [ -77.36412, 38.8919 ], [ -77.36465, 38.89152 ], [ -77.36373, 38.89052 ], [ -77.36395, 38.88951 ], [ -77.36793, 38.8884 ], [ -77.37046, 38.88579 ], [ -77.36886, 38.88565 ], [ -77.3681, 38.88619 ], [ -77.36759, 38.88609 ], [ -77.36732, 38.88573 ], [ -77.36768, 38.88497 ], [ -77.36705, 38.88536 ], [ -77.36656, 38.88519 ], [ -77.36458, 38.88331 ], [ -77.36604, 38.88125 ], [ -77.36691, 38.88145 ], [ -77.36702, 38.8808 ], [ -77.36752, 38.88067 ], [ -77.36805, 38.88089 ], [ -77.36823, 38.88078 ], [ -77.36616, 38.87961 ], [ -77.36585, 38.87788 ], [ -77.36724, 38.87728 ], [ -77.36665, 38.87457 ], [ -77.36492, 38.87406 ], [ -77.36476, 38.87331 ], [ -77.36766, 38.87328 ], [ -77.3683, 38.87579 ], [ -77.36973, 38.87569 ], [ -77.3722, 38.87724 ], [ -77.37194, 38.87638 ], [ -77.37262, 38.87589 ], [ -77.37599, 38.87742 ], [ -77.37575, 38.87676 ], [ -77.37674, 38.87615 ], [ -77.37595, 38.87577 ], [ -77.37594, 38.87519 ], [ -77.37701, 38.87426 ], [ -77.37791, 38.87456 ], [ -77.37783, 38.87513 ], [ -77.37827, 38.87544 ], [ -77.37952, 38.87501 ], [ -77.37981, 38.87571 ], [ -77.38065, 38.87603 ], [ -77.38076, 38.87661 ], [ -77.3818, 38.8769 ], [ -77.38141, 38.87842 ], [ -77.38217, 38.88034 ], [ -77.38328, 38.88144 ], [ -77.38485, 38.8821 ], [ -77.38537, 38.88129 ], [ -77.38343, 38.8805 ], [ -77.38214, 38.87779 ], [ -77.3828, 38.87674 ], [ -77.38392, 38.87611 ], [ -77.38552, 38.87636 ], [ -77.38628, 38.87708 ], [ -77.38738, 38.87686 ], [ -77.38819, 38.87717 ], [ -77.38862, 38.87795 ] ], [ [ -77.3821, 38.89886 ], [ -77.38513, 38.89887 ], [ -77.39076, 38.89592 ], [ -77.3904, 38.89533 ], [ -77.39174, 38.89446 ], [ -77.38795, 38.89582 ], [ -77.38901, 38.89605 ], [ -77.38921, 38.89643 ], [ -77.38868, 38.897 ], [ -77.38758, 38.89695 ], [ -77.38672, 38.89633 ], [ -77.38459, 38.89721 ], [ -77.38408, 38.89828 ], [ -77.382, 38.89839 ], [ -77.3821, 38.89886 ] ], [ [ -77.38189, 38.89769 ], [ -77.38216, 38.89683 ], [ -77.38363, 38.89614 ], [ -77.38142, 38.89648 ], [ -77.38189, 38.89769 ] ], [ [ -77.38313, 38.89513 ], [ -77.38289, 38.89442 ], [ -77.38376, 38.89407 ], [ -77.38501, 38.89583 ], [ -77.38587, 38.89546 ], [ -77.38496, 38.89475 ], [ -77.38519, 38.89349 ], [ -77.38421, 38.89285 ], [ -77.38349, 38.89387 ], [ -77.38226, 38.89428 ], [ -77.38199, 38.89497 ], [ -77.38123, 38.89501 ], [ -77.38121, 38.89535 ], [ -77.38313, 38.89513 ] ], [ [ -77.3819, 38.89322 ], [ -77.38141, 38.89302 ], [ -77.38097, 38.89268 ], [ -77.38125, 38.89354 ], [ -77.3819, 38.89322 ] ], [ [ -77.37925, 38.88968 ], [ -77.38196, 38.88988 ], [ -77.38078, 38.88939 ], [ -77.3809, 38.88898 ], [ -77.38189, 38.8887 ], [ -77.38129, 38.88805 ], [ -77.3785, 38.88906 ], [ -77.37925, 38.88968 ] ], [ [ -77.37934, 38.88756 ], [ -77.37932, 38.88751 ], [ -77.37922, 38.88761 ], [ -77.37934, 38.88756 ] ], [ [ -77.37801, 38.88508 ], [ -77.3783, 38.88445 ], [ -77.3778, 38.88351 ], [ -77.37726, 38.8847 ], [ -77.37801, 38.88508 ] ], [ [ -77.37821, 38.88307 ], [ -77.37834, 38.88297 ], [ -77.37814, 38.88292 ], [ -77.37821, 38.88307 ] ], [ [ -77.37896, 38.88267 ], [ -77.38108, 38.8828 ], [ -77.38195, 38.88193 ], [ -77.38132, 38.88126 ], [ -77.38036, 38.88166 ], [ -77.37998, 38.88099 ], [ -77.37991, 38.88186 ], [ -77.37948, 38.8821 ], [ -77.37768, 38.88142 ], [ -77.37711, 38.88192 ], [ -77.37858, 38.88191 ], [ -77.37896, 38.88267 ] ], [ [ -77.38868, 38.89917 ], [ -77.38864, 38.89834 ], [ -77.38715, 38.89912 ], [ -77.38827, 38.89926 ], [ -77.38868, 38.89917 ] ], [ [ -77.38639, 38.89525 ], [ -77.3909, 38.89338 ], [ -77.39307, 38.89374 ], [ -77.39216, 38.89316 ], [ -77.39253, 38.89251 ], [ -77.39192, 38.89228 ], [ -77.39146, 38.89288 ], [ -77.39008, 38.89253 ], [ -77.38836, 38.89266 ], [ -77.38806, 38.89291 ], [ -77.38879, 38.89299 ], [ -77.38894, 38.89374 ], [ -77.38786, 38.894 ], [ -77.38687, 38.89371 ], [ -77.3863, 38.89415 ], [ -77.38639, 38.89525 ] ], [ [ -77.38897, 38.89158 ], [ -77.38913, 38.89163 ], [ -77.38918, 38.89161 ], [ -77.38897, 38.89158 ] ], [ [ -77.38756, 38.89121 ], [ -77.38611, 38.89086 ], [ -77.38577, 38.89087 ], [ -77.38728, 38.89197 ], [ -77.38756, 38.89121 ] ], [ [ -77.38517, 38.88963 ], [ -77.38641, 38.88956 ], [ -77.38614, 38.88885 ], [ -77.38731, 38.88828 ], [ -77.38647, 38.88818 ], [ -77.38508, 38.88897 ], [ -77.38517, 38.88963 ] ], [ [ -77.38622, 38.88712 ], [ -77.38793, 38.88731 ], [ -77.38959, 38.88638 ], [ -77.38926, 38.88548 ], [ -77.38855, 38.88541 ], [ -77.38833, 38.88614 ], [ -77.38783, 38.88628 ], [ -77.38718, 38.88562 ], [ -77.38648, 38.88604 ], [ -77.38575, 38.88559 ], [ -77.38467, 38.8861 ], [ -77.38451, 38.88636 ], [ -77.38454, 38.88672 ], [ -77.38373, 38.88721 ], [ -77.38474, 38.88682 ], [ -77.38502, 38.88594 ], [ -77.38592, 38.88623 ], [ -77.38622, 38.88712 ] ], [ [ -77.38571, 38.8836 ], [ -77.38521, 38.88403 ], [ -77.38539, 38.88409 ], [ -77.38571, 38.8836 ] ], [ [ -77.38608, 38.88012 ], [ -77.38661, 38.87927 ], [ -77.38553, 38.87913 ], [ -77.38525, 38.88009 ], [ -77.38608, 38.88012 ] ], [ [ -77.3873, 38.88953 ], [ -77.38696, 38.88962 ], [ -77.38656, 38.88959 ], [ -77.38707, 38.88975 ], [ -77.3873, 38.88953 ] ], [ [ -77.3886, 38.89009 ], [ -77.38935, 38.8894 ], [ -77.38855, 38.88877 ], [ -77.38889, 38.88975 ], [ -77.3886, 38.89009 ] ], [ [ -77.38676, 38.8828 ], [ -77.38614, 38.8825 ], [ -77.38611, 38.88255 ], [ -77.38676, 38.8828 ] ], [ [ -77.39049, 38.88878 ], [ -77.39048, 38.88878 ], [ -77.3905, 38.8888 ], [ -77.39049, 38.88878 ] ], [ [ -77.39388, 38.89558 ], [ -77.3944, 38.89637 ], [ -77.39592, 38.89552 ], [ -77.39531, 38.89482 ], [ -77.39388, 38.89558 ] ], [ [ -77.39451, 38.89394 ], [ -77.39448, 38.89392 ], [ -77.39448, 38.89396 ], [ -77.39451, 38.89394 ] ], [ [ -77.38608, 38.89282 ], [ -77.3859, 38.89215 ], [ -77.38539, 38.89193 ], [ -77.38522, 38.89211 ], [ -77.38608, 38.89282 ] ], [ [ -77.38203, 38.88657 ], [ -77.38426, 38.88307 ], [ -77.38314, 38.88265 ], [ -77.38265, 38.88293 ], [ -77.38282, 38.88385 ], [ -77.38082, 38.88703 ], [ -77.38203, 38.88657 ] ], [ [ -77.38351, 38.8895 ], [ -77.38351, 38.88956 ], [ -77.38358, 38.88955 ], [ -77.38351, 38.8895 ] ], [ [ -77.38819, 38.89599 ], [ -77.38818, 38.89599 ], [ -77.38818, 38.896 ], [ -77.38819, 38.89599 ] ], [ [ -77.38216, 38.8921 ], [ -77.3825, 38.89099 ], [ -77.38088, 38.89086 ], [ -77.38216, 38.8921 ] ], [ [ -77.38354, 38.89187 ], [ -77.38439, 38.89087 ], [ -77.3837, 38.8909 ], [ -77.38354, 38.89187 ] ], [ [ -77.38128, 38.88388 ], [ -77.37944, 38.88368 ], [ -77.37987, 38.88402 ], [ -77.37939, 38.88518 ], [ -77.3799, 38.88607 ], [ -77.38128, 38.88388 ] ], [ [ -77.37988, 38.89092 ], [ -77.37975, 38.89071 ], [ -77.37973, 38.89071 ], [ -77.37988, 38.89092 ] ], [ [ -77.38341, 38.90376 ], [ -77.38421, 38.90371 ], [ -77.38462, 38.9025 ], [ -77.38414, 38.90262 ], [ -77.38397, 38.90331 ], [ -77.38321, 38.90339 ], [ -77.38341, 38.90376 ] ], [ [ -77.38294, 38.90175 ], [ -77.38283, 38.90172 ], [ -77.38284, 38.90177 ], [ -77.38294, 38.90175 ] ], [ [ -77.37772, 38.89461 ], [ -77.37974, 38.89464 ], [ -77.37975, 38.89368 ], [ -77.37898, 38.89426 ], [ -77.37764, 38.89434 ], [ -77.37772, 38.89461 ] ], [ [ -77.37594, 38.88434 ], [ -77.37676, 38.88335 ], [ -77.37592, 38.8825 ], [ -77.37516, 38.883 ], [ -77.37419, 38.88294 ], [ -77.37446, 38.88205 ], [ -77.37402, 38.88143 ], [ -77.37424, 38.88105 ], [ -77.37504, 38.88103 ], [ -77.37437, 38.87921 ], [ -77.37533, 38.87906 ], [ -77.37577, 38.8796 ], [ -77.37626, 38.87944 ], [ -77.37655, 38.87866 ], [ -77.37406, 38.87787 ], [ -77.37316, 38.87916 ], [ -77.37264, 38.87925 ], [ -77.37092, 38.87774 ], [ -77.3702, 38.87824 ], [ -77.36973, 38.87814 ], [ -77.36933, 38.87883 ], [ -77.37113, 38.8792 ], [ -77.37057, 38.87995 ], [ -77.37156, 38.88198 ], [ -77.37594, 38.88434 ] ], [ [ -77.37841, 38.88789 ], [ -77.37881, 38.88776 ], [ -77.37839, 38.88768 ], [ -77.37841, 38.88789 ] ], [ [ -77.37773, 38.89304 ], [ -77.37731, 38.89328 ], [ -77.3783, 38.89328 ], [ -77.37773, 38.89304 ] ], [ [ -77.37779, 38.89569 ], [ -77.37836, 38.89588 ], [ -77.37913, 38.8957 ], [ -77.37816, 38.89568 ], [ -77.37779, 38.89569 ] ], [ [ -77.36914, 38.88923 ], [ -77.3705, 38.88823 ], [ -77.37194, 38.88783 ], [ -77.37093, 38.88714 ], [ -77.36857, 38.88936 ], [ -77.36887, 38.89 ], [ -77.36976, 38.88979 ], [ -77.36914, 38.88923 ] ], [ [ -77.37085, 38.88529 ], [ -77.37281, 38.88425 ], [ -77.37206, 38.88387 ], [ -77.37068, 38.88489 ], [ -77.36996, 38.88421 ], [ -77.36916, 38.88456 ], [ -77.37031, 38.88479 ], [ -77.37085, 38.88529 ] ], [ [ -77.37, 38.88413 ], [ -77.37101, 38.88317 ], [ -77.37044, 38.8828 ], [ -77.37, 38.88413 ] ], [ [ -77.37335, 38.88525 ], [ -77.37172, 38.88625 ], [ -77.37255, 38.88676 ], [ -77.37335, 38.88525 ] ], [ [ -77.3694, 38.88208 ], [ -77.36894, 38.88172 ], [ -77.36925, 38.88222 ], [ -77.3694, 38.88208 ] ], [ [ -77.36824, 38.8835 ], [ -77.36853, 38.88403 ], [ -77.3687, 38.88423 ], [ -77.36881, 38.88312 ], [ -77.36824, 38.8835 ] ], [ [ -77.36734, 38.88263 ], [ -77.36737, 38.88266 ], [ -77.36748, 38.88259 ], [ -77.36734, 38.88263 ] ], [ [ -77.36782, 38.87905 ], [ -77.36732, 38.87837 ], [ -77.36777, 38.87906 ], [ -77.36782, 38.87905 ] ], [ [ -77.36927, 38.87673 ], [ -77.36927, 38.87675 ], [ -77.3693, 38.87674 ], [ -77.36927, 38.87673 ] ], [ [ -77.36693, 38.88384 ], [ -77.36688, 38.88372 ], [ -77.36673, 38.88366 ], [ -77.36693, 38.88384 ] ], [ [ -77.36727, 38.88973 ], [ -77.36506, 38.89016 ], [ -77.3653, 38.89086 ], [ -77.36494, 38.89148 ], [ -77.36603, 38.89165 ], [ -77.3666, 38.89078 ], [ -77.36755, 38.89032 ], [ -77.36727, 38.88973 ] ], [ [ -77.3707, 38.90003 ], [ -77.37052, 38.89993 ], [ -77.3708, 38.90032 ], [ -77.3707, 38.90003 ] ], [ [ -77.36996, 38.89894 ], [ -77.37048, 38.89859 ], [ -77.36891, 38.89674 ], [ -77.36996, 38.89894 ] ], [ [ -77.37219, 38.8971 ], [ -77.37163, 38.89742 ], [ -77.37115, 38.89761 ], [ -77.3716, 38.89791 ], [ -77.37261, 38.89747 ], [ -77.37219, 38.8971 ] ] ], [ [ [ -77.39399, 38.88122 ], [ -77.39353, 38.88061 ], [ -77.39424, 38.88008 ], [ -77.39519, 38.88087 ], [ -77.39497, 38.88125 ], [ -77.39399, 38.88122 ] ] ] ] } }
]
}
