{
"type": "FeatureCollection",
"name": "335",
"crs": { "type": "name", "properties": { "name": "urn:ogc:def:crs:OGC:1.3:CRS84" } },
"xy_coordinate_resolution": 1e-05,
"features": [
{ "type": "Feature", "properties": { "variant": "T0", "miles": 0.5 }, "geometry": { "type": "Polygon", "coordinates": [ [ [ -77.40789, 38.94126 ], [ -77.41146, 38.9423 ], [ -77.41083, 38.94373 ], [ -77.41104, 38.9444 ], [ -77.40963, 38.94542 ], [ -77.4088, 38.94543 ], [ -77.40968, 38.94598 ], [ -77.41143, 38.94569 ], [ -77.41153, 38.94645 ], [ -77.41102, 38.94677 ], [ -77.41182, 38.94725 ], [ -77.41182, 38.94767 ], [ -77.40977, 38.9495 ], [ -77.40674, 38.95029 ], [ -77.40809, 38.95103 ], [ -77.40748, 38.95179 ], [ -77.40642, 38.95151 ], [ -77.40645, 38.95221 ], [ -77.4055, 38.9524 ], [ -77.40435, 38.95022 ], [ -77.40283, 38.95122 ], [ -77.40215, 38.95124 ], [ -77.39765, 38.9482 ], [ -77.39751, 38.94746 ], [ -77.39815, 38.94689 ], [ -77.39736, 38.94664 ], [ -77.39734, 38.94558 ], [ -77.3982, 38.94505 ], [ -77.39832, 38.94383 ], [ -77.39879, 38.94363 ], [ -77.39972, 38.94403 ], [ -77.39979, 38.94488 ], [ -77.40155, 38.94498 ], [ -77.40402, 38.9434 ], [ -77.405, 38.94342 ], [ -77.40526, 38.94386 ], [ -77.40473, 38.94276 ], [ -77.40511, 38.94207 ], [ -77.40789, 38.94126 ] ], [ [ -77.40349, 38.94803 ], [ -77.40374, 38.94737 ], [ -77.40518, 38.94688 ], [ -77.40554, 38.94518 ], [ -77.40374, 38.94694 ], [ -77.40255, 38.94728 ], [ -77.40349, 38.94803 ] ] ] } },
{ "type": "Feature", "properties": { "variant": "T0", "miles": 1.0 }, "geometry": { "type": "Polygon", "coordinates": [ [ [ -77.41694, 38.94361 ], [ -77.41787, 38.94432 ], [ -77.41828, 38.94524 ], [ -77.41709, 38.94646 ], [ -77.41791, 38.94683 ], [ -77.41934, 38.9467 ], [ -77.41966, 38.94703 ], [ -77.41979, 38.94815 ], [ -77.41908, 38.94839 ], [ -77.41987, 38.94882 ], [ -77.41987, 38.94924 ], [ -77.41883, 38.95009 ], [ -77.41871, 38.9524 ], [ -77.417, 38.95412 ], [ -77.41651, 38.95558 ], [ -77.41554, 38.95567 ], [ -77.41555, 38.95404 ], [ -77.41423, 38.95306 ], [ -77.41281, 38.95425 ], [ -77.41321, 38.95568 ], [ -77.41266, 38.95683 ], [ -77.41199, 38.95685 ], [ -77.41153, 38.95635 ], [ -77.41093, 38.95691 ], [ -77.41024, 38.9568 ], [ -77.40977, 38.95716 ], [ -77.40618, 38.95585 ], [ -77.40545, 38.95662 ], [ -77.40437, 38.95669 ], [ -77.40418, 38.95594 ], [ -77.4052, 38.95485 ], [ -77.4048, 38.95436 ], [ -77.40208, 38.95505 ], [ -77.40124, 38.9546 ], [ -77.4017, 38.95396 ], [ -77.40053, 38.95337 ], [ -77.3991, 38.9534 ], [ -77.39911, 38.95264 ], [ -77.40031, 38.95205 ], [ -77.39714, 38.95026 ], [ -77.3966, 38.95057 ], [ -77.39596, 38.95041 ], [ -77.39593, 38.94954 ], [ -77.39511, 38.94906 ], [ -77.39512, 38.94864 ], [ -77.39651, 38.9479 ], [ -77.39485, 38.94647 ], [ -77.39359, 38.94612 ], [ -77.39241, 38.94857 ], [ -77.39151, 38.94886 ], [ -77.39114, 38.94815 ], [ -77.39244, 38.94538 ], [ -77.38934, 38.94335 ], [ -77.38993, 38.94274 ], [ -77.39137, 38.94246 ], [ -77.39165, 38.94351 ], [ -77.3928, 38.94423 ], [ -77.39393, 38.9413 ], [ -77.39503, 38.94145 ], [ -77.39608, 38.9421 ], [ -77.39731, 38.94199 ], [ -77.3978, 38.94289 ], [ -77.39868, 38.94282 ], [ -77.39876, 38.94364 ], [ -77.39949, 38.94388 ], [ -77.4, 38.94367 ], [ -77.40029, 38.94212 ], [ -77.40103, 38.94164 ], [ -77.40213, 38.94182 ], [ -77.40288, 38.94274 ], [ -77.40847, 38.9411 ], [ -77.41021, 38.94093 ], [ -77.41048, 38.94039 ], [ -77.41101, 38.94033 ], [ -77.41196, 38.94119 ], [ -77.41311, 38.94142 ], [ -77.41296, 38.93929 ], [ -77.41356, 38.93869 ], [ -77.41433, 38.93916 ], [ -77.41467, 38.94343 ], [ -77.41694, 38.94361 ] ], [ [ -77.40654, 38.9526 ], [ -77.4068, 38.9527 ], [ -77.40662, 38.95242 ], [ -77.40654, 38.9526 ] ], [ [ -77.40912, 38.95149 ], [ -77.41035, 38.95046 ], [ -77.40857, 38.94964 ], [ -77.40674, 38.95029 ], [ -77.40912, 38.95149 ] ], [ [ -77.41302, 38.95236 ], [ -77.41266, 38.95214 ], [ -77.41205, 38.9527 ], [ -77.41207, 38.95328 ], [ -77.41302, 38.95236 ] ], [ [ -77.41211, 38.9484 ], [ -77.41099, 38.94815 ], [ -77.41099, 38.94867 ], [ -77.41021, 38.94904 ], [ -77.4114, 38.94952 ], [ -77.41211, 38.9484 ] ], [ [ -77.41152, 38.94646 ], [ -77.41134, 38.94663 ], [ -77.41156, 38.94666 ], [ -77.41152, 38.94646 ] ], [ [ -77.41124, 38.94341 ], [ -77.41126, 38.94328 ], [ -77.41083, 38.94373 ], [ -77.4113, 38.94386 ], [ -77.41124, 38.94341 ] ], [ [ -77.41182, 38.9428 ], [ -77.41188, 38.94244 ], [ -77.41158, 38.9425 ], [ -77.41129, 38.94317 ], [ -77.41182, 38.9428 ] ], [ [ -77.41693, 38.95208 ], [ -77.41639, 38.9531 ], [ -77.41743, 38.95181 ], [ -77.41424, 38.95008 ], [ -77.41363, 38.95014 ], [ -77.41322, 38.94963 ], [ -77.4125, 38.95052 ], [ -77.41389, 38.95064 ], [ -77.41693, 38.95208 ] ], [ [ -77.41348, 38.9492 ], [ -77.41424, 38.94887 ], [ -77.41388, 38.94899 ], [ -77.41348, 38.9492 ] ], [ [ -77.40999, 38.95414 ], [ -77.40945, 38.95422 ], [ -77.41008, 38.95447 ], [ -77.40999, 38.95414 ] ], [ [ -77.40968, 38.94598 ], [ -77.41076, 38.94505 ], [ -77.41066, 38.94467 ], [ -77.40963, 38.94542 ], [ -77.40897, 38.94529 ], [ -77.40968, 38.94598 ] ], [ [ -77.41151, 38.9549 ], [ -77.41142, 38.95477 ], [ -77.41161, 38.95513 ], [ -77.41151, 38.9549 ] ], [ [ -77.40369, 38.95251 ], [ -77.40339, 38.95191 ], [ -77.40171, 38.95224 ], [ -77.40152, 38.95258 ], [ -77.40281, 38.95305 ], [ -77.40369, 38.95251 ] ], [ [ -77.40523, 38.94681 ], [ -77.40554, 38.94518 ], [ -77.40374, 38.94694 ], [ -77.40255, 38.94728 ], [ -77.40349, 38.94803 ], [ -77.40523, 38.94681 ] ], [ [ -77.40526, 38.94386 ], [ -77.40502, 38.9434 ], [ -77.40519, 38.94381 ], [ -77.40526, 38.94386 ] ], [ [ -77.40487, 38.95191 ], [ -77.4049, 38.95197 ], [ -77.40514, 38.95194 ], [ -77.40487, 38.95191 ] ], [ [ -77.39725, 38.94476 ], [ -77.3969, 38.94506 ], [ -77.39809, 38.94453 ], [ -77.3982, 38.94427 ], [ -77.39725, 38.94476 ] ], [ [ -77.39781, 38.94842 ], [ -77.39786, 38.94836 ], [ -77.39776, 38.94829 ], [ -77.39781, 38.94842 ] ] ] } },
{ "type": "Feature", "properties": { "variant": "T0", "miles": 1.5 }, "geometry": { "type": "Polygon", "coordinates": [ [ [ -77.4227, 38.94003 ], [ -77.42271, 38.94105 ], [ -77.42199, 38.94177 ], [ -77.42082, 38.94191 ], [ -77.41933, 38.94137 ], [ -77.41828, 38.9396 ], [ -77.41677, 38.9396 ], [ -77.41677, 38.93987 ], [ -77.41799, 38.94003 ], [ -77.41819, 38.94154 ], [ -77.42127, 38.94298 ], [ -77.4222, 38.94265 ], [ -77.42392, 38.94327 ], [ -77.42548, 38.94274 ], [ -77.4257, 38.94216 ], [ -77.42666, 38.94229 ], [ -77.42711, 38.94301 ], [ -77.42685, 38.94337 ], [ -77.42405, 38.94457 ], [ -77.42861, 38.94731 ], [ -77.42804, 38.94793 ], [ -77.42637, 38.94719 ], [ -77.42595, 38.94781 ], [ -77.42606, 38.94879 ], [ -77.42479, 38.94985 ], [ -77.42507, 38.95047 ], [ -77.42674, 38.95149 ], [ -77.42713, 38.95308 ], [ -77.42844, 38.95339 ], [ -77.4283, 38.95414 ], [ -77.42621, 38.95406 ], [ -77.42444, 38.95331 ], [ -77.42351, 38.95484 ], [ -77.41971, 38.95425 ], [ -77.41805, 38.95587 ], [ -77.42125, 38.9581 ], [ -77.42395, 38.95924 ], [ -77.42429, 38.95955 ], [ -77.42384, 38.96023 ], [ -77.42115, 38.95927 ], [ -77.4209, 38.95973 ], [ -77.41985, 38.95968 ], [ -77.41916, 38.96075 ], [ -77.41863, 38.96082 ], [ -77.41812, 38.96017 ], [ -77.41842, 38.95913 ], [ -77.41736, 38.9607 ], [ -77.41646, 38.96101 ], [ -77.41212, 38.95929 ], [ -77.41128, 38.95793 ], [ -77.41143, 38.95641 ], [ -77.41101, 38.95713 ], [ -77.41008, 38.95736 ], [ -77.40618, 38.95585 ], [ -77.40296, 38.95915 ], [ -77.40664, 38.96143 ], [ -77.40664, 38.96231 ], [ -77.40618, 38.96252 ], [ -77.4049, 38.96196 ], [ -77.4038, 38.96288 ], [ -77.40283, 38.96234 ], [ -77.40205, 38.96245 ], [ -77.40178, 38.96172 ], [ -77.40276, 38.96059 ], [ -77.40204, 38.96007 ], [ -77.39984, 38.96308 ], [ -77.3986, 38.96343 ], [ -77.39838, 38.96267 ], [ -77.39913, 38.96121 ], [ -77.4008, 38.95933 ], [ -77.39942, 38.95852 ], [ -77.39866, 38.95891 ], [ -77.39728, 38.9576 ], [ -77.39729, 38.95718 ], [ -77.39817, 38.95691 ], [ -77.39765, 38.95615 ], [ -77.39789, 38.95578 ], [ -77.39868, 38.95545 ], [ -77.40006, 38.95565 ], [ -77.40318, 38.95695 ], [ -77.4052, 38.95485 ], [ -77.4048, 38.95436 ], [ -77.40287, 38.95501 ], [ -77.40156, 38.95493 ], [ -77.40124, 38.9546 ], [ -77.4017, 38.95396 ], [ -77.40053, 38.95337 ], [ -77.3991, 38.9534 ], [ -77.3989, 38.95302 ], [ -77.40031, 38.95205 ], [ -77.39714, 38.95026 ], [ -77.39649, 38.95093 ], [ -77.39679, 38.9519 ], [ -77.39548, 38.95259 ], [ -77.39502, 38.95335 ], [ -77.39391, 38.95339 ], [ -77.39367, 38.95291 ], [ -77.39209, 38.95307 ], [ -77.38978, 38.9526 ], [ -77.38883, 38.95521 ], [ -77.38798, 38.95535 ], [ -77.38746, 38.95475 ], [ -77.38834, 38.95187 ], [ -77.39072, 38.94856 ], [ -77.3877, 38.94864 ], [ -77.38782, 38.94913 ], [ -77.38704, 38.94978 ], [ -77.38579, 38.94994 ], [ -77.38378, 38.95096 ], [ -77.38289, 38.95055 ], [ -77.38296, 38.95005 ], [ -77.38444, 38.94932 ], [ -77.38424, 38.94856 ], [ -77.38541, 38.9483 ], [ -77.38507, 38.94777 ], [ -77.38537, 38.94743 ], [ -77.38677, 38.94675 ], [ -77.38553, 38.94651 ], [ -77.38403, 38.94554 ], [ -77.3826, 38.94554 ], [ -77.38223, 38.94524 ], [ -77.38261, 38.94454 ], [ -77.38373, 38.94435 ], [ -77.38408, 38.94328 ], [ -77.38361, 38.943 ], [ -77.38375, 38.94146 ], [ -77.38464, 38.94115 ], [ -77.3855, 38.94175 ], [ -77.3854, 38.94126 ], [ -77.38248, 38.93918 ], [ -77.3828, 38.93836 ], [ -77.38374, 38.93849 ], [ -77.3862, 38.94021 ], [ -77.38812, 38.93882 ], [ -77.38859, 38.93901 ], [ -77.38852, 38.93975 ], [ -77.38985, 38.93981 ], [ -77.39075, 38.93939 ], [ -77.39156, 38.93987 ], [ -77.39161, 38.93918 ], [ -77.39401, 38.93905 ], [ -77.39468, 38.93737 ], [ -77.39411, 38.93706 ], [ -77.39304, 38.93765 ], [ -77.39236, 38.9371 ], [ -77.39257, 38.93672 ], [ -77.39378, 38.93581 ], [ -77.39573, 38.93666 ], [ -77.39619, 38.93639 ], [ -77.39589, 38.93532 ], [ -77.39662, 38.93481 ], [ -77.39709, 38.93499 ], [ -77.3978, 38.93661 ], [ -77.39648, 38.93756 ], [ -77.39866, 38.93964 ], [ -77.39802, 38.94022 ], [ -77.39752, 38.94009 ], [ -77.3955, 38.9384 ], [ -77.3954, 38.93907 ], [ -77.39663, 38.93953 ], [ -77.39725, 38.94047 ], [ -77.40209, 38.94124 ], [ -77.40373, 38.94249 ], [ -77.40847, 38.9411 ], [ -77.41021, 38.94093 ], [ -77.41048, 38.94039 ], [ -77.41101, 38.94033 ], [ -77.41196, 38.94119 ], [ -77.41311, 38.94142 ], [ -77.41239, 38.93748 ], [ -77.40981, 38.93658 ], [ -77.40574, 38.93432 ], [ -77.40671, 38.93335 ], [ -77.40794, 38.93439 ], [ -77.40892, 38.93364 ], [ -77.41014, 38.93406 ], [ -77.41131, 38.93297 ], [ -77.41209, 38.93348 ], [ -77.41145, 38.93452 ], [ -77.41277, 38.93432 ], [ -77.41396, 38.93081 ], [ -77.41481, 38.93043 ], [ -77.4153, 38.93109 ], [ -77.41455, 38.93393 ], [ -77.41758, 38.93412 ], [ -77.41821, 38.9347 ], [ -77.41812, 38.93552 ], [ -77.42022, 38.93566 ], [ -77.4209, 38.93611 ], [ -77.42041, 38.93677 ], [ -77.418, 38.93659 ], [ -77.41752, 38.93768 ], [ -77.41781, 38.93852 ], [ -77.42036, 38.93851 ], [ -77.4205, 38.93769 ], [ -77.42138, 38.93775 ], [ -77.4227, 38.94003 ] ], [ [ -77.40912, 38.95149 ], [ -77.41035, 38.95046 ], [ -77.40857, 38.94964 ], [ -77.40674, 38.95029 ], [ -77.40912, 38.95149 ] ], [ [ -77.40374, 38.94737 ], [ -77.40518, 38.94688 ], [ -77.40554, 38.94518 ], [ -77.40374, 38.94694 ], [ -77.40255, 38.94728 ], [ -77.40349, 38.94803 ], [ -77.40374, 38.94737 ] ], [ [ -77.40502, 38.9434 ], [ -77.40497, 38.94341 ], [ -77.40508, 38.944 ], [ -77.40502, 38.9434 ] ], [ [ -77.41739, 38.95829 ], [ -77.41616, 38.95973 ], [ -77.41636, 38.9598 ], [ -77.41739, 38.95829 ] ], [ [ -77.41617, 38.95728 ], [ -77.41516, 38.95678 ], [ -77.414, 38.95713 ], [ -77.41282, 38.95702 ], [ -77.41288, 38.95795 ], [ -77.4149, 38.95929 ], [ -77.41718, 38.95671 ], [ -77.41617, 38.95728 ] ], [ [ -77.41825, 38.95319 ], [ -77.41815, 38.95313 ], [ -77.417, 38.95412 ], [ -77.41703, 38.9544 ], [ -77.41825, 38.95319 ] ], [ [ -77.41715, 38.95238 ], [ -77.41696, 38.95218 ], [ -77.41639, 38.9531 ], [ -77.41715, 38.95238 ] ], [ [ -77.41296, 38.94999 ], [ -77.4125, 38.95052 ], [ -77.41389, 38.95064 ], [ -77.41611, 38.95156 ], [ -77.41296, 38.94999 ] ], [ [ -77.41416, 38.94891 ], [ -77.41424, 38.94887 ], [ -77.41362, 38.94891 ], [ -77.41356, 38.94914 ], [ -77.41416, 38.94891 ] ], [ [ -77.41893, 38.95087 ], [ -77.41861, 38.95113 ], [ -77.41879, 38.95214 ], [ -77.4198, 38.95268 ], [ -77.42055, 38.95261 ], [ -77.42101, 38.95194 ], [ -77.41893, 38.95087 ] ], [ [ -77.42091, 38.94958 ], [ -77.41931, 38.94978 ], [ -77.42437, 38.95203 ], [ -77.42461, 38.9517 ], [ -77.42091, 38.94958 ] ], [ [ -77.41828, 38.94524 ], [ -77.41709, 38.94646 ], [ -77.41778, 38.94677 ], [ -77.41874, 38.94644 ], [ -77.42051, 38.94725 ], [ -77.42206, 38.94473 ], [ -77.41752, 38.94249 ], [ -77.41478, 38.94259 ], [ -77.41467, 38.94343 ], [ -77.41694, 38.94361 ], [ -77.41828, 38.94524 ] ], [ [ -77.41544, 38.94095 ], [ -77.41465, 38.94094 ], [ -77.41474, 38.94151 ], [ -77.41537, 38.94143 ], [ -77.41544, 38.94095 ] ], [ [ -77.41441, 38.93968 ], [ -77.41445, 38.93993 ], [ -77.41539, 38.93987 ], [ -77.41539, 38.9396 ], [ -77.41441, 38.93968 ] ], [ [ -77.41547, 38.93786 ], [ -77.41401, 38.93774 ], [ -77.4142, 38.93861 ], [ -77.41642, 38.93852 ], [ -77.41547, 38.93786 ] ], [ [ -77.41677, 38.93515 ], [ -77.41419, 38.93499 ], [ -77.41403, 38.9361 ], [ -77.41486, 38.9363 ], [ -77.41502, 38.93671 ], [ -77.4164, 38.93704 ], [ -77.41677, 38.93515 ] ], [ [ -77.42099, 38.93952 ], [ -77.41966, 38.9396 ], [ -77.42003, 38.94042 ], [ -77.42129, 38.94084 ], [ -77.42067, 38.94059 ], [ -77.42055, 38.93983 ], [ -77.42099, 38.93952 ] ], [ [ -77.42275, 38.94611 ], [ -77.42311, 38.94683 ], [ -77.42377, 38.94666 ], [ -77.42348, 38.94558 ], [ -77.42275, 38.94611 ] ], [ [ -77.41841, 38.95754 ], [ -77.4184, 38.95755 ], [ -77.41848, 38.95762 ], [ -77.41841, 38.95754 ] ], [ [ -77.40999, 38.95414 ], [ -77.40945, 38.95422 ], [ -77.41008, 38.95447 ], [ -77.40999, 38.95414 ] ], [ [ -77.41211, 38.9484 ], [ -77.41099, 38.94815 ], [ -77.41099, 38.94867 ], [ -77.41021, 38.94904 ], [ -77.41121, 38.94961 ], [ -77.41211, 38.9484 ] ], [ [ -77.41076, 38.94505 ], [ -77.41066, 38.94467 ], [ -77.40963, 38.94542 ], [ -77.4088, 38.94543 ], [ -77.40968, 38.94598 ], [ -77.41076, 38.94505 ] ], [ [ -77.41555, 38.95404 ], [ -77.41486, 38.95335 ], [ -77.41387, 38.95321 ], [ -77.41281, 38.95425 ], [ -77.41316, 38.95598 ], [ -77.41431, 38.95592 ], [ -77.41556, 38.95473 ], [ -77.41555, 38.95404 ] ], [ [ -77.41083, 38.94373 ], [ -77.4111, 38.94404 ], [ -77.41126, 38.94328 ], [ -77.41083, 38.94373 ] ], [ [ -77.41129, 38.94317 ], [ -77.41188, 38.94244 ], [ -77.41158, 38.9425 ], [ -77.41129, 38.94317 ] ], [ [ -77.41205, 38.9527 ], [ -77.41194, 38.95339 ], [ -77.41302, 38.95236 ], [ -77.41259, 38.95224 ], [ -77.41205, 38.9527 ] ], [ [ -77.41142, 38.94667 ], [ -77.41161, 38.94674 ], [ -77.41152, 38.94646 ], [ -77.41142, 38.94667 ] ], [ [ -77.41138, 38.955 ], [ -77.41161, 38.95513 ], [ -77.41155, 38.95499 ], [ -77.41138, 38.955 ] ], [ [ -77.40921, 38.93488 ], [ -77.40912, 38.93497 ], [ -77.41037, 38.93558 ], [ -77.40921, 38.93488 ] ], [ [ -77.41178, 38.93559 ], [ -77.41161, 38.93609 ], [ -77.41236, 38.93632 ], [ -77.41248, 38.93544 ], [ -77.41178, 38.93559 ] ], [ [ -77.39725, 38.94476 ], [ -77.3969, 38.94506 ], [ -77.39809, 38.94453 ], [ -77.39821, 38.9443 ], [ -77.39725, 38.94476 ] ], [ [ -77.3959, 38.94075 ], [ -77.39546, 38.9402 ], [ -77.39522, 38.94153 ], [ -77.3959, 38.94075 ] ], [ [ -77.39321, 38.94012 ], [ -77.39219, 38.94011 ], [ -77.39325, 38.94048 ], [ -77.39378, 38.94111 ], [ -77.39408, 38.94024 ], [ -77.39321, 38.94012 ] ], [ [ -77.40369, 38.95251 ], [ -77.40339, 38.95191 ], [ -77.40171, 38.95224 ], [ -77.40152, 38.95258 ], [ -77.40284, 38.95302 ], [ -77.40369, 38.95251 ] ], [ [ -77.4068, 38.9527 ], [ -77.40662, 38.95242 ], [ -77.40654, 38.9526 ], [ -77.4068, 38.9527 ] ], [ [ -77.40487, 38.95191 ], [ -77.4049, 38.95197 ], [ -77.40514, 38.95194 ], [ -77.40487, 38.95191 ] ], [ [ -77.40166, 38.95789 ], [ -77.40197, 38.95761 ], [ -77.39994, 38.95688 ], [ -77.40166, 38.95789 ] ], [ [ -77.4, 38.94367 ], [ -77.40024, 38.9422 ], [ -77.39952, 38.94204 ], [ -77.39888, 38.94261 ], [ -77.39781, 38.94237 ], [ -77.3978, 38.94289 ], [ -77.39868, 38.94282 ], [ -77.39876, 38.94364 ], [ -77.4, 38.94367 ] ], [ [ -77.39682, 38.94181 ], [ -77.39666, 38.94196 ], [ -77.39702, 38.94195 ], [ -77.39682, 38.94181 ] ], [ [ -77.39327, 38.94935 ], [ -77.39321, 38.94935 ], [ -77.39327, 38.94938 ], [ -77.39327, 38.94935 ] ], [ [ -77.39206, 38.94919 ], [ -77.39249, 38.94925 ], [ -77.39237, 38.94922 ], [ -77.39206, 38.94919 ] ], [ [ -77.3918, 38.945 ], [ -77.39085, 38.94439 ], [ -77.38981, 38.94533 ], [ -77.39078, 38.94555 ], [ -77.3912, 38.94644 ], [ -77.3918, 38.945 ] ], [ [ -77.39002, 38.9409 ], [ -77.38997, 38.9409 ], [ -77.39002, 38.94092 ], [ -77.39002, 38.9409 ] ], [ [ -77.39576, 38.94744 ], [ -77.3953, 38.94715 ], [ -77.39537, 38.94766 ], [ -77.39576, 38.94744 ] ], [ [ -77.39324, 38.94274 ], [ -77.39325, 38.9427 ], [ -77.39322, 38.94272 ], [ -77.39324, 38.94274 ] ], [ [ -77.3914, 38.94199 ], [ -77.3914, 38.94201 ], [ -77.39146, 38.94225 ], [ -77.392, 38.94208 ], [ -77.3914, 38.94199 ] ], [ [ -77.39221, 38.94387 ], [ -77.39226, 38.94354 ], [ -77.39171, 38.94332 ], [ -77.39221, 38.94387 ] ], [ [ -77.39025, 38.95158 ], [ -77.39043, 38.95164 ], [ -77.39084, 38.95125 ], [ -77.39025, 38.95158 ] ], [ [ -77.38741, 38.94404 ], [ -77.38639, 38.94338 ], [ -77.38589, 38.94345 ], [ -77.38537, 38.94368 ], [ -77.38502, 38.94474 ], [ -77.38627, 38.9456 ], [ -77.38723, 38.94558 ], [ -77.38688, 38.94471 ], [ -77.38784, 38.94459 ], [ -77.38848, 38.94504 ], [ -77.3884, 38.94417 ], [ -77.38968, 38.94374 ], [ -77.38906, 38.94356 ], [ -77.38741, 38.94404 ] ], [ [ -77.38832, 38.93994 ], [ -77.3878, 38.94037 ], [ -77.38838, 38.94142 ], [ -77.38882, 38.94155 ], [ -77.38903, 38.9408 ], [ -77.38832, 38.93994 ] ], [ [ -77.38847, 38.94655 ], [ -77.38857, 38.9466 ], [ -77.38853, 38.94652 ], [ -77.38847, 38.94655 ] ] ] } },
{ "type": "Feature", "properties": { "variant": "T2s", "miles": 0.5 }, "geometry": { "type": "Polygon", "coordinates": [ [ [ -77.40799, 38.94135 ], [ -77.41146, 38.9423 ], [ -77.41083, 38.94373 ], [ -77.41104, 38.9444 ], [ -77.40963, 38.94542 ], [ -77.4088, 38.94543 ], [ -77.40968, 38.94598 ], [ -77.41143, 38.94569 ], [ -77.41153, 38.94645 ], [ -77.41102, 38.94677 ], [ -77.41182, 38.94725 ], [ -77.41182, 38.94767 ], [ -77.40977, 38.9495 ], [ -77.40674, 38.95029 ], [ -77.40809, 38.95103 ], [ -77.40756, 38.95167 ], [ -77.40522, 38.9511 ], [ -77.40435, 38.95022 ], [ -77.40283, 38.95122 ], [ -77.40215, 38.95124 ], [ -77.39765, 38.9482 ], [ -77.39751, 38.94746 ], [ -77.39815, 38.94689 ], [ -77.39736, 38.94664 ], [ -77.39734, 38.94558 ], [ -77.39844, 38.94453 ], [ -77.39934, 38.94447 ], [ -77.4006, 38.94507 ], [ -77.40155, 38.94498 ], [ -77.40402, 38.9434 ], [ -77.405, 38.94342 ], [ -77.40526, 38.94386 ], [ -77.40473, 38.94276 ], [ -77.40511, 38.94207 ], [ -77.40799, 38.94135 ] ], [ [ -77.40374, 38.94737 ], [ -77.40523, 38.94681 ], [ -77.40554, 38.94518 ], [ -77.40374, 38.94694 ], [ -77.40255, 38.94728 ], [ -77.40349, 38.94803 ], [ -77.40374, 38.94737 ] ] ] } },
{ "type": "Feature", "properties": { "variant": "T2s", "miles": 1.0 }, "geometry": { "type": "Polygon", "coordinates": [ [ [ -77.41433, 38.93916 ], [ -77.41467, 38.94343 ], [ -77.41631, 38.94351 ], [ -77.41661, 38.94397 ], [ -77.41553, 38.94532 ], [ -77.41479, 38.94532 ], [ -77.41448, 38.94451 ], [ -77.41345, 38.94867 ], [ -77.4123, 38.95038 ], [ -77.41444, 38.95147 ], [ -77.41473, 38.95231 ], [ -77.41281, 38.95425 ], [ -77.41321, 38.95568 ], [ -77.41264, 38.95684 ], [ -77.41211, 38.95688 ], [ -77.41166, 38.95626 ], [ -77.40964, 38.95654 ], [ -77.40935, 38.95583 ], [ -77.40854, 38.95548 ], [ -77.40587, 38.95574 ], [ -77.40552, 38.95543 ], [ -77.40578, 38.95486 ], [ -77.40493, 38.95473 ], [ -77.4048, 38.95433 ], [ -77.40519, 38.95342 ], [ -77.40404, 38.95385 ], [ -77.4033, 38.95328 ], [ -77.40369, 38.95251 ], [ -77.40332, 38.95173 ], [ -77.40173, 38.95206 ], [ -77.40021, 38.95184 ], [ -77.39655, 38.94967 ], [ -77.39581, 38.94848 ], [ -77.39651, 38.9479 ], [ -77.39518, 38.94704 ], [ -77.39483, 38.94634 ], [ -77.39363, 38.94601 ], [ -77.39241, 38.94857 ], [ -77.39151, 38.94886 ], [ -77.39114, 38.94815 ], [ -77.39244, 38.94538 ], [ -77.38934, 38.94335 ], [ -77.38993, 38.94274 ], [ -77.39044, 38.94284 ], [ -77.3928, 38.94423 ], [ -77.39326, 38.94272 ], [ -77.39409, 38.94231 ], [ -77.3946, 38.94296 ], [ -77.39401, 38.94496 ], [ -77.39494, 38.94525 ], [ -77.39492, 38.94434 ], [ -77.39538, 38.94414 ], [ -77.39636, 38.94454 ], [ -77.3965, 38.94519 ], [ -77.39809, 38.94453 ], [ -77.39832, 38.94383 ], [ -77.4, 38.94367 ], [ -77.40022, 38.94223 ], [ -77.40103, 38.94164 ], [ -77.40213, 38.94182 ], [ -77.40288, 38.94274 ], [ -77.40847, 38.9411 ], [ -77.41021, 38.94093 ], [ -77.41048, 38.94039 ], [ -77.41101, 38.94033 ], [ -77.41196, 38.94119 ], [ -77.41311, 38.94142 ], [ -77.41296, 38.93929 ], [ -77.41356, 38.93869 ], [ -77.41433, 38.93916 ] ], [ [ -77.40707, 38.95424 ], [ -77.4065, 38.95382 ], [ -77.40597, 38.95474 ], [ -77.40657, 38.95436 ], [ -77.40707, 38.95424 ] ], [ [ -77.40662, 38.95242 ], [ -77.40654, 38.9526 ], [ -77.4068, 38.9527 ], [ -77.40662, 38.95242 ] ], [ [ -77.40674, 38.95029 ], [ -77.40912, 38.95149 ], [ -77.41035, 38.95046 ], [ -77.40857, 38.94964 ], [ -77.40674, 38.95029 ] ], [ [ -77.40374, 38.94737 ], [ -77.40523, 38.94681 ], [ -77.40554, 38.94518 ], [ -77.40374, 38.94694 ], [ -77.40255, 38.94728 ], [ -77.40349, 38.94803 ], [ -77.40374, 38.94737 ] ], [ [ -77.40508, 38.944 ], [ -77.40502, 38.9434 ], [ -77.40497, 38.94341 ], [ -77.40508, 38.944 ] ], [ [ -77.41179, 38.95521 ], [ -77.41163, 38.95481 ], [ -77.41145, 38.95464 ], [ -77.41138, 38.955 ], [ -77.41179, 38.95521 ] ], [ [ -77.41207, 38.95328 ], [ -77.41302, 38.95236 ], [ -77.41266, 38.95214 ], [ -77.41205, 38.9527 ], [ -77.41207, 38.95328 ] ], [ [ -77.40897, 38.94529 ], [ -77.40968, 38.94598 ], [ -77.41076, 38.94505 ], [ -77.41066, 38.94467 ], [ -77.40963, 38.94542 ], [ -77.40897, 38.94529 ] ], [ [ -77.41162, 38.95136 ], [ -77.41037, 38.95233 ], [ -77.41065, 38.95252 ], [ -77.41162, 38.95136 ] ], [ [ -77.41127, 38.94965 ], [ -77.41211, 38.9484 ], [ -77.41099, 38.94815 ], [ -77.41099, 38.94867 ], [ -77.41021, 38.94904 ], [ -77.41127, 38.94965 ] ], [ [ -77.4113, 38.94386 ], [ -77.41124, 38.94341 ], [ -77.41126, 38.94328 ], [ -77.41083, 38.94373 ], [ -77.4113, 38.94386 ] ], [ [ -77.41129, 38.94317 ], [ -77.41182, 38.9428 ], [ -77.41188, 38.94244 ], [ -77.41158, 38.9425 ], [ -77.41129, 38.94317 ] ], [ [ -77.41134, 38.94663 ], [ -77.41156, 38.94666 ], [ -77.41152, 38.94646 ], [ -77.41134, 38.94663 ] ], [ [ -77.41008, 38.95447 ], [ -77.40999, 38.95414 ], [ -77.40945, 38.95422 ], [ -77.41008, 38.95447 ] ], [ [ -77.40514, 38.95194 ], [ -77.40487, 38.95191 ], [ -77.4049, 38.95197 ], [ -77.40514, 38.95194 ] ], [ [ -77.39781, 38.94842 ], [ -77.39776, 38.94829 ], [ -77.39755, 38.94827 ], [ -77.39781, 38.94842 ] ], [ [ -77.39723, 38.94818 ], [ -77.39723, 38.94819 ], [ -77.39724, 38.94819 ], [ -77.39723, 38.94818 ] ] ] } },
{ "type": "Feature", "properties": { "variant": "T2s", "miles": 1.5 }, "geometry": { "type": "Polygon", "coordinates": [ [ [ -77.41797, 38.93684 ], [ -77.41752, 38.93768 ], [ -77.41781, 38.93852 ], [ -77.42036, 38.93851 ], [ -77.4205, 38.93769 ], [ -77.42138, 38.93775 ], [ -77.42258, 38.93955 ], [ -77.42273, 38.941 ], [ -77.42199, 38.94177 ], [ -77.42075, 38.9419 ], [ -77.41893, 38.94108 ], [ -77.41828, 38.9396 ], [ -77.41677, 38.9396 ], [ -77.41677, 38.93987 ], [ -77.41799, 38.94003 ], [ -77.41819, 38.94154 ], [ -77.42119, 38.94294 ], [ -77.42214, 38.94264 ], [ -77.42361, 38.94301 ], [ -77.42409, 38.94437 ], [ -77.42378, 38.94509 ], [ -77.42285, 38.94522 ], [ -77.4176, 38.94252 ], [ -77.41478, 38.94259 ], [ -77.41467, 38.94343 ], [ -77.41694, 38.94361 ], [ -77.41787, 38.94432 ], [ -77.41828, 38.94524 ], [ -77.41709, 38.94646 ], [ -77.41778, 38.94677 ], [ -77.41874, 38.94644 ], [ -77.42074, 38.94749 ], [ -77.42036, 38.94873 ], [ -77.41883, 38.95009 ], [ -77.41862, 38.95259 ], [ -77.417, 38.95412 ], [ -77.41703, 38.9544 ], [ -77.41832, 38.95332 ], [ -77.41936, 38.95377 ], [ -77.41945, 38.95453 ], [ -77.41805, 38.95587 ], [ -77.42019, 38.9576 ], [ -77.41951, 38.95815 ], [ -77.41841, 38.95754 ], [ -77.41685, 38.95867 ], [ -77.41616, 38.95973 ], [ -77.41735, 38.96029 ], [ -77.41699, 38.961 ], [ -77.41218, 38.95935 ], [ -77.41129, 38.95794 ], [ -77.41143, 38.95641 ], [ -77.41101, 38.95713 ], [ -77.41008, 38.95736 ], [ -77.40618, 38.95585 ], [ -77.40296, 38.95915 ], [ -77.40532, 38.96064 ], [ -77.40531, 38.96153 ], [ -77.40301, 38.96163 ], [ -77.40297, 38.96081 ], [ -77.40204, 38.96007 ], [ -77.40052, 38.96184 ], [ -77.39939, 38.96195 ], [ -77.39913, 38.96121 ], [ -77.4008, 38.95933 ], [ -77.39923, 38.95836 ], [ -77.39832, 38.95859 ], [ -77.39783, 38.95793 ], [ -77.39968, 38.95701 ], [ -77.40177, 38.95835 ], [ -77.4052, 38.95485 ], [ -77.4048, 38.95436 ], [ -77.40287, 38.95501 ], [ -77.40156, 38.95493 ], [ -77.40124, 38.9546 ], [ -77.4017, 38.95396 ], [ -77.40053, 38.95337 ], [ -77.3991, 38.9534 ], [ -77.3989, 38.95302 ], [ -77.40031, 38.95205 ], [ -77.39714, 38.95026 ], [ -77.39649, 38.95093 ], [ -77.39683, 38.95175 ], [ -77.39624, 38.95235 ], [ -77.39244, 38.95308 ], [ -77.38978, 38.9526 ], [ -77.38883, 38.95521 ], [ -77.38835, 38.95539 ], [ -77.38764, 38.95506 ], [ -77.38852, 38.95148 ], [ -77.39072, 38.94856 ], [ -77.38754, 38.94867 ], [ -77.38755, 38.94949 ], [ -77.38597, 38.94996 ], [ -77.38414, 38.94897 ], [ -77.38424, 38.94856 ], [ -77.38541, 38.9483 ], [ -77.38507, 38.94777 ], [ -77.38537, 38.94743 ], [ -77.38677, 38.94675 ], [ -77.38553, 38.94651 ], [ -77.38403, 38.94554 ], [ -77.3826, 38.94554 ], [ -77.38223, 38.94524 ], [ -77.38261, 38.94454 ], [ -77.38373, 38.94435 ], [ -77.38408, 38.94328 ], [ -77.38361, 38.943 ], [ -77.38375, 38.94146 ], [ -77.38464, 38.94115 ], [ -77.38563, 38.9418 ], [ -77.38597, 38.9414 ], [ -77.38296, 38.93951 ], [ -77.3825, 38.9387 ], [ -77.3828, 38.93836 ], [ -77.38376, 38.93851 ], [ -77.3862, 38.94021 ], [ -77.38812, 38.93882 ], [ -77.38859, 38.93901 ], [ -77.38852, 38.93975 ], [ -77.38985, 38.93981 ], [ -77.39075, 38.93939 ], [ -77.39125, 38.93993 ], [ -77.39161, 38.93918 ], [ -77.39401, 38.93905 ], [ -77.39468, 38.93737 ], [ -77.39357, 38.93679 ], [ -77.39335, 38.93605 ], [ -77.3943, 38.93587 ], [ -77.39573, 38.93666 ], [ -77.39723, 38.936 ], [ -77.3978, 38.93661 ], [ -77.39648, 38.93756 ], [ -77.3975, 38.93864 ], [ -77.39748, 38.9394 ], [ -77.3965, 38.93938 ], [ -77.3955, 38.9384 ], [ -77.3954, 38.93907 ], [ -77.39663, 38.93953 ], [ -77.39725, 38.94047 ], [ -77.40128, 38.94118 ], [ -77.40288, 38.94274 ], [ -77.40847, 38.9411 ], [ -77.41021, 38.94093 ], [ -77.41048, 38.94039 ], [ -77.41101, 38.94033 ], [ -77.41196, 38.94119 ], [ -77.41311, 38.94142 ], [ -77.41239, 38.93748 ], [ -77.41029, 38.93678 ], [ -77.40997, 38.93645 ], [ -77.41041, 38.93543 ], [ -77.4087, 38.93463 ], [ -77.40848, 38.93388 ], [ -77.40892, 38.93364 ], [ -77.41014, 38.93406 ], [ -77.41131, 38.93297 ], [ -77.41209, 38.93348 ], [ -77.41145, 38.93452 ], [ -77.41277, 38.93432 ], [ -77.41354, 38.93201 ], [ -77.41439, 38.93163 ], [ -77.4151, 38.93234 ], [ -77.41455, 38.93393 ], [ -77.41805, 38.93431 ], [ -77.41797, 38.93684 ] ], [ [ -77.40511, 38.95186 ], [ -77.40487, 38.95191 ], [ -77.4049, 38.95197 ], [ -77.40511, 38.95186 ] ], [ [ -77.40523, 38.94681 ], [ -77.40554, 38.94518 ], [ -77.40374, 38.94694 ], [ -77.40255, 38.94728 ], [ -77.40349, 38.94803 ], [ -77.40374, 38.94737 ], [ -77.40523, 38.94681 ] ], [ [ -77.40502, 38.9434 ], [ -77.40497, 38.94341 ], [ -77.40508, 38.944 ], [ -77.40502, 38.9434 ] ], [ [ -77.41583, 38.95793 ], [ -77.41737, 38.95683 ], [ -77.41718, 38.95671 ], [ -77.41617, 38.95728 ], [ -77.41516, 38.95678 ], [ -77.414, 38.95713 ], [ -77.41282, 38.95702 ], [ -77.41316, 38.95836 ], [ -77.4149, 38.95929 ], [ -77.41583, 38.95793 ] ], [ [ -77.41553, 38.95401 ], [ -77.41423, 38.95306 ], [ -77.41281, 38.95425 ], [ -77.41316, 38.95598 ], [ -77.41431, 38.95592 ], [ -77.41547, 38.95486 ], [ -77.41553, 38.95401 ] ], [ [ -77.41693, 38.95208 ], [ -77.41639, 38.9531 ], [ -77.41743, 38.95195 ], [ -77.41552, 38.95067 ], [ -77.41363, 38.95014 ], [ -77.41322, 38.94963 ], [ -77.4125, 38.95052 ], [ -77.41487, 38.9511 ], [ -77.41693, 38.95208 ] ], [ [ -77.41362, 38.94891 ], [ -77.41348, 38.9492 ], [ -77.41356, 38.94914 ], [ -77.41416, 38.94891 ], [ -77.41362, 38.94891 ] ], [ [ -77.41066, 38.94467 ], [ -77.40963, 38.94542 ], [ -77.4088, 38.94543 ], [ -77.40968, 38.94598 ], [ -77.41066, 38.94467 ] ], [ [ -77.41124, 38.94341 ], [ -77.41126, 38.94328 ], [ -77.41083, 38.94373 ], [ -77.41129, 38.94389 ], [ -77.41124, 38.94341 ] ], [ [ -77.41642, 38.93852 ], [ -77.41642, 38.93835 ], [ -77.4154, 38.93784 ], [ -77.41401, 38.93774 ], [ -77.4142, 38.93861 ], [ -77.41642, 38.93852 ] ], [ [ -77.4164, 38.93704 ], [ -77.41677, 38.93515 ], [ -77.41419, 38.93499 ], [ -77.41403, 38.9361 ], [ -77.41486, 38.9363 ], [ -77.41503, 38.9367 ], [ -77.4164, 38.93704 ] ], [ [ -77.41544, 38.94095 ], [ -77.41465, 38.94094 ], [ -77.41474, 38.94151 ], [ -77.4154, 38.94142 ], [ -77.41544, 38.94095 ] ], [ [ -77.41441, 38.93968 ], [ -77.41445, 38.93993 ], [ -77.41539, 38.93987 ], [ -77.41537, 38.9396 ], [ -77.41441, 38.93968 ] ], [ [ -77.41966, 38.9396 ], [ -77.41994, 38.94033 ], [ -77.42129, 38.94084 ], [ -77.42041, 38.94023 ], [ -77.42099, 38.93952 ], [ -77.41966, 38.9396 ] ], [ [ -77.41182, 38.9428 ], [ -77.41188, 38.94244 ], [ -77.41158, 38.9425 ], [ -77.41131, 38.94309 ], [ -77.41182, 38.9428 ] ], [ [ -77.41178, 38.93559 ], [ -77.41161, 38.93609 ], [ -77.41236, 38.93632 ], [ -77.41237, 38.93547 ], [ -77.41178, 38.93559 ] ], [ [ -77.41155, 38.95499 ], [ -77.41142, 38.95477 ], [ -77.41138, 38.955 ], [ -77.41155, 38.95499 ] ], [ [ -77.40912, 38.95149 ], [ -77.41035, 38.95046 ], [ -77.40857, 38.94964 ], [ -77.40674, 38.95029 ], [ -77.40912, 38.95149 ] ], [ [ -77.41211, 38.9484 ], [ -77.41099, 38.94815 ], [ -77.41099, 38.94867 ], [ -77.41021, 38.94904 ], [ -77.41127, 38.94965 ], [ -77.41211, 38.9484 ] ], [ [ -77.41205, 38.9527 ], [ -77.41194, 38.95339 ], [ -77.41302, 38.95236 ], [ -77.41259, 38.95224 ], [ -77.41205, 38.9527 ] ], [ [ -77.41142, 38.94667 ], [ -77.41161, 38.94674 ], [ -77.41152, 38.94646 ], [ -77.41142, 38.94667 ] ], [ [ -77.40945, 38.95422 ], [ -77.41008, 38.95447 ], [ -77.40999, 38.95414 ], [ -77.40945, 38.95422 ] ], [ [ -77.40662, 38.95242 ], [ -77.40654, 38.9526 ], [ -77.4068, 38.9527 ], [ -77.40662, 38.95242 ] ], [ [ -77.39588, 38.94061 ], [ -77.39546, 38.9402 ], [ -77.39522, 38.94153 ], [ -77.39588, 38.94061 ] ], [ [ -77.40369, 38.95251 ], [ -77.40339, 38.95191 ], [ -77.40171, 38.95224 ], [ -77.40152, 38.95258 ], [ -77.40284, 38.95302 ], [ -77.40369, 38.95251 ] ], [ [ -77.40024, 38.9422 ], [ -77.39952, 38.94204 ], [ -77.39888, 38.94261 ], [ -77.39781, 38.94237 ], [ -77.3978, 38.94289 ], [ -77.39868, 38.94282 ], [ -77.39895, 38.94317 ], [ -77.39876, 38.94364 ], [ -77.39988, 38.94372 ], [ -77.40024, 38.9422 ] ], [ [ -77.39666, 38.94196 ], [ -77.39702, 38.94195 ], [ -77.39701, 38.94194 ], [ -77.39666, 38.94196 ] ], [ [ -77.39725, 38.94476 ], [ -77.3969, 38.94506 ], [ -77.39809, 38.94453 ], [ -77.3982, 38.94427 ], [ -77.39725, 38.94476 ] ], [ [ -77.3918, 38.945 ], [ -77.39085, 38.94439 ], [ -77.38981, 38.94533 ], [ -77.39078, 38.94555 ], [ -77.3912, 38.94644 ], [ -77.3918, 38.945 ] ], [ [ -77.39217, 38.94225 ], [ -77.39217, 38.94208 ], [ -77.3914, 38.94199 ], [ -77.39217, 38.94225 ] ], [ [ -77.39002, 38.9409 ], [ -77.38997, 38.9409 ], [ -77.39002, 38.94092 ], [ -77.39002, 38.9409 ] ], [ [ -77.39576, 38.94744 ], [ -77.3953, 38.94715 ], [ -77.39537, 38.94766 ], [ -77.39576, 38.94744 ] ], [ [ -77.39219, 38.94011 ], [ -77.39344, 38.94062 ], [ -77.39377, 38.94158 ], [ -77.39407, 38.94013 ], [ -77.39219, 38.94011 ] ], [ [ -77.3933, 38.94266 ], [ -77.39322, 38.94272 ], [ -77.39326, 38.94272 ], [ -77.3933, 38.94266 ] ], [ [ -77.39165, 38.94351 ], [ -77.39221, 38.94387 ], [ -77.39229, 38.94361 ], [ -77.39165, 38.94351 ] ], [ [ -77.39327, 38.94938 ], [ -77.39327, 38.94935 ], [ -77.39321, 38.94935 ], [ -77.39327, 38.94938 ] ], [ [ -77.39216, 38.94923 ], [ -77.39249, 38.94925 ], [ -77.39227, 38.94918 ], [ -77.39216, 38.94923 ] ], [ [ -77.39025, 38.95158 ], [ -77.39043, 38.95164 ], [ -77.39084, 38.95125 ], [ -77.39025, 38.95158 ] ], [ [ -77.38825, 38.94025 ], [ -77.38832, 38.93994 ], [ -77.3878, 38.94037 ], [ -77.38838, 38.94142 ], [ -77.38882, 38.94155 ], [ -77.38883, 38.94073 ], [ -77.38825, 38.94025 ] ], [ [ -77.38909, 38.94353 ], [ -77.38733, 38.94404 ], [ -77.38639, 38.94338 ], [ -77.38589, 38.94345 ], [ -77.38537, 38.94368 ], [ -77.38502, 38.94474 ], [ -77.38616, 38.94555 ], [ -77.38693, 38.94565 ], [ -77.38723, 38.94558 ], [ -77.38688, 38.94471 ], [ -77.38784, 38.94459 ], [ -77.38848, 38.94504 ], [ -77.3884, 38.94417 ], [ -77.38968, 38.94374 ], [ -77.38909, 38.94353 ] ], [ [ -77.38844, 38.94653 ], [ -77.38857, 38.9466 ], [ -77.38855, 38.94657 ], [ -77.38844, 38.94653 ] ] ] } }
]
}
