{
"type": "FeatureCollection",
"name": "337",
"crs": { "type": "name", "properties": { "name": "urn:ogc:def:crs:OGC:1.3:CRS84" } },
"xy_coordinate_resolution": 1e-05,
"features": [
{ "type": "Feature", "properties": { "variant": "T0", "miles": 0.5 }, "geometry": { "type": "MultiPolygon", "coordinates": [ [ [ [ -77.36528, 38.91003 ], [ -77.36633, 38.91125 ], [ -77.3675, 38.91118 ], [ -77.36916, 38.9118 ], [ -77.36861, 38.91244 ], [ -77.367, 38.91222 ], [ -77.36743, 38.91317 ], [ -77.3671, 38.91349 ], [ -77.36613, 38.91324 ], [ -77.36526, 38.91384 ], [ -77.36599, 38.91486 ], [ -77.36863, 38.91368 ], [ -77.3694, 38.91416 ], [ -77.36909, 38.91468 ], [ -77.36782, 38.91521 ], [ -77.3685, 38.91576 ], [ -77.36737, 38.91682 ], [ -77.36774, 38.91767 ], [ -77.36689, 38.91805 ], [ -77.36439, 38.91484 ], [ -77.36288, 38.91497 ], [ -77.36171, 38.91425 ], [ -77.36185, 38.91332 ], [ -77.36372, 38.91389 ], [ -77.3611, 38.90974 ], [ -77.36195, 38.90937 ], [ -77.36237, 38.90963 ], [ -77.36461, 38.91288 ], [ -77.36544, 38.91222 ], [ -77.3644, 38.91037 ], [ -77.36528, 38.91003 ] ], [ [ -77.36684, 38.91573 ], [ -77.36667, 38.9158 ], [ -77.36669, 38.91584 ], [ -77.36684, 38.91573 ] ] ], [ [ [ -77.36314, 38.9174 ], [ -77.36236, 38.91719 ], [ -77.36194, 38.91645 ], [ -77.3617, 38.91547 ], [ -77.36209, 38.91518 ], [ -77.36296, 38.9154 ], [ -77.3637, 38.91675 ], [ -77.36314, 38.9174 ] ] ] ] } },
{ "type": "Feature", "properties": { "variant": "T0", "miles": 1.0 }, "geometry": { "type": "MultiPolygon", "coordinates": [ [ [ [ -77.36765, 38.90603 ], [ -77.36903, 38.90647 ], [ -77.36936, 38.90767 ], [ -77.36415, 38.9095 ], [ -77.36441, 38.91 ], [ -77.36317, 38.9108 ], [ -77.36461, 38.91288 ], [ -77.36544, 38.91222 ], [ -77.36444, 38.91078 ], [ -77.36475, 38.91006 ], [ -77.36568, 38.9103 ], [ -77.36633, 38.91125 ], [ -77.36832, 38.91138 ], [ -77.36923, 38.91003 ], [ -77.36848, 38.90955 ], [ -77.36888, 38.90885 ], [ -77.37182, 38.91015 ], [ -77.37187, 38.91092 ], [ -77.37139, 38.91109 ], [ -77.37043, 38.91061 ], [ -77.36966, 38.91174 ], [ -77.37092, 38.91226 ], [ -77.37049, 38.91295 ], [ -77.367, 38.91222 ], [ -77.36743, 38.91317 ], [ -77.3671, 38.91349 ], [ -77.36613, 38.91324 ], [ -77.36526, 38.91384 ], [ -77.36599, 38.91486 ], [ -77.36863, 38.91368 ], [ -77.37015, 38.91458 ], [ -77.37015, 38.91518 ], [ -77.36941, 38.9154 ], [ -77.36941, 38.9165 ], [ -77.36847, 38.91673 ], [ -77.36815, 38.91623 ], [ -77.36737, 38.91682 ], [ -77.37258, 38.92412 ], [ -77.37272, 38.92478 ], [ -77.37235, 38.92507 ], [ -77.37144, 38.92479 ], [ -77.36681, 38.91827 ], [ -77.36634, 38.91862 ], [ -77.36711, 38.91952 ], [ -77.36739, 38.92167 ], [ -77.36657, 38.92208 ], [ -77.36614, 38.92185 ], [ -77.36565, 38.9196 ], [ -77.36417, 38.92102 ], [ -77.36446, 38.92181 ], [ -77.36302, 38.9227 ], [ -77.36283, 38.92431 ], [ -77.36186, 38.92421 ], [ -77.36169, 38.92318 ], [ -77.36098, 38.92292 ], [ -77.36095, 38.92251 ], [ -77.36259, 38.92081 ], [ -77.36057, 38.91973 ], [ -77.36052, 38.91896 ], [ -77.36173, 38.91889 ], [ -77.36348, 38.91998 ], [ -77.36614, 38.91732 ], [ -77.36439, 38.91484 ], [ -77.36288, 38.91497 ], [ -77.36171, 38.91425 ], [ -77.36185, 38.91332 ], [ -77.36372, 38.91389 ], [ -77.35948, 38.90776 ], [ -77.35763, 38.90855 ], [ -77.35675, 38.90946 ], [ -77.35552, 38.90945 ], [ -77.35488, 38.90888 ], [ -77.35883, 38.9068 ], [ -77.35688, 38.90402 ], [ -77.35713, 38.90329 ], [ -77.35808, 38.90349 ], [ -77.36204, 38.90916 ], [ -77.36287, 38.90881 ], [ -77.36302, 38.90798 ], [ -77.36352, 38.90785 ], [ -77.36413, 38.90837 ], [ -77.36537, 38.90797 ], [ -77.365, 38.90737 ], [ -77.36532, 38.90704 ], [ -77.36671, 38.9074 ], [ -77.3678, 38.90703 ], [ -77.36737, 38.90676 ], [ -77.36765, 38.90603 ] ], [ [ -77.36684, 38.91573 ], [ -77.36667, 38.9158 ], [ -77.36669, 38.91584 ], [ -77.36684, 38.91573 ] ] ], [ [ [ -77.363, 38.91741 ], [ -77.36227, 38.9171 ], [ -77.36169, 38.91588 ], [ -77.36209, 38.91518 ], [ -77.36296, 38.9154 ], [ -77.3637, 38.91675 ], [ -77.363, 38.91741 ] ] ] ] } },
{ "type": "Feature", "properties": { "variant": "T0", "miles": 1.5 }, "geometry": { "type": "Polygon", "coordinates": [ [ [ -77.37376, 38.90746 ], [ -77.37364, 38.90825 ], [ -77.37689, 38.90864 ], [ -77.37761, 38.90916 ], [ -77.37742, 38.90955 ], [ -77.37611, 38.90975 ], [ -77.37293, 38.90921 ], [ -77.37498, 38.91059 ], [ -77.37514, 38.91151 ], [ -77.37471, 38.91176 ], [ -77.37203, 38.91017 ], [ -77.37157, 38.90948 ], [ -77.37171, 38.90864 ], [ -77.36999, 38.90774 ], [ -77.36415, 38.9095 ], [ -77.36441, 38.91 ], [ -77.36317, 38.9108 ], [ -77.36461, 38.91288 ], [ -77.36544, 38.91222 ], [ -77.36444, 38.91078 ], [ -77.36475, 38.91006 ], [ -77.36568, 38.9103 ], [ -77.36633, 38.91125 ], [ -77.36832, 38.91138 ], [ -77.36923, 38.91003 ], [ -77.36848, 38.90955 ], [ -77.36888, 38.90885 ], [ -77.3717, 38.91002 ], [ -77.37187, 38.91092 ], [ -77.37139, 38.91109 ], [ -77.37043, 38.91061 ], [ -77.36966, 38.91174 ], [ -77.37092, 38.91226 ], [ -77.37049, 38.91295 ], [ -77.367, 38.91222 ], [ -77.36743, 38.91317 ], [ -77.3671, 38.91349 ], [ -77.36613, 38.91324 ], [ -77.36526, 38.91384 ], [ -77.36599, 38.91486 ], [ -77.36863, 38.91368 ], [ -77.37015, 38.91458 ], [ -77.37015, 38.91518 ], [ -77.36941, 38.9154 ], [ -77.36941, 38.9165 ], [ -77.36847, 38.91673 ], [ -77.36815, 38.91623 ], [ -77.36737, 38.91682 ], [ -77.37258, 38.92412 ], [ -77.37294, 38.92346 ], [ -77.37235, 38.92312 ], [ -77.37239, 38.92271 ], [ -77.3734, 38.92241 ], [ -77.37422, 38.9204 ], [ -77.37329, 38.91967 ], [ -77.37389, 38.91907 ], [ -77.37565, 38.91991 ], [ -77.37559, 38.9206 ], [ -77.37619, 38.92108 ], [ -77.37494, 38.92256 ], [ -77.37554, 38.92283 ], [ -77.3753, 38.92378 ], [ -77.37611, 38.92328 ], [ -77.37658, 38.92347 ], [ -77.37672, 38.92401 ], [ -77.37626, 38.92457 ], [ -77.37751, 38.92379 ], [ -77.38015, 38.92384 ], [ -77.38033, 38.92423 ], [ -77.37971, 38.92483 ], [ -77.37777, 38.92486 ], [ -77.37773, 38.92672 ], [ -77.37877, 38.92712 ], [ -77.37888, 38.92753 ], [ -77.37487, 38.92909 ], [ -77.37288, 38.92779 ], [ -77.37133, 38.92989 ], [ -77.37043, 38.93006 ], [ -77.36914, 38.92901 ], [ -77.36984, 38.92848 ], [ -77.3704, 38.92871 ], [ -77.3715, 38.9272 ], [ -77.37125, 38.92648 ], [ -77.37217, 38.9252 ], [ -77.36998, 38.92515 ], [ -77.36896, 38.92565 ], [ -77.36762, 38.92539 ], [ -77.36713, 38.92563 ], [ -77.36643, 38.92519 ], [ -77.36431, 38.92533 ], [ -77.36338, 38.92613 ], [ -77.36286, 38.92615 ], [ -77.36246, 38.92569 ], [ -77.36076, 38.92701 ], [ -77.3612, 38.92718 ], [ -77.36238, 38.9296 ], [ -77.36214, 38.92996 ], [ -77.3613, 38.92995 ], [ -77.36152, 38.93076 ], [ -77.36063, 38.93107 ], [ -77.35897, 38.92819 ], [ -77.35964, 38.92638 ], [ -77.35933, 38.92601 ], [ -77.35976, 38.92534 ], [ -77.35927, 38.92423 ], [ -77.35961, 38.9234 ], [ -77.35626, 38.92329 ], [ -77.35613, 38.92454 ], [ -77.35484, 38.92504 ], [ -77.35442, 38.92435 ], [ -77.35497, 38.92395 ], [ -77.35488, 38.92321 ], [ -77.35444, 38.924 ], [ -77.35392, 38.92407 ], [ -77.35349, 38.92383 ], [ -77.35359, 38.92278 ], [ -77.35259, 38.92233 ], [ -77.35271, 38.9218 ], [ -77.35102, 38.92137 ], [ -77.35078, 38.921 ], [ -77.35142, 38.92042 ], [ -77.35326, 38.92079 ], [ -77.35358, 38.91943 ], [ -77.35524, 38.91914 ], [ -77.35481, 38.91735 ], [ -77.35501, 38.91697 ], [ -77.35594, 38.91696 ], [ -77.35574, 38.91616 ], [ -77.35611, 38.91587 ], [ -77.35701, 38.91617 ], [ -77.35787, 38.9196 ], [ -77.3589, 38.9202 ], [ -77.3607, 38.9183 ], [ -77.36039, 38.91678 ], [ -77.36091, 38.91563 ], [ -77.3617, 38.91568 ], [ -77.36209, 38.91518 ], [ -77.36312, 38.9156 ], [ -77.3636, 38.91716 ], [ -77.36257, 38.91733 ], [ -77.36192, 38.9164 ], [ -77.36185, 38.91894 ], [ -77.36348, 38.91998 ], [ -77.36614, 38.91732 ], [ -77.36439, 38.91484 ], [ -77.36288, 38.91497 ], [ -77.36171, 38.91425 ], [ -77.36185, 38.91332 ], [ -77.36372, 38.91389 ], [ -77.35948, 38.90776 ], [ -77.35763, 38.90855 ], [ -77.35675, 38.90946 ], [ -77.35504, 38.90927 ], [ -77.35511, 38.9085 ], [ -77.35617, 38.9084 ], [ -77.35682, 38.90767 ], [ -77.35883, 38.9068 ], [ -77.35839, 38.90619 ], [ -77.35688, 38.90716 ], [ -77.35591, 38.90706 ], [ -77.35592, 38.9063 ], [ -77.35705, 38.90583 ], [ -77.35764, 38.90511 ], [ -77.3571, 38.90552 ], [ -77.35616, 38.90531 ], [ -77.35685, 38.904 ], [ -77.35607, 38.90296 ], [ -77.35481, 38.90428 ], [ -77.3561, 38.90512 ], [ -77.35557, 38.90576 ], [ -77.35383, 38.90506 ], [ -77.35275, 38.90594 ], [ -77.35222, 38.90594 ], [ -77.35185, 38.90565 ], [ -77.35211, 38.90489 ], [ -77.35078, 38.90421 ], [ -77.35062, 38.90381 ], [ -77.35137, 38.90332 ], [ -77.35314, 38.90407 ], [ -77.35529, 38.9019 ], [ -77.35409, 38.90024 ], [ -77.35428, 38.90156 ], [ -77.35387, 38.90182 ], [ -77.35301, 38.90145 ], [ -77.35227, 38.89911 ], [ -77.35296, 38.8987 ], [ -77.35197, 38.89705 ], [ -77.35228, 38.89672 ], [ -77.35323, 38.89688 ], [ -77.35772, 38.90304 ], [ -77.35986, 38.90215 ], [ -77.35979, 38.90171 ], [ -77.35908, 38.90221 ], [ -77.35811, 38.90213 ], [ -77.35795, 38.90174 ], [ -77.35884, 38.9007 ], [ -77.3598, 38.90052 ], [ -77.36067, 38.90081 ], [ -77.36078, 38.90019 ], [ -77.36125, 38.89999 ], [ -77.36256, 38.90106 ], [ -77.36618, 38.90005 ], [ -77.36656, 38.90076 ], [ -77.36523, 38.90135 ], [ -77.3656, 38.90157 ], [ -77.36655, 38.90133 ], [ -77.36771, 38.90246 ], [ -77.36971, 38.902 ], [ -77.37036, 38.90126 ], [ -77.37118, 38.90168 ], [ -77.37097, 38.90266 ], [ -77.37069, 38.90301 ], [ -77.36881, 38.90324 ], [ -77.36467, 38.9052 ], [ -77.36027, 38.90663 ], [ -77.36204, 38.90916 ], [ -77.36287, 38.90881 ], [ -77.36302, 38.90798 ], [ -77.36352, 38.90785 ], [ -77.36413, 38.90837 ], [ -77.36537, 38.90797 ], [ -77.365, 38.90737 ], [ -77.36532, 38.90704 ], [ -77.36671, 38.9074 ], [ -77.3678, 38.90703 ], [ -77.36737, 38.90676 ], [ -77.36765, 38.90603 ], [ -77.36845, 38.90607 ], [ -77.36924, 38.90672 ], [ -77.37078, 38.9068 ], [ -77.37201, 38.90745 ], [ -77.37224, 38.90688 ], [ -77.37302, 38.90685 ], [ -77.37376, 38.90746 ] ], [ [ -77.36886, 38.92292 ], [ -77.36938, 38.92281 ], [ -77.36983, 38.92302 ], [ -77.36987, 38.92405 ], [ -77.37102, 38.92417 ], [ -77.36681, 38.91827 ], [ -77.36634, 38.91862 ], [ -77.36711, 38.91952 ], [ -77.36739, 38.92167 ], [ -77.36657, 38.92208 ], [ -77.36614, 38.92185 ], [ -77.36565, 38.9196 ], [ -77.36417, 38.92102 ], [ -77.36446, 38.92181 ], [ -77.36334, 38.92265 ], [ -77.36423, 38.92274 ], [ -77.36498, 38.92217 ], [ -77.3656, 38.92287 ], [ -77.36748, 38.92321 ], [ -77.36747, 38.92382 ], [ -77.36849, 38.92392 ], [ -77.36886, 38.92292 ] ], [ [ -77.36667, 38.9158 ], [ -77.36669, 38.91584 ], [ -77.36684, 38.91573 ], [ -77.36667, 38.9158 ] ], [ [ -77.37417, 38.92642 ], [ -77.37352, 38.92683 ], [ -77.37509, 38.92787 ], [ -77.37647, 38.92719 ], [ -77.37634, 38.92565 ], [ -77.37418, 38.92558 ], [ -77.37417, 38.92642 ] ], [ [ -77.36108, 38.90512 ], [ -77.35997, 38.90423 ], [ -77.35996, 38.90334 ], [ -77.35842, 38.90398 ], [ -77.35953, 38.90555 ], [ -77.36108, 38.90512 ] ], [ [ -77.36408, 38.90423 ], [ -77.3665, 38.90298 ], [ -77.3662, 38.90269 ], [ -77.36201, 38.90429 ], [ -77.3622, 38.90459 ], [ -77.36408, 38.90423 ] ], [ [ -77.3646, 38.90231 ], [ -77.36427, 38.90164 ], [ -77.3616, 38.90268 ], [ -77.36156, 38.90322 ], [ -77.3646, 38.90231 ] ], [ [ -77.36117, 38.90149 ], [ -77.36115, 38.90148 ], [ -77.36117, 38.90164 ], [ -77.36117, 38.90149 ] ], [ [ -77.36259, 38.92081 ], [ -77.36202, 38.92044 ], [ -77.36022, 38.92235 ], [ -77.36096, 38.92262 ], [ -77.36259, 38.92081 ] ], [ [ -77.36101, 38.91991 ], [ -77.35942, 38.92142 ], [ -77.36126, 38.91994 ], [ -77.36101, 38.91991 ] ], [ [ -77.36068, 38.92431 ], [ -77.3612, 38.92416 ], [ -77.36099, 38.92406 ], [ -77.36075, 38.92391 ], [ -77.36068, 38.92431 ] ], [ [ -77.3556, 38.92154 ], [ -77.35553, 38.92152 ], [ -77.35557, 38.92169 ], [ -77.3556, 38.92154 ] ], [ [ -77.35457, 38.92019 ], [ -77.35501, 38.92023 ], [ -77.35476, 38.92016 ], [ -77.35457, 38.92019 ] ], [ [ -77.35683, 38.92221 ], [ -77.35679, 38.92226 ], [ -77.35686, 38.92226 ], [ -77.35683, 38.92221 ] ], [ [ -77.35556, 38.92214 ], [ -77.35552, 38.92202 ], [ -77.35543, 38.92213 ], [ -77.35556, 38.92214 ] ] ] } },
{ "type": "Feature", "properties": { "variant": "T2s", "miles": 0.5 }, "geometry": { "type": "MultiPolygon", "coordinates": [ [ [ [ -77.36438, 38.91484 ], [ -77.36247, 38.91483 ], [ -77.36152, 38.91364 ], [ -77.36238, 38.91327 ], [ -77.36335, 38.91394 ], [ -77.36485, 38.91359 ], [ -77.36532, 38.91426 ], [ -77.36438, 38.91484 ] ] ], [ [ [ -77.3637, 38.91675 ], [ -77.36317, 38.9174 ], [ -77.36247, 38.91727 ], [ -77.3617, 38.91547 ], [ -77.36209, 38.91518 ], [ -77.36286, 38.91532 ], [ -77.3637, 38.91675 ] ] ] ] } },
{ "type": "Feature", "properties": { "variant": "T2s", "miles": 1.0 }, "geometry": { "type": "MultiPolygon", "coordinates": [ [ [ [ -77.36438, 38.91484 ], [ -77.36247, 38.91483 ], [ -77.36152, 38.91364 ], [ -77.36238, 38.91327 ], [ -77.36335, 38.91394 ], [ -77.36485, 38.91359 ], [ -77.36532, 38.91426 ], [ -77.36438, 38.91484 ] ] ], [ [ [ -77.3637, 38.91675 ], [ -77.36317, 38.9174 ], [ -77.36247, 38.91727 ], [ -77.3617, 38.91547 ], [ -77.36209, 38.91518 ], [ -77.36286, 38.91532 ], [ -77.3637, 38.91675 ] ] ] ] } },
{ "type": "Feature", "properties": { "variant": "T2s", "miles": 1.5 }, "geometry": { "type": "MultiPolygon", "coordinates": [ [ [ [ -77.36438, 38.91484 ], [ -77.36247, 38.91483 ], [ -77.36152, 38.91364 ], [ -77.36238, 38.91327 ], [ -77.36335, 38.91394 ], [ -77.36485, 38.91359 ], [ -77.36532, 38.91426 ], [ -77.36438, 38.91484 ] ] ], [ [ [ -77.3637, 38.91675 ], [ -77.36317, 38.9174 ], [ -77.36247, 38.91727 ], [ -77.3617, 38.91547 ], [ -77.36209, 38.91518 ], [ -77.36286, 38.91532 ], [ -77.3637, 38.91675 ] ] ] ] } }
]
}
