{
"type": "FeatureCollection",
"name": "343",
"crs": { "type": "name", "properties": { "name": "urn:ogc:def:crs:OGC:1.3:CRS84" } },
"xy_coordinate_resolution": 1e-05,
"features": [
{ "type": "Feature", "properties": { "variant": "T0", "miles": 0.5 }, "geometry": { "type": "Polygon", "coordinates": [ [ [ -77.2179, 38.70392 ], [ -77.21811, 38.70626 ], [ -77.21716, 38.70645 ], [ -77.21494, 38.70569 ], [ -77.21481, 38.70472 ], [ -77.2153, 38.704 ], [ -77.21652, 38.70388 ], [ -77.21696, 38.70311 ], [ -77.21808, 38.70261 ], [ -77.21869, 38.70321 ], [ -77.2179, 38.70392 ] ], [ [ -77.21616, 38.70501 ], [ -77.21651, 38.70503 ], [ -77.21649, 38.70496 ], [ -77.21616, 38.70501 ] ] ] } },
{ "type": "Feature", "properties": { "variant": "T0", "miles": 1.0 }, "geometry": { "type": "Polygon", "coordinates": [ [ [ -77.22282, 38.69977 ], [ -77.22174, 38.70346 ], [ -77.22302, 38.70363 ], [ -77.22313, 38.70476 ], [ -77.22777, 38.704 ], [ -77.2285, 38.70464 ], [ -77.22786, 38.7052 ], [ -77.22189, 38.70611 ], [ -77.22181, 38.70848 ], [ -77.22113, 38.70969 ], [ -77.22019, 38.70948 ], [ -77.22013, 38.70907 ], [ -77.22055, 38.70579 ], [ -77.21787, 38.70483 ], [ -77.21819, 38.70586 ], [ -77.21768, 38.70651 ], [ -77.21518, 38.7059 ], [ -77.21474, 38.70536 ], [ -77.21486, 38.70461 ], [ -77.21344, 38.70498 ], [ -77.21261, 38.70647 ], [ -77.21263, 38.70767 ], [ -77.21326, 38.70796 ], [ -77.21326, 38.70837 ], [ -77.21237, 38.70883 ], [ -77.21148, 38.70853 ], [ -77.2102, 38.70585 ], [ -77.20758, 38.70674 ], [ -77.20732, 38.70712 ], [ -77.20635, 38.70704 ], [ -77.20637, 38.70579 ], [ -77.20964, 38.70465 ], [ -77.20866, 38.70352 ], [ -77.20771, 38.70361 ], [ -77.20725, 38.70314 ], [ -77.20761, 38.70193 ], [ -77.20806, 38.70172 ], [ -77.20964, 38.70272 ], [ -77.211, 38.70293 ], [ -77.21128, 38.70328 ], [ -77.21067, 38.70391 ], [ -77.21093, 38.70423 ], [ -77.21349, 38.70349 ], [ -77.21664, 38.70347 ], [ -77.21706, 38.70304 ], [ -77.21638, 38.70265 ], [ -77.21661, 38.70166 ], [ -77.21918, 38.70047 ], [ -77.21967, 38.70113 ], [ -77.21894, 38.70213 ], [ -77.21886, 38.70315 ], [ -77.22059, 38.70107 ], [ -77.22083, 38.70012 ], [ -77.21982, 38.6994 ], [ -77.22014, 38.69868 ], [ -77.22088, 38.69857 ], [ -77.22282, 38.69977 ] ], [ [ -77.22113, 38.70404 ], [ -77.22069, 38.70432 ], [ -77.22059, 38.70438 ], [ -77.22098, 38.70454 ], [ -77.22113, 38.70404 ] ], [ [ -77.21856, 38.70369 ], [ -77.21863, 38.70343 ], [ -77.21831, 38.70364 ], [ -77.21856, 38.70369 ] ], [ [ -77.21651, 38.70503 ], [ -77.21649, 38.70496 ], [ -77.21616, 38.70501 ], [ -77.21651, 38.70503 ] ] ] } },
{ "type": "Feature", "properties": { "variant": "T0", "miles": 1.5 }, "geometry": { "type": "Polygon", "coordinates": [ [ [ -77.23069, 38.70227 ], [ -77.23076, 38.70285 ], [ -77.22841, 38.70404 ], [ -77.23175, 38.70435 ], [ -77.23278, 38.70318 ], [ -77.23265, 38.70165 ], [ -77.23437, 38.70141 ], [ -77.23594, 38.70301 ], [ -77.23555, 38.70418 ], [ -77.23401, 38.70461 ], [ -77.23673, 38.70484 ], [ -77.23755, 38.70555 ], [ -77.23737, 38.70594 ], [ -77.23646, 38.70614 ], [ -77.23033, 38.70547 ], [ -77.23101, 38.70748 ], [ -77.23286, 38.70897 ], [ -77.23298, 38.7101 ], [ -77.23237, 38.71071 ], [ -77.2315, 38.71057 ], [ -77.23054, 38.71137 ], [ -77.22993, 38.71121 ], [ -77.22859, 38.71218 ], [ -77.22775, 38.7118 ], [ -77.22837, 38.71076 ], [ -77.22676, 38.71097 ], [ -77.22544, 38.71024 ], [ -77.2251, 38.70896 ], [ -77.22572, 38.70844 ], [ -77.22574, 38.7077 ], [ -77.22492, 38.70738 ], [ -77.22484, 38.70697 ], [ -77.22572, 38.70658 ], [ -77.22581, 38.70548 ], [ -77.22189, 38.70611 ], [ -77.22181, 38.70848 ], [ -77.22146, 38.70936 ], [ -77.2206, 38.70973 ], [ -77.22013, 38.70907 ], [ -77.22055, 38.70579 ], [ -77.21786, 38.70483 ], [ -77.21819, 38.70586 ], [ -77.21768, 38.70651 ], [ -77.21518, 38.7059 ], [ -77.21474, 38.70536 ], [ -77.21486, 38.70461 ], [ -77.21344, 38.70498 ], [ -77.21263, 38.70665 ], [ -77.21572, 38.70855 ], [ -77.21381, 38.71028 ], [ -77.2144, 38.71217 ], [ -77.21371, 38.71418 ], [ -77.21469, 38.71509 ], [ -77.21403, 38.71565 ], [ -77.21288, 38.71505 ], [ -77.21182, 38.71585 ], [ -77.2108, 38.71534 ], [ -77.21078, 38.71462 ], [ -77.21187, 38.71386 ], [ -77.21081, 38.71256 ], [ -77.21083, 38.7115 ], [ -77.20961, 38.70932 ], [ -77.20916, 38.70921 ], [ -77.20499, 38.71065 ], [ -77.20368, 38.70981 ], [ -77.20348, 38.70824 ], [ -77.20072, 38.70921 ], [ -77.19983, 38.70822 ], [ -77.199, 38.70819 ], [ -77.19871, 38.70785 ], [ -77.19924, 38.70721 ], [ -77.20125, 38.70704 ], [ -77.20149, 38.7077 ], [ -77.20289, 38.70697 ], [ -77.20101, 38.70609 ], [ -77.20037, 38.70527 ], [ -77.20061, 38.7049 ], [ -77.20251, 38.70475 ], [ -77.20398, 38.70601 ], [ -77.20764, 38.70255 ], [ -77.20761, 38.70193 ], [ -77.20857, 38.70182 ], [ -77.21175, 38.69877 ], [ -77.21162, 38.69802 ], [ -77.21289, 38.69717 ], [ -77.21288, 38.69634 ], [ -77.21333, 38.69613 ], [ -77.21407, 38.69653 ], [ -77.21493, 38.69597 ], [ -77.21586, 38.69659 ], [ -77.21513, 38.69811 ], [ -77.2161, 38.69985 ], [ -77.21582, 38.70218 ], [ -77.21402, 38.70267 ], [ -77.21072, 38.70154 ], [ -77.20953, 38.7026 ], [ -77.21088, 38.70218 ], [ -77.21339, 38.70284 ], [ -77.21405, 38.70342 ], [ -77.21664, 38.70347 ], [ -77.21706, 38.70304 ], [ -77.21638, 38.70265 ], [ -77.21661, 38.70166 ], [ -77.21918, 38.70047 ], [ -77.21967, 38.70113 ], [ -77.21894, 38.70213 ], [ -77.21886, 38.70315 ], [ -77.22059, 38.70107 ], [ -77.22083, 38.70012 ], [ -77.22055, 38.69993 ], [ -77.22022, 38.70058 ], [ -77.21969, 38.70061 ], [ -77.21858, 38.69999 ], [ -77.21743, 38.69761 ], [ -77.21617, 38.69672 ], [ -77.21614, 38.69631 ], [ -77.21822, 38.69553 ], [ -77.21887, 38.69623 ], [ -77.21771, 38.69437 ], [ -77.2192, 38.69287 ], [ -77.2191, 38.6921 ], [ -77.22001, 38.69126 ], [ -77.22228, 38.69165 ], [ -77.22275, 38.69328 ], [ -77.22443, 38.69522 ], [ -77.22341, 38.69864 ], [ -77.22417, 38.69796 ], [ -77.22452, 38.6965 ], [ -77.22504, 38.69647 ], [ -77.22567, 38.69724 ], [ -77.22541, 38.69844 ], [ -77.22381, 38.69998 ], [ -77.22339, 38.70093 ], [ -77.22279, 38.70328 ], [ -77.22313, 38.70476 ], [ -77.2264, 38.70413 ], [ -77.22558, 38.70251 ], [ -77.22656, 38.70175 ], [ -77.22577, 38.70086 ], [ -77.22681, 38.69985 ], [ -77.22826, 38.69964 ], [ -77.22947, 38.70095 ], [ -77.23046, 38.7012 ], [ -77.23237, 38.69989 ], [ -77.23327, 38.70019 ], [ -77.23317, 38.70075 ], [ -77.23069, 38.70227 ] ], [ [ -77.21877, 38.70328 ], [ -77.21831, 38.70364 ], [ -77.21856, 38.70369 ], [ -77.21877, 38.70328 ] ], [ [ -77.21969, 38.69726 ], [ -77.21993, 38.6969 ], [ -77.21867, 38.69714 ], [ -77.21925, 38.69752 ], [ -77.21969, 38.69726 ] ], [ [ -77.23315, 38.70451 ], [ -77.2335, 38.70455 ], [ -77.23326, 38.70435 ], [ -77.23315, 38.70451 ] ], [ [ -77.22872, 38.70243 ], [ -77.2285, 38.70244 ], [ -77.22852, 38.70254 ], [ -77.22872, 38.70243 ] ], [ [ -77.22098, 38.70454 ], [ -77.22113, 38.70404 ], [ -77.22069, 38.70432 ], [ -77.22098, 38.70454 ] ], [ [ -77.21616, 38.70501 ], [ -77.21651, 38.70503 ], [ -77.21649, 38.70496 ], [ -77.21616, 38.70501 ] ], [ [ -77.21093, 38.70423 ], [ -77.21245, 38.70371 ], [ -77.21125, 38.70339 ], [ -77.21067, 38.70391 ], [ -77.21093, 38.70423 ] ], [ [ -77.21186, 38.71033 ], [ -77.21184, 38.71021 ], [ -77.21155, 38.7102 ], [ -77.21186, 38.71033 ] ], [ [ -77.20651, 38.70558 ], [ -77.20664, 38.7056 ], [ -77.20658, 38.70551 ], [ -77.20651, 38.70558 ] ], [ [ -77.20764, 38.70477 ], [ -77.20815, 38.70457 ], [ -77.2079, 38.70424 ], [ -77.20764, 38.70477 ] ] ] } },
{ "type": "Feature", "properties": { "variant": "T2s", "miles": 0.5 }, "geometry": { "type": "Polygon", "coordinates": [ [ [ -77.2157, 38.70607 ], [ -77.21474, 38.70536 ], [ -77.2153, 38.704 ], [ -77.21764, 38.70408 ], [ -77.21811, 38.70626 ], [ -77.21768, 38.70651 ], [ -77.2157, 38.70607 ] ], [ [ -77.21649, 38.70496 ], [ -77.21616, 38.70501 ], [ -77.21651, 38.70503 ], [ -77.21649, 38.70496 ] ] ] } },
{ "type": "Feature", "properties": { "variant": "T2s", "miles": 1.0 }, "geometry": { "type": "MultiPolygon", "coordinates": [ [ [ [ -77.21483, 38.70395 ], [ -77.21475, 38.70442 ], [ -77.21344, 38.70498 ], [ -77.21295, 38.70564 ], [ -77.21263, 38.70767 ], [ -77.21326, 38.70796 ], [ -77.21326, 38.70837 ], [ -77.21237, 38.70883 ], [ -77.21148, 38.70853 ], [ -77.2102, 38.70585 ], [ -77.20739, 38.70677 ], [ -77.20643, 38.7067 ], [ -77.20617, 38.70633 ], [ -77.20637, 38.70579 ], [ -77.20964, 38.70465 ], [ -77.20748, 38.70233 ], [ -77.20806, 38.70172 ], [ -77.20964, 38.70272 ], [ -77.211, 38.70293 ], [ -77.21128, 38.70328 ], [ -77.21067, 38.70391 ], [ -77.21093, 38.70423 ], [ -77.21406, 38.70342 ], [ -77.21483, 38.70395 ] ] ], [ [ [ -77.22764, 38.70402 ], [ -77.2285, 38.70463 ], [ -77.22786, 38.7052 ], [ -77.22287, 38.70613 ], [ -77.22189, 38.70602 ], [ -77.22166, 38.70565 ], [ -77.22231, 38.70507 ], [ -77.22764, 38.70402 ] ] ], [ [ [ -77.21555, 38.70605 ], [ -77.21473, 38.70528 ], [ -77.2153, 38.704 ], [ -77.21764, 38.70408 ], [ -77.21811, 38.70626 ], [ -77.21768, 38.70651 ], [ -77.21555, 38.70605 ] ], [ [ -77.21616, 38.70501 ], [ -77.21651, 38.70503 ], [ -77.21649, 38.70496 ], [ -77.21616, 38.70501 ] ] ] ] } },
{ "type": "Feature", "properties": { "variant": "T2s", "miles": 1.5 }, "geometry": { "type": "Polygon", "coordinates": [ [ [ -77.23069, 38.70227 ], [ -77.23076, 38.70285 ], [ -77.22841, 38.70404 ], [ -77.23175, 38.70435 ], [ -77.23278, 38.70318 ], [ -77.2324, 38.70201 ], [ -77.23316, 38.70153 ], [ -77.23432, 38.70215 ], [ -77.23528, 38.70208 ], [ -77.23571, 38.70256 ], [ -77.23526, 38.70391 ], [ -77.23401, 38.70461 ], [ -77.23673, 38.70484 ], [ -77.23745, 38.70535 ], [ -77.2368, 38.70592 ], [ -77.23534, 38.70606 ], [ -77.23033, 38.70547 ], [ -77.23101, 38.70748 ], [ -77.23286, 38.70897 ], [ -77.23298, 38.7101 ], [ -77.23147, 38.71032 ], [ -77.23096, 38.71113 ], [ -77.22993, 38.71121 ], [ -77.22859, 38.71218 ], [ -77.22775, 38.7118 ], [ -77.22837, 38.71076 ], [ -77.22676, 38.71097 ], [ -77.22544, 38.71024 ], [ -77.2251, 38.70896 ], [ -77.22572, 38.70844 ], [ -77.22574, 38.7077 ], [ -77.22492, 38.70738 ], [ -77.22484, 38.70697 ], [ -77.22572, 38.70658 ], [ -77.22581, 38.70548 ], [ -77.22189, 38.70611 ], [ -77.22181, 38.70848 ], [ -77.22146, 38.70936 ], [ -77.2206, 38.70973 ], [ -77.22013, 38.70907 ], [ -77.22055, 38.70579 ], [ -77.21786, 38.70483 ], [ -77.21819, 38.70586 ], [ -77.21768, 38.70651 ], [ -77.21518, 38.7059 ], [ -77.21474, 38.70536 ], [ -77.21486, 38.70461 ], [ -77.21344, 38.70498 ], [ -77.21263, 38.70665 ], [ -77.21572, 38.70855 ], [ -77.21381, 38.71028 ], [ -77.2144, 38.71217 ], [ -77.21371, 38.71418 ], [ -77.21469, 38.71509 ], [ -77.21403, 38.71565 ], [ -77.21288, 38.71505 ], [ -77.21182, 38.71585 ], [ -77.2108, 38.71534 ], [ -77.21078, 38.71462 ], [ -77.21187, 38.71386 ], [ -77.21081, 38.71256 ], [ -77.21083, 38.7115 ], [ -77.20961, 38.70932 ], [ -77.20916, 38.70921 ], [ -77.20499, 38.71065 ], [ -77.20368, 38.70981 ], [ -77.20348, 38.70824 ], [ -77.20072, 38.70921 ], [ -77.19974, 38.708 ], [ -77.19973, 38.70731 ], [ -77.20016, 38.70707 ], [ -77.20068, 38.70713 ], [ -77.20112, 38.70783 ], [ -77.20289, 38.70697 ], [ -77.20182, 38.70658 ], [ -77.20154, 38.70491 ], [ -77.2029, 38.70491 ], [ -77.20398, 38.70601 ], [ -77.20764, 38.70255 ], [ -77.20761, 38.70193 ], [ -77.20857, 38.70182 ], [ -77.21175, 38.69877 ], [ -77.21156, 38.69813 ], [ -77.21289, 38.69717 ], [ -77.21284, 38.69667 ], [ -77.2132, 38.69638 ], [ -77.21401, 38.69658 ], [ -77.21489, 38.69597 ], [ -77.21566, 38.69644 ], [ -77.21518, 38.69717 ], [ -77.21541, 38.69786 ], [ -77.21464, 38.6982 ], [ -77.21588, 38.69895 ], [ -77.21617, 38.70069 ], [ -77.21582, 38.70218 ], [ -77.21402, 38.70267 ], [ -77.21072, 38.70154 ], [ -77.20961, 38.7027 ], [ -77.21088, 38.70218 ], [ -77.21339, 38.70284 ], [ -77.21405, 38.70342 ], [ -77.21664, 38.70347 ], [ -77.21706, 38.70304 ], [ -77.21638, 38.70265 ], [ -77.21661, 38.70166 ], [ -77.21918, 38.70047 ], [ -77.2196, 38.70072 ], [ -77.2196, 38.70155 ], [ -77.21831, 38.70364 ], [ -77.21931, 38.70389 ], [ -77.22, 38.70336 ], [ -77.21938, 38.70281 ], [ -77.2195, 38.70241 ], [ -77.22046, 38.70229 ], [ -77.22173, 38.70322 ], [ -77.22059, 38.70438 ], [ -77.22173, 38.70481 ], [ -77.22252, 38.70425 ], [ -77.22308, 38.70477 ], [ -77.2264, 38.70413 ], [ -77.22558, 38.70251 ], [ -77.22656, 38.70175 ], [ -77.22577, 38.70086 ], [ -77.22681, 38.69985 ], [ -77.22826, 38.69964 ], [ -77.22947, 38.70095 ], [ -77.23046, 38.7012 ], [ -77.23237, 38.69989 ], [ -77.23327, 38.70019 ], [ -77.23317, 38.70075 ], [ -77.23069, 38.70227 ] ], [ [ -77.23315, 38.70451 ], [ -77.2335, 38.70455 ], [ -77.23326, 38.70435 ], [ -77.23315, 38.70451 ] ], [ [ -77.2285, 38.70244 ], [ -77.22852, 38.70254 ], [ -77.22872, 38.70243 ], [ -77.2285, 38.70244 ] ], [ [ -77.21149, 38.70404 ], [ -77.21245, 38.70371 ], [ -77.21125, 38.70339 ], [ -77.21067, 38.70391 ], [ -77.21149, 38.70404 ] ], [ [ -77.21649, 38.70496 ], [ -77.21616, 38.70501 ], [ -77.21651, 38.70503 ], [ -77.21649, 38.70496 ] ], [ [ -77.21166, 38.71041 ], [ -77.21186, 38.71033 ], [ -77.21184, 38.71021 ], [ -77.21166, 38.71041 ] ], [ [ -77.20651, 38.70558 ], [ -77.20664, 38.7056 ], [ -77.20658, 38.70551 ], [ -77.20651, 38.70558 ] ], [ [ -77.20753, 38.7046 ], [ -77.20764, 38.70477 ], [ -77.20815, 38.70457 ], [ -77.20779, 38.70434 ], [ -77.20753, 38.7046 ] ] ] } }
]
}
