{
"type": "FeatureCollection",
"name": "35",
"crs": { "type": "name", "properties": { "name": "urn:ogc:def:crs:OGC:1.3:CRS84" } },
"xy_coordinate_resolution": 1e-05,
"features": [
{ "type": "Feature", "properties": { "variant": "T0", "miles": 0.5 }, "geometry": { "type": "Polygon", "coordinates": [ [ [ -77.15915, 38.91431 ], [ -77.15978, 38.91372 ], [ -77.16118, 38.91443 ], [ -77.16251, 38.91411 ], [ -77.16286, 38.91482 ], [ -77.16179, 38.91545 ], [ -77.16286, 38.916 ], [ -77.16317, 38.91671 ], [ -77.16231, 38.91707 ], [ -77.1608, 38.91625 ], [ -77.1577, 38.91795 ], [ -77.15624, 38.91952 ], [ -77.15693, 38.91964 ], [ -77.15801, 38.91923 ], [ -77.15973, 38.91975 ], [ -77.16195, 38.92097 ], [ -77.16214, 38.92172 ], [ -77.16118, 38.92187 ], [ -77.15975, 38.921 ], [ -77.15904, 38.92293 ], [ -77.15833, 38.92322 ], [ -77.15799, 38.92395 ], [ -77.15703, 38.9241 ], [ -77.15538, 38.92045 ], [ -77.15224, 38.92473 ], [ -77.15129, 38.92492 ], [ -77.15105, 38.92418 ], [ -77.15408, 38.91998 ], [ -77.15146, 38.91731 ], [ -77.15049, 38.91738 ], [ -77.15031, 38.91663 ], [ -77.1513, 38.91582 ], [ -77.15183, 38.91582 ], [ -77.15495, 38.9191 ], [ -77.15568, 38.91808 ], [ -77.15497, 38.91764 ], [ -77.15511, 38.9161 ], [ -77.15617, 38.91589 ], [ -77.15752, 38.91667 ], [ -77.16019, 38.91519 ], [ -77.15915, 38.91431 ] ], [ [ -77.15812, 38.92041 ], [ -77.15833, 38.92098 ], [ -77.15848, 38.92052 ], [ -77.15812, 38.92041 ] ] ] } },
{ "type": "Feature", "properties": { "variant": "T0", "miles": 1.0 }, "geometry": { "type": "Polygon", "coordinates": [ [ [ -77.16658, 38.91105 ], [ -77.16727, 38.91087 ], [ -77.16743, 38.90979 ], [ -77.1684, 38.90973 ], [ -77.16854, 38.91135 ], [ -77.1711, 38.91164 ], [ -77.17138, 38.91199 ], [ -77.17081, 38.91261 ], [ -77.16942, 38.9126 ], [ -77.16948, 38.91382 ], [ -77.16892, 38.91492 ], [ -77.1714, 38.91591 ], [ -77.17039, 38.91819 ], [ -77.16963, 38.91851 ], [ -77.16731, 38.91789 ], [ -77.16692, 38.91859 ], [ -77.16864, 38.91935 ], [ -77.16841, 38.92143 ], [ -77.16767, 38.92243 ], [ -77.16813, 38.92263 ], [ -77.16819, 38.92344 ], [ -77.16934, 38.92361 ], [ -77.16955, 38.92399 ], [ -77.16919, 38.92572 ], [ -77.1675, 38.92566 ], [ -77.16766, 38.92654 ], [ -77.1673, 38.92685 ], [ -77.16645, 38.92664 ], [ -77.16544, 38.92731 ], [ -77.16132, 38.92481 ], [ -77.16084, 38.92492 ], [ -77.15997, 38.9264 ], [ -77.15795, 38.92683 ], [ -77.1569, 38.92777 ], [ -77.15627, 38.92709 ], [ -77.15721, 38.92569 ], [ -77.15626, 38.92556 ], [ -77.15574, 38.92646 ], [ -77.15477, 38.92657 ], [ -77.15441, 38.92573 ], [ -77.15474, 38.92512 ], [ -77.1524, 38.92451 ], [ -77.15108, 38.92577 ], [ -77.15344, 38.92619 ], [ -77.15325, 38.92693 ], [ -77.14925, 38.92684 ], [ -77.1524, 38.92736 ], [ -77.15195, 38.929 ], [ -77.15159, 38.9293 ], [ -77.15026, 38.92907 ], [ -77.14991, 38.92969 ], [ -77.14864, 38.92948 ], [ -77.14829, 38.93015 ], [ -77.14683, 38.92983 ], [ -77.14665, 38.92768 ], [ -77.14711, 38.92684 ], [ -77.1451, 38.92574 ], [ -77.14507, 38.92511 ], [ -77.14566, 38.92459 ], [ -77.1445, 38.92414 ], [ -77.14451, 38.92355 ], [ -77.14319, 38.92396 ], [ -77.1424, 38.92351 ], [ -77.14298, 38.9229 ], [ -77.14476, 38.92245 ], [ -77.14499, 38.92088 ], [ -77.14538, 38.9206 ], [ -77.14614, 38.92042 ], [ -77.14666, 38.92101 ], [ -77.1471, 38.92098 ], [ -77.14718, 38.91996 ], [ -77.14864, 38.91926 ], [ -77.14712, 38.91931 ], [ -77.14675, 38.91902 ], [ -77.14645, 38.91719 ], [ -77.14466, 38.91782 ], [ -77.14375, 38.91755 ], [ -77.1441, 38.91683 ], [ -77.14559, 38.91632 ], [ -77.14594, 38.9154 ], [ -77.14739, 38.91533 ], [ -77.14374, 38.91369 ], [ -77.14308, 38.91298 ], [ -77.14327, 38.9126 ], [ -77.14425, 38.91258 ], [ -77.14823, 38.91447 ], [ -77.15024, 38.91288 ], [ -77.15188, 38.91323 ], [ -77.15222, 38.91379 ], [ -77.15234, 38.91309 ], [ -77.15478, 38.91252 ], [ -77.15689, 38.91086 ], [ -77.15798, 38.90869 ], [ -77.15854, 38.90835 ], [ -77.16025, 38.909 ], [ -77.16155, 38.90864 ], [ -77.16269, 38.90876 ], [ -77.1641, 38.90945 ], [ -77.16436, 38.9098 ], [ -77.16399, 38.91031 ], [ -77.16512, 38.90945 ], [ -77.16604, 38.90951 ], [ -77.16646, 38.90976 ], [ -77.16658, 38.91105 ] ], [ [ -77.16269, 38.92058 ], [ -77.16111, 38.91975 ], [ -77.16252, 38.92086 ], [ -77.16269, 38.92058 ] ], [ [ -77.16098, 38.91968 ], [ -77.16057, 38.91951 ], [ -77.15955, 38.91969 ], [ -77.16022, 38.91995 ], [ -77.16111, 38.91975 ], [ -77.16098, 38.91968 ] ], [ [ -77.15812, 38.92041 ], [ -77.15833, 38.92098 ], [ -77.15848, 38.92052 ], [ -77.15812, 38.92041 ] ], [ [ -77.15845, 38.91934 ], [ -77.15883, 38.91875 ], [ -77.15989, 38.91842 ], [ -77.16167, 38.91874 ], [ -77.16187, 38.91676 ], [ -77.1608, 38.91625 ], [ -77.15812, 38.91766 ], [ -77.15624, 38.91952 ], [ -77.15845, 38.91934 ] ], [ [ -77.1582, 38.91636 ], [ -77.15877, 38.91611 ], [ -77.15788, 38.91593 ], [ -77.15704, 38.91636 ], [ -77.15765, 38.91661 ], [ -77.1582, 38.91636 ] ], [ [ -77.15742, 38.91487 ], [ -77.15801, 38.91374 ], [ -77.15733, 38.91309 ], [ -77.15738, 38.91188 ], [ -77.15564, 38.91337 ], [ -77.15391, 38.91403 ], [ -77.15333, 38.91564 ], [ -77.15241, 38.91539 ], [ -77.15243, 38.91486 ], [ -77.15155, 38.9149 ], [ -77.14997, 38.91632 ], [ -77.15069, 38.9164 ], [ -77.1513, 38.91582 ], [ -77.15183, 38.91582 ], [ -77.15495, 38.9191 ], [ -77.15568, 38.91808 ], [ -77.15497, 38.91764 ], [ -77.15487, 38.91647 ], [ -77.15742, 38.91487 ] ], [ [ -77.16489, 38.92266 ], [ -77.16349, 38.92183 ], [ -77.16534, 38.92314 ], [ -77.16559, 38.92286 ], [ -77.16489, 38.92266 ] ], [ [ -77.16711, 38.92071 ], [ -77.16672, 38.92093 ], [ -77.16709, 38.92106 ], [ -77.16711, 38.92071 ] ], [ [ -77.16584, 38.92055 ], [ -77.16587, 38.92056 ], [ -77.16586, 38.92055 ], [ -77.16584, 38.92055 ] ], [ [ -77.16534, 38.91838 ], [ -77.16551, 38.91831 ], [ -77.16541, 38.91824 ], [ -77.16534, 38.91838 ] ], [ [ -77.16589, 38.91722 ], [ -77.16572, 38.91721 ], [ -77.16604, 38.91725 ], [ -77.16589, 38.91722 ] ], [ [ -77.1656, 38.91612 ], [ -77.16584, 38.91613 ], [ -77.16524, 38.91593 ], [ -77.1656, 38.91612 ] ], [ [ -77.16253, 38.91249 ], [ -77.16116, 38.9117 ], [ -77.16212, 38.91014 ], [ -77.16175, 38.90971 ], [ -77.16067, 38.91005 ], [ -77.15973, 38.91097 ], [ -77.16077, 38.91108 ], [ -77.16027, 38.91252 ], [ -77.16175, 38.9124 ], [ -77.16269, 38.91389 ], [ -77.16253, 38.91249 ] ], [ [ -77.16589, 38.91384 ], [ -77.16566, 38.91401 ], [ -77.16602, 38.91413 ], [ -77.16589, 38.91384 ] ], [ [ -77.16393, 38.91233 ], [ -77.16433, 38.91346 ], [ -77.16532, 38.91278 ], [ -77.16393, 38.91233 ] ], [ [ -77.16782, 38.91331 ], [ -77.16809, 38.9134 ], [ -77.16808, 38.91325 ], [ -77.16782, 38.91331 ] ], [ [ -77.16705, 38.91281 ], [ -77.16687, 38.91299 ], [ -77.16715, 38.91309 ], [ -77.16705, 38.91281 ] ], [ [ -77.16913, 38.91732 ], [ -77.16937, 38.9173 ], [ -77.16789, 38.91681 ], [ -77.16913, 38.91732 ] ], [ [ -77.16732, 38.92447 ], [ -77.16818, 38.92466 ], [ -77.16817, 38.92452 ], [ -77.16732, 38.92447 ] ], [ [ -77.16303, 38.91145 ], [ -77.16381, 38.91119 ], [ -77.16376, 38.91041 ], [ -77.16303, 38.91145 ] ], [ [ -77.16254, 38.91879 ], [ -77.16173, 38.91877 ], [ -77.16324, 38.91957 ], [ -77.16254, 38.91879 ] ], [ [ -77.164, 38.91646 ], [ -77.1637, 38.91659 ], [ -77.16407, 38.91663 ], [ -77.164, 38.91646 ] ], [ [ -77.16583, 38.92179 ], [ -77.16544, 38.92161 ], [ -77.16565, 38.92175 ], [ -77.16583, 38.92179 ] ], [ [ -77.163, 38.92446 ], [ -77.16447, 38.92545 ], [ -77.16406, 38.92491 ], [ -77.163, 38.92446 ] ], [ [ -77.15883, 38.91286 ], [ -77.1589, 38.91233 ], [ -77.15883, 38.91269 ], [ -77.15883, 38.91286 ] ], [ [ -77.1591, 38.91186 ], [ -77.15895, 38.91218 ], [ -77.15892, 38.91227 ], [ -77.1591, 38.91186 ] ], [ [ -77.15896, 38.90971 ], [ -77.15867, 38.91026 ], [ -77.15922, 38.90991 ], [ -77.15896, 38.90971 ] ], [ [ -77.15939, 38.91573 ], [ -77.15924, 38.91589 ], [ -77.16019, 38.91519 ], [ -77.15971, 38.91521 ], [ -77.15939, 38.91573 ] ], [ [ -77.16076, 38.91416 ], [ -77.16118, 38.91443 ], [ -77.1611, 38.91346 ], [ -77.16076, 38.91416 ] ], [ [ -77.15774, 38.92449 ], [ -77.15375, 38.92228 ], [ -77.15572, 38.92356 ], [ -77.15542, 38.92418 ], [ -77.15774, 38.92449 ] ], [ [ -77.15347, 38.92355 ], [ -77.15303, 38.92354 ], [ -77.15371, 38.9237 ], [ -77.15347, 38.92355 ] ], [ [ -77.14956, 38.9251 ], [ -77.14851, 38.92516 ], [ -77.14862, 38.92579 ], [ -77.15053, 38.92469 ], [ -77.1496, 38.92439 ], [ -77.14956, 38.9251 ] ], [ [ -77.15155, 38.92209 ], [ -77.15199, 38.92271 ], [ -77.1526, 38.92166 ], [ -77.14988, 38.91974 ], [ -77.14997, 38.92101 ], [ -77.149, 38.92113 ], [ -77.14839, 38.92051 ], [ -77.14749, 38.9211 ], [ -77.14768, 38.92171 ], [ -77.14689, 38.92276 ], [ -77.14829, 38.92174 ], [ -77.14949, 38.92167 ], [ -77.15155, 38.92209 ] ], [ [ -77.14804, 38.91761 ], [ -77.14819, 38.91622 ], [ -77.14777, 38.91694 ], [ -77.14803, 38.918 ], [ -77.14903, 38.91803 ], [ -77.14804, 38.91761 ] ], [ [ -77.15066, 38.91407 ], [ -77.14968, 38.91456 ], [ -77.14939, 38.9152 ], [ -77.15066, 38.91407 ] ], [ [ -77.15889, 38.92306 ], [ -77.15833, 38.92322 ], [ -77.15856, 38.92361 ], [ -77.15922, 38.9237 ], [ -77.15889, 38.92306 ] ], [ [ -77.15895, 38.92574 ], [ -77.15884, 38.92563 ], [ -77.1588, 38.92572 ], [ -77.15895, 38.92574 ] ], [ [ -77.15146, 38.91731 ], [ -77.15024, 38.91747 ], [ -77.15117, 38.9177 ], [ -77.15138, 38.91832 ], [ -77.15087, 38.91885 ], [ -77.15184, 38.9199 ], [ -77.15335, 38.92074 ], [ -77.15408, 38.91998 ], [ -77.15146, 38.91731 ] ], [ [ -77.1563, 38.91728 ], [ -77.15634, 38.91747 ], [ -77.15646, 38.91738 ], [ -77.1563, 38.91728 ] ], [ [ -77.15543, 38.92046 ], [ -77.15538, 38.92045 ], [ -77.15448, 38.92136 ], [ -77.15608, 38.92225 ], [ -77.15543, 38.92046 ] ], [ [ -77.15153, 38.92349 ], [ -77.15187, 38.92292 ], [ -77.15129, 38.92317 ], [ -77.15153, 38.92349 ] ], [ [ -77.14732, 38.92401 ], [ -77.14815, 38.92467 ], [ -77.14813, 38.92394 ], [ -77.14732, 38.92401 ] ], [ [ -77.14715, 38.92542 ], [ -77.14656, 38.92495 ], [ -77.14648, 38.92533 ], [ -77.14715, 38.92542 ] ] ] } },
{ "type": "Feature", "properties": { "variant": "T0", "miles": 1.5 }, "geometry": { "type": "Polygon", "coordinates": [ [ [ -77.17349, 38.91066 ], [ -77.17532, 38.91054 ], [ -77.17602, 38.91 ], [ -77.17672, 38.91042 ], [ -77.17981, 38.91028 ], [ -77.18022, 38.91097 ], [ -77.17737, 38.91201 ], [ -77.17778, 38.91271 ], [ -77.17648, 38.91357 ], [ -77.17782, 38.91476 ], [ -77.17777, 38.91553 ], [ -77.1768, 38.91549 ], [ -77.17545, 38.91444 ], [ -77.17522, 38.91487 ], [ -77.17611, 38.91534 ], [ -77.1761, 38.91575 ], [ -77.17493, 38.91595 ], [ -77.17443, 38.91748 ], [ -77.17526, 38.91779 ], [ -77.17481, 38.91898 ], [ -77.1739, 38.91926 ], [ -77.17353, 38.91868 ], [ -77.17222, 38.91824 ], [ -77.17327, 38.91886 ], [ -77.17361, 38.92001 ], [ -77.17466, 38.91956 ], [ -77.1751, 38.91979 ], [ -77.17467, 38.92073 ], [ -77.17535, 38.92144 ], [ -77.17372, 38.92294 ], [ -77.17537, 38.92339 ], [ -77.17581, 38.92511 ], [ -77.17526, 38.92776 ], [ -77.1744, 38.92813 ], [ -77.17399, 38.92787 ], [ -77.174, 38.92685 ], [ -77.17312, 38.92669 ], [ -77.17327, 38.92569 ], [ -77.17115, 38.92642 ], [ -77.16921, 38.92593 ], [ -77.16959, 38.92728 ], [ -77.17011, 38.92765 ], [ -77.16908, 38.92889 ], [ -77.17334, 38.93075 ], [ -77.17278, 38.93172 ], [ -77.16748, 38.92934 ], [ -77.16667, 38.92949 ], [ -77.16642, 38.93046 ], [ -77.16592, 38.9306 ], [ -77.16532, 38.93017 ], [ -77.16402, 38.93005 ], [ -77.16465, 38.93069 ], [ -77.16385, 38.9312 ], [ -77.16461, 38.93246 ], [ -77.1641, 38.93297 ], [ -77.16319, 38.93307 ], [ -77.16258, 38.93174 ], [ -77.1617, 38.93177 ], [ -77.16146, 38.9314 ], [ -77.16166, 38.92854 ], [ -77.16106, 38.93124 ], [ -77.16041, 38.93191 ], [ -77.1588, 38.93237 ], [ -77.15794, 38.93152 ], [ -77.15714, 38.9321 ], [ -77.15658, 38.93202 ], [ -77.15617, 38.93161 ], [ -77.15678, 38.93063 ], [ -77.15635, 38.93028 ], [ -77.15548, 38.9317 ], [ -77.15596, 38.93194 ], [ -77.15571, 38.93268 ], [ -77.15283, 38.93343 ], [ -77.15162, 38.93454 ], [ -77.15093, 38.93401 ], [ -77.15145, 38.93334 ], [ -77.15053, 38.93325 ], [ -77.15067, 38.93412 ], [ -77.14994, 38.93488 ], [ -77.14908, 38.93494 ], [ -77.1485, 38.9342 ], [ -77.14745, 38.93481 ], [ -77.14626, 38.93375 ], [ -77.14661, 38.93259 ], [ -77.14609, 38.93277 ], [ -77.14542, 38.93221 ], [ -77.14555, 38.93064 ], [ -77.14484, 38.93092 ], [ -77.14542, 38.93175 ], [ -77.14474, 38.93294 ], [ -77.14276, 38.93275 ], [ -77.14206, 38.93223 ], [ -77.1434, 38.93084 ], [ -77.14249, 38.93053 ], [ -77.14225, 38.92987 ], [ -77.14306, 38.92594 ], [ -77.14451, 38.92355 ], [ -77.14388, 38.92376 ], [ -77.14343, 38.9246 ], [ -77.14249, 38.92438 ], [ -77.14245, 38.92395 ], [ -77.13981, 38.92395 ], [ -77.14012, 38.92475 ], [ -77.1386, 38.92492 ], [ -77.13846, 38.92608 ], [ -77.13746, 38.92658 ], [ -77.13417, 38.92446 ], [ -77.13431, 38.92371 ], [ -77.1335, 38.92343 ], [ -77.13349, 38.92302 ], [ -77.13426, 38.92164 ], [ -77.13594, 38.92098 ], [ -77.13667, 38.92197 ], [ -77.13768, 38.92001 ], [ -77.1391, 38.91949 ], [ -77.13869, 38.91924 ], [ -77.13606, 38.91957 ], [ -77.13582, 38.91883 ], [ -77.13643, 38.91803 ], [ -77.13548, 38.91738 ], [ -77.13557, 38.91697 ], [ -77.13652, 38.9168 ], [ -77.13848, 38.91775 ], [ -77.13972, 38.91712 ], [ -77.14148, 38.91774 ], [ -77.14259, 38.91734 ], [ -77.14303, 38.91551 ], [ -77.14268, 38.91424 ], [ -77.14183, 38.91338 ], [ -77.14175, 38.91373 ], [ -77.14077, 38.91404 ], [ -77.13993, 38.91388 ], [ -77.13961, 38.91309 ], [ -77.1389, 38.91291 ], [ -77.13783, 38.91338 ], [ -77.13743, 38.91264 ], [ -77.13798, 38.91126 ], [ -77.1357, 38.91048 ], [ -77.13656, 38.90924 ], [ -77.13861, 38.90955 ], [ -77.13798, 38.90869 ], [ -77.1397, 38.90732 ], [ -77.14035, 38.9074 ], [ -77.14103, 38.9082 ], [ -77.14322, 38.90793 ], [ -77.14358, 38.90823 ], [ -77.1432, 38.90893 ], [ -77.14171, 38.90919 ], [ -77.14274, 38.9114 ], [ -77.14441, 38.91082 ], [ -77.14671, 38.91109 ], [ -77.14817, 38.91052 ], [ -77.14992, 38.91126 ], [ -77.14979, 38.90873 ], [ -77.14851, 38.90883 ], [ -77.14723, 38.90835 ], [ -77.14774, 38.90711 ], [ -77.14851, 38.90723 ], [ -77.14936, 38.90665 ], [ -77.14925, 38.90504 ], [ -77.1496, 38.90473 ], [ -77.15052, 38.90498 ], [ -77.15121, 38.90474 ], [ -77.1534, 38.90611 ], [ -77.15345, 38.90669 ], [ -77.1528, 38.90717 ], [ -77.15346, 38.9079 ], [ -77.15263, 38.90888 ], [ -77.15302, 38.90918 ], [ -77.15399, 38.90794 ], [ -77.15553, 38.90736 ], [ -77.15584, 38.90691 ], [ -77.15513, 38.9061 ], [ -77.15613, 38.9057 ], [ -77.15652, 38.90489 ], [ -77.15557, 38.90425 ], [ -77.1555, 38.90348 ], [ -77.15664, 38.90354 ], [ -77.15665, 38.90213 ], [ -77.15819, 38.90156 ], [ -77.16081, 38.90324 ], [ -77.16165, 38.90234 ], [ -77.16218, 38.90238 ], [ -77.16262, 38.90378 ], [ -77.16391, 38.90477 ], [ -77.16411, 38.90392 ], [ -77.16483, 38.90347 ], [ -77.16597, 38.90377 ], [ -77.16609, 38.90425 ], [ -77.16541, 38.90485 ], [ -77.16683, 38.90495 ], [ -77.16763, 38.90479 ], [ -77.1679, 38.90434 ], [ -77.16887, 38.90444 ], [ -77.16927, 38.90567 ], [ -77.16898, 38.90601 ], [ -77.16757, 38.90592 ], [ -77.16804, 38.90648 ], [ -77.1678, 38.9068 ], [ -77.16875, 38.90679 ], [ -77.16897, 38.90717 ], [ -77.16872, 38.9092 ], [ -77.16825, 38.90969 ], [ -77.16864, 38.9101 ], [ -77.16854, 38.91135 ], [ -77.16897, 38.91142 ], [ -77.16957, 38.90857 ], [ -77.17085, 38.90869 ], [ -77.17102, 38.90811 ], [ -77.17193, 38.90806 ], [ -77.17217, 38.90694 ], [ -77.17266, 38.90679 ], [ -77.17333, 38.90734 ], [ -77.17349, 38.91066 ] ], [ [ -77.16187, 38.92579 ], [ -77.16251, 38.92555 ], [ -77.16132, 38.92481 ], [ -77.16034, 38.92565 ], [ -77.15997, 38.92697 ], [ -77.16082, 38.9268 ], [ -77.16164, 38.92746 ], [ -77.16187, 38.92579 ] ], [ [ -77.16201, 38.92026 ], [ -77.16248, 38.92093 ], [ -77.16269, 38.92058 ], [ -77.16057, 38.91951 ], [ -77.15955, 38.91969 ], [ -77.16022, 38.91995 ], [ -77.16058, 38.91972 ], [ -77.16201, 38.92026 ] ], [ [ -77.16009, 38.91839 ], [ -77.16167, 38.91874 ], [ -77.16148, 38.91837 ], [ -77.16204, 38.91771 ], [ -77.16183, 38.91672 ], [ -77.1608, 38.91625 ], [ -77.1577, 38.91795 ], [ -77.15624, 38.91952 ], [ -77.15845, 38.91934 ], [ -77.15845, 38.91904 ], [ -77.16009, 38.91839 ] ], [ [ -77.1614, 38.91432 ], [ -77.1611, 38.91346 ], [ -77.16076, 38.91416 ], [ -77.1614, 38.91432 ] ], [ [ -77.15731, 38.91301 ], [ -77.15635, 38.91498 ], [ -77.15575, 38.91535 ], [ -77.1528, 38.91567 ], [ -77.15243, 38.91486 ], [ -77.15155, 38.9149 ], [ -77.14999, 38.91637 ], [ -77.15069, 38.9164 ], [ -77.1513, 38.91582 ], [ -77.15183, 38.91582 ], [ -77.15495, 38.9191 ], [ -77.15568, 38.91808 ], [ -77.15497, 38.91764 ], [ -77.15495, 38.91631 ], [ -77.15742, 38.91487 ], [ -77.158, 38.91372 ], [ -77.15731, 38.91301 ] ], [ [ -77.15566, 38.91336 ], [ -77.15391, 38.91403 ], [ -77.15399, 38.91436 ], [ -77.15523, 38.91421 ], [ -77.15566, 38.91336 ] ], [ [ -77.15689, 38.91086 ], [ -77.1584, 38.90774 ], [ -77.15759, 38.90826 ], [ -77.15688, 38.9077 ], [ -77.15689, 38.90996 ], [ -77.15418, 38.91276 ], [ -77.15689, 38.91086 ] ], [ [ -77.15562, 38.90951 ], [ -77.15552, 38.90852 ], [ -77.15415, 38.90985 ], [ -77.15514, 38.91016 ], [ -77.15562, 38.90951 ] ], [ [ -77.16817, 38.92452 ], [ -77.16732, 38.92447 ], [ -77.1675, 38.92455 ], [ -77.16817, 38.92452 ] ], [ [ -77.16691, 38.92091 ], [ -77.16672, 38.92093 ], [ -77.16709, 38.92106 ], [ -77.16711, 38.92071 ], [ -77.16691, 38.92091 ] ], [ [ -77.16809, 38.9134 ], [ -77.16808, 38.91325 ], [ -77.16782, 38.91331 ], [ -77.16809, 38.9134 ] ], [ [ -77.16687, 38.91299 ], [ -77.16715, 38.91309 ], [ -77.16705, 38.91281 ], [ -77.16687, 38.91299 ] ], [ [ -77.16534, 38.90673 ], [ -77.16531, 38.90593 ], [ -77.16361, 38.90583 ], [ -77.16399, 38.90709 ], [ -77.16534, 38.90673 ] ], [ [ -77.17021, 38.91267 ], [ -77.17001, 38.91267 ], [ -77.17047, 38.9129 ], [ -77.17021, 38.91267 ] ], [ [ -77.17531, 38.91211 ], [ -77.17462, 38.9122 ], [ -77.17549, 38.9128 ], [ -77.17531, 38.91211 ] ], [ [ -77.17217, 38.91492 ], [ -77.17267, 38.91509 ], [ -77.17253, 38.91456 ], [ -77.17291, 38.91427 ], [ -77.17394, 38.91444 ], [ -77.17455, 38.9136 ], [ -77.17399, 38.9132 ], [ -77.17235, 38.91463 ], [ -77.17217, 38.91492 ] ], [ [ -77.17204, 38.91247 ], [ -77.1717, 38.91251 ], [ -77.17202, 38.91272 ], [ -77.17204, 38.91247 ] ], [ [ -77.1742, 38.9176 ], [ -77.17398, 38.91765 ], [ -77.17408, 38.91769 ], [ -77.1742, 38.9176 ] ], [ [ -77.17185, 38.92485 ], [ -77.17168, 38.92462 ], [ -77.17067, 38.92519 ], [ -77.17185, 38.92485 ] ], [ [ -77.17228, 38.92267 ], [ -77.17231, 38.92275 ], [ -77.17234, 38.92268 ], [ -77.17228, 38.92267 ] ], [ [ -77.17248, 38.92112 ], [ -77.17186, 38.92044 ], [ -77.17024, 38.92242 ], [ -77.17078, 38.92298 ], [ -77.17107, 38.92194 ], [ -77.17248, 38.92112 ] ], [ [ -77.17406, 38.92411 ], [ -77.1739, 38.92408 ], [ -77.17404, 38.92426 ], [ -77.17406, 38.92411 ] ], [ [ -77.1729, 38.92401 ], [ -77.17307, 38.92393 ], [ -77.17291, 38.92388 ], [ -77.1729, 38.92401 ] ], [ [ -77.16754, 38.90969 ], [ -77.16755, 38.90975 ], [ -77.16764, 38.90971 ], [ -77.16754, 38.90969 ] ], [ [ -77.16776, 38.90684 ], [ -77.16771, 38.90685 ], [ -77.16775, 38.90686 ], [ -77.16776, 38.90684 ] ], [ [ -77.17031, 38.91418 ], [ -77.17012, 38.91425 ], [ -77.17065, 38.91442 ], [ -77.17031, 38.91418 ] ], [ [ -77.16941, 38.91401 ], [ -77.16949, 38.91404 ], [ -77.16944, 38.91395 ], [ -77.16941, 38.91401 ] ], [ [ -77.16886, 38.91727 ], [ -77.16937, 38.9173 ], [ -77.16789, 38.91681 ], [ -77.16886, 38.91727 ] ], [ [ -77.16934, 38.92202 ], [ -77.16934, 38.92191 ], [ -77.1692, 38.92196 ], [ -77.16934, 38.92202 ] ], [ [ -77.16426, 38.92899 ], [ -77.16421, 38.9289 ], [ -77.1642, 38.92898 ], [ -77.16426, 38.92899 ] ], [ [ -77.16418, 38.92823 ], [ -77.16422, 38.92853 ], [ -77.1645, 38.92831 ], [ -77.16418, 38.92823 ] ], [ [ -77.16463, 38.92697 ], [ -77.16439, 38.92682 ], [ -77.16432, 38.92728 ], [ -77.16463, 38.92697 ] ], [ [ -77.16365, 38.92465 ], [ -77.163, 38.92446 ], [ -77.16447, 38.92545 ], [ -77.16365, 38.92465 ] ], [ [ -77.16489, 38.92266 ], [ -77.16349, 38.92183 ], [ -77.16534, 38.92314 ], [ -77.16559, 38.92286 ], [ -77.16489, 38.92266 ] ], [ [ -77.1637, 38.91659 ], [ -77.16407, 38.91663 ], [ -77.164, 38.91646 ], [ -77.1637, 38.91659 ] ], [ [ -77.16206, 38.91256 ], [ -77.16269, 38.91389 ], [ -77.16302, 38.9138 ], [ -77.16253, 38.91249 ], [ -77.16116, 38.9117 ], [ -77.16206, 38.90974 ], [ -77.16067, 38.91005 ], [ -77.15973, 38.91097 ], [ -77.16077, 38.91108 ], [ -77.16027, 38.91252 ], [ -77.16206, 38.91256 ] ], [ [ -77.16259, 38.90873 ], [ -77.16375, 38.90937 ], [ -77.16255, 38.90727 ], [ -77.161, 38.90666 ], [ -77.1613, 38.90869 ], [ -77.16259, 38.90873 ] ], [ [ -77.16066, 38.9046 ], [ -77.16011, 38.9042 ], [ -77.15911, 38.90426 ], [ -77.15866, 38.90317 ], [ -77.15907, 38.90563 ], [ -77.16066, 38.9046 ] ], [ [ -77.16532, 38.91278 ], [ -77.16393, 38.91233 ], [ -77.16433, 38.91346 ], [ -77.16532, 38.91278 ] ], [ [ -77.16604, 38.91725 ], [ -77.16579, 38.91721 ], [ -77.16572, 38.91722 ], [ -77.16604, 38.91725 ] ], [ [ -77.16602, 38.91413 ], [ -77.16623, 38.91396 ], [ -77.16589, 38.91384 ], [ -77.16602, 38.91413 ] ], [ [ -77.16584, 38.91613 ], [ -77.16524, 38.91593 ], [ -77.16532, 38.91613 ], [ -77.16584, 38.91613 ] ], [ [ -77.16541, 38.91824 ], [ -77.16534, 38.91838 ], [ -77.16551, 38.91831 ], [ -77.16541, 38.91824 ] ], [ [ -77.16586, 38.92055 ], [ -77.16584, 38.92055 ], [ -77.16587, 38.92056 ], [ -77.16586, 38.92055 ] ], [ [ -77.16544, 38.92161 ], [ -77.16565, 38.92175 ], [ -77.16583, 38.92179 ], [ -77.16544, 38.92161 ] ], [ [ -77.16525, 38.92821 ], [ -77.16529, 38.92816 ], [ -77.16522, 38.92821 ], [ -77.16525, 38.92821 ] ], [ [ -77.16146, 38.90551 ], [ -77.16133, 38.90561 ], [ -77.16199, 38.90559 ], [ -77.16146, 38.90551 ] ], [ [ -77.16203, 38.90407 ], [ -77.16196, 38.90408 ], [ -77.162, 38.90411 ], [ -77.16203, 38.90407 ] ], [ [ -77.16303, 38.91145 ], [ -77.16381, 38.91119 ], [ -77.16376, 38.91041 ], [ -77.16303, 38.91145 ] ], [ [ -77.16254, 38.91879 ], [ -77.16173, 38.91877 ], [ -77.16314, 38.91953 ], [ -77.16254, 38.91879 ] ], [ [ -77.15765, 38.90564 ], [ -77.15762, 38.90556 ], [ -77.15759, 38.90564 ], [ -77.15765, 38.90564 ] ], [ [ -77.15977, 38.90795 ], [ -77.15969, 38.90879 ], [ -77.15978, 38.90849 ], [ -77.15977, 38.90795 ] ], [ [ -77.15745, 38.90682 ], [ -77.15745, 38.90672 ], [ -77.15729, 38.90673 ], [ -77.15713, 38.9073 ], [ -77.15745, 38.90682 ] ], [ [ -77.15896, 38.90971 ], [ -77.15867, 38.91026 ], [ -77.15922, 38.90991 ], [ -77.15896, 38.90971 ] ], [ [ -77.15873, 38.9128 ], [ -77.15883, 38.91286 ], [ -77.1589, 38.91233 ], [ -77.15873, 38.9128 ] ], [ [ -77.15104, 38.9302 ], [ -77.15095, 38.93017 ], [ -77.15105, 38.93026 ], [ -77.15104, 38.9302 ] ], [ [ -77.15274, 38.92701 ], [ -77.14925, 38.92684 ], [ -77.1494, 38.9269 ], [ -77.15284, 38.92725 ], [ -77.15274, 38.92701 ] ], [ [ -77.15024, 38.92491 ], [ -77.15053, 38.92469 ], [ -77.14947, 38.92435 ], [ -77.14956, 38.9251 ], [ -77.14851, 38.92516 ], [ -77.14862, 38.92579 ], [ -77.15024, 38.92491 ] ], [ [ -77.14813, 38.92394 ], [ -77.14708, 38.92386 ], [ -77.14815, 38.92467 ], [ -77.14813, 38.92394 ] ], [ [ -77.14788, 38.92188 ], [ -77.1491, 38.92164 ], [ -77.15145, 38.92205 ], [ -77.15199, 38.92271 ], [ -77.1526, 38.92166 ], [ -77.14988, 38.91974 ], [ -77.14997, 38.92101 ], [ -77.149, 38.92113 ], [ -77.14839, 38.92051 ], [ -77.14749, 38.9211 ], [ -77.14768, 38.92171 ], [ -77.1471, 38.92205 ], [ -77.14698, 38.92278 ], [ -77.14788, 38.92188 ] ], [ [ -77.14756, 38.91962 ], [ -77.14864, 38.91926 ], [ -77.14712, 38.91931 ], [ -77.14675, 38.91902 ], [ -77.14645, 38.91719 ], [ -77.14537, 38.91758 ], [ -77.14618, 38.91872 ], [ -77.14574, 38.92044 ], [ -77.14658, 38.92066 ], [ -77.14666, 38.92101 ], [ -77.1471, 38.92098 ], [ -77.14687, 38.92043 ], [ -77.14756, 38.91962 ] ], [ [ -77.14903, 38.91803 ], [ -77.14804, 38.91761 ], [ -77.14819, 38.91622 ], [ -77.14777, 38.91694 ], [ -77.14803, 38.918 ], [ -77.14903, 38.91803 ] ], [ [ -77.14425, 38.91398 ], [ -77.14414, 38.91682 ], [ -77.14559, 38.91632 ], [ -77.146, 38.91537 ], [ -77.14731, 38.91528 ], [ -77.14425, 38.91398 ] ], [ [ -77.15035, 38.91279 ], [ -77.15009, 38.91189 ], [ -77.14711, 38.91303 ], [ -77.148, 38.91379 ], [ -77.1478, 38.91421 ], [ -77.1483, 38.9143 ], [ -77.15035, 38.91279 ] ], [ [ -77.15524, 38.92721 ], [ -77.15497, 38.92747 ], [ -77.15519, 38.92743 ], [ -77.15524, 38.92721 ] ], [ [ -77.15538, 38.92666 ], [ -77.15539, 38.92662 ], [ -77.15535, 38.92664 ], [ -77.15538, 38.92666 ] ], [ [ -77.15582, 38.92584 ], [ -77.15584, 38.92596 ], [ -77.15592, 38.92586 ], [ -77.15582, 38.92584 ] ], [ [ -77.15774, 38.92449 ], [ -77.15375, 38.92228 ], [ -77.15572, 38.92356 ], [ -77.15542, 38.92418 ], [ -77.15774, 38.92449 ] ], [ [ -77.15421, 38.92537 ], [ -77.15446, 38.92551 ], [ -77.15474, 38.92512 ], [ -77.15421, 38.92537 ] ], [ [ -77.1522, 38.92479 ], [ -77.15108, 38.92577 ], [ -77.15273, 38.92592 ], [ -77.15272, 38.92512 ], [ -77.1522, 38.92479 ] ], [ [ -77.15129, 38.92317 ], [ -77.15153, 38.92349 ], [ -77.15183, 38.92298 ], [ -77.15129, 38.92317 ] ], [ [ -77.15335, 38.92074 ], [ -77.15408, 38.91998 ], [ -77.15146, 38.91731 ], [ -77.15024, 38.91747 ], [ -77.15141, 38.91807 ], [ -77.15105, 38.91917 ], [ -77.15335, 38.92074 ] ], [ [ -77.15543, 38.92046 ], [ -77.15538, 38.92045 ], [ -77.15448, 38.92136 ], [ -77.15608, 38.92225 ], [ -77.15543, 38.92046 ] ], [ [ -77.15889, 38.92306 ], [ -77.15826, 38.92345 ], [ -77.15922, 38.9237 ], [ -77.15889, 38.92306 ] ], [ [ -77.1594, 38.91572 ], [ -77.15924, 38.91589 ], [ -77.16019, 38.91519 ], [ -77.1594, 38.91572 ] ], [ [ -77.15788, 38.91593 ], [ -77.15704, 38.91636 ], [ -77.15752, 38.91667 ], [ -77.15877, 38.91611 ], [ -77.15788, 38.91593 ] ], [ [ -77.15822, 38.92067 ], [ -77.15833, 38.92098 ], [ -77.15848, 38.92052 ], [ -77.15822, 38.92067 ] ], [ [ -77.15896, 38.92575 ], [ -77.15884, 38.92563 ], [ -77.15886, 38.92571 ], [ -77.15896, 38.92575 ] ], [ [ -77.15955, 38.92807 ], [ -77.16005, 38.92904 ], [ -77.1593, 38.92979 ], [ -77.15932, 38.93113 ], [ -77.15973, 38.93096 ], [ -77.16041, 38.928 ], [ -77.15986, 38.92727 ], [ -77.15955, 38.92807 ] ], [ [ -77.15685, 38.92833 ], [ -77.15789, 38.92782 ], [ -77.15757, 38.92738 ], [ -77.15655, 38.92772 ], [ -77.15685, 38.92833 ] ], [ [ -77.15789, 38.92692 ], [ -77.15803, 38.92685 ], [ -77.15795, 38.92683 ], [ -77.15789, 38.92692 ] ], [ [ -77.15866, 38.92893 ], [ -77.15865, 38.92889 ], [ -77.1586, 38.9289 ], [ -77.15866, 38.92893 ] ], [ [ -77.15795, 38.93005 ], [ -77.15783, 38.9298 ], [ -77.15742, 38.92958 ], [ -77.15795, 38.93005 ] ], [ [ -77.15371, 38.9237 ], [ -77.15303, 38.92354 ], [ -77.15344, 38.92366 ], [ -77.15371, 38.9237 ] ], [ [ -77.15207, 38.9138 ], [ -77.15202, 38.91377 ], [ -77.152, 38.9138 ], [ -77.15207, 38.9138 ] ], [ [ -77.15237, 38.91021 ], [ -77.15145, 38.90952 ], [ -77.15114, 38.91038 ], [ -77.15154, 38.91197 ], [ -77.15237, 38.91021 ] ], [ [ -77.1531, 38.91154 ], [ -77.15284, 38.91239 ], [ -77.1541, 38.91103 ], [ -77.15342, 38.911 ], [ -77.1531, 38.91154 ] ], [ [ -77.15331, 38.92839 ], [ -77.15321, 38.92838 ], [ -77.15329, 38.92848 ], [ -77.15331, 38.92839 ] ], [ [ -77.15445, 38.93097 ], [ -77.15474, 38.93045 ], [ -77.15451, 38.93065 ], [ -77.15445, 38.93097 ] ], [ [ -77.15305, 38.93181 ], [ -77.15332, 38.93167 ], [ -77.15281, 38.93072 ], [ -77.15305, 38.93181 ] ], [ [ -77.14905, 38.90778 ], [ -77.1492, 38.90775 ], [ -77.1487, 38.90761 ], [ -77.14905, 38.90778 ] ], [ [ -77.14965, 38.91459 ], [ -77.14939, 38.9152 ], [ -77.15066, 38.91407 ], [ -77.14965, 38.91459 ] ], [ [ -77.14839, 38.93295 ], [ -77.14799, 38.93265 ], [ -77.14798, 38.93299 ], [ -77.14839, 38.93295 ] ], [ [ -77.14711, 38.92684 ], [ -77.14524, 38.92591 ], [ -77.14543, 38.92731 ], [ -77.14456, 38.92785 ], [ -77.14404, 38.9275 ], [ -77.14386, 38.92941 ], [ -77.14429, 38.92967 ], [ -77.14662, 38.92952 ], [ -77.14665, 38.92772 ], [ -77.14711, 38.92684 ] ], [ [ -77.14221, 38.92067 ], [ -77.14163, 38.92041 ], [ -77.14212, 38.92149 ], [ -77.14221, 38.92067 ] ], [ [ -77.1418, 38.9192 ], [ -77.14176, 38.91933 ], [ -77.14207, 38.91938 ], [ -77.1418, 38.9192 ] ], [ [ -77.14221, 38.91251 ], [ -77.14142, 38.9119 ], [ -77.14179, 38.91313 ], [ -77.14221, 38.91251 ] ], [ [ -77.14009, 38.90991 ], [ -77.14058, 38.91007 ], [ -77.14035, 38.90974 ], [ -77.14009, 38.90991 ] ], [ [ -77.14924, 38.93158 ], [ -77.14915, 38.93203 ], [ -77.14931, 38.93205 ], [ -77.14924, 38.93158 ] ], [ [ -77.14414, 38.91939 ], [ -77.14466, 38.91947 ], [ -77.1447, 38.91936 ], [ -77.14414, 38.91939 ] ], [ [ -77.14264, 38.91958 ], [ -77.1435, 38.92004 ], [ -77.14285, 38.91939 ], [ -77.14234, 38.91945 ], [ -77.14264, 38.91958 ] ], [ [ -77.14439, 38.91835 ], [ -77.14424, 38.91821 ], [ -77.14425, 38.9183 ], [ -77.14439, 38.91835 ] ], [ [ -77.1444, 38.92221 ], [ -77.14442, 38.92247 ], [ -77.14476, 38.92245 ], [ -77.1444, 38.92221 ] ], [ [ -77.14696, 38.92565 ], [ -77.14713, 38.92552 ], [ -77.14656, 38.92495 ], [ -77.14696, 38.92565 ] ], [ [ -77.14556, 38.92457 ], [ -77.14551, 38.92467 ], [ -77.14566, 38.92459 ], [ -77.14556, 38.92457 ] ], [ [ -77.14501, 38.92546 ], [ -77.145, 38.92534 ], [ -77.14488, 38.92549 ], [ -77.14501, 38.92546 ] ], [ [ -77.14697, 38.93056 ], [ -77.147, 38.93065 ], [ -77.14703, 38.93056 ], [ -77.14697, 38.93056 ] ], [ [ -77.13974, 38.92103 ], [ -77.14075, 38.92172 ], [ -77.14009, 38.92026 ], [ -77.13974, 38.92103 ] ], [ [ -77.13578, 38.92375 ], [ -77.13568, 38.92393 ], [ -77.136, 38.92403 ], [ -77.1363, 38.92382 ], [ -77.13578, 38.92375 ] ], [ [ -77.13523, 38.9225 ], [ -77.13532, 38.92253 ], [ -77.13531, 38.92236 ], [ -77.13523, 38.9225 ] ], [ [ -77.13726, 38.92518 ], [ -77.13706, 38.92473 ], [ -77.13679, 38.92492 ], [ -77.13726, 38.92518 ] ] ] } },
{ "type": "Feature", "properties": { "variant": "T2s", "miles": 0.5 }, "geometry": { "type": "Polygon", "coordinates": [ [ [ -77.15915, 38.91431 ], [ -77.15978, 38.91372 ], [ -77.16118, 38.91443 ], [ -77.16251, 38.91411 ], [ -77.16286, 38.91482 ], [ -77.16179, 38.91545 ], [ -77.16286, 38.916 ], [ -77.16317, 38.91671 ], [ -77.16231, 38.91707 ], [ -77.1608, 38.91625 ], [ -77.1577, 38.91795 ], [ -77.15624, 38.91952 ], [ -77.15693, 38.91964 ], [ -77.15801, 38.91923 ], [ -77.15973, 38.91975 ], [ -77.16195, 38.92097 ], [ -77.16214, 38.92172 ], [ -77.16118, 38.92187 ], [ -77.15975, 38.921 ], [ -77.15904, 38.92293 ], [ -77.15833, 38.92322 ], [ -77.15799, 38.92395 ], [ -77.15703, 38.9241 ], [ -77.15538, 38.92045 ], [ -77.15224, 38.92473 ], [ -77.15129, 38.92492 ], [ -77.15105, 38.92418 ], [ -77.15408, 38.91998 ], [ -77.15146, 38.91731 ], [ -77.15049, 38.91738 ], [ -77.15031, 38.91663 ], [ -77.1513, 38.91582 ], [ -77.15183, 38.91582 ], [ -77.15495, 38.9191 ], [ -77.15568, 38.91808 ], [ -77.15497, 38.91764 ], [ -77.15511, 38.9161 ], [ -77.15617, 38.91589 ], [ -77.15752, 38.91667 ], [ -77.16019, 38.91519 ], [ -77.15915, 38.91431 ] ], [ [ -77.15812, 38.92041 ], [ -77.15833, 38.92098 ], [ -77.15848, 38.92052 ], [ -77.15812, 38.92041 ] ] ] } },
{ "type": "Feature", "properties": { "variant": "T2s", "miles": 1.0 }, "geometry": { "type": "Polygon", "coordinates": [ [ [ -77.16864, 38.9101 ], [ -77.16854, 38.91135 ], [ -77.1711, 38.91164 ], [ -77.17138, 38.91199 ], [ -77.17081, 38.91261 ], [ -77.16942, 38.9126 ], [ -77.16948, 38.91382 ], [ -77.16892, 38.91492 ], [ -77.1714, 38.91591 ], [ -77.17039, 38.91819 ], [ -77.16963, 38.91851 ], [ -77.16731, 38.91789 ], [ -77.16692, 38.91859 ], [ -77.16864, 38.91935 ], [ -77.16841, 38.92143 ], [ -77.16767, 38.92243 ], [ -77.16813, 38.92263 ], [ -77.16819, 38.92344 ], [ -77.16934, 38.92361 ], [ -77.16955, 38.92399 ], [ -77.16919, 38.92572 ], [ -77.1675, 38.92566 ], [ -77.16766, 38.92654 ], [ -77.1673, 38.92685 ], [ -77.16645, 38.92664 ], [ -77.16544, 38.92731 ], [ -77.16132, 38.92481 ], [ -77.16084, 38.92492 ], [ -77.15997, 38.9264 ], [ -77.15795, 38.92683 ], [ -77.1569, 38.92777 ], [ -77.15627, 38.92709 ], [ -77.15721, 38.92569 ], [ -77.15626, 38.92556 ], [ -77.15574, 38.92646 ], [ -77.15477, 38.92657 ], [ -77.15441, 38.92573 ], [ -77.15474, 38.92512 ], [ -77.1524, 38.92451 ], [ -77.15108, 38.92577 ], [ -77.15344, 38.92619 ], [ -77.15325, 38.92693 ], [ -77.14925, 38.92684 ], [ -77.1524, 38.92736 ], [ -77.15195, 38.929 ], [ -77.15159, 38.9293 ], [ -77.15026, 38.92907 ], [ -77.14991, 38.92969 ], [ -77.14864, 38.92948 ], [ -77.14829, 38.93015 ], [ -77.14683, 38.92983 ], [ -77.14665, 38.92768 ], [ -77.14711, 38.92684 ], [ -77.1451, 38.92574 ], [ -77.14507, 38.92511 ], [ -77.14566, 38.92459 ], [ -77.1445, 38.92414 ], [ -77.14451, 38.92355 ], [ -77.14319, 38.92396 ], [ -77.1424, 38.92351 ], [ -77.14298, 38.9229 ], [ -77.14476, 38.92245 ], [ -77.14499, 38.92088 ], [ -77.1459, 38.92041 ], [ -77.14771, 38.92129 ], [ -77.14689, 38.92276 ], [ -77.14731, 38.92274 ], [ -77.14794, 38.92185 ], [ -77.1491, 38.92164 ], [ -77.15145, 38.92205 ], [ -77.15199, 38.92271 ], [ -77.1526, 38.92166 ], [ -77.14998, 38.91988 ], [ -77.14771, 38.91555 ], [ -77.1486, 38.91388 ], [ -77.15059, 38.91287 ], [ -77.15188, 38.91323 ], [ -77.15222, 38.91379 ], [ -77.15234, 38.91309 ], [ -77.15478, 38.91252 ], [ -77.15689, 38.91086 ], [ -77.15835, 38.90839 ], [ -77.16025, 38.909 ], [ -77.16155, 38.90864 ], [ -77.16269, 38.90876 ], [ -77.1641, 38.90945 ], [ -77.16436, 38.9098 ], [ -77.16399, 38.91031 ], [ -77.16512, 38.90945 ], [ -77.16604, 38.90951 ], [ -77.16646, 38.90976 ], [ -77.16658, 38.91105 ], [ -77.16727, 38.91087 ], [ -77.16743, 38.90979 ], [ -77.1679, 38.90961 ], [ -77.16864, 38.9101 ] ], [ [ -77.16392, 38.9248 ], [ -77.163, 38.92446 ], [ -77.16342, 38.92473 ], [ -77.16445, 38.92544 ], [ -77.16392, 38.9248 ] ], [ [ -77.16269, 38.92058 ], [ -77.16111, 38.91975 ], [ -77.16252, 38.92086 ], [ -77.16269, 38.92058 ] ], [ [ -77.16098, 38.91968 ], [ -77.16057, 38.91951 ], [ -77.15955, 38.91969 ], [ -77.16022, 38.91995 ], [ -77.16111, 38.91975 ], [ -77.16098, 38.91968 ] ], [ [ -77.16254, 38.91879 ], [ -77.16173, 38.91877 ], [ -77.16314, 38.91953 ], [ -77.16254, 38.91879 ] ], [ [ -77.16204, 38.91771 ], [ -77.1619, 38.91681 ], [ -77.1608, 38.91625 ], [ -77.1577, 38.91795 ], [ -77.15624, 38.91952 ], [ -77.15845, 38.91934 ], [ -77.15883, 38.91875 ], [ -77.15989, 38.91842 ], [ -77.16167, 38.91874 ], [ -77.16148, 38.91837 ], [ -77.16204, 38.91771 ] ], [ [ -77.1582, 38.91636 ], [ -77.15877, 38.91611 ], [ -77.15788, 38.91593 ], [ -77.15704, 38.91636 ], [ -77.15765, 38.91661 ], [ -77.1582, 38.91636 ] ], [ [ -77.15801, 38.91374 ], [ -77.15733, 38.91309 ], [ -77.15738, 38.91188 ], [ -77.15564, 38.91337 ], [ -77.15391, 38.91403 ], [ -77.15333, 38.91564 ], [ -77.15241, 38.91539 ], [ -77.15243, 38.91486 ], [ -77.15155, 38.9149 ], [ -77.14997, 38.91632 ], [ -77.15069, 38.9164 ], [ -77.1513, 38.91582 ], [ -77.15183, 38.91582 ], [ -77.15495, 38.9191 ], [ -77.15568, 38.91808 ], [ -77.15497, 38.91764 ], [ -77.15495, 38.91631 ], [ -77.15747, 38.91477 ], [ -77.15801, 38.91374 ] ], [ [ -77.16489, 38.92266 ], [ -77.16349, 38.92183 ], [ -77.16534, 38.92314 ], [ -77.16559, 38.92286 ], [ -77.16489, 38.92266 ] ], [ [ -77.16711, 38.92071 ], [ -77.16672, 38.92093 ], [ -77.16709, 38.92106 ], [ -77.16711, 38.92071 ] ], [ [ -77.16584, 38.92055 ], [ -77.16587, 38.92056 ], [ -77.16586, 38.92055 ], [ -77.16584, 38.92055 ] ], [ [ -77.16534, 38.91838 ], [ -77.16551, 38.91831 ], [ -77.16541, 38.91824 ], [ -77.16534, 38.91838 ] ], [ [ -77.16589, 38.91722 ], [ -77.16572, 38.91721 ], [ -77.16604, 38.91725 ], [ -77.16589, 38.91722 ] ], [ [ -77.1656, 38.91612 ], [ -77.16584, 38.91613 ], [ -77.16524, 38.91593 ], [ -77.1656, 38.91612 ] ], [ [ -77.16253, 38.91249 ], [ -77.16116, 38.9117 ], [ -77.16212, 38.91014 ], [ -77.16175, 38.90971 ], [ -77.16067, 38.91005 ], [ -77.15973, 38.91097 ], [ -77.16077, 38.91108 ], [ -77.16027, 38.91252 ], [ -77.16175, 38.9124 ], [ -77.16269, 38.91389 ], [ -77.16253, 38.91249 ] ], [ [ -77.16589, 38.91384 ], [ -77.16566, 38.91401 ], [ -77.16602, 38.91413 ], [ -77.16589, 38.91384 ] ], [ [ -77.16393, 38.91233 ], [ -77.16433, 38.91346 ], [ -77.16532, 38.91278 ], [ -77.16393, 38.91233 ] ], [ [ -77.16782, 38.91331 ], [ -77.16809, 38.9134 ], [ -77.16808, 38.91325 ], [ -77.16782, 38.91331 ] ], [ [ -77.16705, 38.91281 ], [ -77.16687, 38.91299 ], [ -77.16715, 38.91309 ], [ -77.16705, 38.91281 ] ], [ [ -77.16913, 38.91732 ], [ -77.16937, 38.9173 ], [ -77.16789, 38.91681 ], [ -77.16913, 38.91732 ] ], [ [ -77.16732, 38.92447 ], [ -77.16818, 38.92466 ], [ -77.16817, 38.92452 ], [ -77.16732, 38.92447 ] ], [ [ -77.16303, 38.91145 ], [ -77.16381, 38.91119 ], [ -77.16376, 38.91041 ], [ -77.16303, 38.91145 ] ], [ [ -77.1638, 38.9165 ], [ -77.1637, 38.91659 ], [ -77.16407, 38.91663 ], [ -77.1638, 38.9165 ] ], [ [ -77.16583, 38.92179 ], [ -77.16544, 38.92161 ], [ -77.16565, 38.92175 ], [ -77.16583, 38.92179 ] ], [ [ -77.15883, 38.91286 ], [ -77.1589, 38.91233 ], [ -77.15883, 38.91269 ], [ -77.15883, 38.91286 ] ], [ [ -77.1591, 38.91186 ], [ -77.15895, 38.91218 ], [ -77.15892, 38.91227 ], [ -77.1591, 38.91186 ] ], [ [ -77.15896, 38.90971 ], [ -77.15867, 38.91026 ], [ -77.15922, 38.90991 ], [ -77.15896, 38.90971 ] ], [ [ -77.16076, 38.91416 ], [ -77.16118, 38.91443 ], [ -77.1614, 38.91432 ], [ -77.16106, 38.91347 ], [ -77.16076, 38.91416 ] ], [ [ -77.1594, 38.91572 ], [ -77.15924, 38.91589 ], [ -77.16019, 38.91519 ], [ -77.1594, 38.91572 ] ], [ [ -77.1588, 38.92572 ], [ -77.15896, 38.92575 ], [ -77.15895, 38.92574 ], [ -77.1588, 38.92572 ] ], [ [ -77.15546, 38.92323 ], [ -77.15375, 38.92228 ], [ -77.15572, 38.92356 ], [ -77.15542, 38.92418 ], [ -77.15774, 38.92449 ], [ -77.15546, 38.92323 ] ], [ [ -77.15344, 38.92366 ], [ -77.15371, 38.9237 ], [ -77.15347, 38.92355 ], [ -77.15305, 38.92355 ], [ -77.15344, 38.92366 ] ], [ [ -77.15129, 38.92317 ], [ -77.15153, 38.92349 ], [ -77.15154, 38.92349 ], [ -77.15183, 38.92298 ], [ -77.15129, 38.92317 ] ], [ [ -77.15335, 38.92074 ], [ -77.15408, 38.91998 ], [ -77.15146, 38.91731 ], [ -77.15024, 38.91747 ], [ -77.15141, 38.91807 ], [ -77.151, 38.9191 ], [ -77.15335, 38.92074 ] ], [ [ -77.15889, 38.92306 ], [ -77.15833, 38.92322 ], [ -77.15826, 38.92345 ], [ -77.15908, 38.92366 ], [ -77.15889, 38.92306 ] ], [ [ -77.15812, 38.92041 ], [ -77.15833, 38.92098 ], [ -77.15848, 38.92052 ], [ -77.15812, 38.92041 ] ], [ [ -77.15646, 38.91738 ], [ -77.1563, 38.91728 ], [ -77.15634, 38.91747 ], [ -77.15646, 38.91738 ] ], [ [ -77.15543, 38.92046 ], [ -77.15538, 38.92045 ], [ -77.15448, 38.92136 ], [ -77.15608, 38.92225 ], [ -77.15543, 38.92046 ] ], [ [ -77.15066, 38.91407 ], [ -77.14968, 38.91456 ], [ -77.14939, 38.9152 ], [ -77.15066, 38.91407 ] ], [ [ -77.14947, 38.92435 ], [ -77.14956, 38.9251 ], [ -77.14851, 38.92516 ], [ -77.14862, 38.92579 ], [ -77.15053, 38.92469 ], [ -77.14947, 38.92435 ] ], [ [ -77.14813, 38.92394 ], [ -77.14708, 38.92386 ], [ -77.14815, 38.92467 ], [ -77.14813, 38.92394 ] ], [ [ -77.14715, 38.92542 ], [ -77.14656, 38.92495 ], [ -77.14648, 38.92533 ], [ -77.14715, 38.92542 ] ] ] } },
{ "type": "Feature", "properties": { "variant": "T2s", "miles": 1.5 }, "geometry": { "type": "Polygon", "coordinates": [ [ [ -77.17349, 38.91066 ], [ -77.17532, 38.91054 ], [ -77.17602, 38.91 ], [ -77.17672, 38.91042 ], [ -77.17981, 38.91028 ], [ -77.18022, 38.91097 ], [ -77.17737, 38.91201 ], [ -77.17778, 38.91271 ], [ -77.17648, 38.91357 ], [ -77.17782, 38.91476 ], [ -77.17777, 38.91553 ], [ -77.1768, 38.91549 ], [ -77.17545, 38.91444 ], [ -77.17522, 38.91487 ], [ -77.17611, 38.91534 ], [ -77.1761, 38.91575 ], [ -77.17493, 38.91595 ], [ -77.17443, 38.91748 ], [ -77.17526, 38.91779 ], [ -77.17481, 38.91898 ], [ -77.1739, 38.91926 ], [ -77.17353, 38.91868 ], [ -77.17222, 38.91824 ], [ -77.17327, 38.91886 ], [ -77.17361, 38.92001 ], [ -77.17466, 38.91956 ], [ -77.1751, 38.91979 ], [ -77.17467, 38.92073 ], [ -77.17535, 38.92144 ], [ -77.17372, 38.92294 ], [ -77.17531, 38.92333 ], [ -77.17581, 38.92511 ], [ -77.17493, 38.92808 ], [ -77.17399, 38.92787 ], [ -77.174, 38.92685 ], [ -77.17312, 38.92669 ], [ -77.17327, 38.92569 ], [ -77.17115, 38.92642 ], [ -77.16921, 38.92593 ], [ -77.16959, 38.92728 ], [ -77.17011, 38.92765 ], [ -77.16908, 38.92889 ], [ -77.17199, 38.93013 ], [ -77.17225, 38.93086 ], [ -77.17183, 38.93112 ], [ -77.16748, 38.92934 ], [ -77.16667, 38.92949 ], [ -77.16642, 38.93046 ], [ -77.16592, 38.9306 ], [ -77.16532, 38.93017 ], [ -77.16402, 38.93005 ], [ -77.16465, 38.93069 ], [ -77.16385, 38.9312 ], [ -77.16461, 38.93246 ], [ -77.1641, 38.93297 ], [ -77.16319, 38.93307 ], [ -77.16258, 38.93174 ], [ -77.1617, 38.93177 ], [ -77.16146, 38.9314 ], [ -77.16166, 38.92854 ], [ -77.16106, 38.93124 ], [ -77.16041, 38.93191 ], [ -77.1588, 38.93237 ], [ -77.15794, 38.93152 ], [ -77.15714, 38.9321 ], [ -77.15658, 38.93202 ], [ -77.15617, 38.93161 ], [ -77.15678, 38.93063 ], [ -77.15635, 38.93028 ], [ -77.15548, 38.9317 ], [ -77.15596, 38.93194 ], [ -77.15571, 38.93268 ], [ -77.15283, 38.93343 ], [ -77.15162, 38.93454 ], [ -77.15093, 38.93401 ], [ -77.15145, 38.93334 ], [ -77.15053, 38.93325 ], [ -77.15067, 38.93412 ], [ -77.14994, 38.93488 ], [ -77.14908, 38.93494 ], [ -77.1485, 38.9342 ], [ -77.14745, 38.93481 ], [ -77.14626, 38.93375 ], [ -77.14661, 38.93259 ], [ -77.14609, 38.93277 ], [ -77.14542, 38.93221 ], [ -77.14549, 38.93009 ], [ -77.14567, 38.9297 ], [ -77.14663, 38.9295 ], [ -77.14667, 38.92757 ], [ -77.14711, 38.92684 ], [ -77.14524, 38.92591 ], [ -77.14535, 38.92747 ], [ -77.14456, 38.92785 ], [ -77.14401, 38.9276 ], [ -77.14386, 38.92941 ], [ -77.14441, 38.92989 ], [ -77.14431, 38.9304 ], [ -77.14329, 38.93084 ], [ -77.14228, 38.93023 ], [ -77.14306, 38.92594 ], [ -77.14451, 38.92355 ], [ -77.14388, 38.92376 ], [ -77.14343, 38.9246 ], [ -77.14249, 38.92438 ], [ -77.14245, 38.92395 ], [ -77.13981, 38.92395 ], [ -77.14012, 38.92475 ], [ -77.1386, 38.92492 ], [ -77.13846, 38.92608 ], [ -77.13746, 38.92658 ], [ -77.13417, 38.92446 ], [ -77.13431, 38.92371 ], [ -77.1335, 38.92343 ], [ -77.13349, 38.92302 ], [ -77.13426, 38.92164 ], [ -77.13594, 38.92098 ], [ -77.13667, 38.92197 ], [ -77.13768, 38.92001 ], [ -77.1391, 38.91949 ], [ -77.13818, 38.9189 ], [ -77.1373, 38.91901 ], [ -77.13681, 38.91757 ], [ -77.13777, 38.9174 ], [ -77.14105, 38.91933 ], [ -77.1422, 38.91941 ], [ -77.1435, 38.92004 ], [ -77.14286, 38.9195 ], [ -77.14287, 38.91843 ], [ -77.14151, 38.91886 ], [ -77.14077, 38.91837 ], [ -77.14093, 38.91798 ], [ -77.14136, 38.91779 ], [ -77.14171, 38.91765 ], [ -77.14502, 38.91652 ], [ -77.14594, 38.91679 ], [ -77.14537, 38.91758 ], [ -77.14618, 38.91872 ], [ -77.14574, 38.92044 ], [ -77.14771, 38.92129 ], [ -77.14689, 38.92276 ], [ -77.14731, 38.92274 ], [ -77.14794, 38.92185 ], [ -77.1491, 38.92164 ], [ -77.15145, 38.92205 ], [ -77.15199, 38.92271 ], [ -77.1526, 38.92166 ], [ -77.14998, 38.91988 ], [ -77.14771, 38.91555 ], [ -77.14855, 38.91392 ], [ -77.15038, 38.91273 ], [ -77.14979, 38.90873 ], [ -77.14763, 38.90862 ], [ -77.14719, 38.90794 ], [ -77.14774, 38.90711 ], [ -77.14851, 38.90723 ], [ -77.14936, 38.90665 ], [ -77.14925, 38.90504 ], [ -77.1496, 38.90473 ], [ -77.15052, 38.90498 ], [ -77.15121, 38.90474 ], [ -77.15343, 38.90614 ], [ -77.15345, 38.90669 ], [ -77.1528, 38.90717 ], [ -77.15346, 38.9079 ], [ -77.15263, 38.90888 ], [ -77.15302, 38.90918 ], [ -77.15399, 38.90794 ], [ -77.15553, 38.90736 ], [ -77.15584, 38.90691 ], [ -77.15513, 38.9061 ], [ -77.15613, 38.9057 ], [ -77.15652, 38.90489 ], [ -77.15557, 38.90425 ], [ -77.1555, 38.90348 ], [ -77.15664, 38.90354 ], [ -77.15665, 38.90213 ], [ -77.15819, 38.90156 ], [ -77.16081, 38.90324 ], [ -77.16165, 38.90234 ], [ -77.16218, 38.90238 ], [ -77.16262, 38.90378 ], [ -77.16391, 38.90477 ], [ -77.16411, 38.90392 ], [ -77.16483, 38.90347 ], [ -77.16597, 38.90377 ], [ -77.16609, 38.90425 ], [ -77.16541, 38.90485 ], [ -77.16683, 38.90495 ], [ -77.16763, 38.90479 ], [ -77.1679, 38.90434 ], [ -77.16887, 38.90444 ], [ -77.16927, 38.90567 ], [ -77.16898, 38.90601 ], [ -77.16757, 38.90592 ], [ -77.16804, 38.90648 ], [ -77.1678, 38.9068 ], [ -77.16875, 38.90679 ], [ -77.16897, 38.90717 ], [ -77.16872, 38.9092 ], [ -77.16825, 38.90969 ], [ -77.16864, 38.9101 ], [ -77.16854, 38.91135 ], [ -77.16897, 38.91142 ], [ -77.16957, 38.90857 ], [ -77.17085, 38.90869 ], [ -77.17102, 38.90811 ], [ -77.17193, 38.90806 ], [ -77.17217, 38.90694 ], [ -77.17266, 38.90679 ], [ -77.17333, 38.90734 ], [ -77.17349, 38.91066 ] ], [ [ -77.16187, 38.92579 ], [ -77.16251, 38.92555 ], [ -77.16132, 38.92481 ], [ -77.16034, 38.92565 ], [ -77.15997, 38.92697 ], [ -77.16082, 38.9268 ], [ -77.16164, 38.92746 ], [ -77.16187, 38.92579 ] ], [ [ -77.16269, 38.92058 ], [ -77.16111, 38.91975 ], [ -77.16252, 38.92086 ], [ -77.16269, 38.92058 ] ], [ [ -77.16098, 38.91968 ], [ -77.16057, 38.91951 ], [ -77.15955, 38.91969 ], [ -77.16022, 38.91995 ], [ -77.16111, 38.91975 ], [ -77.16098, 38.91968 ] ], [ [ -77.16009, 38.91839 ], [ -77.16167, 38.91874 ], [ -77.16148, 38.91837 ], [ -77.16204, 38.91771 ], [ -77.16183, 38.91672 ], [ -77.1608, 38.91625 ], [ -77.1577, 38.91795 ], [ -77.15624, 38.91952 ], [ -77.15845, 38.91934 ], [ -77.15845, 38.91904 ], [ -77.16009, 38.91839 ] ], [ [ -77.1614, 38.91432 ], [ -77.1611, 38.91346 ], [ -77.16076, 38.91416 ], [ -77.1614, 38.91432 ] ], [ [ -77.16199, 38.91251 ], [ -77.16269, 38.91389 ], [ -77.16302, 38.9138 ], [ -77.16253, 38.91249 ], [ -77.16116, 38.9117 ], [ -77.16212, 38.90975 ], [ -77.16067, 38.91005 ], [ -77.15973, 38.91097 ], [ -77.16077, 38.91108 ], [ -77.16027, 38.91252 ], [ -77.16199, 38.91251 ] ], [ [ -77.16246, 38.9087 ], [ -77.16375, 38.90937 ], [ -77.16311, 38.90795 ], [ -77.16255, 38.90727 ], [ -77.16182, 38.90718 ], [ -77.16163, 38.90669 ], [ -77.161, 38.90666 ], [ -77.16116, 38.90873 ], [ -77.16246, 38.9087 ] ], [ [ -77.16166, 38.90535 ], [ -77.16133, 38.90561 ], [ -77.16199, 38.90559 ], [ -77.16166, 38.90535 ] ], [ [ -77.16011, 38.9042 ], [ -77.15911, 38.90426 ], [ -77.15866, 38.90317 ], [ -77.15907, 38.90563 ], [ -77.16064, 38.90458 ], [ -77.16011, 38.9042 ] ], [ [ -77.16817, 38.92452 ], [ -77.16732, 38.92447 ], [ -77.1675, 38.92455 ], [ -77.16817, 38.92452 ] ], [ [ -77.16691, 38.92091 ], [ -77.16672, 38.92093 ], [ -77.16709, 38.92106 ], [ -77.16711, 38.92071 ], [ -77.16691, 38.92091 ] ], [ [ -77.16809, 38.9134 ], [ -77.16808, 38.91325 ], [ -77.16782, 38.91331 ], [ -77.16809, 38.9134 ] ], [ [ -77.16687, 38.91299 ], [ -77.16715, 38.91309 ], [ -77.16705, 38.91281 ], [ -77.16687, 38.91299 ] ], [ [ -77.16755, 38.90975 ], [ -77.16764, 38.90971 ], [ -77.16754, 38.90969 ], [ -77.16755, 38.90975 ] ], [ [ -77.16775, 38.90686 ], [ -77.16776, 38.90684 ], [ -77.16771, 38.90685 ], [ -77.16775, 38.90686 ] ], [ [ -77.17021, 38.91267 ], [ -77.17001, 38.91267 ], [ -77.17047, 38.9129 ], [ -77.17021, 38.91267 ] ], [ [ -77.17394, 38.91444 ], [ -77.17455, 38.9136 ], [ -77.17399, 38.9132 ], [ -77.17243, 38.91455 ], [ -77.17217, 38.91492 ], [ -77.17267, 38.91509 ], [ -77.17253, 38.91456 ], [ -77.17394, 38.91444 ] ], [ [ -77.17462, 38.9122 ], [ -77.17549, 38.9128 ], [ -77.17531, 38.91211 ], [ -77.17462, 38.9122 ] ], [ [ -77.17204, 38.91247 ], [ -77.1717, 38.91251 ], [ -77.17202, 38.91272 ], [ -77.17204, 38.91247 ] ], [ [ -77.1742, 38.9176 ], [ -77.17398, 38.91765 ], [ -77.17411, 38.91763 ], [ -77.1742, 38.9176 ] ], [ [ -77.17185, 38.92485 ], [ -77.17168, 38.92462 ], [ -77.17067, 38.92519 ], [ -77.17185, 38.92485 ] ], [ [ -77.17228, 38.92267 ], [ -77.17231, 38.92275 ], [ -77.17234, 38.92268 ], [ -77.17228, 38.92267 ] ], [ [ -77.17248, 38.92112 ], [ -77.17186, 38.92044 ], [ -77.17024, 38.92242 ], [ -77.17078, 38.92298 ], [ -77.17107, 38.92194 ], [ -77.17248, 38.92112 ] ], [ [ -77.1739, 38.92408 ], [ -77.17404, 38.92426 ], [ -77.17406, 38.92411 ], [ -77.1739, 38.92408 ] ], [ [ -77.1729, 38.92401 ], [ -77.17307, 38.92393 ], [ -77.17281, 38.92384 ], [ -77.1729, 38.92401 ] ], [ [ -77.16886, 38.91727 ], [ -77.16937, 38.9173 ], [ -77.16789, 38.91681 ], [ -77.16886, 38.91727 ] ], [ [ -77.16949, 38.91404 ], [ -77.16944, 38.91395 ], [ -77.16941, 38.91401 ], [ -77.16949, 38.91404 ] ], [ [ -77.17065, 38.91442 ], [ -77.17031, 38.91418 ], [ -77.17012, 38.91425 ], [ -77.17065, 38.91442 ] ], [ [ -77.16929, 38.922 ], [ -77.16934, 38.92202 ], [ -77.16934, 38.92191 ], [ -77.16929, 38.922 ] ], [ [ -77.16426, 38.92899 ], [ -77.16421, 38.9289 ], [ -77.1642, 38.92898 ], [ -77.16426, 38.92899 ] ], [ [ -77.16418, 38.92823 ], [ -77.16422, 38.92853 ], [ -77.1645, 38.92831 ], [ -77.16418, 38.92823 ] ], [ [ -77.16463, 38.92697 ], [ -77.16439, 38.92682 ], [ -77.16432, 38.92728 ], [ -77.16463, 38.92697 ] ], [ [ -77.16365, 38.92465 ], [ -77.163, 38.92446 ], [ -77.16447, 38.92545 ], [ -77.16365, 38.92465 ] ], [ [ -77.16489, 38.92266 ], [ -77.16349, 38.92183 ], [ -77.16534, 38.92314 ], [ -77.16559, 38.92286 ], [ -77.16489, 38.92266 ] ], [ [ -77.16534, 38.91838 ], [ -77.16551, 38.91831 ], [ -77.16541, 38.91824 ], [ -77.16534, 38.91838 ] ], [ [ -77.16579, 38.91721 ], [ -77.16572, 38.91721 ], [ -77.16604, 38.91725 ], [ -77.16579, 38.91721 ] ], [ [ -77.16584, 38.91613 ], [ -77.16524, 38.91593 ], [ -77.16532, 38.91613 ], [ -77.16584, 38.91613 ] ], [ [ -77.16532, 38.91278 ], [ -77.16393, 38.91233 ], [ -77.16433, 38.91346 ], [ -77.16532, 38.91278 ] ], [ [ -77.16531, 38.90593 ], [ -77.16361, 38.90583 ], [ -77.16401, 38.9071 ], [ -77.16506, 38.90679 ], [ -77.16531, 38.90593 ] ], [ [ -77.16601, 38.90916 ], [ -77.16614, 38.90951 ], [ -77.16616, 38.90878 ], [ -77.1658, 38.90888 ], [ -77.16601, 38.90916 ] ], [ [ -77.16589, 38.91384 ], [ -77.16566, 38.91401 ], [ -77.16602, 38.91413 ], [ -77.16589, 38.91384 ] ], [ [ -77.16583, 38.92179 ], [ -77.16544, 38.92161 ], [ -77.16563, 38.92174 ], [ -77.16583, 38.92179 ] ], [ [ -77.16584, 38.92055 ], [ -77.16587, 38.92056 ], [ -77.16586, 38.92055 ], [ -77.16584, 38.92055 ] ], [ [ -77.16254, 38.91879 ], [ -77.16173, 38.91877 ], [ -77.16174, 38.91878 ], [ -77.16314, 38.91953 ], [ -77.16254, 38.91879 ] ], [ [ -77.16303, 38.91145 ], [ -77.16381, 38.91119 ], [ -77.16376, 38.91041 ], [ -77.16303, 38.91145 ] ], [ [ -77.162, 38.90411 ], [ -77.16203, 38.90407 ], [ -77.16196, 38.90408 ], [ -77.162, 38.90411 ] ], [ [ -77.1637, 38.91659 ], [ -77.16407, 38.91663 ], [ -77.164, 38.91646 ], [ -77.1637, 38.91659 ] ], [ [ -77.15104, 38.9302 ], [ -77.15095, 38.93017 ], [ -77.15105, 38.93026 ], [ -77.15104, 38.9302 ] ], [ [ -77.15274, 38.92701 ], [ -77.14925, 38.92684 ], [ -77.1494, 38.9269 ], [ -77.15284, 38.92725 ], [ -77.15274, 38.92701 ] ], [ [ -77.15285, 38.92514 ], [ -77.1522, 38.92479 ], [ -77.15108, 38.92577 ], [ -77.15273, 38.92588 ], [ -77.15285, 38.92514 ] ], [ [ -77.15129, 38.92317 ], [ -77.15153, 38.92349 ], [ -77.15154, 38.92349 ], [ -77.15183, 38.92298 ], [ -77.15129, 38.92317 ] ], [ [ -77.15408, 38.91998 ], [ -77.15146, 38.91731 ], [ -77.15024, 38.91747 ], [ -77.15141, 38.91807 ], [ -77.15087, 38.91885 ], [ -77.15131, 38.91949 ], [ -77.15335, 38.92074 ], [ -77.15408, 38.91998 ] ], [ [ -77.15495, 38.9191 ], [ -77.15568, 38.91808 ], [ -77.15497, 38.91764 ], [ -77.15489, 38.91644 ], [ -77.15742, 38.91487 ], [ -77.15801, 38.91374 ], [ -77.15731, 38.91301 ], [ -77.156, 38.91529 ], [ -77.1528, 38.91567 ], [ -77.15243, 38.91486 ], [ -77.15155, 38.9149 ], [ -77.14997, 38.91632 ], [ -77.15069, 38.9164 ], [ -77.1513, 38.91582 ], [ -77.15183, 38.91582 ], [ -77.15495, 38.9191 ] ], [ [ -77.152, 38.9138 ], [ -77.15207, 38.9138 ], [ -77.15202, 38.91377 ], [ -77.152, 38.9138 ] ], [ [ -77.15237, 38.91021 ], [ -77.15145, 38.90952 ], [ -77.15114, 38.91038 ], [ -77.15154, 38.91197 ], [ -77.15237, 38.91021 ] ], [ [ -77.15634, 38.91747 ], [ -77.15646, 38.91738 ], [ -77.1563, 38.91728 ], [ -77.15634, 38.91747 ] ], [ [ -77.15566, 38.91336 ], [ -77.15391, 38.91403 ], [ -77.15399, 38.91436 ], [ -77.15519, 38.91429 ], [ -77.15566, 38.91336 ] ], [ [ -77.15689, 38.91086 ], [ -77.1584, 38.90774 ], [ -77.15759, 38.90826 ], [ -77.15688, 38.9077 ], [ -77.15689, 38.90996 ], [ -77.15418, 38.91276 ], [ -77.15689, 38.91086 ] ], [ [ -77.15712, 38.90731 ], [ -77.15745, 38.90672 ], [ -77.15729, 38.90673 ], [ -77.15712, 38.90731 ] ], [ [ -77.15765, 38.90564 ], [ -77.15762, 38.90556 ], [ -77.15759, 38.90564 ], [ -77.15765, 38.90564 ] ], [ [ -77.15869, 38.91023 ], [ -77.15867, 38.91026 ], [ -77.15927, 38.90985 ], [ -77.15869, 38.91023 ] ], [ [ -77.1598, 38.90827 ], [ -77.15977, 38.90795 ], [ -77.15946, 38.90868 ], [ -77.1598, 38.90827 ] ], [ [ -77.15873, 38.9128 ], [ -77.15883, 38.91286 ], [ -77.1589, 38.91233 ], [ -77.15873, 38.9128 ] ], [ [ -77.1594, 38.91572 ], [ -77.15924, 38.91589 ], [ -77.16019, 38.91519 ], [ -77.1594, 38.91572 ] ], [ [ -77.15788, 38.91593 ], [ -77.15704, 38.91636 ], [ -77.15752, 38.91667 ], [ -77.15877, 38.91611 ], [ -77.15788, 38.91593 ] ], [ [ -77.15986, 38.92727 ], [ -77.15955, 38.92807 ], [ -77.16005, 38.92904 ], [ -77.1593, 38.92979 ], [ -77.15932, 38.93113 ], [ -77.15973, 38.93094 ], [ -77.16041, 38.928 ], [ -77.15986, 38.92727 ] ], [ [ -77.15655, 38.92764 ], [ -77.15685, 38.92833 ], [ -77.15789, 38.92782 ], [ -77.15757, 38.92738 ], [ -77.15655, 38.92764 ] ], [ [ -77.15774, 38.92449 ], [ -77.15375, 38.92228 ], [ -77.15572, 38.92356 ], [ -77.15542, 38.92418 ], [ -77.15774, 38.92449 ] ], [ [ -77.15543, 38.92046 ], [ -77.15538, 38.92045 ], [ -77.15448, 38.92136 ], [ -77.15608, 38.92225 ], [ -77.15543, 38.92046 ] ], [ [ -77.15889, 38.92306 ], [ -77.15826, 38.92345 ], [ -77.15922, 38.9237 ], [ -77.15889, 38.92306 ] ], [ [ -77.15822, 38.92067 ], [ -77.15833, 38.92098 ], [ -77.15848, 38.92052 ], [ -77.15822, 38.92067 ] ], [ [ -77.15795, 38.92683 ], [ -77.15789, 38.92692 ], [ -77.15803, 38.92685 ], [ -77.15795, 38.92683 ] ], [ [ -77.1588, 38.92572 ], [ -77.15896, 38.92575 ], [ -77.15895, 38.92574 ], [ -77.1588, 38.92572 ] ], [ [ -77.15781, 38.92978 ], [ -77.15742, 38.92958 ], [ -77.15795, 38.93005 ], [ -77.15781, 38.92978 ] ], [ [ -77.15865, 38.92889 ], [ -77.1586, 38.9289 ], [ -77.15866, 38.92893 ], [ -77.15865, 38.92889 ] ], [ [ -77.15307, 38.92356 ], [ -77.15371, 38.9237 ], [ -77.15347, 38.92355 ], [ -77.15307, 38.92356 ] ], [ [ -77.15421, 38.92537 ], [ -77.15446, 38.92551 ], [ -77.15474, 38.92512 ], [ -77.15421, 38.92537 ] ], [ [ -77.15518, 38.92751 ], [ -77.15524, 38.92721 ], [ -77.15499, 38.92739 ], [ -77.15518, 38.92751 ] ], [ [ -77.15331, 38.92839 ], [ -77.15321, 38.92838 ], [ -77.15329, 38.92848 ], [ -77.15331, 38.92839 ] ], [ [ -77.15539, 38.92662 ], [ -77.15535, 38.92664 ], [ -77.15538, 38.92665 ], [ -77.15539, 38.92662 ] ], [ [ -77.15582, 38.92584 ], [ -77.15584, 38.92596 ], [ -77.15602, 38.92574 ], [ -77.15582, 38.92584 ] ], [ [ -77.15448, 38.93095 ], [ -77.15474, 38.93045 ], [ -77.15433, 38.93075 ], [ -77.15448, 38.93095 ] ], [ [ -77.15305, 38.93181 ], [ -77.15332, 38.93167 ], [ -77.15281, 38.93072 ], [ -77.15305, 38.93181 ] ], [ [ -77.15552, 38.90852 ], [ -77.15415, 38.90985 ], [ -77.1551, 38.91021 ], [ -77.15552, 38.90852 ] ], [ [ -77.1531, 38.91154 ], [ -77.15284, 38.91239 ], [ -77.1541, 38.91103 ], [ -77.1534, 38.91103 ], [ -77.1531, 38.91154 ] ], [ [ -77.14813, 38.93279 ], [ -77.14799, 38.93265 ], [ -77.14798, 38.93299 ], [ -77.14813, 38.93279 ] ], [ [ -77.14697, 38.93056 ], [ -77.147, 38.93065 ], [ -77.14703, 38.93056 ], [ -77.14697, 38.93056 ] ], [ [ -77.15024, 38.92491 ], [ -77.15053, 38.92469 ], [ -77.14947, 38.92435 ], [ -77.14956, 38.9251 ], [ -77.14851, 38.92516 ], [ -77.14874, 38.92571 ], [ -77.15024, 38.92491 ] ], [ [ -77.14813, 38.92394 ], [ -77.14708, 38.92386 ], [ -77.14815, 38.92467 ], [ -77.14813, 38.92394 ] ], [ [ -77.14915, 38.93203 ], [ -77.14931, 38.93205 ], [ -77.14934, 38.93177 ], [ -77.14915, 38.93203 ] ], [ [ -77.1444, 38.92221 ], [ -77.14442, 38.92247 ], [ -77.14476, 38.92245 ], [ -77.1444, 38.92221 ] ], [ [ -77.13974, 38.92103 ], [ -77.14075, 38.92172 ], [ -77.14009, 38.92026 ], [ -77.13974, 38.92103 ] ], [ [ -77.14426, 38.91834 ], [ -77.14426, 38.91842 ], [ -77.14439, 38.91835 ], [ -77.14426, 38.91834 ] ], [ [ -77.14414, 38.91939 ], [ -77.14466, 38.91947 ], [ -77.1447, 38.91936 ], [ -77.14414, 38.91939 ] ], [ [ -77.14163, 38.92041 ], [ -77.14212, 38.92149 ], [ -77.14221, 38.92067 ], [ -77.14163, 38.92041 ] ], [ [ -77.13531, 38.92236 ], [ -77.13523, 38.9225 ], [ -77.13532, 38.92253 ], [ -77.13531, 38.92236 ] ], [ [ -77.136, 38.92403 ], [ -77.1363, 38.92382 ], [ -77.13578, 38.92375 ], [ -77.136, 38.92403 ] ], [ [ -77.13726, 38.92518 ], [ -77.13706, 38.92473 ], [ -77.13679, 38.92492 ], [ -77.13726, 38.92518 ] ], [ [ -77.14648, 38.92533 ], [ -77.14696, 38.92565 ], [ -77.14715, 38.92542 ], [ -77.14659, 38.92498 ], [ -77.14648, 38.92533 ] ], [ [ -77.14566, 38.92459 ], [ -77.14556, 38.92457 ], [ -77.14551, 38.92467 ], [ -77.14566, 38.92459 ] ], [ [ -77.14501, 38.92546 ], [ -77.145, 38.92534 ], [ -77.14488, 38.92549 ], [ -77.14501, 38.92546 ] ], [ [ -77.14901, 38.90778 ], [ -77.1492, 38.90775 ], [ -77.1487, 38.90761 ], [ -77.14901, 38.90778 ] ], [ [ -77.14965, 38.91459 ], [ -77.14939, 38.9152 ], [ -77.15066, 38.91407 ], [ -77.14965, 38.91459 ] ] ] } }
]
}
