{
"type": "FeatureCollection",
"name": "356",
"crs": { "type": "name", "properties": { "name": "urn:ogc:def:crs:OGC:1.3:CRS84" } },
"xy_coordinate_resolution": 1e-05,
"features": [
{ "type": "Feature", "properties": { "variant": "T0", "miles": 0.5 }, "geometry": { "type": "Polygon", "coordinates": [ [ [ -77.26074, 38.71855 ], [ -77.26043, 38.71772 ], [ -77.2614, 38.71759 ], [ -77.26486, 38.71987 ], [ -77.26626, 38.72026 ], [ -77.2662, 38.72179 ], [ -77.2654, 38.72212 ], [ -77.26479, 38.72153 ], [ -77.26506, 38.7211 ], [ -77.26413, 38.72079 ], [ -77.26299, 38.72097 ], [ -77.26268, 38.72063 ], [ -77.2631, 38.72004 ], [ -77.26188, 38.71917 ], [ -77.26115, 38.71967 ], [ -77.25957, 38.71989 ], [ -77.25795, 38.7191 ], [ -77.25737, 38.71818 ], [ -77.25741, 38.71777 ], [ -77.25834, 38.71753 ], [ -77.25888, 38.71827 ], [ -77.26003, 38.71884 ], [ -77.26074, 38.71855 ] ] ] } },
{ "type": "Feature", "properties": { "variant": "T0", "miles": 1.0 }, "geometry": { "type": "Polygon", "coordinates": [ [ [ -77.27017, 38.71519 ], [ -77.26858, 38.71744 ], [ -77.27007, 38.7179 ], [ -77.27041, 38.71742 ], [ -77.26949, 38.71684 ], [ -77.26953, 38.71644 ], [ -77.27049, 38.71613 ], [ -77.27319, 38.71777 ], [ -77.27324, 38.71818 ], [ -77.27244, 38.71853 ], [ -77.27332, 38.7187 ], [ -77.27356, 38.71822 ], [ -77.27454, 38.71828 ], [ -77.27461, 38.71959 ], [ -77.27389, 38.72004 ], [ -77.27255, 38.71985 ], [ -77.27291, 38.72054 ], [ -77.27185, 38.72153 ], [ -77.27043, 38.72167 ], [ -77.26907, 38.72108 ], [ -77.26721, 38.72255 ], [ -77.2663, 38.72228 ], [ -77.26629, 38.72186 ], [ -77.26798, 38.72038 ], [ -77.26744, 38.71989 ], [ -77.26654, 38.72036 ], [ -77.2662, 38.72179 ], [ -77.2654, 38.72212 ], [ -77.26479, 38.72153 ], [ -77.26506, 38.7211 ], [ -77.26413, 38.72079 ], [ -77.26299, 38.72097 ], [ -77.26268, 38.72063 ], [ -77.2631, 38.72004 ], [ -77.26188, 38.71917 ], [ -77.26115, 38.71967 ], [ -77.25957, 38.71989 ], [ -77.25795, 38.7191 ], [ -77.25737, 38.71818 ], [ -77.25741, 38.71777 ], [ -77.25834, 38.71753 ], [ -77.25888, 38.71827 ], [ -77.26003, 38.71884 ], [ -77.26074, 38.71855 ], [ -77.26043, 38.71772 ], [ -77.2614, 38.71759 ], [ -77.26522, 38.72001 ], [ -77.2674, 38.71855 ], [ -77.26475, 38.71719 ], [ -77.26276, 38.71459 ], [ -77.2644, 38.71404 ], [ -77.26735, 38.7169 ], [ -77.26784, 38.71646 ], [ -77.26682, 38.71636 ], [ -77.26686, 38.7156 ], [ -77.26944, 38.71468 ], [ -77.27017, 38.71519 ] ], [ [ -77.26893, 38.7196 ], [ -77.27089, 38.72063 ], [ -77.27041, 38.72 ], [ -77.27138, 38.7196 ], [ -77.26929, 38.71913 ], [ -77.26893, 38.7196 ] ] ] } },
{ "type": "Feature", "properties": { "variant": "T0", "miles": 1.5 }, "geometry": { "type": "Polygon", "coordinates": [ [ [ -77.27358, 38.71522 ], [ -77.27205, 38.71732 ], [ -77.27322, 38.71804 ], [ -77.27429, 38.71735 ], [ -77.27539, 38.71741 ], [ -77.27608, 38.71797 ], [ -77.27594, 38.71893 ], [ -77.27726, 38.71915 ], [ -77.27947, 38.71787 ], [ -77.27944, 38.71653 ], [ -77.27988, 38.71621 ], [ -77.2808, 38.71648 ], [ -77.28097, 38.71748 ], [ -77.28301, 38.71698 ], [ -77.28385, 38.71736 ], [ -77.28336, 38.71803 ], [ -77.27909, 38.71918 ], [ -77.28068, 38.72185 ], [ -77.28155, 38.72429 ], [ -77.28062, 38.72454 ], [ -77.28026, 38.72418 ], [ -77.27975, 38.72453 ], [ -77.27842, 38.72372 ], [ -77.2769, 38.72482 ], [ -77.2764, 38.72468 ], [ -77.27617, 38.72364 ], [ -77.27546, 38.72413 ], [ -77.27498, 38.72395 ], [ -77.27483, 38.72318 ], [ -77.27431, 38.72315 ], [ -77.27462, 38.72381 ], [ -77.27376, 38.7242 ], [ -77.27273, 38.72389 ], [ -77.2722, 38.72323 ], [ -77.27191, 38.72378 ], [ -77.27225, 38.7244 ], [ -77.27355, 38.72514 ], [ -77.27473, 38.72516 ], [ -77.27517, 38.72561 ], [ -77.27457, 38.72622 ], [ -77.27284, 38.72618 ], [ -77.27205, 38.72689 ], [ -77.27137, 38.72635 ], [ -77.27177, 38.72546 ], [ -77.27058, 38.72415 ], [ -77.26931, 38.72389 ], [ -77.26843, 38.72327 ], [ -77.26895, 38.72262 ], [ -77.27071, 38.72308 ], [ -77.27166, 38.7222 ], [ -77.27298, 38.72197 ], [ -77.27255, 38.72108 ], [ -77.27093, 38.72171 ], [ -77.26907, 38.72108 ], [ -77.26721, 38.72255 ], [ -77.26669, 38.72256 ], [ -77.2663, 38.72228 ], [ -77.26646, 38.72153 ], [ -77.26798, 38.72038 ], [ -77.26744, 38.71989 ], [ -77.26654, 38.72036 ], [ -77.2662, 38.72179 ], [ -77.2654, 38.72212 ], [ -77.26479, 38.72153 ], [ -77.26506, 38.7211 ], [ -77.26413, 38.72079 ], [ -77.26299, 38.72097 ], [ -77.26268, 38.72063 ], [ -77.2631, 38.72004 ], [ -77.26188, 38.71917 ], [ -77.25993, 38.71995 ], [ -77.25775, 38.71891 ], [ -77.25737, 38.71818 ], [ -77.25781, 38.7175 ], [ -77.25834, 38.71753 ], [ -77.25888, 38.71827 ], [ -77.26003, 38.71884 ], [ -77.26074, 38.71855 ], [ -77.26031, 38.71812 ], [ -77.26088, 38.7175 ], [ -77.26454, 38.71964 ], [ -77.26431, 38.719 ], [ -77.26533, 38.71767 ], [ -77.2637, 38.71573 ], [ -77.26284, 38.71593 ], [ -77.26144, 38.71507 ], [ -77.26242, 38.71346 ], [ -77.26226, 38.71308 ], [ -77.26159, 38.71373 ], [ -77.26052, 38.71382 ], [ -77.25972, 38.71339 ], [ -77.25986, 38.71254 ], [ -77.25865, 38.71336 ], [ -77.25819, 38.71316 ], [ -77.25812, 38.71249 ], [ -77.25717, 38.71205 ], [ -77.25741, 38.71131 ], [ -77.25903, 38.71167 ], [ -77.26124, 38.71112 ], [ -77.26093, 38.71034 ], [ -77.25879, 38.70847 ], [ -77.25908, 38.70812 ], [ -77.26018, 38.70811 ], [ -77.26064, 38.70724 ], [ -77.26154, 38.70754 ], [ -77.2629, 38.71116 ], [ -77.2644, 38.71371 ], [ -77.26691, 38.7118 ], [ -77.26673, 38.71096 ], [ -77.26783, 38.711 ], [ -77.26922, 38.70982 ], [ -77.2702, 38.70979 ], [ -77.27, 38.71266 ], [ -77.26771, 38.71522 ], [ -77.26944, 38.71468 ], [ -77.27017, 38.71519 ], [ -77.26858, 38.71744 ], [ -77.27007, 38.7179 ], [ -77.27041, 38.71742 ], [ -77.26949, 38.71684 ], [ -77.26957, 38.71638 ], [ -77.27049, 38.71613 ], [ -77.27108, 38.71647 ], [ -77.27239, 38.71463 ], [ -77.27328, 38.71416 ], [ -77.27672, 38.71517 ], [ -77.27681, 38.71593 ], [ -77.27621, 38.71613 ], [ -77.27358, 38.71522 ] ], [ [ -77.26784, 38.71646 ], [ -77.26679, 38.71629 ], [ -77.26663, 38.71646 ], [ -77.26741, 38.71685 ], [ -77.26784, 38.71646 ] ], [ [ -77.27572, 38.72172 ], [ -77.27521, 38.72156 ], [ -77.2752, 38.72085 ], [ -77.27432, 38.7207 ], [ -77.27425, 38.72007 ], [ -77.2726, 38.71986 ], [ -77.27398, 38.72071 ], [ -77.27436, 38.72206 ], [ -77.27532, 38.72213 ], [ -77.27572, 38.72172 ] ], [ [ -77.27857, 38.72111 ], [ -77.27807, 38.72138 ], [ -77.27737, 38.72101 ], [ -77.27729, 38.72169 ], [ -77.27804, 38.72207 ], [ -77.27905, 38.7219 ], [ -77.27924, 38.72281 ], [ -77.27996, 38.72349 ], [ -77.27922, 38.72189 ], [ -77.27857, 38.72111 ] ], [ [ -77.27244, 38.71853 ], [ -77.27253, 38.71855 ], [ -77.27252, 38.71852 ], [ -77.27244, 38.71853 ] ], [ [ -77.26944, 38.71993 ], [ -77.27094, 38.72063 ], [ -77.27041, 38.72 ], [ -77.27138, 38.7196 ], [ -77.26929, 38.71913 ], [ -77.26944, 38.71993 ] ], [ [ -77.26647, 38.71376 ], [ -77.26631, 38.71433 ], [ -77.26499, 38.71473 ], [ -77.26569, 38.71564 ], [ -77.26868, 38.71227 ], [ -77.26862, 38.71193 ], [ -77.26647, 38.71376 ] ], [ [ -77.26588, 38.71931 ], [ -77.2674, 38.71855 ], [ -77.26658, 38.71817 ], [ -77.26555, 38.71947 ], [ -77.26464, 38.71972 ], [ -77.2653, 38.71989 ], [ -77.26588, 38.71931 ] ], [ [ -77.26134, 38.71239 ], [ -77.26182, 38.71236 ], [ -77.26176, 38.71226 ], [ -77.26134, 38.71239 ] ], [ [ -77.26125, 38.71241 ], [ -77.26125, 38.71244 ], [ -77.26129, 38.7124 ], [ -77.26125, 38.71241 ] ] ] } },
{ "type": "Feature", "properties": { "variant": "T2s", "miles": 0.5 }, "geometry": { "type": "Polygon", "coordinates": [ [ [ -77.26074, 38.71855 ], [ -77.26043, 38.71772 ], [ -77.2614, 38.71759 ], [ -77.26486, 38.71987 ], [ -77.26626, 38.72026 ], [ -77.2662, 38.72179 ], [ -77.2654, 38.72212 ], [ -77.26479, 38.72153 ], [ -77.26506, 38.7211 ], [ -77.26413, 38.72079 ], [ -77.26299, 38.72097 ], [ -77.26268, 38.72063 ], [ -77.2631, 38.72004 ], [ -77.26188, 38.71917 ], [ -77.26115, 38.71967 ], [ -77.25957, 38.71989 ], [ -77.25795, 38.7191 ], [ -77.25737, 38.71818 ], [ -77.25741, 38.71777 ], [ -77.25834, 38.71753 ], [ -77.25888, 38.71827 ], [ -77.26003, 38.71884 ], [ -77.26074, 38.71855 ] ] ] } },
{ "type": "Feature", "properties": { "variant": "T2s", "miles": 1.0 }, "geometry": { "type": "MultiPolygon", "coordinates": [ [ [ [ -77.26528, 38.71628 ], [ -77.26673, 38.7175 ], [ -77.26596, 38.71797 ], [ -77.26456, 38.7168 ], [ -77.26528, 38.71628 ] ] ], [ [ [ -77.26744, 38.71989 ], [ -77.26654, 38.72036 ], [ -77.2662, 38.72179 ], [ -77.2654, 38.72212 ], [ -77.26479, 38.72153 ], [ -77.26506, 38.7211 ], [ -77.26413, 38.72079 ], [ -77.26299, 38.72097 ], [ -77.26268, 38.72063 ], [ -77.2631, 38.72004 ], [ -77.26188, 38.71917 ], [ -77.25993, 38.71995 ], [ -77.25807, 38.71917 ], [ -77.25741, 38.71777 ], [ -77.25834, 38.71753 ], [ -77.25888, 38.71827 ], [ -77.26003, 38.71884 ], [ -77.26074, 38.71855 ], [ -77.26043, 38.71772 ], [ -77.2614, 38.71759 ], [ -77.26522, 38.72001 ], [ -77.26625, 38.71911 ], [ -77.26908, 38.71835 ], [ -77.2694, 38.71868 ], [ -77.26893, 38.7196 ], [ -77.27016, 38.72038 ], [ -77.27094, 38.72063 ], [ -77.27041, 38.72 ], [ -77.27122, 38.71957 ], [ -77.27254, 38.71984 ], [ -77.27291, 38.72054 ], [ -77.27226, 38.72132 ], [ -77.27132, 38.72168 ], [ -77.26907, 38.72108 ], [ -77.26721, 38.72255 ], [ -77.26669, 38.72256 ], [ -77.2663, 38.72228 ], [ -77.26646, 38.72153 ], [ -77.26798, 38.72038 ], [ -77.26744, 38.71989 ] ] ], [ [ [ -77.26408, 38.71428 ], [ -77.2648, 38.7154 ], [ -77.26393, 38.71575 ], [ -77.26321, 38.71463 ], [ -77.26408, 38.71428 ] ] ] ] } },
{ "type": "Feature", "properties": { "variant": "T2s", "miles": 1.5 }, "geometry": { "type": "MultiPolygon", "coordinates": [ [ [ [ -77.28097, 38.71748 ], [ -77.28253, 38.71725 ], [ -77.28283, 38.71798 ], [ -77.27909, 38.71918 ], [ -77.27968, 38.71997 ], [ -77.27947, 38.72035 ], [ -77.2786, 38.72048 ], [ -77.27854, 38.72119 ], [ -77.27807, 38.72138 ], [ -77.27737, 38.72101 ], [ -77.27729, 38.72169 ], [ -77.27804, 38.72207 ], [ -77.27905, 38.7219 ], [ -77.27924, 38.72281 ], [ -77.28034, 38.72393 ], [ -77.28021, 38.72433 ], [ -77.27924, 38.72442 ], [ -77.27842, 38.72372 ], [ -77.2769, 38.72482 ], [ -77.2764, 38.72468 ], [ -77.27617, 38.72364 ], [ -77.27546, 38.72413 ], [ -77.27498, 38.72395 ], [ -77.27483, 38.72318 ], [ -77.27431, 38.72315 ], [ -77.27462, 38.72381 ], [ -77.27376, 38.7242 ], [ -77.27273, 38.72389 ], [ -77.2722, 38.72323 ], [ -77.27191, 38.72378 ], [ -77.27225, 38.7244 ], [ -77.27355, 38.72514 ], [ -77.27473, 38.72516 ], [ -77.27517, 38.72561 ], [ -77.27457, 38.72622 ], [ -77.27284, 38.72618 ], [ -77.27205, 38.72689 ], [ -77.27137, 38.72635 ], [ -77.27177, 38.72546 ], [ -77.27058, 38.72415 ], [ -77.26931, 38.72389 ], [ -77.26843, 38.72327 ], [ -77.26895, 38.72262 ], [ -77.27071, 38.72308 ], [ -77.27166, 38.7222 ], [ -77.27298, 38.72197 ], [ -77.27255, 38.72108 ], [ -77.27093, 38.72171 ], [ -77.26907, 38.72108 ], [ -77.26721, 38.72255 ], [ -77.26669, 38.72256 ], [ -77.2663, 38.72228 ], [ -77.26646, 38.72153 ], [ -77.26798, 38.72038 ], [ -77.26744, 38.71989 ], [ -77.26654, 38.72036 ], [ -77.2662, 38.72179 ], [ -77.2654, 38.72212 ], [ -77.26479, 38.72153 ], [ -77.26506, 38.7211 ], [ -77.26413, 38.72079 ], [ -77.26299, 38.72097 ], [ -77.26268, 38.72063 ], [ -77.2631, 38.72004 ], [ -77.26188, 38.71917 ], [ -77.26115, 38.71967 ], [ -77.25957, 38.71989 ], [ -77.25795, 38.7191 ], [ -77.25737, 38.71818 ], [ -77.25741, 38.71777 ], [ -77.25834, 38.71753 ], [ -77.25888, 38.71827 ], [ -77.26003, 38.71884 ], [ -77.26074, 38.71855 ], [ -77.26043, 38.71772 ], [ -77.2614, 38.71759 ], [ -77.26454, 38.71964 ], [ -77.26431, 38.719 ], [ -77.26533, 38.71767 ], [ -77.26456, 38.7168 ], [ -77.26528, 38.71628 ], [ -77.26656, 38.71707 ], [ -77.26681, 38.71769 ], [ -77.26555, 38.71947 ], [ -77.26464, 38.71972 ], [ -77.26486, 38.71987 ], [ -77.26522, 38.72001 ], [ -77.26625, 38.71911 ], [ -77.26908, 38.71835 ], [ -77.2694, 38.71868 ], [ -77.26893, 38.7196 ], [ -77.27016, 38.72038 ], [ -77.27094, 38.72063 ], [ -77.27041, 38.72 ], [ -77.2707, 38.71965 ], [ -77.27268, 38.71988 ], [ -77.27402, 38.72077 ], [ -77.27436, 38.72206 ], [ -77.27532, 38.72213 ], [ -77.27572, 38.72172 ], [ -77.27521, 38.72156 ], [ -77.2752, 38.72085 ], [ -77.27432, 38.7207 ], [ -77.27425, 38.72007 ], [ -77.2734, 38.71984 ], [ -77.2735, 38.71908 ], [ -77.27716, 38.71932 ], [ -77.27797, 38.71847 ], [ -77.27947, 38.71787 ], [ -77.27944, 38.71653 ], [ -77.27988, 38.71621 ], [ -77.2808, 38.71648 ], [ -77.28097, 38.71748 ] ] ], [ [ [ -77.26203, 38.70999 ], [ -77.2611, 38.71034 ], [ -77.26033, 38.71008 ], [ -77.25953, 38.70911 ], [ -77.26029, 38.70856 ], [ -77.26019, 38.70787 ], [ -77.26057, 38.70758 ], [ -77.26146, 38.70788 ], [ -77.26203, 38.70999 ] ] ], [ [ [ -77.25903, 38.71167 ], [ -77.26096, 38.71151 ], [ -77.26125, 38.71244 ], [ -77.26223, 38.71262 ], [ -77.26212, 38.71335 ], [ -77.26119, 38.71384 ], [ -77.26007, 38.71368 ], [ -77.25971, 38.71337 ], [ -77.25986, 38.71254 ], [ -77.25916, 38.71325 ], [ -77.25819, 38.71316 ], [ -77.25812, 38.71249 ], [ -77.25717, 38.71205 ], [ -77.2571, 38.71164 ], [ -77.25741, 38.71131 ], [ -77.25903, 38.71167 ] ] ], [ [ [ -77.2648, 38.7154 ], [ -77.26315, 38.71597 ], [ -77.26174, 38.71538 ], [ -77.26138, 38.71479 ], [ -77.26244, 38.71344 ], [ -77.26331, 38.71325 ], [ -77.2648, 38.7154 ] ] ] ] } }
]
}
