{
"type": "FeatureCollection",
"name": "372",
"crs": { "type": "name", "properties": { "name": "urn:ogc:def:crs:OGC:1.3:CRS84" } },
"xy_coordinate_resolution": 1e-05,
"features": [
{ "type": "Feature", "properties": { "variant": "T0", "miles": 0.5 }, "geometry": { "type": "Polygon", "coordinates": [ [ [ -77.28233, 38.76289 ], [ -77.28467, 38.76577 ], [ -77.28549, 38.76594 ], [ -77.28543, 38.76668 ], [ -77.28747, 38.76882 ], [ -77.28603, 38.7712 ], [ -77.28387, 38.77196 ], [ -77.28303, 38.77157 ], [ -77.28342, 38.77066 ], [ -77.28201, 38.77118 ], [ -77.28156, 38.77097 ], [ -77.28167, 38.77026 ], [ -77.2812, 38.77015 ], [ -77.27926, 38.77105 ], [ -77.27875, 38.77093 ], [ -77.27858, 38.77036 ], [ -77.27726, 38.7704 ], [ -77.27677, 38.76974 ], [ -77.27791, 38.76937 ], [ -77.27753, 38.76822 ], [ -77.27779, 38.76729 ], [ -77.27717, 38.76715 ], [ -77.27722, 38.76639 ], [ -77.27822, 38.76614 ], [ -77.28021, 38.76667 ], [ -77.28147, 38.76628 ], [ -77.28142, 38.76522 ], [ -77.2806, 38.76563 ], [ -77.28015, 38.76542 ], [ -77.27986, 38.76438 ], [ -77.28044, 38.76401 ], [ -77.28048, 38.7634 ], [ -77.2818, 38.76289 ], [ -77.28233, 38.76289 ] ], [ [ -77.28136, 38.76846 ], [ -77.28131, 38.7685 ], [ -77.28139, 38.76852 ], [ -77.28136, 38.76846 ] ], [ [ -77.28434, 38.76754 ], [ -77.28263, 38.76805 ], [ -77.28429, 38.76941 ], [ -77.28557, 38.76832 ], [ -77.28434, 38.76754 ] ], [ [ -77.2839, 38.76631 ], [ -77.28385, 38.76629 ], [ -77.28386, 38.76634 ], [ -77.2839, 38.76631 ] ], [ [ -77.2848, 38.77038 ], [ -77.28495, 38.77051 ], [ -77.28504, 38.77044 ], [ -77.2848, 38.77038 ] ], [ [ -77.27945, 38.76863 ], [ -77.28031, 38.76775 ], [ -77.27913, 38.76757 ], [ -77.27891, 38.76818 ], [ -77.27945, 38.76863 ] ] ] } },
{ "type": "Feature", "properties": { "variant": "T0", "miles": 1.0 }, "geometry": { "type": "Polygon", "coordinates": [ [ [ -77.27859, 38.76194 ], [ -77.27901, 38.7613 ], [ -77.27842, 38.76078 ], [ -77.27794, 38.7612 ], [ -77.27742, 38.76112 ], [ -77.27643, 38.76036 ], [ -77.27671, 38.75962 ], [ -77.27782, 38.75948 ], [ -77.27747, 38.75903 ], [ -77.27608, 38.75869 ], [ -77.27595, 38.75829 ], [ -77.27673, 38.75783 ], [ -77.27811, 38.75807 ], [ -77.27986, 38.75725 ], [ -77.28043, 38.75751 ], [ -77.28029, 38.7582 ], [ -77.28262, 38.76028 ], [ -77.28365, 38.76224 ], [ -77.28463, 38.76229 ], [ -77.28548, 38.76281 ], [ -77.28607, 38.76232 ], [ -77.28691, 38.76272 ], [ -77.28651, 38.76597 ], [ -77.28705, 38.76663 ], [ -77.28691, 38.76703 ], [ -77.28616, 38.76716 ], [ -77.28728, 38.7683 ], [ -77.28746, 38.76913 ], [ -77.28577, 38.77138 ], [ -77.28626, 38.7741 ], [ -77.28582, 38.77466 ], [ -77.28497, 38.77488 ], [ -77.28553, 38.77576 ], [ -77.28523, 38.77609 ], [ -77.28443, 38.77601 ], [ -77.28487, 38.77667 ], [ -77.28445, 38.77736 ], [ -77.28392, 38.77733 ], [ -77.28187, 38.77511 ], [ -77.28044, 38.77625 ], [ -77.27969, 38.77595 ], [ -77.27694, 38.77686 ], [ -77.27643, 38.77614 ], [ -77.27708, 38.77486 ], [ -77.27588, 38.77554 ], [ -77.27466, 38.77507 ], [ -77.27507, 38.77438 ], [ -77.27592, 38.77421 ], [ -77.27561, 38.77306 ], [ -77.27474, 38.77313 ], [ -77.2743, 38.77261 ], [ -77.27377, 38.77282 ], [ -77.27451, 38.77403 ], [ -77.27372, 38.77463 ], [ -77.27213, 38.77292 ], [ -77.2725, 38.77213 ], [ -77.27197, 38.77123 ], [ -77.27224, 38.7706 ], [ -77.27426, 38.77073 ], [ -77.27449, 38.77022 ], [ -77.27339, 38.7704 ], [ -77.27324, 38.76964 ], [ -77.27406, 38.76919 ], [ -77.2738, 38.76853 ], [ -77.27318, 38.76855 ], [ -77.27281, 38.76794 ], [ -77.27155, 38.76787 ], [ -77.27155, 38.7671 ], [ -77.27598, 38.76589 ], [ -77.2764, 38.76614 ], [ -77.27626, 38.76677 ], [ -77.2771, 38.76701 ], [ -77.27722, 38.76639 ], [ -77.27777, 38.76616 ], [ -77.27998, 38.76666 ], [ -77.28061, 38.76657 ], [ -77.27825, 38.76554 ], [ -77.27738, 38.76581 ], [ -77.27694, 38.76558 ], [ -77.27683, 38.76518 ], [ -77.2777, 38.76453 ], [ -77.27768, 38.76405 ], [ -77.27722, 38.76439 ], [ -77.27589, 38.76414 ], [ -77.27508, 38.76323 ], [ -77.27396, 38.76359 ], [ -77.27336, 38.76273 ], [ -77.27375, 38.76218 ], [ -77.2735, 38.76161 ], [ -77.27241, 38.76123 ], [ -77.27232, 38.75984 ], [ -77.2742, 38.75945 ], [ -77.27462, 38.75969 ], [ -77.2746, 38.76047 ], [ -77.27773, 38.76205 ], [ -77.27953, 38.76249 ], [ -77.27859, 38.76194 ] ], [ [ -77.28091, 38.77344 ], [ -77.28133, 38.77412 ], [ -77.28177, 38.77393 ], [ -77.28078, 38.77285 ], [ -77.28135, 38.77223 ], [ -77.28213, 38.77266 ], [ -77.2824, 38.77211 ], [ -77.28096, 38.7718 ], [ -77.28083, 38.7714 ], [ -77.28155, 38.77094 ], [ -77.28167, 38.77026 ], [ -77.281, 38.77019 ], [ -77.279, 38.77099 ], [ -77.27889, 38.77249 ], [ -77.28091, 38.77344 ] ], [ [ -77.27943, 38.76847 ], [ -77.27945, 38.76863 ], [ -77.27961, 38.76846 ], [ -77.27943, 38.76847 ] ], [ [ -77.28031, 38.76775 ], [ -77.28014, 38.76776 ], [ -77.28015, 38.76788 ], [ -77.28031, 38.76775 ] ], [ [ -77.27944, 38.76436 ], [ -77.28005, 38.76414 ], [ -77.27916, 38.76373 ], [ -77.27914, 38.76451 ], [ -77.27944, 38.76436 ] ], [ [ -77.28086, 38.76026 ], [ -77.28085, 38.76042 ], [ -77.28101, 38.76038 ], [ -77.28086, 38.76026 ] ], [ [ -77.27985, 38.75942 ], [ -77.27978, 38.75936 ], [ -77.27976, 38.75948 ], [ -77.27985, 38.75942 ] ], [ [ -77.28387, 38.77468 ], [ -77.28425, 38.77466 ], [ -77.28385, 38.77432 ], [ -77.28311, 38.7746 ], [ -77.28387, 38.77468 ] ], [ [ -77.28131, 38.7685 ], [ -77.28139, 38.76852 ], [ -77.28136, 38.76846 ], [ -77.28131, 38.7685 ] ], [ [ -77.28226, 38.76243 ], [ -77.28224, 38.76239 ], [ -77.28212, 38.76261 ], [ -77.28226, 38.76243 ] ], [ [ -77.28495, 38.77051 ], [ -77.28504, 38.77044 ], [ -77.2848, 38.77038 ], [ -77.28495, 38.77051 ] ], [ [ -77.28546, 38.76669 ], [ -77.28544, 38.76667 ], [ -77.28543, 38.76668 ], [ -77.28546, 38.76669 ] ], [ [ -77.28385, 38.76629 ], [ -77.28386, 38.76634 ], [ -77.2839, 38.76631 ], [ -77.28385, 38.76629 ] ], [ [ -77.28469, 38.76384 ], [ -77.28429, 38.76337 ], [ -77.28535, 38.7648 ], [ -77.28535, 38.76424 ], [ -77.28469, 38.76384 ] ], [ [ -77.28295, 38.76367 ], [ -77.28295, 38.76366 ], [ -77.28294, 38.76367 ], [ -77.28295, 38.76367 ] ], [ [ -77.28263, 38.76805 ], [ -77.28429, 38.76941 ], [ -77.28557, 38.76832 ], [ -77.2848, 38.76764 ], [ -77.28263, 38.76805 ] ], [ [ -77.28349, 38.77317 ], [ -77.28352, 38.77326 ], [ -77.2836, 38.77323 ], [ -77.28349, 38.77317 ] ], [ [ -77.28158, 38.76104 ], [ -77.2815, 38.76114 ], [ -77.28164, 38.76114 ], [ -77.28158, 38.76104 ] ], [ [ -77.28147, 38.76529 ], [ -77.28138, 38.76518 ], [ -77.28123, 38.76539 ], [ -77.28147, 38.76529 ] ], [ [ -77.28011, 38.7653 ], [ -77.2801, 38.76531 ], [ -77.28012, 38.76531 ], [ -77.28011, 38.7653 ] ], [ [ -77.2776, 38.76358 ], [ -77.27773, 38.76372 ], [ -77.27777, 38.76357 ], [ -77.2776, 38.76358 ] ], [ [ -77.27679, 38.76319 ], [ -77.27685, 38.76319 ], [ -77.27685, 38.76316 ], [ -77.27679, 38.76319 ] ], [ [ -77.27769, 38.77152 ], [ -77.27734, 38.77042 ], [ -77.27603, 38.77048 ], [ -77.27561, 38.77095 ], [ -77.27671, 38.77139 ], [ -77.27704, 38.7727 ], [ -77.27739, 38.77265 ], [ -77.27769, 38.77152 ] ], [ [ -77.27635, 38.76927 ], [ -77.27607, 38.76859 ], [ -77.27592, 38.76882 ], [ -77.27635, 38.76927 ] ], [ [ -77.2764, 38.76805 ], [ -77.27612, 38.76853 ], [ -77.27648, 38.76829 ], [ -77.2764, 38.76805 ] ], [ [ -77.27743, 38.76725 ], [ -77.27765, 38.76756 ], [ -77.27779, 38.76729 ], [ -77.27743, 38.76725 ] ] ] } },
{ "type": "Feature", "properties": { "variant": "T0", "miles": 1.5 }, "geometry": { "type": "Polygon", "coordinates": [ [ [ -77.28585, 38.76125 ], [ -77.28538, 38.76144 ], [ -77.28462, 38.76079 ], [ -77.28415, 38.76084 ], [ -77.28446, 38.76169 ], [ -77.28361, 38.76216 ], [ -77.28548, 38.76281 ], [ -77.28607, 38.76232 ], [ -77.28691, 38.76272 ], [ -77.28651, 38.76597 ], [ -77.28724, 38.76689 ], [ -77.29277, 38.7633 ], [ -77.29418, 38.76361 ], [ -77.29401, 38.76436 ], [ -77.28811, 38.76773 ], [ -77.28892, 38.76866 ], [ -77.28755, 38.77049 ], [ -77.28883, 38.77097 ], [ -77.28899, 38.77136 ], [ -77.28834, 38.77192 ], [ -77.29049, 38.77347 ], [ -77.29054, 38.77388 ], [ -77.28932, 38.77472 ], [ -77.2895, 38.77556 ], [ -77.28832, 38.77547 ], [ -77.28845, 38.77596 ], [ -77.28944, 38.77731 ], [ -77.29186, 38.77767 ], [ -77.29185, 38.77844 ], [ -77.28956, 38.77848 ], [ -77.2883, 38.77798 ], [ -77.28751, 38.77849 ], [ -77.28819, 38.77932 ], [ -77.28796, 38.77969 ], [ -77.28605, 38.7809 ], [ -77.28773, 38.78165 ], [ -77.28771, 38.78242 ], [ -77.28646, 38.78222 ], [ -77.28579, 38.78262 ], [ -77.28498, 38.78255 ], [ -77.28495, 38.78159 ], [ -77.28254, 38.78289 ], [ -77.28183, 38.78219 ], [ -77.28374, 38.78079 ], [ -77.28231, 38.78107 ], [ -77.2818, 38.78041 ], [ -77.28359, 38.77917 ], [ -77.282, 38.77877 ], [ -77.28055, 38.77619 ], [ -77.27969, 38.77595 ], [ -77.27911, 38.77617 ], [ -77.27976, 38.77675 ], [ -77.27971, 38.77751 ], [ -77.27873, 38.77747 ], [ -77.27783, 38.77667 ], [ -77.27667, 38.77713 ], [ -77.27706, 38.77802 ], [ -77.27813, 38.77745 ], [ -77.27861, 38.77763 ], [ -77.27866, 38.77823 ], [ -77.28075, 38.77922 ], [ -77.28033, 38.77991 ], [ -77.2787, 38.77956 ], [ -77.27773, 38.78014 ], [ -77.27824, 38.78134 ], [ -77.27911, 38.78164 ], [ -77.2791, 38.78205 ], [ -77.27731, 38.78254 ], [ -77.27618, 38.78034 ], [ -77.27581, 38.78034 ], [ -77.27589, 38.78127 ], [ -77.27538, 38.78139 ], [ -77.27424, 38.78086 ], [ -77.27354, 38.78149 ], [ -77.27257, 38.78154 ], [ -77.2725, 38.78078 ], [ -77.27333, 38.78004 ], [ -77.27176, 38.78056 ], [ -77.27074, 38.77994 ], [ -77.26988, 38.78007 ], [ -77.26951, 38.77978 ], [ -77.2695, 38.77937 ], [ -77.27118, 38.7782 ], [ -77.26992, 38.77881 ], [ -77.26914, 38.77804 ], [ -77.27093, 38.77686 ], [ -77.26947, 38.77725 ], [ -77.2689, 38.77669 ], [ -77.26761, 38.77654 ], [ -77.2674, 38.77615 ], [ -77.26764, 38.7756 ], [ -77.26912, 38.77521 ], [ -77.26895, 38.77457 ], [ -77.26936, 38.77431 ], [ -77.27038, 38.77462 ], [ -77.27072, 38.7756 ], [ -77.2713, 38.77568 ], [ -77.27199, 38.77482 ], [ -77.27036, 38.77361 ], [ -77.27004, 38.77146 ], [ -77.26899, 38.77184 ], [ -77.2672, 38.77144 ], [ -77.26679, 38.77093 ], [ -77.26697, 38.77054 ], [ -77.26789, 38.77029 ], [ -77.27006, 38.77031 ], [ -77.27104, 38.77071 ], [ -77.27122, 38.76979 ], [ -77.26982, 38.76905 ], [ -77.26996, 38.76692 ], [ -77.26818, 38.76622 ], [ -77.26842, 38.76547 ], [ -77.26912, 38.76545 ], [ -77.26937, 38.76506 ], [ -77.26796, 38.76472 ], [ -77.26768, 38.76399 ], [ -77.26809, 38.76373 ], [ -77.26944, 38.7639 ], [ -77.26989, 38.76269 ], [ -77.27069, 38.76225 ], [ -77.27157, 38.76235 ], [ -77.27242, 38.7631 ], [ -77.2725, 38.76172 ], [ -77.2711, 38.7609 ], [ -77.27166, 38.75945 ], [ -77.27455, 38.7572 ], [ -77.27367, 38.7568 ], [ -77.27362, 38.75639 ], [ -77.27461, 38.75455 ], [ -77.27497, 38.75424 ], [ -77.27589, 38.7545 ], [ -77.27618, 38.75499 ], [ -77.27587, 38.75565 ], [ -77.27774, 38.75309 ], [ -77.27964, 38.75362 ], [ -77.28112, 38.75286 ], [ -77.28281, 38.75286 ], [ -77.28289, 38.75362 ], [ -77.28105, 38.75408 ], [ -77.27947, 38.75523 ], [ -77.27939, 38.75576 ], [ -77.28071, 38.75671 ], [ -77.28186, 38.75846 ], [ -77.28256, 38.75876 ], [ -77.284, 38.7583 ], [ -77.28447, 38.75849 ], [ -77.28439, 38.75925 ], [ -77.28357, 38.75964 ], [ -77.2846, 38.75966 ], [ -77.28542, 38.75898 ], [ -77.28626, 38.75936 ], [ -77.28585, 38.76125 ] ], [ [ -77.2799, 38.77321 ], [ -77.28097, 38.77349 ], [ -77.28133, 38.77412 ], [ -77.28177, 38.77393 ], [ -77.28078, 38.77285 ], [ -77.28135, 38.77223 ], [ -77.28213, 38.77266 ], [ -77.2824, 38.77211 ], [ -77.28096, 38.7718 ], [ -77.28083, 38.7714 ], [ -77.28155, 38.77094 ], [ -77.28167, 38.77026 ], [ -77.281, 38.77019 ], [ -77.279, 38.77099 ], [ -77.27889, 38.77249 ], [ -77.2799, 38.77321 ] ], [ [ -77.27561, 38.77095 ], [ -77.2768, 38.77148 ], [ -77.27704, 38.7727 ], [ -77.27738, 38.77275 ], [ -77.27765, 38.77122 ], [ -77.27734, 38.77042 ], [ -77.27684, 38.77032 ], [ -77.27561, 38.77095 ] ], [ [ -77.27635, 38.76927 ], [ -77.27607, 38.76859 ], [ -77.27592, 38.76882 ], [ -77.27635, 38.76927 ] ], [ [ -77.2764, 38.76805 ], [ -77.27612, 38.76853 ], [ -77.27648, 38.76829 ], [ -77.2764, 38.76805 ] ], [ [ -77.2771, 38.76701 ], [ -77.27722, 38.76639 ], [ -77.27797, 38.76614 ], [ -77.27998, 38.76666 ], [ -77.28061, 38.76657 ], [ -77.27825, 38.76554 ], [ -77.27738, 38.76581 ], [ -77.27694, 38.76558 ], [ -77.27683, 38.76518 ], [ -77.2777, 38.76453 ], [ -77.27768, 38.76405 ], [ -77.27722, 38.76439 ], [ -77.27589, 38.76414 ], [ -77.27508, 38.76323 ], [ -77.27448, 38.76367 ], [ -77.27386, 38.76348 ], [ -77.27368, 38.76387 ], [ -77.27594, 38.76486 ], [ -77.27627, 38.76558 ], [ -77.27535, 38.76583 ], [ -77.27368, 38.76521 ], [ -77.27357, 38.76549 ], [ -77.27418, 38.76565 ], [ -77.27451, 38.76627 ], [ -77.27598, 38.76589 ], [ -77.2764, 38.76614 ], [ -77.27631, 38.76678 ], [ -77.2771, 38.76701 ] ], [ [ -77.27773, 38.76205 ], [ -77.27953, 38.76249 ], [ -77.27859, 38.76194 ], [ -77.27901, 38.7613 ], [ -77.27842, 38.76078 ], [ -77.27794, 38.7612 ], [ -77.27742, 38.76112 ], [ -77.27643, 38.76036 ], [ -77.27671, 38.75962 ], [ -77.27782, 38.75948 ], [ -77.27756, 38.75909 ], [ -77.27721, 38.75899 ], [ -77.27583, 38.75995 ], [ -77.27499, 38.75956 ], [ -77.27519, 38.75901 ], [ -77.27435, 38.75896 ], [ -77.27387, 38.75949 ], [ -77.27462, 38.75969 ], [ -77.2746, 38.76047 ], [ -77.27773, 38.76205 ] ], [ [ -77.2849, 38.77614 ], [ -77.28443, 38.77601 ], [ -77.28467, 38.77628 ], [ -77.2849, 38.77614 ] ], [ [ -77.28387, 38.77468 ], [ -77.28425, 38.77466 ], [ -77.28385, 38.77432 ], [ -77.28311, 38.7746 ], [ -77.28387, 38.77468 ] ], [ [ -77.27947, 38.76851 ], [ -77.27945, 38.76863 ], [ -77.27961, 38.76846 ], [ -77.27947, 38.76851 ] ], [ [ -77.28014, 38.76776 ], [ -77.28015, 38.76788 ], [ -77.28023, 38.76781 ], [ -77.28014, 38.76776 ] ], [ [ -77.28147, 38.76529 ], [ -77.28138, 38.76518 ], [ -77.28123, 38.76539 ], [ -77.28147, 38.76529 ] ], [ [ -77.28012, 38.76531 ], [ -77.28011, 38.7653 ], [ -77.2801, 38.76531 ], [ -77.28012, 38.76531 ] ], [ [ -77.27916, 38.76373 ], [ -77.27911, 38.76453 ], [ -77.28005, 38.76414 ], [ -77.27916, 38.76373 ] ], [ [ -77.28086, 38.76026 ], [ -77.28085, 38.76042 ], [ -77.28101, 38.76038 ], [ -77.28086, 38.76026 ] ], [ [ -77.27985, 38.75942 ], [ -77.27978, 38.75936 ], [ -77.27976, 38.75948 ], [ -77.27985, 38.75942 ] ], [ [ -77.2836, 38.77323 ], [ -77.28349, 38.77317 ], [ -77.28352, 38.77326 ], [ -77.2836, 38.77323 ] ], [ [ -77.28557, 38.76832 ], [ -77.2844, 38.76749 ], [ -77.28263, 38.76805 ], [ -77.28429, 38.76941 ], [ -77.28557, 38.76832 ] ], [ [ -77.28386, 38.76634 ], [ -77.2839, 38.7663 ], [ -77.28385, 38.76629 ], [ -77.28386, 38.76634 ] ], [ [ -77.28684, 38.77142 ], [ -77.28639, 38.77213 ], [ -77.2885, 38.77385 ], [ -77.28889, 38.77359 ], [ -77.28778, 38.77281 ], [ -77.28759, 38.77243 ], [ -77.28819, 38.77194 ], [ -77.28684, 38.77142 ] ], [ [ -77.28546, 38.76669 ], [ -77.28544, 38.76667 ], [ -77.28543, 38.76668 ], [ -77.28546, 38.76669 ] ], [ [ -77.28429, 38.76337 ], [ -77.28535, 38.7648 ], [ -77.28535, 38.76424 ], [ -77.28429, 38.76337 ] ], [ [ -77.28504, 38.77044 ], [ -77.2848, 38.77038 ], [ -77.28481, 38.77057 ], [ -77.28504, 38.77044 ] ], [ [ -77.28625, 38.77602 ], [ -77.28637, 38.77629 ], [ -77.28699, 38.77591 ], [ -77.28625, 38.77602 ] ], [ [ -77.2874, 38.77451 ], [ -77.28593, 38.77323 ], [ -77.28616, 38.77432 ], [ -77.28497, 38.77488 ], [ -77.28545, 38.77585 ], [ -77.28603, 38.77588 ], [ -77.28614, 38.77503 ], [ -77.2874, 38.77451 ] ], [ [ -77.28542, 38.77817 ], [ -77.28581, 38.7785 ], [ -77.28574, 38.77827 ], [ -77.28542, 38.77817 ] ], [ [ -77.28752, 38.77696 ], [ -77.28727, 38.77711 ], [ -77.28742, 38.77713 ], [ -77.28752, 38.77696 ] ], [ [ -77.28294, 38.76367 ], [ -77.28295, 38.76367 ], [ -77.28295, 38.76366 ], [ -77.28294, 38.76367 ] ], [ [ -77.2823, 38.76271 ], [ -77.28239, 38.76268 ], [ -77.28224, 38.76239 ], [ -77.2823, 38.76271 ] ], [ [ -77.2815, 38.76114 ], [ -77.28164, 38.76114 ], [ -77.28158, 38.76104 ], [ -77.2815, 38.76114 ] ], [ [ -77.28136, 38.76846 ], [ -77.28131, 38.7685 ], [ -77.28139, 38.76852 ], [ -77.28136, 38.76846 ] ], [ [ -77.282, 38.77663 ], [ -77.28319, 38.77652 ], [ -77.28187, 38.77511 ], [ -77.282, 38.77663 ] ], [ [ -77.2776, 38.76358 ], [ -77.27773, 38.76372 ], [ -77.27777, 38.76357 ], [ -77.2776, 38.76358 ] ], [ [ -77.27849, 38.75432 ], [ -77.27841, 38.75454 ], [ -77.27848, 38.75447 ], [ -77.27849, 38.75432 ] ], [ [ -77.27955, 38.75729 ], [ -77.27906, 38.75702 ], [ -77.27916, 38.75714 ], [ -77.27955, 38.75729 ] ], [ [ -77.27685, 38.76319 ], [ -77.27685, 38.76316 ], [ -77.27682, 38.76317 ], [ -77.27685, 38.76319 ] ], [ [ -77.27764, 38.76733 ], [ -77.27743, 38.76725 ], [ -77.27765, 38.76756 ], [ -77.27764, 38.76733 ] ], [ [ -77.27563, 38.77849 ], [ -77.27523, 38.77752 ], [ -77.27438, 38.77735 ], [ -77.27317, 38.77825 ], [ -77.27411, 38.77917 ], [ -77.27409, 38.77976 ], [ -77.27563, 38.77849 ] ], [ [ -77.27449, 38.77022 ], [ -77.27339, 38.7704 ], [ -77.27322, 38.76969 ], [ -77.27279, 38.76982 ], [ -77.27259, 38.77053 ], [ -77.27325, 38.77084 ], [ -77.27428, 38.77064 ], [ -77.27449, 38.77022 ] ], [ [ -77.27379, 38.76855 ], [ -77.2738, 38.76853 ], [ -77.27376, 38.76854 ], [ -77.27379, 38.76855 ] ], [ [ -77.27294, 38.76862 ], [ -77.27318, 38.76855 ], [ -77.27292, 38.76834 ], [ -77.27294, 38.76862 ] ], [ [ -77.27671, 38.77528 ], [ -77.27705, 38.77484 ], [ -77.27562, 38.77554 ], [ -77.27601, 38.7761 ], [ -77.27676, 38.77582 ], [ -77.27671, 38.77528 ] ], [ [ -77.27491, 38.7745 ], [ -77.27541, 38.77439 ], [ -77.27489, 38.77411 ], [ -77.27491, 38.7745 ] ], [ [ -77.27573, 38.77445 ], [ -77.27587, 38.77428 ], [ -77.27555, 38.7744 ], [ -77.27573, 38.77445 ] ], [ [ -77.27261, 38.77712 ], [ -77.27217, 38.77744 ], [ -77.27221, 38.77748 ], [ -77.27261, 38.77712 ] ], [ [ -77.27149, 38.77195 ], [ -77.27176, 38.77336 ], [ -77.27212, 38.77291 ], [ -77.27149, 38.77195 ] ], [ [ -77.27323, 38.76666 ], [ -77.27347, 38.76659 ], [ -77.27335, 38.76656 ], [ -77.27323, 38.76666 ] ] ] } },
{ "type": "Feature", "properties": { "variant": "T2s", "miles": 0.5 }, "geometry": { "type": "Polygon", "coordinates": [ [ [ -77.28233, 38.76289 ], [ -77.28467, 38.76577 ], [ -77.28549, 38.76594 ], [ -77.28543, 38.76668 ], [ -77.28747, 38.76882 ], [ -77.28603, 38.7712 ], [ -77.28387, 38.77196 ], [ -77.28303, 38.77157 ], [ -77.28342, 38.77066 ], [ -77.28201, 38.77118 ], [ -77.28156, 38.77097 ], [ -77.28167, 38.77026 ], [ -77.2812, 38.77015 ], [ -77.27926, 38.77105 ], [ -77.27875, 38.77093 ], [ -77.27858, 38.77036 ], [ -77.27726, 38.7704 ], [ -77.27677, 38.76974 ], [ -77.27791, 38.76937 ], [ -77.27753, 38.76822 ], [ -77.27779, 38.76729 ], [ -77.27717, 38.76715 ], [ -77.27722, 38.76639 ], [ -77.27822, 38.76614 ], [ -77.28021, 38.76667 ], [ -77.28147, 38.76628 ], [ -77.28142, 38.76522 ], [ -77.2806, 38.76563 ], [ -77.28015, 38.76542 ], [ -77.27986, 38.76438 ], [ -77.28044, 38.76401 ], [ -77.28048, 38.7634 ], [ -77.2818, 38.76289 ], [ -77.28233, 38.76289 ] ], [ [ -77.28136, 38.76846 ], [ -77.28131, 38.7685 ], [ -77.28139, 38.76852 ], [ -77.28136, 38.76846 ] ], [ [ -77.28434, 38.76754 ], [ -77.28263, 38.76805 ], [ -77.28429, 38.76941 ], [ -77.28557, 38.76832 ], [ -77.28434, 38.76754 ] ], [ [ -77.2839, 38.76631 ], [ -77.28385, 38.76629 ], [ -77.28386, 38.76634 ], [ -77.2839, 38.76631 ] ], [ [ -77.2848, 38.77038 ], [ -77.28495, 38.77051 ], [ -77.28504, 38.77044 ], [ -77.2848, 38.77038 ] ], [ [ -77.27945, 38.76863 ], [ -77.28031, 38.76775 ], [ -77.27913, 38.76757 ], [ -77.27891, 38.76818 ], [ -77.27945, 38.76863 ] ] ] } },
{ "type": "Feature", "properties": { "variant": "T2s", "miles": 1.0 }, "geometry": { "type": "Polygon", "coordinates": [ [ [ -77.28382, 38.76222 ], [ -77.28548, 38.76281 ], [ -77.28607, 38.76232 ], [ -77.28691, 38.76272 ], [ -77.28651, 38.76597 ], [ -77.28705, 38.76663 ], [ -77.28691, 38.76703 ], [ -77.28616, 38.76716 ], [ -77.28738, 38.76848 ], [ -77.28728, 38.76956 ], [ -77.28472, 38.77303 ], [ -77.28349, 38.77317 ], [ -77.28346, 38.77371 ], [ -77.28273, 38.77404 ], [ -77.28165, 38.77387 ], [ -77.2808, 38.77296 ], [ -77.2809, 38.77245 ], [ -77.28135, 38.77223 ], [ -77.28213, 38.77266 ], [ -77.2824, 38.77211 ], [ -77.28096, 38.7718 ], [ -77.28083, 38.7714 ], [ -77.28155, 38.77094 ], [ -77.28167, 38.77026 ], [ -77.281, 38.77019 ], [ -77.279, 38.77099 ], [ -77.27889, 38.77249 ], [ -77.28097, 38.77349 ], [ -77.28133, 38.77439 ], [ -77.28035, 38.77462 ], [ -77.27995, 38.77515 ], [ -77.2785, 38.77529 ], [ -77.27768, 38.77592 ], [ -77.27675, 38.77569 ], [ -77.27705, 38.77484 ], [ -77.27613, 38.7755 ], [ -77.27501, 38.77538 ], [ -77.27468, 38.77466 ], [ -77.27592, 38.77421 ], [ -77.27561, 38.77306 ], [ -77.27474, 38.77313 ], [ -77.2743, 38.77261 ], [ -77.27377, 38.77282 ], [ -77.27448, 38.77418 ], [ -77.27362, 38.77454 ], [ -77.27223, 38.77286 ], [ -77.27224, 38.7706 ], [ -77.27426, 38.77073 ], [ -77.27449, 38.77022 ], [ -77.27339, 38.7704 ], [ -77.27324, 38.76964 ], [ -77.27406, 38.76919 ], [ -77.2738, 38.76853 ], [ -77.27318, 38.76855 ], [ -77.27281, 38.76794 ], [ -77.27178, 38.76792 ], [ -77.27162, 38.76717 ], [ -77.27598, 38.76589 ], [ -77.2764, 38.76614 ], [ -77.27626, 38.76677 ], [ -77.2771, 38.76701 ], [ -77.27722, 38.76639 ], [ -77.27777, 38.76616 ], [ -77.27998, 38.76666 ], [ -77.28061, 38.76657 ], [ -77.27825, 38.76554 ], [ -77.27738, 38.76581 ], [ -77.27694, 38.76558 ], [ -77.27683, 38.76518 ], [ -77.2777, 38.76453 ], [ -77.27768, 38.76405 ], [ -77.27722, 38.76439 ], [ -77.27589, 38.76414 ], [ -77.27508, 38.76323 ], [ -77.27396, 38.76359 ], [ -77.27336, 38.76273 ], [ -77.27375, 38.76218 ], [ -77.2735, 38.76161 ], [ -77.27284, 38.76154 ], [ -77.27249, 38.76106 ], [ -77.27249, 38.75983 ], [ -77.2742, 38.75945 ], [ -77.27462, 38.75969 ], [ -77.2746, 38.76047 ], [ -77.27944, 38.76258 ], [ -77.27859, 38.76194 ], [ -77.27901, 38.7613 ], [ -77.27842, 38.76078 ], [ -77.27794, 38.7612 ], [ -77.27742, 38.76112 ], [ -77.27643, 38.76036 ], [ -77.27671, 38.75962 ], [ -77.27782, 38.75948 ], [ -77.27747, 38.75903 ], [ -77.27608, 38.75869 ], [ -77.27595, 38.75829 ], [ -77.27673, 38.75783 ], [ -77.27811, 38.75807 ], [ -77.28001, 38.75726 ], [ -77.28053, 38.75781 ], [ -77.28029, 38.7582 ], [ -77.28248, 38.7601 ], [ -77.28382, 38.76222 ] ], [ [ -77.27961, 38.76846 ], [ -77.27943, 38.76847 ], [ -77.27945, 38.76863 ], [ -77.27961, 38.76846 ] ], [ [ -77.27914, 38.76451 ], [ -77.27944, 38.76436 ], [ -77.28005, 38.76414 ], [ -77.27916, 38.76373 ], [ -77.27914, 38.76451 ] ], [ [ -77.28212, 38.76261 ], [ -77.28226, 38.76243 ], [ -77.28224, 38.76239 ], [ -77.28212, 38.76261 ] ], [ [ -77.28136, 38.76846 ], [ -77.28131, 38.7685 ], [ -77.28139, 38.76852 ], [ -77.28136, 38.76846 ] ], [ [ -77.28123, 38.76539 ], [ -77.28147, 38.76529 ], [ -77.28138, 38.76518 ], [ -77.28123, 38.76539 ] ], [ [ -77.28544, 38.76667 ], [ -77.28543, 38.76668 ], [ -77.28546, 38.76669 ], [ -77.28544, 38.76667 ] ], [ [ -77.2839, 38.76631 ], [ -77.28385, 38.76629 ], [ -77.28386, 38.76634 ], [ -77.2839, 38.76631 ] ], [ [ -77.28535, 38.7648 ], [ -77.28474, 38.76389 ], [ -77.28429, 38.76337 ], [ -77.28535, 38.7648 ] ], [ [ -77.28295, 38.76367 ], [ -77.28295, 38.76366 ], [ -77.28294, 38.76367 ], [ -77.28295, 38.76367 ] ], [ [ -77.28557, 38.76832 ], [ -77.2844, 38.76749 ], [ -77.28263, 38.76805 ], [ -77.28429, 38.76941 ], [ -77.28557, 38.76832 ] ], [ [ -77.28339, 38.77076 ], [ -77.28342, 38.77066 ], [ -77.28331, 38.77075 ], [ -77.28339, 38.77076 ] ], [ [ -77.28481, 38.77057 ], [ -77.28504, 38.77044 ], [ -77.2848, 38.77038 ], [ -77.28481, 38.77057 ] ], [ [ -77.27976, 38.75948 ], [ -77.27994, 38.7595 ], [ -77.27978, 38.75936 ], [ -77.27976, 38.75948 ] ], [ [ -77.28091, 38.7603 ], [ -77.28085, 38.76042 ], [ -77.28101, 38.76038 ], [ -77.28091, 38.7603 ] ], [ [ -77.28164, 38.76114 ], [ -77.28158, 38.76104 ], [ -77.2815, 38.76114 ], [ -77.28164, 38.76114 ] ], [ [ -77.28014, 38.76776 ], [ -77.28023, 38.76781 ], [ -77.28031, 38.76775 ], [ -77.28014, 38.76776 ] ], [ [ -77.2801, 38.76531 ], [ -77.28012, 38.76531 ], [ -77.28011, 38.7653 ], [ -77.2801, 38.76531 ] ], [ [ -77.27738, 38.77272 ], [ -77.27769, 38.77152 ], [ -77.27734, 38.77042 ], [ -77.27603, 38.77048 ], [ -77.27561, 38.77095 ], [ -77.2768, 38.77148 ], [ -77.27704, 38.7727 ], [ -77.27738, 38.77272 ] ], [ [ -77.27607, 38.76859 ], [ -77.27592, 38.76881 ], [ -77.27614, 38.76931 ], [ -77.27635, 38.76927 ], [ -77.27607, 38.76859 ] ], [ [ -77.27648, 38.76829 ], [ -77.2764, 38.76805 ], [ -77.27612, 38.76853 ], [ -77.27648, 38.76829 ] ], [ [ -77.27765, 38.76756 ], [ -77.27779, 38.76729 ], [ -77.27743, 38.76725 ], [ -77.27765, 38.76756 ] ], [ [ -77.27774, 38.76368 ], [ -77.2776, 38.76358 ], [ -77.27773, 38.76372 ], [ -77.27774, 38.76368 ] ], [ [ -77.27685, 38.76316 ], [ -77.27679, 38.76319 ], [ -77.27685, 38.76319 ], [ -77.27685, 38.76316 ] ] ] } },
{ "type": "Feature", "properties": { "variant": "T2s", "miles": 1.5 }, "geometry": { "type": "Polygon", "coordinates": [ [ [ -77.28463, 38.75888 ], [ -77.28349, 38.75959 ], [ -77.2846, 38.75966 ], [ -77.28542, 38.75898 ], [ -77.28626, 38.75936 ], [ -77.28585, 38.76125 ], [ -77.28538, 38.76144 ], [ -77.28462, 38.76079 ], [ -77.28415, 38.76084 ], [ -77.28446, 38.76169 ], [ -77.28361, 38.76216 ], [ -77.28548, 38.76281 ], [ -77.28607, 38.76232 ], [ -77.28691, 38.76272 ], [ -77.28651, 38.76597 ], [ -77.28724, 38.76689 ], [ -77.29277, 38.7633 ], [ -77.29386, 38.76336 ], [ -77.29429, 38.76401 ], [ -77.28811, 38.76773 ], [ -77.28892, 38.76866 ], [ -77.28755, 38.77049 ], [ -77.28883, 38.77097 ], [ -77.28875, 38.77173 ], [ -77.28793, 38.77192 ], [ -77.28684, 38.77142 ], [ -77.28591, 38.77288 ], [ -77.28496, 38.77273 ], [ -77.28433, 38.77329 ], [ -77.28349, 38.77317 ], [ -77.28346, 38.77371 ], [ -77.28253, 38.77407 ], [ -77.28274, 38.77457 ], [ -77.2814, 38.77528 ], [ -77.28108, 38.77593 ], [ -77.28044, 38.77625 ], [ -77.27969, 38.77595 ], [ -77.27911, 38.77617 ], [ -77.27976, 38.77675 ], [ -77.27971, 38.77751 ], [ -77.27873, 38.77747 ], [ -77.27783, 38.77667 ], [ -77.27667, 38.77713 ], [ -77.27706, 38.77802 ], [ -77.27757, 38.77783 ], [ -77.27951, 38.77866 ], [ -77.27773, 38.78014 ], [ -77.27824, 38.78134 ], [ -77.27911, 38.78164 ], [ -77.2791, 38.78205 ], [ -77.27734, 38.78255 ], [ -77.27618, 38.78034 ], [ -77.27581, 38.78034 ], [ -77.27589, 38.78127 ], [ -77.27538, 38.78139 ], [ -77.27416, 38.78066 ], [ -77.27471, 38.77919 ], [ -77.27563, 38.77849 ], [ -77.27523, 38.77752 ], [ -77.27438, 38.77735 ], [ -77.27317, 38.77825 ], [ -77.27386, 38.77927 ], [ -77.27364, 38.77964 ], [ -77.27314, 38.77978 ], [ -77.27202, 38.77906 ], [ -77.27179, 38.78004 ], [ -77.26988, 38.78007 ], [ -77.2695, 38.77937 ], [ -77.27118, 38.7782 ], [ -77.26992, 38.77881 ], [ -77.26914, 38.77804 ], [ -77.27093, 38.77686 ], [ -77.2681, 38.77655 ], [ -77.26741, 38.776 ], [ -77.26762, 38.77562 ], [ -77.2701, 38.77468 ], [ -77.27058, 38.77486 ], [ -77.27072, 38.7756 ], [ -77.2713, 38.77568 ], [ -77.27199, 38.77482 ], [ -77.2713, 38.77438 ], [ -77.27219, 38.773 ], [ -77.2712, 38.77059 ], [ -77.27157, 38.76899 ], [ -77.27144, 38.76563 ], [ -77.27273, 38.76261 ], [ -77.27241, 38.75952 ], [ -77.27291, 38.75861 ], [ -77.27654, 38.75531 ], [ -77.27762, 38.75314 ], [ -77.27964, 38.75362 ], [ -77.28112, 38.75286 ], [ -77.28281, 38.75286 ], [ -77.28289, 38.75362 ], [ -77.28105, 38.75408 ], [ -77.27935, 38.75564 ], [ -77.28071, 38.75671 ], [ -77.28186, 38.75846 ], [ -77.28256, 38.75876 ], [ -77.284, 38.7583 ], [ -77.28447, 38.75849 ], [ -77.28463, 38.75888 ] ], [ [ -77.27675, 38.77569 ], [ -77.27705, 38.77484 ], [ -77.27562, 38.77554 ], [ -77.27601, 38.7761 ], [ -77.27675, 38.77569 ] ], [ [ -77.27738, 38.77272 ], [ -77.27769, 38.77152 ], [ -77.27734, 38.77042 ], [ -77.27603, 38.77048 ], [ -77.27561, 38.77095 ], [ -77.2768, 38.77148 ], [ -77.27704, 38.7727 ], [ -77.27738, 38.77272 ] ], [ [ -77.27765, 38.76756 ], [ -77.27779, 38.76729 ], [ -77.27743, 38.76725 ], [ -77.27765, 38.76756 ] ], [ [ -77.2771, 38.76701 ], [ -77.27797, 38.76614 ], [ -77.27998, 38.76666 ], [ -77.28061, 38.76657 ], [ -77.27825, 38.76554 ], [ -77.27738, 38.76581 ], [ -77.27694, 38.76558 ], [ -77.27683, 38.76518 ], [ -77.2777, 38.76453 ], [ -77.27768, 38.76405 ], [ -77.27722, 38.76439 ], [ -77.27589, 38.76414 ], [ -77.27508, 38.76323 ], [ -77.27448, 38.76367 ], [ -77.27386, 38.76348 ], [ -77.27368, 38.76387 ], [ -77.27594, 38.76486 ], [ -77.27627, 38.76558 ], [ -77.27535, 38.76583 ], [ -77.27368, 38.76521 ], [ -77.27357, 38.76549 ], [ -77.27418, 38.76565 ], [ -77.27451, 38.76627 ], [ -77.27598, 38.76589 ], [ -77.2764, 38.76614 ], [ -77.27626, 38.76677 ], [ -77.2771, 38.76701 ] ], [ [ -77.27773, 38.76372 ], [ -77.27777, 38.76357 ], [ -77.2776, 38.76358 ], [ -77.27773, 38.76372 ] ], [ [ -77.27685, 38.76319 ], [ -77.27682, 38.76317 ], [ -77.27679, 38.76319 ], [ -77.27685, 38.76319 ] ], [ [ -77.27753, 38.76195 ], [ -77.27953, 38.76249 ], [ -77.27859, 38.76194 ], [ -77.27901, 38.7613 ], [ -77.27842, 38.76078 ], [ -77.27794, 38.7612 ], [ -77.27742, 38.76112 ], [ -77.27643, 38.76036 ], [ -77.27671, 38.75962 ], [ -77.27782, 38.75948 ], [ -77.27767, 38.75917 ], [ -77.27721, 38.75899 ], [ -77.27583, 38.75995 ], [ -77.27499, 38.75956 ], [ -77.27519, 38.75901 ], [ -77.27435, 38.75896 ], [ -77.27387, 38.75949 ], [ -77.27462, 38.75969 ], [ -77.2746, 38.76047 ], [ -77.27753, 38.76195 ] ], [ [ -77.28216, 38.77257 ], [ -77.2824, 38.77211 ], [ -77.28131, 38.77204 ], [ -77.28083, 38.7714 ], [ -77.28155, 38.77094 ], [ -77.28167, 38.77026 ], [ -77.281, 38.77019 ], [ -77.279, 38.77099 ], [ -77.27889, 38.77249 ], [ -77.28091, 38.77344 ], [ -77.28133, 38.77412 ], [ -77.2818, 38.77395 ], [ -77.28088, 38.77315 ], [ -77.2809, 38.77245 ], [ -77.28135, 38.77223 ], [ -77.28216, 38.77257 ] ], [ [ -77.28136, 38.76846 ], [ -77.28131, 38.7685 ], [ -77.28139, 38.76852 ], [ -77.28136, 38.76846 ] ], [ [ -77.27916, 38.76373 ], [ -77.27911, 38.76453 ], [ -77.28005, 38.76414 ], [ -77.27916, 38.76373 ] ], [ [ -77.27938, 38.75737 ], [ -77.2795, 38.75726 ], [ -77.27906, 38.75702 ], [ -77.27938, 38.75737 ] ], [ [ -77.27848, 38.75447 ], [ -77.27849, 38.75432 ], [ -77.27841, 38.75454 ], [ -77.27848, 38.75447 ] ], [ [ -77.28239, 38.76268 ], [ -77.28212, 38.76261 ], [ -77.2823, 38.76271 ], [ -77.28239, 38.76268 ] ], [ [ -77.28557, 38.76832 ], [ -77.2844, 38.76749 ], [ -77.28263, 38.76805 ], [ -77.28429, 38.76941 ], [ -77.28557, 38.76832 ] ], [ [ -77.28535, 38.7648 ], [ -77.28474, 38.76389 ], [ -77.28429, 38.76337 ], [ -77.28535, 38.7648 ] ], [ [ -77.28295, 38.76366 ], [ -77.28294, 38.76367 ], [ -77.28295, 38.76367 ], [ -77.28295, 38.76366 ] ], [ [ -77.28543, 38.76668 ], [ -77.28546, 38.76669 ], [ -77.28544, 38.76667 ], [ -77.28543, 38.76668 ] ], [ [ -77.28386, 38.76634 ], [ -77.2839, 38.7663 ], [ -77.28385, 38.76629 ], [ -77.28386, 38.76634 ] ], [ [ -77.28331, 38.77075 ], [ -77.28339, 38.77076 ], [ -77.28342, 38.77066 ], [ -77.28331, 38.77075 ] ], [ [ -77.28481, 38.77057 ], [ -77.28504, 38.77044 ], [ -77.2848, 38.77038 ], [ -77.28481, 38.77057 ] ], [ [ -77.28164, 38.76114 ], [ -77.28158, 38.76104 ], [ -77.2815, 38.76114 ], [ -77.28164, 38.76114 ] ], [ [ -77.28101, 38.76038 ], [ -77.28086, 38.76026 ], [ -77.28085, 38.76042 ], [ -77.28101, 38.76038 ] ], [ [ -77.27976, 38.75948 ], [ -77.27985, 38.75942 ], [ -77.27978, 38.75936 ], [ -77.27976, 38.75948 ] ], [ [ -77.27947, 38.76851 ], [ -77.27945, 38.76863 ], [ -77.27961, 38.76846 ], [ -77.27947, 38.76851 ] ], [ [ -77.28023, 38.76781 ], [ -77.28014, 38.76776 ], [ -77.28015, 38.76788 ], [ -77.28023, 38.76781 ] ], [ [ -77.28138, 38.76518 ], [ -77.28152, 38.76544 ], [ -77.28156, 38.76549 ], [ -77.28138, 38.76518 ] ], [ [ -77.28011, 38.7653 ], [ -77.2801, 38.76531 ], [ -77.28012, 38.76531 ], [ -77.28011, 38.7653 ] ], [ [ -77.27541, 38.77439 ], [ -77.27489, 38.77411 ], [ -77.27472, 38.7742 ], [ -77.27491, 38.7745 ], [ -77.27541, 38.77439 ] ], [ [ -77.27573, 38.77445 ], [ -77.27587, 38.77428 ], [ -77.27555, 38.7744 ], [ -77.27573, 38.77445 ] ], [ [ -77.27325, 38.77084 ], [ -77.27426, 38.77073 ], [ -77.27449, 38.77022 ], [ -77.27339, 38.7704 ], [ -77.27322, 38.76969 ], [ -77.27279, 38.76982 ], [ -77.27259, 38.77053 ], [ -77.27325, 38.77084 ] ], [ [ -77.27376, 38.76854 ], [ -77.27379, 38.76855 ], [ -77.2738, 38.76853 ], [ -77.27376, 38.76854 ] ], [ [ -77.27292, 38.76834 ], [ -77.27294, 38.76862 ], [ -77.27318, 38.76855 ], [ -77.27292, 38.76834 ] ], [ [ -77.27347, 38.76659 ], [ -77.27329, 38.76658 ], [ -77.27323, 38.76666 ], [ -77.27347, 38.76659 ] ], [ [ -77.27607, 38.76859 ], [ -77.27614, 38.76931 ], [ -77.27635, 38.76927 ], [ -77.27607, 38.76859 ] ], [ [ -77.27633, 38.76823 ], [ -77.2765, 38.76829 ], [ -77.2764, 38.76805 ], [ -77.27633, 38.76823 ] ], [ [ -77.27221, 38.77748 ], [ -77.27271, 38.77713 ], [ -77.27217, 38.77744 ], [ -77.27221, 38.77748 ] ] ] } }
]
}
