{
"type": "FeatureCollection",
"name": "377",
"crs": { "type": "name", "properties": { "name": "urn:ogc:def:crs:OGC:1.3:CRS84" } },
"xy_coordinate_resolution": 1e-05,
"features": [
{ "type": "Feature", "properties": { "variant": "T0", "miles": 0.5 }, "geometry": { "type": "Polygon", "coordinates": [ [ [ -77.27132, 38.75109 ], [ -77.27467, 38.75152 ], [ -77.27567, 38.75213 ], [ -77.27581, 38.75297 ], [ -77.27405, 38.75451 ], [ -77.27302, 38.75438 ], [ -77.27075, 38.75548 ], [ -77.27077, 38.75621 ], [ -77.2729, 38.75737 ], [ -77.27249, 38.75807 ], [ -77.27093, 38.75803 ], [ -77.26976, 38.75695 ], [ -77.26889, 38.7571 ], [ -77.26849, 38.75683 ], [ -77.26925, 38.75554 ], [ -77.26831, 38.75537 ], [ -77.26806, 38.75376 ], [ -77.2689, 38.75337 ], [ -77.27016, 38.75361 ], [ -77.26919, 38.75334 ], [ -77.26901, 38.75295 ], [ -77.26928, 38.75134 ], [ -77.26974, 38.75113 ], [ -77.27132, 38.75109 ] ], [ [ -77.27132, 38.75379 ], [ -77.27095, 38.75381 ], [ -77.27159, 38.75396 ], [ -77.27132, 38.75379 ] ], [ [ -77.26978, 38.75471 ], [ -77.26974, 38.75464 ], [ -77.26969, 38.75479 ], [ -77.26978, 38.75471 ] ] ] } },
{ "type": "Feature", "properties": { "variant": "T0", "miles": 1.0 }, "geometry": { "type": "Polygon", "coordinates": [ [ [ -77.2746, 38.74742 ], [ -77.2767, 38.74861 ], [ -77.27601, 38.75113 ], [ -77.27527, 38.75189 ], [ -77.27588, 38.75256 ], [ -77.27562, 38.75308 ], [ -77.27695, 38.75423 ], [ -77.27774, 38.75309 ], [ -77.27864, 38.7534 ], [ -77.27863, 38.75381 ], [ -77.2776, 38.75574 ], [ -77.27502, 38.75837 ], [ -77.27402, 38.7583 ], [ -77.2741, 38.75759 ], [ -77.27297, 38.75811 ], [ -77.27194, 38.75805 ], [ -77.27148, 38.75893 ], [ -77.27045, 38.75959 ], [ -77.27057, 38.76052 ], [ -77.26949, 38.76252 ], [ -77.26858, 38.76278 ], [ -77.26775, 38.76254 ], [ -77.26777, 38.76174 ], [ -77.26649, 38.76166 ], [ -77.26616, 38.76134 ], [ -77.26644, 38.76078 ], [ -77.26556, 38.75855 ], [ -77.26622, 38.75758 ], [ -77.26718, 38.75718 ], [ -77.26877, 38.75767 ], [ -77.26989, 38.75861 ], [ -77.27042, 38.75823 ], [ -77.27053, 38.7576 ], [ -77.26976, 38.75695 ], [ -77.26889, 38.7571 ], [ -77.26849, 38.75683 ], [ -77.26925, 38.75554 ], [ -77.26831, 38.75537 ], [ -77.26806, 38.75376 ], [ -77.26838, 38.75343 ], [ -77.27016, 38.75361 ], [ -77.27011, 38.75339 ], [ -77.26919, 38.75334 ], [ -77.26917, 38.75227 ], [ -77.26787, 38.7522 ], [ -77.26816, 38.75338 ], [ -77.26604, 38.75522 ], [ -77.26691, 38.75577 ], [ -77.26687, 38.75619 ], [ -77.26594, 38.75642 ], [ -77.2651, 38.75602 ], [ -77.26536, 38.75655 ], [ -77.26453, 38.75694 ], [ -77.26384, 38.75659 ], [ -77.26367, 38.75595 ], [ -77.26489, 38.7546 ], [ -77.26386, 38.75479 ], [ -77.26333, 38.75392 ], [ -77.26225, 38.75457 ], [ -77.26176, 38.75442 ], [ -77.261, 38.75333 ], [ -77.26169, 38.75279 ], [ -77.26442, 38.75304 ], [ -77.26388, 38.75258 ], [ -77.26443, 38.75133 ], [ -77.26526, 38.75108 ], [ -77.26607, 38.75152 ], [ -77.26618, 38.7513 ], [ -77.26345, 38.75001 ], [ -77.26368, 38.74927 ], [ -77.26509, 38.74946 ], [ -77.26415, 38.74795 ], [ -77.26467, 38.74677 ], [ -77.26687, 38.74715 ], [ -77.26789, 38.74662 ], [ -77.26991, 38.74642 ], [ -77.27012, 38.74717 ], [ -77.26838, 38.74764 ], [ -77.26864, 38.74843 ], [ -77.2678, 38.74859 ], [ -77.26782, 38.75108 ], [ -77.27117, 38.75108 ], [ -77.27288, 38.75148 ], [ -77.27447, 38.75055 ], [ -77.27481, 38.74892 ], [ -77.27362, 38.74866 ], [ -77.27338, 38.74829 ], [ -77.27367, 38.74765 ], [ -77.2746, 38.74742 ] ], [ [ -77.26978, 38.75471 ], [ -77.26974, 38.75464 ], [ -77.26969, 38.75479 ], [ -77.26978, 38.75471 ] ], [ [ -77.2735, 38.75658 ], [ -77.27517, 38.75423 ], [ -77.27462, 38.75383 ], [ -77.27405, 38.75451 ], [ -77.27302, 38.75438 ], [ -77.27099, 38.7553 ], [ -77.27059, 38.75583 ], [ -77.27163, 38.75692 ], [ -77.27257, 38.75708 ], [ -77.2735, 38.75658 ] ], [ [ -77.27584, 38.75561 ], [ -77.2762, 38.75538 ], [ -77.27615, 38.75527 ], [ -77.27614, 38.7554 ], [ -77.27584, 38.75561 ] ], [ [ -77.27125, 38.75363 ], [ -77.27128, 38.75403 ], [ -77.27159, 38.75396 ], [ -77.27125, 38.75363 ] ], [ [ -77.26742, 38.75985 ], [ -77.26743, 38.75988 ], [ -77.26748, 38.75986 ], [ -77.26742, 38.75985 ] ], [ [ -77.26695, 38.75897 ], [ -77.267, 38.7591 ], [ -77.26712, 38.75901 ], [ -77.26695, 38.75897 ] ], [ [ -77.2692, 38.76005 ], [ -77.2691, 38.76004 ], [ -77.26921, 38.76009 ], [ -77.2692, 38.76005 ] ], [ [ -77.26826, 38.76072 ], [ -77.26827, 38.76073 ], [ -77.26827, 38.76071 ], [ -77.26826, 38.76072 ] ], [ [ -77.26662, 38.75024 ], [ -77.26635, 38.74815 ], [ -77.26568, 38.74799 ], [ -77.2664, 38.74876 ], [ -77.26627, 38.75006 ], [ -77.26662, 38.75024 ] ] ] } },
{ "type": "Feature", "properties": { "variant": "T0", "miles": 1.5 }, "geometry": { "type": "Polygon", "coordinates": [ [ [ -77.28321, 38.74757 ], [ -77.27889, 38.75327 ], [ -77.27964, 38.75362 ], [ -77.2808, 38.75295 ], [ -77.28221, 38.75274 ], [ -77.28257, 38.75122 ], [ -77.28184, 38.75114 ], [ -77.28164, 38.75039 ], [ -77.2832, 38.75024 ], [ -77.28349, 38.74954 ], [ -77.28446, 38.74945 ], [ -77.28473, 38.75016 ], [ -77.28359, 38.75264 ], [ -77.2851, 38.75266 ], [ -77.28537, 38.75302 ], [ -77.28478, 38.75363 ], [ -77.28312, 38.75376 ], [ -77.28329, 38.75495 ], [ -77.28434, 38.75549 ], [ -77.2844, 38.7559 ], [ -77.28355, 38.75627 ], [ -77.28244, 38.75583 ], [ -77.28135, 38.75609 ], [ -77.28016, 38.75578 ], [ -77.28036, 38.75503 ], [ -77.28187, 38.75485 ], [ -77.28175, 38.75386 ], [ -77.27953, 38.75517 ], [ -77.27943, 38.75584 ], [ -77.28071, 38.75671 ], [ -77.28112, 38.75775 ], [ -77.27934, 38.75885 ], [ -77.2798, 38.75919 ], [ -77.27917, 38.7608 ], [ -77.27825, 38.76053 ], [ -77.27756, 38.75909 ], [ -77.27608, 38.75869 ], [ -77.27622, 38.75793 ], [ -77.27824, 38.75798 ], [ -77.27708, 38.75647 ], [ -77.27387, 38.75949 ], [ -77.27462, 38.75969 ], [ -77.2746, 38.76047 ], [ -77.28002, 38.76288 ], [ -77.28021, 38.76363 ], [ -77.27978, 38.76386 ], [ -77.27809, 38.76331 ], [ -77.27724, 38.76359 ], [ -77.27622, 38.76249 ], [ -77.27448, 38.76367 ], [ -77.27386, 38.76348 ], [ -77.27368, 38.76387 ], [ -77.27594, 38.76486 ], [ -77.27627, 38.76558 ], [ -77.27535, 38.76583 ], [ -77.27368, 38.76521 ], [ -77.27338, 38.76576 ], [ -77.27279, 38.76584 ], [ -77.27263, 38.76696 ], [ -77.27153, 38.76703 ], [ -77.27125, 38.76611 ], [ -77.27047, 38.76614 ], [ -77.2702, 38.76579 ], [ -77.27048, 38.76521 ], [ -77.27015, 38.76471 ], [ -77.27085, 38.76418 ], [ -77.27169, 38.76463 ], [ -77.2726, 38.76241 ], [ -77.2725, 38.76172 ], [ -77.2711, 38.7609 ], [ -77.27113, 38.76048 ], [ -77.27189, 38.75908 ], [ -77.2725, 38.75899 ], [ -77.27379, 38.75775 ], [ -77.27288, 38.75813 ], [ -77.27194, 38.75805 ], [ -77.27148, 38.75893 ], [ -77.27045, 38.75959 ], [ -77.27052, 38.76065 ], [ -77.2687, 38.76378 ], [ -77.26721, 38.76494 ], [ -77.26511, 38.76532 ], [ -77.26558, 38.7671 ], [ -77.26388, 38.77005 ], [ -77.26301, 38.77035 ], [ -77.26197, 38.77012 ], [ -77.26106, 38.76915 ], [ -77.26076, 38.76668 ], [ -77.26122, 38.76564 ], [ -77.263, 38.76399 ], [ -77.26191, 38.76369 ], [ -77.26105, 38.76418 ], [ -77.26055, 38.76403 ], [ -77.26034, 38.76366 ], [ -77.26085, 38.76299 ], [ -77.26052, 38.76224 ], [ -77.26121, 38.762 ], [ -77.26109, 38.76168 ], [ -77.25869, 38.76251 ], [ -77.25767, 38.76111 ], [ -77.25804, 38.76 ], [ -77.25886, 38.7592 ], [ -77.26019, 38.75882 ], [ -77.25994, 38.75819 ], [ -77.26052, 38.7578 ], [ -77.26026, 38.7575 ], [ -77.25962, 38.75774 ], [ -77.25902, 38.75877 ], [ -77.2585, 38.75882 ], [ -77.25596, 38.75725 ], [ -77.25659, 38.75667 ], [ -77.25847, 38.75627 ], [ -77.25942, 38.75662 ], [ -77.26093, 38.7563 ], [ -77.26258, 38.7566 ], [ -77.2637, 38.7547 ], [ -77.26355, 38.75394 ], [ -77.26225, 38.75457 ], [ -77.26162, 38.7539 ], [ -77.26092, 38.7539 ], [ -77.26008, 38.75455 ], [ -77.25794, 38.75461 ], [ -77.25618, 38.75359 ], [ -77.25623, 38.75264 ], [ -77.25754, 38.75213 ], [ -77.25653, 38.7508 ], [ -77.25625, 38.74948 ], [ -77.25556, 38.74973 ], [ -77.25493, 38.74915 ], [ -77.25671, 38.7479 ], [ -77.25695, 38.74723 ], [ -77.25803, 38.74712 ], [ -77.25692, 38.74629 ], [ -77.25543, 38.74598 ], [ -77.25499, 38.7453 ], [ -77.25585, 38.74495 ], [ -77.25725, 38.74519 ], [ -77.25908, 38.74436 ], [ -77.26013, 38.74449 ], [ -77.26011, 38.74526 ], [ -77.25831, 38.74597 ], [ -77.25915, 38.74642 ], [ -77.26016, 38.74597 ], [ -77.26063, 38.74616 ], [ -77.26078, 38.74655 ], [ -77.26005, 38.74724 ], [ -77.26071, 38.74783 ], [ -77.262, 38.7462 ], [ -77.26314, 38.74614 ], [ -77.26331, 38.74653 ], [ -77.26194, 38.74832 ], [ -77.26228, 38.74835 ], [ -77.26387, 38.74592 ], [ -77.26476, 38.74611 ], [ -77.26591, 38.74559 ], [ -77.26664, 38.7461 ], [ -77.26587, 38.7469 ], [ -77.26687, 38.74715 ], [ -77.2678, 38.74664 ], [ -77.26757, 38.74483 ], [ -77.26508, 38.74424 ], [ -77.26291, 38.74316 ], [ -77.26262, 38.74282 ], [ -77.26316, 38.74218 ], [ -77.26564, 38.74326 ], [ -77.26831, 38.74386 ], [ -77.26965, 38.74345 ], [ -77.27033, 38.74275 ], [ -77.27084, 38.74288 ], [ -77.27113, 38.74368 ], [ -77.27018, 38.74461 ], [ -77.27028, 38.74622 ], [ -77.27151, 38.7457 ], [ -77.27071, 38.74519 ], [ -77.27072, 38.74478 ], [ -77.27111, 38.7445 ], [ -77.2721, 38.74469 ], [ -77.27266, 38.74383 ], [ -77.27318, 38.7438 ], [ -77.27359, 38.74407 ], [ -77.27328, 38.74528 ], [ -77.27391, 38.74576 ], [ -77.2738, 38.74671 ], [ -77.27288, 38.74696 ], [ -77.27249, 38.74654 ], [ -77.27117, 38.74723 ], [ -77.27163, 38.74812 ], [ -77.26995, 38.75111 ], [ -77.27288, 38.75148 ], [ -77.27429, 38.7508 ], [ -77.27481, 38.74892 ], [ -77.27362, 38.74866 ], [ -77.27338, 38.74829 ], [ -77.27367, 38.74765 ], [ -77.2746, 38.74742 ], [ -77.2767, 38.74861 ], [ -77.27601, 38.75113 ], [ -77.27527, 38.75189 ], [ -77.27588, 38.75256 ], [ -77.27562, 38.75308 ], [ -77.27695, 38.75423 ], [ -77.27991, 38.74951 ], [ -77.28246, 38.74707 ], [ -77.28321, 38.74757 ] ], [ [ -77.26775, 38.76254 ], [ -77.26777, 38.76174 ], [ -77.26649, 38.76166 ], [ -77.26616, 38.76134 ], [ -77.26644, 38.76078 ], [ -77.26557, 38.7591 ], [ -77.26572, 38.75814 ], [ -77.26718, 38.75718 ], [ -77.26877, 38.75767 ], [ -77.26989, 38.75861 ], [ -77.27058, 38.75784 ], [ -77.26976, 38.75695 ], [ -77.26889, 38.7571 ], [ -77.26849, 38.75683 ], [ -77.26925, 38.75554 ], [ -77.26874, 38.7556 ], [ -77.26823, 38.75502 ], [ -77.26781, 38.75504 ], [ -77.26777, 38.75587 ], [ -77.26646, 38.75645 ], [ -77.2651, 38.75602 ], [ -77.26536, 38.75655 ], [ -77.26505, 38.75688 ], [ -77.26403, 38.75676 ], [ -77.26359, 38.75834 ], [ -77.26434, 38.7589 ], [ -77.26449, 38.75967 ], [ -77.26359, 38.76043 ], [ -77.26376, 38.76157 ], [ -77.26285, 38.76285 ], [ -77.26331, 38.76294 ], [ -77.26363, 38.76226 ], [ -77.26484, 38.76248 ], [ -77.26544, 38.76336 ], [ -77.26507, 38.76423 ], [ -77.2666, 38.76396 ], [ -77.26775, 38.76254 ] ], [ [ -77.26827, 38.76071 ], [ -77.26826, 38.76072 ], [ -77.26827, 38.76073 ], [ -77.26827, 38.76071 ] ], [ [ -77.2691, 38.76004 ], [ -77.2692, 38.76005 ], [ -77.26916, 38.75997 ], [ -77.2691, 38.76004 ] ], [ [ -77.26848, 38.75342 ], [ -77.26941, 38.75347 ], [ -77.27016, 38.75361 ], [ -77.26919, 38.75334 ], [ -77.26901, 38.75294 ], [ -77.26848, 38.75342 ] ], [ [ -77.2735, 38.75658 ], [ -77.27517, 38.75423 ], [ -77.27462, 38.75383 ], [ -77.27405, 38.75451 ], [ -77.27302, 38.75438 ], [ -77.27108, 38.75524 ], [ -77.27062, 38.756 ], [ -77.27163, 38.75692 ], [ -77.27258, 38.75708 ], [ -77.2735, 38.75658 ] ], [ [ -77.27841, 38.75454 ], [ -77.27861, 38.75437 ], [ -77.27849, 38.75432 ], [ -77.27841, 38.75454 ] ], [ [ -77.27584, 38.75561 ], [ -77.2762, 38.75538 ], [ -77.27615, 38.75527 ], [ -77.27614, 38.7554 ], [ -77.27584, 38.75561 ] ], [ [ -77.27906, 38.75702 ], [ -77.27938, 38.75737 ], [ -77.27955, 38.75729 ], [ -77.27906, 38.75702 ] ], [ [ -77.26897, 38.74493 ], [ -77.26902, 38.74483 ], [ -77.26898, 38.745 ], [ -77.26897, 38.74493 ] ], [ [ -77.26905, 38.75242 ], [ -77.26917, 38.75227 ], [ -77.26903, 38.75228 ], [ -77.26905, 38.75242 ] ], [ [ -77.27097, 38.75383 ], [ -77.27128, 38.75403 ], [ -77.27159, 38.75396 ], [ -77.27125, 38.75363 ], [ -77.27097, 38.75383 ] ], [ [ -77.26974, 38.75464 ], [ -77.26978, 38.75471 ], [ -77.26984, 38.75466 ], [ -77.26974, 38.75464 ] ], [ [ -77.2602, 38.75219 ], [ -77.26133, 38.75284 ], [ -77.26187, 38.75203 ], [ -77.26117, 38.75147 ], [ -77.2602, 38.75219 ] ], [ [ -77.26388, 38.75258 ], [ -77.26459, 38.75119 ], [ -77.26417, 38.75104 ], [ -77.26331, 38.75227 ], [ -77.26362, 38.75285 ], [ -77.26449, 38.753 ], [ -77.26388, 38.75258 ] ], [ [ -77.26309, 38.74926 ], [ -77.265, 38.74963 ], [ -77.2651, 38.74911 ], [ -77.2642, 38.74812 ], [ -77.26309, 38.74926 ] ], [ [ -77.26568, 38.74799 ], [ -77.26649, 38.74908 ], [ -77.26627, 38.75006 ], [ -77.26662, 38.75024 ], [ -77.26667, 38.74955 ], [ -77.26635, 38.74815 ], [ -77.26568, 38.74799 ] ], [ [ -77.26604, 38.75522 ], [ -77.26649, 38.75542 ], [ -77.26639, 38.75494 ], [ -77.26604, 38.75522 ] ], [ [ -77.26257, 38.75109 ], [ -77.26258, 38.7511 ], [ -77.26258, 38.75109 ], [ -77.26257, 38.75109 ] ], [ [ -77.26154, 38.75756 ], [ -77.2618, 38.75799 ], [ -77.2622, 38.75795 ], [ -77.26231, 38.75767 ], [ -77.26154, 38.75756 ] ], [ [ -77.26695, 38.75897 ], [ -77.267, 38.7591 ], [ -77.26712, 38.75901 ], [ -77.26695, 38.75897 ] ], [ [ -77.26742, 38.75985 ], [ -77.26743, 38.75988 ], [ -77.26748, 38.75986 ], [ -77.26742, 38.75985 ] ], [ [ -77.26299, 38.76908 ], [ -77.26355, 38.76813 ], [ -77.26389, 38.76754 ], [ -77.26288, 38.76761 ], [ -77.26324, 38.76826 ], [ -77.26257, 38.76868 ], [ -77.26299, 38.76908 ] ], [ [ -77.26233, 38.76119 ], [ -77.26244, 38.76118 ], [ -77.26243, 38.76109 ], [ -77.26233, 38.76119 ] ], [ [ -77.26421, 38.7667 ], [ -77.26424, 38.76677 ], [ -77.26425, 38.76666 ], [ -77.26421, 38.7667 ] ], [ [ -77.25929, 38.74896 ], [ -77.25911, 38.74885 ], [ -77.25914, 38.74908 ], [ -77.25929, 38.74896 ] ], [ [ -77.25902, 38.75073 ], [ -77.25794, 38.74995 ], [ -77.25766, 38.74874 ], [ -77.25788, 38.75032 ], [ -77.25862, 38.75081 ], [ -77.25864, 38.75144 ], [ -77.25902, 38.75073 ] ] ] } },
{ "type": "Feature", "properties": { "variant": "T2s", "miles": 0.5 }, "geometry": { "type": "Polygon", "coordinates": [ [ [ -77.27132, 38.75109 ], [ -77.27467, 38.75152 ], [ -77.27567, 38.75213 ], [ -77.27581, 38.75297 ], [ -77.27405, 38.75451 ], [ -77.27302, 38.75438 ], [ -77.27075, 38.75548 ], [ -77.27077, 38.75621 ], [ -77.2729, 38.75737 ], [ -77.27249, 38.75807 ], [ -77.27093, 38.75803 ], [ -77.26976, 38.75695 ], [ -77.26889, 38.7571 ], [ -77.26849, 38.75683 ], [ -77.26925, 38.75554 ], [ -77.26831, 38.75537 ], [ -77.26806, 38.75376 ], [ -77.2689, 38.75337 ], [ -77.27016, 38.75361 ], [ -77.26919, 38.75334 ], [ -77.26901, 38.75295 ], [ -77.26928, 38.75134 ], [ -77.26974, 38.75113 ], [ -77.27132, 38.75109 ] ], [ [ -77.27132, 38.75379 ], [ -77.27095, 38.75381 ], [ -77.27159, 38.75396 ], [ -77.27132, 38.75379 ] ], [ [ -77.26978, 38.75471 ], [ -77.26974, 38.75464 ], [ -77.26969, 38.75479 ], [ -77.26978, 38.75471 ] ] ] } },
{ "type": "Feature", "properties": { "variant": "T2s", "miles": 1.0 }, "geometry": { "type": "Polygon", "coordinates": [ [ [ -77.2746, 38.74742 ], [ -77.2767, 38.74861 ], [ -77.27601, 38.75113 ], [ -77.27527, 38.75189 ], [ -77.27588, 38.75256 ], [ -77.27562, 38.75308 ], [ -77.27757, 38.75508 ], [ -77.27684, 38.75569 ], [ -77.27615, 38.75527 ], [ -77.27516, 38.75617 ], [ -77.27559, 38.75685 ], [ -77.27532, 38.75721 ], [ -77.27461, 38.75722 ], [ -77.27297, 38.75811 ], [ -77.27194, 38.75805 ], [ -77.27148, 38.75893 ], [ -77.27045, 38.75959 ], [ -77.27057, 38.76052 ], [ -77.26949, 38.76252 ], [ -77.26858, 38.76278 ], [ -77.26775, 38.76254 ], [ -77.26777, 38.76174 ], [ -77.26649, 38.76166 ], [ -77.26616, 38.76134 ], [ -77.26644, 38.76078 ], [ -77.26556, 38.75855 ], [ -77.26622, 38.75758 ], [ -77.26718, 38.75718 ], [ -77.26877, 38.75767 ], [ -77.26989, 38.75861 ], [ -77.27042, 38.75823 ], [ -77.27053, 38.7576 ], [ -77.26976, 38.75695 ], [ -77.26889, 38.7571 ], [ -77.26849, 38.75683 ], [ -77.26925, 38.75554 ], [ -77.26831, 38.75537 ], [ -77.26806, 38.75376 ], [ -77.26838, 38.75343 ], [ -77.27016, 38.75361 ], [ -77.27011, 38.75339 ], [ -77.26919, 38.75334 ], [ -77.26917, 38.75227 ], [ -77.26787, 38.7522 ], [ -77.26816, 38.75338 ], [ -77.26604, 38.75522 ], [ -77.26691, 38.75577 ], [ -77.26687, 38.75619 ], [ -77.26594, 38.75642 ], [ -77.2651, 38.75602 ], [ -77.26536, 38.75655 ], [ -77.26505, 38.75688 ], [ -77.26384, 38.75659 ], [ -77.26378, 38.75565 ], [ -77.26489, 38.7546 ], [ -77.26386, 38.75479 ], [ -77.26344, 38.75455 ], [ -77.26337, 38.75414 ], [ -77.26449, 38.753 ], [ -77.26388, 38.75258 ], [ -77.26395, 38.75215 ], [ -77.26461, 38.75118 ], [ -77.26532, 38.75109 ], [ -77.26607, 38.75152 ], [ -77.26618, 38.7513 ], [ -77.26345, 38.75001 ], [ -77.26368, 38.74927 ], [ -77.265, 38.74963 ], [ -77.26511, 38.74941 ], [ -77.26421, 38.74815 ], [ -77.26434, 38.74709 ], [ -77.2652, 38.74673 ], [ -77.26687, 38.74715 ], [ -77.26789, 38.74662 ], [ -77.26991, 38.74642 ], [ -77.27012, 38.74717 ], [ -77.26838, 38.74764 ], [ -77.26864, 38.74843 ], [ -77.2678, 38.74859 ], [ -77.26782, 38.75108 ], [ -77.27117, 38.75108 ], [ -77.27288, 38.75148 ], [ -77.27447, 38.75055 ], [ -77.27481, 38.74892 ], [ -77.27362, 38.74866 ], [ -77.27338, 38.74829 ], [ -77.27367, 38.74765 ], [ -77.2746, 38.74742 ] ], [ [ -77.2692, 38.76005 ], [ -77.26916, 38.75997 ], [ -77.2691, 38.76004 ], [ -77.2692, 38.76005 ] ], [ [ -77.26978, 38.75471 ], [ -77.26974, 38.75464 ], [ -77.26969, 38.75479 ], [ -77.26978, 38.75471 ] ], [ [ -77.2735, 38.75658 ], [ -77.27517, 38.75423 ], [ -77.27462, 38.75383 ], [ -77.27405, 38.75451 ], [ -77.27302, 38.75438 ], [ -77.27099, 38.7553 ], [ -77.27059, 38.75583 ], [ -77.27163, 38.75692 ], [ -77.27257, 38.75708 ], [ -77.2735, 38.75658 ] ], [ [ -77.27097, 38.75383 ], [ -77.27128, 38.75403 ], [ -77.27159, 38.75396 ], [ -77.27125, 38.75363 ], [ -77.27097, 38.75383 ] ], [ [ -77.26662, 38.75024 ], [ -77.26635, 38.74815 ], [ -77.26568, 38.74799 ], [ -77.2664, 38.74876 ], [ -77.26627, 38.75006 ], [ -77.26662, 38.75024 ] ], [ [ -77.26742, 38.75985 ], [ -77.26743, 38.75988 ], [ -77.26748, 38.75986 ], [ -77.26742, 38.75985 ] ], [ [ -77.26695, 38.75897 ], [ -77.267, 38.7591 ], [ -77.26712, 38.75901 ], [ -77.26695, 38.75897 ] ], [ [ -77.26827, 38.76071 ], [ -77.26826, 38.76072 ], [ -77.26827, 38.76073 ], [ -77.26827, 38.76071 ] ] ] } },
{ "type": "Feature", "properties": { "variant": "T2s", "miles": 1.5 }, "geometry": { "type": "MultiPolygon", "coordinates": [ [ [ [ -77.27359, 38.74407 ], [ -77.27328, 38.74528 ], [ -77.27391, 38.74576 ], [ -77.2738, 38.74671 ], [ -77.27288, 38.74696 ], [ -77.27249, 38.74654 ], [ -77.27117, 38.74723 ], [ -77.27163, 38.74812 ], [ -77.26995, 38.75111 ], [ -77.27288, 38.75148 ], [ -77.27429, 38.7508 ], [ -77.27481, 38.74892 ], [ -77.27362, 38.74866 ], [ -77.27338, 38.74829 ], [ -77.27408, 38.74738 ], [ -77.27637, 38.74829 ], [ -77.2767, 38.74861 ], [ -77.2761, 38.75092 ], [ -77.27527, 38.75189 ], [ -77.27588, 38.75256 ], [ -77.27562, 38.75308 ], [ -77.27744, 38.75485 ], [ -77.27739, 38.75552 ], [ -77.27674, 38.75569 ], [ -77.27615, 38.75527 ], [ -77.27514, 38.7562 ], [ -77.27559, 38.75685 ], [ -77.27532, 38.75721 ], [ -77.27461, 38.75722 ], [ -77.27297, 38.75811 ], [ -77.27194, 38.75805 ], [ -77.27148, 38.75893 ], [ -77.27045, 38.75959 ], [ -77.27052, 38.76065 ], [ -77.2687, 38.76378 ], [ -77.26721, 38.76494 ], [ -77.26511, 38.76532 ], [ -77.26558, 38.7671 ], [ -77.26388, 38.77005 ], [ -77.26238, 38.77029 ], [ -77.26109, 38.76922 ], [ -77.26075, 38.76675 ], [ -77.26122, 38.76564 ], [ -77.263, 38.76399 ], [ -77.26191, 38.76369 ], [ -77.26105, 38.76418 ], [ -77.26055, 38.76403 ], [ -77.26034, 38.76366 ], [ -77.26085, 38.76299 ], [ -77.26052, 38.76224 ], [ -77.26121, 38.762 ], [ -77.26091, 38.76151 ], [ -77.2592, 38.76247 ], [ -77.25828, 38.76225 ], [ -77.25815, 38.76172 ], [ -77.26069, 38.75996 ], [ -77.25916, 38.76024 ], [ -77.25849, 38.75968 ], [ -77.25904, 38.7591 ], [ -77.26019, 38.75882 ], [ -77.26026, 38.7575 ], [ -77.25962, 38.75774 ], [ -77.25902, 38.75877 ], [ -77.2585, 38.75882 ], [ -77.25801, 38.75816 ], [ -77.25881, 38.75681 ], [ -77.26072, 38.7563 ], [ -77.26258, 38.7566 ], [ -77.2637, 38.7547 ], [ -77.26355, 38.75394 ], [ -77.26225, 38.75457 ], [ -77.26162, 38.7539 ], [ -77.26092, 38.7539 ], [ -77.26008, 38.75455 ], [ -77.25794, 38.75461 ], [ -77.25618, 38.75359 ], [ -77.25623, 38.75264 ], [ -77.25754, 38.75213 ], [ -77.25653, 38.7508 ], [ -77.25625, 38.74948 ], [ -77.25556, 38.74973 ], [ -77.25493, 38.74915 ], [ -77.25671, 38.7479 ], [ -77.25695, 38.74723 ], [ -77.25803, 38.74712 ], [ -77.25692, 38.74629 ], [ -77.25543, 38.74598 ], [ -77.25499, 38.7453 ], [ -77.25585, 38.74495 ], [ -77.25725, 38.74519 ], [ -77.25908, 38.74436 ], [ -77.26013, 38.74449 ], [ -77.26011, 38.74526 ], [ -77.25831, 38.74597 ], [ -77.25915, 38.74642 ], [ -77.26016, 38.74597 ], [ -77.26063, 38.74616 ], [ -77.26078, 38.74655 ], [ -77.26005, 38.74724 ], [ -77.26071, 38.74783 ], [ -77.262, 38.7462 ], [ -77.26314, 38.74614 ], [ -77.26331, 38.74653 ], [ -77.26227, 38.74765 ], [ -77.26216, 38.74836 ], [ -77.26268, 38.74814 ], [ -77.26387, 38.74592 ], [ -77.26476, 38.74611 ], [ -77.26591, 38.74559 ], [ -77.26664, 38.7461 ], [ -77.26587, 38.7469 ], [ -77.26687, 38.74715 ], [ -77.2678, 38.74664 ], [ -77.26757, 38.74483 ], [ -77.26508, 38.74424 ], [ -77.26291, 38.74316 ], [ -77.26262, 38.74282 ], [ -77.26316, 38.74218 ], [ -77.26564, 38.74326 ], [ -77.26831, 38.74386 ], [ -77.26965, 38.74345 ], [ -77.27033, 38.74275 ], [ -77.27084, 38.74288 ], [ -77.27113, 38.74368 ], [ -77.27018, 38.74461 ], [ -77.27028, 38.74622 ], [ -77.27151, 38.7457 ], [ -77.27071, 38.74519 ], [ -77.27111, 38.7445 ], [ -77.2721, 38.74469 ], [ -77.27266, 38.74383 ], [ -77.27359, 38.74407 ] ], [ [ -77.26775, 38.76254 ], [ -77.26777, 38.76174 ], [ -77.26649, 38.76166 ], [ -77.26616, 38.76134 ], [ -77.26644, 38.76078 ], [ -77.26557, 38.7591 ], [ -77.26572, 38.75814 ], [ -77.26718, 38.75718 ], [ -77.26877, 38.75767 ], [ -77.26989, 38.75861 ], [ -77.27058, 38.75784 ], [ -77.26976, 38.75695 ], [ -77.26889, 38.7571 ], [ -77.26849, 38.75683 ], [ -77.26925, 38.75554 ], [ -77.26874, 38.7556 ], [ -77.26823, 38.75502 ], [ -77.26781, 38.75504 ], [ -77.26777, 38.75587 ], [ -77.26646, 38.75645 ], [ -77.2651, 38.75602 ], [ -77.26536, 38.75655 ], [ -77.26505, 38.75688 ], [ -77.26403, 38.75676 ], [ -77.26359, 38.75834 ], [ -77.26434, 38.7589 ], [ -77.26449, 38.75967 ], [ -77.26359, 38.76043 ], [ -77.26376, 38.76157 ], [ -77.26285, 38.76285 ], [ -77.26331, 38.76294 ], [ -77.26363, 38.76226 ], [ -77.26484, 38.76248 ], [ -77.26544, 38.76336 ], [ -77.26507, 38.76423 ], [ -77.2666, 38.76396 ], [ -77.26775, 38.76254 ] ], [ [ -77.26826, 38.76072 ], [ -77.26827, 38.76073 ], [ -77.26827, 38.76071 ], [ -77.26826, 38.76072 ] ], [ [ -77.26742, 38.75985 ], [ -77.26743, 38.75988 ], [ -77.26748, 38.75986 ], [ -77.26742, 38.75985 ] ], [ [ -77.26712, 38.75901 ], [ -77.26695, 38.75897 ], [ -77.267, 38.7591 ], [ -77.26712, 38.75901 ] ], [ [ -77.26425, 38.75291 ], [ -77.26395, 38.75215 ], [ -77.26459, 38.75119 ], [ -77.26417, 38.75104 ], [ -77.26331, 38.75227 ], [ -77.26362, 38.75285 ], [ -77.26425, 38.75291 ] ], [ [ -77.26316, 38.74929 ], [ -77.2642, 38.74921 ], [ -77.265, 38.74963 ], [ -77.26513, 38.74929 ], [ -77.2642, 38.74812 ], [ -77.26316, 38.74929 ] ], [ [ -77.26895, 38.74485 ], [ -77.26898, 38.745 ], [ -77.26902, 38.74483 ], [ -77.26895, 38.74485 ] ], [ [ -77.27067, 38.75611 ], [ -77.27258, 38.75708 ], [ -77.27354, 38.75654 ], [ -77.27461, 38.75455 ], [ -77.27517, 38.75423 ], [ -77.27462, 38.75383 ], [ -77.27405, 38.75451 ], [ -77.27302, 38.75438 ], [ -77.27075, 38.75548 ], [ -77.27067, 38.75611 ] ], [ [ -77.27128, 38.75403 ], [ -77.27125, 38.75363 ], [ -77.27095, 38.75381 ], [ -77.27128, 38.75403 ] ], [ [ -77.2691, 38.76004 ], [ -77.26921, 38.76009 ], [ -77.26916, 38.75997 ], [ -77.2691, 38.76004 ] ], [ [ -77.26919, 38.75334 ], [ -77.26901, 38.75294 ], [ -77.26848, 38.75342 ], [ -77.27016, 38.75361 ], [ -77.26919, 38.75334 ] ], [ [ -77.26917, 38.75227 ], [ -77.26903, 38.75228 ], [ -77.26905, 38.75242 ], [ -77.26917, 38.75227 ] ], [ [ -77.26974, 38.75464 ], [ -77.26978, 38.75471 ], [ -77.26984, 38.75466 ], [ -77.26974, 38.75464 ] ], [ [ -77.26662, 38.75024 ], [ -77.26635, 38.74815 ], [ -77.26568, 38.74799 ], [ -77.2664, 38.74876 ], [ -77.26627, 38.75006 ], [ -77.26662, 38.75024 ] ], [ [ -77.26257, 38.76868 ], [ -77.26299, 38.76908 ], [ -77.26389, 38.76754 ], [ -77.26288, 38.76761 ], [ -77.26324, 38.76826 ], [ -77.26257, 38.76868 ] ], [ [ -77.26424, 38.76676 ], [ -77.26416, 38.76668 ], [ -77.26424, 38.76677 ], [ -77.26424, 38.76676 ] ], [ [ -77.26187, 38.75798 ], [ -77.26231, 38.75767 ], [ -77.26157, 38.75749 ], [ -77.26151, 38.75758 ], [ -77.26187, 38.75798 ] ], [ [ -77.2602, 38.75219 ], [ -77.26133, 38.75284 ], [ -77.26187, 38.75203 ], [ -77.26117, 38.75147 ], [ -77.2602, 38.75219 ] ], [ [ -77.26604, 38.75522 ], [ -77.26649, 38.75542 ], [ -77.26639, 38.75494 ], [ -77.26604, 38.75522 ] ], [ [ -77.26257, 38.75109 ], [ -77.26258, 38.7511 ], [ -77.26258, 38.75109 ], [ -77.26257, 38.75109 ] ], [ [ -77.26233, 38.76119 ], [ -77.26244, 38.76118 ], [ -77.26243, 38.76109 ], [ -77.26233, 38.76119 ] ], [ [ -77.25902, 38.75073 ], [ -77.25794, 38.74995 ], [ -77.25766, 38.74874 ], [ -77.25788, 38.75032 ], [ -77.25862, 38.75081 ], [ -77.25864, 38.75144 ], [ -77.25902, 38.75073 ] ], [ [ -77.25929, 38.74896 ], [ -77.25911, 38.74885 ], [ -77.25914, 38.74908 ], [ -77.25929, 38.74896 ] ] ], [ [ [ -77.27287, 38.75913 ], [ -77.27273, 38.7604 ], [ -77.27309, 38.76118 ], [ -77.27244, 38.76175 ], [ -77.2711, 38.7609 ], [ -77.27113, 38.76048 ], [ -77.27189, 38.75908 ], [ -77.27287, 38.75913 ] ] ], [ [ [ -77.27198, 38.76531 ], [ -77.27144, 38.76602 ], [ -77.27047, 38.76614 ], [ -77.27036, 38.76433 ], [ -77.27134, 38.76435 ], [ -77.27198, 38.76531 ] ] ] ] } }
]
}
