{
"type": "FeatureCollection",
"name": "391",
"crs": { "type": "name", "properties": { "name": "urn:ogc:def:crs:OGC:1.3:CRS84" } },
"xy_coordinate_resolution": 1e-05,
"features": [
{ "type": "Feature", "properties": { "variant": "T0", "miles": 1.0 }, "geometry": { "type": "Polygon", "coordinates": [ [ [ -77.30932, 38.81311 ], [ -77.31122, 38.81393 ], [ -77.31078, 38.81531 ], [ -77.31151, 38.81458 ], [ -77.31244, 38.81482 ], [ -77.31221, 38.81572 ], [ -77.31123, 38.81634 ], [ -77.31218, 38.81715 ], [ -77.31231, 38.81964 ], [ -77.31374, 38.8197 ], [ -77.314, 38.82068 ], [ -77.31332, 38.82091 ], [ -77.31256, 38.82189 ], [ -77.31184, 38.82174 ], [ -77.31174, 38.82261 ], [ -77.3104, 38.82284 ], [ -77.30957, 38.82389 ], [ -77.30904, 38.82384 ], [ -77.30877, 38.82321 ], [ -77.30891, 38.82423 ], [ -77.30829, 38.82477 ], [ -77.30665, 38.82471 ], [ -77.30204, 38.8261 ], [ -77.30114, 38.82811 ], [ -77.30024, 38.82841 ], [ -77.29985, 38.82771 ], [ -77.30034, 38.82676 ], [ -77.29872, 38.82696 ], [ -77.29802, 38.82654 ], [ -77.29778, 38.82589 ], [ -77.29869, 38.82546 ], [ -77.29811, 38.82358 ], [ -77.29982, 38.82306 ], [ -77.30099, 38.8237 ], [ -77.30151, 38.82306 ], [ -77.30028, 38.82168 ], [ -77.29966, 38.82243 ], [ -77.29772, 38.82184 ], [ -77.29673, 38.82023 ], [ -77.29521, 38.8203 ], [ -77.29495, 38.82097 ], [ -77.29401, 38.82077 ], [ -77.2932, 38.81918 ], [ -77.29328, 38.81838 ], [ -77.29243, 38.8181 ], [ -77.29159, 38.8167 ], [ -77.29143, 38.81555 ], [ -77.29323, 38.81371 ], [ -77.29218, 38.81347 ], [ -77.29202, 38.81307 ], [ -77.29227, 38.81271 ], [ -77.29339, 38.81263 ], [ -77.29377, 38.81175 ], [ -77.29428, 38.81165 ], [ -77.29473, 38.81187 ], [ -77.29477, 38.8127 ], [ -77.29668, 38.81248 ], [ -77.29736, 38.8119 ], [ -77.29909, 38.81299 ], [ -77.3002, 38.81198 ], [ -77.2992, 38.81207 ], [ -77.29886, 38.81135 ], [ -77.2999, 38.81064 ], [ -77.30206, 38.81174 ], [ -77.30229, 38.81079 ], [ -77.3009, 38.8104 ], [ -77.30068, 38.80966 ], [ -77.30206, 38.80961 ], [ -77.30267, 38.80895 ], [ -77.30353, 38.80931 ], [ -77.30338, 38.80991 ], [ -77.30754, 38.81114 ], [ -77.30801, 38.81218 ], [ -77.30753, 38.81349 ], [ -77.30793, 38.81342 ], [ -77.30873, 38.8102 ], [ -77.3097, 38.81029 ], [ -77.30932, 38.81311 ] ], [ [ -77.30348, 38.82382 ], [ -77.30427, 38.8238 ], [ -77.30335, 38.82338 ], [ -77.30203, 38.82454 ], [ -77.30348, 38.82382 ] ], [ [ -77.30454, 38.82237 ], [ -77.30455, 38.82228 ], [ -77.30418, 38.82258 ], [ -77.30459, 38.82272 ], [ -77.30454, 38.82237 ] ], [ [ -77.30178, 38.82027 ], [ -77.30093, 38.82034 ], [ -77.30165, 38.82132 ], [ -77.30232, 38.8214 ], [ -77.30178, 38.82027 ] ], [ [ -77.29993, 38.81671 ], [ -77.30013, 38.8169 ], [ -77.30013, 38.81672 ], [ -77.29993, 38.81671 ] ], [ [ -77.30006, 38.81425 ], [ -77.3, 38.81426 ], [ -77.3001, 38.81429 ], [ -77.30006, 38.81425 ] ], [ [ -77.30096, 38.813 ], [ -77.30114, 38.81256 ], [ -77.30103, 38.81247 ], [ -77.30096, 38.813 ] ], [ [ -77.30617, 38.82186 ], [ -77.30697, 38.82274 ], [ -77.3067, 38.82342 ], [ -77.30732, 38.82331 ], [ -77.30771, 38.82194 ], [ -77.30617, 38.82186 ] ], [ [ -77.30813, 38.8195 ], [ -77.30638, 38.81954 ], [ -77.30717, 38.82018 ], [ -77.30816, 38.82028 ], [ -77.30813, 38.8195 ] ], [ [ -77.308, 38.81609 ], [ -77.30368, 38.81592 ], [ -77.30262, 38.81519 ], [ -77.30174, 38.8159 ], [ -77.30176, 38.81738 ], [ -77.30426, 38.81834 ], [ -77.30807, 38.81842 ], [ -77.308, 38.81609 ] ], [ [ -77.30615, 38.81398 ], [ -77.30439, 38.81377 ], [ -77.30403, 38.81297 ], [ -77.30585, 38.81225 ], [ -77.30644, 38.81262 ], [ -77.3065, 38.81186 ], [ -77.30362, 38.81109 ], [ -77.30313, 38.81318 ], [ -77.30384, 38.81329 ], [ -77.30385, 38.81395 ], [ -77.3047, 38.81428 ], [ -77.30621, 38.81438 ], [ -77.30615, 38.81398 ] ], [ [ -77.31083, 38.8174 ], [ -77.31018, 38.81782 ], [ -77.30969, 38.81767 ], [ -77.30941, 38.81672 ], [ -77.30952, 38.81973 ], [ -77.31011, 38.81997 ], [ -77.31083, 38.81955 ], [ -77.31083, 38.8174 ] ], [ [ -77.30964, 38.81439 ], [ -77.30932, 38.81428 ], [ -77.30933, 38.81444 ], [ -77.30936, 38.81551 ], [ -77.30964, 38.81439 ] ], [ [ -77.3089, 38.82274 ], [ -77.30881, 38.82307 ], [ -77.30895, 38.8229 ], [ -77.3089, 38.82274 ] ], [ [ -77.31035, 38.82213 ], [ -77.31048, 38.82199 ], [ -77.31046, 38.82173 ], [ -77.31035, 38.82213 ] ], [ [ -77.305, 38.82111 ], [ -77.30514, 38.82116 ], [ -77.30486, 38.82093 ], [ -77.305, 38.82111 ] ], [ [ -77.30382, 38.81994 ], [ -77.30387, 38.81938 ], [ -77.30227, 38.81878 ], [ -77.30339, 38.82035 ], [ -77.30437, 38.82029 ], [ -77.30382, 38.81994 ] ], [ [ -77.30053, 38.82482 ], [ -77.30035, 38.82473 ], [ -77.29998, 38.82507 ], [ -77.30051, 38.82517 ], [ -77.30053, 38.82482 ] ], [ [ -77.29831, 38.81834 ], [ -77.29838, 38.81835 ], [ -77.29837, 38.81834 ], [ -77.29831, 38.81834 ] ], [ [ -77.29802, 38.81555 ], [ -77.29823, 38.81563 ], [ -77.29808, 38.81549 ], [ -77.29802, 38.81555 ] ], [ [ -77.29721, 38.81351 ], [ -77.29461, 38.81379 ], [ -77.2945, 38.81482 ], [ -77.29492, 38.81533 ], [ -77.29665, 38.81537 ], [ -77.29721, 38.81351 ] ], [ [ -77.29325, 38.81654 ], [ -77.29295, 38.81646 ], [ -77.29299, 38.81659 ], [ -77.29325, 38.81654 ] ], [ [ -77.29652, 38.81645 ], [ -77.2965, 38.81645 ], [ -77.29651, 38.81646 ], [ -77.29652, 38.81645 ] ], [ [ -77.29752, 38.81865 ], [ -77.29757, 38.81851 ], [ -77.29744, 38.81846 ], [ -77.29752, 38.81865 ] ], [ [ -77.29451, 38.81927 ], [ -77.2963, 38.81921 ], [ -77.29608, 38.81869 ], [ -77.29451, 38.81927 ] ] ] } },
{ "type": "Feature", "properties": { "variant": "T0", "miles": 1.5 }, "geometry": { "type": "Polygon", "coordinates": [ [ [ -77.31323, 38.80858 ], [ -77.31396, 38.80938 ], [ -77.31362, 38.80969 ], [ -77.31268, 38.80958 ], [ -77.31221, 38.81018 ], [ -77.31404, 38.81121 ], [ -77.31487, 38.81039 ], [ -77.31539, 38.81045 ], [ -77.31572, 38.81077 ], [ -77.31537, 38.81193 ], [ -77.31627, 38.81067 ], [ -77.31757, 38.81071 ], [ -77.31777, 38.81146 ], [ -77.31655, 38.81251 ], [ -77.31701, 38.81278 ], [ -77.31769, 38.81206 ], [ -77.31822, 38.81208 ], [ -77.31853, 38.81281 ], [ -77.31778, 38.81386 ], [ -77.31611, 38.81425 ], [ -77.31525, 38.81389 ], [ -77.31557, 38.8133 ], [ -77.31422, 38.81263 ], [ -77.31449, 38.81358 ], [ -77.31401, 38.81518 ], [ -77.31123, 38.81634 ], [ -77.31215, 38.81706 ], [ -77.31227, 38.81858 ], [ -77.31331, 38.8185 ], [ -77.31373, 38.8194 ], [ -77.31401, 38.81892 ], [ -77.3153, 38.81892 ], [ -77.31713, 38.82002 ], [ -77.31671, 38.82072 ], [ -77.317, 38.82152 ], [ -77.31605, 38.82169 ], [ -77.31548, 38.82123 ], [ -77.31537, 38.82268 ], [ -77.31575, 38.82332 ], [ -77.3154, 38.82363 ], [ -77.31341, 38.82453 ], [ -77.31279, 38.82405 ], [ -77.31108, 38.824 ], [ -77.31665, 38.82672 ], [ -77.31723, 38.82727 ], [ -77.31717, 38.82783 ], [ -77.31624, 38.82807 ], [ -77.31266, 38.8264 ], [ -77.31152, 38.82744 ], [ -77.31237, 38.82904 ], [ -77.31209, 38.83031 ], [ -77.31128, 38.83074 ], [ -77.30948, 38.83007 ], [ -77.30868, 38.82898 ], [ -77.308, 38.82919 ], [ -77.30758, 38.82894 ], [ -77.30709, 38.82804 ], [ -77.30574, 38.82789 ], [ -77.30497, 38.82727 ], [ -77.30616, 38.8292 ], [ -77.30568, 38.82978 ], [ -77.30387, 38.83028 ], [ -77.3039, 38.83144 ], [ -77.30492, 38.83205 ], [ -77.30492, 38.83246 ], [ -77.3037, 38.83307 ], [ -77.3029, 38.83265 ], [ -77.30151, 38.83273 ], [ -77.30042, 38.83197 ], [ -77.30006, 38.83067 ], [ -77.29887, 38.83291 ], [ -77.29976, 38.83318 ], [ -77.29951, 38.83415 ], [ -77.29864, 38.83447 ], [ -77.29754, 38.83417 ], [ -77.29713, 38.83348 ], [ -77.29763, 38.83243 ], [ -77.29641, 38.83231 ], [ -77.29566, 38.83271 ], [ -77.29508, 38.8321 ], [ -77.29557, 38.83068 ], [ -77.29608, 38.83058 ], [ -77.29665, 38.83123 ], [ -77.29811, 38.83141 ], [ -77.29931, 38.82886 ], [ -77.29866, 38.82832 ], [ -77.29881, 38.82695 ], [ -77.2969, 38.82698 ], [ -77.29679, 38.82744 ], [ -77.29873, 38.82867 ], [ -77.29861, 38.82943 ], [ -77.29733, 38.82934 ], [ -77.29431, 38.82719 ], [ -77.29289, 38.82716 ], [ -77.29236, 38.82891 ], [ -77.29161, 38.8294 ], [ -77.29099, 38.82882 ], [ -77.29155, 38.82647 ], [ -77.29242, 38.82586 ], [ -77.29414, 38.82594 ], [ -77.29383, 38.82408 ], [ -77.29323, 38.82362 ], [ -77.29317, 38.82296 ], [ -77.29422, 38.82182 ], [ -77.29509, 38.822 ], [ -77.2954, 38.82131 ], [ -77.29641, 38.82149 ], [ -77.29709, 38.82214 ], [ -77.29717, 38.82288 ], [ -77.29785, 38.82313 ], [ -77.29979, 38.82306 ], [ -77.30099, 38.8237 ], [ -77.30151, 38.82306 ], [ -77.30028, 38.82168 ], [ -77.29966, 38.82243 ], [ -77.29772, 38.82184 ], [ -77.29673, 38.82023 ], [ -77.29521, 38.8203 ], [ -77.29495, 38.82097 ], [ -77.29396, 38.82071 ], [ -77.29236, 38.8212 ], [ -77.2922, 38.8204 ], [ -77.29127, 38.82007 ], [ -77.29086, 38.81926 ], [ -77.29137, 38.81834 ], [ -77.29268, 38.81828 ], [ -77.29156, 38.81651 ], [ -77.29071, 38.81626 ], [ -77.29068, 38.81584 ], [ -77.29219, 38.81479 ], [ -77.29119, 38.81528 ], [ -77.2907, 38.81513 ], [ -77.29049, 38.81475 ], [ -77.29116, 38.81403 ], [ -77.28846, 38.81479 ], [ -77.28882, 38.81627 ], [ -77.28768, 38.81773 ], [ -77.28681, 38.81738 ], [ -77.28746, 38.81606 ], [ -77.28538, 38.81544 ], [ -77.28432, 38.81551 ], [ -77.28441, 38.8141 ], [ -77.28596, 38.81295 ], [ -77.28711, 38.81317 ], [ -77.28696, 38.81399 ], [ -77.28995, 38.81323 ], [ -77.29005, 38.8119 ], [ -77.2887, 38.81011 ], [ -77.28859, 38.80867 ], [ -77.2894, 38.80824 ], [ -77.29002, 38.80869 ], [ -77.29151, 38.80841 ], [ -77.29177, 38.80905 ], [ -77.29329, 38.80992 ], [ -77.29411, 38.80807 ], [ -77.29534, 38.80801 ], [ -77.29717, 38.80918 ], [ -77.29717, 38.81029 ], [ -77.29906, 38.81003 ], [ -77.30206, 38.81174 ], [ -77.30229, 38.81079 ], [ -77.3009, 38.8104 ], [ -77.30084, 38.80957 ], [ -77.30021, 38.8092 ], [ -77.29982, 38.80982 ], [ -77.29887, 38.80966 ], [ -77.2994, 38.80767 ], [ -77.29866, 38.80697 ], [ -77.2995, 38.80658 ], [ -77.30055, 38.80677 ], [ -77.30183, 38.80541 ], [ -77.30172, 38.80413 ], [ -77.3009, 38.80332 ], [ -77.30099, 38.80291 ], [ -77.30267, 38.8026 ], [ -77.30309, 38.80323 ], [ -77.30362, 38.80326 ], [ -77.30326, 38.80207 ], [ -77.30377, 38.80142 ], [ -77.30633, 38.80311 ], [ -77.30832, 38.80341 ], [ -77.30867, 38.8026 ], [ -77.30964, 38.8027 ], [ -77.3094, 38.80505 ], [ -77.31021, 38.80488 ], [ -77.31062, 38.80536 ], [ -77.31229, 38.80495 ], [ -77.3127, 38.80521 ], [ -77.31243, 38.80594 ], [ -77.31068, 38.80645 ], [ -77.31129, 38.80737 ], [ -77.31237, 38.80707 ], [ -77.31288, 38.80746 ], [ -77.31358, 38.80729 ], [ -77.31397, 38.80757 ], [ -77.3138, 38.8083 ], [ -77.31323, 38.80858 ] ], [ [ -77.30533, 38.8258 ], [ -77.30469, 38.82519 ], [ -77.30204, 38.8261 ], [ -77.30125, 38.82789 ], [ -77.30222, 38.82761 ], [ -77.30291, 38.82802 ], [ -77.30224, 38.82688 ], [ -77.30246, 38.8265 ], [ -77.30296, 38.82636 ], [ -77.30371, 38.82674 ], [ -77.30533, 38.8258 ] ], [ [ -77.30455, 38.82228 ], [ -77.30418, 38.82258 ], [ -77.30457, 38.82264 ], [ -77.30455, 38.82228 ] ], [ [ -77.30491, 38.82109 ], [ -77.30514, 38.82116 ], [ -77.30486, 38.82093 ], [ -77.30491, 38.82109 ] ], [ [ -77.30382, 38.81994 ], [ -77.30387, 38.81938 ], [ -77.30227, 38.81878 ], [ -77.30339, 38.82035 ], [ -77.30437, 38.82029 ], [ -77.30382, 38.81994 ] ], [ [ -77.3048, 38.8185 ], [ -77.30807, 38.81842 ], [ -77.308, 38.81609 ], [ -77.30368, 38.81592 ], [ -77.3023, 38.8152 ], [ -77.30174, 38.8159 ], [ -77.30176, 38.81738 ], [ -77.3048, 38.8185 ] ], [ [ -77.30257, 38.80656 ], [ -77.30255, 38.80617 ], [ -77.30203, 38.80674 ], [ -77.302, 38.80707 ], [ -77.30257, 38.80656 ] ], [ [ -77.30365, 38.80565 ], [ -77.30327, 38.80451 ], [ -77.30314, 38.80533 ], [ -77.3023, 38.80554 ], [ -77.30257, 38.80586 ], [ -77.30365, 38.80565 ] ], [ [ -77.30867, 38.82355 ], [ -77.30877, 38.82356 ], [ -77.30877, 38.82321 ], [ -77.30867, 38.82355 ] ], [ [ -77.30708, 38.82202 ], [ -77.30617, 38.82186 ], [ -77.30745, 38.82288 ], [ -77.30768, 38.82195 ], [ -77.30708, 38.82202 ] ], [ [ -77.30813, 38.8195 ], [ -77.30638, 38.81954 ], [ -77.30717, 38.82018 ], [ -77.30816, 38.82028 ], [ -77.30813, 38.8195 ] ], [ [ -77.30842, 38.8111 ], [ -77.30755, 38.81059 ], [ -77.30721, 38.81089 ], [ -77.30801, 38.81218 ], [ -77.30753, 38.81349 ], [ -77.30792, 38.81324 ], [ -77.30842, 38.8111 ] ], [ [ -77.30725, 38.80963 ], [ -77.30742, 38.8098 ], [ -77.30776, 38.80941 ], [ -77.30725, 38.80963 ] ], [ [ -77.30794, 38.80536 ], [ -77.30695, 38.80504 ], [ -77.30696, 38.80595 ], [ -77.30675, 38.80633 ], [ -77.30601, 38.8064 ], [ -77.30594, 38.80744 ], [ -77.30713, 38.80757 ], [ -77.3076, 38.8072 ], [ -77.30794, 38.80536 ] ], [ [ -77.31178, 38.81342 ], [ -77.31078, 38.81531 ], [ -77.31117, 38.8149 ], [ -77.31178, 38.81342 ] ], [ [ -77.31152, 38.81113 ], [ -77.3099, 38.81034 ], [ -77.30932, 38.81311 ], [ -77.31025, 38.81342 ], [ -77.31152, 38.81113 ] ], [ [ -77.31254, 38.8122 ], [ -77.31298, 38.81195 ], [ -77.31274, 38.81182 ], [ -77.31254, 38.8122 ] ], [ [ -77.31289, 38.81453 ], [ -77.31302, 38.81393 ], [ -77.31271, 38.81467 ], [ -77.31289, 38.81453 ] ], [ [ -77.31132, 38.82285 ], [ -77.31111, 38.82292 ], [ -77.3116, 38.82294 ], [ -77.31132, 38.82285 ] ], [ [ -77.31203, 38.8219 ], [ -77.31259, 38.82192 ], [ -77.31184, 38.82174 ], [ -77.31203, 38.8219 ] ], [ [ -77.3153, 38.82015 ], [ -77.31508, 38.82004 ], [ -77.3151, 38.82015 ], [ -77.3153, 38.82015 ] ], [ [ -77.31346, 38.82095 ], [ -77.314, 38.82248 ], [ -77.31418, 38.8216 ], [ -77.31346, 38.82095 ] ], [ [ -77.31037, 38.80826 ], [ -77.31007, 38.80788 ], [ -77.31014, 38.80812 ], [ -77.31037, 38.80826 ] ], [ [ -77.30926, 38.80648 ], [ -77.30912, 38.80647 ], [ -77.30913, 38.80757 ], [ -77.3099, 38.80766 ], [ -77.30926, 38.80648 ] ], [ [ -77.30952, 38.81973 ], [ -77.31011, 38.81997 ], [ -77.31092, 38.81951 ], [ -77.31084, 38.81743 ], [ -77.31018, 38.81782 ], [ -77.30969, 38.81767 ], [ -77.30945, 38.81684 ], [ -77.30952, 38.81973 ] ], [ [ -77.30964, 38.81439 ], [ -77.30932, 38.81428 ], [ -77.30933, 38.81444 ], [ -77.30937, 38.81564 ], [ -77.30964, 38.81439 ] ], [ [ -77.31048, 38.82199 ], [ -77.31046, 38.82173 ], [ -77.31035, 38.82213 ], [ -77.31048, 38.82199 ] ], [ [ -77.30895, 38.8229 ], [ -77.3089, 38.82274 ], [ -77.30881, 38.82307 ], [ -77.30895, 38.8229 ] ], [ [ -77.31094, 38.82529 ], [ -77.30983, 38.82497 ], [ -77.31133, 38.82597 ], [ -77.31157, 38.82573 ], [ -77.31094, 38.82529 ] ], [ [ -77.3104, 38.82677 ], [ -77.30867, 38.82563 ], [ -77.30869, 38.82741 ], [ -77.3104, 38.82677 ] ], [ [ -77.30992, 38.8285 ], [ -77.31088, 38.82941 ], [ -77.31098, 38.82875 ], [ -77.31055, 38.82835 ], [ -77.30992, 38.8285 ] ], [ [ -77.30645, 38.82476 ], [ -77.30604, 38.82486 ], [ -77.30622, 38.82498 ], [ -77.30645, 38.82476 ] ], [ [ -77.3073, 38.82693 ], [ -77.30729, 38.82566 ], [ -77.30632, 38.82655 ], [ -77.3073, 38.82693 ] ], [ [ -77.30623, 38.81443 ], [ -77.30615, 38.81398 ], [ -77.30494, 38.81399 ], [ -77.30418, 38.8136 ], [ -77.30435, 38.81271 ], [ -77.30353, 38.81214 ], [ -77.30482, 38.81136 ], [ -77.30362, 38.81109 ], [ -77.30313, 38.81318 ], [ -77.30384, 38.81329 ], [ -77.30385, 38.81395 ], [ -77.30623, 38.81443 ] ], [ [ -77.3041, 38.80987 ], [ -77.30398, 38.81005 ], [ -77.30481, 38.81024 ], [ -77.30503, 38.80995 ], [ -77.3041, 38.80987 ] ], [ [ -77.30544, 38.80777 ], [ -77.3056, 38.80758 ], [ -77.30546, 38.80757 ], [ -77.30544, 38.80777 ] ], [ [ -77.30618, 38.81055 ], [ -77.30624, 38.81056 ], [ -77.30623, 38.81048 ], [ -77.30618, 38.81055 ] ], [ [ -77.3062, 38.81168 ], [ -77.30466, 38.81267 ], [ -77.30585, 38.81225 ], [ -77.30644, 38.81262 ], [ -77.3066, 38.81201 ], [ -77.3062, 38.81168 ] ], [ [ -77.30375, 38.80714 ], [ -77.3035, 38.80741 ], [ -77.30407, 38.80755 ], [ -77.30375, 38.80714 ] ], [ [ -77.30343, 38.80852 ], [ -77.30309, 38.80898 ], [ -77.30316, 38.80899 ], [ -77.30343, 38.80852 ] ], [ [ -77.29993, 38.81671 ], [ -77.30013, 38.8169 ], [ -77.30013, 38.81672 ], [ -77.29993, 38.81671 ] ], [ [ -77.2981, 38.81558 ], [ -77.29823, 38.81563 ], [ -77.29803, 38.81544 ], [ -77.2981, 38.81558 ] ], [ [ -77.29721, 38.81351 ], [ -77.29461, 38.81379 ], [ -77.2945, 38.81482 ], [ -77.29488, 38.81531 ], [ -77.29665, 38.81537 ], [ -77.29721, 38.81351 ] ], [ [ -77.29566, 38.81198 ], [ -77.29567, 38.81196 ], [ -77.29563, 38.81196 ], [ -77.29566, 38.81198 ] ], [ [ -77.29564, 38.81055 ], [ -77.29538, 38.81075 ], [ -77.29569, 38.81086 ], [ -77.29564, 38.81055 ] ], [ [ -77.29897, 38.81291 ], [ -77.29909, 38.81299 ], [ -77.29913, 38.81288 ], [ -77.29897, 38.81291 ] ], [ [ -77.29963, 38.81225 ], [ -77.3002, 38.81198 ], [ -77.29972, 38.81217 ], [ -77.29963, 38.81225 ] ], [ [ -77.29885, 38.81168 ], [ -77.29884, 38.81169 ], [ -77.29885, 38.81169 ], [ -77.29885, 38.81168 ] ], [ [ -77.3001, 38.81429 ], [ -77.30015, 38.81424 ], [ -77.30013, 38.81424 ], [ -77.3001, 38.81429 ] ], [ [ -77.30103, 38.81247 ], [ -77.30062, 38.81301 ], [ -77.30096, 38.813 ], [ -77.30103, 38.81247 ] ], [ [ -77.30348, 38.82382 ], [ -77.30427, 38.8238 ], [ -77.30335, 38.82338 ], [ -77.30203, 38.82454 ], [ -77.30348, 38.82382 ] ], [ [ -77.30178, 38.82027 ], [ -77.30093, 38.82034 ], [ -77.30159, 38.82127 ], [ -77.30233, 38.82156 ], [ -77.30178, 38.82027 ] ], [ [ -77.30234, 38.83135 ], [ -77.30165, 38.83114 ], [ -77.30236, 38.83163 ], [ -77.30234, 38.83135 ] ], [ [ -77.30169, 38.82903 ], [ -77.30183, 38.82924 ], [ -77.30221, 38.82907 ], [ -77.30169, 38.82903 ] ], [ [ -77.30412, 38.82861 ], [ -77.30408, 38.82921 ], [ -77.30457, 38.82901 ], [ -77.30412, 38.82861 ] ], [ [ -77.30048, 38.82964 ], [ -77.30044, 38.82956 ], [ -77.30041, 38.82962 ], [ -77.30048, 38.82964 ] ], [ [ -77.29605, 38.81926 ], [ -77.2963, 38.81921 ], [ -77.29608, 38.81869 ], [ -77.29479, 38.81923 ], [ -77.29605, 38.81926 ] ], [ [ -77.29534, 38.81662 ], [ -77.29526, 38.81671 ], [ -77.29529, 38.8167 ], [ -77.29534, 38.81662 ] ], [ [ -77.29838, 38.81835 ], [ -77.29833, 38.81829 ], [ -77.29831, 38.81834 ], [ -77.29838, 38.81835 ] ], [ [ -77.29752, 38.81865 ], [ -77.29757, 38.81851 ], [ -77.29744, 38.81846 ], [ -77.29752, 38.81865 ] ], [ [ -77.29651, 38.81646 ], [ -77.29652, 38.81645 ], [ -77.2965, 38.81645 ], [ -77.29651, 38.81646 ] ], [ [ -77.29151, 38.8127 ], [ -77.29175, 38.81264 ], [ -77.2914, 38.81245 ], [ -77.29151, 38.8127 ] ], [ [ -77.29143, 38.8118 ], [ -77.29166, 38.81171 ], [ -77.29138, 38.81161 ], [ -77.29143, 38.8118 ] ], [ [ -77.29335, 38.81074 ], [ -77.29345, 38.81076 ], [ -77.2934, 38.81066 ], [ -77.29335, 38.81074 ] ], [ [ -77.28559, 38.81473 ], [ -77.28557, 38.81487 ], [ -77.2857, 38.81479 ], [ -77.28559, 38.81473 ] ], [ [ -77.29325, 38.81654 ], [ -77.29295, 38.81646 ], [ -77.29305, 38.8167 ], [ -77.29325, 38.81654 ] ], [ [ -77.29363, 38.81961 ], [ -77.29345, 38.81956 ], [ -77.29349, 38.81968 ], [ -77.29363, 38.81961 ] ], [ [ -77.2967, 38.82468 ], [ -77.29733, 38.82413 ], [ -77.29629, 38.82374 ], [ -77.29644, 38.82577 ], [ -77.29698, 38.82533 ], [ -77.2967, 38.82468 ] ], [ [ -77.29447, 38.82297 ], [ -77.29449, 38.82305 ], [ -77.29455, 38.823 ], [ -77.29447, 38.82297 ] ], [ [ -77.30028, 38.80876 ], [ -77.30042, 38.80865 ], [ -77.3003, 38.80862 ], [ -77.30028, 38.80876 ] ] ] } },
{ "type": "Feature", "properties": { "variant": "T0", "miles": 2.0 }, "geometry": { "type": "Polygon", "coordinates": [ [ [ -77.31866, 38.80635 ], [ -77.32038, 38.8071 ], [ -77.32105, 38.80839 ], [ -77.32213, 38.809 ], [ -77.32289, 38.80822 ], [ -77.32382, 38.80846 ], [ -77.3237, 38.80918 ], [ -77.32286, 38.80992 ], [ -77.32428, 38.81059 ], [ -77.32464, 38.8113 ], [ -77.3235, 38.8115 ], [ -77.32268, 38.81246 ], [ -77.32283, 38.81301 ], [ -77.32396, 38.81211 ], [ -77.32494, 38.81263 ], [ -77.32249, 38.81558 ], [ -77.32036, 38.8198 ], [ -77.31863, 38.8221 ], [ -77.32104, 38.82298 ], [ -77.32132, 38.82399 ], [ -77.32037, 38.82416 ], [ -77.31973, 38.82352 ], [ -77.31812, 38.82312 ], [ -77.31735, 38.82697 ], [ -77.31954, 38.82807 ], [ -77.31979, 38.82709 ], [ -77.32028, 38.82694 ], [ -77.32327, 38.82757 ], [ -77.32372, 38.82777 ], [ -77.3236, 38.82853 ], [ -77.32134, 38.82823 ], [ -77.32144, 38.82893 ], [ -77.32406, 38.82924 ], [ -77.32463, 38.83003 ], [ -77.32387, 38.83052 ], [ -77.32128, 38.83027 ], [ -77.3171, 38.8285 ], [ -77.31677, 38.82987 ], [ -77.3208, 38.83164 ], [ -77.32079, 38.83241 ], [ -77.31993, 38.83251 ], [ -77.31633, 38.83091 ], [ -77.31522, 38.83304 ], [ -77.31454, 38.83319 ], [ -77.31236, 38.83551 ], [ -77.30993, 38.83568 ], [ -77.3105, 38.83628 ], [ -77.30933, 38.83785 ], [ -77.30837, 38.83768 ], [ -77.30778, 38.83668 ], [ -77.3073, 38.83682 ], [ -77.30751, 38.83803 ], [ -77.30693, 38.83865 ], [ -77.30615, 38.83819 ], [ -77.30567, 38.83614 ], [ -77.30349, 38.83546 ], [ -77.3037, 38.83434 ], [ -77.30306, 38.83318 ], [ -77.30134, 38.83359 ], [ -77.30206, 38.83483 ], [ -77.30177, 38.83518 ], [ -77.30056, 38.83514 ], [ -77.30055, 38.83558 ], [ -77.30117, 38.83551 ], [ -77.30162, 38.83619 ], [ -77.3011, 38.83661 ], [ -77.3009, 38.83781 ], [ -77.2999, 38.83796 ], [ -77.29927, 38.84021 ], [ -77.29749, 38.84038 ], [ -77.29917, 38.84172 ], [ -77.29853, 38.8423 ], [ -77.29803, 38.84217 ], [ -77.29604, 38.84091 ], [ -77.29603, 38.83707 ], [ -77.29389, 38.83687 ], [ -77.29338, 38.83528 ], [ -77.29281, 38.83521 ], [ -77.29201, 38.8359 ], [ -77.2914, 38.8353 ], [ -77.29184, 38.83415 ], [ -77.29344, 38.83419 ], [ -77.29377, 38.83227 ], [ -77.29502, 38.83217 ], [ -77.29197, 38.83205 ], [ -77.2912, 38.83165 ], [ -77.29119, 38.83123 ], [ -77.29156, 38.83093 ], [ -77.2941, 38.83096 ], [ -77.29186, 38.83071 ], [ -77.29089, 38.8301 ], [ -77.2902, 38.8309 ], [ -77.28929, 38.83082 ], [ -77.28939, 38.83189 ], [ -77.29012, 38.83241 ], [ -77.28994, 38.83279 ], [ -77.28736, 38.83278 ], [ -77.28733, 38.83201 ], [ -77.288, 38.83184 ], [ -77.28783, 38.82981 ], [ -77.28693, 38.82961 ], [ -77.28618, 38.83008 ], [ -77.28574, 38.83129 ], [ -77.28479, 38.83113 ], [ -77.28476, 38.82967 ], [ -77.28566, 38.82908 ], [ -77.28504, 38.82812 ], [ -77.28546, 38.82673 ], [ -77.28315, 38.82588 ], [ -77.28258, 38.82609 ], [ -77.28078, 38.82523 ], [ -77.28117, 38.82426 ], [ -77.28023, 38.82317 ], [ -77.28097, 38.82267 ], [ -77.2816, 38.82282 ], [ -77.28388, 38.82476 ], [ -77.28579, 38.82551 ], [ -77.28594, 38.82367 ], [ -77.28932, 38.82194 ], [ -77.29102, 38.82174 ], [ -77.29202, 38.82238 ], [ -77.29287, 38.82447 ], [ -77.29211, 38.82546 ], [ -77.29066, 38.82585 ], [ -77.29414, 38.82594 ], [ -77.29383, 38.82408 ], [ -77.29323, 38.82362 ], [ -77.29317, 38.82296 ], [ -77.29422, 38.82182 ], [ -77.29509, 38.822 ], [ -77.2954, 38.82131 ], [ -77.29641, 38.82149 ], [ -77.29709, 38.82214 ], [ -77.29717, 38.82288 ], [ -77.29785, 38.82313 ], [ -77.29979, 38.82306 ], [ -77.30099, 38.8237 ], [ -77.30151, 38.82306 ], [ -77.30028, 38.82168 ], [ -77.29966, 38.82243 ], [ -77.29772, 38.82184 ], [ -77.29673, 38.82023 ], [ -77.29521, 38.8203 ], [ -77.29495, 38.82097 ], [ -77.29396, 38.82071 ], [ -77.29236, 38.8212 ], [ -77.2922, 38.8204 ], [ -77.29127, 38.82007 ], [ -77.29086, 38.81926 ], [ -77.29137, 38.81834 ], [ -77.29268, 38.81828 ], [ -77.29156, 38.81651 ], [ -77.29071, 38.81626 ], [ -77.29068, 38.81584 ], [ -77.29219, 38.81479 ], [ -77.29119, 38.81528 ], [ -77.2907, 38.81513 ], [ -77.29049, 38.81475 ], [ -77.29116, 38.81403 ], [ -77.28846, 38.81479 ], [ -77.28879, 38.81638 ], [ -77.28631, 38.81988 ], [ -77.28536, 38.82005 ], [ -77.28514, 38.81931 ], [ -77.28405, 38.81932 ], [ -77.28408, 38.8185 ], [ -77.28364, 38.81847 ], [ -77.28345, 38.81911 ], [ -77.28251, 38.81913 ], [ -77.28173, 38.81981 ], [ -77.28121, 38.81973 ], [ -77.28092, 38.81939 ], [ -77.28134, 38.81834 ], [ -77.27872, 38.81828 ], [ -77.2782, 38.81764 ], [ -77.27888, 38.81716 ], [ -77.28023, 38.81718 ], [ -77.28027, 38.81675 ], [ -77.27946, 38.81617 ], [ -77.27963, 38.81578 ], [ -77.28052, 38.81568 ], [ -77.28182, 38.8146 ], [ -77.28422, 38.81458 ], [ -77.28449, 38.814 ], [ -77.28237, 38.81368 ], [ -77.28153, 38.81458 ], [ -77.28067, 38.81422 ], [ -77.2808, 38.81376 ], [ -77.27924, 38.81333 ], [ -77.27844, 38.81379 ], [ -77.27787, 38.81317 ], [ -77.27828, 38.81238 ], [ -77.27665, 38.81104 ], [ -77.27669, 38.81037 ], [ -77.27716, 38.80999 ], [ -77.27789, 38.81011 ], [ -77.27928, 38.8116 ], [ -77.27978, 38.811 ], [ -77.28025, 38.81106 ], [ -77.28023, 38.8103 ], [ -77.27931, 38.81026 ], [ -77.27918, 38.8095 ], [ -77.28078, 38.8087 ], [ -77.28153, 38.80918 ], [ -77.28163, 38.81093 ], [ -77.28425, 38.81076 ], [ -77.2846, 38.80972 ], [ -77.28332, 38.80936 ], [ -77.28328, 38.80857 ], [ -77.28354, 38.80821 ], [ -77.28496, 38.80818 ], [ -77.28591, 38.80936 ], [ -77.28646, 38.81151 ], [ -77.28604, 38.81224 ], [ -77.28476, 38.81283 ], [ -77.28538, 38.81317 ], [ -77.28628, 38.81242 ], [ -77.28681, 38.81241 ], [ -77.28783, 38.81323 ], [ -77.28783, 38.81382 ], [ -77.28995, 38.81323 ], [ -77.29007, 38.81197 ], [ -77.28962, 38.8112 ], [ -77.28891, 38.8106 ], [ -77.28835, 38.81098 ], [ -77.28762, 38.81047 ], [ -77.28766, 38.8094 ], [ -77.28832, 38.80863 ], [ -77.28757, 38.80694 ], [ -77.28825, 38.80584 ], [ -77.28711, 38.80531 ], [ -77.288, 38.80419 ], [ -77.28824, 38.80271 ], [ -77.28914, 38.80232 ], [ -77.29114, 38.80374 ], [ -77.29145, 38.80478 ], [ -77.29098, 38.80519 ], [ -77.29422, 38.80679 ], [ -77.29518, 38.80797 ], [ -77.2971, 38.80909 ], [ -77.29717, 38.81029 ], [ -77.29906, 38.81003 ], [ -77.30206, 38.81174 ], [ -77.30229, 38.81079 ], [ -77.3009, 38.8104 ], [ -77.30084, 38.80957 ], [ -77.30021, 38.8092 ], [ -77.29982, 38.80982 ], [ -77.2993, 38.80989 ], [ -77.29887, 38.80966 ], [ -77.29884, 38.80898 ], [ -77.29792, 38.80912 ], [ -77.2971, 38.80877 ], [ -77.29641, 38.8075 ], [ -77.29534, 38.80701 ], [ -77.29461, 38.80458 ], [ -77.29297, 38.80428 ], [ -77.29254, 38.8035 ], [ -77.29352, 38.80249 ], [ -77.29464, 38.80239 ], [ -77.29513, 38.80199 ], [ -77.29479, 38.80165 ], [ -77.29407, 38.80224 ], [ -77.29341, 38.80167 ], [ -77.2941, 38.80068 ], [ -77.29384, 38.79939 ], [ -77.29487, 38.79928 ], [ -77.2953, 38.79847 ], [ -77.30013, 38.79759 ], [ -77.3003, 38.7984 ], [ -77.30177, 38.79958 ], [ -77.30159, 38.7972 ], [ -77.3023, 38.79549 ], [ -77.30306, 38.79511 ], [ -77.30378, 38.79577 ], [ -77.30301, 38.79841 ], [ -77.30378, 38.79876 ], [ -77.30445, 38.79862 ], [ -77.30557, 38.79946 ], [ -77.30553, 38.79989 ], [ -77.30682, 38.7997 ], [ -77.30738, 38.80035 ], [ -77.30818, 38.80012 ], [ -77.3089, 38.80047 ], [ -77.30922, 38.79992 ], [ -77.31018, 38.80005 ], [ -77.3094, 38.80505 ], [ -77.31015, 38.80488 ], [ -77.3111, 38.80371 ], [ -77.31357, 38.80266 ], [ -77.3141, 38.8021 ], [ -77.315, 38.80241 ], [ -77.31458, 38.80344 ], [ -77.31315, 38.804 ], [ -77.31404, 38.80563 ], [ -77.31359, 38.80598 ], [ -77.31335, 38.8073 ], [ -77.31397, 38.80757 ], [ -77.314, 38.80798 ], [ -77.31323, 38.80858 ], [ -77.31396, 38.80938 ], [ -77.31362, 38.80969 ], [ -77.31268, 38.80958 ], [ -77.31221, 38.81018 ], [ -77.31404, 38.81121 ], [ -77.31487, 38.81039 ], [ -77.31539, 38.81045 ], [ -77.31572, 38.81077 ], [ -77.31537, 38.81193 ], [ -77.31598, 38.81012 ], [ -77.31505, 38.80943 ], [ -77.31515, 38.80902 ], [ -77.31559, 38.80879 ], [ -77.31676, 38.80923 ], [ -77.31802, 38.80841 ], [ -77.31968, 38.80813 ], [ -77.31825, 38.80755 ], [ -77.31716, 38.80791 ], [ -77.31693, 38.80717 ], [ -77.31765, 38.80655 ], [ -77.31866, 38.80635 ] ], [ [ -77.30244, 38.83137 ], [ -77.30165, 38.83114 ], [ -77.30168, 38.83128 ], [ -77.30244, 38.83137 ] ], [ [ -77.30224, 38.82688 ], [ -77.30246, 38.8265 ], [ -77.30296, 38.82636 ], [ -77.30371, 38.82674 ], [ -77.30494, 38.82617 ], [ -77.30533, 38.8258 ], [ -77.30469, 38.82519 ], [ -77.30204, 38.8261 ], [ -77.30125, 38.82789 ], [ -77.30222, 38.82761 ], [ -77.30292, 38.82801 ], [ -77.30224, 38.82688 ] ], [ [ -77.30348, 38.82382 ], [ -77.30427, 38.8238 ], [ -77.30335, 38.82338 ], [ -77.30256, 38.82378 ], [ -77.30218, 38.82457 ], [ -77.30348, 38.82382 ] ], [ [ -77.30178, 38.82027 ], [ -77.30093, 38.82034 ], [ -77.30159, 38.82127 ], [ -77.30216, 38.82152 ], [ -77.30178, 38.82027 ] ], [ [ -77.30445, 38.82015 ], [ -77.30382, 38.81994 ], [ -77.30387, 38.81938 ], [ -77.30227, 38.81878 ], [ -77.3034, 38.82034 ], [ -77.30445, 38.82015 ] ], [ [ -77.30257, 38.80656 ], [ -77.30255, 38.80617 ], [ -77.30203, 38.80674 ], [ -77.302, 38.80707 ], [ -77.30257, 38.80656 ] ], [ [ -77.31328, 38.8325 ], [ -77.31222, 38.83192 ], [ -77.31102, 38.83449 ], [ -77.31328, 38.8325 ] ], [ [ -77.31295, 38.83046 ], [ -77.31248, 38.83039 ], [ -77.31239, 38.83084 ], [ -77.31295, 38.83046 ] ], [ [ -77.31327, 38.82941 ], [ -77.31356, 38.82831 ], [ -77.31406, 38.82817 ], [ -77.31556, 38.82856 ], [ -77.31568, 38.82783 ], [ -77.31266, 38.8264 ], [ -77.31152, 38.82745 ], [ -77.3126, 38.82931 ], [ -77.31327, 38.82941 ] ], [ [ -77.31094, 38.82529 ], [ -77.30983, 38.82497 ], [ -77.31133, 38.82597 ], [ -77.31157, 38.82573 ], [ -77.31094, 38.82529 ] ], [ [ -77.31571, 38.82641 ], [ -77.31627, 38.82328 ], [ -77.31738, 38.82116 ], [ -77.31693, 38.82094 ], [ -77.317, 38.82152 ], [ -77.31658, 38.82176 ], [ -77.31548, 38.82123 ], [ -77.31537, 38.82268 ], [ -77.31575, 38.82332 ], [ -77.31391, 38.82439 ], [ -77.31108, 38.824 ], [ -77.31571, 38.82641 ] ], [ [ -77.31132, 38.82285 ], [ -77.31111, 38.82292 ], [ -77.3116, 38.82294 ], [ -77.31132, 38.82285 ] ], [ [ -77.31203, 38.8219 ], [ -77.31259, 38.82192 ], [ -77.31184, 38.82174 ], [ -77.31203, 38.8219 ] ], [ [ -77.31083, 38.8174 ], [ -77.31018, 38.81782 ], [ -77.30969, 38.81767 ], [ -77.30941, 38.81672 ], [ -77.30952, 38.81973 ], [ -77.31011, 38.81997 ], [ -77.31076, 38.81959 ], [ -77.31083, 38.8174 ] ], [ [ -77.30813, 38.8195 ], [ -77.30638, 38.81954 ], [ -77.30722, 38.82019 ], [ -77.30815, 38.82036 ], [ -77.30813, 38.8195 ] ], [ [ -77.308, 38.81609 ], [ -77.30368, 38.81592 ], [ -77.30262, 38.81519 ], [ -77.30174, 38.8159 ], [ -77.30176, 38.81738 ], [ -77.30426, 38.81834 ], [ -77.30807, 38.81842 ], [ -77.308, 38.81609 ] ], [ [ -77.30842, 38.8111 ], [ -77.30755, 38.81059 ], [ -77.30721, 38.81089 ], [ -77.30801, 38.81218 ], [ -77.30753, 38.81349 ], [ -77.30793, 38.81342 ], [ -77.30842, 38.8111 ] ], [ [ -77.30725, 38.80963 ], [ -77.30742, 38.8098 ], [ -77.30776, 38.80941 ], [ -77.30725, 38.80963 ] ], [ [ -77.31814, 38.82015 ], [ -77.31529, 38.81877 ], [ -77.31523, 38.8189 ], [ -77.31814, 38.82015 ] ], [ [ -77.31495, 38.81642 ], [ -77.31573, 38.81591 ], [ -77.31679, 38.81597 ], [ -77.31834, 38.81682 ], [ -77.31861, 38.81628 ], [ -77.31638, 38.81506 ], [ -77.31601, 38.81424 ], [ -77.31525, 38.81389 ], [ -77.31557, 38.8133 ], [ -77.31422, 38.81263 ], [ -77.31449, 38.81358 ], [ -77.31401, 38.81518 ], [ -77.31123, 38.81634 ], [ -77.31215, 38.81706 ], [ -77.31227, 38.81858 ], [ -77.31331, 38.8185 ], [ -77.31373, 38.8194 ], [ -77.31495, 38.81642 ] ], [ [ -77.31838, 38.81891 ], [ -77.31814, 38.81888 ], [ -77.31856, 38.81909 ], [ -77.31838, 38.81891 ] ], [ [ -77.31801, 38.81121 ], [ -77.31785, 38.81113 ], [ -77.31684, 38.8122 ], [ -77.31738, 38.81219 ], [ -77.31801, 38.81121 ] ], [ [ -77.32147, 38.8131 ], [ -77.32114, 38.81503 ], [ -77.32254, 38.81331 ], [ -77.32147, 38.8131 ] ], [ [ -77.31946, 38.81318 ], [ -77.31928, 38.81346 ], [ -77.32005, 38.81338 ], [ -77.32032, 38.81248 ], [ -77.31994, 38.81227 ], [ -77.31946, 38.81318 ] ], [ [ -77.3214, 38.81014 ], [ -77.32146, 38.81013 ], [ -77.32142, 38.81006 ], [ -77.3214, 38.81014 ] ], [ [ -77.32058, 38.80954 ], [ -77.32084, 38.80954 ], [ -77.3207, 38.80947 ], [ -77.32058, 38.80954 ] ], [ [ -77.32205, 38.81111 ], [ -77.32212, 38.81129 ], [ -77.32219, 38.81115 ], [ -77.32205, 38.81111 ] ], [ [ -77.3218, 38.81189 ], [ -77.3217, 38.81191 ], [ -77.32178, 38.81195 ], [ -77.3218, 38.81189 ] ], [ [ -77.31913, 38.81396 ], [ -77.31918, 38.81361 ], [ -77.3191, 38.81373 ], [ -77.31913, 38.81396 ] ], [ [ -77.32011, 38.8163 ], [ -77.31934, 38.81771 ], [ -77.31942, 38.81795 ], [ -77.32051, 38.81602 ], [ -77.32011, 38.8163 ] ], [ [ -77.31606, 38.81741 ], [ -77.31675, 38.81726 ], [ -77.31619, 38.81695 ], [ -77.31606, 38.81741 ] ], [ [ -77.31261, 38.81209 ], [ -77.31254, 38.8122 ], [ -77.31298, 38.81195 ], [ -77.31261, 38.81209 ] ], [ [ -77.30932, 38.81311 ], [ -77.31025, 38.81342 ], [ -77.31152, 38.81113 ], [ -77.3099, 38.81034 ], [ -77.30932, 38.81311 ] ], [ [ -77.31184, 38.80712 ], [ -77.31121, 38.80727 ], [ -77.31129, 38.80737 ], [ -77.31184, 38.80712 ] ], [ [ -77.31087, 38.81489 ], [ -77.31078, 38.81531 ], [ -77.3111, 38.81505 ], [ -77.31178, 38.81342 ], [ -77.31087, 38.81489 ] ], [ [ -77.3129, 38.81448 ], [ -77.31302, 38.81393 ], [ -77.31271, 38.81467 ], [ -77.3129, 38.81448 ] ], [ [ -77.31394, 38.82094 ], [ -77.31346, 38.82095 ], [ -77.314, 38.82248 ], [ -77.31394, 38.82094 ] ], [ [ -77.31508, 38.82004 ], [ -77.3151, 38.82015 ], [ -77.3153, 38.82015 ], [ -77.31508, 38.82004 ] ], [ [ -77.30913, 38.80757 ], [ -77.3099, 38.80766 ], [ -77.30926, 38.80648 ], [ -77.30913, 38.80757 ] ], [ [ -77.30851, 38.80242 ], [ -77.30857, 38.80209 ], [ -77.30829, 38.80239 ], [ -77.30851, 38.80242 ] ], [ [ -77.30964, 38.81439 ], [ -77.30932, 38.81428 ], [ -77.30933, 38.81444 ], [ -77.30937, 38.81564 ], [ -77.30964, 38.81439 ] ], [ [ -77.31037, 38.80826 ], [ -77.31007, 38.80788 ], [ -77.31014, 38.80812 ], [ -77.31037, 38.80826 ] ], [ [ -77.31462, 38.82984 ], [ -77.31514, 38.83001 ], [ -77.31543, 38.82915 ], [ -77.31462, 38.82984 ] ], [ [ -77.31459, 38.831 ], [ -77.31422, 38.83088 ], [ -77.31386, 38.83147 ], [ -77.31459, 38.831 ] ], [ [ -77.30794, 38.83591 ], [ -77.30789, 38.83591 ], [ -77.30798, 38.83602 ], [ -77.30794, 38.83591 ] ], [ [ -77.30767, 38.83471 ], [ -77.30767, 38.83484 ], [ -77.30774, 38.83484 ], [ -77.30767, 38.83471 ] ], [ [ -77.30969, 38.83296 ], [ -77.30812, 38.83011 ], [ -77.30846, 38.82979 ], [ -77.30939, 38.83002 ], [ -77.31072, 38.83202 ], [ -77.31065, 38.83048 ], [ -77.30935, 38.82998 ], [ -77.30868, 38.82898 ], [ -77.308, 38.82919 ], [ -77.30758, 38.82894 ], [ -77.30709, 38.82804 ], [ -77.30574, 38.82789 ], [ -77.30497, 38.82727 ], [ -77.30682, 38.83085 ], [ -77.30487, 38.83201 ], [ -77.30492, 38.83246 ], [ -77.30437, 38.83282 ], [ -77.30477, 38.83357 ], [ -77.30658, 38.83353 ], [ -77.30605, 38.83229 ], [ -77.30737, 38.83176 ], [ -77.30777, 38.83202 ], [ -77.30756, 38.83267 ], [ -77.30818, 38.83358 ], [ -77.30969, 38.83296 ] ], [ [ -77.3104, 38.82677 ], [ -77.30867, 38.82563 ], [ -77.30869, 38.82741 ], [ -77.3104, 38.82677 ] ], [ [ -77.30622, 38.82498 ], [ -77.30645, 38.82476 ], [ -77.30629, 38.8248 ], [ -77.30622, 38.82498 ] ], [ [ -77.30418, 38.82258 ], [ -77.30422, 38.82268 ], [ -77.30459, 38.82272 ], [ -77.30454, 38.82237 ], [ -77.30418, 38.82258 ] ], [ [ -77.305, 38.82111 ], [ -77.30514, 38.82116 ], [ -77.30486, 38.82093 ], [ -77.305, 38.82111 ] ], [ [ -77.30623, 38.81443 ], [ -77.30615, 38.81398 ], [ -77.30494, 38.81399 ], [ -77.30418, 38.8136 ], [ -77.30435, 38.81271 ], [ -77.30353, 38.81214 ], [ -77.30482, 38.81136 ], [ -77.30362, 38.81109 ], [ -77.30313, 38.81318 ], [ -77.30384, 38.81329 ], [ -77.30385, 38.81395 ], [ -77.30623, 38.81443 ] ], [ [ -77.3041, 38.80987 ], [ -77.30398, 38.81005 ], [ -77.30481, 38.81024 ], [ -77.30503, 38.80995 ], [ -77.3041, 38.80987 ] ], [ [ -77.30403, 38.80707 ], [ -77.3035, 38.80741 ], [ -77.30407, 38.80755 ], [ -77.30403, 38.80707 ] ], [ [ -77.30631, 38.80238 ], [ -77.30505, 38.80208 ], [ -77.30493, 38.80169 ], [ -77.30461, 38.80185 ], [ -77.30475, 38.80231 ], [ -77.30598, 38.80262 ], [ -77.30631, 38.80238 ] ], [ [ -77.30708, 38.82202 ], [ -77.30617, 38.82186 ], [ -77.30745, 38.82288 ], [ -77.30757, 38.82198 ], [ -77.30708, 38.82202 ] ], [ [ -77.30895, 38.8229 ], [ -77.3089, 38.82274 ], [ -77.30881, 38.82307 ], [ -77.30895, 38.8229 ] ], [ [ -77.31046, 38.82189 ], [ -77.31046, 38.82173 ], [ -77.31035, 38.82213 ], [ -77.31046, 38.82189 ] ], [ [ -77.30872, 38.82351 ], [ -77.30877, 38.82321 ], [ -77.30867, 38.82355 ], [ -77.30872, 38.82351 ] ], [ [ -77.30992, 38.8285 ], [ -77.31088, 38.82941 ], [ -77.31094, 38.82863 ], [ -77.30992, 38.8285 ] ], [ [ -77.30907, 38.83447 ], [ -77.30911, 38.83468 ], [ -77.30959, 38.83463 ], [ -77.30968, 38.83423 ], [ -77.30907, 38.83447 ] ], [ [ -77.30509, 38.80136 ], [ -77.30496, 38.80163 ], [ -77.30549, 38.80104 ], [ -77.30506, 38.80103 ], [ -77.30509, 38.80136 ] ], [ [ -77.30594, 38.80744 ], [ -77.30655, 38.80746 ], [ -77.30623, 38.8074 ], [ -77.30594, 38.80744 ] ], [ [ -77.30544, 38.80777 ], [ -77.3056, 38.80758 ], [ -77.30546, 38.80757 ], [ -77.30544, 38.80777 ] ], [ [ -77.30624, 38.81056 ], [ -77.30623, 38.81048 ], [ -77.30618, 38.81055 ], [ -77.30624, 38.81056 ] ], [ [ -77.3062, 38.81168 ], [ -77.30466, 38.81267 ], [ -77.30585, 38.81225 ], [ -77.30644, 38.81262 ], [ -77.30657, 38.81196 ], [ -77.3062, 38.81168 ] ], [ [ -77.30632, 38.82655 ], [ -77.3073, 38.82693 ], [ -77.30729, 38.82566 ], [ -77.30632, 38.82655 ] ], [ [ -77.3063, 38.83504 ], [ -77.30628, 38.83465 ], [ -77.30539, 38.83475 ], [ -77.3063, 38.83504 ] ], [ [ -77.30374, 38.83065 ], [ -77.30384, 38.83129 ], [ -77.30516, 38.83048 ], [ -77.30512, 38.83 ], [ -77.30374, 38.83065 ] ], [ [ -77.30457, 38.82901 ], [ -77.30418, 38.82844 ], [ -77.30412, 38.82861 ], [ -77.30408, 38.82921 ], [ -77.30457, 38.82901 ] ], [ [ -77.30307, 38.8055 ], [ -77.30307, 38.80553 ], [ -77.30312, 38.80551 ], [ -77.30307, 38.8055 ] ], [ [ -77.30341, 38.80855 ], [ -77.30309, 38.80898 ], [ -77.30353, 38.80855 ], [ -77.30341, 38.80855 ] ], [ [ -77.29724, 38.80713 ], [ -77.29718, 38.80711 ], [ -77.29716, 38.80714 ], [ -77.29724, 38.80713 ] ], [ [ -77.29887, 38.80138 ], [ -77.2988, 38.79917 ], [ -77.29763, 38.79915 ], [ -77.29807, 38.7995 ], [ -77.29799, 38.79991 ], [ -77.29718, 38.80023 ], [ -77.2969, 38.80119 ], [ -77.29887, 38.80138 ] ], [ [ -77.30055, 38.80677 ], [ -77.30154, 38.80552 ], [ -77.30081, 38.8055 ], [ -77.30089, 38.806 ], [ -77.29943, 38.80656 ], [ -77.30055, 38.80677 ] ], [ [ -77.29921, 38.80325 ], [ -77.29874, 38.80352 ], [ -77.29939, 38.80372 ], [ -77.29965, 38.80327 ], [ -77.29921, 38.80325 ] ], [ [ -77.29829, 38.80233 ], [ -77.29826, 38.8025 ], [ -77.29878, 38.8025 ], [ -77.29857, 38.80217 ], [ -77.29829, 38.80233 ] ], [ [ -77.30037, 38.80871 ], [ -77.30042, 38.80865 ], [ -77.3003, 38.80862 ], [ -77.30037, 38.80871 ] ], [ [ -77.30119, 38.80442 ], [ -77.30125, 38.80442 ], [ -77.30117, 38.80438 ], [ -77.30119, 38.80442 ] ], [ [ -77.29862, 38.80517 ], [ -77.29845, 38.80529 ], [ -77.29881, 38.80524 ], [ -77.29879, 38.80478 ], [ -77.29862, 38.80517 ] ], [ [ -77.29851, 38.80634 ], [ -77.29812, 38.80563 ], [ -77.29837, 38.80535 ], [ -77.29781, 38.80544 ], [ -77.29781, 38.80608 ], [ -77.29851, 38.80634 ] ], [ [ -77.29813, 38.80803 ], [ -77.29848, 38.80746 ], [ -77.2973, 38.80716 ], [ -77.29813, 38.80803 ] ], [ [ -77.29756, 38.8393 ], [ -77.29743, 38.83916 ], [ -77.29743, 38.8393 ], [ -77.29756, 38.8393 ] ], [ [ -77.29743, 38.83849 ], [ -77.29743, 38.83858 ], [ -77.29759, 38.83849 ], [ -77.29743, 38.83849 ] ], [ [ -77.29865, 38.83686 ], [ -77.29972, 38.83688 ], [ -77.29976, 38.83632 ], [ -77.29898, 38.83616 ], [ -77.29876, 38.83574 ], [ -77.29741, 38.83609 ], [ -77.29757, 38.83741 ], [ -77.29865, 38.83686 ] ], [ [ -77.29822, 38.83471 ], [ -77.29811, 38.83451 ], [ -77.29797, 38.83479 ], [ -77.29822, 38.83471 ] ], [ [ -77.29714, 38.83236 ], [ -77.29754, 38.83261 ], [ -77.29757, 38.83242 ], [ -77.29714, 38.83236 ] ], [ [ -77.29931, 38.82886 ], [ -77.29866, 38.82832 ], [ -77.29881, 38.82695 ], [ -77.2969, 38.82698 ], [ -77.29679, 38.82744 ], [ -77.29873, 38.82867 ], [ -77.29861, 38.82943 ], [ -77.2981, 38.82954 ], [ -77.29431, 38.82719 ], [ -77.2935, 38.82717 ], [ -77.29356, 38.82831 ], [ -77.2923, 38.82968 ], [ -77.29387, 38.82845 ], [ -77.29512, 38.82836 ], [ -77.29663, 38.82932 ], [ -77.29687, 38.83022 ], [ -77.29794, 38.83055 ], [ -77.2974, 38.8313 ], [ -77.29817, 38.83131 ], [ -77.29931, 38.82886 ] ], [ [ -77.2967, 38.82468 ], [ -77.29733, 38.82413 ], [ -77.29629, 38.82374 ], [ -77.29644, 38.82577 ], [ -77.29698, 38.82533 ], [ -77.2967, 38.82468 ] ], [ [ -77.29744, 38.81846 ], [ -77.29752, 38.81865 ], [ -77.29755, 38.81852 ], [ -77.29744, 38.81846 ] ], [ [ -77.29652, 38.81645 ], [ -77.2965, 38.81645 ], [ -77.29651, 38.81646 ], [ -77.29652, 38.81645 ] ], [ [ -77.29534, 38.81662 ], [ -77.29526, 38.81671 ], [ -77.29529, 38.8167 ], [ -77.29534, 38.81662 ] ], [ [ -77.29345, 38.81076 ], [ -77.2934, 38.81066 ], [ -77.29335, 38.81074 ], [ -77.29345, 38.81076 ] ], [ [ -77.30042, 38.83197 ], [ -77.30006, 38.83067 ], [ -77.29934, 38.83193 ], [ -77.3006, 38.83268 ], [ -77.30103, 38.83251 ], [ -77.30042, 38.83197 ] ], [ [ -77.30041, 38.82962 ], [ -77.30048, 38.82964 ], [ -77.30046, 38.8296 ], [ -77.30041, 38.82962 ] ], [ [ -77.30008, 38.81685 ], [ -77.30013, 38.8169 ], [ -77.30013, 38.81672 ], [ -77.30008, 38.81685 ] ], [ [ -77.29897, 38.81291 ], [ -77.29909, 38.81299 ], [ -77.29913, 38.81288 ], [ -77.29897, 38.81291 ] ], [ [ -77.29963, 38.81225 ], [ -77.3002, 38.81198 ], [ -77.29972, 38.81217 ], [ -77.29963, 38.81225 ] ], [ [ -77.29885, 38.81168 ], [ -77.29884, 38.81169 ], [ -77.29885, 38.81169 ], [ -77.29885, 38.81168 ] ], [ [ -77.3001, 38.81429 ], [ -77.30015, 38.81424 ], [ -77.30006, 38.81425 ], [ -77.3001, 38.81429 ] ], [ [ -77.30103, 38.81247 ], [ -77.30062, 38.81301 ], [ -77.30096, 38.813 ], [ -77.30103, 38.81247 ] ], [ [ -77.30183, 38.82924 ], [ -77.30221, 38.82907 ], [ -77.30221, 38.82896 ], [ -77.30177, 38.8289 ], [ -77.30183, 38.82924 ] ], [ [ -77.29721, 38.81351 ], [ -77.29461, 38.81379 ], [ -77.2945, 38.81482 ], [ -77.29492, 38.81533 ], [ -77.29665, 38.81537 ], [ -77.29721, 38.81351 ] ], [ [ -77.2981, 38.81558 ], [ -77.29823, 38.81563 ], [ -77.29803, 38.81544 ], [ -77.2981, 38.81558 ] ], [ [ -77.29831, 38.81834 ], [ -77.29838, 38.81835 ], [ -77.29837, 38.81834 ], [ -77.29831, 38.81834 ] ], [ [ -77.29566, 38.81198 ], [ -77.29567, 38.81196 ], [ -77.29563, 38.81196 ], [ -77.29566, 38.81198 ] ], [ [ -77.29564, 38.81055 ], [ -77.29538, 38.81075 ], [ -77.29569, 38.81086 ], [ -77.29564, 38.81055 ] ], [ [ -77.29887, 38.83291 ], [ -77.29898, 38.83291 ], [ -77.2989, 38.83285 ], [ -77.29887, 38.83291 ] ], [ [ -77.28689, 38.81691 ], [ -77.28691, 38.81688 ], [ -77.28685, 38.81688 ], [ -77.28689, 38.81691 ] ], [ [ -77.28559, 38.81473 ], [ -77.28557, 38.81487 ], [ -77.2857, 38.81479 ], [ -77.28559, 38.81473 ] ], [ [ -77.29299, 38.81651 ], [ -77.29295, 38.81646 ], [ -77.29305, 38.8167 ], [ -77.29299, 38.81651 ] ], [ [ -77.29605, 38.81926 ], [ -77.2963, 38.81921 ], [ -77.29608, 38.81869 ], [ -77.29451, 38.81927 ], [ -77.29605, 38.81926 ] ], [ [ -77.28891, 38.80516 ], [ -77.28886, 38.80506 ], [ -77.28872, 38.80515 ], [ -77.28891, 38.80516 ] ], [ [ -77.29151, 38.8127 ], [ -77.29175, 38.81264 ], [ -77.2914, 38.81245 ], [ -77.29151, 38.8127 ] ], [ [ -77.29158, 38.80848 ], [ -77.2916, 38.8085 ], [ -77.2916, 38.80848 ], [ -77.29158, 38.80848 ] ], [ [ -77.29152, 38.81167 ], [ -77.29138, 38.81161 ], [ -77.29143, 38.8118 ], [ -77.29152, 38.81167 ] ], [ [ -77.29363, 38.81961 ], [ -77.29345, 38.81956 ], [ -77.29349, 38.81968 ], [ -77.29363, 38.81961 ] ], [ [ -77.28483, 38.81135 ], [ -77.2848, 38.81155 ], [ -77.28505, 38.81147 ], [ -77.28483, 38.81135 ] ], [ [ -77.2833, 38.81738 ], [ -77.28367, 38.81739 ], [ -77.28373, 38.8167 ], [ -77.28314, 38.81663 ], [ -77.2833, 38.81738 ] ], [ [ -77.28212, 38.81638 ], [ -77.28205, 38.81647 ], [ -77.28216, 38.81641 ], [ -77.28212, 38.81638 ] ], [ [ -77.28168, 38.81653 ], [ -77.28161, 38.81727 ], [ -77.28177, 38.81696 ], [ -77.28205, 38.81647 ], [ -77.28168, 38.81653 ] ], [ [ -77.28198, 38.81723 ], [ -77.28199, 38.81723 ], [ -77.28197, 38.8172 ], [ -77.28198, 38.81723 ] ], [ [ -77.29455, 38.823 ], [ -77.29447, 38.82297 ], [ -77.29449, 38.82305 ], [ -77.29455, 38.823 ] ], [ [ -77.29566, 38.8352 ], [ -77.29618, 38.83411 ], [ -77.29484, 38.83397 ], [ -77.29489, 38.83521 ], [ -77.29566, 38.8352 ] ], [ [ -77.29406, 38.82985 ], [ -77.29405, 38.82986 ], [ -77.29406, 38.82986 ], [ -77.29406, 38.82985 ] ], [ [ -77.29037, 38.82278 ], [ -77.28794, 38.82382 ], [ -77.28791, 38.82471 ], [ -77.28905, 38.82556 ], [ -77.29012, 38.82478 ], [ -77.29128, 38.82456 ], [ -77.29037, 38.82278 ] ], [ [ -77.28692, 38.82699 ], [ -77.28665, 38.82737 ], [ -77.28768, 38.8277 ], [ -77.28746, 38.82704 ], [ -77.28692, 38.82699 ] ], [ [ -77.28943, 38.82973 ], [ -77.2892, 38.82965 ], [ -77.28924, 38.8302 ], [ -77.28943, 38.82973 ] ], [ [ -77.28914, 38.82868 ], [ -77.28914, 38.82873 ], [ -77.28918, 38.82871 ], [ -77.28914, 38.82868 ] ], [ [ -77.29146, 38.82712 ], [ -77.289, 38.82706 ], [ -77.28906, 38.82764 ], [ -77.29004, 38.8278 ], [ -77.29032, 38.82729 ], [ -77.29146, 38.82712 ] ], [ [ -77.29096, 38.8288 ], [ -77.29099, 38.82882 ], [ -77.291, 38.82874 ], [ -77.29096, 38.8288 ] ] ] } },
{ "type": "Feature", "properties": { "variant": "T2s", "miles": 1.0 }, "geometry": { "type": "Polygon", "coordinates": [ [ [ -77.30932, 38.81311 ], [ -77.31122, 38.81393 ], [ -77.31078, 38.81531 ], [ -77.31151, 38.81458 ], [ -77.31244, 38.81482 ], [ -77.31221, 38.81572 ], [ -77.31123, 38.81634 ], [ -77.31218, 38.81715 ], [ -77.31231, 38.81964 ], [ -77.31374, 38.8197 ], [ -77.314, 38.82068 ], [ -77.31332, 38.82091 ], [ -77.31256, 38.82189 ], [ -77.31184, 38.82174 ], [ -77.31174, 38.82261 ], [ -77.3104, 38.82284 ], [ -77.30957, 38.82389 ], [ -77.30904, 38.82384 ], [ -77.30877, 38.82321 ], [ -77.30891, 38.82423 ], [ -77.30829, 38.82477 ], [ -77.30779, 38.82492 ], [ -77.30716, 38.82445 ], [ -77.30373, 38.82492 ], [ -77.30308, 38.82452 ], [ -77.30348, 38.82382 ], [ -77.30427, 38.8238 ], [ -77.30365, 38.8233 ], [ -77.30224, 38.82417 ], [ -77.30203, 38.8254 ], [ -77.30082, 38.82621 ], [ -77.2993, 38.82642 ], [ -77.29811, 38.82358 ], [ -77.29982, 38.82306 ], [ -77.30099, 38.8237 ], [ -77.30151, 38.82306 ], [ -77.30028, 38.82168 ], [ -77.29966, 38.82243 ], [ -77.29772, 38.82184 ], [ -77.29673, 38.82023 ], [ -77.29521, 38.8203 ], [ -77.29495, 38.82097 ], [ -77.29401, 38.82077 ], [ -77.2932, 38.81918 ], [ -77.29328, 38.81838 ], [ -77.29243, 38.8181 ], [ -77.29159, 38.8167 ], [ -77.29143, 38.81555 ], [ -77.29319, 38.81403 ], [ -77.29323, 38.81371 ], [ -77.29218, 38.81347 ], [ -77.29227, 38.81271 ], [ -77.29339, 38.81263 ], [ -77.29377, 38.81175 ], [ -77.29428, 38.81165 ], [ -77.29473, 38.81187 ], [ -77.29477, 38.8127 ], [ -77.29668, 38.81248 ], [ -77.29736, 38.8119 ], [ -77.29909, 38.81299 ], [ -77.3002, 38.81198 ], [ -77.2992, 38.81207 ], [ -77.29886, 38.81135 ], [ -77.2999, 38.81064 ], [ -77.30206, 38.81174 ], [ -77.30229, 38.81079 ], [ -77.3009, 38.8104 ], [ -77.30068, 38.80966 ], [ -77.30206, 38.80961 ], [ -77.30267, 38.80895 ], [ -77.30353, 38.80931 ], [ -77.30338, 38.80991 ], [ -77.30754, 38.81114 ], [ -77.30801, 38.81218 ], [ -77.30753, 38.81349 ], [ -77.30793, 38.81342 ], [ -77.30873, 38.8102 ], [ -77.3097, 38.81029 ], [ -77.30932, 38.81311 ] ], [ [ -77.30771, 38.82194 ], [ -77.30617, 38.82186 ], [ -77.30697, 38.82274 ], [ -77.3067, 38.82342 ], [ -77.30732, 38.82331 ], [ -77.30771, 38.82194 ] ], [ [ -77.30178, 38.82027 ], [ -77.30093, 38.82034 ], [ -77.30159, 38.82127 ], [ -77.30216, 38.82152 ], [ -77.30178, 38.82027 ] ], [ [ -77.30445, 38.82015 ], [ -77.30382, 38.81994 ], [ -77.30387, 38.81938 ], [ -77.30227, 38.81878 ], [ -77.3034, 38.82034 ], [ -77.30445, 38.82015 ] ], [ [ -77.30813, 38.8195 ], [ -77.30638, 38.81954 ], [ -77.30717, 38.82018 ], [ -77.30816, 38.82028 ], [ -77.30813, 38.8195 ] ], [ [ -77.308, 38.81609 ], [ -77.30368, 38.81592 ], [ -77.30262, 38.81519 ], [ -77.30174, 38.8159 ], [ -77.30176, 38.81738 ], [ -77.30426, 38.81834 ], [ -77.30807, 38.81842 ], [ -77.308, 38.81609 ] ], [ [ -77.30615, 38.81398 ], [ -77.30439, 38.81377 ], [ -77.30403, 38.81297 ], [ -77.30585, 38.81225 ], [ -77.30644, 38.81262 ], [ -77.3065, 38.81186 ], [ -77.30362, 38.81109 ], [ -77.30313, 38.81318 ], [ -77.30384, 38.81329 ], [ -77.30385, 38.81395 ], [ -77.3047, 38.81428 ], [ -77.30621, 38.81438 ], [ -77.30615, 38.81398 ] ], [ [ -77.31083, 38.8174 ], [ -77.31018, 38.81782 ], [ -77.30969, 38.81767 ], [ -77.30941, 38.81672 ], [ -77.30952, 38.81973 ], [ -77.31011, 38.81997 ], [ -77.31083, 38.81955 ], [ -77.31083, 38.8174 ] ], [ [ -77.30964, 38.81439 ], [ -77.30932, 38.81428 ], [ -77.30937, 38.81564 ], [ -77.30964, 38.81439 ] ], [ [ -77.31046, 38.82173 ], [ -77.31035, 38.82213 ], [ -77.31048, 38.82199 ], [ -77.31046, 38.82173 ] ], [ [ -77.30881, 38.82307 ], [ -77.30895, 38.8229 ], [ -77.3089, 38.82274 ], [ -77.30881, 38.82307 ] ], [ [ -77.305, 38.82111 ], [ -77.30514, 38.82116 ], [ -77.30486, 38.82093 ], [ -77.305, 38.82111 ] ], [ [ -77.30459, 38.82272 ], [ -77.30455, 38.82228 ], [ -77.30439, 38.82244 ], [ -77.30459, 38.82272 ] ], [ [ -77.30035, 38.82473 ], [ -77.30006, 38.82526 ], [ -77.30052, 38.82519 ], [ -77.30035, 38.82473 ] ], [ [ -77.29802, 38.81555 ], [ -77.29823, 38.81563 ], [ -77.29808, 38.81549 ], [ -77.29802, 38.81555 ] ], [ [ -77.30015, 38.81424 ], [ -77.3, 38.81426 ], [ -77.3001, 38.81429 ], [ -77.30015, 38.81424 ] ], [ [ -77.30103, 38.81247 ], [ -77.30062, 38.81301 ], [ -77.30096, 38.813 ], [ -77.30103, 38.81247 ] ], [ [ -77.29993, 38.81671 ], [ -77.30013, 38.8169 ], [ -77.30013, 38.81672 ], [ -77.29993, 38.81671 ] ], [ [ -77.2965, 38.81645 ], [ -77.29651, 38.81646 ], [ -77.29652, 38.81645 ], [ -77.2965, 38.81645 ] ], [ [ -77.2953, 38.81667 ], [ -77.29526, 38.81671 ], [ -77.29529, 38.8167 ], [ -77.2954, 38.81655 ], [ -77.2953, 38.81667 ] ], [ [ -77.29305, 38.8167 ], [ -77.29325, 38.81654 ], [ -77.29295, 38.81646 ], [ -77.29305, 38.8167 ] ], [ [ -77.29461, 38.81379 ], [ -77.29468, 38.81515 ], [ -77.29531, 38.81546 ], [ -77.29665, 38.81537 ], [ -77.29721, 38.81351 ], [ -77.29461, 38.81379 ] ], [ [ -77.29833, 38.81829 ], [ -77.29831, 38.81834 ], [ -77.29837, 38.81834 ], [ -77.29833, 38.81829 ] ], [ [ -77.29752, 38.81865 ], [ -77.29757, 38.81851 ], [ -77.29744, 38.81846 ], [ -77.29752, 38.81865 ] ], [ [ -77.29451, 38.81927 ], [ -77.2963, 38.81921 ], [ -77.29608, 38.81869 ], [ -77.29451, 38.81927 ] ] ] } },
{ "type": "Feature", "properties": { "variant": "T2s", "miles": 1.5 }, "geometry": { "type": "Polygon", "coordinates": [ [ [ -77.31323, 38.80858 ], [ -77.31396, 38.80938 ], [ -77.31362, 38.80969 ], [ -77.31268, 38.80958 ], [ -77.31221, 38.81018 ], [ -77.31404, 38.81121 ], [ -77.31487, 38.81039 ], [ -77.31539, 38.81045 ], [ -77.31572, 38.81077 ], [ -77.31537, 38.81193 ], [ -77.31627, 38.81067 ], [ -77.31757, 38.81071 ], [ -77.31777, 38.81146 ], [ -77.31655, 38.81251 ], [ -77.31701, 38.81278 ], [ -77.31769, 38.81206 ], [ -77.31822, 38.81208 ], [ -77.31853, 38.81281 ], [ -77.31778, 38.81386 ], [ -77.31611, 38.81425 ], [ -77.31525, 38.81389 ], [ -77.31557, 38.8133 ], [ -77.31422, 38.81263 ], [ -77.31449, 38.81358 ], [ -77.31401, 38.81518 ], [ -77.31123, 38.81634 ], [ -77.31215, 38.81706 ], [ -77.31227, 38.81858 ], [ -77.31331, 38.8185 ], [ -77.31373, 38.8194 ], [ -77.31401, 38.81892 ], [ -77.3153, 38.81892 ], [ -77.31713, 38.82002 ], [ -77.31671, 38.82072 ], [ -77.317, 38.82152 ], [ -77.31605, 38.82169 ], [ -77.31548, 38.82123 ], [ -77.31537, 38.82268 ], [ -77.31575, 38.82332 ], [ -77.3154, 38.82363 ], [ -77.31341, 38.82453 ], [ -77.31279, 38.82405 ], [ -77.31108, 38.824 ], [ -77.31665, 38.82672 ], [ -77.31721, 38.82768 ], [ -77.31609, 38.82801 ], [ -77.31266, 38.8264 ], [ -77.31152, 38.82744 ], [ -77.31237, 38.82904 ], [ -77.31215, 38.82999 ], [ -77.31129, 38.83045 ], [ -77.30969, 38.8302 ], [ -77.30868, 38.82898 ], [ -77.308, 38.82919 ], [ -77.30709, 38.82804 ], [ -77.30574, 38.82789 ], [ -77.30516, 38.82723 ], [ -77.30486, 38.82735 ], [ -77.30609, 38.82895 ], [ -77.30595, 38.82963 ], [ -77.30425, 38.8303 ], [ -77.30281, 38.83002 ], [ -77.3027, 38.82911 ], [ -77.30155, 38.82862 ], [ -77.30133, 38.82791 ], [ -77.30222, 38.82761 ], [ -77.30291, 38.82802 ], [ -77.30224, 38.82688 ], [ -77.30246, 38.8265 ], [ -77.30296, 38.82636 ], [ -77.30371, 38.82674 ], [ -77.30494, 38.82617 ], [ -77.30533, 38.8258 ], [ -77.30469, 38.82519 ], [ -77.30204, 38.8261 ], [ -77.30077, 38.8284 ], [ -77.29986, 38.82812 ], [ -77.30034, 38.82676 ], [ -77.29456, 38.82683 ], [ -77.29449, 38.82597 ], [ -77.29543, 38.82585 ], [ -77.29486, 38.82429 ], [ -77.29318, 38.82354 ], [ -77.29381, 38.82208 ], [ -77.29422, 38.82182 ], [ -77.29509, 38.822 ], [ -77.2954, 38.82131 ], [ -77.29593, 38.82128 ], [ -77.29702, 38.82203 ], [ -77.29717, 38.82288 ], [ -77.29807, 38.82317 ], [ -77.29979, 38.82306 ], [ -77.30099, 38.8237 ], [ -77.30151, 38.82306 ], [ -77.301, 38.8228 ], [ -77.30099, 38.8223 ], [ -77.30028, 38.82168 ], [ -77.29966, 38.82243 ], [ -77.2978, 38.82189 ], [ -77.29673, 38.82023 ], [ -77.29521, 38.8203 ], [ -77.29495, 38.82097 ], [ -77.29396, 38.82071 ], [ -77.29236, 38.8212 ], [ -77.2922, 38.8204 ], [ -77.29127, 38.82007 ], [ -77.29086, 38.81926 ], [ -77.29137, 38.81834 ], [ -77.29268, 38.81828 ], [ -77.29156, 38.81651 ], [ -77.29071, 38.81626 ], [ -77.29068, 38.81584 ], [ -77.29219, 38.81479 ], [ -77.29119, 38.81528 ], [ -77.2907, 38.81513 ], [ -77.29049, 38.81475 ], [ -77.29116, 38.81403 ], [ -77.28846, 38.81479 ], [ -77.28882, 38.81627 ], [ -77.28768, 38.81773 ], [ -77.28681, 38.81738 ], [ -77.28746, 38.81606 ], [ -77.28538, 38.81544 ], [ -77.28479, 38.8157 ], [ -77.28416, 38.81512 ], [ -77.28445, 38.81404 ], [ -77.28567, 38.81302 ], [ -77.28711, 38.81317 ], [ -77.28696, 38.81399 ], [ -77.28995, 38.81323 ], [ -77.29005, 38.8119 ], [ -77.28871, 38.81019 ], [ -77.28888, 38.80833 ], [ -77.2894, 38.80824 ], [ -77.29002, 38.80869 ], [ -77.29151, 38.80841 ], [ -77.29177, 38.80905 ], [ -77.29329, 38.80992 ], [ -77.29411, 38.80807 ], [ -77.29525, 38.80799 ], [ -77.29714, 38.80914 ], [ -77.29717, 38.81029 ], [ -77.29906, 38.81003 ], [ -77.30206, 38.81174 ], [ -77.30229, 38.81079 ], [ -77.3009, 38.8104 ], [ -77.30084, 38.80957 ], [ -77.30021, 38.8092 ], [ -77.29982, 38.80982 ], [ -77.29887, 38.80966 ], [ -77.2994, 38.80767 ], [ -77.29866, 38.80697 ], [ -77.2995, 38.80658 ], [ -77.30542, 38.80788 ], [ -77.30571, 38.80747 ], [ -77.30713, 38.80757 ], [ -77.30761, 38.80734 ], [ -77.30794, 38.80536 ], [ -77.30698, 38.80483 ], [ -77.30715, 38.80368 ], [ -77.30742, 38.80333 ], [ -77.30832, 38.80341 ], [ -77.30867, 38.8026 ], [ -77.30918, 38.80249 ], [ -77.30977, 38.8031 ], [ -77.3094, 38.80505 ], [ -77.31021, 38.80488 ], [ -77.31062, 38.80536 ], [ -77.31229, 38.80495 ], [ -77.3127, 38.80521 ], [ -77.31243, 38.80594 ], [ -77.31068, 38.80645 ], [ -77.31129, 38.80737 ], [ -77.31237, 38.80707 ], [ -77.31288, 38.80746 ], [ -77.31358, 38.80729 ], [ -77.31397, 38.80757 ], [ -77.3138, 38.8083 ], [ -77.31323, 38.80858 ] ], [ [ -77.30335, 38.82338 ], [ -77.30203, 38.82454 ], [ -77.30427, 38.8238 ], [ -77.30335, 38.82338 ] ], [ [ -77.30454, 38.82237 ], [ -77.30455, 38.82228 ], [ -77.30418, 38.82258 ], [ -77.30459, 38.82272 ], [ -77.30454, 38.82237 ] ], [ [ -77.305, 38.82111 ], [ -77.30514, 38.82116 ], [ -77.30486, 38.82093 ], [ -77.305, 38.82111 ] ], [ [ -77.30382, 38.81994 ], [ -77.30387, 38.81938 ], [ -77.30227, 38.81878 ], [ -77.30339, 38.82035 ], [ -77.30437, 38.82029 ], [ -77.30382, 38.81994 ] ], [ [ -77.30623, 38.81443 ], [ -77.30615, 38.81398 ], [ -77.30494, 38.81399 ], [ -77.30418, 38.8136 ], [ -77.30435, 38.81271 ], [ -77.30353, 38.81214 ], [ -77.30482, 38.81136 ], [ -77.30362, 38.81109 ], [ -77.30313, 38.81318 ], [ -77.30384, 38.81329 ], [ -77.30408, 38.81404 ], [ -77.30623, 38.81443 ] ], [ [ -77.30503, 38.80995 ], [ -77.30398, 38.81005 ], [ -77.30481, 38.81024 ], [ -77.30503, 38.80995 ] ], [ [ -77.30952, 38.81973 ], [ -77.31011, 38.81997 ], [ -77.31092, 38.81951 ], [ -77.31084, 38.81742 ], [ -77.31018, 38.81782 ], [ -77.30969, 38.81767 ], [ -77.30941, 38.81672 ], [ -77.30952, 38.81973 ] ], [ [ -77.30368, 38.81592 ], [ -77.3023, 38.8152 ], [ -77.30174, 38.8159 ], [ -77.30176, 38.81738 ], [ -77.3048, 38.8185 ], [ -77.30807, 38.81842 ], [ -77.308, 38.81609 ], [ -77.30368, 38.81592 ] ], [ [ -77.30842, 38.8111 ], [ -77.30755, 38.81059 ], [ -77.30721, 38.81089 ], [ -77.30801, 38.81218 ], [ -77.30753, 38.81349 ], [ -77.30793, 38.81342 ], [ -77.30842, 38.8111 ] ], [ [ -77.30725, 38.80963 ], [ -77.30742, 38.8098 ], [ -77.30776, 38.80941 ], [ -77.30725, 38.80963 ] ], [ [ -77.31178, 38.81342 ], [ -77.31078, 38.81531 ], [ -77.31117, 38.8149 ], [ -77.31178, 38.81342 ] ], [ [ -77.31152, 38.81113 ], [ -77.3099, 38.81034 ], [ -77.30932, 38.81311 ], [ -77.31025, 38.81342 ], [ -77.31152, 38.81113 ] ], [ [ -77.31289, 38.81453 ], [ -77.31302, 38.81393 ], [ -77.31271, 38.81467 ], [ -77.31289, 38.81453 ] ], [ [ -77.31254, 38.8122 ], [ -77.31298, 38.81195 ], [ -77.31274, 38.81182 ], [ -77.31254, 38.8122 ] ], [ [ -77.31037, 38.80826 ], [ -77.31007, 38.80788 ], [ -77.31014, 38.80812 ], [ -77.31037, 38.80826 ] ], [ [ -77.30912, 38.80647 ], [ -77.30913, 38.80757 ], [ -77.3099, 38.80766 ], [ -77.30912, 38.80647 ] ], [ [ -77.30964, 38.81439 ], [ -77.30932, 38.81428 ], [ -77.30933, 38.81444 ], [ -77.30937, 38.81564 ], [ -77.30964, 38.81439 ] ], [ [ -77.31132, 38.82285 ], [ -77.31111, 38.82292 ], [ -77.3116, 38.82294 ], [ -77.31132, 38.82285 ] ], [ [ -77.31203, 38.8219 ], [ -77.31259, 38.82192 ], [ -77.31184, 38.82174 ], [ -77.31203, 38.8219 ] ], [ [ -77.3153, 38.82015 ], [ -77.31508, 38.82004 ], [ -77.3151, 38.82015 ], [ -77.3153, 38.82015 ] ], [ [ -77.31395, 38.82171 ], [ -77.314, 38.82248 ], [ -77.31418, 38.8216 ], [ -77.31394, 38.82094 ], [ -77.31354, 38.82096 ], [ -77.31395, 38.82171 ] ], [ [ -77.31094, 38.82529 ], [ -77.30983, 38.82497 ], [ -77.31133, 38.82597 ], [ -77.31157, 38.82573 ], [ -77.31094, 38.82529 ] ], [ [ -77.3104, 38.82677 ], [ -77.30867, 38.82563 ], [ -77.30869, 38.82741 ], [ -77.3104, 38.82677 ] ], [ [ -77.30708, 38.82202 ], [ -77.30617, 38.82186 ], [ -77.30745, 38.82288 ], [ -77.30762, 38.82197 ], [ -77.30708, 38.82202 ] ], [ [ -77.30813, 38.8195 ], [ -77.30638, 38.81954 ], [ -77.30717, 38.82018 ], [ -77.30816, 38.82026 ], [ -77.30813, 38.8195 ] ], [ [ -77.30867, 38.82355 ], [ -77.30877, 38.82356 ], [ -77.30877, 38.82321 ], [ -77.30867, 38.82355 ] ], [ [ -77.31048, 38.82199 ], [ -77.31046, 38.82173 ], [ -77.31035, 38.82213 ], [ -77.31048, 38.82199 ] ], [ [ -77.30895, 38.8229 ], [ -77.3089, 38.82274 ], [ -77.30881, 38.82307 ], [ -77.30895, 38.8229 ] ], [ [ -77.30992, 38.8285 ], [ -77.31088, 38.82941 ], [ -77.31096, 38.82868 ], [ -77.31048, 38.82836 ], [ -77.30992, 38.8285 ] ], [ [ -77.30585, 38.81225 ], [ -77.30644, 38.81262 ], [ -77.30648, 38.81184 ], [ -77.3062, 38.81168 ], [ -77.30466, 38.81267 ], [ -77.30585, 38.81225 ] ], [ [ -77.30623, 38.81048 ], [ -77.30618, 38.81055 ], [ -77.30624, 38.81056 ], [ -77.30623, 38.81048 ] ], [ [ -77.30645, 38.82476 ], [ -77.30604, 38.82486 ], [ -77.30622, 38.82498 ], [ -77.30645, 38.82476 ] ], [ [ -77.3073, 38.82693 ], [ -77.30729, 38.82566 ], [ -77.30632, 38.82655 ], [ -77.3073, 38.82693 ] ], [ [ -77.30412, 38.82861 ], [ -77.30408, 38.82921 ], [ -77.30457, 38.82901 ], [ -77.30412, 38.82861 ] ], [ [ -77.30165, 38.82132 ], [ -77.30233, 38.82156 ], [ -77.30178, 38.82027 ], [ -77.30093, 38.82034 ], [ -77.30165, 38.82132 ] ], [ [ -77.29651, 38.81646 ], [ -77.29652, 38.81645 ], [ -77.2965, 38.81645 ], [ -77.29651, 38.81646 ] ], [ [ -77.29721, 38.81351 ], [ -77.29461, 38.81379 ], [ -77.2945, 38.81482 ], [ -77.29488, 38.81531 ], [ -77.29665, 38.81537 ], [ -77.29721, 38.81351 ] ], [ [ -77.29566, 38.81198 ], [ -77.29567, 38.81196 ], [ -77.29563, 38.81196 ], [ -77.29566, 38.81198 ] ], [ [ -77.29564, 38.81055 ], [ -77.29538, 38.81075 ], [ -77.29569, 38.81086 ], [ -77.29564, 38.81055 ] ], [ [ -77.30008, 38.81685 ], [ -77.30013, 38.8169 ], [ -77.30013, 38.81672 ], [ -77.30008, 38.81685 ] ], [ [ -77.3001, 38.81429 ], [ -77.30015, 38.81424 ], [ -77.30013, 38.81424 ], [ -77.3001, 38.81429 ] ], [ [ -77.30114, 38.81257 ], [ -77.30103, 38.81247 ], [ -77.30062, 38.81301 ], [ -77.30114, 38.81257 ] ], [ [ -77.29963, 38.81225 ], [ -77.3002, 38.81198 ], [ -77.3001, 38.81192 ], [ -77.29963, 38.81225 ] ], [ [ -77.30028, 38.80876 ], [ -77.30042, 38.80865 ], [ -77.3003, 38.80862 ], [ -77.30028, 38.80876 ] ], [ [ -77.30333, 38.80877 ], [ -77.30353, 38.80855 ], [ -77.30343, 38.80852 ], [ -77.30316, 38.80899 ], [ -77.30333, 38.80877 ] ], [ [ -77.29909, 38.81299 ], [ -77.29913, 38.81288 ], [ -77.29897, 38.81291 ], [ -77.29909, 38.81299 ] ], [ [ -77.29884, 38.81169 ], [ -77.29885, 38.81169 ], [ -77.29885, 38.81168 ], [ -77.29884, 38.81169 ] ], [ [ -77.29808, 38.81549 ], [ -77.29803, 38.81544 ], [ -77.29802, 38.81555 ], [ -77.29808, 38.81549 ] ], [ [ -77.29457, 38.81914 ], [ -77.29451, 38.81927 ], [ -77.2963, 38.81921 ], [ -77.29608, 38.81869 ], [ -77.29457, 38.81914 ] ], [ [ -77.29833, 38.81829 ], [ -77.29831, 38.81834 ], [ -77.29837, 38.81834 ], [ -77.29833, 38.81829 ] ], [ [ -77.29744, 38.81846 ], [ -77.29752, 38.81865 ], [ -77.29755, 38.81852 ], [ -77.29744, 38.81846 ] ], [ [ -77.29143, 38.8118 ], [ -77.29166, 38.81171 ], [ -77.29152, 38.81167 ], [ -77.29143, 38.8118 ] ], [ [ -77.29335, 38.81074 ], [ -77.29345, 38.81076 ], [ -77.2934, 38.81066 ], [ -77.29335, 38.81074 ] ], [ [ -77.29305, 38.8167 ], [ -77.29325, 38.81654 ], [ -77.29295, 38.81646 ], [ -77.29305, 38.8167 ] ], [ [ -77.29155, 38.81269 ], [ -77.29175, 38.81264 ], [ -77.2914, 38.81245 ], [ -77.29155, 38.81269 ] ], [ [ -77.28559, 38.81473 ], [ -77.28557, 38.81487 ], [ -77.28565, 38.81479 ], [ -77.28559, 38.81473 ] ], [ [ -77.29363, 38.81961 ], [ -77.29345, 38.81956 ], [ -77.29349, 38.81968 ], [ -77.29363, 38.81961 ] ], [ [ -77.29529, 38.8167 ], [ -77.2954, 38.81655 ], [ -77.29526, 38.81671 ], [ -77.29529, 38.8167 ] ], [ [ -77.29644, 38.82577 ], [ -77.29674, 38.82574 ], [ -77.2967, 38.82468 ], [ -77.29733, 38.82413 ], [ -77.29629, 38.82386 ], [ -77.29644, 38.82577 ] ], [ [ -77.29455, 38.823 ], [ -77.29447, 38.82297 ], [ -77.29449, 38.82305 ], [ -77.29455, 38.823 ] ] ] } },
{ "type": "Feature", "properties": { "variant": "T2s", "miles": 2.0 }, "geometry": { "type": "Polygon", "coordinates": [ [ [ -77.31866, 38.80635 ], [ -77.32038, 38.8071 ], [ -77.32105, 38.80839 ], [ -77.32213, 38.809 ], [ -77.32289, 38.80822 ], [ -77.32382, 38.80846 ], [ -77.3237, 38.80918 ], [ -77.32286, 38.80992 ], [ -77.32428, 38.81059 ], [ -77.32464, 38.8113 ], [ -77.3235, 38.8115 ], [ -77.32268, 38.81246 ], [ -77.32283, 38.81301 ], [ -77.32396, 38.81211 ], [ -77.32494, 38.81263 ], [ -77.32249, 38.81558 ], [ -77.32037, 38.81948 ], [ -77.31903, 38.81932 ], [ -77.31677, 38.81834 ], [ -77.31607, 38.81894 ], [ -77.31529, 38.81877 ], [ -77.31806, 38.82022 ], [ -77.31859, 38.8199 ], [ -77.31946, 38.82025 ], [ -77.31797, 38.82348 ], [ -77.31735, 38.82697 ], [ -77.31954, 38.82807 ], [ -77.31979, 38.82709 ], [ -77.32028, 38.82694 ], [ -77.32327, 38.82757 ], [ -77.32372, 38.82777 ], [ -77.3236, 38.82853 ], [ -77.32134, 38.82823 ], [ -77.32144, 38.82893 ], [ -77.32406, 38.82924 ], [ -77.32463, 38.83003 ], [ -77.32387, 38.83052 ], [ -77.32128, 38.83027 ], [ -77.3171, 38.8285 ], [ -77.31677, 38.82987 ], [ -77.3208, 38.83164 ], [ -77.32079, 38.83241 ], [ -77.31993, 38.83251 ], [ -77.31633, 38.83091 ], [ -77.31522, 38.83304 ], [ -77.31476, 38.83324 ], [ -77.31376, 38.83312 ], [ -77.31219, 38.83192 ], [ -77.31092, 38.83539 ], [ -77.31048, 38.83562 ], [ -77.30811, 38.83573 ], [ -77.30772, 38.83471 ], [ -77.30665, 38.83461 ], [ -77.30539, 38.83475 ], [ -77.30555, 38.83546 ], [ -77.30518, 38.83575 ], [ -77.30393, 38.8358 ], [ -77.30345, 38.83534 ], [ -77.3037, 38.83434 ], [ -77.30306, 38.83318 ], [ -77.30132, 38.8336 ], [ -77.30195, 38.83443 ], [ -77.30177, 38.83518 ], [ -77.2985, 38.835 ], [ -77.29715, 38.83388 ], [ -77.29763, 38.83243 ], [ -77.29641, 38.83231 ], [ -77.29566, 38.83271 ], [ -77.29508, 38.8321 ], [ -77.29557, 38.83068 ], [ -77.29608, 38.83058 ], [ -77.29665, 38.83123 ], [ -77.29811, 38.83141 ], [ -77.29931, 38.82886 ], [ -77.29866, 38.82832 ], [ -77.29881, 38.82695 ], [ -77.2969, 38.82698 ], [ -77.29679, 38.82744 ], [ -77.29873, 38.82867 ], [ -77.29861, 38.82943 ], [ -77.2981, 38.82954 ], [ -77.29431, 38.82719 ], [ -77.28721, 38.8269 ], [ -77.28576, 38.82651 ], [ -77.2858, 38.82381 ], [ -77.28999, 38.82174 ], [ -77.29102, 38.82174 ], [ -77.29183, 38.82216 ], [ -77.29288, 38.82427 ], [ -77.2922, 38.8254 ], [ -77.29066, 38.82585 ], [ -77.29414, 38.82594 ], [ -77.29383, 38.82408 ], [ -77.29323, 38.82362 ], [ -77.29317, 38.82296 ], [ -77.29422, 38.82182 ], [ -77.29509, 38.822 ], [ -77.2954, 38.82131 ], [ -77.29641, 38.82149 ], [ -77.29709, 38.82214 ], [ -77.29717, 38.82288 ], [ -77.29785, 38.82313 ], [ -77.29979, 38.82306 ], [ -77.30099, 38.8237 ], [ -77.30151, 38.82306 ], [ -77.30028, 38.82168 ], [ -77.29966, 38.82243 ], [ -77.29772, 38.82184 ], [ -77.29673, 38.82023 ], [ -77.29521, 38.8203 ], [ -77.29495, 38.82097 ], [ -77.29396, 38.82071 ], [ -77.29236, 38.8212 ], [ -77.2922, 38.8204 ], [ -77.29127, 38.82007 ], [ -77.29086, 38.81926 ], [ -77.29137, 38.81834 ], [ -77.29268, 38.81828 ], [ -77.29156, 38.81651 ], [ -77.29071, 38.81626 ], [ -77.29068, 38.81584 ], [ -77.29219, 38.81479 ], [ -77.29119, 38.81528 ], [ -77.2907, 38.81513 ], [ -77.29049, 38.81475 ], [ -77.29116, 38.81403 ], [ -77.28846, 38.81479 ], [ -77.28875, 38.81646 ], [ -77.28588, 38.82012 ], [ -77.28536, 38.82005 ], [ -77.28514, 38.81931 ], [ -77.28405, 38.81932 ], [ -77.28408, 38.8185 ], [ -77.28173, 38.81981 ], [ -77.28092, 38.81939 ], [ -77.28134, 38.81834 ], [ -77.27829, 38.81804 ], [ -77.27859, 38.81726 ], [ -77.28023, 38.81718 ], [ -77.28027, 38.81675 ], [ -77.27946, 38.81617 ], [ -77.27963, 38.81578 ], [ -77.28052, 38.81568 ], [ -77.28182, 38.8146 ], [ -77.28422, 38.81458 ], [ -77.28449, 38.814 ], [ -77.28237, 38.81368 ], [ -77.28153, 38.81458 ], [ -77.28067, 38.81422 ], [ -77.2808, 38.81376 ], [ -77.27924, 38.81333 ], [ -77.27896, 38.8137 ], [ -77.27799, 38.81357 ], [ -77.27828, 38.81238 ], [ -77.2766, 38.81096 ], [ -77.277, 38.81012 ], [ -77.27796, 38.81015 ], [ -77.27928, 38.8116 ], [ -77.27978, 38.811 ], [ -77.28025, 38.81106 ], [ -77.28023, 38.8103 ], [ -77.27931, 38.81026 ], [ -77.27918, 38.8095 ], [ -77.28078, 38.8087 ], [ -77.28153, 38.80918 ], [ -77.28163, 38.81093 ], [ -77.28425, 38.81076 ], [ -77.2846, 38.80972 ], [ -77.28332, 38.80936 ], [ -77.28328, 38.80857 ], [ -77.28354, 38.80821 ], [ -77.28496, 38.80818 ], [ -77.28591, 38.80936 ], [ -77.28646, 38.81151 ], [ -77.28604, 38.81224 ], [ -77.28476, 38.81283 ], [ -77.28538, 38.81317 ], [ -77.28628, 38.81242 ], [ -77.28681, 38.81241 ], [ -77.28783, 38.81323 ], [ -77.28783, 38.81382 ], [ -77.28995, 38.81323 ], [ -77.29007, 38.81197 ], [ -77.28962, 38.8112 ], [ -77.28891, 38.8106 ], [ -77.28835, 38.81098 ], [ -77.28762, 38.81047 ], [ -77.28766, 38.8094 ], [ -77.28832, 38.80863 ], [ -77.28757, 38.80694 ], [ -77.28825, 38.80584 ], [ -77.28711, 38.80531 ], [ -77.288, 38.80419 ], [ -77.28821, 38.80275 ], [ -77.28874, 38.80236 ], [ -77.28973, 38.80251 ], [ -77.29114, 38.80374 ], [ -77.29145, 38.80478 ], [ -77.29098, 38.80519 ], [ -77.29422, 38.80679 ], [ -77.29518, 38.80797 ], [ -77.2971, 38.80909 ], [ -77.29717, 38.81029 ], [ -77.29906, 38.81003 ], [ -77.30206, 38.81174 ], [ -77.30229, 38.81079 ], [ -77.3009, 38.8104 ], [ -77.30084, 38.80957 ], [ -77.30021, 38.8092 ], [ -77.29982, 38.80982 ], [ -77.2993, 38.80989 ], [ -77.29887, 38.80966 ], [ -77.29884, 38.80898 ], [ -77.29727, 38.8089 ], [ -77.29641, 38.8075 ], [ -77.29534, 38.80701 ], [ -77.29461, 38.80458 ], [ -77.2927, 38.80402 ], [ -77.29264, 38.8031 ], [ -77.29343, 38.80292 ], [ -77.29395, 38.80225 ], [ -77.29464, 38.80239 ], [ -77.29513, 38.80199 ], [ -77.29479, 38.80165 ], [ -77.29407, 38.80224 ], [ -77.29341, 38.80167 ], [ -77.2941, 38.80068 ], [ -77.29384, 38.79939 ], [ -77.29487, 38.79928 ], [ -77.2953, 38.79847 ], [ -77.29583, 38.79852 ], [ -77.2963, 38.7993 ], [ -77.29723, 38.7991 ], [ -77.29807, 38.7995 ], [ -77.29799, 38.79991 ], [ -77.29718, 38.80023 ], [ -77.29699, 38.80147 ], [ -77.29954, 38.80133 ], [ -77.2996, 38.80052 ], [ -77.30004, 38.80029 ], [ -77.30072, 38.80056 ], [ -77.30136, 38.79975 ], [ -77.30297, 38.79993 ], [ -77.30255, 38.79922 ], [ -77.30324, 38.79868 ], [ -77.30445, 38.79862 ], [ -77.30557, 38.79946 ], [ -77.30553, 38.79989 ], [ -77.30682, 38.7997 ], [ -77.30738, 38.80035 ], [ -77.30818, 38.80012 ], [ -77.3089, 38.80047 ], [ -77.30974, 38.79983 ], [ -77.3103, 38.80045 ], [ -77.3094, 38.80505 ], [ -77.31074, 38.80446 ], [ -77.31127, 38.8036 ], [ -77.31463, 38.80211 ], [ -77.315, 38.80241 ], [ -77.31472, 38.8033 ], [ -77.31315, 38.804 ], [ -77.31404, 38.80563 ], [ -77.31359, 38.80598 ], [ -77.31335, 38.8073 ], [ -77.31397, 38.80757 ], [ -77.314, 38.80798 ], [ -77.31323, 38.80858 ], [ -77.31396, 38.80938 ], [ -77.31362, 38.80969 ], [ -77.31268, 38.80958 ], [ -77.31221, 38.81018 ], [ -77.31404, 38.81121 ], [ -77.31487, 38.81039 ], [ -77.31539, 38.81045 ], [ -77.31572, 38.81077 ], [ -77.31537, 38.81193 ], [ -77.31598, 38.81012 ], [ -77.31505, 38.80943 ], [ -77.31515, 38.80902 ], [ -77.31559, 38.80879 ], [ -77.31676, 38.80923 ], [ -77.31802, 38.80841 ], [ -77.31968, 38.80813 ], [ -77.31825, 38.80755 ], [ -77.31716, 38.80791 ], [ -77.31693, 38.80717 ], [ -77.31765, 38.80655 ], [ -77.31866, 38.80635 ] ], [ [ -77.30814, 38.83359 ], [ -77.30969, 38.83297 ], [ -77.30817, 38.83052 ], [ -77.30846, 38.82979 ], [ -77.30939, 38.83002 ], [ -77.31072, 38.83202 ], [ -77.31082, 38.83178 ], [ -77.31065, 38.83048 ], [ -77.30935, 38.82998 ], [ -77.30868, 38.82898 ], [ -77.308, 38.82919 ], [ -77.30709, 38.82804 ], [ -77.30574, 38.82789 ], [ -77.30516, 38.82723 ], [ -77.30486, 38.82735 ], [ -77.30609, 38.82895 ], [ -77.3059, 38.82966 ], [ -77.30682, 38.83085 ], [ -77.30487, 38.83201 ], [ -77.30492, 38.83246 ], [ -77.30437, 38.83282 ], [ -77.3049, 38.8337 ], [ -77.30814, 38.83359 ] ], [ [ -77.30533, 38.8258 ], [ -77.30469, 38.82519 ], [ -77.30204, 38.8261 ], [ -77.30125, 38.82789 ], [ -77.30222, 38.82761 ], [ -77.30291, 38.82802 ], [ -77.30224, 38.82688 ], [ -77.30246, 38.8265 ], [ -77.30296, 38.82636 ], [ -77.30371, 38.82674 ], [ -77.30533, 38.8258 ] ], [ [ -77.30455, 38.82228 ], [ -77.30418, 38.82258 ], [ -77.30457, 38.82264 ], [ -77.30455, 38.82228 ] ], [ [ -77.30491, 38.82109 ], [ -77.30514, 38.82116 ], [ -77.30486, 38.82093 ], [ -77.30491, 38.82109 ] ], [ [ -77.30382, 38.81994 ], [ -77.30387, 38.81938 ], [ -77.30227, 38.81878 ], [ -77.30339, 38.82035 ], [ -77.30437, 38.82029 ], [ -77.30382, 38.81994 ] ], [ [ -77.30623, 38.81443 ], [ -77.30615, 38.81398 ], [ -77.30494, 38.81399 ], [ -77.30418, 38.8136 ], [ -77.30435, 38.81271 ], [ -77.30353, 38.81214 ], [ -77.30482, 38.81136 ], [ -77.30362, 38.81109 ], [ -77.30313, 38.81318 ], [ -77.30384, 38.81329 ], [ -77.30408, 38.81404 ], [ -77.30623, 38.81443 ] ], [ [ -77.3041, 38.80987 ], [ -77.30398, 38.81005 ], [ -77.30481, 38.81024 ], [ -77.3041, 38.80987 ] ], [ [ -77.30343, 38.80852 ], [ -77.30309, 38.80898 ], [ -77.30316, 38.80899 ], [ -77.30343, 38.80852 ] ], [ [ -77.30254, 38.80661 ], [ -77.30255, 38.80617 ], [ -77.30203, 38.80673 ], [ -77.30192, 38.80708 ], [ -77.30254, 38.80661 ] ], [ [ -77.30119, 38.80442 ], [ -77.30125, 38.80442 ], [ -77.30117, 38.80438 ], [ -77.30119, 38.80442 ] ], [ [ -77.29988, 38.80321 ], [ -77.29874, 38.80352 ], [ -77.30009, 38.80441 ], [ -77.30083, 38.80421 ], [ -77.29988, 38.80321 ] ], [ [ -77.30093, 38.8013 ], [ -77.30104, 38.80168 ], [ -77.30113, 38.80154 ], [ -77.30093, 38.8013 ] ], [ [ -77.31295, 38.83046 ], [ -77.31248, 38.83039 ], [ -77.31239, 38.83084 ], [ -77.31295, 38.83046 ] ], [ [ -77.31327, 38.82941 ], [ -77.31356, 38.82831 ], [ -77.31406, 38.82817 ], [ -77.31556, 38.82856 ], [ -77.31568, 38.82783 ], [ -77.31266, 38.8264 ], [ -77.31152, 38.82745 ], [ -77.3126, 38.82931 ], [ -77.31327, 38.82941 ] ], [ [ -77.31571, 38.82641 ], [ -77.31627, 38.82328 ], [ -77.31738, 38.82116 ], [ -77.31693, 38.82094 ], [ -77.317, 38.82152 ], [ -77.31658, 38.82176 ], [ -77.31548, 38.82123 ], [ -77.31537, 38.82268 ], [ -77.31575, 38.82332 ], [ -77.31391, 38.82439 ], [ -77.31108, 38.824 ], [ -77.31571, 38.82641 ] ], [ [ -77.31132, 38.82285 ], [ -77.31111, 38.82292 ], [ -77.3116, 38.82294 ], [ -77.31132, 38.82285 ] ], [ [ -77.31203, 38.8219 ], [ -77.31259, 38.82192 ], [ -77.31184, 38.82174 ], [ -77.31203, 38.8219 ] ], [ [ -77.31373, 38.8194 ], [ -77.31527, 38.81612 ], [ -77.31655, 38.8159 ], [ -77.31834, 38.81682 ], [ -77.31861, 38.81628 ], [ -77.31638, 38.81506 ], [ -77.31601, 38.81424 ], [ -77.31525, 38.81389 ], [ -77.31557, 38.8133 ], [ -77.31422, 38.81263 ], [ -77.31449, 38.81358 ], [ -77.31401, 38.81518 ], [ -77.31123, 38.81634 ], [ -77.31215, 38.81706 ], [ -77.31227, 38.81858 ], [ -77.31283, 38.81833 ], [ -77.31373, 38.8194 ] ], [ [ -77.31117, 38.8149 ], [ -77.31178, 38.81342 ], [ -77.31078, 38.81531 ], [ -77.31117, 38.8149 ] ], [ [ -77.31272, 38.81208 ], [ -77.31298, 38.81195 ], [ -77.31274, 38.81182 ], [ -77.31272, 38.81208 ] ], [ [ -77.3099, 38.81034 ], [ -77.30932, 38.81311 ], [ -77.31025, 38.81342 ], [ -77.31152, 38.81113 ], [ -77.3099, 38.81034 ] ], [ [ -77.31019, 38.80805 ], [ -77.31007, 38.80788 ], [ -77.31007, 38.80821 ], [ -77.31019, 38.80805 ] ], [ [ -77.30926, 38.80648 ], [ -77.30912, 38.80647 ], [ -77.30913, 38.80757 ], [ -77.3099, 38.80766 ], [ -77.30926, 38.80648 ] ], [ [ -77.31801, 38.81121 ], [ -77.31785, 38.81113 ], [ -77.31684, 38.8122 ], [ -77.31737, 38.8122 ], [ -77.31801, 38.81121 ] ], [ [ -77.31934, 38.81771 ], [ -77.31942, 38.81795 ], [ -77.32033, 38.81591 ], [ -77.31934, 38.81771 ] ], [ [ -77.3217, 38.81191 ], [ -77.32179, 38.81196 ], [ -77.3218, 38.81189 ], [ -77.3217, 38.81191 ] ], [ [ -77.3214, 38.81014 ], [ -77.32146, 38.81013 ], [ -77.32142, 38.81006 ], [ -77.3214, 38.81014 ] ], [ [ -77.32058, 38.80954 ], [ -77.32084, 38.80954 ], [ -77.3207, 38.80947 ], [ -77.32058, 38.80954 ] ], [ [ -77.32205, 38.81111 ], [ -77.32212, 38.81129 ], [ -77.32219, 38.81115 ], [ -77.32205, 38.81111 ] ], [ [ -77.32005, 38.81338 ], [ -77.32032, 38.81248 ], [ -77.31994, 38.81227 ], [ -77.31928, 38.81346 ], [ -77.32005, 38.81338 ] ], [ [ -77.31892, 38.81385 ], [ -77.31913, 38.81396 ], [ -77.31918, 38.81361 ], [ -77.31892, 38.81385 ] ], [ [ -77.32147, 38.8131 ], [ -77.32114, 38.81503 ], [ -77.32254, 38.81331 ], [ -77.32147, 38.8131 ] ], [ [ -77.31606, 38.81741 ], [ -77.31675, 38.81726 ], [ -77.31619, 38.81695 ], [ -77.31606, 38.81741 ] ], [ [ -77.31149, 38.80722 ], [ -77.31121, 38.80727 ], [ -77.31129, 38.80737 ], [ -77.31149, 38.80722 ] ], [ [ -77.3129, 38.81448 ], [ -77.31302, 38.81393 ], [ -77.31271, 38.81467 ], [ -77.3129, 38.81448 ] ], [ [ -77.30851, 38.80242 ], [ -77.30857, 38.80209 ], [ -77.30829, 38.80239 ], [ -77.30851, 38.80242 ] ], [ [ -77.3153, 38.82015 ], [ -77.31508, 38.82004 ], [ -77.3151, 38.82015 ], [ -77.3153, 38.82015 ] ], [ [ -77.31395, 38.82171 ], [ -77.314, 38.82248 ], [ -77.31418, 38.8216 ], [ -77.31394, 38.82094 ], [ -77.31354, 38.82096 ], [ -77.31395, 38.82171 ] ], [ [ -77.31386, 38.83147 ], [ -77.31412, 38.83163 ], [ -77.31459, 38.831 ], [ -77.31422, 38.83088 ], [ -77.31386, 38.83147 ] ], [ [ -77.31531, 38.82955 ], [ -77.31543, 38.82915 ], [ -77.31467, 38.82928 ], [ -77.31462, 38.82984 ], [ -77.31514, 38.83001 ], [ -77.31531, 38.82955 ] ], [ [ -77.3104, 38.82677 ], [ -77.30867, 38.82563 ], [ -77.30869, 38.82741 ], [ -77.3104, 38.82677 ] ], [ [ -77.30708, 38.82202 ], [ -77.30617, 38.82186 ], [ -77.30745, 38.82288 ], [ -77.30762, 38.82197 ], [ -77.30708, 38.82202 ] ], [ [ -77.30813, 38.8195 ], [ -77.30638, 38.81954 ], [ -77.30717, 38.82018 ], [ -77.30816, 38.82026 ], [ -77.30813, 38.8195 ] ], [ [ -77.308, 38.81609 ], [ -77.30368, 38.81592 ], [ -77.30262, 38.81519 ], [ -77.30174, 38.8159 ], [ -77.30176, 38.81738 ], [ -77.30476, 38.81849 ], [ -77.30807, 38.81842 ], [ -77.308, 38.81609 ] ], [ [ -77.30842, 38.8111 ], [ -77.30755, 38.81059 ], [ -77.30721, 38.81089 ], [ -77.30801, 38.81218 ], [ -77.30753, 38.81349 ], [ -77.30792, 38.81328 ], [ -77.30842, 38.8111 ] ], [ [ -77.30725, 38.80963 ], [ -77.30742, 38.8098 ], [ -77.30775, 38.80941 ], [ -77.30725, 38.80963 ] ], [ [ -77.30403, 38.80707 ], [ -77.3035, 38.80741 ], [ -77.30407, 38.80755 ], [ -77.30403, 38.80707 ] ], [ [ -77.31018, 38.81782 ], [ -77.30969, 38.81767 ], [ -77.30941, 38.81672 ], [ -77.30952, 38.81973 ], [ -77.31011, 38.81997 ], [ -77.31092, 38.81951 ], [ -77.31082, 38.81738 ], [ -77.31018, 38.81782 ] ], [ [ -77.30964, 38.81439 ], [ -77.30932, 38.81428 ], [ -77.30933, 38.81444 ], [ -77.30937, 38.81564 ], [ -77.30964, 38.81439 ] ], [ [ -77.30867, 38.82355 ], [ -77.30877, 38.82356 ], [ -77.30877, 38.82321 ], [ -77.30867, 38.82355 ] ], [ [ -77.31048, 38.82199 ], [ -77.31046, 38.82173 ], [ -77.31035, 38.82213 ], [ -77.31048, 38.82199 ] ], [ [ -77.3089, 38.82274 ], [ -77.30881, 38.82307 ], [ -77.30889, 38.82297 ], [ -77.3089, 38.82274 ] ], [ [ -77.31133, 38.82597 ], [ -77.31161, 38.82568 ], [ -77.31072, 38.8252 ], [ -77.31, 38.82499 ], [ -77.31133, 38.82597 ] ], [ [ -77.30992, 38.8285 ], [ -77.31088, 38.82941 ], [ -77.31094, 38.82863 ], [ -77.30992, 38.8285 ] ], [ [ -77.30959, 38.83463 ], [ -77.30968, 38.83423 ], [ -77.30907, 38.83447 ], [ -77.30959, 38.83463 ] ], [ [ -77.30509, 38.80136 ], [ -77.30496, 38.80163 ], [ -77.30549, 38.80104 ], [ -77.30509, 38.80136 ] ], [ [ -77.30605, 38.80268 ], [ -77.30631, 38.80238 ], [ -77.30505, 38.80208 ], [ -77.30493, 38.80169 ], [ -77.30475, 38.80231 ], [ -77.30605, 38.80268 ] ], [ [ -77.30609, 38.80732 ], [ -77.30594, 38.80744 ], [ -77.30623, 38.8074 ], [ -77.30655, 38.80746 ], [ -77.30609, 38.80732 ] ], [ [ -77.3056, 38.80758 ], [ -77.30546, 38.80757 ], [ -77.30544, 38.80777 ], [ -77.3056, 38.80758 ] ], [ [ -77.30632, 38.82655 ], [ -77.3073, 38.82693 ], [ -77.3073, 38.82596 ], [ -77.30632, 38.82655 ] ], [ [ -77.30618, 38.81055 ], [ -77.30624, 38.81056 ], [ -77.30623, 38.81048 ], [ -77.30618, 38.81055 ] ], [ [ -77.30545, 38.81234 ], [ -77.30466, 38.81267 ], [ -77.30585, 38.81225 ], [ -77.30644, 38.81262 ], [ -77.30641, 38.81178 ], [ -77.30545, 38.81234 ] ], [ [ -77.30645, 38.82476 ], [ -77.30604, 38.82486 ], [ -77.30622, 38.82498 ], [ -77.30645, 38.82476 ] ], [ [ -77.30214, 38.80124 ], [ -77.30232, 38.80128 ], [ -77.30226, 38.80108 ], [ -77.30214, 38.80124 ] ], [ [ -77.30307, 38.80553 ], [ -77.30312, 38.80551 ], [ -77.30311, 38.80549 ], [ -77.30307, 38.80553 ] ], [ [ -77.29951, 38.83334 ], [ -77.2989, 38.83285 ], [ -77.29867, 38.83334 ], [ -77.29949, 38.83373 ], [ -77.29952, 38.83413 ], [ -77.30011, 38.83412 ], [ -77.29951, 38.83334 ] ], [ [ -77.3006, 38.83268 ], [ -77.30125, 38.83245 ], [ -77.30042, 38.83197 ], [ -77.30006, 38.83067 ], [ -77.29934, 38.83193 ], [ -77.3006, 38.83268 ] ], [ [ -77.29457, 38.81914 ], [ -77.29451, 38.81927 ], [ -77.2963, 38.81921 ], [ -77.29608, 38.81869 ], [ -77.29457, 38.81914 ] ], [ [ -77.29534, 38.81662 ], [ -77.29526, 38.81671 ], [ -77.29529, 38.8167 ], [ -77.29534, 38.81662 ] ], [ [ -77.29665, 38.81537 ], [ -77.29721, 38.81351 ], [ -77.29461, 38.81379 ], [ -77.29454, 38.81493 ], [ -77.29531, 38.81546 ], [ -77.29665, 38.81537 ] ], [ [ -77.29566, 38.81198 ], [ -77.29567, 38.81196 ], [ -77.29563, 38.81196 ], [ -77.29566, 38.81198 ] ], [ [ -77.29564, 38.81055 ], [ -77.29538, 38.81075 ], [ -77.29569, 38.81086 ], [ -77.29564, 38.81055 ] ], [ [ -77.29897, 38.81291 ], [ -77.29909, 38.81299 ], [ -77.29913, 38.81288 ], [ -77.29897, 38.81291 ] ], [ [ -77.29963, 38.81225 ], [ -77.3002, 38.81198 ], [ -77.29972, 38.81217 ], [ -77.29963, 38.81225 ] ], [ [ -77.29885, 38.81168 ], [ -77.29884, 38.81169 ], [ -77.29885, 38.81169 ], [ -77.29885, 38.81168 ] ], [ [ -77.30055, 38.80677 ], [ -77.30154, 38.80552 ], [ -77.30081, 38.8055 ], [ -77.30089, 38.806 ], [ -77.29943, 38.80656 ], [ -77.30055, 38.80677 ] ], [ [ -77.29837, 38.80535 ], [ -77.29781, 38.80544 ], [ -77.29781, 38.80608 ], [ -77.29836, 38.80622 ], [ -77.29837, 38.80535 ] ], [ [ -77.29879, 38.80478 ], [ -77.29845, 38.80529 ], [ -77.29881, 38.80524 ], [ -77.29879, 38.80478 ] ], [ [ -77.29857, 38.80217 ], [ -77.29826, 38.8025 ], [ -77.29878, 38.8025 ], [ -77.29857, 38.80217 ] ], [ [ -77.30093, 38.82034 ], [ -77.30159, 38.82127 ], [ -77.30233, 38.82156 ], [ -77.30178, 38.82027 ], [ -77.30093, 38.82034 ] ], [ [ -77.30348, 38.82382 ], [ -77.30427, 38.8238 ], [ -77.30335, 38.82338 ], [ -77.30203, 38.82454 ], [ -77.30348, 38.82382 ] ], [ [ -77.30042, 38.80865 ], [ -77.3003, 38.80862 ], [ -77.30028, 38.80876 ], [ -77.30042, 38.80865 ] ], [ [ -77.3001, 38.81429 ], [ -77.30015, 38.81424 ], [ -77.30013, 38.81424 ], [ -77.3001, 38.81429 ] ], [ [ -77.30103, 38.81247 ], [ -77.30062, 38.81301 ], [ -77.30096, 38.813 ], [ -77.30103, 38.81247 ] ], [ [ -77.30013, 38.81672 ], [ -77.29993, 38.81671 ], [ -77.30008, 38.81685 ], [ -77.30013, 38.81672 ] ], [ [ -77.30252, 38.83161 ], [ -77.30244, 38.83137 ], [ -77.30165, 38.83114 ], [ -77.30252, 38.83161 ] ], [ [ -77.30169, 38.82903 ], [ -77.30183, 38.82924 ], [ -77.30221, 38.82907 ], [ -77.30169, 38.82903 ] ], [ [ -77.30516, 38.83048 ], [ -77.30512, 38.83 ], [ -77.30387, 38.83028 ], [ -77.30384, 38.83129 ], [ -77.30516, 38.83048 ] ], [ [ -77.30457, 38.82901 ], [ -77.30418, 38.82844 ], [ -77.30408, 38.82921 ], [ -77.30457, 38.82901 ] ], [ [ -77.30041, 38.82962 ], [ -77.30048, 38.82964 ], [ -77.30046, 38.8296 ], [ -77.30041, 38.82962 ] ], [ [ -77.29767, 38.80739 ], [ -77.29813, 38.80803 ], [ -77.29848, 38.80746 ], [ -77.29731, 38.80717 ], [ -77.29767, 38.80739 ] ], [ [ -77.29724, 38.80713 ], [ -77.29718, 38.80711 ], [ -77.29716, 38.80714 ], [ -77.29724, 38.80713 ] ], [ [ -77.2965, 38.81645 ], [ -77.29651, 38.81646 ], [ -77.29652, 38.81645 ], [ -77.2965, 38.81645 ] ], [ [ -77.2981, 38.81558 ], [ -77.29823, 38.81563 ], [ -77.29803, 38.81544 ], [ -77.2981, 38.81558 ] ], [ [ -77.29837, 38.81834 ], [ -77.29833, 38.81829 ], [ -77.29831, 38.81834 ], [ -77.29837, 38.81834 ] ], [ [ -77.29744, 38.81846 ], [ -77.29752, 38.81865 ], [ -77.29755, 38.81852 ], [ -77.29744, 38.81846 ] ], [ [ -77.2967, 38.82468 ], [ -77.29733, 38.82413 ], [ -77.29629, 38.82374 ], [ -77.29644, 38.82577 ], [ -77.29698, 38.82533 ], [ -77.2967, 38.82468 ] ], [ [ -77.29447, 38.82297 ], [ -77.29449, 38.82305 ], [ -77.29455, 38.823 ], [ -77.29447, 38.82297 ] ], [ [ -77.29065, 38.82278 ], [ -77.28978, 38.82297 ], [ -77.28794, 38.82382 ], [ -77.28791, 38.82471 ], [ -77.28905, 38.82556 ], [ -77.29012, 38.82478 ], [ -77.29128, 38.82456 ], [ -77.29065, 38.82278 ] ], [ [ -77.28872, 38.80515 ], [ -77.28869, 38.80519 ], [ -77.28891, 38.80516 ], [ -77.28872, 38.80515 ] ], [ [ -77.29151, 38.8127 ], [ -77.29175, 38.81264 ], [ -77.2914, 38.81245 ], [ -77.29151, 38.8127 ] ], [ [ -77.29158, 38.80848 ], [ -77.2916, 38.8085 ], [ -77.2916, 38.80848 ], [ -77.29158, 38.80848 ] ], [ [ -77.29166, 38.81171 ], [ -77.29138, 38.81161 ], [ -77.29143, 38.8118 ], [ -77.29166, 38.81171 ] ], [ [ -77.29345, 38.81076 ], [ -77.2934, 38.81066 ], [ -77.29335, 38.81074 ], [ -77.29345, 38.81076 ] ], [ [ -77.29325, 38.81654 ], [ -77.29295, 38.81646 ], [ -77.29305, 38.8167 ], [ -77.29325, 38.81654 ] ], [ [ -77.29349, 38.81968 ], [ -77.29363, 38.81961 ], [ -77.29345, 38.81956 ], [ -77.29349, 38.81968 ] ], [ [ -77.28483, 38.81135 ], [ -77.2848, 38.81155 ], [ -77.28505, 38.81147 ], [ -77.28483, 38.81135 ] ], [ [ -77.28691, 38.81688 ], [ -77.28683, 38.81688 ], [ -77.28689, 38.81691 ], [ -77.28691, 38.81688 ] ], [ [ -77.2833, 38.81738 ], [ -77.28367, 38.81739 ], [ -77.28373, 38.8167 ], [ -77.28304, 38.81654 ], [ -77.2833, 38.81738 ] ], [ [ -77.28216, 38.81641 ], [ -77.28212, 38.81638 ], [ -77.28205, 38.81647 ], [ -77.28216, 38.81641 ] ], [ [ -77.28168, 38.81653 ], [ -77.28161, 38.81727 ], [ -77.28177, 38.81696 ], [ -77.28205, 38.81647 ], [ -77.28168, 38.81653 ] ], [ [ -77.28559, 38.81473 ], [ -77.28557, 38.81487 ], [ -77.28565, 38.81479 ], [ -77.28559, 38.81473 ] ], [ [ -77.28198, 38.81723 ], [ -77.28199, 38.81723 ], [ -77.28197, 38.8172 ], [ -77.28198, 38.81723 ] ] ] } }
]
}
