{
"type": "FeatureCollection",
"name": "395",
"crs": { "type": "name", "properties": { "name": "urn:ogc:def:crs:OGC:1.3:CRS84" } },
"xy_coordinate_resolution": 1e-05,
"features": [
{ "type": "Feature", "properties": { "variant": "T0", "miles": 0.5 }, "geometry": { "type": "Polygon", "coordinates": [ [ [ -77.3094, 38.80505 ], [ -77.31074, 38.80446 ], [ -77.31121, 38.8037 ], [ -77.31174, 38.80371 ], [ -77.31374, 38.80663 ], [ -77.31228, 38.80817 ], [ -77.31275, 38.80904 ], [ -77.3118, 38.80921 ], [ -77.31007, 38.80788 ], [ -77.30958, 38.8086 ], [ -77.30984, 38.80954 ], [ -77.30896, 38.80987 ], [ -77.30823, 38.80883 ], [ -77.3055, 38.80821 ], [ -77.3056, 38.80758 ], [ -77.30483, 38.80719 ], [ -77.30428, 38.80541 ], [ -77.30374, 38.80534 ], [ -77.30327, 38.80451 ], [ -77.30236, 38.80405 ], [ -77.30296, 38.80345 ], [ -77.30493, 38.80333 ], [ -77.30443, 38.80274 ], [ -77.30462, 38.80236 ], [ -77.3051, 38.80219 ], [ -77.30605, 38.80268 ], [ -77.30631, 38.80238 ], [ -77.30505, 38.80208 ], [ -77.30549, 38.80104 ], [ -77.304, 38.80065 ], [ -77.30402, 38.79989 ], [ -77.30645, 38.79995 ], [ -77.30724, 38.80047 ], [ -77.30818, 38.80012 ], [ -77.3089, 38.80047 ], [ -77.30974, 38.79983 ], [ -77.3103, 38.80045 ], [ -77.3094, 38.80505 ] ], [ [ -77.3099, 38.80766 ], [ -77.30912, 38.80647 ], [ -77.30898, 38.80721 ], [ -77.30914, 38.80757 ], [ -77.3099, 38.80766 ] ], [ [ -77.31155, 38.8072 ], [ -77.31121, 38.80727 ], [ -77.31129, 38.80737 ], [ -77.31184, 38.80712 ], [ -77.31155, 38.8072 ] ], [ [ -77.30851, 38.80242 ], [ -77.30857, 38.80209 ], [ -77.30829, 38.80239 ], [ -77.30851, 38.80242 ] ], [ [ -77.31211, 38.8043 ], [ -77.31211, 38.80429 ], [ -77.3121, 38.80433 ], [ -77.31211, 38.8043 ] ], [ [ -77.30609, 38.80732 ], [ -77.30594, 38.80744 ], [ -77.30655, 38.80746 ], [ -77.30609, 38.80732 ] ] ] } },
{ "type": "Feature", "properties": { "variant": "T0", "miles": 1.0 }, "geometry": { "type": "Polygon", "coordinates": [ [ [ -77.3094, 38.80505 ], [ -77.31015, 38.80488 ], [ -77.3111, 38.80371 ], [ -77.31357, 38.80266 ], [ -77.3141, 38.8021 ], [ -77.315, 38.80241 ], [ -77.31458, 38.80344 ], [ -77.31315, 38.804 ], [ -77.31404, 38.80563 ], [ -77.31359, 38.80598 ], [ -77.31335, 38.8073 ], [ -77.31397, 38.80757 ], [ -77.314, 38.80798 ], [ -77.31323, 38.80858 ], [ -77.31396, 38.80938 ], [ -77.31362, 38.80969 ], [ -77.31268, 38.80958 ], [ -77.31221, 38.81018 ], [ -77.31404, 38.81121 ], [ -77.31487, 38.81039 ], [ -77.31539, 38.81045 ], [ -77.31572, 38.81077 ], [ -77.31537, 38.81193 ], [ -77.31627, 38.81067 ], [ -77.31724, 38.81073 ], [ -77.3174, 38.81113 ], [ -77.31655, 38.81251 ], [ -77.31701, 38.81278 ], [ -77.31795, 38.81249 ], [ -77.31828, 38.81321 ], [ -77.31735, 38.81409 ], [ -77.31559, 38.81421 ], [ -77.31525, 38.81389 ], [ -77.31557, 38.8133 ], [ -77.31422, 38.81263 ], [ -77.31297, 38.81317 ], [ -77.31233, 38.81254 ], [ -77.31083, 38.81498 ], [ -77.31062, 38.81647 ], [ -77.30872, 38.81674 ], [ -77.30801, 38.81621 ], [ -77.30796, 38.81505 ], [ -77.30709, 38.81528 ], [ -77.30625, 38.81448 ], [ -77.30641, 38.81178 ], [ -77.30115, 38.81052 ], [ -77.30023, 38.80897 ], [ -77.29966, 38.80946 ], [ -77.2989, 38.80898 ], [ -77.2994, 38.80767 ], [ -77.29866, 38.80697 ], [ -77.2995, 38.80658 ], [ -77.30055, 38.80677 ], [ -77.30154, 38.80552 ], [ -77.30016, 38.80535 ], [ -77.30007, 38.80445 ], [ -77.29941, 38.80383 ], [ -77.29968, 38.80326 ], [ -77.29871, 38.80292 ], [ -77.29841, 38.80199 ], [ -77.29904, 38.80062 ], [ -77.29856, 38.80007 ], [ -77.2988, 38.79917 ], [ -77.29749, 38.79911 ], [ -77.29699, 38.79845 ], [ -77.29768, 38.79799 ], [ -77.30013, 38.79759 ], [ -77.3003, 38.7984 ], [ -77.30177, 38.79958 ], [ -77.30161, 38.79713 ], [ -77.3023, 38.79549 ], [ -77.30325, 38.79514 ], [ -77.30378, 38.79577 ], [ -77.30301, 38.79841 ], [ -77.30378, 38.79876 ], [ -77.30445, 38.79862 ], [ -77.30557, 38.79946 ], [ -77.30553, 38.79989 ], [ -77.30682, 38.7997 ], [ -77.30738, 38.80035 ], [ -77.30818, 38.80012 ], [ -77.3089, 38.80047 ], [ -77.30974, 38.79983 ], [ -77.3103, 38.80045 ], [ -77.3094, 38.80505 ] ], [ [ -77.30785, 38.81155 ], [ -77.30753, 38.81349 ], [ -77.30793, 38.81342 ], [ -77.30842, 38.8111 ], [ -77.30744, 38.8104 ], [ -77.30776, 38.80941 ], [ -77.30621, 38.80909 ], [ -77.30676, 38.80956 ], [ -77.30618, 38.81055 ], [ -77.30785, 38.81155 ] ], [ [ -77.30546, 38.80757 ], [ -77.30544, 38.80777 ], [ -77.3056, 38.80758 ], [ -77.30546, 38.80757 ] ], [ [ -77.30655, 38.80746 ], [ -77.30639, 38.80742 ], [ -77.30594, 38.80744 ], [ -77.30655, 38.80746 ] ], [ [ -77.30851, 38.80242 ], [ -77.30857, 38.80209 ], [ -77.30829, 38.80239 ], [ -77.30851, 38.80242 ] ], [ [ -77.30505, 38.80208 ], [ -77.30493, 38.80169 ], [ -77.30461, 38.80185 ], [ -77.30475, 38.80231 ], [ -77.30605, 38.80268 ], [ -77.30631, 38.80238 ], [ -77.30505, 38.80208 ] ], [ [ -77.30512, 38.80092 ], [ -77.30496, 38.80163 ], [ -77.30537, 38.80129 ], [ -77.30512, 38.80092 ] ], [ [ -77.30964, 38.81439 ], [ -77.30932, 38.81428 ], [ -77.30937, 38.81564 ], [ -77.30964, 38.81439 ] ], [ [ -77.31025, 38.81342 ], [ -77.31152, 38.81113 ], [ -77.3099, 38.81034 ], [ -77.30943, 38.81314 ], [ -77.31025, 38.81342 ] ], [ [ -77.31021, 38.80807 ], [ -77.31007, 38.80788 ], [ -77.31007, 38.80821 ], [ -77.31021, 38.80807 ] ], [ [ -77.30926, 38.80648 ], [ -77.30912, 38.80647 ], [ -77.30913, 38.80757 ], [ -77.3099, 38.80766 ], [ -77.30926, 38.80648 ] ], [ [ -77.31129, 38.80737 ], [ -77.31184, 38.80712 ], [ -77.31155, 38.8072 ], [ -77.31129, 38.80737 ] ], [ [ -77.31254, 38.8122 ], [ -77.31298, 38.81195 ], [ -77.31274, 38.81182 ], [ -77.31254, 38.8122 ] ], [ [ -77.30353, 38.80855 ], [ -77.30309, 38.80898 ], [ -77.30316, 38.80899 ], [ -77.30353, 38.80855 ] ], [ [ -77.30407, 38.80755 ], [ -77.30403, 38.80707 ], [ -77.3035, 38.80741 ], [ -77.30407, 38.80755 ] ], [ [ -77.30307, 38.80553 ], [ -77.30312, 38.80551 ], [ -77.30311, 38.80549 ], [ -77.30307, 38.80553 ] ], [ [ -77.30481, 38.81024 ], [ -77.30503, 38.80995 ], [ -77.3041, 38.80987 ], [ -77.30481, 38.81024 ] ], [ [ -77.30117, 38.80438 ], [ -77.30119, 38.80442 ], [ -77.30125, 38.80442 ], [ -77.30117, 38.80438 ] ], [ [ -77.30198, 38.8071 ], [ -77.30257, 38.80656 ], [ -77.30255, 38.80617 ], [ -77.30198, 38.8071 ] ], [ [ -77.30037, 38.80871 ], [ -77.30042, 38.80865 ], [ -77.3003, 38.80862 ], [ -77.30037, 38.80871 ] ] ] } },
{ "type": "Feature", "properties": { "variant": "T0", "miles": 1.5 }, "geometry": { "type": "Polygon", "coordinates": [ [ [ -77.31317, 38.80419 ], [ -77.31527, 38.80685 ], [ -77.31564, 38.8088 ], [ -77.31676, 38.80923 ], [ -77.31802, 38.80841 ], [ -77.31968, 38.80813 ], [ -77.31799, 38.80731 ], [ -77.31814, 38.80638 ], [ -77.32045, 38.80714 ], [ -77.32105, 38.80839 ], [ -77.32213, 38.809 ], [ -77.32289, 38.80822 ], [ -77.32342, 38.80819 ], [ -77.32386, 38.80887 ], [ -77.32286, 38.80992 ], [ -77.32428, 38.81059 ], [ -77.32464, 38.8113 ], [ -77.32372, 38.81158 ], [ -77.32229, 38.81104 ], [ -77.3217, 38.81191 ], [ -77.32268, 38.81245 ], [ -77.32283, 38.81301 ], [ -77.3241, 38.81209 ], [ -77.32469, 38.81226 ], [ -77.32486, 38.81294 ], [ -77.32249, 38.81558 ], [ -77.3207, 38.81916 ], [ -77.31985, 38.81952 ], [ -77.31849, 38.81903 ], [ -77.31782, 38.81762 ], [ -77.31861, 38.81628 ], [ -77.31631, 38.81499 ], [ -77.31601, 38.81424 ], [ -77.31525, 38.81389 ], [ -77.31557, 38.8133 ], [ -77.31407, 38.81272 ], [ -77.3145, 38.81353 ], [ -77.31401, 38.81518 ], [ -77.31123, 38.81634 ], [ -77.31218, 38.81715 ], [ -77.31231, 38.81964 ], [ -77.3147, 38.81987 ], [ -77.31493, 38.82062 ], [ -77.31333, 38.82092 ], [ -77.31256, 38.82189 ], [ -77.31184, 38.82174 ], [ -77.31174, 38.82261 ], [ -77.3104, 38.82284 ], [ -77.30957, 38.82389 ], [ -77.30904, 38.82384 ], [ -77.30877, 38.82321 ], [ -77.30891, 38.82423 ], [ -77.30779, 38.82492 ], [ -77.30712, 38.82436 ], [ -77.30771, 38.82194 ], [ -77.30591, 38.82175 ], [ -77.30437, 38.82029 ], [ -77.30508, 38.81977 ], [ -77.30709, 38.82092 ], [ -77.30745, 38.8204 ], [ -77.30815, 38.82036 ], [ -77.30813, 38.8195 ], [ -77.30463, 38.81957 ], [ -77.30214, 38.81872 ], [ -77.30019, 38.8199 ], [ -77.29959, 38.8193 ], [ -77.29977, 38.81836 ], [ -77.30033, 38.81815 ], [ -77.30013, 38.81672 ], [ -77.29942, 38.81659 ], [ -77.29803, 38.81544 ], [ -77.29774, 38.81637 ], [ -77.29676, 38.8163 ], [ -77.29663, 38.81463 ], [ -77.29721, 38.81351 ], [ -77.29469, 38.81379 ], [ -77.29346, 38.81357 ], [ -77.29356, 38.81281 ], [ -77.2954, 38.81264 ], [ -77.29686, 38.81055 ], [ -77.29767, 38.81005 ], [ -77.29928, 38.81011 ], [ -77.30206, 38.81174 ], [ -77.30229, 38.81079 ], [ -77.3009, 38.8104 ], [ -77.30084, 38.80957 ], [ -77.30021, 38.8092 ], [ -77.29982, 38.80982 ], [ -77.2993, 38.80989 ], [ -77.29887, 38.80966 ], [ -77.29884, 38.80898 ], [ -77.29792, 38.80912 ], [ -77.29716, 38.80881 ], [ -77.29641, 38.8075 ], [ -77.29534, 38.80701 ], [ -77.29461, 38.80458 ], [ -77.2927, 38.80402 ], [ -77.29264, 38.8031 ], [ -77.29343, 38.80292 ], [ -77.2935, 38.80256 ], [ -77.29245, 38.80273 ], [ -77.29149, 38.80201 ], [ -77.28992, 38.80245 ], [ -77.28951, 38.80219 ], [ -77.28948, 38.80058 ], [ -77.28892, 38.79998 ], [ -77.28967, 38.79942 ], [ -77.29155, 38.79938 ], [ -77.29154, 38.79856 ], [ -77.29198, 38.79833 ], [ -77.2934, 38.79875 ], [ -77.29829, 38.79794 ], [ -77.2996, 38.79755 ], [ -77.30013, 38.79759 ], [ -77.3003, 38.7984 ], [ -77.30177, 38.79958 ], [ -77.3012, 38.79724 ], [ -77.29868, 38.79729 ], [ -77.29784, 38.79788 ], [ -77.29555, 38.79699 ], [ -77.29606, 38.79634 ], [ -77.2975, 38.79669 ], [ -77.29845, 38.79622 ], [ -77.30157, 38.79616 ], [ -77.30235, 38.79519 ], [ -77.30163, 38.79516 ], [ -77.30133, 38.79578 ], [ -77.30017, 38.79607 ], [ -77.29714, 38.79506 ], [ -77.29606, 38.79387 ], [ -77.29678, 38.79269 ], [ -77.29817, 38.79279 ], [ -77.29848, 38.79251 ], [ -77.29752, 38.79248 ], [ -77.29715, 38.79169 ], [ -77.29751, 38.79075 ], [ -77.29832, 38.7908 ], [ -77.29842, 38.78967 ], [ -77.2994, 38.78961 ], [ -77.2997, 38.79079 ], [ -77.30033, 38.79114 ], [ -77.30082, 38.79092 ], [ -77.30063, 38.78885 ], [ -77.30149, 38.78848 ], [ -77.30221, 38.78885 ], [ -77.30207, 38.78976 ], [ -77.30378, 38.7935 ], [ -77.30546, 38.7938 ], [ -77.30565, 38.79419 ], [ -77.30544, 38.79457 ], [ -77.30419, 38.79469 ], [ -77.30331, 38.79688 ], [ -77.30534, 38.79748 ], [ -77.30579, 38.79816 ], [ -77.30493, 38.79851 ], [ -77.30328, 38.79798 ], [ -77.30301, 38.79841 ], [ -77.30378, 38.79876 ], [ -77.30445, 38.79862 ], [ -77.30557, 38.79946 ], [ -77.30553, 38.79989 ], [ -77.30682, 38.7997 ], [ -77.30738, 38.80035 ], [ -77.30818, 38.80012 ], [ -77.3089, 38.80047 ], [ -77.30922, 38.79992 ], [ -77.31018, 38.80005 ], [ -77.3094, 38.80505 ], [ -77.31015, 38.80488 ], [ -77.3111, 38.80371 ], [ -77.31357, 38.80266 ], [ -77.3141, 38.8021 ], [ -77.315, 38.80241 ], [ -77.31444, 38.80353 ], [ -77.31317, 38.80419 ] ], [ [ -77.30623, 38.81443 ], [ -77.30615, 38.81398 ], [ -77.30494, 38.81399 ], [ -77.30418, 38.8136 ], [ -77.30435, 38.81271 ], [ -77.30353, 38.81214 ], [ -77.30482, 38.81136 ], [ -77.30362, 38.81109 ], [ -77.30313, 38.81318 ], [ -77.30384, 38.81329 ], [ -77.30408, 38.81404 ], [ -77.30623, 38.81443 ] ], [ [ -77.30503, 38.80995 ], [ -77.30398, 38.81005 ], [ -77.30481, 38.81024 ], [ -77.30503, 38.80995 ] ], [ [ -77.30403, 38.80707 ], [ -77.3035, 38.80741 ], [ -77.30407, 38.80755 ], [ -77.30403, 38.80707 ] ], [ [ -77.30969, 38.81767 ], [ -77.30941, 38.81672 ], [ -77.30952, 38.81973 ], [ -77.31011, 38.81997 ], [ -77.31092, 38.81951 ], [ -77.31082, 38.81738 ], [ -77.31018, 38.81782 ], [ -77.30969, 38.81767 ] ], [ [ -77.30368, 38.81592 ], [ -77.3023, 38.8152 ], [ -77.30174, 38.8159 ], [ -77.30176, 38.81738 ], [ -77.3048, 38.8185 ], [ -77.30807, 38.81842 ], [ -77.308, 38.81609 ], [ -77.30368, 38.81592 ] ], [ [ -77.30842, 38.8111 ], [ -77.30755, 38.81059 ], [ -77.30721, 38.81089 ], [ -77.30801, 38.81218 ], [ -77.30753, 38.81349 ], [ -77.30792, 38.81324 ], [ -77.30842, 38.8111 ] ], [ [ -77.30725, 38.80963 ], [ -77.30742, 38.8098 ], [ -77.30776, 38.80941 ], [ -77.30725, 38.80963 ] ], [ [ -77.30851, 38.80242 ], [ -77.30857, 38.80209 ], [ -77.30824, 38.80241 ], [ -77.30851, 38.80242 ] ], [ [ -77.32051, 38.81602 ], [ -77.32033, 38.81591 ], [ -77.31934, 38.81771 ], [ -77.31949, 38.81817 ], [ -77.32051, 38.81602 ] ], [ [ -77.31279, 38.81204 ], [ -77.31298, 38.81195 ], [ -77.31274, 38.81182 ], [ -77.31279, 38.81204 ] ], [ [ -77.31441, 38.81071 ], [ -77.31362, 38.80968 ], [ -77.31268, 38.80958 ], [ -77.31221, 38.81018 ], [ -77.31404, 38.81121 ], [ -77.31441, 38.81071 ] ], [ [ -77.31407, 38.80744 ], [ -77.31367, 38.80686 ], [ -77.31335, 38.8073 ], [ -77.31397, 38.80757 ], [ -77.314, 38.80798 ], [ -77.31323, 38.80858 ], [ -77.31411, 38.80884 ], [ -77.31407, 38.80744 ] ], [ [ -77.31946, 38.81318 ], [ -77.31928, 38.81346 ], [ -77.32005, 38.81338 ], [ -77.32032, 38.81248 ], [ -77.31994, 38.81227 ], [ -77.31946, 38.81318 ] ], [ [ -77.31785, 38.81113 ], [ -77.31684, 38.8122 ], [ -77.31734, 38.81226 ], [ -77.31785, 38.81113 ] ], [ [ -77.31581, 38.81076 ], [ -77.31567, 38.81161 ], [ -77.31591, 38.81107 ], [ -77.31581, 38.81076 ] ], [ [ -77.32142, 38.81006 ], [ -77.3214, 38.81014 ], [ -77.32146, 38.81013 ], [ -77.32142, 38.81006 ] ], [ [ -77.3151, 38.80977 ], [ -77.31582, 38.81052 ], [ -77.31598, 38.81012 ], [ -77.3151, 38.80977 ] ], [ [ -77.32058, 38.80954 ], [ -77.32084, 38.80954 ], [ -77.3207, 38.80947 ], [ -77.32058, 38.80954 ] ], [ [ -77.32147, 38.8131 ], [ -77.32114, 38.81503 ], [ -77.32254, 38.81331 ], [ -77.32147, 38.8131 ] ], [ [ -77.31892, 38.81385 ], [ -77.31913, 38.81396 ], [ -77.31907, 38.81386 ], [ -77.31918, 38.81361 ], [ -77.31892, 38.81385 ] ], [ [ -77.31184, 38.80712 ], [ -77.31121, 38.80727 ], [ -77.31168, 38.80717 ], [ -77.31184, 38.80712 ] ], [ [ -77.30912, 38.80647 ], [ -77.30913, 38.80757 ], [ -77.3099, 38.80766 ], [ -77.30912, 38.80647 ] ], [ [ -77.30932, 38.81311 ], [ -77.31025, 38.81342 ], [ -77.31152, 38.81113 ], [ -77.3099, 38.81034 ], [ -77.30932, 38.81311 ] ], [ [ -77.31037, 38.80826 ], [ -77.31007, 38.80788 ], [ -77.31014, 38.80812 ], [ -77.31037, 38.80826 ] ], [ [ -77.31078, 38.81531 ], [ -77.31178, 38.81342 ], [ -77.3112, 38.81436 ], [ -77.31078, 38.81531 ] ], [ [ -77.30964, 38.81439 ], [ -77.30932, 38.81428 ], [ -77.30933, 38.81444 ], [ -77.30937, 38.81564 ], [ -77.30964, 38.81439 ] ], [ [ -77.3129, 38.81448 ], [ -77.31302, 38.81393 ], [ -77.31271, 38.81467 ], [ -77.3129, 38.81448 ] ], [ [ -77.3089, 38.82274 ], [ -77.30881, 38.82307 ], [ -77.30895, 38.8229 ], [ -77.3089, 38.82274 ] ], [ [ -77.31046, 38.82173 ], [ -77.31035, 38.82213 ], [ -77.31048, 38.82199 ], [ -77.31046, 38.82173 ] ], [ [ -77.30509, 38.80136 ], [ -77.30496, 38.80163 ], [ -77.30549, 38.80104 ], [ -77.30509, 38.80136 ] ], [ [ -77.30475, 38.80231 ], [ -77.30605, 38.80268 ], [ -77.30631, 38.80238 ], [ -77.30505, 38.80208 ], [ -77.30493, 38.80169 ], [ -77.30475, 38.80231 ] ], [ [ -77.30594, 38.80744 ], [ -77.30655, 38.80746 ], [ -77.30623, 38.8074 ], [ -77.30594, 38.80744 ] ], [ [ -77.30544, 38.80777 ], [ -77.3056, 38.80758 ], [ -77.30546, 38.80757 ], [ -77.30544, 38.80777 ] ], [ [ -77.30623, 38.81048 ], [ -77.30618, 38.81055 ], [ -77.30624, 38.81056 ], [ -77.30623, 38.81048 ] ], [ [ -77.30551, 38.81231 ], [ -77.30466, 38.81267 ], [ -77.30585, 38.81225 ], [ -77.30644, 38.81262 ], [ -77.30648, 38.81184 ], [ -77.3062, 38.81168 ], [ -77.30551, 38.81231 ] ], [ [ -77.30006, 38.81425 ], [ -77.3, 38.81426 ], [ -77.3001, 38.81429 ], [ -77.30006, 38.81425 ] ], [ [ -77.30096, 38.813 ], [ -77.30114, 38.81256 ], [ -77.30103, 38.81247 ], [ -77.30096, 38.813 ] ], [ [ -77.2992, 38.81207 ], [ -77.29899, 38.81126 ], [ -77.29844, 38.81102 ], [ -77.29745, 38.81193 ], [ -77.29909, 38.81299 ], [ -77.30003, 38.81196 ], [ -77.2992, 38.81207 ] ], [ [ -77.3003, 38.80862 ], [ -77.30028, 38.80876 ], [ -77.30037, 38.80871 ], [ -77.3003, 38.80862 ] ], [ [ -77.30086, 38.80615 ], [ -77.30154, 38.80552 ], [ -77.30081, 38.8055 ], [ -77.30089, 38.806 ], [ -77.29943, 38.80656 ], [ -77.30055, 38.80676 ], [ -77.30086, 38.80615 ] ], [ [ -77.29968, 38.80326 ], [ -77.29874, 38.80352 ], [ -77.29939, 38.80372 ], [ -77.29968, 38.80326 ] ], [ [ -77.30257, 38.80656 ], [ -77.30255, 38.80617 ], [ -77.3019, 38.80708 ], [ -77.30257, 38.80656 ] ], [ [ -77.30316, 38.80899 ], [ -77.30353, 38.80855 ], [ -77.30343, 38.80852 ], [ -77.30316, 38.80899 ] ], [ [ -77.30307, 38.8055 ], [ -77.30307, 38.80553 ], [ -77.30312, 38.80551 ], [ -77.30307, 38.8055 ] ], [ [ -77.30125, 38.80442 ], [ -77.30117, 38.80438 ], [ -77.30119, 38.80442 ], [ -77.30125, 38.80442 ] ], [ [ -77.29724, 38.80713 ], [ -77.29718, 38.80711 ], [ -77.29716, 38.80714 ], [ -77.29724, 38.80713 ] ], [ [ -77.29887, 38.80138 ], [ -77.2988, 38.79917 ], [ -77.29763, 38.79915 ], [ -77.29807, 38.7995 ], [ -77.29799, 38.79991 ], [ -77.29718, 38.80023 ], [ -77.2969, 38.80119 ], [ -77.29887, 38.80138 ] ], [ [ -77.29857, 38.80217 ], [ -77.29826, 38.8025 ], [ -77.29878, 38.8025 ], [ -77.29857, 38.80217 ] ], [ [ -77.29837, 38.80535 ], [ -77.29781, 38.80544 ], [ -77.29781, 38.80608 ], [ -77.29851, 38.80634 ], [ -77.29812, 38.80563 ], [ -77.29837, 38.80535 ] ], [ [ -77.29879, 38.80478 ], [ -77.29845, 38.80529 ], [ -77.29881, 38.80524 ], [ -77.29879, 38.80478 ] ], [ [ -77.29767, 38.80739 ], [ -77.29813, 38.80803 ], [ -77.29848, 38.80746 ], [ -77.29731, 38.80717 ], [ -77.29767, 38.80739 ] ], [ [ -77.2937, 38.80087 ], [ -77.2941, 38.80068 ], [ -77.29409, 38.80066 ], [ -77.2937, 38.80087 ] ], [ [ -77.29365, 38.80242 ], [ -77.29363, 38.80239 ], [ -77.29363, 38.8024 ], [ -77.29365, 38.80242 ] ], [ [ -77.2979, 38.79403 ], [ -77.29798, 38.79406 ], [ -77.29799, 38.79405 ], [ -77.2979, 38.79403 ] ] ] } },
{ "type": "Feature", "properties": { "variant": "T2s", "miles": 0.5 }, "geometry": { "type": "Polygon", "coordinates": [ [ [ -77.3094, 38.80505 ], [ -77.31074, 38.80446 ], [ -77.31121, 38.8037 ], [ -77.31174, 38.80371 ], [ -77.31374, 38.80663 ], [ -77.31228, 38.80817 ], [ -77.31275, 38.80904 ], [ -77.3118, 38.80921 ], [ -77.31007, 38.80788 ], [ -77.30958, 38.8086 ], [ -77.30984, 38.80954 ], [ -77.30896, 38.80987 ], [ -77.30823, 38.80883 ], [ -77.3055, 38.80821 ], [ -77.3056, 38.80758 ], [ -77.30483, 38.80719 ], [ -77.30428, 38.80541 ], [ -77.30374, 38.80534 ], [ -77.30327, 38.80451 ], [ -77.30236, 38.80405 ], [ -77.30296, 38.80345 ], [ -77.30493, 38.80333 ], [ -77.30443, 38.80274 ], [ -77.30462, 38.80236 ], [ -77.3051, 38.80219 ], [ -77.30605, 38.80268 ], [ -77.30631, 38.80238 ], [ -77.30505, 38.80208 ], [ -77.30549, 38.80104 ], [ -77.304, 38.80065 ], [ -77.30402, 38.79989 ], [ -77.30645, 38.79995 ], [ -77.30724, 38.80047 ], [ -77.30818, 38.80012 ], [ -77.3089, 38.80047 ], [ -77.30974, 38.79983 ], [ -77.3103, 38.80045 ], [ -77.3094, 38.80505 ] ], [ [ -77.3099, 38.80766 ], [ -77.30912, 38.80647 ], [ -77.30898, 38.80721 ], [ -77.30914, 38.80757 ], [ -77.3099, 38.80766 ] ], [ [ -77.31155, 38.8072 ], [ -77.31121, 38.80727 ], [ -77.31129, 38.80737 ], [ -77.31184, 38.80712 ], [ -77.31155, 38.8072 ] ], [ [ -77.30851, 38.80242 ], [ -77.30857, 38.80209 ], [ -77.30829, 38.80239 ], [ -77.30851, 38.80242 ] ], [ [ -77.31211, 38.8043 ], [ -77.31211, 38.80429 ], [ -77.3121, 38.80433 ], [ -77.31211, 38.8043 ] ], [ [ -77.30609, 38.80732 ], [ -77.30594, 38.80744 ], [ -77.30655, 38.80746 ], [ -77.30609, 38.80732 ] ] ] } },
{ "type": "Feature", "properties": { "variant": "T2s", "miles": 1.0 }, "geometry": { "type": "Polygon", "coordinates": [ [ [ -77.3094, 38.80505 ], [ -77.31015, 38.80488 ], [ -77.3111, 38.80371 ], [ -77.31357, 38.80266 ], [ -77.3141, 38.8021 ], [ -77.315, 38.80241 ], [ -77.31458, 38.80344 ], [ -77.31315, 38.804 ], [ -77.31404, 38.80563 ], [ -77.31359, 38.80598 ], [ -77.31335, 38.8073 ], [ -77.31397, 38.80757 ], [ -77.314, 38.80798 ], [ -77.31323, 38.80858 ], [ -77.31396, 38.80938 ], [ -77.31362, 38.80969 ], [ -77.31268, 38.80958 ], [ -77.31221, 38.81018 ], [ -77.31404, 38.81121 ], [ -77.31487, 38.81039 ], [ -77.31539, 38.81045 ], [ -77.31572, 38.81077 ], [ -77.31537, 38.81193 ], [ -77.31627, 38.81067 ], [ -77.31724, 38.81073 ], [ -77.3174, 38.81113 ], [ -77.31655, 38.81251 ], [ -77.31701, 38.81278 ], [ -77.31795, 38.81249 ], [ -77.31828, 38.81321 ], [ -77.31735, 38.81409 ], [ -77.31559, 38.81421 ], [ -77.31525, 38.81389 ], [ -77.31557, 38.8133 ], [ -77.31422, 38.81263 ], [ -77.31297, 38.81317 ], [ -77.31233, 38.81254 ], [ -77.31083, 38.81498 ], [ -77.31062, 38.81647 ], [ -77.30872, 38.81674 ], [ -77.30801, 38.81621 ], [ -77.30796, 38.81505 ], [ -77.30709, 38.81528 ], [ -77.30617, 38.81418 ], [ -77.30634, 38.81308 ], [ -77.30683, 38.81292 ], [ -77.30793, 38.81342 ], [ -77.30842, 38.8111 ], [ -77.30744, 38.8104 ], [ -77.30776, 38.80941 ], [ -77.30621, 38.80909 ], [ -77.30508, 38.80994 ], [ -77.3041, 38.80987 ], [ -77.30583, 38.81063 ], [ -77.30556, 38.81137 ], [ -77.30305, 38.81097 ], [ -77.3009, 38.8104 ], [ -77.30084, 38.80957 ], [ -77.30018, 38.80917 ], [ -77.30027, 38.80783 ], [ -77.29873, 38.80738 ], [ -77.29898, 38.80664 ], [ -77.30055, 38.80677 ], [ -77.30154, 38.80552 ], [ -77.30016, 38.80535 ], [ -77.30007, 38.80445 ], [ -77.29941, 38.80383 ], [ -77.29968, 38.80326 ], [ -77.29871, 38.80292 ], [ -77.29841, 38.80199 ], [ -77.29904, 38.80062 ], [ -77.29856, 38.80007 ], [ -77.2988, 38.79917 ], [ -77.29749, 38.79911 ], [ -77.29699, 38.79845 ], [ -77.29768, 38.79799 ], [ -77.30013, 38.79759 ], [ -77.3003, 38.7984 ], [ -77.30177, 38.79958 ], [ -77.30161, 38.79713 ], [ -77.3023, 38.79549 ], [ -77.30325, 38.79514 ], [ -77.30378, 38.79577 ], [ -77.30301, 38.79841 ], [ -77.30378, 38.79876 ], [ -77.30445, 38.79862 ], [ -77.30557, 38.79946 ], [ -77.30553, 38.79989 ], [ -77.30682, 38.7997 ], [ -77.30738, 38.80035 ], [ -77.30818, 38.80012 ], [ -77.3089, 38.80047 ], [ -77.30974, 38.79983 ], [ -77.3103, 38.80045 ], [ -77.3094, 38.80505 ] ], [ [ -77.30546, 38.80757 ], [ -77.30544, 38.80777 ], [ -77.3056, 38.80758 ], [ -77.30546, 38.80757 ] ], [ [ -77.30655, 38.80746 ], [ -77.30639, 38.80742 ], [ -77.30594, 38.80744 ], [ -77.30655, 38.80746 ] ], [ [ -77.30505, 38.80208 ], [ -77.30493, 38.80169 ], [ -77.30461, 38.80185 ], [ -77.30475, 38.80231 ], [ -77.30605, 38.80268 ], [ -77.30623, 38.8024 ], [ -77.30505, 38.80208 ] ], [ [ -77.30851, 38.80242 ], [ -77.30857, 38.80209 ], [ -77.30829, 38.80239 ], [ -77.30851, 38.80242 ] ], [ [ -77.30964, 38.81439 ], [ -77.30932, 38.81428 ], [ -77.30937, 38.81564 ], [ -77.30964, 38.81439 ] ], [ [ -77.31025, 38.81342 ], [ -77.31152, 38.81113 ], [ -77.3099, 38.81034 ], [ -77.30943, 38.81314 ], [ -77.31025, 38.81342 ] ], [ [ -77.31021, 38.80807 ], [ -77.31007, 38.80788 ], [ -77.31007, 38.80821 ], [ -77.31021, 38.80807 ] ], [ [ -77.30926, 38.80648 ], [ -77.30912, 38.80647 ], [ -77.30913, 38.80757 ], [ -77.3099, 38.80766 ], [ -77.30926, 38.80648 ] ], [ [ -77.31129, 38.80737 ], [ -77.31184, 38.80712 ], [ -77.31155, 38.8072 ], [ -77.31129, 38.80737 ] ], [ [ -77.31254, 38.8122 ], [ -77.31298, 38.81195 ], [ -77.31274, 38.81182 ], [ -77.31254, 38.8122 ] ], [ [ -77.30509, 38.80136 ], [ -77.30496, 38.80163 ], [ -77.30549, 38.80104 ], [ -77.30509, 38.80136 ] ], [ [ -77.30353, 38.80855 ], [ -77.30309, 38.80898 ], [ -77.30316, 38.80899 ], [ -77.30353, 38.80855 ] ], [ [ -77.30407, 38.80755 ], [ -77.30403, 38.80707 ], [ -77.3035, 38.80741 ], [ -77.30407, 38.80755 ] ], [ [ -77.30307, 38.80553 ], [ -77.30312, 38.80551 ], [ -77.30311, 38.80549 ], [ -77.30307, 38.80553 ] ], [ [ -77.30125, 38.80442 ], [ -77.30117, 38.80438 ], [ -77.30119, 38.80442 ], [ -77.30125, 38.80442 ] ], [ [ -77.30199, 38.80821 ], [ -77.30203, 38.80826 ], [ -77.30206, 38.80822 ], [ -77.30199, 38.80821 ] ], [ [ -77.30198, 38.8071 ], [ -77.30257, 38.80656 ], [ -77.30255, 38.80617 ], [ -77.30198, 38.8071 ] ] ] } },
{ "type": "Feature", "properties": { "variant": "T2s", "miles": 1.5 }, "geometry": { "type": "Polygon", "coordinates": [ [ [ -77.31317, 38.80419 ], [ -77.31527, 38.80685 ], [ -77.31564, 38.8088 ], [ -77.31676, 38.80923 ], [ -77.31802, 38.80841 ], [ -77.31968, 38.80813 ], [ -77.31784, 38.80711 ], [ -77.3178, 38.8067 ], [ -77.31866, 38.80635 ], [ -77.32055, 38.80722 ], [ -77.32105, 38.80839 ], [ -77.32213, 38.809 ], [ -77.32289, 38.80822 ], [ -77.32382, 38.80846 ], [ -77.3237, 38.80918 ], [ -77.32286, 38.80992 ], [ -77.32428, 38.81059 ], [ -77.32464, 38.8113 ], [ -77.32372, 38.81158 ], [ -77.32205, 38.81111 ], [ -77.3222, 38.81148 ], [ -77.3217, 38.81191 ], [ -77.32268, 38.81245 ], [ -77.32282, 38.81312 ], [ -77.32242, 38.81339 ], [ -77.32147, 38.8131 ], [ -77.321, 38.81495 ], [ -77.32217, 38.8157 ], [ -77.32214, 38.81612 ], [ -77.32036, 38.81948 ], [ -77.31844, 38.81898 ], [ -77.31782, 38.81762 ], [ -77.31861, 38.81628 ], [ -77.31631, 38.81499 ], [ -77.31601, 38.81424 ], [ -77.31525, 38.81389 ], [ -77.31557, 38.8133 ], [ -77.31407, 38.81272 ], [ -77.3145, 38.81353 ], [ -77.31401, 38.81518 ], [ -77.31123, 38.81634 ], [ -77.31218, 38.81715 ], [ -77.31231, 38.81964 ], [ -77.3147, 38.81987 ], [ -77.31493, 38.82062 ], [ -77.31333, 38.82092 ], [ -77.31256, 38.82189 ], [ -77.31184, 38.82174 ], [ -77.31174, 38.82261 ], [ -77.3104, 38.82284 ], [ -77.30957, 38.82389 ], [ -77.30904, 38.82384 ], [ -77.30877, 38.82321 ], [ -77.30891, 38.82423 ], [ -77.30863, 38.82458 ], [ -77.30771, 38.82461 ], [ -77.30714, 38.82402 ], [ -77.30771, 38.82194 ], [ -77.30591, 38.82175 ], [ -77.30437, 38.82029 ], [ -77.30508, 38.81977 ], [ -77.30709, 38.82092 ], [ -77.30745, 38.8204 ], [ -77.30815, 38.82036 ], [ -77.30813, 38.8195 ], [ -77.30463, 38.81957 ], [ -77.30214, 38.81872 ], [ -77.30111, 38.81907 ], [ -77.30029, 38.81806 ], [ -77.30013, 38.81672 ], [ -77.29942, 38.81659 ], [ -77.29795, 38.81533 ], [ -77.29826, 38.81386 ], [ -77.29751, 38.81349 ], [ -77.29575, 38.81353 ], [ -77.29547, 38.81317 ], [ -77.29559, 38.81277 ], [ -77.29736, 38.8119 ], [ -77.29909, 38.81299 ], [ -77.3002, 38.81198 ], [ -77.2992, 38.81207 ], [ -77.29884, 38.81176 ], [ -77.29944, 38.81085 ], [ -77.30041, 38.81075 ], [ -77.30206, 38.81174 ], [ -77.30229, 38.81079 ], [ -77.3009, 38.8104 ], [ -77.30084, 38.80957 ], [ -77.30021, 38.8092 ], [ -77.29982, 38.80982 ], [ -77.2993, 38.80989 ], [ -77.29887, 38.80966 ], [ -77.29884, 38.80898 ], [ -77.29792, 38.80912 ], [ -77.29716, 38.80881 ], [ -77.29641, 38.8075 ], [ -77.29534, 38.80701 ], [ -77.29461, 38.80458 ], [ -77.2927, 38.80402 ], [ -77.29264, 38.8031 ], [ -77.29343, 38.80292 ], [ -77.2935, 38.80256 ], [ -77.29245, 38.80273 ], [ -77.29149, 38.80201 ], [ -77.28992, 38.80245 ], [ -77.28951, 38.80219 ], [ -77.28948, 38.80058 ], [ -77.28892, 38.79998 ], [ -77.28967, 38.79942 ], [ -77.29155, 38.79938 ], [ -77.29154, 38.79856 ], [ -77.29198, 38.79833 ], [ -77.2934, 38.79875 ], [ -77.29829, 38.79794 ], [ -77.2996, 38.79755 ], [ -77.30013, 38.79759 ], [ -77.3003, 38.7984 ], [ -77.30177, 38.79958 ], [ -77.3012, 38.79724 ], [ -77.29868, 38.79729 ], [ -77.29784, 38.79788 ], [ -77.29555, 38.79699 ], [ -77.29606, 38.79634 ], [ -77.2975, 38.79669 ], [ -77.29845, 38.79622 ], [ -77.30157, 38.79616 ], [ -77.30235, 38.79519 ], [ -77.30163, 38.79516 ], [ -77.30133, 38.79578 ], [ -77.30017, 38.79607 ], [ -77.29834, 38.79565 ], [ -77.29809, 38.79528 ], [ -77.29847, 38.79479 ], [ -77.29799, 38.79405 ], [ -77.29672, 38.79441 ], [ -77.29606, 38.79387 ], [ -77.29678, 38.79269 ], [ -77.29817, 38.79279 ], [ -77.29848, 38.79251 ], [ -77.29752, 38.79248 ], [ -77.29724, 38.79213 ], [ -77.29751, 38.79075 ], [ -77.29832, 38.7908 ], [ -77.29894, 38.79022 ], [ -77.30033, 38.79114 ], [ -77.30082, 38.79092 ], [ -77.30063, 38.78885 ], [ -77.30149, 38.78848 ], [ -77.30221, 38.78885 ], [ -77.30207, 38.78976 ], [ -77.30378, 38.7935 ], [ -77.30546, 38.7938 ], [ -77.30565, 38.79419 ], [ -77.30544, 38.79457 ], [ -77.30419, 38.79469 ], [ -77.30331, 38.79688 ], [ -77.30534, 38.79748 ], [ -77.30579, 38.79816 ], [ -77.30493, 38.79851 ], [ -77.30328, 38.79798 ], [ -77.30301, 38.79841 ], [ -77.30378, 38.79876 ], [ -77.30445, 38.79862 ], [ -77.30557, 38.79946 ], [ -77.30553, 38.79989 ], [ -77.30682, 38.7997 ], [ -77.30738, 38.80035 ], [ -77.30818, 38.80012 ], [ -77.3089, 38.80047 ], [ -77.30922, 38.79992 ], [ -77.31018, 38.80005 ], [ -77.3094, 38.80505 ], [ -77.31015, 38.80488 ], [ -77.3111, 38.80371 ], [ -77.31357, 38.80266 ], [ -77.3141, 38.8021 ], [ -77.315, 38.80241 ], [ -77.31444, 38.80353 ], [ -77.31317, 38.80419 ] ], [ [ -77.30623, 38.81443 ], [ -77.30615, 38.81398 ], [ -77.30494, 38.81399 ], [ -77.30418, 38.8136 ], [ -77.30435, 38.81271 ], [ -77.30353, 38.81214 ], [ -77.30482, 38.81136 ], [ -77.30362, 38.81109 ], [ -77.30313, 38.81318 ], [ -77.30384, 38.81329 ], [ -77.30408, 38.81404 ], [ -77.30623, 38.81443 ] ], [ [ -77.3041, 38.80987 ], [ -77.30398, 38.81005 ], [ -77.30481, 38.81024 ], [ -77.3041, 38.80987 ] ], [ [ -77.30403, 38.80707 ], [ -77.3035, 38.80741 ], [ -77.30407, 38.80755 ], [ -77.30403, 38.80707 ] ], [ [ -77.30969, 38.81767 ], [ -77.30941, 38.81672 ], [ -77.30952, 38.81973 ], [ -77.31011, 38.81997 ], [ -77.31092, 38.81951 ], [ -77.31082, 38.81738 ], [ -77.31018, 38.81782 ], [ -77.30969, 38.81767 ] ], [ [ -77.308, 38.81609 ], [ -77.30368, 38.81592 ], [ -77.30262, 38.81519 ], [ -77.30174, 38.8159 ], [ -77.30176, 38.81738 ], [ -77.30426, 38.81834 ], [ -77.30807, 38.81842 ], [ -77.308, 38.81609 ] ], [ [ -77.30842, 38.8111 ], [ -77.30755, 38.81059 ], [ -77.30721, 38.81089 ], [ -77.30801, 38.81218 ], [ -77.30753, 38.81349 ], [ -77.30792, 38.81324 ], [ -77.30842, 38.8111 ] ], [ [ -77.30725, 38.80963 ], [ -77.30742, 38.8098 ], [ -77.30776, 38.80941 ], [ -77.30725, 38.80963 ] ], [ [ -77.30851, 38.80242 ], [ -77.30857, 38.80209 ], [ -77.30824, 38.80241 ], [ -77.30851, 38.80242 ] ], [ [ -77.32051, 38.81602 ], [ -77.32033, 38.81591 ], [ -77.31934, 38.81771 ], [ -77.31949, 38.81817 ], [ -77.32051, 38.81602 ] ], [ [ -77.31279, 38.81204 ], [ -77.31298, 38.81195 ], [ -77.31274, 38.81182 ], [ -77.31279, 38.81204 ] ], [ [ -77.31441, 38.81071 ], [ -77.31362, 38.80968 ], [ -77.31268, 38.80958 ], [ -77.31221, 38.81018 ], [ -77.31404, 38.81121 ], [ -77.31441, 38.81071 ] ], [ [ -77.31407, 38.80744 ], [ -77.31367, 38.80686 ], [ -77.31335, 38.8073 ], [ -77.31397, 38.80757 ], [ -77.314, 38.80798 ], [ -77.31323, 38.80858 ], [ -77.31411, 38.80884 ], [ -77.31407, 38.80744 ] ], [ [ -77.31946, 38.81318 ], [ -77.31928, 38.81346 ], [ -77.32005, 38.81338 ], [ -77.32032, 38.81248 ], [ -77.31994, 38.81227 ], [ -77.31946, 38.81318 ] ], [ [ -77.31684, 38.8122 ], [ -77.31734, 38.81226 ], [ -77.31801, 38.81121 ], [ -77.31684, 38.8122 ] ], [ [ -77.31581, 38.81076 ], [ -77.31567, 38.81161 ], [ -77.31591, 38.81107 ], [ -77.31581, 38.81076 ] ], [ [ -77.32142, 38.81006 ], [ -77.3214, 38.81014 ], [ -77.32146, 38.81013 ], [ -77.32142, 38.81006 ] ], [ [ -77.3207, 38.80947 ], [ -77.32058, 38.80941 ], [ -77.32058, 38.80954 ], [ -77.3207, 38.80947 ] ], [ [ -77.3151, 38.80977 ], [ -77.31582, 38.81052 ], [ -77.31598, 38.81012 ], [ -77.3151, 38.80977 ] ], [ [ -77.31892, 38.81385 ], [ -77.31913, 38.81396 ], [ -77.31907, 38.81386 ], [ -77.31918, 38.81361 ], [ -77.31892, 38.81385 ] ], [ [ -77.31121, 38.80727 ], [ -77.31149, 38.80722 ], [ -77.31184, 38.80712 ], [ -77.31121, 38.80727 ] ], [ [ -77.30912, 38.80647 ], [ -77.30913, 38.80757 ], [ -77.3099, 38.80766 ], [ -77.30912, 38.80647 ] ], [ [ -77.30932, 38.81311 ], [ -77.31025, 38.81342 ], [ -77.31152, 38.81113 ], [ -77.3099, 38.81034 ], [ -77.30932, 38.81311 ] ], [ [ -77.31037, 38.80826 ], [ -77.31007, 38.80788 ], [ -77.31014, 38.80812 ], [ -77.31037, 38.80826 ] ], [ [ -77.31078, 38.81531 ], [ -77.31178, 38.81342 ], [ -77.3112, 38.81436 ], [ -77.31078, 38.81531 ] ], [ [ -77.30964, 38.81439 ], [ -77.30932, 38.81428 ], [ -77.30933, 38.81444 ], [ -77.30937, 38.81564 ], [ -77.30964, 38.81439 ] ], [ [ -77.3129, 38.81448 ], [ -77.31302, 38.81393 ], [ -77.31271, 38.81467 ], [ -77.3129, 38.81448 ] ], [ [ -77.3089, 38.82274 ], [ -77.30881, 38.82307 ], [ -77.30895, 38.8229 ], [ -77.3089, 38.82274 ] ], [ [ -77.31046, 38.82173 ], [ -77.31035, 38.82213 ], [ -77.31048, 38.82199 ], [ -77.31046, 38.82173 ] ], [ [ -77.30594, 38.80744 ], [ -77.30655, 38.80746 ], [ -77.30653, 38.80736 ], [ -77.30594, 38.80744 ] ], [ [ -77.30544, 38.80777 ], [ -77.3056, 38.80758 ], [ -77.30546, 38.80757 ], [ -77.30544, 38.80777 ] ], [ [ -77.30509, 38.80136 ], [ -77.30496, 38.80163 ], [ -77.30549, 38.80104 ], [ -77.30509, 38.80136 ] ], [ [ -77.30631, 38.80238 ], [ -77.30505, 38.80208 ], [ -77.30493, 38.80169 ], [ -77.30461, 38.80185 ], [ -77.30475, 38.80231 ], [ -77.30598, 38.80262 ], [ -77.30631, 38.80238 ] ], [ [ -77.30623, 38.81048 ], [ -77.30618, 38.81055 ], [ -77.30624, 38.81056 ], [ -77.30623, 38.81048 ] ], [ [ -77.30551, 38.81231 ], [ -77.30466, 38.81267 ], [ -77.30585, 38.81225 ], [ -77.30644, 38.81262 ], [ -77.30648, 38.81184 ], [ -77.3062, 38.81168 ], [ -77.30551, 38.81231 ] ], [ [ -77.30006, 38.81425 ], [ -77.3, 38.81426 ], [ -77.3001, 38.81429 ], [ -77.30006, 38.81425 ] ], [ [ -77.30096, 38.813 ], [ -77.30114, 38.81256 ], [ -77.30103, 38.81247 ], [ -77.30096, 38.813 ] ], [ [ -77.3003, 38.80862 ], [ -77.30028, 38.80876 ], [ -77.30037, 38.80871 ], [ -77.3003, 38.80862 ] ], [ [ -77.30086, 38.80615 ], [ -77.30154, 38.80552 ], [ -77.30081, 38.8055 ], [ -77.30089, 38.806 ], [ -77.29943, 38.80656 ], [ -77.30055, 38.80676 ], [ -77.30086, 38.80615 ] ], [ [ -77.30257, 38.80656 ], [ -77.30255, 38.80617 ], [ -77.3019, 38.80708 ], [ -77.30257, 38.80656 ] ], [ [ -77.30353, 38.80855 ], [ -77.30309, 38.80898 ], [ -77.30316, 38.80899 ], [ -77.30353, 38.80855 ] ], [ [ -77.30307, 38.8055 ], [ -77.30307, 38.80553 ], [ -77.30312, 38.80551 ], [ -77.30307, 38.8055 ] ], [ [ -77.30117, 38.80438 ], [ -77.30119, 38.80442 ], [ -77.30125, 38.80442 ], [ -77.30117, 38.80438 ] ], [ [ -77.29724, 38.80713 ], [ -77.29718, 38.80711 ], [ -77.29716, 38.80714 ], [ -77.29724, 38.80713 ] ], [ [ -77.29887, 38.80138 ], [ -77.29904, 38.80062 ], [ -77.29856, 38.80007 ], [ -77.2988, 38.79917 ], [ -77.29775, 38.79912 ], [ -77.29799, 38.79991 ], [ -77.29718, 38.80023 ], [ -77.29697, 38.80143 ], [ -77.29887, 38.80138 ] ], [ [ -77.29939, 38.80372 ], [ -77.29968, 38.80326 ], [ -77.29921, 38.80325 ], [ -77.29879, 38.80351 ], [ -77.29939, 38.80372 ] ], [ [ -77.29857, 38.80217 ], [ -77.29826, 38.8025 ], [ -77.29878, 38.8025 ], [ -77.29857, 38.80217 ] ], [ [ -77.29837, 38.80535 ], [ -77.29781, 38.80544 ], [ -77.29781, 38.80608 ], [ -77.29851, 38.80634 ], [ -77.29812, 38.80563 ], [ -77.29837, 38.80535 ] ], [ [ -77.29879, 38.80478 ], [ -77.29845, 38.80529 ], [ -77.29881, 38.80524 ], [ -77.29879, 38.80478 ] ], [ [ -77.29767, 38.80739 ], [ -77.29813, 38.80803 ], [ -77.29848, 38.80746 ], [ -77.29731, 38.80717 ], [ -77.29767, 38.80739 ] ], [ [ -77.2937, 38.80087 ], [ -77.2941, 38.80068 ], [ -77.29409, 38.80066 ], [ -77.2937, 38.80087 ] ], [ [ -77.29359, 38.80245 ], [ -77.29365, 38.80242 ], [ -77.29363, 38.8024 ], [ -77.29359, 38.80245 ] ] ] } }
]
}
