{
"type": "FeatureCollection",
"name": "401",
"crs": { "type": "name", "properties": { "name": "urn:ogc:def:crs:OGC:1.3:CRS84" } },
"xy_coordinate_resolution": 1e-05,
"features": [
{ "type": "Feature", "properties": { "variant": "T0", "miles": 1.0 }, "geometry": { "type": "Polygon", "coordinates": [ [ [ -77.2741, 38.79458 ], [ -77.27517, 38.79571 ], [ -77.27584, 38.79579 ], [ -77.27623, 38.79658 ], [ -77.27488, 38.79732 ], [ -77.27395, 38.79693 ], [ -77.27379, 38.79636 ], [ -77.27341, 38.7976 ], [ -77.27537, 38.79845 ], [ -77.27685, 38.80039 ], [ -77.27746, 38.8003 ], [ -77.27795, 38.80096 ], [ -77.27629, 38.8016 ], [ -77.27444, 38.79925 ], [ -77.27218, 38.79852 ], [ -77.27123, 38.79915 ], [ -77.26963, 38.79949 ], [ -77.26927, 38.79968 ], [ -77.26973, 38.80035 ], [ -77.27073, 38.80038 ], [ -77.2707, 38.80123 ], [ -77.2714, 38.80144 ], [ -77.27168, 38.80235 ], [ -77.2714, 38.80285 ], [ -77.2703, 38.80306 ], [ -77.26941, 38.80246 ], [ -77.26956, 38.80344 ], [ -77.26864, 38.8042 ], [ -77.26859, 38.80534 ], [ -77.26959, 38.8051 ], [ -77.26954, 38.80446 ], [ -77.27109, 38.80377 ], [ -77.27251, 38.80519 ], [ -77.27268, 38.80411 ], [ -77.27333, 38.80395 ], [ -77.27309, 38.80301 ], [ -77.27347, 38.80272 ], [ -77.27563, 38.80309 ], [ -77.27591, 38.80382 ], [ -77.27514, 38.80406 ], [ -77.27522, 38.80489 ], [ -77.27713, 38.8048 ], [ -77.27764, 38.80545 ], [ -77.27733, 38.80578 ], [ -77.27587, 38.80584 ], [ -77.277, 38.80675 ], [ -77.2763, 38.80728 ], [ -77.2754, 38.80711 ], [ -77.27496, 38.80868 ], [ -77.2726, 38.80956 ], [ -77.2722, 38.80932 ], [ -77.27001, 38.80956 ], [ -77.26886, 38.80892 ], [ -77.26892, 38.80992 ], [ -77.27065, 38.80978 ], [ -77.27139, 38.81027 ], [ -77.27079, 38.81098 ], [ -77.26932, 38.81109 ], [ -77.27004, 38.81221 ], [ -77.26976, 38.81257 ], [ -77.26925, 38.81267 ], [ -77.26857, 38.81221 ], [ -77.26787, 38.81239 ], [ -77.26721, 38.81143 ], [ -77.26631, 38.81213 ], [ -77.26556, 38.81198 ], [ -77.26552, 38.81113 ], [ -77.26754, 38.80999 ], [ -77.26752, 38.80956 ], [ -77.26641, 38.80956 ], [ -77.26574, 38.80805 ], [ -77.26392, 38.80696 ], [ -77.26443, 38.80631 ], [ -77.26632, 38.80625 ], [ -77.26675, 38.80584 ], [ -77.26617, 38.80455 ], [ -77.26705, 38.80228 ], [ -77.26596, 38.80136 ], [ -77.26061, 38.80479 ], [ -77.26054, 38.80553 ], [ -77.25827, 38.80709 ], [ -77.25729, 38.80704 ], [ -77.25509, 38.80848 ], [ -77.25433, 38.80834 ], [ -77.25415, 38.80763 ], [ -77.25531, 38.80679 ], [ -77.25456, 38.80664 ], [ -77.25468, 38.80591 ], [ -77.25362, 38.80521 ], [ -77.2543, 38.80466 ], [ -77.256, 38.80496 ], [ -77.25516, 38.80357 ], [ -77.25623, 38.80233 ], [ -77.25542, 38.80126 ], [ -77.25588, 38.80073 ], [ -77.25557, 38.80006 ], [ -77.25484, 38.79956 ], [ -77.25361, 38.80003 ], [ -77.25271, 38.79972 ], [ -77.25272, 38.79931 ], [ -77.25374, 38.79879 ], [ -77.25324, 38.79726 ], [ -77.25367, 38.79641 ], [ -77.25451, 38.79607 ], [ -77.25548, 38.7962 ], [ -77.25715, 38.79508 ], [ -77.2607, 38.79411 ], [ -77.26136, 38.79468 ], [ -77.26006, 38.79707 ], [ -77.26048, 38.79828 ], [ -77.26158, 38.79781 ], [ -77.26172, 38.79595 ], [ -77.26293, 38.7952 ], [ -77.2638, 38.79378 ], [ -77.26816, 38.79575 ], [ -77.26839, 38.79551 ], [ -77.26643, 38.7946 ], [ -77.26677, 38.79389 ], [ -77.26729, 38.79387 ], [ -77.27229, 38.79605 ], [ -77.27258, 38.79536 ], [ -77.27152, 38.79452 ], [ -77.27047, 38.79508 ], [ -77.26998, 38.79492 ], [ -77.26953, 38.79436 ], [ -77.26973, 38.79397 ], [ -77.27183, 38.79267 ], [ -77.27262, 38.79257 ], [ -77.27373, 38.79118 ], [ -77.27466, 38.79163 ], [ -77.2741, 38.79458 ] ], [ [ -77.26645, 38.79626 ], [ -77.26593, 38.79643 ], [ -77.2664, 38.79667 ], [ -77.26645, 38.79626 ] ], [ [ -77.27067, 38.79695 ], [ -77.27085, 38.79708 ], [ -77.27114, 38.79674 ], [ -77.27067, 38.79695 ] ], [ [ -77.26951, 38.79637 ], [ -77.26976, 38.7961 ], [ -77.26961, 38.79604 ], [ -77.26951, 38.79637 ] ], [ [ -77.26949, 38.80069 ], [ -77.26954, 38.80061 ], [ -77.26944, 38.80067 ], [ -77.26949, 38.80069 ] ], [ [ -77.26853, 38.80654 ], [ -77.26779, 38.80642 ], [ -77.26741, 38.80695 ], [ -77.26795, 38.80777 ], [ -77.26853, 38.80654 ] ], [ [ -77.27412, 38.80764 ], [ -77.27356, 38.80648 ], [ -77.27169, 38.80637 ], [ -77.27111, 38.80665 ], [ -77.2703, 38.80616 ], [ -77.26988, 38.80629 ], [ -77.27004, 38.80832 ], [ -77.27003, 38.80779 ], [ -77.27086, 38.80739 ], [ -77.27191, 38.80792 ], [ -77.27336, 38.80807 ], [ -77.27412, 38.80764 ] ], [ [ -77.26748, 38.8089 ], [ -77.2674, 38.80879 ], [ -77.26742, 38.80884 ], [ -77.26748, 38.8089 ] ], [ [ -77.25953, 38.79557 ], [ -77.2577, 38.79609 ], [ -77.25846, 38.79654 ], [ -77.25953, 38.79557 ] ], [ [ -77.26126, 38.80052 ], [ -77.26119, 38.79923 ], [ -77.26015, 38.79995 ], [ -77.26028, 38.80071 ], [ -77.25804, 38.80272 ], [ -77.25839, 38.80328 ], [ -77.25789, 38.80384 ], [ -77.25809, 38.80408 ], [ -77.25953, 38.8031 ], [ -77.26008, 38.80356 ], [ -77.26263, 38.80196 ], [ -77.26126, 38.80052 ] ], [ [ -77.25922, 38.79913 ], [ -77.25917, 38.79904 ], [ -77.25914, 38.79916 ], [ -77.25922, 38.79913 ] ], [ [ -77.25881, 38.7976 ], [ -77.25824, 38.79761 ], [ -77.25862, 38.79799 ], [ -77.25881, 38.7976 ] ], [ [ -77.26287, 38.80046 ], [ -77.26278, 38.80047 ], [ -77.2628, 38.80051 ], [ -77.26287, 38.80046 ] ], [ [ -77.25717, 38.80036 ], [ -77.25733, 38.80048 ], [ -77.25724, 38.80016 ], [ -77.25717, 38.80036 ] ], [ [ -77.25773, 38.79912 ], [ -77.25808, 38.79926 ], [ -77.25741, 38.79853 ], [ -77.25773, 38.79912 ] ], [ [ -77.25701, 38.79665 ], [ -77.25682, 38.79676 ], [ -77.25695, 38.79677 ], [ -77.25701, 38.79665 ] ], [ [ -77.25811, 38.80109 ], [ -77.25838, 38.80059 ], [ -77.25773, 38.80073 ], [ -77.25811, 38.80109 ] ] ] } },
{ "type": "Feature", "properties": { "variant": "T0", "miles": 1.5 }, "geometry": { "type": "Polygon", "coordinates": [ [ [ -77.27974, 38.78648 ], [ -77.27997, 38.78722 ], [ -77.2783, 38.78787 ], [ -77.28046, 38.78781 ], [ -77.28086, 38.78808 ], [ -77.28077, 38.78946 ], [ -77.28013, 38.78988 ], [ -77.27674, 38.78997 ], [ -77.27898, 38.79117 ], [ -77.27843, 38.79236 ], [ -77.27745, 38.79239 ], [ -77.27743, 38.79157 ], [ -77.27576, 38.79078 ], [ -77.27586, 38.79186 ], [ -77.27725, 38.79278 ], [ -77.27835, 38.79276 ], [ -77.27943, 38.79355 ], [ -77.27974, 38.79433 ], [ -77.28093, 38.79495 ], [ -77.28153, 38.79488 ], [ -77.28193, 38.79558 ], [ -77.28138, 38.79617 ], [ -77.27937, 38.79543 ], [ -77.27724, 38.79579 ], [ -77.27764, 38.79657 ], [ -77.27667, 38.79691 ], [ -77.27739, 38.79787 ], [ -77.27683, 38.79849 ], [ -77.27632, 38.79841 ], [ -77.2753, 38.79725 ], [ -77.27408, 38.79703 ], [ -77.27379, 38.79636 ], [ -77.27341, 38.7976 ], [ -77.27548, 38.79853 ], [ -77.2761, 38.79839 ], [ -77.27678, 38.799 ], [ -77.27976, 38.79871 ], [ -77.27946, 38.80077 ], [ -77.27755, 38.80133 ], [ -77.27807, 38.8021 ], [ -77.27892, 38.80166 ], [ -77.27962, 38.80186 ], [ -77.28028, 38.80281 ], [ -77.2802, 38.80377 ], [ -77.2812, 38.80354 ], [ -77.28181, 38.80293 ], [ -77.2836, 38.80385 ], [ -77.28375, 38.80425 ], [ -77.28245, 38.80603 ], [ -77.28052, 38.80724 ], [ -77.27836, 38.81046 ], [ -77.2787, 38.81149 ], [ -77.27722, 38.81168 ], [ -77.27592, 38.81329 ], [ -77.27549, 38.81462 ], [ -77.27369, 38.81497 ], [ -77.27323, 38.81477 ], [ -77.27275, 38.81313 ], [ -77.27389, 38.81294 ], [ -77.27335, 38.81255 ], [ -77.27188, 38.8125 ], [ -77.27146, 38.81127 ], [ -77.27109, 38.81198 ], [ -77.27026, 38.81214 ], [ -77.27143, 38.814 ], [ -77.27097, 38.8149 ], [ -77.27187, 38.81545 ], [ -77.27184, 38.81586 ], [ -77.27101, 38.81617 ], [ -77.27001, 38.81568 ], [ -77.26995, 38.81799 ], [ -77.26897, 38.81802 ], [ -77.26875, 38.81764 ], [ -77.26888, 38.81506 ], [ -77.26773, 38.81387 ], [ -77.26769, 38.815 ], [ -77.26672, 38.81595 ], [ -77.26646, 38.81694 ], [ -77.26562, 38.81715 ], [ -77.26529, 38.81818 ], [ -77.2642, 38.81909 ], [ -77.26336, 38.8187 ], [ -77.26453, 38.81616 ], [ -77.26321, 38.81676 ], [ -77.26283, 38.81647 ], [ -77.26295, 38.81587 ], [ -77.26225, 38.81605 ], [ -77.26152, 38.81555 ], [ -77.26193, 38.81498 ], [ -77.26283, 38.81476 ], [ -77.26291, 38.81421 ], [ -77.26361, 38.81409 ], [ -77.26304, 38.81288 ], [ -77.26202, 38.81316 ], [ -77.26103, 38.81291 ], [ -77.26038, 38.81406 ], [ -77.25796, 38.81429 ], [ -77.25728, 38.81374 ], [ -77.25732, 38.8121 ], [ -77.25652, 38.81214 ], [ -77.25624, 38.8127 ], [ -77.25571, 38.81275 ], [ -77.25512, 38.81213 ], [ -77.25429, 38.81212 ], [ -77.25355, 38.81277 ], [ -77.2529, 38.8122 ], [ -77.25313, 38.81134 ], [ -77.25197, 38.8113 ], [ -77.25, 38.81418 ], [ -77.24907, 38.81396 ], [ -77.24974, 38.8113 ], [ -77.24828, 38.81136 ], [ -77.24756, 38.81084 ], [ -77.24807, 38.81034 ], [ -77.24803, 38.8083 ], [ -77.24755, 38.80771 ], [ -77.24831, 38.80728 ], [ -77.2484, 38.80678 ], [ -77.24654, 38.80679 ], [ -77.24585, 38.80625 ], [ -77.24654, 38.80571 ], [ -77.24842, 38.8057 ], [ -77.2489, 38.80338 ], [ -77.24661, 38.80325 ], [ -77.2466, 38.80249 ], [ -77.2475, 38.80214 ], [ -77.2454, 38.79891 ], [ -77.24432, 38.79863 ], [ -77.24475, 38.79795 ], [ -77.24624, 38.79769 ], [ -77.24637, 38.79712 ], [ -77.24736, 38.79676 ], [ -77.24682, 38.79528 ], [ -77.24785, 38.79495 ], [ -77.24868, 38.79607 ], [ -77.25078, 38.79588 ], [ -77.25245, 38.79615 ], [ -77.25282, 38.79685 ], [ -77.25124, 38.79842 ], [ -77.25214, 38.79835 ], [ -77.25238, 38.79866 ], [ -77.25221, 38.79769 ], [ -77.25262, 38.79743 ], [ -77.25333, 38.79765 ], [ -77.25332, 38.79685 ], [ -77.25389, 38.79627 ], [ -77.25548, 38.7962 ], [ -77.25715, 38.79508 ], [ -77.2607, 38.79411 ], [ -77.26136, 38.79468 ], [ -77.26006, 38.79707 ], [ -77.26048, 38.79828 ], [ -77.26158, 38.79781 ], [ -77.26172, 38.79595 ], [ -77.26293, 38.7952 ], [ -77.2638, 38.79378 ], [ -77.26816, 38.79575 ], [ -77.26839, 38.79551 ], [ -77.26643, 38.7946 ], [ -77.26677, 38.79389 ], [ -77.2679, 38.79407 ], [ -77.2682, 38.79362 ], [ -77.26706, 38.79318 ], [ -77.26562, 38.79343 ], [ -77.26479, 38.79242 ], [ -77.2649, 38.79202 ], [ -77.26583, 38.79188 ], [ -77.26577, 38.79075 ], [ -77.26662, 38.78998 ], [ -77.26608, 38.78947 ], [ -77.26598, 38.79016 ], [ -77.26501, 38.79012 ], [ -77.26469, 38.78943 ], [ -77.26504, 38.78871 ], [ -77.26382, 38.78903 ], [ -77.26341, 38.78877 ], [ -77.26397, 38.78716 ], [ -77.26595, 38.7877 ], [ -77.27164, 38.79277 ], [ -77.27186, 38.7919 ], [ -77.2729, 38.79196 ], [ -77.27416, 38.79047 ], [ -77.27363, 38.78997 ], [ -77.27198, 38.78952 ], [ -77.27185, 38.78868 ], [ -77.27378, 38.78739 ], [ -77.27613, 38.7877 ], [ -77.27788, 38.78508 ], [ -77.27894, 38.78546 ], [ -77.27863, 38.78633 ], [ -77.27974, 38.78648 ] ], [ [ -77.26649, 38.80961 ], [ -77.26626, 38.8102 ], [ -77.26754, 38.80999 ], [ -77.26752, 38.80956 ], [ -77.26649, 38.80961 ] ], [ [ -77.2674, 38.80879 ], [ -77.26748, 38.8089 ], [ -77.26748, 38.80882 ], [ -77.2674, 38.80879 ] ], [ [ -77.26853, 38.80654 ], [ -77.26779, 38.80642 ], [ -77.26741, 38.80695 ], [ -77.26795, 38.80777 ], [ -77.26853, 38.80654 ] ], [ [ -77.26959, 38.8051 ], [ -77.26954, 38.80446 ], [ -77.27109, 38.80377 ], [ -77.27251, 38.80519 ], [ -77.27223, 38.80357 ], [ -77.27152, 38.80291 ], [ -77.27215, 38.80195 ], [ -77.27244, 38.8016 ], [ -77.27391, 38.80165 ], [ -77.27447, 38.80091 ], [ -77.27561, 38.80086 ], [ -77.27424, 38.79912 ], [ -77.27218, 38.79852 ], [ -77.26927, 38.79968 ], [ -77.26973, 38.80035 ], [ -77.27073, 38.80038 ], [ -77.2707, 38.80123 ], [ -77.2714, 38.80144 ], [ -77.27168, 38.80235 ], [ -77.2714, 38.80285 ], [ -77.2703, 38.80306 ], [ -77.26941, 38.80246 ], [ -77.26956, 38.80344 ], [ -77.26864, 38.8042 ], [ -77.26863, 38.80534 ], [ -77.26959, 38.8051 ] ], [ [ -77.26596, 38.80136 ], [ -77.26061, 38.80479 ], [ -77.26054, 38.80553 ], [ -77.25791, 38.80719 ], [ -77.25844, 38.80847 ], [ -77.25798, 38.8091 ], [ -77.25844, 38.81002 ], [ -77.2623, 38.80997 ], [ -77.26323, 38.81025 ], [ -77.26367, 38.80942 ], [ -77.2645, 38.80897 ], [ -77.2662, 38.80935 ], [ -77.26574, 38.80805 ], [ -77.26392, 38.80696 ], [ -77.26472, 38.8057 ], [ -77.2663, 38.80523 ], [ -77.26622, 38.80425 ], [ -77.26706, 38.80241 ], [ -77.26596, 38.80136 ] ], [ [ -77.27471, 38.79311 ], [ -77.27421, 38.79263 ], [ -77.2741, 38.79458 ], [ -77.27507, 38.79533 ], [ -77.27471, 38.79311 ] ], [ [ -77.27152, 38.79452 ], [ -77.27068, 38.79527 ], [ -77.27229, 38.79605 ], [ -77.2725, 38.79532 ], [ -77.27152, 38.79452 ] ], [ [ -77.26899, 38.79224 ], [ -77.2687, 38.79251 ], [ -77.27048, 38.79379 ], [ -77.27077, 38.79361 ], [ -77.26899, 38.79224 ] ], [ [ -77.27496, 38.78903 ], [ -77.27457, 38.78943 ], [ -77.27508, 38.78943 ], [ -77.27548, 38.78878 ], [ -77.27496, 38.78903 ] ], [ [ -77.27837, 38.78876 ], [ -77.27858, 38.78877 ], [ -77.2784, 38.78867 ], [ -77.27837, 38.78876 ] ], [ [ -77.27644, 38.79553 ], [ -77.27627, 38.79587 ], [ -77.27699, 38.79575 ], [ -77.27644, 38.79553 ] ], [ [ -77.27505, 38.81124 ], [ -77.27623, 38.81092 ], [ -77.27395, 38.81087 ], [ -77.27394, 38.81151 ], [ -77.27506, 38.81228 ], [ -77.27505, 38.81124 ] ], [ [ -77.27705, 38.80983 ], [ -77.27698, 38.80876 ], [ -77.27794, 38.80858 ], [ -77.27901, 38.8069 ], [ -77.2781, 38.80779 ], [ -77.2754, 38.80711 ], [ -77.27531, 38.80827 ], [ -77.27614, 38.80868 ], [ -77.27562, 38.80932 ], [ -77.2739, 38.80914 ], [ -77.27312, 38.80952 ], [ -77.27023, 38.80959 ], [ -77.26886, 38.80892 ], [ -77.26892, 38.80992 ], [ -77.27705, 38.80983 ] ], [ [ -77.27569, 38.80308 ], [ -77.27649, 38.80207 ], [ -77.27637, 38.8019 ], [ -77.27542, 38.80231 ], [ -77.27569, 38.80308 ] ], [ [ -77.27914, 38.80636 ], [ -77.27916, 38.80665 ], [ -77.27927, 38.80648 ], [ -77.27914, 38.80636 ] ], [ [ -77.28142, 38.80467 ], [ -77.28145, 38.80465 ], [ -77.28178, 38.80414 ], [ -77.28142, 38.80467 ] ], [ [ -77.27583, 38.8047 ], [ -77.27587, 38.80469 ], [ -77.27584, 38.80467 ], [ -77.27583, 38.8047 ] ], [ [ -77.27681, 38.80377 ], [ -77.2768, 38.80378 ], [ -77.27681, 38.80378 ], [ -77.27681, 38.80377 ] ], [ [ -77.2695, 38.80068 ], [ -77.26954, 38.80061 ], [ -77.26944, 38.80067 ], [ -77.2695, 38.80068 ] ], [ [ -77.27104, 38.79702 ], [ -77.27114, 38.79674 ], [ -77.27096, 38.79666 ], [ -77.27104, 38.79702 ] ], [ [ -77.26961, 38.79604 ], [ -77.26936, 38.7963 ], [ -77.26951, 38.79637 ], [ -77.26961, 38.79604 ] ], [ [ -77.26622, 38.79636 ], [ -77.26593, 38.79643 ], [ -77.2664, 38.79667 ], [ -77.26622, 38.79636 ] ], [ [ -77.27158, 38.80758 ], [ -77.27216, 38.80708 ], [ -77.27195, 38.80645 ], [ -77.27111, 38.80665 ], [ -77.2703, 38.80616 ], [ -77.26988, 38.80629 ], [ -77.27004, 38.80832 ], [ -77.27034, 38.80745 ], [ -77.27158, 38.80758 ] ], [ [ -77.27412, 38.80768 ], [ -77.27402, 38.80734 ], [ -77.27337, 38.80652 ], [ -77.27412, 38.80768 ] ], [ [ -77.26024, 38.81202 ], [ -77.25994, 38.81135 ], [ -77.25872, 38.81142 ], [ -77.25868, 38.81322 ], [ -77.25925, 38.81311 ], [ -77.26024, 38.81202 ] ], [ [ -77.26204, 38.81206 ], [ -77.26197, 38.81194 ], [ -77.26191, 38.81207 ], [ -77.26204, 38.81206 ] ], [ [ -77.25463, 38.80883 ], [ -77.2529, 38.81 ], [ -77.25544, 38.81007 ], [ -77.25463, 38.80883 ] ], [ [ -77.2545, 38.80584 ], [ -77.25443, 38.80581 ], [ -77.25459, 38.80604 ], [ -77.2545, 38.80584 ] ], [ [ -77.25575, 38.8029 ], [ -77.25579, 38.80284 ], [ -77.25573, 38.80286 ], [ -77.25575, 38.8029 ] ], [ [ -77.25542, 38.80126 ], [ -77.25588, 38.80073 ], [ -77.25566, 38.80015 ], [ -77.25467, 38.80058 ], [ -77.2548, 38.80144 ], [ -77.25303, 38.80281 ], [ -77.25431, 38.80212 ], [ -77.25615, 38.80179 ], [ -77.25542, 38.80126 ] ], [ [ -77.26055, 38.80104 ], [ -77.26151, 38.80119 ], [ -77.26131, 38.80197 ], [ -77.26185, 38.80239 ], [ -77.26263, 38.80196 ], [ -77.26185, 38.80153 ], [ -77.26129, 38.80058 ], [ -77.26119, 38.79923 ], [ -77.26015, 38.79995 ], [ -77.26028, 38.80071 ], [ -77.25804, 38.80272 ], [ -77.25839, 38.80328 ], [ -77.25786, 38.80375 ], [ -77.25809, 38.80408 ], [ -77.25871, 38.8037 ], [ -77.25881, 38.80295 ], [ -77.26055, 38.80104 ] ], [ [ -77.2592, 38.7991 ], [ -77.25917, 38.79904 ], [ -77.25914, 38.79916 ], [ -77.2592, 38.7991 ] ], [ [ -77.25846, 38.79763 ], [ -77.25824, 38.79761 ], [ -77.25862, 38.79799 ], [ -77.25882, 38.79761 ], [ -77.25846, 38.79763 ] ], [ [ -77.26287, 38.80046 ], [ -77.26278, 38.80047 ], [ -77.2628, 38.80051 ], [ -77.26287, 38.80046 ] ], [ [ -77.25768, 38.79908 ], [ -77.25808, 38.79926 ], [ -77.25741, 38.79853 ], [ -77.25768, 38.79908 ] ], [ [ -77.25797, 38.79618 ], [ -77.25804, 38.79596 ], [ -77.25784, 38.79602 ], [ -77.25797, 38.79618 ] ], [ [ -77.25701, 38.79665 ], [ -77.25682, 38.79676 ], [ -77.25695, 38.79677 ], [ -77.25701, 38.79665 ] ], [ [ -77.25811, 38.80109 ], [ -77.25838, 38.80059 ], [ -77.25773, 38.80073 ], [ -77.25811, 38.80109 ] ], [ [ -77.25733, 38.80048 ], [ -77.25708, 38.80009 ], [ -77.25716, 38.80032 ], [ -77.25733, 38.80048 ] ], [ [ -77.25052, 38.8065 ], [ -77.24979, 38.80674 ], [ -77.24945, 38.80817 ], [ -77.25109, 38.80753 ], [ -77.25052, 38.8065 ] ], [ [ -77.24999, 38.80463 ], [ -77.25026, 38.8046 ], [ -77.25019, 38.80456 ], [ -77.24999, 38.80463 ] ], [ [ -77.25099, 38.80368 ], [ -77.25141, 38.80395 ], [ -77.25093, 38.80328 ], [ -77.25053, 38.80347 ], [ -77.25099, 38.80368 ] ], [ [ -77.24989, 38.79698 ], [ -77.24978, 38.79698 ], [ -77.24988, 38.79703 ], [ -77.24989, 38.79698 ] ], [ [ -77.25206, 38.80067 ], [ -77.25134, 38.8008 ], [ -77.25208, 38.80102 ], [ -77.25261, 38.80064 ], [ -77.25311, 38.80075 ], [ -77.25345, 38.80007 ], [ -77.25206, 38.80067 ] ], [ [ -77.25249, 38.79908 ], [ -77.2524, 38.79874 ], [ -77.2523, 38.79905 ], [ -77.25249, 38.79908 ] ], [ [ -77.25357, 38.80713 ], [ -77.25353, 38.80706 ], [ -77.25354, 38.8071 ], [ -77.25357, 38.80713 ] ], [ [ -77.2498, 38.80547 ], [ -77.2498, 38.80557 ], [ -77.24986, 38.80555 ], [ -77.2498, 38.80547 ] ] ] } },
{ "type": "Feature", "properties": { "variant": "T0", "miles": 2.0 }, "geometry": { "type": "Polygon", "coordinates": [ [ [ -77.28546, 38.78127 ], [ -77.28359, 38.78244 ], [ -77.2842, 38.78351 ], [ -77.28325, 38.7838 ], [ -77.28304, 38.78455 ], [ -77.28232, 38.78503 ], [ -77.2844, 38.78618 ], [ -77.28556, 38.78623 ], [ -77.28536, 38.78698 ], [ -77.28455, 38.78756 ], [ -77.28403, 38.78748 ], [ -77.27974, 38.78473 ], [ -77.27863, 38.78633 ], [ -77.2803, 38.78647 ], [ -77.28111, 38.78695 ], [ -77.28122, 38.78752 ], [ -77.28066, 38.78794 ], [ -77.28077, 38.78946 ], [ -77.28013, 38.78988 ], [ -77.27674, 38.78997 ], [ -77.27805, 38.79059 ], [ -77.27905, 38.78999 ], [ -77.28281, 38.79052 ], [ -77.28358, 38.79162 ], [ -77.28283, 38.79304 ], [ -77.28218, 38.79332 ], [ -77.2815, 38.79278 ], [ -77.28201, 38.7914 ], [ -77.27924, 38.79114 ], [ -77.27795, 38.79253 ], [ -77.27723, 38.79201 ], [ -77.27743, 38.79157 ], [ -77.27576, 38.79078 ], [ -77.2756, 38.79095 ], [ -77.2761, 38.79137 ], [ -77.27586, 38.79186 ], [ -77.27725, 38.79278 ], [ -77.27835, 38.79276 ], [ -77.2802, 38.79456 ], [ -77.28105, 38.79367 ], [ -77.28175, 38.79386 ], [ -77.28239, 38.79338 ], [ -77.28357, 38.79376 ], [ -77.28461, 38.79333 ], [ -77.28508, 38.79374 ], [ -77.28554, 38.79313 ], [ -77.28513, 38.79233 ], [ -77.28549, 38.79164 ], [ -77.28601, 38.79156 ], [ -77.28652, 38.79236 ], [ -77.2873, 38.79257 ], [ -77.28758, 38.79411 ], [ -77.28678, 38.79522 ], [ -77.28682, 38.79604 ], [ -77.28571, 38.79609 ], [ -77.28445, 38.79705 ], [ -77.28393, 38.79696 ], [ -77.28375, 38.7963 ], [ -77.28172, 38.79638 ], [ -77.28117, 38.7975 ], [ -77.27985, 38.79789 ], [ -77.27946, 38.80077 ], [ -77.27755, 38.80133 ], [ -77.27807, 38.8021 ], [ -77.27892, 38.80166 ], [ -77.28006, 38.80236 ], [ -77.28048, 38.80171 ], [ -77.28004, 38.80072 ], [ -77.28039, 38.79948 ], [ -77.28074, 38.79917 ], [ -77.28197, 38.79932 ], [ -77.28222, 38.79876 ], [ -77.28274, 38.79869 ], [ -77.28365, 38.79907 ], [ -77.28391, 38.79981 ], [ -77.28558, 38.80099 ], [ -77.28602, 38.80038 ], [ -77.28697, 38.80058 ], [ -77.28738, 38.80147 ], [ -77.28654, 38.80185 ], [ -77.28677, 38.80317 ], [ -77.28649, 38.80352 ], [ -77.28515, 38.80376 ], [ -77.28563, 38.80437 ], [ -77.2848, 38.80536 ], [ -77.28591, 38.80761 ], [ -77.28557, 38.80878 ], [ -77.28644, 38.81167 ], [ -77.28604, 38.81224 ], [ -77.28476, 38.81283 ], [ -77.28538, 38.81317 ], [ -77.28628, 38.81242 ], [ -77.28681, 38.81241 ], [ -77.28783, 38.81323 ], [ -77.28771, 38.81399 ], [ -77.28626, 38.81401 ], [ -77.28529, 38.81557 ], [ -77.28479, 38.8157 ], [ -77.28416, 38.81512 ], [ -77.28449, 38.814 ], [ -77.28404, 38.81376 ], [ -77.28237, 38.81368 ], [ -77.28153, 38.81458 ], [ -77.28067, 38.81422 ], [ -77.2808, 38.81376 ], [ -77.27924, 38.81333 ], [ -77.27896, 38.8137 ], [ -77.27799, 38.81357 ], [ -77.27828, 38.81238 ], [ -77.27744, 38.81147 ], [ -77.27602, 38.81315 ], [ -77.27728, 38.81346 ], [ -77.2781, 38.81438 ], [ -77.27956, 38.81382 ], [ -77.28051, 38.814 ], [ -77.2807, 38.81438 ], [ -77.27796, 38.81587 ], [ -77.27848, 38.81636 ], [ -77.2778, 38.81969 ], [ -77.27848, 38.82021 ], [ -77.27961, 38.81925 ], [ -77.2804, 38.8197 ], [ -77.28028, 38.8201 ], [ -77.27851, 38.8217 ], [ -77.27704, 38.82086 ], [ -77.27748, 38.82235 ], [ -77.27686, 38.8229 ], [ -77.2754, 38.82277 ], [ -77.27519, 38.82239 ], [ -77.27576, 38.82187 ], [ -77.27491, 38.82121 ], [ -77.27467, 38.82038 ], [ -77.27352, 38.82057 ], [ -77.27416, 38.82143 ], [ -77.27393, 38.82291 ], [ -77.27208, 38.82329 ], [ -77.27167, 38.82248 ], [ -77.27103, 38.82357 ], [ -77.27052, 38.82368 ], [ -77.27006, 38.82347 ], [ -77.26997, 38.82277 ], [ -77.27098, 38.8214 ], [ -77.26983, 38.82075 ], [ -77.26974, 38.82321 ], [ -77.26804, 38.82508 ], [ -77.2672, 38.8247 ], [ -77.26843, 38.82285 ], [ -77.26844, 38.82102 ], [ -77.2671, 38.82104 ], [ -77.26781, 38.82185 ], [ -77.2671, 38.82237 ], [ -77.26637, 38.822 ], [ -77.26706, 38.82254 ], [ -77.26672, 38.82326 ], [ -77.2654, 38.82295 ], [ -77.26503, 38.82391 ], [ -77.26402, 38.82361 ], [ -77.2635, 38.82193 ], [ -77.26382, 38.8216 ], [ -77.26504, 38.8217 ], [ -77.26586, 38.82049 ], [ -77.26683, 38.81993 ], [ -77.26533, 38.81954 ], [ -77.2653, 38.82019 ], [ -77.26472, 38.82066 ], [ -77.26317, 38.82049 ], [ -77.26217, 38.82135 ], [ -77.26049, 38.82335 ], [ -77.26087, 38.82397 ], [ -77.26054, 38.82429 ], [ -77.25897, 38.82393 ], [ -77.25911, 38.82302 ], [ -77.26, 38.82218 ], [ -77.25823, 38.82274 ], [ -77.25709, 38.82233 ], [ -77.25703, 38.82192 ], [ -77.25959, 38.82109 ], [ -77.26069, 38.82125 ], [ -77.26207, 38.8198 ], [ -77.26063, 38.81981 ], [ -77.25875, 38.82085 ], [ -77.25825, 38.82071 ], [ -77.25801, 38.81946 ], [ -77.25856, 38.81731 ], [ -77.25626, 38.81753 ], [ -77.2552, 38.81703 ], [ -77.25564, 38.81635 ], [ -77.25724, 38.81645 ], [ -77.25724, 38.81616 ], [ -77.2562, 38.81621 ], [ -77.25456, 38.81558 ], [ -77.25347, 38.81721 ], [ -77.25018, 38.81716 ], [ -77.25006, 38.81833 ], [ -77.25222, 38.81845 ], [ -77.25275, 38.81907 ], [ -77.25253, 38.81944 ], [ -77.25141, 38.82003 ], [ -77.25088, 38.82001 ], [ -77.25053, 38.81945 ], [ -77.24828, 38.81936 ], [ -77.248, 38.82039 ], [ -77.24703, 38.82035 ], [ -77.24713, 38.81796 ], [ -77.24868, 38.81823 ], [ -77.2487, 38.81773 ], [ -77.24725, 38.81744 ], [ -77.24418, 38.81507 ], [ -77.24354, 38.8153 ], [ -77.2431, 38.81507 ], [ -77.2431, 38.81409 ], [ -77.24201, 38.81402 ], [ -77.2401, 38.81258 ], [ -77.23854, 38.81262 ], [ -77.23798, 38.81199 ], [ -77.23835, 38.81132 ], [ -77.23956, 38.81139 ], [ -77.23955, 38.81054 ], [ -77.23824, 38.80915 ], [ -77.23875, 38.80678 ], [ -77.23748, 38.80689 ], [ -77.23715, 38.80617 ], [ -77.23896, 38.8057 ], [ -77.23932, 38.80351 ], [ -77.23845, 38.80329 ], [ -77.23829, 38.8029 ], [ -77.24187, 38.79892 ], [ -77.23885, 38.80013 ], [ -77.23809, 38.79958 ], [ -77.23808, 38.79857 ], [ -77.23958, 38.79805 ], [ -77.24057, 38.79684 ], [ -77.24171, 38.79684 ], [ -77.24238, 38.79741 ], [ -77.24549, 38.79621 ], [ -77.2471, 38.79619 ], [ -77.24642, 38.79527 ], [ -77.2414, 38.79541 ], [ -77.24137, 38.79464 ], [ -77.24185, 38.79447 ], [ -77.24551, 38.79436 ], [ -77.24169, 38.79082 ], [ -77.24066, 38.79082 ], [ -77.24048, 38.79043 ], [ -77.24114, 38.78957 ], [ -77.24224, 38.78949 ], [ -77.24664, 38.7935 ], [ -77.2479, 38.79202 ], [ -77.24777, 38.79137 ], [ -77.24862, 38.79118 ], [ -77.24993, 38.78973 ], [ -77.2509, 38.78962 ], [ -77.25117, 38.78997 ], [ -77.25075, 38.79069 ], [ -77.2549, 38.79488 ], [ -77.25703, 38.79301 ], [ -77.25667, 38.7923 ], [ -77.2573, 38.7914 ], [ -77.25925, 38.79005 ], [ -77.25842, 38.78928 ], [ -77.25869, 38.78892 ], [ -77.25973, 38.78898 ], [ -77.25994, 38.78738 ], [ -77.26201, 38.78707 ], [ -77.26124, 38.78554 ], [ -77.26205, 38.78511 ], [ -77.26383, 38.78731 ], [ -77.2645, 38.78711 ], [ -77.26595, 38.7877 ], [ -77.27164, 38.79277 ], [ -77.27186, 38.7919 ], [ -77.2729, 38.79196 ], [ -77.27416, 38.79047 ], [ -77.27181, 38.78931 ], [ -77.27185, 38.78868 ], [ -77.27318, 38.78771 ], [ -77.27292, 38.78742 ], [ -77.27136, 38.78858 ], [ -77.27069, 38.78843 ], [ -77.27047, 38.7877 ], [ -77.2709, 38.78736 ], [ -77.27034, 38.78694 ], [ -77.27101, 38.78616 ], [ -77.27097, 38.78548 ], [ -77.27007, 38.78554 ], [ -77.26989, 38.78455 ], [ -77.26963, 38.7863 ], [ -77.26919, 38.78653 ], [ -77.26838, 38.7861 ], [ -77.26845, 38.7842 ], [ -77.26791, 38.7839 ], [ -77.26748, 38.78501 ], [ -77.2661, 38.7849 ], [ -77.26585, 38.78413 ], [ -77.2668, 38.78324 ], [ -77.26548, 38.78217 ], [ -77.26558, 38.78145 ], [ -77.26629, 38.78124 ], [ -77.26908, 38.78309 ], [ -77.271, 38.7836 ], [ -77.27333, 38.78175 ], [ -77.2749, 38.78159 ], [ -77.27549, 38.78206 ], [ -77.27675, 38.78164 ], [ -77.27613, 38.78022 ], [ -77.27669, 38.77948 ], [ -77.27722, 38.7795 ], [ -77.27785, 38.78039 ], [ -77.27873, 38.77998 ], [ -77.27921, 38.78015 ], [ -77.27939, 38.78054 ], [ -77.27886, 38.78113 ], [ -77.27987, 38.78041 ], [ -77.28076, 38.78072 ], [ -77.2807, 38.782 ], [ -77.27946, 38.78211 ], [ -77.28033, 38.78278 ], [ -77.28454, 38.78031 ], [ -77.28559, 38.78053 ], [ -77.28546, 38.78127 ] ], [ [ -77.26878, 38.81845 ], [ -77.26815, 38.81889 ], [ -77.26745, 38.81812 ], [ -77.26744, 38.81819 ], [ -77.26711, 38.81851 ], [ -77.26608, 38.81816 ], [ -77.26547, 38.81844 ], [ -77.26852, 38.81952 ], [ -77.26878, 38.81845 ] ], [ [ -77.26778, 38.81748 ], [ -77.26872, 38.81712 ], [ -77.26888, 38.81506 ], [ -77.26773, 38.81387 ], [ -77.26745, 38.81812 ], [ -77.26778, 38.81748 ] ], [ [ -77.26649, 38.80961 ], [ -77.26626, 38.8102 ], [ -77.26754, 38.80999 ], [ -77.26752, 38.80956 ], [ -77.26649, 38.80961 ] ], [ [ -77.2674, 38.80879 ], [ -77.26748, 38.8089 ], [ -77.26748, 38.80882 ], [ -77.2674, 38.80879 ] ], [ [ -77.26863, 38.80691 ], [ -77.26853, 38.80654 ], [ -77.26779, 38.80642 ], [ -77.26741, 38.80695 ], [ -77.26795, 38.80777 ], [ -77.26863, 38.80691 ] ], [ [ -77.26706, 38.80234 ], [ -77.26596, 38.80136 ], [ -77.26061, 38.80479 ], [ -77.26054, 38.80553 ], [ -77.2597, 38.80611 ], [ -77.26073, 38.8067 ], [ -77.26185, 38.80619 ], [ -77.26312, 38.80642 ], [ -77.2638, 38.80597 ], [ -77.26434, 38.8062 ], [ -77.26483, 38.80563 ], [ -77.26626, 38.80514 ], [ -77.26706, 38.80234 ] ], [ [ -77.26645, 38.79626 ], [ -77.26593, 38.79643 ], [ -77.2664, 38.79667 ], [ -77.26645, 38.79626 ] ], [ [ -77.26839, 38.79551 ], [ -77.26682, 38.79488 ], [ -77.26641, 38.79419 ], [ -77.26677, 38.79389 ], [ -77.2679, 38.79407 ], [ -77.2682, 38.79362 ], [ -77.26706, 38.79318 ], [ -77.26478, 38.79373 ], [ -77.26367, 38.79295 ], [ -77.26368, 38.79175 ], [ -77.26436, 38.79107 ], [ -77.26417, 38.79061 ], [ -77.26484, 38.78993 ], [ -77.26504, 38.78871 ], [ -77.26407, 38.78912 ], [ -77.26423, 38.78974 ], [ -77.26328, 38.79018 ], [ -77.26245, 38.79148 ], [ -77.26203, 38.79326 ], [ -77.26012, 38.79358 ], [ -77.25874, 38.79305 ], [ -77.25599, 38.79568 ], [ -77.25246, 38.79615 ], [ -77.25282, 38.79685 ], [ -77.25124, 38.79842 ], [ -77.25214, 38.79835 ], [ -77.25238, 38.79866 ], [ -77.25221, 38.79769 ], [ -77.25262, 38.79743 ], [ -77.25333, 38.79765 ], [ -77.25332, 38.79685 ], [ -77.254, 38.79622 ], [ -77.25548, 38.7962 ], [ -77.25715, 38.79508 ], [ -77.2607, 38.79411 ], [ -77.26136, 38.79468 ], [ -77.26006, 38.79707 ], [ -77.26048, 38.79828 ], [ -77.26158, 38.79781 ], [ -77.26172, 38.79595 ], [ -77.26293, 38.7952 ], [ -77.2638, 38.79378 ], [ -77.26779, 38.79557 ], [ -77.26839, 38.79551 ] ], [ [ -77.26635, 38.78973 ], [ -77.26649, 38.79007 ], [ -77.26662, 38.78998 ], [ -77.26635, 38.78973 ] ], [ [ -77.27712, 38.786 ], [ -77.27632, 38.78597 ], [ -77.2743, 38.7869 ], [ -77.27621, 38.78756 ], [ -77.27712, 38.786 ] ], [ [ -77.27416, 38.78567 ], [ -77.27363, 38.78588 ], [ -77.27496, 38.78557 ], [ -77.27416, 38.78567 ] ], [ [ -77.27443, 38.78293 ], [ -77.27375, 38.78304 ], [ -77.27419, 38.78329 ], [ -77.27443, 38.78293 ] ], [ [ -77.27837, 38.78876 ], [ -77.27858, 38.78877 ], [ -77.2784, 38.78867 ], [ -77.27837, 38.78876 ] ], [ [ -77.2787, 38.78766 ], [ -77.2783, 38.78787 ], [ -77.27838, 38.78798 ], [ -77.2787, 38.78766 ] ], [ [ -77.27863, 38.78383 ], [ -77.2772, 38.78268 ], [ -77.27644, 38.78407 ], [ -77.277, 38.78458 ], [ -77.27802, 38.78457 ], [ -77.27863, 38.78383 ] ], [ [ -77.28148, 38.78364 ], [ -77.2809, 38.78393 ], [ -77.28098, 38.784 ], [ -77.28161, 38.7839 ], [ -77.28148, 38.78364 ] ], [ [ -77.27995, 38.78766 ], [ -77.27945, 38.78792 ], [ -77.27954, 38.78798 ], [ -77.27995, 38.78766 ] ], [ [ -77.27564, 38.78456 ], [ -77.27561, 38.78457 ], [ -77.27565, 38.78458 ], [ -77.27564, 38.78456 ] ], [ [ -77.27478, 38.80944 ], [ -77.27346, 38.80916 ], [ -77.27312, 38.80952 ], [ -77.27023, 38.80959 ], [ -77.26886, 38.80892 ], [ -77.26892, 38.80992 ], [ -77.27575, 38.80966 ], [ -77.27601, 38.80923 ], [ -77.27478, 38.80944 ] ], [ [ -77.27794, 38.80858 ], [ -77.27901, 38.8069 ], [ -77.2781, 38.80779 ], [ -77.2754, 38.80711 ], [ -77.27531, 38.80827 ], [ -77.27794, 38.80858 ] ], [ [ -77.27584, 38.80467 ], [ -77.27582, 38.8047 ], [ -77.27583, 38.8047 ], [ -77.27584, 38.80467 ] ], [ [ -77.27649, 38.80207 ], [ -77.27637, 38.8019 ], [ -77.27542, 38.80231 ], [ -77.27563, 38.80308 ], [ -77.27649, 38.80207 ] ], [ [ -77.27678, 38.799 ], [ -77.27868, 38.79883 ], [ -77.27623, 38.79838 ], [ -77.2753, 38.79725 ], [ -77.27395, 38.79693 ], [ -77.27379, 38.79636 ], [ -77.27339, 38.79693 ], [ -77.27365, 38.79784 ], [ -77.27548, 38.79853 ], [ -77.2761, 38.79839 ], [ -77.27678, 38.799 ] ], [ [ -77.27699, 38.79575 ], [ -77.27644, 38.79553 ], [ -77.27627, 38.79587 ], [ -77.27699, 38.79575 ] ], [ [ -77.27471, 38.79311 ], [ -77.27421, 38.79263 ], [ -77.2741, 38.79458 ], [ -77.27503, 38.79538 ], [ -77.27471, 38.79311 ] ], [ [ -77.27898, 38.79552 ], [ -77.27851, 38.7954 ], [ -77.27724, 38.79579 ], [ -77.27833, 38.79627 ], [ -77.27898, 38.79552 ] ], [ [ -77.28272, 38.79538 ], [ -77.28255, 38.79512 ], [ -77.28226, 38.79536 ], [ -77.28272, 38.79538 ] ], [ [ -77.28309, 38.81084 ], [ -77.28322, 38.81075 ], [ -77.28248, 38.80994 ], [ -77.28159, 38.81012 ], [ -77.28188, 38.81088 ], [ -77.28309, 38.81084 ] ], [ [ -77.28143, 38.80835 ], [ -77.2814, 38.80829 ], [ -77.28138, 38.80837 ], [ -77.28143, 38.80835 ] ], [ [ -77.28052, 38.80724 ], [ -77.28009, 38.80793 ], [ -77.28065, 38.8076 ], [ -77.2812, 38.80763 ], [ -77.28052, 38.80724 ] ], [ [ -77.28178, 38.80414 ], [ -77.28152, 38.80395 ], [ -77.28108, 38.80502 ], [ -77.28178, 38.80414 ] ], [ [ -77.28029, 38.80289 ], [ -77.2802, 38.80377 ], [ -77.28096, 38.80349 ], [ -77.28029, 38.80289 ] ], [ [ -77.28199, 38.80214 ], [ -77.28202, 38.80214 ], [ -77.28209, 38.80194 ], [ -77.28199, 38.80214 ] ], [ [ -77.28369, 38.80634 ], [ -77.28364, 38.80615 ], [ -77.28358, 38.80624 ], [ -77.28369, 38.80634 ] ], [ [ -77.28272, 38.80712 ], [ -77.28278, 38.80712 ], [ -77.28275, 38.80707 ], [ -77.28272, 38.80712 ] ], [ [ -77.28367, 38.80167 ], [ -77.28285, 38.80275 ], [ -77.28423, 38.80155 ], [ -77.28367, 38.80167 ] ], [ [ -77.2844, 38.80954 ], [ -77.28453, 38.8096 ], [ -77.28446, 38.8095 ], [ -77.2844, 38.80954 ] ], [ [ -77.28483, 38.81135 ], [ -77.2848, 38.81155 ], [ -77.28505, 38.81147 ], [ -77.28483, 38.81135 ] ], [ [ -77.27908, 38.8103 ], [ -77.27859, 38.81012 ], [ -77.27836, 38.81046 ], [ -77.27928, 38.8116 ], [ -77.27971, 38.81104 ], [ -77.27908, 38.8103 ] ], [ [ -77.2792, 38.80643 ], [ -77.27916, 38.80665 ], [ -77.27938, 38.80633 ], [ -77.2792, 38.80643 ] ], [ [ -77.27965, 38.80863 ], [ -77.27926, 38.80918 ], [ -77.27989, 38.80924 ], [ -77.27965, 38.80863 ] ], [ [ -77.28025, 38.81098 ], [ -77.28003, 38.81103 ], [ -77.28025, 38.81106 ], [ -77.28025, 38.81098 ] ], [ [ -77.27668, 38.79691 ], [ -77.27667, 38.79691 ], [ -77.27668, 38.79692 ], [ -77.27668, 38.79691 ] ], [ [ -77.27608, 38.81999 ], [ -77.27606, 38.81997 ], [ -77.27605, 38.82037 ], [ -77.27608, 38.81999 ] ], [ [ -77.27679, 38.81686 ], [ -77.27511, 38.81662 ], [ -77.2749, 38.81705 ], [ -77.27596, 38.81781 ], [ -77.27679, 38.81686 ] ], [ [ -77.27646, 38.81433 ], [ -77.27576, 38.81411 ], [ -77.27572, 38.81456 ], [ -77.27675, 38.81463 ], [ -77.27646, 38.81433 ] ], [ [ -77.27372, 38.80668 ], [ -77.27337, 38.80652 ], [ -77.27412, 38.80768 ], [ -77.27372, 38.80668 ] ], [ [ -77.27152, 38.80291 ], [ -77.27244, 38.8016 ], [ -77.27319, 38.80155 ], [ -77.27267, 38.80048 ], [ -77.27313, 38.79941 ], [ -77.27391, 38.799 ], [ -77.27218, 38.79852 ], [ -77.26927, 38.79968 ], [ -77.26973, 38.80035 ], [ -77.27073, 38.80038 ], [ -77.2707, 38.80123 ], [ -77.2714, 38.80144 ], [ -77.27168, 38.80235 ], [ -77.2714, 38.80285 ], [ -77.2703, 38.80306 ], [ -77.26941, 38.80246 ], [ -77.26956, 38.80344 ], [ -77.26864, 38.8042 ], [ -77.26859, 38.80534 ], [ -77.26959, 38.8051 ], [ -77.26954, 38.80446 ], [ -77.27031, 38.80431 ], [ -77.27058, 38.80388 ], [ -77.27155, 38.80397 ], [ -77.27251, 38.80519 ], [ -77.27256, 38.80433 ], [ -77.27152, 38.80291 ] ], [ [ -77.26961, 38.79604 ], [ -77.26936, 38.7963 ], [ -77.26951, 38.79637 ], [ -77.26961, 38.79604 ] ], [ [ -77.26899, 38.79224 ], [ -77.2687, 38.79251 ], [ -77.27048, 38.79379 ], [ -77.27077, 38.79361 ], [ -77.26899, 38.79224 ] ], [ [ -77.27298, 38.78398 ], [ -77.27296, 38.78396 ], [ -77.27279, 38.78425 ], [ -77.2729, 38.78429 ], [ -77.27298, 38.78398 ] ], [ [ -77.27216, 38.78445 ], [ -77.27211, 38.78443 ], [ -77.27214, 38.78446 ], [ -77.27216, 38.78445 ] ], [ [ -77.2711, 38.78535 ], [ -77.27108, 38.78534 ], [ -77.27107, 38.78539 ], [ -77.2711, 38.78535 ] ], [ [ -77.27104, 38.79702 ], [ -77.27114, 38.79674 ], [ -77.27096, 38.79666 ], [ -77.27067, 38.79695 ], [ -77.27104, 38.79702 ] ], [ [ -77.27152, 38.79452 ], [ -77.27068, 38.79527 ], [ -77.27229, 38.79605 ], [ -77.27258, 38.79536 ], [ -77.27152, 38.79452 ] ], [ [ -77.27507, 38.81902 ], [ -77.27424, 38.81831 ], [ -77.27419, 38.81943 ], [ -77.27507, 38.81902 ] ], [ [ -77.27433, 38.81467 ], [ -77.27369, 38.81497 ], [ -77.27323, 38.81477 ], [ -77.27263, 38.81353 ], [ -77.2732, 38.81291 ], [ -77.27389, 38.81294 ], [ -77.27335, 38.81255 ], [ -77.27241, 38.81265 ], [ -77.2726, 38.81527 ], [ -77.27406, 38.81574 ], [ -77.27433, 38.81467 ] ], [ [ -77.27469, 38.81169 ], [ -77.2739, 38.81137 ], [ -77.27472, 38.81205 ], [ -77.27469, 38.81169 ] ], [ [ -77.27504, 38.8123 ], [ -77.275, 38.81229 ], [ -77.27503, 38.81232 ], [ -77.27504, 38.8123 ] ], [ [ -77.26949, 38.80069 ], [ -77.26954, 38.80061 ], [ -77.26944, 38.80067 ], [ -77.26949, 38.80069 ] ], [ [ -77.27158, 38.80758 ], [ -77.27216, 38.80708 ], [ -77.27195, 38.80645 ], [ -77.27111, 38.80665 ], [ -77.2703, 38.80616 ], [ -77.26988, 38.80629 ], [ -77.27004, 38.80832 ], [ -77.27034, 38.80745 ], [ -77.27158, 38.80758 ] ], [ [ -77.27124, 38.82028 ], [ -77.27149, 38.82005 ], [ -77.27044, 38.81901 ], [ -77.27054, 38.81861 ], [ -77.2715, 38.81846 ], [ -77.27267, 38.81947 ], [ -77.27285, 38.8191 ], [ -77.27157, 38.81786 ], [ -77.27184, 38.8175 ], [ -77.27304, 38.81753 ], [ -77.27104, 38.81644 ], [ -77.27013, 38.81761 ], [ -77.26986, 38.82012 ], [ -77.27124, 38.82028 ] ], [ [ -77.27114, 38.81499 ], [ -77.27113, 38.81468 ], [ -77.27111, 38.81471 ], [ -77.27114, 38.81499 ] ], [ [ -77.27103, 38.81236 ], [ -77.27155, 38.8118 ], [ -77.27146, 38.81127 ], [ -77.27109, 38.81198 ], [ -77.27026, 38.81214 ], [ -77.27112, 38.81352 ], [ -77.27103, 38.81236 ] ], [ [ -77.27148, 38.81109 ], [ -77.27156, 38.81094 ], [ -77.27147, 38.81095 ], [ -77.27148, 38.81109 ] ], [ [ -77.27248, 38.8213 ], [ -77.27279, 38.82163 ], [ -77.27274, 38.82148 ], [ -77.27248, 38.8213 ] ], [ [ -77.25444, 38.81427 ], [ -77.25422, 38.81423 ], [ -77.25537, 38.8147 ], [ -77.25444, 38.81427 ] ], [ [ -77.25725, 38.8145 ], [ -77.25732, 38.8121 ], [ -77.25652, 38.81214 ], [ -77.25602, 38.81272 ], [ -77.25625, 38.81303 ], [ -77.25577, 38.81359 ], [ -77.25627, 38.81434 ], [ -77.25544, 38.81472 ], [ -77.25656, 38.81516 ], [ -77.25725, 38.8145 ] ], [ [ -77.25506, 38.81213 ], [ -77.25513, 38.81217 ], [ -77.25512, 38.81213 ], [ -77.25506, 38.81213 ] ], [ [ -77.25463, 38.80883 ], [ -77.2529, 38.81 ], [ -77.25544, 38.81007 ], [ -77.25463, 38.80883 ] ], [ [ -77.2545, 38.80584 ], [ -77.25443, 38.80581 ], [ -77.25459, 38.80604 ], [ -77.2545, 38.80584 ] ], [ [ -77.25575, 38.8029 ], [ -77.25579, 38.80284 ], [ -77.25573, 38.80286 ], [ -77.25575, 38.8029 ] ], [ [ -77.25613, 38.80197 ], [ -77.25542, 38.80126 ], [ -77.25588, 38.80073 ], [ -77.25566, 38.80015 ], [ -77.25467, 38.80058 ], [ -77.2548, 38.80144 ], [ -77.25303, 38.80281 ], [ -77.25508, 38.80188 ], [ -77.25613, 38.80197 ] ], [ [ -77.26406, 38.81966 ], [ -77.26458, 38.81935 ], [ -77.26425, 38.81926 ], [ -77.26406, 38.81966 ] ], [ [ -77.26304, 38.81288 ], [ -77.26202, 38.81316 ], [ -77.26103, 38.81291 ], [ -77.26057, 38.81345 ], [ -77.2606, 38.81374 ], [ -77.26138, 38.81331 ], [ -77.26197, 38.81362 ], [ -77.26226, 38.81484 ], [ -77.26283, 38.81476 ], [ -77.26291, 38.81421 ], [ -77.26364, 38.81385 ], [ -77.26304, 38.81288 ] ], [ [ -77.26459, 38.80895 ], [ -77.2662, 38.80935 ], [ -77.26574, 38.80805 ], [ -77.26533, 38.80794 ], [ -77.26421, 38.80894 ], [ -77.26027, 38.80886 ], [ -77.26207, 38.81 ], [ -77.26323, 38.81025 ], [ -77.26459, 38.80895 ] ], [ [ -77.26635, 38.81391 ], [ -77.26634, 38.81396 ], [ -77.26635, 38.81396 ], [ -77.26635, 38.81391 ] ], [ [ -77.2628, 38.80051 ], [ -77.26284, 38.80059 ], [ -77.26287, 38.80046 ], [ -77.2628, 38.80051 ] ], [ [ -77.26015, 38.79995 ], [ -77.26028, 38.80071 ], [ -77.25804, 38.80272 ], [ -77.25839, 38.80328 ], [ -77.25786, 38.80375 ], [ -77.25809, 38.80408 ], [ -77.25871, 38.8037 ], [ -77.25909, 38.80234 ], [ -77.26055, 38.80104 ], [ -77.26151, 38.80119 ], [ -77.26131, 38.80197 ], [ -77.26185, 38.80239 ], [ -77.26263, 38.80196 ], [ -77.26185, 38.80153 ], [ -77.26129, 38.80058 ], [ -77.26119, 38.79923 ], [ -77.26015, 38.79995 ] ], [ [ -77.2592, 38.7991 ], [ -77.25917, 38.79904 ], [ -77.25914, 38.79916 ], [ -77.2592, 38.7991 ] ], [ [ -77.25846, 38.79763 ], [ -77.25824, 38.79761 ], [ -77.25862, 38.79799 ], [ -77.25882, 38.79761 ], [ -77.25846, 38.79763 ] ], [ [ -77.25938, 38.81428 ], [ -77.25865, 38.8143 ], [ -77.25834, 38.81524 ], [ -77.25862, 38.8159 ], [ -77.25984, 38.81511 ], [ -77.25938, 38.81428 ] ], [ [ -77.25882, 38.81298 ], [ -77.25869, 38.81287 ], [ -77.25868, 38.81322 ], [ -77.25882, 38.81298 ] ], [ [ -77.25994, 38.81135 ], [ -77.25872, 38.81142 ], [ -77.25946, 38.81149 ], [ -77.25989, 38.81225 ], [ -77.25994, 38.81135 ] ], [ [ -77.25896, 38.8094 ], [ -77.25838, 38.80959 ], [ -77.25844, 38.81002 ], [ -77.25946, 38.80999 ], [ -77.25896, 38.8094 ] ], [ [ -77.25891, 38.80664 ], [ -77.25893, 38.80666 ], [ -77.25894, 38.80662 ], [ -77.25891, 38.80664 ] ], [ [ -77.26265, 38.81598 ], [ -77.26282, 38.81609 ], [ -77.26295, 38.81587 ], [ -77.26265, 38.81598 ] ], [ [ -77.26023, 38.80792 ], [ -77.26056, 38.80785 ], [ -77.26049, 38.80777 ], [ -77.26023, 38.80792 ] ], [ [ -77.26204, 38.81206 ], [ -77.26197, 38.81194 ], [ -77.26191, 38.81207 ], [ -77.26204, 38.81206 ] ], [ [ -77.26187, 38.81687 ], [ -77.26144, 38.81665 ], [ -77.26126, 38.817 ], [ -77.26187, 38.81687 ] ], [ [ -77.2636, 38.81698 ], [ -77.26369, 38.81676 ], [ -77.26329, 38.81676 ], [ -77.2633, 38.81712 ], [ -77.2636, 38.81698 ] ], [ [ -77.25733, 38.80048 ], [ -77.25708, 38.80009 ], [ -77.25716, 38.80032 ], [ -77.25733, 38.80048 ] ], [ [ -77.25797, 38.79618 ], [ -77.25804, 38.79596 ], [ -77.25784, 38.79602 ], [ -77.25797, 38.79618 ] ], [ [ -77.25773, 38.79912 ], [ -77.25808, 38.79926 ], [ -77.25741, 38.79853 ], [ -77.25773, 38.79912 ] ], [ [ -77.25682, 38.79676 ], [ -77.25704, 38.79679 ], [ -77.25701, 38.79665 ], [ -77.25682, 38.79676 ] ], [ [ -77.25831, 38.80075 ], [ -77.25838, 38.80059 ], [ -77.25773, 38.80073 ], [ -77.25811, 38.80109 ], [ -77.25831, 38.80075 ] ], [ [ -77.25718, 38.80711 ], [ -77.25735, 38.80707 ], [ -77.25729, 38.80704 ], [ -77.25718, 38.80711 ] ], [ [ -77.26257, 38.78825 ], [ -77.26285, 38.78812 ], [ -77.26274, 38.78799 ], [ -77.26257, 38.78825 ] ], [ [ -77.2657, 38.79108 ], [ -77.26573, 38.79087 ], [ -77.26568, 38.79092 ], [ -77.2657, 38.79108 ] ], [ [ -77.26582, 38.79184 ], [ -77.26582, 38.7918 ], [ -77.26574, 38.79186 ], [ -77.26582, 38.79184 ] ], [ [ -77.26169, 38.79025 ], [ -77.26176, 38.79033 ], [ -77.26183, 38.79019 ], [ -77.26169, 38.79025 ] ], [ [ -77.26073, 38.79115 ], [ -77.2607, 38.79109 ], [ -77.26065, 38.79114 ], [ -77.26073, 38.79115 ] ], [ [ -77.25027, 38.81442 ], [ -77.25023, 38.81546 ], [ -77.25036, 38.81466 ], [ -77.25027, 38.81442 ] ], [ [ -77.25164, 38.81335 ], [ -77.25187, 38.81217 ], [ -77.25313, 38.81134 ], [ -77.25197, 38.8113 ], [ -77.2518, 38.81188 ], [ -77.25103, 38.81228 ], [ -77.25074, 38.81337 ], [ -77.25164, 38.81335 ] ], [ [ -77.24974, 38.8113 ], [ -77.24656, 38.81131 ], [ -77.24676, 38.81167 ], [ -77.24626, 38.81216 ], [ -77.24669, 38.81264 ], [ -77.24661, 38.81373 ], [ -77.24769, 38.8141 ], [ -77.24842, 38.81379 ], [ -77.24887, 38.81403 ], [ -77.24824, 38.813 ], [ -77.24858, 38.81269 ], [ -77.24937, 38.81284 ], [ -77.24974, 38.8113 ] ], [ [ -77.24986, 38.80555 ], [ -77.2498, 38.80547 ], [ -77.2498, 38.80557 ], [ -77.24986, 38.80555 ] ], [ [ -77.24999, 38.80463 ], [ -77.25026, 38.8046 ], [ -77.25019, 38.80456 ], [ -77.24999, 38.80463 ] ], [ [ -77.24989, 38.79698 ], [ -77.24978, 38.79698 ], [ -77.24988, 38.79703 ], [ -77.24989, 38.79698 ] ], [ [ -77.25067, 38.79494 ], [ -77.25335, 38.79506 ], [ -77.25223, 38.79393 ], [ -77.25125, 38.79449 ], [ -77.24947, 38.79469 ], [ -77.24935, 38.79504 ], [ -77.25067, 38.79494 ] ], [ [ -77.24867, 38.79307 ], [ -77.24965, 38.79359 ], [ -77.24953, 38.79346 ], [ -77.24889, 38.79281 ], [ -77.24867, 38.79307 ] ], [ [ -77.24991, 38.79162 ], [ -77.2497, 38.79187 ], [ -77.25109, 38.79327 ], [ -77.25138, 38.79308 ], [ -77.24991, 38.79162 ] ], [ [ -77.25193, 38.79614 ], [ -77.25241, 38.79615 ], [ -77.25153, 38.79607 ], [ -77.25193, 38.79614 ] ], [ [ -77.25216, 38.80063 ], [ -77.25134, 38.8008 ], [ -77.25208, 38.80102 ], [ -77.25261, 38.80064 ], [ -77.25311, 38.80075 ], [ -77.25345, 38.80007 ], [ -77.25216, 38.80063 ] ], [ [ -77.2524, 38.79874 ], [ -77.2523, 38.79905 ], [ -77.25249, 38.79908 ], [ -77.2524, 38.79874 ] ], [ [ -77.25354, 38.80711 ], [ -77.25357, 38.80713 ], [ -77.25353, 38.80706 ], [ -77.25354, 38.80711 ] ], [ [ -77.25094, 38.80365 ], [ -77.25141, 38.80395 ], [ -77.25093, 38.80328 ], [ -77.25031, 38.80336 ], [ -77.25094, 38.80365 ] ], [ [ -77.25422, 38.81314 ], [ -77.25453, 38.81317 ], [ -77.25423, 38.81299 ], [ -77.25422, 38.81314 ] ], [ [ -77.25312, 38.81494 ], [ -77.2533, 38.81513 ], [ -77.25335, 38.81506 ], [ -77.25312, 38.81494 ] ], [ [ -77.25176, 38.81522 ], [ -77.25169, 38.81507 ], [ -77.25163, 38.81542 ], [ -77.25176, 38.81522 ] ], [ [ -77.2475, 38.79442 ], [ -77.24797, 38.7949 ], [ -77.24817, 38.79432 ], [ -77.24786, 38.79402 ], [ -77.2475, 38.79442 ] ], [ [ -77.2452, 38.80904 ], [ -77.24485, 38.80853 ], [ -77.24534, 38.80937 ], [ -77.24574, 38.80932 ], [ -77.2452, 38.80904 ] ], [ [ -77.2484, 38.80678 ], [ -77.24731, 38.80678 ], [ -77.24743, 38.80732 ], [ -77.24795, 38.80734 ], [ -77.2484, 38.80678 ] ], [ [ -77.2455, 38.80705 ], [ -77.24571, 38.80679 ], [ -77.24543, 38.80679 ], [ -77.2455, 38.80705 ] ], [ [ -77.24973, 38.8072 ], [ -77.24971, 38.80728 ], [ -77.24981, 38.80726 ], [ -77.24973, 38.8072 ] ], [ [ -77.24877, 38.81519 ], [ -77.24875, 38.8152 ], [ -77.24886, 38.81521 ], [ -77.24877, 38.81519 ] ], [ [ -77.24667, 38.81491 ], [ -77.24653, 38.81473 ], [ -77.2465, 38.81508 ], [ -77.24667, 38.81491 ] ], [ [ -77.24796, 38.8165 ], [ -77.24798, 38.81651 ], [ -77.24795, 38.81643 ], [ -77.24796, 38.8165 ] ], [ [ -77.24049, 38.80467 ], [ -77.24033, 38.80586 ], [ -77.24288, 38.80573 ], [ -77.24296, 38.80493 ], [ -77.24049, 38.80467 ] ], [ [ -77.24012, 38.80693 ], [ -77.23983, 38.80801 ], [ -77.24164, 38.80804 ], [ -77.24388, 38.80947 ], [ -77.24298, 38.80784 ], [ -77.24203, 38.80796 ], [ -77.24181, 38.80697 ], [ -77.24012, 38.80693 ] ], [ [ -77.24144, 38.80918 ], [ -77.24138, 38.80954 ], [ -77.24185, 38.80952 ], [ -77.24144, 38.80918 ] ], [ [ -77.24269, 38.81238 ], [ -77.24216, 38.81256 ], [ -77.24273, 38.81305 ], [ -77.24327, 38.81293 ], [ -77.24339, 38.81211 ], [ -77.24324, 38.81147 ], [ -77.24259, 38.81162 ], [ -77.24269, 38.81238 ] ] ] } },
{ "type": "Feature", "properties": { "variant": "T2s", "miles": 1.0 }, "geometry": { "type": "Polygon", "coordinates": [ [ [ -77.27466, 38.79163 ], [ -77.27405, 38.79308 ], [ -77.2741, 38.79458 ], [ -77.27517, 38.79571 ], [ -77.27584, 38.79579 ], [ -77.27623, 38.79658 ], [ -77.27488, 38.79732 ], [ -77.27395, 38.79693 ], [ -77.27379, 38.79636 ], [ -77.27341, 38.7976 ], [ -77.27537, 38.79845 ], [ -77.27685, 38.80039 ], [ -77.27746, 38.8003 ], [ -77.27795, 38.80096 ], [ -77.27629, 38.8016 ], [ -77.27444, 38.79925 ], [ -77.27218, 38.79852 ], [ -77.27123, 38.79915 ], [ -77.26963, 38.79949 ], [ -77.26927, 38.79968 ], [ -77.26973, 38.80035 ], [ -77.27073, 38.80038 ], [ -77.2707, 38.80123 ], [ -77.2714, 38.80144 ], [ -77.27168, 38.80235 ], [ -77.2714, 38.80285 ], [ -77.2703, 38.80306 ], [ -77.26941, 38.80246 ], [ -77.26956, 38.80344 ], [ -77.26864, 38.8042 ], [ -77.26859, 38.80534 ], [ -77.26959, 38.8051 ], [ -77.26954, 38.80446 ], [ -77.27109, 38.80377 ], [ -77.27251, 38.80519 ], [ -77.27268, 38.80411 ], [ -77.27333, 38.80395 ], [ -77.27309, 38.80301 ], [ -77.27347, 38.80272 ], [ -77.27518, 38.80295 ], [ -77.27596, 38.80341 ], [ -77.27591, 38.80382 ], [ -77.27514, 38.80406 ], [ -77.27522, 38.80489 ], [ -77.27632, 38.80467 ], [ -77.27756, 38.80504 ], [ -77.27733, 38.80578 ], [ -77.27587, 38.80584 ], [ -77.2768, 38.80637 ], [ -77.27679, 38.80713 ], [ -77.2754, 38.80711 ], [ -77.27512, 38.80853 ], [ -77.27312, 38.80952 ], [ -77.27006, 38.80957 ], [ -77.2688, 38.80882 ], [ -77.2674, 38.80879 ], [ -77.26761, 38.80951 ], [ -77.26657, 38.80966 ], [ -77.26571, 38.80865 ], [ -77.26574, 38.80805 ], [ -77.26392, 38.80696 ], [ -77.26443, 38.80631 ], [ -77.26632, 38.80625 ], [ -77.26675, 38.80584 ], [ -77.26617, 38.80455 ], [ -77.26705, 38.80228 ], [ -77.26596, 38.80136 ], [ -77.26061, 38.80479 ], [ -77.26054, 38.80553 ], [ -77.25827, 38.80709 ], [ -77.25729, 38.80704 ], [ -77.25509, 38.80848 ], [ -77.25433, 38.80834 ], [ -77.2544, 38.80739 ], [ -77.26414, 38.80127 ], [ -77.26717, 38.79881 ], [ -77.27202, 38.79657 ], [ -77.27273, 38.79538 ], [ -77.27285, 38.79236 ], [ -77.2734, 38.79151 ], [ -77.27434, 38.7913 ], [ -77.27466, 38.79163 ] ], [ [ -77.27004, 38.80832 ], [ -77.27034, 38.80745 ], [ -77.27347, 38.80808 ], [ -77.27412, 38.80754 ], [ -77.27356, 38.80648 ], [ -77.27169, 38.80637 ], [ -77.27111, 38.80665 ], [ -77.2703, 38.80616 ], [ -77.26988, 38.80629 ], [ -77.27004, 38.80832 ] ], [ [ -77.26951, 38.80066 ], [ -77.26954, 38.80061 ], [ -77.26944, 38.80067 ], [ -77.26951, 38.80066 ] ], [ [ -77.26853, 38.80654 ], [ -77.26779, 38.80642 ], [ -77.26741, 38.80695 ], [ -77.26781, 38.80768 ], [ -77.26857, 38.80716 ], [ -77.26853, 38.80654 ] ] ] } },
{ "type": "Feature", "properties": { "variant": "T2s", "miles": 1.5 }, "geometry": { "type": "Polygon", "coordinates": [ [ [ -77.27863, 38.78633 ], [ -77.27974, 38.78648 ], [ -77.27997, 38.78722 ], [ -77.2783, 38.78787 ], [ -77.28046, 38.78781 ], [ -77.28086, 38.78808 ], [ -77.28077, 38.78946 ], [ -77.28013, 38.78988 ], [ -77.27674, 38.78997 ], [ -77.27898, 38.79117 ], [ -77.27843, 38.79236 ], [ -77.27745, 38.79239 ], [ -77.27743, 38.79157 ], [ -77.27576, 38.79078 ], [ -77.27586, 38.79186 ], [ -77.27725, 38.79278 ], [ -77.27835, 38.79276 ], [ -77.27943, 38.79355 ], [ -77.27974, 38.79433 ], [ -77.28093, 38.79495 ], [ -77.28153, 38.79488 ], [ -77.28193, 38.79558 ], [ -77.28138, 38.79617 ], [ -77.27937, 38.79543 ], [ -77.27724, 38.79579 ], [ -77.27764, 38.79657 ], [ -77.27667, 38.79691 ], [ -77.27739, 38.79787 ], [ -77.27683, 38.79849 ], [ -77.27632, 38.79841 ], [ -77.2753, 38.79725 ], [ -77.27408, 38.79703 ], [ -77.27379, 38.79636 ], [ -77.27341, 38.7976 ], [ -77.27548, 38.79853 ], [ -77.2761, 38.79839 ], [ -77.27678, 38.799 ], [ -77.27976, 38.79871 ], [ -77.27946, 38.80077 ], [ -77.27755, 38.80133 ], [ -77.27807, 38.8021 ], [ -77.27892, 38.80166 ], [ -77.27962, 38.80186 ], [ -77.28028, 38.80281 ], [ -77.2802, 38.80377 ], [ -77.28126, 38.80355 ], [ -77.28155, 38.80427 ], [ -77.28033, 38.80564 ], [ -77.27944, 38.80529 ], [ -77.27971, 38.80599 ], [ -77.2781, 38.80779 ], [ -77.2754, 38.80711 ], [ -77.27531, 38.80827 ], [ -77.27614, 38.80868 ], [ -77.27562, 38.80932 ], [ -77.2739, 38.80914 ], [ -77.27312, 38.80952 ], [ -77.27023, 38.80959 ], [ -77.26886, 38.80892 ], [ -77.26892, 38.80992 ], [ -77.2733, 38.80969 ], [ -77.274, 38.81021 ], [ -77.27332, 38.81089 ], [ -77.27147, 38.81095 ], [ -77.27109, 38.81198 ], [ -77.27026, 38.81214 ], [ -77.27143, 38.814 ], [ -77.27097, 38.8149 ], [ -77.27187, 38.81545 ], [ -77.27184, 38.81586 ], [ -77.27101, 38.81617 ], [ -77.26929, 38.81541 ], [ -77.26564, 38.81202 ], [ -77.26566, 38.81314 ], [ -77.26502, 38.81378 ], [ -77.26566, 38.81451 ], [ -77.26544, 38.81489 ], [ -77.26378, 38.8152 ], [ -77.26296, 38.81497 ], [ -77.26291, 38.81421 ], [ -77.26364, 38.81385 ], [ -77.26304, 38.81288 ], [ -77.26202, 38.81316 ], [ -77.26103, 38.81291 ], [ -77.26038, 38.81406 ], [ -77.25941, 38.81408 ], [ -77.25927, 38.81305 ], [ -77.26024, 38.81202 ], [ -77.26001, 38.81123 ], [ -77.25698, 38.81128 ], [ -77.25641, 38.81143 ], [ -77.25629, 38.81198 ], [ -77.25429, 38.81212 ], [ -77.25355, 38.81277 ], [ -77.2529, 38.8122 ], [ -77.25313, 38.81134 ], [ -77.25197, 38.8113 ], [ -77.25, 38.81418 ], [ -77.24907, 38.81396 ], [ -77.24974, 38.8113 ], [ -77.24828, 38.81136 ], [ -77.24756, 38.81084 ], [ -77.24807, 38.81034 ], [ -77.24835, 38.8061 ], [ -77.24878, 38.80568 ], [ -77.24986, 38.80555 ], [ -77.24967, 38.80494 ], [ -77.25026, 38.8046 ], [ -77.24899, 38.80405 ], [ -77.24922, 38.80331 ], [ -77.25012, 38.80333 ], [ -77.25141, 38.80395 ], [ -77.25055, 38.80243 ], [ -77.25125, 38.80195 ], [ -77.25317, 38.80162 ], [ -77.25368, 38.80227 ], [ -77.25303, 38.80281 ], [ -77.25533, 38.80182 ], [ -77.25632, 38.80227 ], [ -77.25727, 38.80195 ], [ -77.2583, 38.80287 ], [ -77.25809, 38.80408 ], [ -77.25953, 38.8031 ], [ -77.26013, 38.80369 ], [ -77.26414, 38.80127 ], [ -77.26743, 38.79864 ], [ -77.27207, 38.79652 ], [ -77.27273, 38.79538 ], [ -77.27283, 38.79244 ], [ -77.27427, 38.79054 ], [ -77.27363, 38.78997 ], [ -77.27198, 38.78952 ], [ -77.27185, 38.78868 ], [ -77.27378, 38.78739 ], [ -77.27613, 38.7877 ], [ -77.27788, 38.78508 ], [ -77.27859, 38.78516 ], [ -77.27891, 38.78588 ], [ -77.27863, 38.78633 ] ], [ [ -77.27034, 38.80745 ], [ -77.27158, 38.80758 ], [ -77.27216, 38.80708 ], [ -77.27195, 38.80645 ], [ -77.27111, 38.80665 ], [ -77.2703, 38.80616 ], [ -77.26988, 38.80629 ], [ -77.26973, 38.80775 ], [ -77.27012, 38.8082 ], [ -77.27034, 38.80745 ] ], [ [ -77.26703, 38.80222 ], [ -77.26596, 38.80136 ], [ -77.26061, 38.80479 ], [ -77.26054, 38.80553 ], [ -77.25791, 38.80719 ], [ -77.25844, 38.80847 ], [ -77.25798, 38.8091 ], [ -77.25844, 38.81002 ], [ -77.2623, 38.80997 ], [ -77.26323, 38.81025 ], [ -77.26367, 38.80942 ], [ -77.2645, 38.80897 ], [ -77.2662, 38.80935 ], [ -77.26574, 38.80805 ], [ -77.26392, 38.80696 ], [ -77.26472, 38.8057 ], [ -77.2663, 38.80523 ], [ -77.26703, 38.80222 ] ], [ [ -77.27471, 38.79311 ], [ -77.27421, 38.79263 ], [ -77.2741, 38.79458 ], [ -77.27507, 38.79533 ], [ -77.27471, 38.79311 ] ], [ [ -77.2784, 38.78867 ], [ -77.27837, 38.78876 ], [ -77.27858, 38.78877 ], [ -77.2784, 38.78867 ] ], [ [ -77.27644, 38.79553 ], [ -77.27627, 38.79587 ], [ -77.27699, 38.79575 ], [ -77.27644, 38.79553 ] ], [ [ -77.27457, 38.78943 ], [ -77.27485, 38.78953 ], [ -77.27548, 38.78878 ], [ -77.27457, 38.78943 ] ], [ [ -77.27569, 38.80308 ], [ -77.27649, 38.80207 ], [ -77.27637, 38.8019 ], [ -77.27547, 38.80229 ], [ -77.27569, 38.80308 ] ], [ [ -77.27433, 38.79917 ], [ -77.27218, 38.79852 ], [ -77.26927, 38.79968 ], [ -77.26973, 38.80035 ], [ -77.27073, 38.80038 ], [ -77.2707, 38.80123 ], [ -77.2714, 38.80144 ], [ -77.27168, 38.80235 ], [ -77.2714, 38.80285 ], [ -77.2703, 38.80306 ], [ -77.26941, 38.80246 ], [ -77.26956, 38.80344 ], [ -77.26864, 38.8042 ], [ -77.26859, 38.80534 ], [ -77.26959, 38.8051 ], [ -77.26954, 38.80446 ], [ -77.27109, 38.80377 ], [ -77.27251, 38.80519 ], [ -77.27223, 38.80357 ], [ -77.27152, 38.80291 ], [ -77.27244, 38.8016 ], [ -77.27391, 38.80165 ], [ -77.27447, 38.80091 ], [ -77.27561, 38.80086 ], [ -77.27433, 38.79917 ] ], [ [ -77.2768, 38.80378 ], [ -77.27681, 38.80378 ], [ -77.27681, 38.80377 ], [ -77.2768, 38.80378 ] ], [ [ -77.27587, 38.80469 ], [ -77.27584, 38.80467 ], [ -77.27583, 38.8047 ], [ -77.27587, 38.80469 ] ], [ [ -77.26944, 38.80067 ], [ -77.26949, 38.80069 ], [ -77.26954, 38.80061 ], [ -77.26944, 38.80067 ] ], [ [ -77.27412, 38.80768 ], [ -77.274, 38.8073 ], [ -77.27337, 38.80652 ], [ -77.27412, 38.80768 ] ], [ [ -77.26647, 38.81032 ], [ -77.26754, 38.80999 ], [ -77.26752, 38.80956 ], [ -77.26667, 38.80971 ], [ -77.26647, 38.81032 ] ], [ [ -77.26742, 38.80884 ], [ -77.26748, 38.8089 ], [ -77.26748, 38.80882 ], [ -77.26742, 38.80884 ] ], [ [ -77.26862, 38.80682 ], [ -77.26779, 38.80642 ], [ -77.26741, 38.80695 ], [ -77.26802, 38.80781 ], [ -77.26862, 38.80682 ] ], [ [ -77.26204, 38.81206 ], [ -77.26197, 38.81194 ], [ -77.26191, 38.81207 ], [ -77.26204, 38.81206 ] ], [ [ -77.25718, 38.80711 ], [ -77.25735, 38.80707 ], [ -77.25729, 38.80704 ], [ -77.25718, 38.80711 ] ], [ [ -77.25443, 38.80581 ], [ -77.25459, 38.80604 ], [ -77.25468, 38.80591 ], [ -77.25443, 38.80581 ] ], [ [ -77.25575, 38.8029 ], [ -77.25579, 38.80284 ], [ -77.25573, 38.80286 ], [ -77.25575, 38.8029 ] ], [ [ -77.25544, 38.81007 ], [ -77.25463, 38.80883 ], [ -77.2529, 38.81 ], [ -77.25544, 38.81007 ] ], [ [ -77.25513, 38.80691 ], [ -77.25531, 38.80679 ], [ -77.25508, 38.80684 ], [ -77.25513, 38.80691 ] ], [ [ -77.24979, 38.80674 ], [ -77.24945, 38.80817 ], [ -77.25112, 38.80746 ], [ -77.25052, 38.8065 ], [ -77.24979, 38.80674 ] ], [ [ -77.25357, 38.80713 ], [ -77.25353, 38.80706 ], [ -77.25354, 38.8071 ], [ -77.25357, 38.80713 ] ] ] } },
{ "type": "Feature", "properties": { "variant": "T2s", "miles": 2.0 }, "geometry": { "type": "Polygon", "coordinates": [ [ [ -77.2807, 38.782 ], [ -77.27946, 38.78211 ], [ -77.28033, 38.78278 ], [ -77.2846, 38.78043 ], [ -77.28557, 38.78051 ], [ -77.28546, 38.78127 ], [ -77.28359, 38.78244 ], [ -77.2842, 38.78351 ], [ -77.28325, 38.7838 ], [ -77.28304, 38.78455 ], [ -77.28232, 38.78503 ], [ -77.2849, 38.78644 ], [ -77.2851, 38.78719 ], [ -77.28403, 38.78748 ], [ -77.27974, 38.78473 ], [ -77.27863, 38.78633 ], [ -77.2803, 38.78647 ], [ -77.28111, 38.78695 ], [ -77.28122, 38.78752 ], [ -77.28066, 38.78794 ], [ -77.28077, 38.78946 ], [ -77.28013, 38.78988 ], [ -77.27674, 38.78997 ], [ -77.27805, 38.79059 ], [ -77.27905, 38.78999 ], [ -77.28252, 38.79039 ], [ -77.28347, 38.79111 ], [ -77.28348, 38.79213 ], [ -77.28218, 38.79332 ], [ -77.2815, 38.79278 ], [ -77.28217, 38.79177 ], [ -77.28196, 38.79139 ], [ -77.27924, 38.79114 ], [ -77.27795, 38.79253 ], [ -77.27723, 38.79201 ], [ -77.27743, 38.79157 ], [ -77.27576, 38.79078 ], [ -77.27586, 38.79186 ], [ -77.27725, 38.79278 ], [ -77.27835, 38.79276 ], [ -77.2802, 38.79456 ], [ -77.28105, 38.79367 ], [ -77.28175, 38.79386 ], [ -77.28239, 38.79338 ], [ -77.28357, 38.79376 ], [ -77.28461, 38.79333 ], [ -77.28508, 38.79374 ], [ -77.28554, 38.79313 ], [ -77.28519, 38.79198 ], [ -77.28601, 38.79156 ], [ -77.28652, 38.79236 ], [ -77.2873, 38.79257 ], [ -77.2876, 38.79395 ], [ -77.28665, 38.79614 ], [ -77.28571, 38.79609 ], [ -77.28445, 38.79705 ], [ -77.28393, 38.79696 ], [ -77.28375, 38.7963 ], [ -77.28172, 38.79638 ], [ -77.28117, 38.7975 ], [ -77.27985, 38.79789 ], [ -77.27946, 38.80077 ], [ -77.27755, 38.80133 ], [ -77.27807, 38.8021 ], [ -77.27892, 38.80166 ], [ -77.27981, 38.80201 ], [ -77.28028, 38.80281 ], [ -77.2802, 38.80377 ], [ -77.28126, 38.80355 ], [ -77.28142, 38.80467 ], [ -77.28033, 38.80564 ], [ -77.27944, 38.80529 ], [ -77.27971, 38.80599 ], [ -77.2781, 38.80779 ], [ -77.2754, 38.80711 ], [ -77.27531, 38.80827 ], [ -77.27714, 38.8083 ], [ -77.27803, 38.80868 ], [ -77.27992, 38.80597 ], [ -77.28089, 38.80587 ], [ -77.28103, 38.80662 ], [ -77.27926, 38.80918 ], [ -77.27986, 38.80925 ], [ -77.28114, 38.80847 ], [ -77.28206, 38.80872 ], [ -77.2821, 38.80913 ], [ -77.28045, 38.81023 ], [ -77.28057, 38.81062 ], [ -77.28003, 38.81103 ], [ -77.28065, 38.81152 ], [ -77.28024, 38.81255 ], [ -77.28206, 38.81279 ], [ -77.28217, 38.81355 ], [ -77.2809, 38.81377 ], [ -77.27924, 38.81333 ], [ -77.27844, 38.81379 ], [ -77.27787, 38.81317 ], [ -77.27828, 38.81238 ], [ -77.27744, 38.81147 ], [ -77.27589, 38.81337 ], [ -77.27572, 38.81456 ], [ -77.27726, 38.81449 ], [ -77.27804, 38.81495 ], [ -77.27796, 38.81587 ], [ -77.27848, 38.81636 ], [ -77.2778, 38.81969 ], [ -77.27905, 38.82059 ], [ -77.27907, 38.82141 ], [ -77.27801, 38.82159 ], [ -77.27704, 38.82086 ], [ -77.27645, 38.8216 ], [ -77.27548, 38.82168 ], [ -77.27457, 38.82035 ], [ -77.27246, 38.82083 ], [ -77.27253, 38.82171 ], [ -77.27167, 38.82208 ], [ -77.2697, 38.82046 ], [ -77.26819, 38.82114 ], [ -77.2671, 38.82104 ], [ -77.26781, 38.82185 ], [ -77.26759, 38.82222 ], [ -77.2671, 38.82237 ], [ -77.26637, 38.822 ], [ -77.266, 38.82265 ], [ -77.26504, 38.82251 ], [ -77.26504, 38.82169 ], [ -77.26586, 38.82049 ], [ -77.26673, 38.81996 ], [ -77.26851, 38.81963 ], [ -77.26878, 38.81845 ], [ -77.26815, 38.81889 ], [ -77.26745, 38.81817 ], [ -77.26778, 38.81748 ], [ -77.26872, 38.81712 ], [ -77.26888, 38.81506 ], [ -77.26564, 38.81202 ], [ -77.26567, 38.8131 ], [ -77.26502, 38.81395 ], [ -77.26549, 38.81413 ], [ -77.26563, 38.81503 ], [ -77.26494, 38.81729 ], [ -77.26262, 38.81939 ], [ -77.26091, 38.81893 ], [ -77.2593, 38.81934 ], [ -77.25825, 38.81915 ], [ -77.25856, 38.81731 ], [ -77.25572, 38.81743 ], [ -77.25524, 38.81662 ], [ -77.25564, 38.81635 ], [ -77.25724, 38.81645 ], [ -77.25724, 38.81616 ], [ -77.2562, 38.81621 ], [ -77.25456, 38.81558 ], [ -77.25347, 38.81721 ], [ -77.25018, 38.81716 ], [ -77.25006, 38.81833 ], [ -77.25159, 38.81844 ], [ -77.25185, 38.8188 ], [ -77.25185, 38.81964 ], [ -77.25141, 38.82003 ], [ -77.25088, 38.82001 ], [ -77.25053, 38.81945 ], [ -77.24722, 38.8192 ], [ -77.24713, 38.81796 ], [ -77.24868, 38.81823 ], [ -77.2487, 38.81773 ], [ -77.24725, 38.81744 ], [ -77.24418, 38.81507 ], [ -77.24354, 38.8153 ], [ -77.2431, 38.81507 ], [ -77.2431, 38.81409 ], [ -77.24215, 38.81374 ], [ -77.24221, 38.81333 ], [ -77.24327, 38.81293 ], [ -77.24331, 38.81133 ], [ -77.24445, 38.81115 ], [ -77.24456, 38.81045 ], [ -77.24083, 38.81048 ], [ -77.24079, 38.80972 ], [ -77.24172, 38.80934 ], [ -77.24097, 38.809 ], [ -77.23887, 38.80897 ], [ -77.23833, 38.80833 ], [ -77.23915, 38.80791 ], [ -77.24136, 38.80796 ], [ -77.24388, 38.80947 ], [ -77.24298, 38.80784 ], [ -77.24203, 38.80796 ], [ -77.24181, 38.8069 ], [ -77.23947, 38.80686 ], [ -77.23889, 38.80624 ], [ -77.23968, 38.80579 ], [ -77.24288, 38.80573 ], [ -77.24296, 38.80493 ], [ -77.24071, 38.80481 ], [ -77.2396, 38.80332 ], [ -77.24325, 38.79886 ], [ -77.24442, 38.79803 ], [ -77.24624, 38.79769 ], [ -77.24637, 38.79712 ], [ -77.24736, 38.79676 ], [ -77.24679, 38.79532 ], [ -77.24758, 38.7949 ], [ -77.24903, 38.79538 ], [ -77.2487, 38.79613 ], [ -77.24897, 38.7969 ], [ -77.24988, 38.79703 ], [ -77.25038, 38.79757 ], [ -77.25092, 38.79658 ], [ -77.25186, 38.79639 ], [ -77.25221, 38.79743 ], [ -77.25125, 38.79843 ], [ -77.25214, 38.79835 ], [ -77.25238, 38.79866 ], [ -77.25221, 38.79769 ], [ -77.25262, 38.79743 ], [ -77.25333, 38.79765 ], [ -77.25361, 38.79646 ], [ -77.25501, 38.79607 ], [ -77.25602, 38.79656 ], [ -77.2557, 38.79749 ], [ -77.25611, 38.79804 ], [ -77.2571, 38.79735 ], [ -77.25807, 38.79744 ], [ -77.25821, 38.79784 ], [ -77.25724, 38.79867 ], [ -77.25812, 38.79927 ], [ -77.25922, 38.79913 ], [ -77.25863, 38.79842 ], [ -77.25893, 38.79771 ], [ -77.25846, 38.79679 ], [ -77.2588, 38.79648 ], [ -77.25933, 38.79644 ], [ -77.2603, 38.79732 ], [ -77.26048, 38.79828 ], [ -77.26344, 38.79741 ], [ -77.26392, 38.79758 ], [ -77.26383, 38.79838 ], [ -77.26485, 38.79924 ], [ -77.2665, 38.79781 ], [ -77.26767, 38.79837 ], [ -77.27131, 38.79691 ], [ -77.27258, 38.79536 ], [ -77.27152, 38.79452 ], [ -77.27047, 38.79508 ], [ -77.26977, 38.79454 ], [ -77.27138, 38.79289 ], [ -77.27262, 38.79257 ], [ -77.27416, 38.79047 ], [ -77.27181, 38.78931 ], [ -77.27185, 38.78868 ], [ -77.27318, 38.78771 ], [ -77.27292, 38.78742 ], [ -77.27136, 38.78858 ], [ -77.2704, 38.7881 ], [ -77.2709, 38.78736 ], [ -77.27034, 38.78694 ], [ -77.27101, 38.78616 ], [ -77.27097, 38.78548 ], [ -77.27007, 38.78554 ], [ -77.26989, 38.78455 ], [ -77.26963, 38.7863 ], [ -77.26919, 38.78653 ], [ -77.26838, 38.7861 ], [ -77.26845, 38.7842 ], [ -77.26791, 38.7839 ], [ -77.26681, 38.78455 ], [ -77.26632, 38.7844 ], [ -77.26611, 38.78402 ], [ -77.2668, 38.78324 ], [ -77.26626, 38.78265 ], [ -77.26645, 38.78226 ], [ -77.26705, 38.78201 ], [ -77.26935, 38.78322 ], [ -77.271, 38.7836 ], [ -77.27333, 38.78175 ], [ -77.2749, 38.78159 ], [ -77.27549, 38.78206 ], [ -77.27675, 38.78164 ], [ -77.27613, 38.78022 ], [ -77.27669, 38.77948 ], [ -77.27722, 38.7795 ], [ -77.27785, 38.78039 ], [ -77.27873, 38.77998 ], [ -77.27921, 38.78015 ], [ -77.27939, 38.78054 ], [ -77.27886, 38.78113 ], [ -77.2804, 38.78042 ], [ -77.2807, 38.782 ] ], [ [ -77.26649, 38.80961 ], [ -77.26626, 38.8102 ], [ -77.26754, 38.80999 ], [ -77.26752, 38.80956 ], [ -77.26649, 38.80961 ] ], [ [ -77.2674, 38.80879 ], [ -77.26748, 38.8089 ], [ -77.26748, 38.80882 ], [ -77.2674, 38.80879 ] ], [ [ -77.26853, 38.80654 ], [ -77.26779, 38.80642 ], [ -77.26741, 38.80695 ], [ -77.26795, 38.80777 ], [ -77.26853, 38.80654 ] ], [ [ -77.26959, 38.8051 ], [ -77.26954, 38.80446 ], [ -77.27109, 38.80377 ], [ -77.27251, 38.80519 ], [ -77.27223, 38.80357 ], [ -77.27152, 38.80291 ], [ -77.27244, 38.8016 ], [ -77.27319, 38.80155 ], [ -77.27267, 38.80048 ], [ -77.27313, 38.79941 ], [ -77.27391, 38.799 ], [ -77.27218, 38.79852 ], [ -77.26927, 38.79968 ], [ -77.26973, 38.80035 ], [ -77.27073, 38.80038 ], [ -77.2707, 38.80123 ], [ -77.2714, 38.80144 ], [ -77.27168, 38.80235 ], [ -77.2714, 38.80285 ], [ -77.2703, 38.80306 ], [ -77.26941, 38.80246 ], [ -77.26956, 38.80344 ], [ -77.26864, 38.8042 ], [ -77.26863, 38.80534 ], [ -77.26959, 38.8051 ] ], [ [ -77.27583, 38.8047 ], [ -77.27587, 38.80469 ], [ -77.27584, 38.80467 ], [ -77.27583, 38.8047 ] ], [ [ -77.27569, 38.80308 ], [ -77.27649, 38.80207 ], [ -77.27637, 38.8019 ], [ -77.27547, 38.80229 ], [ -77.27569, 38.80308 ] ], [ [ -77.27678, 38.799 ], [ -77.27868, 38.79883 ], [ -77.27623, 38.79838 ], [ -77.2753, 38.79725 ], [ -77.27395, 38.79693 ], [ -77.27379, 38.79636 ], [ -77.27339, 38.79693 ], [ -77.27365, 38.79784 ], [ -77.27548, 38.79853 ], [ -77.2761, 38.79839 ], [ -77.27678, 38.799 ] ], [ [ -77.27471, 38.79311 ], [ -77.27421, 38.79263 ], [ -77.2741, 38.79458 ], [ -77.27507, 38.79533 ], [ -77.27471, 38.79311 ] ], [ [ -77.27712, 38.786 ], [ -77.27632, 38.78597 ], [ -77.2743, 38.7869 ], [ -77.27621, 38.78756 ], [ -77.27712, 38.786 ] ], [ [ -77.27465, 38.78571 ], [ -77.27496, 38.78557 ], [ -77.27363, 38.78588 ], [ -77.27465, 38.78571 ] ], [ [ -77.27443, 38.78293 ], [ -77.27375, 38.78304 ], [ -77.27419, 38.78329 ], [ -77.27443, 38.78293 ] ], [ [ -77.27837, 38.78876 ], [ -77.27858, 38.78877 ], [ -77.2784, 38.78867 ], [ -77.27837, 38.78876 ] ], [ [ -77.27863, 38.78383 ], [ -77.2772, 38.78268 ], [ -77.27644, 38.78407 ], [ -77.277, 38.78458 ], [ -77.27793, 38.78471 ], [ -77.27863, 38.78383 ] ], [ [ -77.28098, 38.784 ], [ -77.28181, 38.78394 ], [ -77.28148, 38.78364 ], [ -77.28098, 38.784 ] ], [ [ -77.2783, 38.78787 ], [ -77.27838, 38.78798 ], [ -77.27883, 38.78781 ], [ -77.2783, 38.78787 ] ], [ [ -77.27993, 38.78784 ], [ -77.2801, 38.78783 ], [ -77.27995, 38.78766 ], [ -77.27954, 38.78798 ], [ -77.27993, 38.78784 ] ], [ [ -77.27851, 38.7954 ], [ -77.27724, 38.79579 ], [ -77.27833, 38.79627 ], [ -77.27898, 38.79552 ], [ -77.27851, 38.7954 ] ], [ [ -77.2825, 38.79539 ], [ -77.28272, 38.79538 ], [ -77.28255, 38.79512 ], [ -77.2825, 38.79539 ] ], [ [ -77.27627, 38.79587 ], [ -77.27699, 38.79575 ], [ -77.27679, 38.79569 ], [ -77.27627, 38.79587 ] ], [ [ -77.27667, 38.79691 ], [ -77.27668, 38.79692 ], [ -77.27668, 38.79691 ], [ -77.27667, 38.79691 ] ], [ [ -77.27566, 38.78455 ], [ -77.27561, 38.78457 ], [ -77.27565, 38.78457 ], [ -77.27566, 38.78455 ] ], [ [ -77.27478, 38.80944 ], [ -77.27346, 38.80916 ], [ -77.27312, 38.80952 ], [ -77.27023, 38.80959 ], [ -77.26886, 38.80892 ], [ -77.26892, 38.80992 ], [ -77.27574, 38.80978 ], [ -77.27601, 38.80923 ], [ -77.27478, 38.80944 ] ], [ [ -77.27908, 38.8103 ], [ -77.27859, 38.81012 ], [ -77.27836, 38.81046 ], [ -77.27928, 38.8116 ], [ -77.27971, 38.81104 ], [ -77.27908, 38.8103 ] ], [ [ -77.27511, 38.81662 ], [ -77.2749, 38.81705 ], [ -77.27596, 38.81781 ], [ -77.27673, 38.81684 ], [ -77.27511, 38.81662 ] ], [ [ -77.27372, 38.80668 ], [ -77.27337, 38.80652 ], [ -77.27412, 38.80768 ], [ -77.27372, 38.80668 ] ], [ [ -77.27504, 38.8123 ], [ -77.275, 38.81229 ], [ -77.27503, 38.81232 ], [ -77.27504, 38.8123 ] ], [ [ -77.27406, 38.81154 ], [ -77.2739, 38.81137 ], [ -77.27394, 38.81151 ], [ -77.27472, 38.81205 ], [ -77.27456, 38.8116 ], [ -77.27406, 38.81154 ] ], [ [ -77.27507, 38.81902 ], [ -77.27424, 38.81831 ], [ -77.27419, 38.81943 ], [ -77.27507, 38.81902 ] ], [ [ -77.27608, 38.81999 ], [ -77.27606, 38.81997 ], [ -77.27605, 38.82037 ], [ -77.27608, 38.81999 ] ], [ [ -77.27195, 38.80645 ], [ -77.27111, 38.80665 ], [ -77.2703, 38.80616 ], [ -77.26988, 38.80629 ], [ -77.27004, 38.80832 ], [ -77.27034, 38.80745 ], [ -77.27158, 38.80758 ], [ -77.27216, 38.80708 ], [ -77.27195, 38.80645 ] ], [ [ -77.27157, 38.81786 ], [ -77.27184, 38.8175 ], [ -77.27304, 38.81753 ], [ -77.27104, 38.81644 ], [ -77.27013, 38.81761 ], [ -77.26986, 38.82012 ], [ -77.27149, 38.82005 ], [ -77.27044, 38.81901 ], [ -77.27098, 38.81838 ], [ -77.27281, 38.81928 ], [ -77.27157, 38.81786 ] ], [ [ -77.27114, 38.81499 ], [ -77.27113, 38.81468 ], [ -77.27111, 38.81471 ], [ -77.27114, 38.81499 ] ], [ [ -77.27103, 38.81236 ], [ -77.27155, 38.8118 ], [ -77.27146, 38.81127 ], [ -77.27109, 38.81198 ], [ -77.27026, 38.81214 ], [ -77.27112, 38.81352 ], [ -77.27103, 38.81236 ] ], [ [ -77.27232, 38.81274 ], [ -77.27255, 38.81517 ], [ -77.27399, 38.81587 ], [ -77.27433, 38.81467 ], [ -77.27369, 38.81497 ], [ -77.27323, 38.81477 ], [ -77.27263, 38.81353 ], [ -77.2732, 38.81291 ], [ -77.27391, 38.81296 ], [ -77.27335, 38.81255 ], [ -77.27232, 38.81274 ] ], [ [ -77.27147, 38.81095 ], [ -77.27148, 38.81109 ], [ -77.27156, 38.81094 ], [ -77.27147, 38.81095 ] ], [ [ -77.26949, 38.80069 ], [ -77.26954, 38.80061 ], [ -77.26944, 38.80067 ], [ -77.26949, 38.80069 ] ], [ [ -77.2711, 38.78535 ], [ -77.27108, 38.78534 ], [ -77.27107, 38.78539 ], [ -77.2711, 38.78535 ] ], [ [ -77.27216, 38.78445 ], [ -77.27211, 38.78443 ], [ -77.27214, 38.78446 ], [ -77.27216, 38.78445 ] ], [ [ -77.27279, 38.78425 ], [ -77.2729, 38.78429 ], [ -77.27296, 38.78403 ], [ -77.27279, 38.78425 ] ], [ [ -77.25726, 38.81443 ], [ -77.25732, 38.8121 ], [ -77.25652, 38.81214 ], [ -77.25602, 38.81272 ], [ -77.25625, 38.81303 ], [ -77.25577, 38.81359 ], [ -77.25627, 38.81434 ], [ -77.25544, 38.81472 ], [ -77.25658, 38.81517 ], [ -77.25726, 38.81443 ] ], [ [ -77.25311, 38.80075 ], [ -77.25345, 38.80007 ], [ -77.25191, 38.80009 ], [ -77.25022, 38.79918 ], [ -77.24995, 38.7994 ], [ -77.25097, 38.80086 ], [ -77.25208, 38.80102 ], [ -77.25261, 38.80064 ], [ -77.25311, 38.80075 ] ], [ [ -77.2523, 38.79905 ], [ -77.25249, 38.79908 ], [ -77.2524, 38.79874 ], [ -77.2523, 38.79905 ] ], [ [ -77.2636, 38.81698 ], [ -77.26369, 38.81676 ], [ -77.26329, 38.81676 ], [ -77.2636, 38.81698 ] ], [ [ -77.26363, 38.81379 ], [ -77.26304, 38.81288 ], [ -77.26202, 38.81316 ], [ -77.26103, 38.81291 ], [ -77.26059, 38.81336 ], [ -77.2606, 38.81374 ], [ -77.26138, 38.81331 ], [ -77.26197, 38.81362 ], [ -77.26226, 38.81484 ], [ -77.26283, 38.81476 ], [ -77.26291, 38.81421 ], [ -77.26363, 38.81379 ] ], [ [ -77.26367, 38.80942 ], [ -77.2645, 38.80897 ], [ -77.2662, 38.80935 ], [ -77.26574, 38.80805 ], [ -77.26533, 38.80794 ], [ -77.26421, 38.80894 ], [ -77.26027, 38.80886 ], [ -77.26207, 38.81 ], [ -77.26339, 38.81008 ], [ -77.26367, 38.80942 ] ], [ [ -77.26502, 38.80553 ], [ -77.2663, 38.80523 ], [ -77.26622, 38.80425 ], [ -77.26706, 38.80234 ], [ -77.26596, 38.80136 ], [ -77.26061, 38.80479 ], [ -77.26054, 38.80553 ], [ -77.2597, 38.80611 ], [ -77.26073, 38.8067 ], [ -77.26176, 38.80621 ], [ -77.26312, 38.80642 ], [ -77.2638, 38.80597 ], [ -77.26428, 38.80615 ], [ -77.26502, 38.80553 ] ], [ [ -77.25542, 38.80126 ], [ -77.25588, 38.80073 ], [ -77.25566, 38.80015 ], [ -77.25467, 38.80058 ], [ -77.2548, 38.80144 ], [ -77.25303, 38.80281 ], [ -77.25431, 38.80212 ], [ -77.2561, 38.80181 ], [ -77.25542, 38.80126 ] ], [ [ -77.25708, 38.80009 ], [ -77.25733, 38.80048 ], [ -77.25724, 38.80016 ], [ -77.25708, 38.80009 ] ], [ [ -77.26324, 38.79968 ], [ -77.26223, 38.80014 ], [ -77.26176, 38.79995 ], [ -77.2616, 38.79955 ], [ -77.26232, 38.79887 ], [ -77.26177, 38.79889 ], [ -77.26015, 38.79995 ], [ -77.26028, 38.80071 ], [ -77.25804, 38.80272 ], [ -77.25839, 38.80328 ], [ -77.25789, 38.80384 ], [ -77.25809, 38.80408 ], [ -77.25868, 38.80375 ], [ -77.259, 38.80247 ], [ -77.26055, 38.80104 ], [ -77.26151, 38.80119 ], [ -77.26131, 38.80197 ], [ -77.26185, 38.80239 ], [ -77.26284, 38.80184 ], [ -77.26324, 38.79968 ] ], [ [ -77.25811, 38.80109 ], [ -77.25838, 38.80059 ], [ -77.25832, 38.80067 ], [ -77.25777, 38.80076 ], [ -77.25811, 38.80109 ] ], [ [ -77.26265, 38.81598 ], [ -77.26282, 38.81609 ], [ -77.26295, 38.81587 ], [ -77.26265, 38.81598 ] ], [ [ -77.25938, 38.81428 ], [ -77.25865, 38.8143 ], [ -77.25834, 38.81524 ], [ -77.25862, 38.8159 ], [ -77.25984, 38.81511 ], [ -77.25938, 38.81428 ] ], [ [ -77.25896, 38.8094 ], [ -77.25838, 38.80959 ], [ -77.25844, 38.81002 ], [ -77.25946, 38.80999 ], [ -77.25896, 38.8094 ] ], [ [ -77.26023, 38.80792 ], [ -77.26056, 38.80785 ], [ -77.26051, 38.80778 ], [ -77.26023, 38.80792 ] ], [ [ -77.25729, 38.80704 ], [ -77.25718, 38.80711 ], [ -77.25735, 38.80707 ], [ -77.25729, 38.80704 ] ], [ [ -77.25893, 38.80666 ], [ -77.25894, 38.80662 ], [ -77.25891, 38.80664 ], [ -77.25893, 38.80666 ] ], [ [ -77.25946, 38.81149 ], [ -77.25985, 38.81223 ], [ -77.26024, 38.81202 ], [ -77.25994, 38.81135 ], [ -77.25894, 38.81145 ], [ -77.25946, 38.81149 ] ], [ [ -77.25868, 38.81322 ], [ -77.25922, 38.8132 ], [ -77.25894, 38.81306 ], [ -77.25868, 38.81322 ] ], [ [ -77.26204, 38.81206 ], [ -77.26197, 38.81194 ], [ -77.26191, 38.81207 ], [ -77.26204, 38.81206 ] ], [ [ -77.26144, 38.81665 ], [ -77.26126, 38.817 ], [ -77.26191, 38.81709 ], [ -77.26144, 38.81665 ] ], [ [ -77.25468, 38.80591 ], [ -77.25443, 38.80581 ], [ -77.25459, 38.80604 ], [ -77.25468, 38.80591 ] ], [ [ -77.25579, 38.80284 ], [ -77.25573, 38.80286 ], [ -77.25575, 38.8029 ], [ -77.25579, 38.80284 ] ], [ [ -77.25357, 38.80713 ], [ -77.25353, 38.80706 ], [ -77.25354, 38.8071 ], [ -77.25357, 38.80713 ] ], [ [ -77.25513, 38.80691 ], [ -77.25531, 38.80679 ], [ -77.25508, 38.80684 ], [ -77.25513, 38.80691 ] ], [ [ -77.25169, 38.81507 ], [ -77.25163, 38.81542 ], [ -77.25188, 38.81541 ], [ -77.25169, 38.81507 ] ], [ [ -77.25201, 38.81201 ], [ -77.25313, 38.81134 ], [ -77.25197, 38.8113 ], [ -77.2506, 38.81333 ], [ -77.25164, 38.81335 ], [ -77.25201, 38.81201 ] ], [ [ -77.24656, 38.81131 ], [ -77.24676, 38.81167 ], [ -77.24626, 38.81216 ], [ -77.24669, 38.81264 ], [ -77.24661, 38.81373 ], [ -77.24769, 38.8141 ], [ -77.24842, 38.81379 ], [ -77.24887, 38.81403 ], [ -77.24824, 38.813 ], [ -77.24858, 38.81269 ], [ -77.24937, 38.81284 ], [ -77.24964, 38.81228 ], [ -77.24974, 38.8113 ], [ -77.24656, 38.81131 ] ], [ [ -77.2484, 38.80678 ], [ -77.24731, 38.80678 ], [ -77.24743, 38.80732 ], [ -77.24828, 38.80729 ], [ -77.2484, 38.80678 ] ], [ [ -77.25405, 38.81004 ], [ -77.25544, 38.81007 ], [ -77.25463, 38.80883 ], [ -77.25292, 38.81 ], [ -77.25405, 38.81004 ] ], [ [ -77.25422, 38.81423 ], [ -77.25537, 38.8147 ], [ -77.25508, 38.81453 ], [ -77.25422, 38.81423 ] ], [ [ -77.25335, 38.81506 ], [ -77.25302, 38.81477 ], [ -77.25312, 38.81494 ], [ -77.25335, 38.81506 ] ], [ [ -77.25512, 38.81213 ], [ -77.25506, 38.81213 ], [ -77.25513, 38.81217 ], [ -77.25512, 38.81213 ] ], [ [ -77.25453, 38.81317 ], [ -77.25423, 38.81299 ], [ -77.25422, 38.81314 ], [ -77.25453, 38.81317 ] ], [ [ -77.25094, 38.80365 ], [ -77.25141, 38.80395 ], [ -77.25093, 38.80328 ], [ -77.25028, 38.80337 ], [ -77.25094, 38.80365 ] ], [ [ -77.24986, 38.80555 ], [ -77.2498, 38.80547 ], [ -77.2498, 38.80557 ], [ -77.24986, 38.80555 ] ], [ [ -77.24999, 38.80463 ], [ -77.25026, 38.8046 ], [ -77.25019, 38.80456 ], [ -77.24999, 38.80463 ] ], [ [ -77.24971, 38.80728 ], [ -77.24981, 38.80726 ], [ -77.24974, 38.80717 ], [ -77.24971, 38.80728 ] ], [ [ -77.24795, 38.81643 ], [ -77.24788, 38.81645 ], [ -77.24796, 38.8165 ], [ -77.24795, 38.81643 ] ], [ [ -77.24886, 38.81521 ], [ -77.24886, 38.81515 ], [ -77.24883, 38.81517 ], [ -77.24886, 38.81521 ] ], [ [ -77.25027, 38.81442 ], [ -77.25023, 38.81546 ], [ -77.25036, 38.81466 ], [ -77.25027, 38.81442 ] ], [ [ -77.24516, 38.809 ], [ -77.24485, 38.80853 ], [ -77.24534, 38.80937 ], [ -77.2459, 38.80936 ], [ -77.24516, 38.809 ] ], [ [ -77.24546, 38.80696 ], [ -77.2455, 38.80705 ], [ -77.24571, 38.80679 ], [ -77.24546, 38.80696 ] ], [ [ -77.24667, 38.81491 ], [ -77.24653, 38.81473 ], [ -77.2465, 38.81508 ], [ -77.24667, 38.81491 ] ] ] } }
]
}
