{
"type": "FeatureCollection",
"name": "403",
"crs": { "type": "name", "properties": { "name": "urn:ogc:def:crs:OGC:1.3:CRS84" } },
"xy_coordinate_resolution": 1e-05,
"features": [
{ "type": "Feature", "properties": { "variant": "T0", "miles": 0.5 }, "geometry": { "type": "Polygon", "coordinates": [ [ [ -77.23613, 38.71507 ], [ -77.23766, 38.71449 ], [ -77.23827, 38.71509 ], [ -77.23787, 38.71642 ], [ -77.23663, 38.71751 ], [ -77.23868, 38.71959 ], [ -77.23748, 38.7206 ], [ -77.23696, 38.72053 ], [ -77.23693, 38.71958 ], [ -77.23551, 38.71833 ], [ -77.23367, 38.71905 ], [ -77.23356, 38.72099 ], [ -77.23207, 38.72151 ], [ -77.22968, 38.72042 ], [ -77.22787, 38.72058 ], [ -77.22755, 38.72018 ], [ -77.22808, 38.7188 ], [ -77.22743, 38.71864 ], [ -77.22683, 38.71894 ], [ -77.22609, 38.71844 ], [ -77.22676, 38.71744 ], [ -77.22598, 38.71696 ], [ -77.22658, 38.71617 ], [ -77.22772, 38.71622 ], [ -77.22811, 38.71563 ], [ -77.2303, 38.71619 ], [ -77.22842, 38.71523 ], [ -77.22849, 38.71447 ], [ -77.22899, 38.71434 ], [ -77.23037, 38.71492 ], [ -77.23029, 38.71399 ], [ -77.23172, 38.71384 ], [ -77.2332, 38.71435 ], [ -77.23443, 38.71544 ], [ -77.23415, 38.71471 ], [ -77.23481, 38.71415 ], [ -77.23613, 38.71507 ] ], [ [ -77.23319, 38.71799 ], [ -77.23461, 38.71751 ], [ -77.2329, 38.71586 ], [ -77.23172, 38.71649 ], [ -77.23148, 38.71726 ], [ -77.23319, 38.71799 ] ], [ [ -77.23233, 38.72015 ], [ -77.23202, 38.72031 ], [ -77.23234, 38.72043 ], [ -77.23233, 38.72015 ] ] ] } },
{ "type": "Feature", "properties": { "variant": "T0", "miles": 1.0 }, "geometry": { "type": "Polygon", "coordinates": [ [ [ -77.23891, 38.71369 ], [ -77.23786, 38.71421 ], [ -77.23824, 38.71481 ], [ -77.24033, 38.71526 ], [ -77.24206, 38.71617 ], [ -77.24438, 38.71856 ], [ -77.24199, 38.72001 ], [ -77.24139, 38.71941 ], [ -77.24274, 38.71838 ], [ -77.2399, 38.71631 ], [ -77.23866, 38.71622 ], [ -77.23663, 38.71751 ], [ -77.23969, 38.72028 ], [ -77.24342, 38.7249 ], [ -77.24524, 38.72605 ], [ -77.24472, 38.7267 ], [ -77.24275, 38.72591 ], [ -77.24081, 38.7239 ], [ -77.24015, 38.72477 ], [ -77.23932, 38.7246 ], [ -77.23923, 38.7241 ], [ -77.23853, 38.72405 ], [ -77.23821, 38.72472 ], [ -77.23727, 38.72493 ], [ -77.23715, 38.72397 ], [ -77.23555, 38.7234 ], [ -77.23586, 38.72268 ], [ -77.23756, 38.72293 ], [ -77.2399, 38.72297 ], [ -77.23958, 38.7226 ], [ -77.23861, 38.7229 ], [ -77.23771, 38.72273 ], [ -77.23676, 38.72139 ], [ -77.23625, 38.72114 ], [ -77.23658, 38.72164 ], [ -77.23632, 38.72209 ], [ -77.23426, 38.72194 ], [ -77.23438, 38.72109 ], [ -77.23586, 38.71961 ], [ -77.23665, 38.71934 ], [ -77.23551, 38.71833 ], [ -77.23367, 38.71905 ], [ -77.23366, 38.72081 ], [ -77.23266, 38.72152 ], [ -77.22968, 38.72042 ], [ -77.22787, 38.72058 ], [ -77.22755, 38.72018 ], [ -77.22808, 38.7188 ], [ -77.22743, 38.71864 ], [ -77.22657, 38.71967 ], [ -77.22561, 38.71953 ], [ -77.22576, 38.71851 ], [ -77.22453, 38.71933 ], [ -77.22317, 38.71939 ], [ -77.22289, 38.72002 ], [ -77.2223, 38.72014 ], [ -77.22168, 38.71955 ], [ -77.22205, 38.71873 ], [ -77.22411, 38.71825 ], [ -77.2234, 38.71678 ], [ -77.22247, 38.717 ], [ -77.22132, 38.71656 ], [ -77.22026, 38.7174 ], [ -77.21973, 38.71741 ], [ -77.21935, 38.71713 ], [ -77.21948, 38.71644 ], [ -77.21869, 38.71588 ], [ -77.22022, 38.71485 ], [ -77.21984, 38.71439 ], [ -77.22066, 38.71385 ], [ -77.22016, 38.71309 ], [ -77.22044, 38.71235 ], [ -77.2213, 38.71252 ], [ -77.22141, 38.71198 ], [ -77.22278, 38.71184 ], [ -77.22383, 38.71276 ], [ -77.2249, 38.71202 ], [ -77.22601, 38.71193 ], [ -77.22585, 38.71127 ], [ -77.22645, 38.71099 ], [ -77.22635, 38.71062 ], [ -77.22534, 38.70988 ], [ -77.2256, 38.70952 ], [ -77.22755, 38.70903 ], [ -77.22741, 38.70833 ], [ -77.22785, 38.7081 ], [ -77.22928, 38.70841 ], [ -77.22947, 38.70885 ], [ -77.23139, 38.70965 ], [ -77.23155, 38.71048 ], [ -77.231, 38.71127 ], [ -77.23129, 38.71148 ], [ -77.23238, 38.71119 ], [ -77.23276, 38.71012 ], [ -77.23416, 38.70939 ], [ -77.23535, 38.70964 ], [ -77.23573, 38.71063 ], [ -77.2367, 38.71093 ], [ -77.23653, 38.71168 ], [ -77.23437, 38.71154 ], [ -77.23398, 38.71235 ], [ -77.2325, 38.71346 ], [ -77.23291, 38.71409 ], [ -77.23356, 38.71381 ], [ -77.23471, 38.71406 ], [ -77.23533, 38.71203 ], [ -77.23806, 38.71201 ], [ -77.23938, 38.7116 ], [ -77.23983, 38.71228 ], [ -77.2391, 38.71275 ], [ -77.23891, 38.71369 ] ], [ [ -77.23319, 38.71799 ], [ -77.23461, 38.71751 ], [ -77.2329, 38.71586 ], [ -77.23172, 38.71649 ], [ -77.23148, 38.71726 ], [ -77.23319, 38.71799 ] ], [ [ -77.2321, 38.71225 ], [ -77.23196, 38.71231 ], [ -77.232, 38.71241 ], [ -77.2321, 38.71225 ] ], [ [ -77.22696, 38.71466 ], [ -77.22756, 38.71478 ], [ -77.22802, 38.71488 ], [ -77.22691, 38.7142 ], [ -77.22696, 38.71466 ] ], [ [ -77.22724, 38.71206 ], [ -77.22736, 38.71194 ], [ -77.22701, 38.71199 ], [ -77.22724, 38.71206 ] ], [ [ -77.23233, 38.72015 ], [ -77.23202, 38.72031 ], [ -77.23234, 38.72043 ], [ -77.23233, 38.72015 ] ], [ [ -77.22546, 38.71415 ], [ -77.22453, 38.71426 ], [ -77.22457, 38.71443 ], [ -77.22542, 38.71446 ], [ -77.22546, 38.71415 ] ], [ [ -77.22306, 38.71372 ], [ -77.22152, 38.71278 ], [ -77.22278, 38.71435 ], [ -77.22306, 38.71372 ] ] ] } },
{ "type": "Feature", "properties": { "variant": "T0", "miles": 1.5 }, "geometry": { "type": "Polygon", "coordinates": [ [ [ -77.23981, 38.71207 ], [ -77.2391, 38.71275 ], [ -77.23874, 38.71397 ], [ -77.23781, 38.71439 ], [ -77.24242, 38.71641 ], [ -77.24777, 38.72155 ], [ -77.24989, 38.72295 ], [ -77.25133, 38.72198 ], [ -77.2523, 38.72209 ], [ -77.25216, 38.72284 ], [ -77.25026, 38.72437 ], [ -77.24944, 38.72429 ], [ -77.24745, 38.72276 ], [ -77.24593, 38.72351 ], [ -77.24439, 38.72274 ], [ -77.24285, 38.72431 ], [ -77.24383, 38.72519 ], [ -77.24771, 38.72707 ], [ -77.24711, 38.72647 ], [ -77.24883, 38.72492 ], [ -77.24981, 38.72497 ], [ -77.24992, 38.72545 ], [ -77.2516, 38.72534 ], [ -77.252, 38.72561 ], [ -77.25192, 38.72624 ], [ -77.25048, 38.72754 ], [ -77.25309, 38.72755 ], [ -77.2538, 38.72808 ], [ -77.25312, 38.72863 ], [ -77.25113, 38.72862 ], [ -77.25153, 38.72932 ], [ -77.25088, 38.72988 ], [ -77.24942, 38.72927 ], [ -77.24814, 38.7298 ], [ -77.24668, 38.72931 ], [ -77.24575, 38.72939 ], [ -77.24552, 38.72907 ], [ -77.24499, 38.72932 ], [ -77.24312, 38.72908 ], [ -77.24235, 38.72941 ], [ -77.24075, 38.72916 ], [ -77.24104, 38.72743 ], [ -77.24181, 38.7274 ], [ -77.2423, 38.72682 ], [ -77.24314, 38.72703 ], [ -77.24341, 38.72626 ], [ -77.24081, 38.7239 ], [ -77.24015, 38.72477 ], [ -77.23932, 38.7246 ], [ -77.23923, 38.7241 ], [ -77.23853, 38.72405 ], [ -77.23821, 38.72472 ], [ -77.23727, 38.72493 ], [ -77.23715, 38.72397 ], [ -77.23555, 38.7234 ], [ -77.23586, 38.72268 ], [ -77.23756, 38.72293 ], [ -77.2399, 38.72297 ], [ -77.23958, 38.7226 ], [ -77.23861, 38.7229 ], [ -77.23771, 38.72273 ], [ -77.23676, 38.72139 ], [ -77.23625, 38.72114 ], [ -77.23658, 38.72164 ], [ -77.23632, 38.72209 ], [ -77.23426, 38.72194 ], [ -77.23438, 38.72109 ], [ -77.23586, 38.71961 ], [ -77.23665, 38.71934 ], [ -77.23551, 38.71833 ], [ -77.23367, 38.71905 ], [ -77.23365, 38.72084 ], [ -77.23257, 38.72153 ], [ -77.22968, 38.72042 ], [ -77.22787, 38.72058 ], [ -77.22755, 38.72018 ], [ -77.22808, 38.7188 ], [ -77.22743, 38.71864 ], [ -77.22657, 38.71967 ], [ -77.22561, 38.71953 ], [ -77.22576, 38.71851 ], [ -77.22453, 38.71933 ], [ -77.22317, 38.71939 ], [ -77.22289, 38.72002 ], [ -77.22183, 38.71994 ], [ -77.2222, 38.7186 ], [ -77.22411, 38.71825 ], [ -77.22347, 38.71752 ], [ -77.22195, 38.71841 ], [ -77.22093, 38.72022 ], [ -77.21977, 38.71993 ], [ -77.22072, 38.71782 ], [ -77.22212, 38.71692 ], [ -77.22132, 38.71656 ], [ -77.22026, 38.7174 ], [ -77.21973, 38.71741 ], [ -77.21935, 38.71713 ], [ -77.21948, 38.71644 ], [ -77.21869, 38.71588 ], [ -77.22022, 38.71485 ], [ -77.21984, 38.71439 ], [ -77.22066, 38.71385 ], [ -77.22016, 38.71309 ], [ -77.22044, 38.71235 ], [ -77.2213, 38.71252 ], [ -77.22141, 38.71198 ], [ -77.22278, 38.71184 ], [ -77.22383, 38.71276 ], [ -77.22513, 38.71196 ], [ -77.22463, 38.71072 ], [ -77.22389, 38.71085 ], [ -77.22354, 38.71055 ], [ -77.2231, 38.70926 ], [ -77.22347, 38.70897 ], [ -77.22461, 38.70901 ], [ -77.22369, 38.70872 ], [ -77.22343, 38.70804 ], [ -77.22399, 38.70726 ], [ -77.2249, 38.70726 ], [ -77.22516, 38.70664 ], [ -77.22572, 38.70658 ], [ -77.22581, 38.70548 ], [ -77.22301, 38.70597 ], [ -77.22269, 38.70503 ], [ -77.22691, 38.70407 ], [ -77.22722, 38.70295 ], [ -77.22639, 38.70138 ], [ -77.22661, 38.701 ], [ -77.22758, 38.70102 ], [ -77.22852, 38.70254 ], [ -77.23002, 38.70204 ], [ -77.23085, 38.70245 ], [ -77.23076, 38.70285 ], [ -77.22841, 38.70404 ], [ -77.23282, 38.70459 ], [ -77.23268, 38.70562 ], [ -77.23033, 38.70547 ], [ -77.23091, 38.70733 ], [ -77.23196, 38.70848 ], [ -77.23264, 38.70864 ], [ -77.23299, 38.70997 ], [ -77.23416, 38.70939 ], [ -77.23581, 38.70958 ], [ -77.23615, 38.70894 ], [ -77.23666, 38.70885 ], [ -77.23719, 38.70969 ], [ -77.23975, 38.71014 ], [ -77.24038, 38.70948 ], [ -77.24318, 38.70865 ], [ -77.24379, 38.70925 ], [ -77.23981, 38.71207 ] ], [ [ -77.23319, 38.71799 ], [ -77.23461, 38.71751 ], [ -77.2329, 38.71586 ], [ -77.23172, 38.71649 ], [ -77.2316, 38.71731 ], [ -77.23319, 38.71799 ] ], [ [ -77.2321, 38.71225 ], [ -77.23191, 38.71223 ], [ -77.23196, 38.71231 ], [ -77.2321, 38.71225 ] ], [ [ -77.23238, 38.71119 ], [ -77.23251, 38.71061 ], [ -77.2315, 38.71057 ], [ -77.231, 38.71127 ], [ -77.23129, 38.71148 ], [ -77.23238, 38.71119 ] ], [ [ -77.24202, 38.72338 ], [ -77.24242, 38.72261 ], [ -77.24355, 38.72188 ], [ -77.24139, 38.71945 ], [ -77.24274, 38.71838 ], [ -77.24102, 38.71691 ], [ -77.23973, 38.71623 ], [ -77.23878, 38.71618 ], [ -77.23663, 38.71751 ], [ -77.23946, 38.72003 ], [ -77.24202, 38.72338 ] ], [ [ -77.23416, 38.71374 ], [ -77.23454, 38.71156 ], [ -77.2325, 38.71346 ], [ -77.23291, 38.71409 ], [ -77.23416, 38.71374 ] ], [ [ -77.24776, 38.72825 ], [ -77.24755, 38.72838 ], [ -77.24948, 38.72887 ], [ -77.24966, 38.72853 ], [ -77.24776, 38.72825 ] ], [ [ -77.24581, 38.7224 ], [ -77.24645, 38.722 ], [ -77.24357, 38.71924 ], [ -77.24307, 38.71955 ], [ -77.24581, 38.7224 ] ], [ [ -77.2447, 38.72688 ], [ -77.24355, 38.72724 ], [ -77.24406, 38.72789 ], [ -77.24527, 38.72743 ], [ -77.2447, 38.72688 ] ], [ [ -77.23829, 38.71145 ], [ -77.23857, 38.71096 ], [ -77.23693, 38.71075 ], [ -77.23683, 38.71124 ], [ -77.23829, 38.71145 ] ], [ [ -77.22756, 38.71478 ], [ -77.22802, 38.71488 ], [ -77.22691, 38.7142 ], [ -77.22696, 38.71466 ], [ -77.22756, 38.71478 ] ], [ [ -77.23234, 38.72043 ], [ -77.23233, 38.72015 ], [ -77.23217, 38.72025 ], [ -77.23234, 38.72043 ] ], [ [ -77.2255, 38.71414 ], [ -77.22453, 38.71426 ], [ -77.22457, 38.71443 ], [ -77.22543, 38.71441 ], [ -77.2255, 38.71414 ] ], [ [ -77.22724, 38.71206 ], [ -77.22736, 38.71194 ], [ -77.22701, 38.71199 ], [ -77.22724, 38.71206 ] ], [ [ -77.22533, 38.70994 ], [ -77.22513, 38.71006 ], [ -77.2252, 38.71003 ], [ -77.22533, 38.70994 ] ], [ [ -77.22152, 38.71278 ], [ -77.22278, 38.71435 ], [ -77.22306, 38.71372 ], [ -77.22241, 38.71303 ], [ -77.22152, 38.71278 ] ] ] } },
{ "type": "Feature", "properties": { "variant": "T2s", "miles": 0.5 }, "geometry": { "type": "Polygon", "coordinates": [ [ [ -77.23029, 38.71399 ], [ -77.23192, 38.71387 ], [ -77.23326, 38.71452 ], [ -77.2384, 38.71926 ], [ -77.23857, 38.71966 ], [ -77.23791, 38.72037 ], [ -77.23696, 38.72053 ], [ -77.23693, 38.71958 ], [ -77.23551, 38.71833 ], [ -77.23367, 38.71905 ], [ -77.23368, 38.72077 ], [ -77.23288, 38.72147 ], [ -77.23194, 38.72148 ], [ -77.22968, 38.72042 ], [ -77.22787, 38.72058 ], [ -77.22755, 38.72018 ], [ -77.22808, 38.7188 ], [ -77.22633, 38.71881 ], [ -77.22609, 38.71844 ], [ -77.22676, 38.71744 ], [ -77.22623, 38.71733 ], [ -77.22614, 38.71657 ], [ -77.22705, 38.71599 ], [ -77.22772, 38.71622 ], [ -77.22811, 38.71563 ], [ -77.2303, 38.71619 ], [ -77.22875, 38.7155 ], [ -77.22825, 38.71484 ], [ -77.22899, 38.71434 ], [ -77.23037, 38.71492 ], [ -77.23029, 38.71399 ] ], [ [ -77.23164, 38.71734 ], [ -77.23319, 38.71799 ], [ -77.23461, 38.71751 ], [ -77.2329, 38.71586 ], [ -77.23172, 38.71649 ], [ -77.23164, 38.71734 ] ], [ [ -77.23233, 38.72015 ], [ -77.23202, 38.72031 ], [ -77.23234, 38.72043 ], [ -77.23233, 38.72015 ] ] ] } },
{ "type": "Feature", "properties": { "variant": "T2s", "miles": 1.0 }, "geometry": { "type": "MultiPolygon", "coordinates": [ [ [ [ -77.23533, 38.71203 ], [ -77.23865, 38.71186 ], [ -77.23917, 38.71251 ], [ -77.23874, 38.71397 ], [ -77.23781, 38.71439 ], [ -77.23906, 38.71492 ], [ -77.23921, 38.71532 ], [ -77.23652, 38.71759 ], [ -77.23945, 38.7202 ], [ -77.24041, 38.72164 ], [ -77.24015, 38.72235 ], [ -77.23885, 38.72287 ], [ -77.23755, 38.72263 ], [ -77.23676, 38.72139 ], [ -77.23625, 38.72114 ], [ -77.23658, 38.72164 ], [ -77.23632, 38.72209 ], [ -77.23426, 38.72194 ], [ -77.23438, 38.72109 ], [ -77.23586, 38.71961 ], [ -77.23665, 38.71934 ], [ -77.23551, 38.71833 ], [ -77.23367, 38.71905 ], [ -77.23366, 38.72081 ], [ -77.23266, 38.72152 ], [ -77.22968, 38.72042 ], [ -77.22787, 38.72058 ], [ -77.22755, 38.72018 ], [ -77.22808, 38.7188 ], [ -77.22743, 38.71864 ], [ -77.22657, 38.71967 ], [ -77.22561, 38.71953 ], [ -77.22576, 38.71851 ], [ -77.22453, 38.71933 ], [ -77.22317, 38.71939 ], [ -77.22289, 38.72002 ], [ -77.2223, 38.72014 ], [ -77.22168, 38.71955 ], [ -77.22205, 38.71873 ], [ -77.22411, 38.71825 ], [ -77.2234, 38.71678 ], [ -77.22247, 38.717 ], [ -77.22132, 38.71656 ], [ -77.22026, 38.7174 ], [ -77.21973, 38.71741 ], [ -77.21935, 38.71713 ], [ -77.21948, 38.71644 ], [ -77.21869, 38.71588 ], [ -77.22022, 38.71485 ], [ -77.21984, 38.71439 ], [ -77.22066, 38.71385 ], [ -77.22016, 38.71309 ], [ -77.22044, 38.71235 ], [ -77.2213, 38.71252 ], [ -77.22141, 38.71198 ], [ -77.22278, 38.71184 ], [ -77.22383, 38.71276 ], [ -77.2249, 38.71202 ], [ -77.22601, 38.71193 ], [ -77.22585, 38.71127 ], [ -77.22645, 38.71099 ], [ -77.22635, 38.71062 ], [ -77.22534, 38.70988 ], [ -77.2256, 38.70952 ], [ -77.22755, 38.70903 ], [ -77.22741, 38.70833 ], [ -77.22785, 38.7081 ], [ -77.22916, 38.70843 ], [ -77.22949, 38.71006 ], [ -77.23024, 38.70993 ], [ -77.23059, 38.71024 ], [ -77.23039, 38.71088 ], [ -77.23129, 38.71148 ], [ -77.23201, 38.71114 ], [ -77.23415, 38.7116 ], [ -77.23398, 38.71235 ], [ -77.2325, 38.71346 ], [ -77.23291, 38.71409 ], [ -77.23356, 38.71381 ], [ -77.23471, 38.71406 ], [ -77.23533, 38.71203 ] ], [ [ -77.23319, 38.71799 ], [ -77.23461, 38.71751 ], [ -77.2329, 38.71586 ], [ -77.23172, 38.71649 ], [ -77.23148, 38.71726 ], [ -77.23319, 38.71799 ] ], [ [ -77.232, 38.71241 ], [ -77.2321, 38.71225 ], [ -77.23191, 38.71223 ], [ -77.232, 38.71241 ] ], [ [ -77.22696, 38.71466 ], [ -77.22756, 38.71478 ], [ -77.22802, 38.71488 ], [ -77.22691, 38.7142 ], [ -77.22696, 38.71466 ] ], [ [ -77.22724, 38.71206 ], [ -77.22736, 38.71194 ], [ -77.22701, 38.71199 ], [ -77.22724, 38.71206 ] ], [ [ -77.23233, 38.72015 ], [ -77.23202, 38.72031 ], [ -77.23234, 38.72043 ], [ -77.23233, 38.72015 ] ], [ [ -77.22546, 38.71415 ], [ -77.22453, 38.71426 ], [ -77.22457, 38.71443 ], [ -77.22542, 38.71446 ], [ -77.22546, 38.71415 ] ], [ [ -77.22306, 38.71372 ], [ -77.22152, 38.71278 ], [ -77.22278, 38.71435 ], [ -77.22306, 38.71372 ] ] ], [ [ [ -77.23697, 38.72392 ], [ -77.23555, 38.7234 ], [ -77.23586, 38.72268 ], [ -77.23965, 38.72304 ], [ -77.24039, 38.7229 ], [ -77.24095, 38.72347 ], [ -77.24086, 38.72425 ], [ -77.24015, 38.72477 ], [ -77.23932, 38.7246 ], [ -77.23923, 38.7241 ], [ -77.23853, 38.72405 ], [ -77.23821, 38.72472 ], [ -77.23727, 38.72493 ], [ -77.23697, 38.72392 ] ] ] ] } },
{ "type": "Feature", "properties": { "variant": "T2s", "miles": 1.5 }, "geometry": { "type": "Polygon", "coordinates": [ [ [ -77.24379, 38.70925 ], [ -77.23981, 38.71207 ], [ -77.2391, 38.71275 ], [ -77.23874, 38.71397 ], [ -77.23781, 38.71439 ], [ -77.24242, 38.71641 ], [ -77.24426, 38.71816 ], [ -77.24412, 38.71891 ], [ -77.2425, 38.7199 ], [ -77.24153, 38.71981 ], [ -77.24165, 38.71905 ], [ -77.24274, 38.71838 ], [ -77.24149, 38.7172 ], [ -77.23951, 38.71618 ], [ -77.23844, 38.71631 ], [ -77.23663, 38.71751 ], [ -77.23946, 38.72003 ], [ -77.24152, 38.72282 ], [ -77.24149, 38.72335 ], [ -77.24015, 38.72477 ], [ -77.23932, 38.7246 ], [ -77.23923, 38.7241 ], [ -77.23853, 38.72405 ], [ -77.23821, 38.72472 ], [ -77.23727, 38.72493 ], [ -77.23715, 38.72397 ], [ -77.23555, 38.7234 ], [ -77.23586, 38.72268 ], [ -77.23756, 38.72293 ], [ -77.23978, 38.72302 ], [ -77.23958, 38.7226 ], [ -77.23777, 38.72275 ], [ -77.23676, 38.72139 ], [ -77.23625, 38.72114 ], [ -77.23658, 38.72164 ], [ -77.23632, 38.72209 ], [ -77.23426, 38.72194 ], [ -77.23438, 38.72109 ], [ -77.23586, 38.71961 ], [ -77.23665, 38.71934 ], [ -77.23551, 38.71833 ], [ -77.23367, 38.71905 ], [ -77.23365, 38.72084 ], [ -77.23257, 38.72153 ], [ -77.22968, 38.72042 ], [ -77.22787, 38.72058 ], [ -77.22755, 38.72018 ], [ -77.22808, 38.7188 ], [ -77.22743, 38.71864 ], [ -77.22657, 38.71967 ], [ -77.22561, 38.71953 ], [ -77.22576, 38.71851 ], [ -77.22453, 38.71933 ], [ -77.22317, 38.71939 ], [ -77.22289, 38.72002 ], [ -77.22183, 38.71994 ], [ -77.2222, 38.7186 ], [ -77.22411, 38.71825 ], [ -77.22347, 38.71752 ], [ -77.22195, 38.71841 ], [ -77.22093, 38.72022 ], [ -77.21977, 38.71993 ], [ -77.22072, 38.71782 ], [ -77.22212, 38.71692 ], [ -77.22132, 38.71656 ], [ -77.22026, 38.7174 ], [ -77.21973, 38.71741 ], [ -77.21935, 38.71713 ], [ -77.21948, 38.71644 ], [ -77.21869, 38.71588 ], [ -77.22022, 38.71485 ], [ -77.21984, 38.71439 ], [ -77.22066, 38.71385 ], [ -77.2201, 38.71268 ], [ -77.22044, 38.71235 ], [ -77.2213, 38.71252 ], [ -77.22141, 38.71198 ], [ -77.22257, 38.71182 ], [ -77.22339, 38.7121 ], [ -77.22383, 38.71276 ], [ -77.22513, 38.71196 ], [ -77.22463, 38.71072 ], [ -77.22389, 38.71085 ], [ -77.22354, 38.71055 ], [ -77.2231, 38.70926 ], [ -77.22347, 38.70897 ], [ -77.22461, 38.70901 ], [ -77.22369, 38.70872 ], [ -77.22343, 38.70804 ], [ -77.22399, 38.70726 ], [ -77.2249, 38.70726 ], [ -77.22516, 38.70664 ], [ -77.22572, 38.70658 ], [ -77.22581, 38.70548 ], [ -77.22354, 38.70602 ], [ -77.22301, 38.70597 ], [ -77.22274, 38.70524 ], [ -77.22423, 38.70453 ], [ -77.22691, 38.70407 ], [ -77.22702, 38.70173 ], [ -77.22743, 38.70147 ], [ -77.22796, 38.70151 ], [ -77.22839, 38.70208 ], [ -77.22841, 38.70404 ], [ -77.2319, 38.70454 ], [ -77.23173, 38.70551 ], [ -77.23033, 38.70547 ], [ -77.23091, 38.70733 ], [ -77.23196, 38.70848 ], [ -77.23264, 38.70864 ], [ -77.23299, 38.70997 ], [ -77.23416, 38.70939 ], [ -77.23581, 38.70958 ], [ -77.23615, 38.70894 ], [ -77.23666, 38.70885 ], [ -77.23719, 38.70969 ], [ -77.23975, 38.71014 ], [ -77.24038, 38.70948 ], [ -77.24318, 38.70865 ], [ -77.24379, 38.70925 ] ], [ [ -77.232, 38.71241 ], [ -77.2321, 38.71225 ], [ -77.23191, 38.71223 ], [ -77.232, 38.71241 ] ], [ [ -77.23129, 38.71148 ], [ -77.23238, 38.71119 ], [ -77.23251, 38.71061 ], [ -77.2315, 38.71057 ], [ -77.231, 38.71127 ], [ -77.23129, 38.71148 ] ], [ [ -77.23291, 38.71409 ], [ -77.23416, 38.71374 ], [ -77.23454, 38.71156 ], [ -77.2325, 38.71346 ], [ -77.23291, 38.71409 ] ], [ [ -77.23857, 38.71096 ], [ -77.23693, 38.71075 ], [ -77.23683, 38.71124 ], [ -77.23829, 38.71145 ], [ -77.23857, 38.71096 ] ], [ [ -77.23148, 38.71726 ], [ -77.23319, 38.71799 ], [ -77.23461, 38.71751 ], [ -77.2329, 38.71586 ], [ -77.23172, 38.71649 ], [ -77.23148, 38.71726 ] ], [ [ -77.22696, 38.71466 ], [ -77.22756, 38.71478 ], [ -77.22802, 38.71488 ], [ -77.22691, 38.7142 ], [ -77.22696, 38.71466 ] ], [ [ -77.23217, 38.72025 ], [ -77.23234, 38.72043 ], [ -77.23233, 38.72015 ], [ -77.23217, 38.72025 ] ], [ [ -77.22543, 38.71441 ], [ -77.2255, 38.71414 ], [ -77.22453, 38.71426 ], [ -77.22457, 38.71443 ], [ -77.22543, 38.71441 ] ], [ [ -77.22724, 38.71206 ], [ -77.22729, 38.71195 ], [ -77.22701, 38.71199 ], [ -77.22724, 38.71206 ] ], [ [ -77.22533, 38.70999 ], [ -77.22514, 38.71004 ], [ -77.22513, 38.71006 ], [ -77.22533, 38.70999 ] ], [ [ -77.22239, 38.71298 ], [ -77.22152, 38.71278 ], [ -77.22278, 38.71435 ], [ -77.22306, 38.71372 ], [ -77.22239, 38.71298 ] ] ] } }
]
}
