{
"type": "FeatureCollection",
"name": "406",
"crs": { "type": "name", "properties": { "name": "urn:ogc:def:crs:OGC:1.3:CRS84" } },
"xy_coordinate_resolution": 1e-05,
"features": [
{ "type": "Feature", "properties": { "variant": "T0", "miles": 0.5 }, "geometry": { "type": "Polygon", "coordinates": [ [ [ -77.23983, 38.79992 ], [ -77.23745, 38.80121 ], [ -77.23706, 38.80192 ], [ -77.23566, 38.80199 ], [ -77.23594, 38.80278 ], [ -77.2362, 38.80227 ], [ -77.23727, 38.80218 ], [ -77.23802, 38.8012 ], [ -77.23897, 38.80072 ], [ -77.23963, 38.80129 ], [ -77.23866, 38.80238 ], [ -77.2401, 38.80254 ], [ -77.24085, 38.80195 ], [ -77.24229, 38.80238 ], [ -77.24342, 38.80376 ], [ -77.24322, 38.80415 ], [ -77.24051, 38.8045 ], [ -77.24022, 38.80513 ], [ -77.23879, 38.80512 ], [ -77.23827, 38.8057 ], [ -77.2369, 38.80499 ], [ -77.23796, 38.80347 ], [ -77.23718, 38.80362 ], [ -77.23398, 38.80716 ], [ -77.23247, 38.80712 ], [ -77.23228, 38.80673 ], [ -77.23331, 38.8056 ], [ -77.23267, 38.80443 ], [ -77.23265, 38.80324 ], [ -77.23331, 38.80234 ], [ -77.23434, 38.80231 ], [ -77.23365, 38.80213 ], [ -77.23265, 38.80222 ], [ -77.23194, 38.80273 ], [ -77.23146, 38.80255 ], [ -77.23042, 38.8016 ], [ -77.23065, 38.80013 ], [ -77.23149, 38.79961 ], [ -77.23199, 38.79973 ], [ -77.23206, 38.8005 ], [ -77.23471, 38.80115 ], [ -77.23881, 38.79932 ], [ -77.23976, 38.79951 ], [ -77.23983, 38.79992 ] ], [ [ -77.23918, 38.80412 ], [ -77.2392, 38.80396 ], [ -77.23907, 38.80411 ], [ -77.23918, 38.80412 ] ], [ [ -77.23467, 38.80323 ], [ -77.23395, 38.80369 ], [ -77.23441, 38.80493 ], [ -77.23502, 38.80421 ], [ -77.23467, 38.80323 ] ] ] } },
{ "type": "Feature", "properties": { "variant": "T0", "miles": 1.0 }, "geometry": { "type": "Polygon", "coordinates": [ [ [ -77.24778, 38.79747 ], [ -77.24973, 38.79744 ], [ -77.24994, 38.79782 ], [ -77.24946, 38.79864 ], [ -77.25202, 38.80264 ], [ -77.25028, 38.80336 ], [ -77.24962, 38.80672 ], [ -77.24721, 38.80679 ], [ -77.24622, 38.80776 ], [ -77.24548, 38.80726 ], [ -77.24571, 38.80679 ], [ -77.24428, 38.8068 ], [ -77.24539, 38.80945 ], [ -77.24517, 38.81017 ], [ -77.24322, 38.81047 ], [ -77.24144, 38.80918 ], [ -77.24071, 38.80993 ], [ -77.24109, 38.81207 ], [ -77.24024, 38.81245 ], [ -77.23956, 38.81157 ], [ -77.23064, 38.8116 ], [ -77.22991, 38.81208 ], [ -77.22803, 38.81162 ], [ -77.228, 38.81069 ], [ -77.22923, 38.81053 ], [ -77.23115, 38.80692 ], [ -77.2307, 38.80598 ], [ -77.22858, 38.80454 ], [ -77.22835, 38.80515 ], [ -77.22783, 38.80524 ], [ -77.22681, 38.80435 ], [ -77.22796, 38.80141 ], [ -77.22889, 38.80118 ], [ -77.22923, 38.8015 ], [ -77.22861, 38.80282 ], [ -77.23174, 38.80527 ], [ -77.23227, 38.8062 ], [ -77.23303, 38.80621 ], [ -77.23331, 38.8056 ], [ -77.23267, 38.80443 ], [ -77.23265, 38.80324 ], [ -77.23331, 38.80234 ], [ -77.23434, 38.80231 ], [ -77.23365, 38.80213 ], [ -77.23265, 38.80222 ], [ -77.23194, 38.80273 ], [ -77.23146, 38.80255 ], [ -77.23034, 38.80133 ], [ -77.23102, 38.79979 ], [ -77.23199, 38.79973 ], [ -77.23206, 38.8005 ], [ -77.23471, 38.80115 ], [ -77.23934, 38.79927 ], [ -77.23976, 38.79951 ], [ -77.23952, 38.80025 ], [ -77.23745, 38.80121 ], [ -77.23706, 38.80192 ], [ -77.23566, 38.80199 ], [ -77.23617, 38.80273 ], [ -77.2362, 38.80227 ], [ -77.23727, 38.80218 ], [ -77.23802, 38.8012 ], [ -77.23897, 38.80072 ], [ -77.23963, 38.80129 ], [ -77.23871, 38.80226 ], [ -77.23899, 38.8024 ], [ -77.24313, 38.79768 ], [ -77.24598, 38.79673 ], [ -77.24723, 38.79671 ], [ -77.24771, 38.79689 ], [ -77.24778, 38.79747 ] ], [ [ -77.24169, 38.80806 ], [ -77.24388, 38.80947 ], [ -77.24298, 38.80784 ], [ -77.23986, 38.80788 ], [ -77.24169, 38.80806 ] ], [ [ -77.24033, 38.80586 ], [ -77.24288, 38.80573 ], [ -77.24296, 38.80493 ], [ -77.24049, 38.80467 ], [ -77.24033, 38.80586 ] ], [ [ -77.23896, 38.8057 ], [ -77.23879, 38.80512 ], [ -77.2387, 38.80547 ], [ -77.2376, 38.80588 ], [ -77.23896, 38.8057 ] ], [ [ -77.23796, 38.80347 ], [ -77.23718, 38.80362 ], [ -77.23534, 38.80579 ], [ -77.23618, 38.80575 ], [ -77.23796, 38.80347 ] ], [ [ -77.2392, 38.80396 ], [ -77.23907, 38.80411 ], [ -77.23918, 38.80412 ], [ -77.2392, 38.80396 ] ], [ [ -77.23436, 38.81036 ], [ -77.2329, 38.80933 ], [ -77.23296, 38.80729 ], [ -77.23251, 38.80728 ], [ -77.23065, 38.81052 ], [ -77.23436, 38.81036 ] ], [ [ -77.23672, 38.81028 ], [ -77.23676, 38.81033 ], [ -77.23681, 38.81033 ], [ -77.23672, 38.81028 ] ], [ [ -77.23848, 38.80778 ], [ -77.23875, 38.80678 ], [ -77.23748, 38.80689 ], [ -77.23713, 38.80654 ], [ -77.23535, 38.80683 ], [ -77.2348, 38.80643 ], [ -77.23419, 38.80793 ], [ -77.23643, 38.80717 ], [ -77.23848, 38.80778 ] ], [ [ -77.24181, 38.80691 ], [ -77.24178, 38.8069 ], [ -77.24181, 38.80695 ], [ -77.24181, 38.80691 ] ], [ [ -77.2341, 38.80335 ], [ -77.23396, 38.80391 ], [ -77.23441, 38.80493 ], [ -77.23501, 38.80417 ], [ -77.23465, 38.80318 ], [ -77.2341, 38.80335 ] ], [ [ -77.23557, 38.80954 ], [ -77.23634, 38.8099 ], [ -77.2369, 38.80931 ], [ -77.23557, 38.80954 ] ] ] } },
{ "type": "Feature", "properties": { "variant": "T0", "miles": 1.5 }, "geometry": { "type": "Polygon", "coordinates": [ [ [ -77.25474, 38.79472 ], [ -77.25495, 38.79548 ], [ -77.25435, 38.79606 ], [ -77.25246, 38.79615 ], [ -77.25282, 38.79685 ], [ -77.25125, 38.79843 ], [ -77.25214, 38.79835 ], [ -77.25238, 38.79866 ], [ -77.25221, 38.79769 ], [ -77.25262, 38.79743 ], [ -77.25352, 38.79783 ], [ -77.25382, 38.79875 ], [ -77.25533, 38.79822 ], [ -77.25662, 38.79832 ], [ -77.25701, 38.7986 ], [ -77.25658, 38.79932 ], [ -77.25717, 38.80036 ], [ -77.25887, 38.80203 ], [ -77.25671, 38.80373 ], [ -77.25726, 38.80451 ], [ -77.25846, 38.80452 ], [ -77.2581, 38.80537 ], [ -77.25897, 38.80639 ], [ -77.25874, 38.80676 ], [ -77.25776, 38.80672 ], [ -77.25657, 38.80752 ], [ -77.2574, 38.80761 ], [ -77.25757, 38.808 ], [ -77.2569, 38.81026 ], [ -77.25602, 38.81053 ], [ -77.25558, 38.81029 ], [ -77.25463, 38.80883 ], [ -77.25159, 38.81091 ], [ -77.252, 38.81155 ], [ -77.25111, 38.81226 ], [ -77.24984, 38.81214 ], [ -77.24974, 38.8113 ], [ -77.24656, 38.81131 ], [ -77.24676, 38.81167 ], [ -77.24626, 38.81216 ], [ -77.2471, 38.81424 ], [ -77.24653, 38.8147 ], [ -77.2468, 38.81586 ], [ -77.24611, 38.81641 ], [ -77.24418, 38.81507 ], [ -77.24354, 38.8153 ], [ -77.2431, 38.81507 ], [ -77.2431, 38.81409 ], [ -77.24201, 38.81402 ], [ -77.2401, 38.81258 ], [ -77.23854, 38.81262 ], [ -77.23791, 38.81231 ], [ -77.23724, 38.81284 ], [ -77.23654, 38.8123 ], [ -77.23672, 38.81157 ], [ -77.23559, 38.81161 ], [ -77.23616, 38.81569 ], [ -77.23718, 38.81533 ], [ -77.23852, 38.81553 ], [ -77.24023, 38.81655 ], [ -77.23968, 38.81718 ], [ -77.2367, 38.8173 ], [ -77.23744, 38.81992 ], [ -77.23711, 38.82024 ], [ -77.23617, 38.82004 ], [ -77.23564, 38.81839 ], [ -77.23418, 38.81859 ], [ -77.23392, 38.8179 ], [ -77.23308, 38.81799 ], [ -77.23271, 38.8177 ], [ -77.23271, 38.81728 ], [ -77.23387, 38.81679 ], [ -77.23286, 38.81664 ], [ -77.23251, 38.81593 ], [ -77.23447, 38.8155 ], [ -77.23185, 38.81478 ], [ -77.23096, 38.81514 ], [ -77.23003, 38.81491 ], [ -77.23102, 38.81277 ], [ -77.23077, 38.81183 ], [ -77.22762, 38.81393 ], [ -77.22791, 38.81649 ], [ -77.2273, 38.81761 ], [ -77.22559, 38.81739 ], [ -77.22568, 38.81663 ], [ -77.22646, 38.81649 ], [ -77.22627, 38.81512 ], [ -77.22563, 38.81537 ], [ -77.22503, 38.81665 ], [ -77.22255, 38.81618 ], [ -77.22318, 38.81464 ], [ -77.22276, 38.81398 ], [ -77.22328, 38.81334 ], [ -77.22477, 38.81316 ], [ -77.2256, 38.81232 ], [ -77.2276, 38.81236 ], [ -77.22855, 38.81189 ], [ -77.21896, 38.81191 ], [ -77.21831, 38.81161 ], [ -77.2183, 38.81084 ], [ -77.22093, 38.81065 ], [ -77.22141, 38.80991 ], [ -77.22194, 38.80998 ], [ -77.22232, 38.81063 ], [ -77.22391, 38.81063 ], [ -77.22273, 38.80853 ], [ -77.22066, 38.80682 ], [ -77.22024, 38.80477 ], [ -77.21932, 38.80501 ], [ -77.21898, 38.80469 ], [ -77.21924, 38.80358 ], [ -77.22018, 38.80342 ], [ -77.22031, 38.80083 ], [ -77.22127, 38.80066 ], [ -77.22165, 38.80131 ], [ -77.22465, 38.80137 ], [ -77.22508, 38.79992 ], [ -77.22496, 38.79962 ], [ -77.22417, 38.79985 ], [ -77.22373, 38.79962 ], [ -77.22391, 38.79887 ], [ -77.22569, 38.79796 ], [ -77.2276, 38.79838 ], [ -77.22972, 38.80033 ], [ -77.22966, 38.80116 ], [ -77.22861, 38.80282 ], [ -77.23174, 38.80527 ], [ -77.23227, 38.8062 ], [ -77.23303, 38.80621 ], [ -77.23331, 38.8056 ], [ -77.23267, 38.80443 ], [ -77.23265, 38.80324 ], [ -77.23331, 38.80234 ], [ -77.23434, 38.80231 ], [ -77.23365, 38.80213 ], [ -77.23265, 38.80222 ], [ -77.23194, 38.80273 ], [ -77.23146, 38.80255 ], [ -77.23034, 38.80133 ], [ -77.23102, 38.79979 ], [ -77.23199, 38.79973 ], [ -77.23206, 38.8005 ], [ -77.23471, 38.80115 ], [ -77.23934, 38.79927 ], [ -77.23976, 38.79951 ], [ -77.23952, 38.80025 ], [ -77.23745, 38.80121 ], [ -77.23706, 38.80192 ], [ -77.23566, 38.80199 ], [ -77.23617, 38.80273 ], [ -77.2362, 38.80227 ], [ -77.23727, 38.80218 ], [ -77.23802, 38.8012 ], [ -77.23897, 38.80072 ], [ -77.23963, 38.80129 ], [ -77.23871, 38.80226 ], [ -77.23899, 38.8024 ], [ -77.24187, 38.79892 ], [ -77.24026, 38.79885 ], [ -77.24003, 38.79836 ], [ -77.2406, 38.79765 ], [ -77.24145, 38.79785 ], [ -77.2454, 38.79624 ], [ -77.2471, 38.79619 ], [ -77.24642, 38.79527 ], [ -77.2419, 38.79555 ], [ -77.24118, 38.79503 ], [ -77.24137, 38.79464 ], [ -77.2457, 38.79435 ], [ -77.2479, 38.79202 ], [ -77.24777, 38.79137 ], [ -77.2482, 38.79113 ], [ -77.2494, 38.79159 ], [ -77.25109, 38.79327 ], [ -77.25198, 38.79273 ], [ -77.2527, 38.79275 ], [ -77.25474, 38.79472 ] ], [ [ -77.24185, 38.80952 ], [ -77.24144, 38.80918 ], [ -77.24138, 38.80954 ], [ -77.24185, 38.80952 ] ], [ [ -77.24388, 38.80947 ], [ -77.24298, 38.80784 ], [ -77.23986, 38.80788 ], [ -77.24169, 38.80806 ], [ -77.24388, 38.80947 ] ], [ [ -77.24178, 38.8069 ], [ -77.24181, 38.80695 ], [ -77.24181, 38.80691 ], [ -77.24178, 38.8069 ] ], [ [ -77.24288, 38.80573 ], [ -77.24296, 38.80493 ], [ -77.24049, 38.80467 ], [ -77.24033, 38.80586 ], [ -77.24288, 38.80573 ] ], [ [ -77.24981, 38.80726 ], [ -77.24974, 38.80717 ], [ -77.24971, 38.80728 ], [ -77.24981, 38.80726 ] ], [ [ -77.25067, 38.79494 ], [ -77.25335, 38.79506 ], [ -77.25223, 38.79393 ], [ -77.25125, 38.79449 ], [ -77.24947, 38.79469 ], [ -77.24942, 38.79503 ], [ -77.25067, 38.79494 ] ], [ [ -77.24953, 38.79346 ], [ -77.24889, 38.79281 ], [ -77.24867, 38.79307 ], [ -77.24923, 38.79363 ], [ -77.24953, 38.79346 ] ], [ [ -77.25357, 38.80713 ], [ -77.25353, 38.80706 ], [ -77.25354, 38.8071 ], [ -77.25357, 38.80713 ] ], [ [ -77.2554, 38.8018 ], [ -77.25613, 38.80197 ], [ -77.25542, 38.80126 ], [ -77.25588, 38.80073 ], [ -77.25566, 38.80015 ], [ -77.25467, 38.80058 ], [ -77.2548, 38.80144 ], [ -77.25303, 38.80281 ], [ -77.2554, 38.8018 ] ], [ [ -77.25345, 38.80007 ], [ -77.25134, 38.8008 ], [ -77.25208, 38.80102 ], [ -77.25261, 38.80064 ], [ -77.25311, 38.80075 ], [ -77.25345, 38.80007 ] ], [ [ -77.25531, 38.80679 ], [ -77.25508, 38.80684 ], [ -77.25513, 38.80691 ], [ -77.25531, 38.80679 ] ], [ [ -77.25443, 38.80581 ], [ -77.25459, 38.80604 ], [ -77.25468, 38.80591 ], [ -77.25443, 38.80581 ] ], [ [ -77.25579, 38.80284 ], [ -77.25573, 38.80286 ], [ -77.25575, 38.8029 ], [ -77.25579, 38.80284 ] ], [ [ -77.25028, 38.80337 ], [ -77.25141, 38.80395 ], [ -77.25093, 38.80328 ], [ -77.25028, 38.80337 ] ], [ [ -77.24989, 38.79698 ], [ -77.24978, 38.79698 ], [ -77.24988, 38.79703 ], [ -77.24989, 38.79698 ] ], [ [ -77.25193, 38.79614 ], [ -77.25241, 38.79615 ], [ -77.25153, 38.79607 ], [ -77.25193, 38.79614 ] ], [ [ -77.2523, 38.79905 ], [ -77.25249, 38.79908 ], [ -77.2524, 38.79874 ], [ -77.2523, 38.79905 ] ], [ [ -77.2498, 38.80557 ], [ -77.24986, 38.80555 ], [ -77.2498, 38.80547 ], [ -77.2498, 38.80557 ] ], [ [ -77.25005, 38.80449 ], [ -77.24999, 38.80463 ], [ -77.25026, 38.8046 ], [ -77.25005, 38.80449 ] ], [ [ -77.24527, 38.8091 ], [ -77.24485, 38.80853 ], [ -77.24534, 38.80937 ], [ -77.24585, 38.80935 ], [ -77.24527, 38.8091 ] ], [ [ -77.2455, 38.80705 ], [ -77.24571, 38.80679 ], [ -77.24543, 38.80679 ], [ -77.2455, 38.80705 ] ], [ [ -77.24795, 38.7949 ], [ -77.24797, 38.7949 ], [ -77.24786, 38.79402 ], [ -77.2475, 38.79442 ], [ -77.24795, 38.7949 ] ], [ [ -77.24831, 38.80728 ], [ -77.2484, 38.80678 ], [ -77.24731, 38.80678 ], [ -77.24774, 38.80733 ], [ -77.24831, 38.80728 ] ], [ [ -77.24339, 38.81211 ], [ -77.2432, 38.81187 ], [ -77.24308, 38.8121 ], [ -77.24339, 38.81211 ] ], [ [ -77.24318, 38.81158 ], [ -77.24324, 38.81147 ], [ -77.24308, 38.81147 ], [ -77.24318, 38.81158 ] ], [ [ -77.24311, 38.81297 ], [ -77.24327, 38.81293 ], [ -77.24321, 38.81285 ], [ -77.24311, 38.81297 ] ], [ [ -77.22939, 38.81005 ], [ -77.22941, 38.80988 ], [ -77.22916, 38.81018 ], [ -77.22923, 38.8105 ], [ -77.22939, 38.81005 ] ], [ [ -77.22872, 38.80723 ], [ -77.22903, 38.80722 ], [ -77.22877, 38.80704 ], [ -77.22872, 38.80723 ] ], [ [ -77.2329, 38.80933 ], [ -77.23296, 38.80729 ], [ -77.23251, 38.80728 ], [ -77.23065, 38.81052 ], [ -77.23457, 38.81041 ], [ -77.2329, 38.80933 ] ], [ [ -77.23465, 38.80318 ], [ -77.2341, 38.80335 ], [ -77.23441, 38.80493 ], [ -77.23501, 38.80422 ], [ -77.23465, 38.80318 ] ], [ [ -77.23634, 38.8099 ], [ -77.2369, 38.80931 ], [ -77.23656, 38.80918 ], [ -77.23562, 38.80955 ], [ -77.23634, 38.8099 ] ], [ [ -77.23676, 38.81033 ], [ -77.23681, 38.81033 ], [ -77.23672, 38.81028 ], [ -77.23676, 38.81033 ] ], [ [ -77.23638, 38.80437 ], [ -77.23534, 38.80579 ], [ -77.23618, 38.80575 ], [ -77.23796, 38.80347 ], [ -77.23718, 38.80362 ], [ -77.23638, 38.80437 ] ], [ [ -77.2376, 38.80588 ], [ -77.23896, 38.8057 ], [ -77.23903, 38.80519 ], [ -77.2376, 38.80588 ] ], [ [ -77.23907, 38.80411 ], [ -77.23918, 38.80412 ], [ -77.2392, 38.80396 ], [ -77.23907, 38.80411 ] ], [ [ -77.23748, 38.80689 ], [ -77.23713, 38.80654 ], [ -77.23535, 38.80683 ], [ -77.2348, 38.80643 ], [ -77.23419, 38.80793 ], [ -77.23643, 38.80717 ], [ -77.23848, 38.80778 ], [ -77.23875, 38.80678 ], [ -77.23748, 38.80689 ] ], [ [ -77.22987, 38.8073 ], [ -77.22988, 38.80711 ], [ -77.22971, 38.80726 ], [ -77.22987, 38.8073 ] ], [ [ -77.23277, 38.81344 ], [ -77.23321, 38.81372 ], [ -77.23273, 38.81302 ], [ -77.23356, 38.81168 ], [ -77.23221, 38.81172 ], [ -77.23277, 38.81344 ] ], [ [ -77.22837, 38.80075 ], [ -77.22818, 38.80038 ], [ -77.22792, 38.80092 ], [ -77.22741, 38.80099 ], [ -77.22695, 38.80231 ], [ -77.22722, 38.80292 ], [ -77.22837, 38.80075 ] ], [ [ -77.2277, 38.79993 ], [ -77.22765, 38.79989 ], [ -77.22765, 38.79992 ], [ -77.2277, 38.79993 ] ], [ [ -77.22601, 38.80345 ], [ -77.22606, 38.80387 ], [ -77.22634, 38.80382 ], [ -77.22601, 38.80345 ] ], [ [ -77.22619, 38.80495 ], [ -77.22621, 38.80508 ], [ -77.22626, 38.80503 ], [ -77.22619, 38.80495 ] ], [ [ -77.22582, 38.81419 ], [ -77.2261, 38.81436 ], [ -77.22633, 38.81338 ], [ -77.22582, 38.81419 ] ], [ [ -77.22357, 38.80401 ], [ -77.22341, 38.80243 ], [ -77.22162, 38.80239 ], [ -77.22176, 38.80369 ], [ -77.22357, 38.80401 ] ], [ [ -77.22296, 38.80708 ], [ -77.22294, 38.80705 ], [ -77.22292, 38.80709 ], [ -77.22296, 38.80708 ] ] ] } },
{ "type": "Feature", "properties": { "variant": "T2s", "miles": 0.5 }, "geometry": { "type": "Polygon", "coordinates": [ [ [ -77.23983, 38.79992 ], [ -77.23745, 38.80121 ], [ -77.23706, 38.80192 ], [ -77.23566, 38.80199 ], [ -77.23594, 38.80278 ], [ -77.2362, 38.80227 ], [ -77.23727, 38.80218 ], [ -77.23802, 38.8012 ], [ -77.23897, 38.80072 ], [ -77.23963, 38.80129 ], [ -77.23866, 38.80238 ], [ -77.2401, 38.80254 ], [ -77.24085, 38.80195 ], [ -77.24229, 38.80238 ], [ -77.24342, 38.80376 ], [ -77.24322, 38.80415 ], [ -77.24051, 38.8045 ], [ -77.24022, 38.80513 ], [ -77.23879, 38.80512 ], [ -77.23827, 38.8057 ], [ -77.2369, 38.80499 ], [ -77.23796, 38.80347 ], [ -77.23718, 38.80362 ], [ -77.23398, 38.80716 ], [ -77.23247, 38.80712 ], [ -77.23228, 38.80673 ], [ -77.23331, 38.8056 ], [ -77.23267, 38.80443 ], [ -77.23265, 38.80324 ], [ -77.23331, 38.80234 ], [ -77.23434, 38.80231 ], [ -77.23365, 38.80213 ], [ -77.23265, 38.80222 ], [ -77.23194, 38.80273 ], [ -77.23146, 38.80255 ], [ -77.23042, 38.8016 ], [ -77.23065, 38.80013 ], [ -77.23149, 38.79961 ], [ -77.23199, 38.79973 ], [ -77.23206, 38.8005 ], [ -77.23471, 38.80115 ], [ -77.23881, 38.79932 ], [ -77.23976, 38.79951 ], [ -77.23983, 38.79992 ] ], [ [ -77.23918, 38.80412 ], [ -77.2392, 38.80396 ], [ -77.23907, 38.80411 ], [ -77.23918, 38.80412 ] ], [ [ -77.23467, 38.80323 ], [ -77.23395, 38.80369 ], [ -77.23441, 38.80493 ], [ -77.23502, 38.80421 ], [ -77.23467, 38.80323 ] ] ] } },
{ "type": "Feature", "properties": { "variant": "T2s", "miles": 1.0 }, "geometry": { "type": "Polygon", "coordinates": [ [ [ -77.2478, 38.79749 ], [ -77.24842, 38.79783 ], [ -77.248, 38.7987 ], [ -77.25019, 38.80204 ], [ -77.2499, 38.80626 ], [ -77.24938, 38.80682 ], [ -77.24721, 38.80679 ], [ -77.24622, 38.80776 ], [ -77.24548, 38.80726 ], [ -77.24571, 38.80679 ], [ -77.24428, 38.8068 ], [ -77.24539, 38.80945 ], [ -77.24517, 38.81017 ], [ -77.24322, 38.81047 ], [ -77.24144, 38.80918 ], [ -77.24116, 38.80978 ], [ -77.23905, 38.81062 ], [ -77.23672, 38.81028 ], [ -77.23683, 38.81139 ], [ -77.23495, 38.81165 ], [ -77.23421, 38.81115 ], [ -77.23465, 38.81044 ], [ -77.2329, 38.80933 ], [ -77.23296, 38.80729 ], [ -77.23251, 38.80728 ], [ -77.23077, 38.81012 ], [ -77.23048, 38.81173 ], [ -77.22991, 38.81208 ], [ -77.22918, 38.81181 ], [ -77.22885, 38.81109 ], [ -77.22935, 38.81082 ], [ -77.22947, 38.80974 ], [ -77.23115, 38.80692 ], [ -77.2307, 38.80598 ], [ -77.22858, 38.80454 ], [ -77.22835, 38.80515 ], [ -77.22783, 38.80524 ], [ -77.22681, 38.80435 ], [ -77.22796, 38.80141 ], [ -77.22889, 38.80118 ], [ -77.22923, 38.8015 ], [ -77.22861, 38.80282 ], [ -77.23174, 38.80527 ], [ -77.23227, 38.8062 ], [ -77.23303, 38.80621 ], [ -77.23331, 38.8056 ], [ -77.23267, 38.80443 ], [ -77.23265, 38.80324 ], [ -77.23331, 38.80234 ], [ -77.23434, 38.80231 ], [ -77.23365, 38.80213 ], [ -77.23265, 38.80222 ], [ -77.23194, 38.80273 ], [ -77.23146, 38.80255 ], [ -77.23034, 38.80133 ], [ -77.23102, 38.79979 ], [ -77.23199, 38.79973 ], [ -77.23206, 38.8005 ], [ -77.23471, 38.80115 ], [ -77.23934, 38.79927 ], [ -77.23976, 38.79951 ], [ -77.23952, 38.80025 ], [ -77.23745, 38.80121 ], [ -77.23706, 38.80192 ], [ -77.23566, 38.80199 ], [ -77.23617, 38.80273 ], [ -77.2362, 38.80227 ], [ -77.23727, 38.80218 ], [ -77.23802, 38.8012 ], [ -77.23897, 38.80072 ], [ -77.23963, 38.80129 ], [ -77.23871, 38.80226 ], [ -77.23899, 38.8024 ], [ -77.24313, 38.79768 ], [ -77.24598, 38.79673 ], [ -77.24771, 38.79689 ], [ -77.2478, 38.79749 ] ], [ [ -77.24388, 38.80947 ], [ -77.24298, 38.80784 ], [ -77.24254, 38.80806 ], [ -77.24177, 38.80764 ], [ -77.23983, 38.80801 ], [ -77.24164, 38.80804 ], [ -77.24388, 38.80947 ] ], [ [ -77.24044, 38.80586 ], [ -77.24288, 38.80573 ], [ -77.24296, 38.80493 ], [ -77.24049, 38.80467 ], [ -77.24044, 38.80586 ] ], [ [ -77.2392, 38.80396 ], [ -77.23907, 38.80411 ], [ -77.23918, 38.80412 ], [ -77.2392, 38.80396 ] ], [ [ -77.24181, 38.8069 ], [ -77.24178, 38.8069 ], [ -77.24181, 38.80695 ], [ -77.24181, 38.8069 ] ], [ [ -77.23501, 38.80423 ], [ -77.23465, 38.80318 ], [ -77.2341, 38.80335 ], [ -77.23441, 38.80493 ], [ -77.23501, 38.80423 ] ], [ [ -77.2378, 38.80349 ], [ -77.23718, 38.80362 ], [ -77.23534, 38.80579 ], [ -77.23618, 38.80575 ], [ -77.2378, 38.80349 ] ], [ [ -77.23875, 38.80678 ], [ -77.23748, 38.80689 ], [ -77.23713, 38.80654 ], [ -77.23535, 38.80683 ], [ -77.2348, 38.80643 ], [ -77.23419, 38.80793 ], [ -77.23643, 38.80717 ], [ -77.23848, 38.80778 ], [ -77.23875, 38.80678 ] ], [ [ -77.2358, 38.80961 ], [ -77.23634, 38.8099 ], [ -77.2369, 38.80931 ], [ -77.23656, 38.80918 ], [ -77.2358, 38.80961 ] ], [ [ -77.23903, 38.80519 ], [ -77.23778, 38.80562 ], [ -77.2376, 38.80588 ], [ -77.23896, 38.8057 ], [ -77.23903, 38.80519 ] ] ] } },
{ "type": "Feature", "properties": { "variant": "T2s", "miles": 1.5 }, "geometry": { "type": "MultiPolygon", "coordinates": [ [ [ [ -77.25192, 38.80441 ], [ -77.25408, 38.80764 ], [ -77.2559, 38.8064 ], [ -77.25696, 38.80655 ], [ -77.25688, 38.80731 ], [ -77.25611, 38.80783 ], [ -77.25697, 38.8079 ], [ -77.25714, 38.80829 ], [ -77.25664, 38.80886 ], [ -77.25681, 38.81017 ], [ -77.25593, 38.81051 ], [ -77.25463, 38.80883 ], [ -77.25131, 38.81111 ], [ -77.25081, 38.81219 ], [ -77.25031, 38.81232 ], [ -77.24984, 38.81214 ], [ -77.24975, 38.81124 ], [ -77.24835, 38.81106 ], [ -77.24807, 38.81036 ], [ -77.24094, 38.81051 ], [ -77.24094, 38.81123 ], [ -77.24293, 38.81132 ], [ -77.24324, 38.81165 ], [ -77.24311, 38.81297 ], [ -77.24417, 38.8128 ], [ -77.24452, 38.81215 ], [ -77.24503, 38.81206 ], [ -77.24556, 38.81286 ], [ -77.24646, 38.81306 ], [ -77.2464, 38.81382 ], [ -77.24547, 38.81393 ], [ -77.2447, 38.81467 ], [ -77.24409, 38.81388 ], [ -77.24206, 38.81404 ], [ -77.2401, 38.81258 ], [ -77.23854, 38.81262 ], [ -77.23807, 38.8123 ], [ -77.23724, 38.81284 ], [ -77.23675, 38.81268 ], [ -77.23672, 38.81157 ], [ -77.23559, 38.81161 ], [ -77.23616, 38.81569 ], [ -77.2377, 38.81538 ], [ -77.23899, 38.81573 ], [ -77.23913, 38.81613 ], [ -77.23879, 38.81705 ], [ -77.2367, 38.8173 ], [ -77.23713, 38.81904 ], [ -77.23656, 38.81966 ], [ -77.23577, 38.81922 ], [ -77.23564, 38.81839 ], [ -77.23418, 38.81859 ], [ -77.23392, 38.8179 ], [ -77.23308, 38.81799 ], [ -77.23271, 38.8177 ], [ -77.23271, 38.81728 ], [ -77.23387, 38.81679 ], [ -77.23286, 38.81664 ], [ -77.23251, 38.81593 ], [ -77.23447, 38.8155 ], [ -77.23185, 38.81478 ], [ -77.23096, 38.81514 ], [ -77.23003, 38.81491 ], [ -77.23102, 38.81277 ], [ -77.23096, 38.81084 ], [ -77.23465, 38.81044 ], [ -77.23355, 38.81 ], [ -77.23284, 38.80922 ], [ -77.23296, 38.80729 ], [ -77.23237, 38.80744 ], [ -77.23077, 38.81012 ], [ -77.23045, 38.81177 ], [ -77.22762, 38.81393 ], [ -77.22791, 38.81639 ], [ -77.22756, 38.81742 ], [ -77.22712, 38.81766 ], [ -77.22559, 38.81739 ], [ -77.22568, 38.81663 ], [ -77.22646, 38.81649 ], [ -77.22627, 38.81512 ], [ -77.22563, 38.81537 ], [ -77.22503, 38.81665 ], [ -77.22255, 38.81618 ], [ -77.22318, 38.81464 ], [ -77.22276, 38.81398 ], [ -77.22328, 38.81334 ], [ -77.22477, 38.81316 ], [ -77.2256, 38.81232 ], [ -77.2276, 38.81236 ], [ -77.22874, 38.81153 ], [ -77.22804, 38.81146 ], [ -77.22781, 38.81097 ], [ -77.22413, 38.81091 ], [ -77.22273, 38.80853 ], [ -77.22066, 38.80682 ], [ -77.22024, 38.80477 ], [ -77.21932, 38.80501 ], [ -77.21898, 38.80469 ], [ -77.21924, 38.80358 ], [ -77.22018, 38.80342 ], [ -77.22031, 38.80083 ], [ -77.22127, 38.80066 ], [ -77.22165, 38.80131 ], [ -77.22465, 38.80137 ], [ -77.22498, 38.79966 ], [ -77.22417, 38.79985 ], [ -77.22362, 38.79922 ], [ -77.22518, 38.7981 ], [ -77.22614, 38.79796 ], [ -77.22711, 38.79848 ], [ -77.2276, 38.79838 ], [ -77.2295, 38.79993 ], [ -77.22972, 38.80102 ], [ -77.2286, 38.8028 ], [ -77.23174, 38.80527 ], [ -77.23227, 38.8062 ], [ -77.23303, 38.80621 ], [ -77.23331, 38.8056 ], [ -77.23264, 38.80428 ], [ -77.23275, 38.80303 ], [ -77.23335, 38.80232 ], [ -77.23434, 38.80231 ], [ -77.23365, 38.80213 ], [ -77.23265, 38.80222 ], [ -77.23194, 38.80273 ], [ -77.23146, 38.80255 ], [ -77.23034, 38.80133 ], [ -77.23102, 38.79979 ], [ -77.23199, 38.79973 ], [ -77.23206, 38.8005 ], [ -77.23471, 38.80115 ], [ -77.23934, 38.79927 ], [ -77.23976, 38.79951 ], [ -77.23952, 38.80025 ], [ -77.23745, 38.80121 ], [ -77.23706, 38.80192 ], [ -77.23566, 38.80199 ], [ -77.23617, 38.80273 ], [ -77.2362, 38.80227 ], [ -77.23727, 38.80218 ], [ -77.23802, 38.8012 ], [ -77.23897, 38.80072 ], [ -77.23963, 38.80129 ], [ -77.23871, 38.80226 ], [ -77.23899, 38.8024 ], [ -77.24269, 38.798 ], [ -77.24577, 38.79675 ], [ -77.24771, 38.79689 ], [ -77.24777, 38.79748 ], [ -77.24842, 38.79783 ], [ -77.24794, 38.79855 ], [ -77.25007, 38.80174 ], [ -77.25036, 38.8034 ], [ -77.25192, 38.80441 ] ], [ [ -77.23676, 38.81033 ], [ -77.23681, 38.81033 ], [ -77.23672, 38.81028 ], [ -77.23676, 38.81033 ] ], [ [ -77.23465, 38.80318 ], [ -77.2341, 38.80335 ], [ -77.23441, 38.80493 ], [ -77.235, 38.80424 ], [ -77.23465, 38.80318 ] ], [ [ -77.2452, 38.80904 ], [ -77.24485, 38.80853 ], [ -77.24534, 38.80937 ], [ -77.24574, 38.80932 ], [ -77.2452, 38.80904 ] ], [ [ -77.2484, 38.80678 ], [ -77.24731, 38.80678 ], [ -77.24743, 38.80732 ], [ -77.2484, 38.80678 ] ], [ [ -77.24974, 38.80717 ], [ -77.24971, 38.80728 ], [ -77.24981, 38.80726 ], [ -77.24974, 38.80717 ] ], [ [ -77.2498, 38.80547 ], [ -77.2498, 38.80557 ], [ -77.24986, 38.80555 ], [ -77.2498, 38.80547 ] ], [ [ -77.25, 38.80462 ], [ -77.25026, 38.8046 ], [ -77.25005, 38.80449 ], [ -77.25, 38.80462 ] ], [ [ -77.2455, 38.80705 ], [ -77.24571, 38.80679 ], [ -77.24543, 38.80679 ], [ -77.2455, 38.80705 ] ], [ [ -77.24296, 38.80493 ], [ -77.24049, 38.80467 ], [ -77.24033, 38.80586 ], [ -77.24288, 38.80573 ], [ -77.24296, 38.80493 ] ], [ [ -77.2387, 38.80547 ], [ -77.2376, 38.80588 ], [ -77.23896, 38.8057 ], [ -77.23879, 38.80512 ], [ -77.2387, 38.80547 ] ], [ [ -77.23918, 38.80412 ], [ -77.2392, 38.80396 ], [ -77.23907, 38.80411 ], [ -77.23918, 38.80412 ] ], [ [ -77.24164, 38.80804 ], [ -77.24388, 38.80947 ], [ -77.24298, 38.80784 ], [ -77.24254, 38.80806 ], [ -77.24177, 38.80764 ], [ -77.24009, 38.80801 ], [ -77.24164, 38.80804 ] ], [ [ -77.23748, 38.80689 ], [ -77.23713, 38.80654 ], [ -77.23535, 38.80683 ], [ -77.2348, 38.80643 ], [ -77.23419, 38.80793 ], [ -77.23643, 38.80717 ], [ -77.23848, 38.80778 ], [ -77.23858, 38.80678 ], [ -77.23748, 38.80689 ] ], [ [ -77.24181, 38.80695 ], [ -77.24181, 38.8069 ], [ -77.24178, 38.8069 ], [ -77.24181, 38.80695 ] ], [ [ -77.24144, 38.80918 ], [ -77.24138, 38.80954 ], [ -77.24185, 38.80952 ], [ -77.24144, 38.80918 ] ], [ [ -77.23638, 38.80437 ], [ -77.23534, 38.80579 ], [ -77.23618, 38.80575 ], [ -77.23796, 38.80347 ], [ -77.23722, 38.80361 ], [ -77.23638, 38.80437 ] ], [ [ -77.23634, 38.8099 ], [ -77.2369, 38.80931 ], [ -77.23557, 38.80954 ], [ -77.23634, 38.8099 ] ], [ [ -77.23356, 38.81168 ], [ -77.23221, 38.81172 ], [ -77.23277, 38.81344 ], [ -77.23321, 38.81372 ], [ -77.23273, 38.81302 ], [ -77.23356, 38.81168 ] ], [ [ -77.22924, 38.81043 ], [ -77.22941, 38.80988 ], [ -77.22915, 38.81025 ], [ -77.22935, 38.81082 ], [ -77.22924, 38.81043 ] ], [ [ -77.22872, 38.80723 ], [ -77.22903, 38.80722 ], [ -77.22877, 38.80704 ], [ -77.22872, 38.80723 ] ], [ [ -77.22634, 38.80382 ], [ -77.22601, 38.80345 ], [ -77.22606, 38.80387 ], [ -77.22634, 38.80382 ] ], [ [ -77.22837, 38.80078 ], [ -77.22818, 38.80038 ], [ -77.22792, 38.80092 ], [ -77.22741, 38.80099 ], [ -77.22695, 38.80231 ], [ -77.22722, 38.80292 ], [ -77.22837, 38.80078 ] ], [ [ -77.22987, 38.8073 ], [ -77.22988, 38.80711 ], [ -77.22971, 38.80726 ], [ -77.22987, 38.8073 ] ], [ [ -77.22765, 38.79992 ], [ -77.2277, 38.79993 ], [ -77.22765, 38.79989 ], [ -77.22765, 38.79992 ] ], [ [ -77.22162, 38.80239 ], [ -77.22155, 38.80368 ], [ -77.22357, 38.80401 ], [ -77.22341, 38.80247 ], [ -77.22162, 38.80239 ] ], [ [ -77.22619, 38.80495 ], [ -77.22621, 38.80508 ], [ -77.22626, 38.80503 ], [ -77.22619, 38.80495 ] ], [ [ -77.22294, 38.8071 ], [ -77.22299, 38.80714 ], [ -77.22294, 38.80705 ], [ -77.22294, 38.8071 ] ], [ [ -77.22582, 38.81419 ], [ -77.2261, 38.81436 ], [ -77.22633, 38.81338 ], [ -77.22582, 38.81419 ] ] ], [ [ [ -77.24203, 38.7982 ], [ -77.24212, 38.7986 ], [ -77.24155, 38.79906 ], [ -77.24062, 38.79903 ], [ -77.24004, 38.7985 ], [ -77.2406, 38.79765 ], [ -77.24203, 38.7982 ] ] ], [ [ [ -77.22234, 38.81118 ], [ -77.22165, 38.81172 ], [ -77.22116, 38.81156 ], [ -77.2209, 38.81056 ], [ -77.22099, 38.81015 ], [ -77.22194, 38.80998 ], [ -77.22234, 38.81118 ] ] ] ] } }
]
}
