{
"type": "FeatureCollection",
"name": "407",
"crs": { "type": "name", "properties": { "name": "urn:ogc:def:crs:OGC:1.3:CRS84" } },
"xy_coordinate_resolution": 1e-05,
"features": [
{ "type": "Feature", "properties": { "variant": "T0", "miles": 0.5 }, "geometry": { "type": "Polygon", "coordinates": [ [ [ -77.24353, 38.79883 ], [ -77.24468, 38.79935 ], [ -77.24677, 38.80233 ], [ -77.24884, 38.80246 ], [ -77.24889, 38.80316 ], [ -77.24976, 38.80325 ], [ -77.25025, 38.80391 ], [ -77.24992, 38.80424 ], [ -77.24697, 38.80424 ], [ -77.24679, 38.80489 ], [ -77.2455, 38.80527 ], [ -77.24523, 38.80663 ], [ -77.24012, 38.80693 ], [ -77.2397, 38.8077 ], [ -77.23918, 38.80778 ], [ -77.23875, 38.80755 ], [ -77.23875, 38.80678 ], [ -77.23748, 38.80689 ], [ -77.23713, 38.80658 ], [ -77.23754, 38.80589 ], [ -77.23896, 38.8057 ], [ -77.23903, 38.80519 ], [ -77.23827, 38.8057 ], [ -77.2369, 38.80499 ], [ -77.23796, 38.80347 ], [ -77.23718, 38.80362 ], [ -77.23628, 38.80443 ], [ -77.23513, 38.80392 ], [ -77.23486, 38.80318 ], [ -77.23617, 38.80273 ], [ -77.23661, 38.80201 ], [ -77.23727, 38.80218 ], [ -77.23802, 38.8012 ], [ -77.23897, 38.80072 ], [ -77.23963, 38.80129 ], [ -77.23866, 38.80238 ], [ -77.2401, 38.80254 ], [ -77.24353, 38.79883 ] ], [ [ -77.24288, 38.80573 ], [ -77.24296, 38.80493 ], [ -77.24049, 38.80467 ], [ -77.24033, 38.80586 ], [ -77.24288, 38.80573 ] ], [ [ -77.23907, 38.80411 ], [ -77.23918, 38.80412 ], [ -77.2392, 38.80396 ], [ -77.23907, 38.80411 ] ] ] } },
{ "type": "Feature", "properties": { "variant": "T0", "miles": 1.0 }, "geometry": { "type": "Polygon", "coordinates": [ [ [ -77.24988, 38.79703 ], [ -77.25196, 38.7992 ], [ -77.25134, 38.7998 ], [ -77.25022, 38.79918 ], [ -77.24995, 38.7994 ], [ -77.25097, 38.80086 ], [ -77.25208, 38.80102 ], [ -77.25261, 38.80064 ], [ -77.25311, 38.80075 ], [ -77.25376, 38.79977 ], [ -77.2555, 38.79887 ], [ -77.25627, 38.79934 ], [ -77.25581, 38.80005 ], [ -77.25456, 38.80073 ], [ -77.2548, 38.80144 ], [ -77.25303, 38.80281 ], [ -77.2554, 38.8018 ], [ -77.25632, 38.80227 ], [ -77.25727, 38.80195 ], [ -77.2578, 38.80259 ], [ -77.25577, 38.80426 ], [ -77.25723, 38.80565 ], [ -77.25715, 38.80606 ], [ -77.2562, 38.80624 ], [ -77.25442, 38.80484 ], [ -77.25392, 38.80505 ], [ -77.25556, 38.80815 ], [ -77.25113, 38.81112 ], [ -77.24308, 38.81147 ], [ -77.24334, 38.81272 ], [ -77.24279, 38.81309 ], [ -77.24348, 38.81345 ], [ -77.24341, 38.81386 ], [ -77.24254, 38.81415 ], [ -77.2401, 38.81258 ], [ -77.23854, 38.81262 ], [ -77.23807, 38.8123 ], [ -77.23724, 38.81284 ], [ -77.23675, 38.81268 ], [ -77.23672, 38.81157 ], [ -77.23583, 38.81142 ], [ -77.23537, 38.81066 ], [ -77.23299, 38.80947 ], [ -77.23267, 38.80853 ], [ -77.23296, 38.80729 ], [ -77.23237, 38.80744 ], [ -77.23128, 38.8094 ], [ -77.23034, 38.8096 ], [ -77.23002, 38.80927 ], [ -77.23118, 38.80648 ], [ -77.23303, 38.80621 ], [ -77.23331, 38.8056 ], [ -77.23264, 38.80428 ], [ -77.23275, 38.80303 ], [ -77.23335, 38.80232 ], [ -77.23434, 38.80231 ], [ -77.23365, 38.80213 ], [ -77.23265, 38.80222 ], [ -77.23194, 38.80273 ], [ -77.23146, 38.80255 ], [ -77.23034, 38.80133 ], [ -77.23102, 38.79979 ], [ -77.23199, 38.79973 ], [ -77.23206, 38.8005 ], [ -77.23471, 38.80115 ], [ -77.23934, 38.79927 ], [ -77.23976, 38.79951 ], [ -77.23952, 38.80025 ], [ -77.23745, 38.80121 ], [ -77.23706, 38.80192 ], [ -77.23566, 38.80199 ], [ -77.23617, 38.80273 ], [ -77.2362, 38.80227 ], [ -77.23727, 38.80218 ], [ -77.23802, 38.8012 ], [ -77.23897, 38.80072 ], [ -77.23963, 38.80129 ], [ -77.23871, 38.80226 ], [ -77.23899, 38.8024 ], [ -77.2429, 38.79783 ], [ -77.24558, 38.79679 ], [ -77.24736, 38.79676 ], [ -77.24679, 38.79532 ], [ -77.24758, 38.7949 ], [ -77.24903, 38.79538 ], [ -77.2487, 38.79613 ], [ -77.24897, 38.7969 ], [ -77.24988, 38.79703 ] ], [ [ -77.24801, 38.80733 ], [ -77.2484, 38.80678 ], [ -77.24731, 38.80678 ], [ -77.24743, 38.80732 ], [ -77.24801, 38.80733 ] ], [ [ -77.2498, 38.80557 ], [ -77.24986, 38.80555 ], [ -77.2498, 38.80547 ], [ -77.2498, 38.80557 ] ], [ [ -77.25, 38.80462 ], [ -77.25005, 38.80449 ], [ -77.24999, 38.80463 ], [ -77.25, 38.80462 ] ], [ [ -77.25036, 38.8034 ], [ -77.25094, 38.80365 ], [ -77.25141, 38.80395 ], [ -77.25093, 38.80328 ], [ -77.25036, 38.8034 ] ], [ [ -77.25573, 38.80286 ], [ -77.25575, 38.8029 ], [ -77.25579, 38.80284 ], [ -77.25573, 38.80286 ] ], [ [ -77.25328, 38.80819 ], [ -77.2533, 38.80818 ], [ -77.25329, 38.80818 ], [ -77.25328, 38.80819 ] ], [ [ -77.25353, 38.80706 ], [ -77.25354, 38.80711 ], [ -77.25357, 38.80713 ], [ -77.25353, 38.80706 ] ], [ [ -77.24981, 38.80726 ], [ -77.24973, 38.8072 ], [ -77.24971, 38.80728 ], [ -77.24981, 38.80726 ] ], [ [ -77.24388, 38.80947 ], [ -77.24298, 38.80784 ], [ -77.24254, 38.80806 ], [ -77.24177, 38.80764 ], [ -77.23983, 38.80801 ], [ -77.24164, 38.80804 ], [ -77.24388, 38.80947 ] ], [ [ -77.23875, 38.80678 ], [ -77.23748, 38.80689 ], [ -77.23713, 38.80654 ], [ -77.23535, 38.80683 ], [ -77.2348, 38.80643 ], [ -77.23419, 38.80793 ], [ -77.23643, 38.80717 ], [ -77.23848, 38.80778 ], [ -77.23875, 38.80678 ] ], [ [ -77.23896, 38.8057 ], [ -77.23879, 38.80512 ], [ -77.2387, 38.80547 ], [ -77.2376, 38.80588 ], [ -77.23896, 38.8057 ] ], [ [ -77.2392, 38.80396 ], [ -77.23907, 38.80411 ], [ -77.23918, 38.80412 ], [ -77.2392, 38.80396 ] ], [ [ -77.24585, 38.80935 ], [ -77.24527, 38.8091 ], [ -77.24485, 38.80853 ], [ -77.24534, 38.80937 ], [ -77.24585, 38.80935 ] ], [ [ -77.24561, 38.80689 ], [ -77.24543, 38.80679 ], [ -77.2455, 38.80705 ], [ -77.24561, 38.80689 ] ], [ [ -77.24288, 38.80573 ], [ -77.24296, 38.80493 ], [ -77.24049, 38.80467 ], [ -77.24033, 38.80586 ], [ -77.24288, 38.80573 ] ], [ [ -77.24181, 38.8069 ], [ -77.24178, 38.8069 ], [ -77.24181, 38.80695 ], [ -77.24181, 38.8069 ] ], [ [ -77.24138, 38.80954 ], [ -77.24167, 38.8093 ], [ -77.24144, 38.80918 ], [ -77.24138, 38.80954 ] ], [ [ -77.23772, 38.8035 ], [ -77.23638, 38.80437 ], [ -77.23534, 38.80579 ], [ -77.23618, 38.80575 ], [ -77.23772, 38.8035 ] ], [ [ -77.23465, 38.80318 ], [ -77.23394, 38.80375 ], [ -77.23441, 38.80493 ], [ -77.23502, 38.80421 ], [ -77.23465, 38.80318 ] ], [ [ -77.23567, 38.80957 ], [ -77.23634, 38.8099 ], [ -77.2369, 38.80931 ], [ -77.23656, 38.80918 ], [ -77.23567, 38.80957 ] ], [ [ -77.23672, 38.81028 ], [ -77.23676, 38.81033 ], [ -77.23681, 38.81033 ], [ -77.23672, 38.81028 ] ] ] } },
{ "type": "Feature", "properties": { "variant": "T0", "miles": 1.5 }, "geometry": { "type": "Polygon", "coordinates": [ [ [ -77.25685, 38.79524 ], [ -77.25893, 38.79458 ], [ -77.25981, 38.79492 ], [ -77.25938, 38.79561 ], [ -77.25781, 38.79603 ], [ -77.25682, 38.79676 ], [ -77.25862, 38.79799 ], [ -77.25893, 38.79771 ], [ -77.25846, 38.79679 ], [ -77.25933, 38.79644 ], [ -77.2604, 38.79746 ], [ -77.26048, 38.79828 ], [ -77.26204, 38.79777 ], [ -77.26355, 38.79828 ], [ -77.26314, 38.79897 ], [ -77.26171, 38.79891 ], [ -77.26015, 38.79995 ], [ -77.26028, 38.80071 ], [ -77.25804, 38.80272 ], [ -77.25839, 38.80328 ], [ -77.25786, 38.80375 ], [ -77.25809, 38.80408 ], [ -77.25871, 38.8037 ], [ -77.25909, 38.80234 ], [ -77.26055, 38.80104 ], [ -77.26151, 38.80119 ], [ -77.26131, 38.80197 ], [ -77.26185, 38.80239 ], [ -77.26361, 38.80163 ], [ -77.26424, 38.80236 ], [ -77.26061, 38.80479 ], [ -77.26054, 38.80553 ], [ -77.25791, 38.80719 ], [ -77.25844, 38.80847 ], [ -77.25798, 38.8091 ], [ -77.25833, 38.81022 ], [ -77.2623, 38.80997 ], [ -77.26304, 38.81046 ], [ -77.26212, 38.81109 ], [ -77.26173, 38.81212 ], [ -77.26078, 38.81194 ], [ -77.26074, 38.81134 ], [ -77.25872, 38.81142 ], [ -77.25845, 38.81414 ], [ -77.25748, 38.81412 ], [ -77.25732, 38.8121 ], [ -77.25652, 38.81214 ], [ -77.25602, 38.81272 ], [ -77.25612, 38.81343 ], [ -77.25566, 38.81364 ], [ -77.25423, 38.81299 ], [ -77.25416, 38.81414 ], [ -77.25492, 38.8147 ], [ -77.25487, 38.81511 ], [ -77.25447, 38.81538 ], [ -77.25363, 38.81521 ], [ -77.25278, 38.81425 ], [ -77.25313, 38.81134 ], [ -77.25197, 38.8113 ], [ -77.2506, 38.81333 ], [ -77.25127, 38.81322 ], [ -77.25192, 38.81379 ], [ -77.25178, 38.81676 ], [ -77.25151, 38.81711 ], [ -77.25018, 38.81716 ], [ -77.2498, 38.81773 ], [ -77.24801, 38.81769 ], [ -77.24523, 38.81576 ], [ -77.2438, 38.81627 ], [ -77.24273, 38.81603 ], [ -77.24205, 38.81528 ], [ -77.24217, 38.81487 ], [ -77.24291, 38.8147 ], [ -77.2431, 38.81409 ], [ -77.24201, 38.81402 ], [ -77.2401, 38.81258 ], [ -77.23854, 38.81262 ], [ -77.23791, 38.81231 ], [ -77.23724, 38.81284 ], [ -77.23654, 38.8123 ], [ -77.23672, 38.81157 ], [ -77.23559, 38.81161 ], [ -77.23569, 38.81405 ], [ -77.23634, 38.81625 ], [ -77.23731, 38.81621 ], [ -77.23763, 38.81654 ], [ -77.23714, 38.8172 ], [ -77.23534, 38.8176 ], [ -77.23449, 38.81721 ], [ -77.23501, 38.81655 ], [ -77.23471, 38.81558 ], [ -77.23185, 38.81478 ], [ -77.23096, 38.81514 ], [ -77.23003, 38.81491 ], [ -77.23102, 38.81277 ], [ -77.23077, 38.81183 ], [ -77.22762, 38.81393 ], [ -77.22699, 38.81498 ], [ -77.22615, 38.81458 ], [ -77.22633, 38.81338 ], [ -77.22544, 38.81373 ], [ -77.22498, 38.81352 ], [ -77.22543, 38.81238 ], [ -77.2276, 38.81236 ], [ -77.22855, 38.81189 ], [ -77.22462, 38.81189 ], [ -77.22395, 38.81131 ], [ -77.22408, 38.81016 ], [ -77.22783, 38.80989 ], [ -77.2292, 38.8083 ], [ -77.22664, 38.8082 ], [ -77.22602, 38.80566 ], [ -77.22641, 38.80491 ], [ -77.22379, 38.80517 ], [ -77.22194, 38.8048 ], [ -77.22145, 38.80414 ], [ -77.22229, 38.80376 ], [ -77.22357, 38.80401 ], [ -77.22364, 38.80152 ], [ -77.22593, 38.80109 ], [ -77.22659, 38.79988 ], [ -77.2277, 38.79993 ], [ -77.22696, 38.79924 ], [ -77.22709, 38.79849 ], [ -77.22805, 38.79859 ], [ -77.22968, 38.80022 ], [ -77.22966, 38.80116 ], [ -77.22861, 38.80282 ], [ -77.23174, 38.80527 ], [ -77.23227, 38.8062 ], [ -77.23303, 38.80621 ], [ -77.23331, 38.8056 ], [ -77.23267, 38.80443 ], [ -77.23265, 38.80324 ], [ -77.23331, 38.80234 ], [ -77.23434, 38.80231 ], [ -77.23365, 38.80213 ], [ -77.23265, 38.80222 ], [ -77.23194, 38.80273 ], [ -77.23146, 38.80255 ], [ -77.23034, 38.80133 ], [ -77.23102, 38.79979 ], [ -77.23199, 38.79973 ], [ -77.23206, 38.8005 ], [ -77.23471, 38.80115 ], [ -77.23815, 38.79963 ], [ -77.238, 38.79824 ], [ -77.23958, 38.79805 ], [ -77.24043, 38.79688 ], [ -77.24166, 38.79683 ], [ -77.24238, 38.79741 ], [ -77.24549, 38.79621 ], [ -77.2471, 38.79619 ], [ -77.24642, 38.79527 ], [ -77.2414, 38.79541 ], [ -77.24137, 38.79464 ], [ -77.24185, 38.79447 ], [ -77.24551, 38.79436 ], [ -77.24169, 38.79082 ], [ -77.24112, 38.791 ], [ -77.24054, 38.79071 ], [ -77.24038, 38.79032 ], [ -77.24131, 38.78945 ], [ -77.24224, 38.78949 ], [ -77.24664, 38.7935 ], [ -77.2479, 38.79202 ], [ -77.24777, 38.79137 ], [ -77.24862, 38.79118 ], [ -77.24993, 38.78973 ], [ -77.2509, 38.78962 ], [ -77.25117, 38.78997 ], [ -77.25075, 38.79069 ], [ -77.25464, 38.7946 ], [ -77.25495, 38.79548 ], [ -77.25435, 38.79606 ], [ -77.25246, 38.79615 ], [ -77.25282, 38.79685 ], [ -77.25125, 38.79843 ], [ -77.25214, 38.79835 ], [ -77.25238, 38.79866 ], [ -77.25221, 38.79769 ], [ -77.25262, 38.79743 ], [ -77.25333, 38.79765 ], [ -77.25367, 38.79641 ], [ -77.25451, 38.79607 ], [ -77.25548, 38.7962 ], [ -77.25685, 38.79524 ] ], [ [ -77.2465, 38.81508 ], [ -77.24685, 38.81506 ], [ -77.24653, 38.81473 ], [ -77.2465, 38.81508 ] ], [ [ -77.24661, 38.81373 ], [ -77.24769, 38.8141 ], [ -77.24842, 38.81379 ], [ -77.24887, 38.81403 ], [ -77.24824, 38.813 ], [ -77.24858, 38.81269 ], [ -77.24937, 38.81284 ], [ -77.24974, 38.8113 ], [ -77.24656, 38.81131 ], [ -77.24676, 38.81167 ], [ -77.24626, 38.81216 ], [ -77.24669, 38.81264 ], [ -77.24661, 38.81373 ] ], [ [ -77.24534, 38.80937 ], [ -77.2459, 38.80936 ], [ -77.24485, 38.80853 ], [ -77.24534, 38.80937 ] ], [ [ -77.24571, 38.80679 ], [ -77.24546, 38.80696 ], [ -77.2455, 38.80705 ], [ -77.24571, 38.80679 ] ], [ [ -77.2529, 38.81 ], [ -77.25405, 38.81004 ], [ -77.25544, 38.81007 ], [ -77.25463, 38.80883 ], [ -77.2529, 38.81 ] ], [ [ -77.25312, 38.80275 ], [ -77.25524, 38.80184 ], [ -77.25613, 38.80197 ], [ -77.25542, 38.80126 ], [ -77.25588, 38.80073 ], [ -77.25566, 38.80015 ], [ -77.25467, 38.80058 ], [ -77.2548, 38.80144 ], [ -77.25312, 38.80275 ] ], [ [ -77.25261, 38.80064 ], [ -77.25311, 38.80075 ], [ -77.25345, 38.80007 ], [ -77.25134, 38.8008 ], [ -77.25208, 38.80102 ], [ -77.25261, 38.80064 ] ], [ [ -77.2524, 38.79874 ], [ -77.2523, 38.79905 ], [ -77.25249, 38.79908 ], [ -77.2524, 38.79874 ] ], [ [ -77.25575, 38.8029 ], [ -77.25579, 38.80284 ], [ -77.25573, 38.80286 ], [ -77.25575, 38.8029 ] ], [ [ -77.25773, 38.80073 ], [ -77.25811, 38.80109 ], [ -77.25838, 38.80059 ], [ -77.25773, 38.80073 ] ], [ [ -77.25914, 38.79916 ], [ -77.25922, 38.79913 ], [ -77.25917, 38.79904 ], [ -77.25914, 38.79916 ] ], [ [ -77.25741, 38.79853 ], [ -77.25768, 38.79908 ], [ -77.25808, 38.79926 ], [ -77.25741, 38.79853 ] ], [ [ -77.25716, 38.80032 ], [ -77.25733, 38.80048 ], [ -77.25708, 38.80009 ], [ -77.25716, 38.80032 ] ], [ [ -77.25729, 38.80704 ], [ -77.25726, 38.80709 ], [ -77.25735, 38.80707 ], [ -77.25729, 38.80704 ] ], [ [ -77.25354, 38.80711 ], [ -77.25357, 38.80713 ], [ -77.25353, 38.80706 ], [ -77.25354, 38.80711 ] ], [ [ -77.25468, 38.80591 ], [ -77.25443, 38.80581 ], [ -77.25459, 38.80604 ], [ -77.25468, 38.80591 ] ], [ [ -77.25508, 38.80684 ], [ -77.25513, 38.80691 ], [ -77.25531, 38.80679 ], [ -77.25508, 38.80684 ] ], [ [ -77.2533, 38.80818 ], [ -77.25329, 38.80818 ], [ -77.25328, 38.80819 ], [ -77.2533, 38.80818 ] ], [ [ -77.25512, 38.81213 ], [ -77.25506, 38.81213 ], [ -77.25513, 38.81217 ], [ -77.25512, 38.81213 ] ], [ [ -77.25223, 38.79393 ], [ -77.24947, 38.79469 ], [ -77.24935, 38.79504 ], [ -77.25335, 38.79506 ], [ -77.25223, 38.79393 ] ], [ [ -77.24953, 38.79346 ], [ -77.24889, 38.79281 ], [ -77.24867, 38.79307 ], [ -77.24923, 38.79363 ], [ -77.24953, 38.79346 ] ], [ [ -77.25138, 38.79308 ], [ -77.24991, 38.79162 ], [ -77.2497, 38.79187 ], [ -77.25109, 38.79327 ], [ -77.25138, 38.79308 ] ], [ [ -77.24883, 38.81517 ], [ -77.24886, 38.81521 ], [ -77.24886, 38.81515 ], [ -77.24883, 38.81517 ] ], [ [ -77.24981, 38.80726 ], [ -77.24974, 38.80717 ], [ -77.24971, 38.80728 ], [ -77.24981, 38.80726 ] ], [ [ -77.25093, 38.80328 ], [ -77.25028, 38.80337 ], [ -77.25141, 38.80395 ], [ -77.25093, 38.80328 ] ], [ [ -77.24988, 38.79703 ], [ -77.24989, 38.79698 ], [ -77.24978, 38.79698 ], [ -77.24988, 38.79703 ] ], [ [ -77.25153, 38.79607 ], [ -77.25193, 38.79614 ], [ -77.25241, 38.79615 ], [ -77.25153, 38.79607 ] ], [ [ -77.25026, 38.8046 ], [ -77.25005, 38.80449 ], [ -77.24999, 38.80463 ], [ -77.25026, 38.8046 ] ], [ [ -77.2498, 38.80557 ], [ -77.24986, 38.80555 ], [ -77.2498, 38.80547 ], [ -77.2498, 38.80557 ] ], [ [ -77.25036, 38.81466 ], [ -77.25027, 38.81442 ], [ -77.25023, 38.81546 ], [ -77.25036, 38.81466 ] ], [ [ -77.24786, 38.79402 ], [ -77.2475, 38.79442 ], [ -77.24797, 38.7949 ], [ -77.24817, 38.79432 ], [ -77.24786, 38.79402 ] ], [ [ -77.24776, 38.80733 ], [ -77.24831, 38.80728 ], [ -77.2484, 38.80678 ], [ -77.24731, 38.80678 ], [ -77.24776, 38.80733 ] ], [ [ -77.23672, 38.81028 ], [ -77.23676, 38.81033 ], [ -77.23681, 38.81033 ], [ -77.23672, 38.81028 ] ], [ [ -77.23634, 38.8099 ], [ -77.2369, 38.80931 ], [ -77.23656, 38.80918 ], [ -77.23557, 38.80954 ], [ -77.23634, 38.8099 ] ], [ [ -77.23427, 38.80788 ], [ -77.23649, 38.80717 ], [ -77.23848, 38.80778 ], [ -77.23875, 38.80678 ], [ -77.23748, 38.80689 ], [ -77.23713, 38.80654 ], [ -77.23535, 38.80683 ], [ -77.2348, 38.80643 ], [ -77.23427, 38.80788 ] ], [ [ -77.2376, 38.80588 ], [ -77.23896, 38.8057 ], [ -77.23903, 38.80519 ], [ -77.2376, 38.80588 ] ], [ [ -77.23787, 38.80348 ], [ -77.23718, 38.80362 ], [ -77.23534, 38.80579 ], [ -77.23618, 38.80575 ], [ -77.23787, 38.80348 ] ], [ [ -77.2362, 38.80227 ], [ -77.23727, 38.80218 ], [ -77.23802, 38.8012 ], [ -77.23897, 38.80072 ], [ -77.23963, 38.80129 ], [ -77.23871, 38.80226 ], [ -77.23899, 38.8024 ], [ -77.24187, 38.79892 ], [ -77.23745, 38.80121 ], [ -77.23706, 38.80192 ], [ -77.23566, 38.80199 ], [ -77.23594, 38.80278 ], [ -77.2362, 38.80227 ] ], [ [ -77.24363, 38.80943 ], [ -77.24298, 38.80784 ], [ -77.23986, 38.80788 ], [ -77.24169, 38.80806 ], [ -77.24363, 38.80943 ] ], [ [ -77.24181, 38.8069 ], [ -77.24178, 38.8069 ], [ -77.24181, 38.80695 ], [ -77.24181, 38.8069 ] ], [ [ -77.24288, 38.80573 ], [ -77.24296, 38.80493 ], [ -77.24049, 38.80467 ], [ -77.24033, 38.80586 ], [ -77.24288, 38.80573 ] ], [ [ -77.24796, 38.8165 ], [ -77.24795, 38.81643 ], [ -77.24788, 38.81645 ], [ -77.24796, 38.8165 ] ], [ [ -77.24321, 38.81285 ], [ -77.24311, 38.81297 ], [ -77.24327, 38.81293 ], [ -77.24321, 38.81285 ] ], [ [ -77.24308, 38.8121 ], [ -77.24339, 38.81211 ], [ -77.2432, 38.81187 ], [ -77.24308, 38.8121 ] ], [ [ -77.24308, 38.81147 ], [ -77.24318, 38.81158 ], [ -77.24324, 38.81147 ], [ -77.24308, 38.81147 ] ], [ [ -77.2392, 38.80396 ], [ -77.23907, 38.80411 ], [ -77.23918, 38.80412 ], [ -77.2392, 38.80396 ] ], [ [ -77.24185, 38.80952 ], [ -77.24144, 38.80918 ], [ -77.24138, 38.80954 ], [ -77.24185, 38.80952 ] ], [ [ -77.23273, 38.81302 ], [ -77.23321, 38.81255 ], [ -77.23356, 38.81168 ], [ -77.23221, 38.81172 ], [ -77.23277, 38.81344 ], [ -77.23321, 38.81372 ], [ -77.23273, 38.81302 ] ], [ [ -77.22916, 38.81053 ], [ -77.22939, 38.81005 ], [ -77.22941, 38.80988 ], [ -77.22916, 38.81053 ] ], [ [ -77.22971, 38.80726 ], [ -77.22987, 38.8073 ], [ -77.22988, 38.80711 ], [ -77.22971, 38.80726 ] ], [ [ -77.23457, 38.81041 ], [ -77.2329, 38.80933 ], [ -77.23296, 38.80729 ], [ -77.23251, 38.80728 ], [ -77.23065, 38.81052 ], [ -77.23457, 38.81041 ] ], [ [ -77.2341, 38.80335 ], [ -77.23396, 38.80391 ], [ -77.23441, 38.80493 ], [ -77.23501, 38.80417 ], [ -77.23465, 38.80318 ], [ -77.2341, 38.80335 ] ], [ [ -77.22722, 38.80292 ], [ -77.22837, 38.80078 ], [ -77.22818, 38.80038 ], [ -77.22792, 38.80092 ], [ -77.22741, 38.80099 ], [ -77.22695, 38.80231 ], [ -77.22722, 38.80292 ] ], [ [ -77.22634, 38.80382 ], [ -77.22601, 38.80345 ], [ -77.22606, 38.80387 ], [ -77.22634, 38.80382 ] ], [ [ -77.22877, 38.80704 ], [ -77.22872, 38.80723 ], [ -77.22903, 38.80722 ], [ -77.22877, 38.80704 ] ] ] } },
{ "type": "Feature", "properties": { "variant": "T2s", "miles": 0.5 }, "geometry": { "type": "Polygon", "coordinates": [ [ [ -77.24353, 38.79883 ], [ -77.24468, 38.79935 ], [ -77.24677, 38.80233 ], [ -77.24884, 38.80246 ], [ -77.24889, 38.80316 ], [ -77.24976, 38.80325 ], [ -77.25025, 38.80391 ], [ -77.24992, 38.80424 ], [ -77.24697, 38.80424 ], [ -77.24679, 38.80489 ], [ -77.2455, 38.80527 ], [ -77.24523, 38.80663 ], [ -77.24012, 38.80693 ], [ -77.2397, 38.8077 ], [ -77.23918, 38.80778 ], [ -77.23875, 38.80755 ], [ -77.23875, 38.80678 ], [ -77.23748, 38.80689 ], [ -77.23713, 38.80658 ], [ -77.23754, 38.80589 ], [ -77.23896, 38.8057 ], [ -77.23903, 38.80519 ], [ -77.23827, 38.8057 ], [ -77.2369, 38.80499 ], [ -77.23796, 38.80347 ], [ -77.23718, 38.80362 ], [ -77.23628, 38.80443 ], [ -77.23513, 38.80392 ], [ -77.23486, 38.80318 ], [ -77.23617, 38.80273 ], [ -77.23661, 38.80201 ], [ -77.23727, 38.80218 ], [ -77.23802, 38.8012 ], [ -77.23897, 38.80072 ], [ -77.23963, 38.80129 ], [ -77.23866, 38.80238 ], [ -77.2401, 38.80254 ], [ -77.24353, 38.79883 ] ], [ [ -77.24288, 38.80573 ], [ -77.24296, 38.80493 ], [ -77.24049, 38.80467 ], [ -77.24033, 38.80586 ], [ -77.24288, 38.80573 ] ], [ [ -77.23907, 38.80411 ], [ -77.23918, 38.80412 ], [ -77.2392, 38.80396 ], [ -77.23907, 38.80411 ] ] ] } },
{ "type": "Feature", "properties": { "variant": "T2s", "miles": 1.0 }, "geometry": { "type": "MultiPolygon", "coordinates": [ [ [ [ -77.24809, 38.79887 ], [ -77.25009, 38.8018 ], [ -77.25028, 38.80337 ], [ -77.25192, 38.80441 ], [ -77.25411, 38.80774 ], [ -77.25128, 38.8098 ], [ -77.24952, 38.8103 ], [ -77.24917, 38.81102 ], [ -77.24839, 38.81095 ], [ -77.24807, 38.81036 ], [ -77.24132, 38.81062 ], [ -77.24083, 38.81048 ], [ -77.24069, 38.80993 ], [ -77.23862, 38.81064 ], [ -77.23639, 38.8101 ], [ -77.2363, 38.80969 ], [ -77.2369, 38.80931 ], [ -77.23656, 38.80918 ], [ -77.23506, 38.80969 ], [ -77.2342, 38.80952 ], [ -77.23379, 38.8085 ], [ -77.23436, 38.80784 ], [ -77.23649, 38.80717 ], [ -77.23848, 38.80778 ], [ -77.23875, 38.80678 ], [ -77.23748, 38.80689 ], [ -77.23713, 38.80654 ], [ -77.23535, 38.80683 ], [ -77.23475, 38.80632 ], [ -77.23398, 38.80716 ], [ -77.23251, 38.80728 ], [ -77.23128, 38.8094 ], [ -77.23034, 38.8096 ], [ -77.23002, 38.80927 ], [ -77.23118, 38.80648 ], [ -77.23303, 38.80621 ], [ -77.23331, 38.8056 ], [ -77.23264, 38.80428 ], [ -77.23275, 38.80303 ], [ -77.23335, 38.80232 ], [ -77.23434, 38.80231 ], [ -77.23365, 38.80213 ], [ -77.23265, 38.80222 ], [ -77.23194, 38.80273 ], [ -77.23146, 38.80255 ], [ -77.23034, 38.80133 ], [ -77.23102, 38.79979 ], [ -77.23199, 38.79973 ], [ -77.23206, 38.8005 ], [ -77.23471, 38.80115 ], [ -77.23881, 38.79932 ], [ -77.23976, 38.79951 ], [ -77.23952, 38.80025 ], [ -77.23745, 38.80121 ], [ -77.23706, 38.80192 ], [ -77.23566, 38.80199 ], [ -77.23594, 38.80278 ], [ -77.2362, 38.80227 ], [ -77.23727, 38.80218 ], [ -77.23802, 38.8012 ], [ -77.23897, 38.80072 ], [ -77.23963, 38.80129 ], [ -77.23871, 38.80226 ], [ -77.23899, 38.8024 ], [ -77.24269, 38.798 ], [ -77.24544, 38.79683 ], [ -77.24771, 38.79689 ], [ -77.24777, 38.79748 ], [ -77.24842, 38.79783 ], [ -77.24809, 38.79887 ] ], [ [ -77.24585, 38.80935 ], [ -77.24527, 38.8091 ], [ -77.24485, 38.80853 ], [ -77.24534, 38.80937 ], [ -77.24585, 38.80935 ] ], [ [ -77.2482, 38.80727 ], [ -77.2484, 38.80678 ], [ -77.24731, 38.80678 ], [ -77.24743, 38.80732 ], [ -77.2482, 38.80727 ] ], [ [ -77.25005, 38.80449 ], [ -77.25, 38.80462 ], [ -77.25026, 38.8046 ], [ -77.25005, 38.80449 ] ], [ [ -77.24986, 38.80555 ], [ -77.2498, 38.80547 ], [ -77.2498, 38.80557 ], [ -77.24986, 38.80555 ] ], [ [ -77.24981, 38.80726 ], [ -77.24974, 38.80717 ], [ -77.24971, 38.80728 ], [ -77.24981, 38.80726 ] ], [ [ -77.24561, 38.80689 ], [ -77.24543, 38.80679 ], [ -77.2455, 38.80705 ], [ -77.24561, 38.80689 ] ], [ [ -77.24138, 38.80954 ], [ -77.24167, 38.8093 ], [ -77.24144, 38.80918 ], [ -77.24138, 38.80954 ] ], [ [ -77.23896, 38.8057 ], [ -77.23879, 38.80512 ], [ -77.2387, 38.80547 ], [ -77.2376, 38.80588 ], [ -77.23896, 38.8057 ] ], [ [ -77.2392, 38.80396 ], [ -77.23907, 38.80411 ], [ -77.23918, 38.80412 ], [ -77.2392, 38.80396 ] ], [ [ -77.24033, 38.80586 ], [ -77.24288, 38.80573 ], [ -77.24296, 38.80493 ], [ -77.24049, 38.80467 ], [ -77.24033, 38.80586 ] ], [ [ -77.24298, 38.80784 ], [ -77.23983, 38.80801 ], [ -77.24169, 38.80806 ], [ -77.24388, 38.80947 ], [ -77.24298, 38.80784 ] ], [ [ -77.24181, 38.8069 ], [ -77.24178, 38.8069 ], [ -77.24181, 38.80695 ], [ -77.24181, 38.8069 ] ], [ [ -77.23772, 38.8035 ], [ -77.23638, 38.80437 ], [ -77.23534, 38.80579 ], [ -77.23618, 38.80575 ], [ -77.23772, 38.8035 ] ], [ [ -77.23465, 38.80318 ], [ -77.23394, 38.80375 ], [ -77.23441, 38.80493 ], [ -77.23502, 38.80421 ], [ -77.23465, 38.80318 ] ] ], [ [ [ -77.2544, 38.80739 ], [ -77.25489, 38.80724 ], [ -77.25554, 38.80761 ], [ -77.25509, 38.80848 ], [ -77.2542, 38.80817 ], [ -77.2544, 38.80739 ] ] ] ] } },
{ "type": "Feature", "properties": { "variant": "T2s", "miles": 1.5 }, "geometry": { "type": "MultiPolygon", "coordinates": [ [ [ [ -77.25303, 38.80281 ], [ -77.25578, 38.80181 ], [ -77.25632, 38.80227 ], [ -77.25727, 38.80195 ], [ -77.25771, 38.80219 ], [ -77.25839, 38.80328 ], [ -77.25786, 38.80375 ], [ -77.25809, 38.80408 ], [ -77.25902, 38.80321 ], [ -77.25999, 38.8033 ], [ -77.25993, 38.80422 ], [ -77.2581, 38.80537 ], [ -77.25835, 38.80559 ], [ -77.26013, 38.80458 ], [ -77.26077, 38.80516 ], [ -77.25791, 38.80719 ], [ -77.25844, 38.80847 ], [ -77.25798, 38.8091 ], [ -77.25872, 38.81157 ], [ -77.25802, 38.8121 ], [ -77.25652, 38.81214 ], [ -77.25602, 38.81272 ], [ -77.25612, 38.81343 ], [ -77.25566, 38.81364 ], [ -77.25423, 38.81299 ], [ -77.25398, 38.81404 ], [ -77.25348, 38.81419 ], [ -77.2528, 38.81365 ], [ -77.25313, 38.81134 ], [ -77.25197, 38.8113 ], [ -77.2506, 38.81333 ], [ -77.25127, 38.81322 ], [ -77.25192, 38.81379 ], [ -77.25178, 38.81676 ], [ -77.25151, 38.81711 ], [ -77.25018, 38.81716 ], [ -77.24929, 38.8178 ], [ -77.24879, 38.81703 ], [ -77.24719, 38.8163 ], [ -77.24731, 38.81528 ], [ -77.24641, 38.81429 ], [ -77.24711, 38.81375 ], [ -77.24769, 38.8141 ], [ -77.24842, 38.81379 ], [ -77.24887, 38.81403 ], [ -77.24824, 38.813 ], [ -77.24858, 38.81269 ], [ -77.24937, 38.81284 ], [ -77.24974, 38.8113 ], [ -77.24656, 38.81131 ], [ -77.24657, 38.81205 ], [ -77.24575, 38.81222 ], [ -77.2455, 38.8134 ], [ -77.24476, 38.8139 ], [ -77.24413, 38.81332 ], [ -77.24432, 38.81224 ], [ -77.2432, 38.81187 ], [ -77.24222, 38.81258 ], [ -77.24122, 38.8123 ], [ -77.23854, 38.81262 ], [ -77.2381, 38.8124 ], [ -77.23816, 38.81155 ], [ -77.23559, 38.81161 ], [ -77.23595, 38.81501 ], [ -77.23545, 38.81567 ], [ -77.23493, 38.81561 ], [ -77.23435, 38.81438 ], [ -77.23345, 38.81466 ], [ -77.23308, 38.81436 ], [ -77.23356, 38.81168 ], [ -77.2315, 38.81174 ], [ -77.23079, 38.81122 ], [ -77.23145, 38.81066 ], [ -77.23465, 38.81044 ], [ -77.23355, 38.81 ], [ -77.23284, 38.80922 ], [ -77.23296, 38.80729 ], [ -77.23237, 38.80744 ], [ -77.23077, 38.81012 ], [ -77.23045, 38.81177 ], [ -77.22762, 38.81393 ], [ -77.22741, 38.81474 ], [ -77.22646, 38.81492 ], [ -77.2261, 38.81436 ], [ -77.22633, 38.81338 ], [ -77.22544, 38.81373 ], [ -77.22498, 38.81352 ], [ -77.22507, 38.81267 ], [ -77.22577, 38.81229 ], [ -77.2276, 38.81236 ], [ -77.22874, 38.81153 ], [ -77.22804, 38.81146 ], [ -77.22781, 38.81097 ], [ -77.22462, 38.81106 ], [ -77.22391, 38.81054 ], [ -77.22457, 38.80998 ], [ -77.22783, 38.80989 ], [ -77.2292, 38.8083 ], [ -77.22664, 38.8082 ], [ -77.22602, 38.80566 ], [ -77.22641, 38.80491 ], [ -77.22379, 38.80517 ], [ -77.22194, 38.8048 ], [ -77.22145, 38.80414 ], [ -77.22229, 38.80376 ], [ -77.22357, 38.80401 ], [ -77.22364, 38.80152 ], [ -77.22593, 38.80109 ], [ -77.22659, 38.79988 ], [ -77.2277, 38.79993 ], [ -77.22682, 38.79884 ], [ -77.2276, 38.79838 ], [ -77.22972, 38.80033 ], [ -77.22966, 38.80116 ], [ -77.22861, 38.80282 ], [ -77.23174, 38.80527 ], [ -77.23227, 38.8062 ], [ -77.23303, 38.80621 ], [ -77.23331, 38.8056 ], [ -77.23263, 38.8033 ], [ -77.23331, 38.80234 ], [ -77.23429, 38.80218 ], [ -77.23265, 38.80222 ], [ -77.23194, 38.80273 ], [ -77.23146, 38.80255 ], [ -77.23042, 38.8016 ], [ -77.23058, 38.8002 ], [ -77.23149, 38.79961 ], [ -77.23199, 38.79973 ], [ -77.23206, 38.8005 ], [ -77.23471, 38.80115 ], [ -77.23815, 38.79963 ], [ -77.238, 38.79824 ], [ -77.23958, 38.79805 ], [ -77.24043, 38.79688 ], [ -77.24095, 38.79681 ], [ -77.2423, 38.79727 ], [ -77.24212, 38.7986 ], [ -77.23745, 38.80121 ], [ -77.23706, 38.80192 ], [ -77.23566, 38.80199 ], [ -77.23594, 38.80278 ], [ -77.2362, 38.80227 ], [ -77.23727, 38.80218 ], [ -77.23802, 38.8012 ], [ -77.23897, 38.80072 ], [ -77.23963, 38.80129 ], [ -77.23871, 38.80226 ], [ -77.23899, 38.8024 ], [ -77.24285, 38.79787 ], [ -77.24598, 38.79673 ], [ -77.24771, 38.79689 ], [ -77.24777, 38.79748 ], [ -77.24845, 38.79807 ], [ -77.248, 38.7987 ], [ -77.25024, 38.80228 ], [ -77.25317, 38.80162 ], [ -77.25368, 38.80227 ], [ -77.25303, 38.80281 ] ], [ [ -77.24801, 38.80733 ], [ -77.2484, 38.80678 ], [ -77.24731, 38.80678 ], [ -77.24743, 38.80732 ], [ -77.24801, 38.80733 ] ], [ [ -77.25512, 38.81213 ], [ -77.25506, 38.81213 ], [ -77.25513, 38.81217 ], [ -77.25512, 38.81213 ] ], [ [ -77.2498, 38.80557 ], [ -77.24986, 38.80555 ], [ -77.2498, 38.80547 ], [ -77.2498, 38.80557 ] ], [ [ -77.25, 38.80462 ], [ -77.25005, 38.80449 ], [ -77.24999, 38.80463 ], [ -77.25, 38.80462 ] ], [ [ -77.25036, 38.8034 ], [ -77.25094, 38.80365 ], [ -77.25141, 38.80395 ], [ -77.25093, 38.80328 ], [ -77.25036, 38.8034 ] ], [ [ -77.25544, 38.81007 ], [ -77.25463, 38.80883 ], [ -77.2529, 38.81 ], [ -77.25544, 38.81007 ] ], [ [ -77.25508, 38.80684 ], [ -77.25513, 38.80691 ], [ -77.25531, 38.80679 ], [ -77.25508, 38.80684 ] ], [ [ -77.25468, 38.80591 ], [ -77.25443, 38.80581 ], [ -77.25459, 38.80604 ], [ -77.25468, 38.80591 ] ], [ [ -77.25575, 38.8029 ], [ -77.25579, 38.80284 ], [ -77.25573, 38.80286 ], [ -77.25575, 38.8029 ] ], [ [ -77.25729, 38.80704 ], [ -77.25726, 38.80709 ], [ -77.25735, 38.80707 ], [ -77.25729, 38.80704 ] ], [ [ -77.25328, 38.80819 ], [ -77.2533, 38.80818 ], [ -77.25329, 38.80818 ], [ -77.25328, 38.80819 ] ], [ [ -77.25353, 38.80706 ], [ -77.25354, 38.80711 ], [ -77.25357, 38.80713 ], [ -77.25353, 38.80706 ] ], [ [ -77.25036, 38.81466 ], [ -77.25027, 38.81442 ], [ -77.25023, 38.81546 ], [ -77.25036, 38.81466 ] ], [ [ -77.24974, 38.80717 ], [ -77.24971, 38.80728 ], [ -77.24981, 38.80726 ], [ -77.24974, 38.80717 ] ], [ [ -77.24886, 38.81521 ], [ -77.24883, 38.81517 ], [ -77.24875, 38.8152 ], [ -77.24886, 38.81521 ] ], [ [ -77.23848, 38.80778 ], [ -77.23875, 38.80678 ], [ -77.23748, 38.80689 ], [ -77.23713, 38.80654 ], [ -77.23535, 38.80683 ], [ -77.2348, 38.80643 ], [ -77.23419, 38.80793 ], [ -77.23643, 38.80717 ], [ -77.23848, 38.80778 ] ], [ [ -77.2376, 38.80588 ], [ -77.23896, 38.8057 ], [ -77.23903, 38.80519 ], [ -77.2376, 38.80588 ] ], [ [ -77.23787, 38.80348 ], [ -77.23718, 38.80362 ], [ -77.23534, 38.80579 ], [ -77.23618, 38.80575 ], [ -77.23787, 38.80348 ] ], [ [ -77.24318, 38.81158 ], [ -77.24324, 38.81147 ], [ -77.24308, 38.81147 ], [ -77.24318, 38.81158 ] ], [ [ -77.24363, 38.80943 ], [ -77.24298, 38.80784 ], [ -77.23986, 38.80788 ], [ -77.24169, 38.80806 ], [ -77.24363, 38.80943 ] ], [ [ -77.24288, 38.80573 ], [ -77.24296, 38.80493 ], [ -77.24049, 38.80467 ], [ -77.24033, 38.80586 ], [ -77.24288, 38.80573 ] ], [ [ -77.24543, 38.80679 ], [ -77.2455, 38.80705 ], [ -77.24571, 38.80679 ], [ -77.24543, 38.80679 ] ], [ [ -77.2459, 38.80936 ], [ -77.24509, 38.80893 ], [ -77.24485, 38.80853 ], [ -77.24534, 38.80937 ], [ -77.2459, 38.80936 ] ], [ [ -77.24178, 38.8069 ], [ -77.24181, 38.80695 ], [ -77.24181, 38.8069 ], [ -77.24178, 38.8069 ] ], [ [ -77.23918, 38.80412 ], [ -77.2392, 38.80396 ], [ -77.23907, 38.80411 ], [ -77.23918, 38.80412 ] ], [ [ -77.24185, 38.80952 ], [ -77.24144, 38.80918 ], [ -77.24138, 38.80954 ], [ -77.24185, 38.80952 ] ], [ [ -77.22918, 38.81086 ], [ -77.22939, 38.81005 ], [ -77.22941, 38.80988 ], [ -77.22915, 38.81022 ], [ -77.22918, 38.81086 ] ], [ [ -77.22971, 38.80726 ], [ -77.22987, 38.8073 ], [ -77.22988, 38.80711 ], [ -77.22971, 38.80726 ] ], [ [ -77.2358, 38.80961 ], [ -77.23634, 38.8099 ], [ -77.2369, 38.80931 ], [ -77.23656, 38.80918 ], [ -77.2358, 38.80961 ] ], [ [ -77.23672, 38.81028 ], [ -77.23676, 38.81033 ], [ -77.23681, 38.81033 ], [ -77.23672, 38.81028 ] ], [ [ -77.23406, 38.8034 ], [ -77.234, 38.8041 ], [ -77.23441, 38.80493 ], [ -77.23501, 38.80415 ], [ -77.23465, 38.80318 ], [ -77.23406, 38.8034 ] ], [ [ -77.22722, 38.80292 ], [ -77.22837, 38.80078 ], [ -77.22818, 38.80038 ], [ -77.22792, 38.80092 ], [ -77.22741, 38.80099 ], [ -77.22695, 38.80231 ], [ -77.22722, 38.80292 ] ], [ [ -77.22634, 38.80382 ], [ -77.22601, 38.80345 ], [ -77.22606, 38.80387 ], [ -77.22634, 38.80382 ] ], [ [ -77.22877, 38.80704 ], [ -77.22872, 38.80723 ], [ -77.22903, 38.80722 ], [ -77.22877, 38.80704 ] ] ], [ [ [ -77.24065, 38.79081 ], [ -77.24062, 38.78995 ], [ -77.24159, 38.79001 ], [ -77.24162, 38.79087 ], [ -77.24065, 38.79081 ] ] ] ] } }
]
}
