{
"type": "FeatureCollection",
"name": "415",
"crs": { "type": "name", "properties": { "name": "urn:ogc:def:crs:OGC:1.3:CRS84" } },
"xy_coordinate_resolution": 1e-05,
"features": [
{ "type": "Feature", "properties": { "variant": "T0", "miles": 0.5 }, "geometry": { "type": "Polygon", "coordinates": [ [ [ -77.42112, 38.81986 ], [ -77.42295, 38.82002 ], [ -77.42489, 38.82139 ], [ -77.42443, 38.82211 ], [ -77.42391, 38.82211 ], [ -77.42353, 38.82165 ], [ -77.42302, 38.8225 ], [ -77.42227, 38.82256 ], [ -77.42179, 38.82366 ], [ -77.42251, 38.82493 ], [ -77.42208, 38.82517 ], [ -77.42117, 38.82489 ], [ -77.42117, 38.82557 ], [ -77.41943, 38.82596 ], [ -77.4176, 38.82501 ], [ -77.4174, 38.82551 ], [ -77.41847, 38.82642 ], [ -77.41779, 38.82696 ], [ -77.41633, 38.82631 ], [ -77.41422, 38.82624 ], [ -77.41412, 38.82488 ], [ -77.41313, 38.82409 ], [ -77.41319, 38.82367 ], [ -77.41454, 38.82308 ], [ -77.41388, 38.82269 ], [ -77.41374, 38.82207 ], [ -77.41431, 38.82038 ], [ -77.41284, 38.82025 ], [ -77.41262, 38.81987 ], [ -77.41355, 38.81932 ], [ -77.41378, 38.81822 ], [ -77.41507, 38.8172 ], [ -77.41433, 38.81689 ], [ -77.41457, 38.81615 ], [ -77.41729, 38.81644 ], [ -77.41723, 38.81721 ], [ -77.41649, 38.81733 ], [ -77.41615, 38.81795 ], [ -77.41611, 38.81973 ], [ -77.4174, 38.82053 ], [ -77.41949, 38.82106 ], [ -77.42005, 38.82029 ], [ -77.42058, 38.82036 ], [ -77.42112, 38.81986 ] ], [ [ -77.41977, 38.82494 ], [ -77.41964, 38.82451 ], [ -77.41909, 38.82466 ], [ -77.41977, 38.82494 ] ], [ [ -77.41553, 38.82143 ], [ -77.41676, 38.82149 ], [ -77.41559, 38.82078 ], [ -77.41488, 38.823 ], [ -77.41534, 38.8232 ], [ -77.41553, 38.82143 ] ], [ [ -77.42057, 38.82296 ], [ -77.4207, 38.82274 ], [ -77.42033, 38.8226 ], [ -77.42057, 38.82296 ] ], [ [ -77.42004, 38.82212 ], [ -77.41971, 38.82212 ], [ -77.42013, 38.8224 ], [ -77.42004, 38.82212 ] ], [ [ -77.41637, 38.82331 ], [ -77.41637, 38.82328 ], [ -77.41633, 38.82332 ], [ -77.41637, 38.82331 ] ], [ [ -77.41539, 38.82324 ], [ -77.41534, 38.82321 ], [ -77.41538, 38.82324 ], [ -77.41539, 38.82324 ] ], [ [ -77.41547, 38.82538 ], [ -77.41549, 38.82537 ], [ -77.41547, 38.82536 ], [ -77.41547, 38.82538 ] ] ] } },
{ "type": "Feature", "properties": { "variant": "T0", "miles": 1.0 }, "geometry": { "type": "Polygon", "coordinates": [ [ [ -77.42216, 38.81199 ], [ -77.42159, 38.81324 ], [ -77.42066, 38.81348 ], [ -77.42032, 38.81317 ], [ -77.42051, 38.81252 ], [ -77.41998, 38.81251 ], [ -77.4193, 38.81359 ], [ -77.41997, 38.81428 ], [ -77.41977, 38.81466 ], [ -77.41867, 38.81457 ], [ -77.41808, 38.81549 ], [ -77.42126, 38.81577 ], [ -77.42344, 38.81857 ], [ -77.4251, 38.81782 ], [ -77.42559, 38.81797 ], [ -77.42561, 38.81873 ], [ -77.42331, 38.81969 ], [ -77.41999, 38.81954 ], [ -77.41863, 38.81906 ], [ -77.41707, 38.81942 ], [ -77.41622, 38.81923 ], [ -77.41611, 38.81973 ], [ -77.41912, 38.82106 ], [ -77.42112, 38.81986 ], [ -77.42197, 38.82021 ], [ -77.42399, 38.81982 ], [ -77.42596, 38.82036 ], [ -77.4264, 38.82104 ], [ -77.42602, 38.82137 ], [ -77.42594, 38.8236 ], [ -77.42518, 38.82444 ], [ -77.42352, 38.82514 ], [ -77.42074, 38.82581 ], [ -77.42013, 38.82565 ], [ -77.42046, 38.82645 ], [ -77.42017, 38.8268 ], [ -77.41845, 38.82646 ], [ -77.41779, 38.82696 ], [ -77.41633, 38.82631 ], [ -77.41358, 38.82638 ], [ -77.41355, 38.82694 ], [ -77.41419, 38.82661 ], [ -77.41561, 38.82736 ], [ -77.41542, 38.82799 ], [ -77.41668, 38.82844 ], [ -77.41681, 38.82912 ], [ -77.41629, 38.82949 ], [ -77.41475, 38.82894 ], [ -77.41416, 38.82914 ], [ -77.41355, 38.82972 ], [ -77.41333, 38.83094 ], [ -77.4116, 38.83122 ], [ -77.41092, 38.83067 ], [ -77.41204, 38.82995 ], [ -77.41263, 38.82036 ], [ -77.40935, 38.81805 ], [ -77.40605, 38.81701 ], [ -77.40472, 38.81511 ], [ -77.40558, 38.81475 ], [ -77.40667, 38.81592 ], [ -77.4071, 38.81428 ], [ -77.40808, 38.81421 ], [ -77.40797, 38.81652 ], [ -77.41022, 38.8172 ], [ -77.41256, 38.81913 ], [ -77.41263, 38.81753 ], [ -77.4159, 38.81175 ], [ -77.4177, 38.81042 ], [ -77.42216, 38.81199 ] ], [ [ -77.41745, 38.81407 ], [ -77.41731, 38.81401 ], [ -77.41677, 38.81458 ], [ -77.41613, 38.81434 ], [ -77.41555, 38.81531 ], [ -77.41624, 38.81575 ], [ -77.41606, 38.81621 ], [ -77.41745, 38.81407 ] ], [ [ -77.41789, 38.81303 ], [ -77.41807, 38.8131 ], [ -77.41869, 38.81212 ], [ -77.41783, 38.81178 ], [ -77.41826, 38.812 ], [ -77.41789, 38.81303 ] ], [ [ -77.41901, 38.81754 ], [ -77.41951, 38.81721 ], [ -77.41904, 38.81729 ], [ -77.41901, 38.81754 ] ], [ [ -77.42098, 38.81799 ], [ -77.41986, 38.81839 ], [ -77.42058, 38.8185 ], [ -77.42098, 38.81799 ] ], [ [ -77.4207, 38.82274 ], [ -77.42033, 38.8226 ], [ -77.42057, 38.82296 ], [ -77.4207, 38.82274 ] ], [ [ -77.41971, 38.82212 ], [ -77.42013, 38.8224 ], [ -77.42004, 38.82212 ], [ -77.41971, 38.82212 ] ], [ [ -77.42469, 38.82208 ], [ -77.42468, 38.82191 ], [ -77.42455, 38.82201 ], [ -77.42469, 38.82208 ] ], [ [ -77.4237, 38.82252 ], [ -77.42355, 38.82257 ], [ -77.42377, 38.82281 ], [ -77.4237, 38.82252 ] ], [ [ -77.42351, 38.82165 ], [ -77.42347, 38.82166 ], [ -77.42353, 38.82168 ], [ -77.42351, 38.82165 ] ], [ [ -77.42202, 38.82307 ], [ -77.42199, 38.82312 ], [ -77.42206, 38.82311 ], [ -77.42202, 38.82307 ] ], [ [ -77.42209, 38.82408 ], [ -77.42223, 38.82416 ], [ -77.42249, 38.82422 ], [ -77.42209, 38.82408 ] ], [ [ -77.41964, 38.82451 ], [ -77.41909, 38.82466 ], [ -77.41918, 38.82472 ], [ -77.41954, 38.82488 ], [ -77.41964, 38.82451 ] ], [ [ -77.41388, 38.82267 ], [ -77.41383, 38.82344 ], [ -77.41412, 38.82347 ], [ -77.41454, 38.82308 ], [ -77.41388, 38.82267 ] ], [ [ -77.41415, 38.8207 ], [ -77.41431, 38.82038 ], [ -77.41401, 38.82039 ], [ -77.41398, 38.82103 ], [ -77.41415, 38.8207 ] ], [ [ -77.41483, 38.81765 ], [ -77.41507, 38.8172 ], [ -77.41446, 38.81706 ], [ -77.41399, 38.81799 ], [ -77.41483, 38.81765 ] ], [ [ -77.41559, 38.82078 ], [ -77.41488, 38.823 ], [ -77.41534, 38.8232 ], [ -77.41553, 38.82143 ], [ -77.41676, 38.82149 ], [ -77.41559, 38.82078 ] ], [ [ -77.41695, 38.81832 ], [ -77.41694, 38.81833 ], [ -77.41695, 38.81833 ], [ -77.41695, 38.81832 ] ], [ [ -77.41618, 38.81828 ], [ -77.41612, 38.8182 ], [ -77.41615, 38.81837 ], [ -77.41618, 38.81828 ] ], [ [ -77.41633, 38.82332 ], [ -77.41636, 38.82332 ], [ -77.41637, 38.82328 ], [ -77.41633, 38.82332 ] ], [ [ -77.41549, 38.82537 ], [ -77.41547, 38.82536 ], [ -77.41547, 38.82538 ], [ -77.41549, 38.82537 ] ] ] } },
{ "type": "Feature", "properties": { "variant": "T0", "miles": 1.5 }, "geometry": { "type": "Polygon", "coordinates": [ [ [ -77.42597, 38.80789 ], [ -77.42695, 38.80773 ], [ -77.42733, 38.80801 ], [ -77.42698, 38.80872 ], [ -77.42567, 38.80909 ], [ -77.42515, 38.80902 ], [ -77.42424, 38.80798 ], [ -77.42289, 38.80806 ], [ -77.42264, 38.8091 ], [ -77.42504, 38.80952 ], [ -77.42715, 38.81075 ], [ -77.4268, 38.81141 ], [ -77.4254, 38.81223 ], [ -77.42772, 38.81102 ], [ -77.42869, 38.8099 ], [ -77.42958, 38.81023 ], [ -77.42943, 38.81085 ], [ -77.43116, 38.81107 ], [ -77.43142, 38.81142 ], [ -77.43142, 38.81305 ], [ -77.42989, 38.81415 ], [ -77.42847, 38.81439 ], [ -77.42619, 38.81376 ], [ -77.42711, 38.81447 ], [ -77.42756, 38.81434 ], [ -77.42822, 38.81491 ], [ -77.42938, 38.815 ], [ -77.43015, 38.81561 ], [ -77.43025, 38.8165 ], [ -77.4296, 38.81722 ], [ -77.42809, 38.81782 ], [ -77.42656, 38.81741 ], [ -77.42641, 38.81767 ], [ -77.42778, 38.81842 ], [ -77.42895, 38.81794 ], [ -77.42928, 38.81877 ], [ -77.42651, 38.82017 ], [ -77.42442, 38.81943 ], [ -77.42259, 38.81973 ], [ -77.41979, 38.81951 ], [ -77.41863, 38.81906 ], [ -77.41707, 38.81942 ], [ -77.41622, 38.81923 ], [ -77.41611, 38.81973 ], [ -77.41895, 38.82105 ], [ -77.41962, 38.82104 ], [ -77.41962, 38.82052 ], [ -77.42112, 38.81986 ], [ -77.42197, 38.82021 ], [ -77.42399, 38.81982 ], [ -77.42596, 38.82036 ], [ -77.4264, 38.82104 ], [ -77.42602, 38.82137 ], [ -77.42597, 38.82354 ], [ -77.42518, 38.82444 ], [ -77.42352, 38.82514 ], [ -77.42074, 38.82581 ], [ -77.42013, 38.82565 ], [ -77.42046, 38.82645 ], [ -77.42017, 38.8268 ], [ -77.41845, 38.82646 ], [ -77.41779, 38.82696 ], [ -77.41633, 38.82631 ], [ -77.41358, 38.82638 ], [ -77.41355, 38.82694 ], [ -77.41419, 38.82661 ], [ -77.41561, 38.82736 ], [ -77.41572, 38.82814 ], [ -77.4172, 38.82784 ], [ -77.41811, 38.82841 ], [ -77.41808, 38.82908 ], [ -77.41942, 38.82904 ], [ -77.41972, 38.82939 ], [ -77.41916, 38.83017 ], [ -77.416, 38.83069 ], [ -77.41639, 38.83201 ], [ -77.41608, 38.83242 ], [ -77.41652, 38.83284 ], [ -77.41764, 38.83289 ], [ -77.41758, 38.83382 ], [ -77.42053, 38.8347 ], [ -77.42041, 38.83557 ], [ -77.4184, 38.83532 ], [ -77.4151, 38.83372 ], [ -77.41435, 38.83442 ], [ -77.41252, 38.83469 ], [ -77.41269, 38.83526 ], [ -77.41342, 38.83491 ], [ -77.41406, 38.83522 ], [ -77.41488, 38.83502 ], [ -77.4161, 38.8356 ], [ -77.415, 38.83672 ], [ -77.41274, 38.83692 ], [ -77.41344, 38.83753 ], [ -77.41322, 38.83843 ], [ -77.41183, 38.83831 ], [ -77.40981, 38.83695 ], [ -77.40925, 38.83783 ], [ -77.40816, 38.83802 ], [ -77.40785, 38.83729 ], [ -77.40907, 38.83604 ], [ -77.40895, 38.83524 ], [ -77.40942, 38.83482 ], [ -77.4076, 38.83443 ], [ -77.40709, 38.83375 ], [ -77.40736, 38.83339 ], [ -77.40826, 38.83348 ], [ -77.40872, 38.83293 ], [ -77.4095, 38.83324 ], [ -77.41054, 38.83218 ], [ -77.41141, 38.83227 ], [ -77.41195, 38.83129 ], [ -77.40713, 38.83039 ], [ -77.40337, 38.83059 ], [ -77.40272, 38.82981 ], [ -77.40341, 38.82936 ], [ -77.40727, 38.82915 ], [ -77.40755, 38.82842 ], [ -77.40807, 38.82837 ], [ -77.40882, 38.82938 ], [ -77.41204, 38.82995 ], [ -77.41263, 38.82036 ], [ -77.40935, 38.81805 ], [ -77.40611, 38.81705 ], [ -77.40466, 38.8154 ], [ -77.3993, 38.81477 ], [ -77.39803, 38.81324 ], [ -77.39728, 38.81313 ], [ -77.39724, 38.81032 ], [ -77.39746, 38.80994 ], [ -77.39844, 38.80997 ], [ -77.39857, 38.81147 ], [ -77.4003, 38.814 ], [ -77.40445, 38.81416 ], [ -77.40568, 38.81466 ], [ -77.40667, 38.81592 ], [ -77.4071, 38.81428 ], [ -77.40808, 38.81421 ], [ -77.40797, 38.81652 ], [ -77.41022, 38.8172 ], [ -77.41256, 38.81913 ], [ -77.4127, 38.81739 ], [ -77.41479, 38.81407 ], [ -77.41533, 38.81243 ], [ -77.41644, 38.81132 ], [ -77.41267, 38.81027 ], [ -77.41223, 38.80959 ], [ -77.4131, 38.80924 ], [ -77.41736, 38.81047 ], [ -77.41911, 38.8068 ], [ -77.42059, 38.80678 ], [ -77.42112, 38.80604 ], [ -77.42212, 38.80575 ], [ -77.42434, 38.80596 ], [ -77.42453, 38.80635 ], [ -77.42396, 38.80682 ], [ -77.42597, 38.80789 ] ], [ [ -77.41618, 38.81828 ], [ -77.41612, 38.8182 ], [ -77.41615, 38.81837 ], [ -77.41618, 38.81828 ] ], [ [ -77.41745, 38.81407 ], [ -77.41731, 38.81401 ], [ -77.41677, 38.81458 ], [ -77.41613, 38.81434 ], [ -77.41555, 38.81531 ], [ -77.41598, 38.81539 ], [ -77.41625, 38.81616 ], [ -77.41745, 38.81407 ] ], [ [ -77.41789, 38.81303 ], [ -77.41807, 38.8131 ], [ -77.41869, 38.81212 ], [ -77.41783, 38.81178 ], [ -77.41826, 38.812 ], [ -77.41789, 38.81303 ] ], [ [ -77.42388, 38.81843 ], [ -77.42333, 38.81834 ], [ -77.42344, 38.81857 ], [ -77.42388, 38.81843 ] ], [ [ -77.42493, 38.81762 ], [ -77.42552, 38.81659 ], [ -77.42378, 38.81672 ], [ -77.42262, 38.81634 ], [ -77.41966, 38.81302 ], [ -77.4193, 38.81359 ], [ -77.41997, 38.81428 ], [ -77.41977, 38.81466 ], [ -77.41867, 38.81457 ], [ -77.41808, 38.81549 ], [ -77.42126, 38.81577 ], [ -77.42206, 38.81708 ], [ -77.42285, 38.81744 ], [ -77.42335, 38.81725 ], [ -77.42493, 38.81762 ] ], [ [ -77.42084, 38.81034 ], [ -77.42039, 38.81024 ], [ -77.41976, 38.8109 ], [ -77.41875, 38.81078 ], [ -77.42014, 38.81134 ], [ -77.42084, 38.81034 ] ], [ [ -77.42082, 38.80921 ], [ -77.42116, 38.80929 ], [ -77.4215, 38.80807 ], [ -77.42014, 38.80783 ], [ -77.42007, 38.80811 ], [ -77.42095, 38.80834 ], [ -77.42082, 38.80921 ] ], [ [ -77.42209, 38.80683 ], [ -77.42195, 38.80705 ], [ -77.42333, 38.80686 ], [ -77.42209, 38.80683 ] ], [ [ -77.42229, 38.81025 ], [ -77.42209, 38.81085 ], [ -77.42458, 38.81056 ], [ -77.42229, 38.81025 ] ], [ [ -77.42326, 38.81517 ], [ -77.42385, 38.81564 ], [ -77.42381, 38.81549 ], [ -77.42326, 38.81517 ] ], [ [ -77.42418, 38.81352 ], [ -77.42617, 38.81376 ], [ -77.42549, 38.81338 ], [ -77.42343, 38.81323 ], [ -77.42311, 38.81412 ], [ -77.42377, 38.81407 ], [ -77.42418, 38.81352 ] ], [ [ -77.42246, 38.81189 ], [ -77.42244, 38.81192 ], [ -77.42323, 38.81209 ], [ -77.42321, 38.81178 ], [ -77.42246, 38.81189 ] ], [ [ -77.42973, 38.81293 ], [ -77.43, 38.81277 ], [ -77.4297, 38.81279 ], [ -77.42973, 38.81293 ] ], [ [ -77.42891, 38.81608 ], [ -77.42871, 38.81596 ], [ -77.42884, 38.81632 ], [ -77.42891, 38.81608 ] ], [ [ -77.42779, 38.81675 ], [ -77.4279, 38.81674 ], [ -77.42754, 38.81653 ], [ -77.42779, 38.81675 ] ], [ [ -77.42573, 38.81861 ], [ -77.42555, 38.81877 ], [ -77.42641, 38.81909 ], [ -77.42573, 38.81861 ] ], [ [ -77.42184, 38.81369 ], [ -77.42157, 38.81357 ], [ -77.42163, 38.81369 ], [ -77.42184, 38.81369 ] ], [ [ -77.41901, 38.81754 ], [ -77.41951, 38.81721 ], [ -77.41904, 38.81729 ], [ -77.41901, 38.81754 ] ], [ [ -77.42098, 38.81799 ], [ -77.41986, 38.81839 ], [ -77.42058, 38.8185 ], [ -77.42098, 38.81799 ] ], [ [ -77.41637, 38.82328 ], [ -77.41633, 38.82332 ], [ -77.41637, 38.82331 ], [ -77.41637, 38.82328 ] ], [ [ -77.41676, 38.82149 ], [ -77.41559, 38.82078 ], [ -77.41488, 38.823 ], [ -77.41534, 38.8232 ], [ -77.41553, 38.82143 ], [ -77.41676, 38.82149 ] ], [ [ -77.4237, 38.82252 ], [ -77.42355, 38.82257 ], [ -77.42377, 38.82281 ], [ -77.4237, 38.82252 ] ], [ [ -77.42347, 38.82166 ], [ -77.42353, 38.82168 ], [ -77.42353, 38.82165 ], [ -77.42347, 38.82166 ] ], [ [ -77.42455, 38.82201 ], [ -77.42469, 38.82208 ], [ -77.42468, 38.82191 ], [ -77.42455, 38.82201 ] ], [ [ -77.42063, 38.82273 ], [ -77.42033, 38.8226 ], [ -77.42057, 38.82296 ], [ -77.42063, 38.82273 ] ], [ [ -77.41971, 38.82212 ], [ -77.42013, 38.8224 ], [ -77.42009, 38.82206 ], [ -77.41971, 38.82212 ] ], [ [ -77.42199, 38.82312 ], [ -77.42206, 38.82311 ], [ -77.42202, 38.82307 ], [ -77.42199, 38.82312 ] ], [ [ -77.42223, 38.82416 ], [ -77.42249, 38.82422 ], [ -77.42228, 38.82413 ], [ -77.42223, 38.82416 ] ], [ [ -77.41954, 38.82488 ], [ -77.41977, 38.82494 ], [ -77.41964, 38.82451 ], [ -77.41918, 38.82472 ], [ -77.41954, 38.82488 ] ], [ [ -77.41366, 38.83158 ], [ -77.4135, 38.83129 ], [ -77.41329, 38.83205 ], [ -77.41423, 38.83204 ], [ -77.41366, 38.83158 ] ], [ [ -77.41388, 38.82267 ], [ -77.41383, 38.82344 ], [ -77.41412, 38.82347 ], [ -77.41454, 38.82308 ], [ -77.41388, 38.82267 ] ], [ [ -77.41483, 38.81765 ], [ -77.41507, 38.8172 ], [ -77.41446, 38.81706 ], [ -77.41403, 38.81796 ], [ -77.41483, 38.81765 ] ], [ [ -77.41549, 38.82537 ], [ -77.41547, 38.82536 ], [ -77.41547, 38.82538 ], [ -77.41549, 38.82537 ] ], [ [ -77.41681, 38.82912 ], [ -77.41662, 38.8293 ], [ -77.41721, 38.82921 ], [ -77.41681, 38.82912 ] ], [ [ -77.41475, 38.82894 ], [ -77.41416, 38.82914 ], [ -77.41382, 38.82969 ], [ -77.41576, 38.82942 ], [ -77.41475, 38.82894 ] ], [ [ -77.41355, 38.82972 ], [ -77.41355, 38.82974 ], [ -77.4137, 38.82971 ], [ -77.41355, 38.82972 ] ], [ [ -77.41304, 38.83368 ], [ -77.41328, 38.83361 ], [ -77.41262, 38.83301 ], [ -77.41235, 38.83346 ], [ -77.41304, 38.83368 ] ], [ [ -77.4111, 38.83652 ], [ -77.41118, 38.83601 ], [ -77.41106, 38.83615 ], [ -77.4111, 38.83652 ] ], [ [ -77.41016, 38.83493 ], [ -77.41019, 38.835 ], [ -77.41026, 38.83482 ], [ -77.41016, 38.83493 ] ] ] } },
{ "type": "Feature", "properties": { "variant": "T2s", "miles": 0.5 }, "geometry": { "type": "Polygon", "coordinates": [ [ [ -77.42112, 38.81986 ], [ -77.42295, 38.82002 ], [ -77.42489, 38.82139 ], [ -77.42443, 38.82211 ], [ -77.42391, 38.82211 ], [ -77.42353, 38.82165 ], [ -77.42302, 38.8225 ], [ -77.42227, 38.82256 ], [ -77.42179, 38.82366 ], [ -77.42251, 38.82493 ], [ -77.42208, 38.82517 ], [ -77.42117, 38.82489 ], [ -77.42117, 38.82557 ], [ -77.41943, 38.82596 ], [ -77.4176, 38.82501 ], [ -77.4174, 38.82551 ], [ -77.41847, 38.82642 ], [ -77.41779, 38.82696 ], [ -77.41633, 38.82631 ], [ -77.41422, 38.82624 ], [ -77.41412, 38.82488 ], [ -77.41313, 38.82409 ], [ -77.41319, 38.82367 ], [ -77.41454, 38.82308 ], [ -77.41388, 38.82269 ], [ -77.41374, 38.82207 ], [ -77.41431, 38.82038 ], [ -77.41284, 38.82025 ], [ -77.41262, 38.81987 ], [ -77.41355, 38.81932 ], [ -77.41378, 38.81822 ], [ -77.41507, 38.8172 ], [ -77.41433, 38.81689 ], [ -77.41457, 38.81615 ], [ -77.41729, 38.81644 ], [ -77.41723, 38.81721 ], [ -77.41649, 38.81733 ], [ -77.41615, 38.81795 ], [ -77.41611, 38.81973 ], [ -77.4174, 38.82053 ], [ -77.41949, 38.82106 ], [ -77.42005, 38.82029 ], [ -77.42058, 38.82036 ], [ -77.42112, 38.81986 ] ], [ [ -77.41977, 38.82494 ], [ -77.41964, 38.82451 ], [ -77.41909, 38.82466 ], [ -77.41977, 38.82494 ] ], [ [ -77.41553, 38.82143 ], [ -77.41676, 38.82149 ], [ -77.41559, 38.82078 ], [ -77.41488, 38.823 ], [ -77.41534, 38.8232 ], [ -77.41553, 38.82143 ] ], [ [ -77.42057, 38.82296 ], [ -77.4207, 38.82274 ], [ -77.42033, 38.8226 ], [ -77.42057, 38.82296 ] ], [ [ -77.42004, 38.82212 ], [ -77.41971, 38.82212 ], [ -77.42013, 38.8224 ], [ -77.42004, 38.82212 ] ], [ [ -77.41637, 38.82331 ], [ -77.41637, 38.82328 ], [ -77.41633, 38.82332 ], [ -77.41637, 38.82331 ] ], [ [ -77.41539, 38.82324 ], [ -77.41534, 38.82321 ], [ -77.41538, 38.82324 ], [ -77.41539, 38.82324 ] ], [ [ -77.41547, 38.82538 ], [ -77.41549, 38.82537 ], [ -77.41547, 38.82536 ], [ -77.41547, 38.82538 ] ] ] } },
{ "type": "Feature", "properties": { "variant": "T2s", "miles": 1.0 }, "geometry": { "type": "Polygon", "coordinates": [ [ [ -77.42216, 38.81199 ], [ -77.42159, 38.81324 ], [ -77.42066, 38.81348 ], [ -77.42032, 38.81317 ], [ -77.42051, 38.81252 ], [ -77.41998, 38.81251 ], [ -77.4193, 38.81359 ], [ -77.41997, 38.81428 ], [ -77.41977, 38.81466 ], [ -77.41867, 38.81457 ], [ -77.41808, 38.81549 ], [ -77.42126, 38.81577 ], [ -77.42344, 38.81857 ], [ -77.4251, 38.81782 ], [ -77.42559, 38.81797 ], [ -77.42561, 38.81873 ], [ -77.42331, 38.81969 ], [ -77.41999, 38.81954 ], [ -77.41863, 38.81906 ], [ -77.41707, 38.81942 ], [ -77.41622, 38.81923 ], [ -77.41611, 38.81973 ], [ -77.41912, 38.82106 ], [ -77.42112, 38.81986 ], [ -77.42197, 38.82021 ], [ -77.42399, 38.81982 ], [ -77.42596, 38.82036 ], [ -77.4264, 38.82104 ], [ -77.42602, 38.82137 ], [ -77.42594, 38.8236 ], [ -77.42518, 38.82444 ], [ -77.42352, 38.82514 ], [ -77.42074, 38.82581 ], [ -77.42013, 38.82565 ], [ -77.42046, 38.82645 ], [ -77.42017, 38.8268 ], [ -77.41845, 38.82646 ], [ -77.41779, 38.82696 ], [ -77.41633, 38.82631 ], [ -77.41358, 38.82638 ], [ -77.41355, 38.82694 ], [ -77.41419, 38.82661 ], [ -77.41561, 38.82736 ], [ -77.41542, 38.82799 ], [ -77.41668, 38.82844 ], [ -77.41681, 38.82912 ], [ -77.41629, 38.82949 ], [ -77.41475, 38.82894 ], [ -77.41416, 38.82914 ], [ -77.41355, 38.82972 ], [ -77.41333, 38.83094 ], [ -77.4116, 38.83122 ], [ -77.41092, 38.83067 ], [ -77.41204, 38.82995 ], [ -77.41263, 38.82036 ], [ -77.40935, 38.81805 ], [ -77.40605, 38.81701 ], [ -77.40472, 38.81511 ], [ -77.40558, 38.81475 ], [ -77.40667, 38.81592 ], [ -77.4071, 38.81428 ], [ -77.40808, 38.81421 ], [ -77.40797, 38.81652 ], [ -77.41022, 38.8172 ], [ -77.41256, 38.81913 ], [ -77.41263, 38.81753 ], [ -77.4159, 38.81175 ], [ -77.4177, 38.81042 ], [ -77.42216, 38.81199 ] ], [ [ -77.41745, 38.81407 ], [ -77.41731, 38.81401 ], [ -77.41677, 38.81458 ], [ -77.41613, 38.81434 ], [ -77.41555, 38.81531 ], [ -77.41624, 38.81575 ], [ -77.41606, 38.81621 ], [ -77.41745, 38.81407 ] ], [ [ -77.41789, 38.81303 ], [ -77.41807, 38.8131 ], [ -77.41869, 38.81212 ], [ -77.41783, 38.81178 ], [ -77.41826, 38.812 ], [ -77.41789, 38.81303 ] ], [ [ -77.41901, 38.81754 ], [ -77.41951, 38.81721 ], [ -77.41904, 38.81729 ], [ -77.41901, 38.81754 ] ], [ [ -77.42098, 38.81799 ], [ -77.41986, 38.81839 ], [ -77.42058, 38.8185 ], [ -77.42098, 38.81799 ] ], [ [ -77.4207, 38.82274 ], [ -77.42033, 38.8226 ], [ -77.42057, 38.82296 ], [ -77.4207, 38.82274 ] ], [ [ -77.41971, 38.82212 ], [ -77.42013, 38.8224 ], [ -77.42004, 38.82212 ], [ -77.41971, 38.82212 ] ], [ [ -77.42469, 38.82208 ], [ -77.42468, 38.82191 ], [ -77.42455, 38.82201 ], [ -77.42469, 38.82208 ] ], [ [ -77.4237, 38.82252 ], [ -77.42355, 38.82257 ], [ -77.42377, 38.82281 ], [ -77.4237, 38.82252 ] ], [ [ -77.42351, 38.82165 ], [ -77.42347, 38.82166 ], [ -77.42353, 38.82168 ], [ -77.42351, 38.82165 ] ], [ [ -77.42202, 38.82307 ], [ -77.42199, 38.82312 ], [ -77.42206, 38.82311 ], [ -77.42202, 38.82307 ] ], [ [ -77.42209, 38.82408 ], [ -77.42223, 38.82416 ], [ -77.42249, 38.82422 ], [ -77.42209, 38.82408 ] ], [ [ -77.41964, 38.82451 ], [ -77.41909, 38.82466 ], [ -77.41918, 38.82472 ], [ -77.41954, 38.82488 ], [ -77.41964, 38.82451 ] ], [ [ -77.41388, 38.82267 ], [ -77.41383, 38.82344 ], [ -77.41412, 38.82347 ], [ -77.41454, 38.82308 ], [ -77.41388, 38.82267 ] ], [ [ -77.41415, 38.8207 ], [ -77.41431, 38.82038 ], [ -77.41401, 38.82039 ], [ -77.41398, 38.82103 ], [ -77.41415, 38.8207 ] ], [ [ -77.41483, 38.81765 ], [ -77.41507, 38.8172 ], [ -77.41446, 38.81706 ], [ -77.41399, 38.81799 ], [ -77.41483, 38.81765 ] ], [ [ -77.41559, 38.82078 ], [ -77.41488, 38.823 ], [ -77.41534, 38.8232 ], [ -77.41553, 38.82143 ], [ -77.41676, 38.82149 ], [ -77.41559, 38.82078 ] ], [ [ -77.41695, 38.81832 ], [ -77.41694, 38.81833 ], [ -77.41695, 38.81833 ], [ -77.41695, 38.81832 ] ], [ [ -77.41618, 38.81828 ], [ -77.41612, 38.8182 ], [ -77.41615, 38.81837 ], [ -77.41618, 38.81828 ] ], [ [ -77.41633, 38.82332 ], [ -77.41636, 38.82332 ], [ -77.41637, 38.82328 ], [ -77.41633, 38.82332 ] ], [ [ -77.41549, 38.82537 ], [ -77.41547, 38.82536 ], [ -77.41547, 38.82538 ], [ -77.41549, 38.82537 ] ] ] } },
{ "type": "Feature", "properties": { "variant": "T2s", "miles": 1.5 }, "geometry": { "type": "Polygon", "coordinates": [ [ [ -77.42522, 38.80718 ], [ -77.42597, 38.80789 ], [ -77.42695, 38.80773 ], [ -77.42733, 38.80801 ], [ -77.42698, 38.80872 ], [ -77.42567, 38.80909 ], [ -77.42515, 38.80902 ], [ -77.42424, 38.80798 ], [ -77.42289, 38.80806 ], [ -77.42264, 38.8091 ], [ -77.42504, 38.80952 ], [ -77.42715, 38.81075 ], [ -77.4268, 38.81141 ], [ -77.4254, 38.81223 ], [ -77.42772, 38.81102 ], [ -77.42869, 38.8099 ], [ -77.42958, 38.81023 ], [ -77.42943, 38.81085 ], [ -77.43116, 38.81107 ], [ -77.43142, 38.81142 ], [ -77.43142, 38.81305 ], [ -77.42989, 38.81415 ], [ -77.42847, 38.81439 ], [ -77.42619, 38.81376 ], [ -77.42711, 38.81447 ], [ -77.42756, 38.81434 ], [ -77.42822, 38.81491 ], [ -77.42938, 38.815 ], [ -77.43015, 38.81561 ], [ -77.43025, 38.8165 ], [ -77.4296, 38.81722 ], [ -77.42809, 38.81782 ], [ -77.42656, 38.81741 ], [ -77.42641, 38.81767 ], [ -77.42778, 38.81842 ], [ -77.42895, 38.81794 ], [ -77.42934, 38.81864 ], [ -77.42651, 38.82017 ], [ -77.42442, 38.81943 ], [ -77.42259, 38.81973 ], [ -77.41979, 38.81951 ], [ -77.41863, 38.81906 ], [ -77.41707, 38.81942 ], [ -77.41622, 38.81923 ], [ -77.41611, 38.81973 ], [ -77.41895, 38.82105 ], [ -77.41962, 38.82104 ], [ -77.41962, 38.82052 ], [ -77.42112, 38.81986 ], [ -77.42197, 38.82021 ], [ -77.42399, 38.81982 ], [ -77.42596, 38.82036 ], [ -77.4264, 38.82104 ], [ -77.42602, 38.82137 ], [ -77.42597, 38.82354 ], [ -77.42518, 38.82444 ], [ -77.42352, 38.82514 ], [ -77.42074, 38.82581 ], [ -77.42013, 38.82565 ], [ -77.42046, 38.82645 ], [ -77.42017, 38.8268 ], [ -77.41845, 38.82646 ], [ -77.41779, 38.82696 ], [ -77.41633, 38.82631 ], [ -77.41358, 38.82638 ], [ -77.41355, 38.82694 ], [ -77.41419, 38.82661 ], [ -77.41561, 38.82736 ], [ -77.41572, 38.82814 ], [ -77.4172, 38.82784 ], [ -77.41811, 38.82841 ], [ -77.41808, 38.82908 ], [ -77.41942, 38.82904 ], [ -77.41972, 38.82939 ], [ -77.41916, 38.83017 ], [ -77.41352, 38.83106 ], [ -77.41329, 38.83205 ], [ -77.41472, 38.8322 ], [ -77.41498, 38.83163 ], [ -77.41595, 38.83169 ], [ -77.41642, 38.83279 ], [ -77.41764, 38.83289 ], [ -77.41758, 38.83382 ], [ -77.41857, 38.8343 ], [ -77.41857, 38.83472 ], [ -77.41767, 38.83501 ], [ -77.4151, 38.83372 ], [ -77.41435, 38.83442 ], [ -77.41252, 38.83469 ], [ -77.41269, 38.83526 ], [ -77.41342, 38.83491 ], [ -77.41427, 38.83546 ], [ -77.4151, 38.83523 ], [ -77.41565, 38.83586 ], [ -77.41468, 38.83684 ], [ -77.41392, 38.83663 ], [ -77.41257, 38.83694 ], [ -77.41344, 38.83753 ], [ -77.41322, 38.83843 ], [ -77.41211, 38.83839 ], [ -77.40981, 38.83695 ], [ -77.40951, 38.8376 ], [ -77.40857, 38.83782 ], [ -77.4083, 38.83708 ], [ -77.40942, 38.83482 ], [ -77.4076, 38.83443 ], [ -77.40709, 38.83375 ], [ -77.40736, 38.83339 ], [ -77.40826, 38.83348 ], [ -77.40872, 38.83293 ], [ -77.4095, 38.83324 ], [ -77.41054, 38.83218 ], [ -77.41141, 38.83227 ], [ -77.41195, 38.83129 ], [ -77.40713, 38.83039 ], [ -77.40337, 38.83059 ], [ -77.40272, 38.82981 ], [ -77.40341, 38.82936 ], [ -77.40727, 38.82915 ], [ -77.40755, 38.82842 ], [ -77.40807, 38.82837 ], [ -77.40882, 38.82938 ], [ -77.41204, 38.82995 ], [ -77.41263, 38.82036 ], [ -77.40935, 38.81805 ], [ -77.40611, 38.81705 ], [ -77.40466, 38.8154 ], [ -77.39938, 38.81482 ], [ -77.39718, 38.81161 ], [ -77.39742, 38.81124 ], [ -77.39839, 38.81129 ], [ -77.40027, 38.81399 ], [ -77.40445, 38.81416 ], [ -77.40568, 38.81466 ], [ -77.40667, 38.81592 ], [ -77.4071, 38.81428 ], [ -77.40808, 38.81421 ], [ -77.40797, 38.81652 ], [ -77.41022, 38.8172 ], [ -77.41256, 38.81913 ], [ -77.4127, 38.81739 ], [ -77.41479, 38.81407 ], [ -77.41533, 38.81243 ], [ -77.41644, 38.81132 ], [ -77.41267, 38.81027 ], [ -77.41223, 38.80959 ], [ -77.4131, 38.80924 ], [ -77.41736, 38.81047 ], [ -77.41911, 38.8068 ], [ -77.42059, 38.80678 ], [ -77.42112, 38.80604 ], [ -77.42212, 38.80575 ], [ -77.42434, 38.80596 ], [ -77.42453, 38.80635 ], [ -77.42405, 38.80683 ], [ -77.42522, 38.80718 ] ], [ [ -77.41618, 38.81828 ], [ -77.41612, 38.8182 ], [ -77.41615, 38.81837 ], [ -77.41618, 38.81828 ] ], [ [ -77.41507, 38.8172 ], [ -77.41446, 38.81706 ], [ -77.41388, 38.81809 ], [ -77.41507, 38.8172 ] ], [ [ -77.42388, 38.81843 ], [ -77.42333, 38.81834 ], [ -77.42344, 38.81857 ], [ -77.42388, 38.81843 ] ], [ [ -77.42493, 38.81762 ], [ -77.42552, 38.81659 ], [ -77.42378, 38.81672 ], [ -77.42262, 38.81634 ], [ -77.41966, 38.81302 ], [ -77.4193, 38.81359 ], [ -77.41997, 38.81428 ], [ -77.41977, 38.81466 ], [ -77.41867, 38.81457 ], [ -77.41808, 38.81549 ], [ -77.42126, 38.81577 ], [ -77.42206, 38.81708 ], [ -77.42285, 38.81744 ], [ -77.42335, 38.81725 ], [ -77.42493, 38.81762 ] ], [ [ -77.42418, 38.81352 ], [ -77.42617, 38.81376 ], [ -77.42549, 38.81338 ], [ -77.42343, 38.81323 ], [ -77.42311, 38.81412 ], [ -77.42418, 38.81352 ] ], [ [ -77.42321, 38.81178 ], [ -77.42244, 38.81192 ], [ -77.42323, 38.81209 ], [ -77.42321, 38.81178 ] ], [ [ -77.42084, 38.81034 ], [ -77.42039, 38.81024 ], [ -77.41976, 38.8109 ], [ -77.41875, 38.81078 ], [ -77.42014, 38.81134 ], [ -77.42084, 38.81034 ] ], [ [ -77.42082, 38.80921 ], [ -77.42116, 38.80929 ], [ -77.4215, 38.80807 ], [ -77.42014, 38.80783 ], [ -77.42007, 38.80811 ], [ -77.42095, 38.80834 ], [ -77.42082, 38.80921 ] ], [ [ -77.42195, 38.80705 ], [ -77.42333, 38.80686 ], [ -77.42211, 38.80683 ], [ -77.42195, 38.80705 ] ], [ [ -77.42229, 38.81025 ], [ -77.42209, 38.81085 ], [ -77.42458, 38.81056 ], [ -77.42229, 38.81025 ] ], [ [ -77.42771, 38.81674 ], [ -77.4279, 38.81674 ], [ -77.42754, 38.81653 ], [ -77.42771, 38.81674 ] ], [ [ -77.42973, 38.81293 ], [ -77.43, 38.81277 ], [ -77.4297, 38.81279 ], [ -77.42973, 38.81293 ] ], [ [ -77.4235, 38.8155 ], [ -77.42385, 38.81564 ], [ -77.42373, 38.81517 ], [ -77.4235, 38.8155 ] ], [ [ -77.42573, 38.81861 ], [ -77.42555, 38.81877 ], [ -77.42638, 38.81908 ], [ -77.42573, 38.81861 ] ], [ [ -77.42891, 38.81608 ], [ -77.42871, 38.81596 ], [ -77.42884, 38.81632 ], [ -77.42891, 38.81608 ] ], [ [ -77.41783, 38.81178 ], [ -77.41838, 38.8124 ], [ -77.41807, 38.8131 ], [ -77.41869, 38.81212 ], [ -77.41783, 38.81178 ] ], [ [ -77.42184, 38.81369 ], [ -77.42157, 38.81357 ], [ -77.42163, 38.81369 ], [ -77.42184, 38.81369 ] ], [ [ -77.41951, 38.81721 ], [ -77.41886, 38.81727 ], [ -77.41901, 38.81754 ], [ -77.41951, 38.81721 ] ], [ [ -77.42032, 38.81811 ], [ -77.41986, 38.81839 ], [ -77.42058, 38.8185 ], [ -77.42078, 38.81804 ], [ -77.42032, 38.81811 ] ], [ [ -77.41555, 38.81531 ], [ -77.41624, 38.81575 ], [ -77.41622, 38.81622 ], [ -77.41745, 38.81407 ], [ -77.41677, 38.81458 ], [ -77.41626, 38.81449 ], [ -77.41555, 38.81531 ] ], [ [ -77.41964, 38.82451 ], [ -77.41909, 38.82466 ], [ -77.41977, 38.82494 ], [ -77.41964, 38.82451 ] ], [ [ -77.4207, 38.82274 ], [ -77.42033, 38.8226 ], [ -77.42057, 38.82296 ], [ -77.4207, 38.82274 ] ], [ [ -77.41971, 38.82212 ], [ -77.42013, 38.8224 ], [ -77.42004, 38.82212 ], [ -77.41971, 38.82212 ] ], [ [ -77.41559, 38.82078 ], [ -77.41488, 38.823 ], [ -77.41534, 38.8232 ], [ -77.41553, 38.82143 ], [ -77.41666, 38.82145 ], [ -77.41559, 38.82078 ] ], [ [ -77.4237, 38.82252 ], [ -77.42355, 38.82257 ], [ -77.42377, 38.82281 ], [ -77.4237, 38.82252 ] ], [ [ -77.42347, 38.82166 ], [ -77.42353, 38.82168 ], [ -77.42353, 38.82165 ], [ -77.42347, 38.82166 ] ], [ [ -77.42469, 38.82208 ], [ -77.42468, 38.82191 ], [ -77.42455, 38.82201 ], [ -77.42469, 38.82208 ] ], [ [ -77.42206, 38.82311 ], [ -77.42202, 38.82307 ], [ -77.42199, 38.82312 ], [ -77.42206, 38.82311 ] ], [ [ -77.42209, 38.82408 ], [ -77.42223, 38.82416 ], [ -77.42249, 38.82422 ], [ -77.42209, 38.82408 ] ], [ [ -77.41547, 38.82536 ], [ -77.41547, 38.82538 ], [ -77.41549, 38.82537 ], [ -77.41547, 38.82536 ] ], [ [ -77.41636, 38.82332 ], [ -77.41637, 38.82328 ], [ -77.41633, 38.82332 ], [ -77.41636, 38.82332 ] ], [ [ -77.41475, 38.82894 ], [ -77.41382, 38.82969 ], [ -77.41576, 38.82942 ], [ -77.41475, 38.82894 ] ], [ [ -77.41681, 38.82912 ], [ -77.41662, 38.8293 ], [ -77.41721, 38.82921 ], [ -77.41681, 38.82912 ] ], [ [ -77.41398, 38.82086 ], [ -77.41398, 38.82104 ], [ -77.41431, 38.82038 ], [ -77.41398, 38.82086 ] ], [ [ -77.41412, 38.82347 ], [ -77.41454, 38.82308 ], [ -77.41388, 38.82267 ], [ -77.41412, 38.82347 ] ], [ [ -77.4137, 38.82971 ], [ -77.41355, 38.82972 ], [ -77.41355, 38.82974 ], [ -77.4137, 38.82971 ] ], [ [ -77.41328, 38.83361 ], [ -77.41262, 38.83301 ], [ -77.41235, 38.83346 ], [ -77.41328, 38.83361 ] ], [ [ -77.41026, 38.83482 ], [ -77.40996, 38.83486 ], [ -77.41016, 38.83493 ], [ -77.41026, 38.83482 ] ], [ [ -77.4111, 38.83652 ], [ -77.41118, 38.83601 ], [ -77.41106, 38.83615 ], [ -77.4111, 38.83652 ] ] ] } }
]
}
