{
"type": "FeatureCollection",
"name": "420",
"crs": { "type": "name", "properties": { "name": "urn:ogc:def:crs:OGC:1.3:CRS84" } },
"xy_coordinate_resolution": 1e-05,
"features": [
{ "type": "Feature", "properties": { "variant": "T0", "miles": 1.0 }, "geometry": { "type": "Polygon", "coordinates": [ [ [ -77.23891, 38.71369 ], [ -77.23786, 38.71421 ], [ -77.23824, 38.71481 ], [ -77.24041, 38.71529 ], [ -77.2426, 38.71654 ], [ -77.24777, 38.72155 ], [ -77.25023, 38.72317 ], [ -77.25031, 38.72394 ], [ -77.24934, 38.724 ], [ -77.24745, 38.72276 ], [ -77.24608, 38.7235 ], [ -77.24498, 38.72328 ], [ -77.24153, 38.71981 ], [ -77.24161, 38.71907 ], [ -77.24274, 38.71838 ], [ -77.2412, 38.71702 ], [ -77.23904, 38.71614 ], [ -77.23663, 38.71751 ], [ -77.23969, 38.72028 ], [ -77.24262, 38.72432 ], [ -77.24183, 38.72478 ], [ -77.24081, 38.7239 ], [ -77.24053, 38.72457 ], [ -77.23978, 38.72481 ], [ -77.23923, 38.7241 ], [ -77.23853, 38.72405 ], [ -77.23821, 38.72472 ], [ -77.23727, 38.72493 ], [ -77.23715, 38.72397 ], [ -77.23555, 38.7234 ], [ -77.23586, 38.72268 ], [ -77.23756, 38.72293 ], [ -77.2399, 38.72297 ], [ -77.23958, 38.7226 ], [ -77.23861, 38.7229 ], [ -77.23771, 38.72273 ], [ -77.23676, 38.72139 ], [ -77.23625, 38.72114 ], [ -77.23658, 38.72164 ], [ -77.23632, 38.72209 ], [ -77.23426, 38.72194 ], [ -77.23438, 38.72109 ], [ -77.23586, 38.71961 ], [ -77.23665, 38.71934 ], [ -77.23551, 38.71833 ], [ -77.23367, 38.71905 ], [ -77.23356, 38.72099 ], [ -77.23207, 38.72151 ], [ -77.22968, 38.72042 ], [ -77.22787, 38.72058 ], [ -77.22755, 38.72018 ], [ -77.22808, 38.7188 ], [ -77.22743, 38.71864 ], [ -77.22657, 38.71967 ], [ -77.22561, 38.71953 ], [ -77.22581, 38.71846 ], [ -77.22456, 38.71728 ], [ -77.22515, 38.71633 ], [ -77.22332, 38.71627 ], [ -77.22261, 38.71579 ], [ -77.22323, 38.7152 ], [ -77.22465, 38.71517 ], [ -77.22736, 38.71194 ], [ -77.22608, 38.71201 ], [ -77.22577, 38.71168 ], [ -77.22645, 38.71099 ], [ -77.22647, 38.71016 ], [ -77.22797, 38.70983 ], [ -77.22684, 38.70824 ], [ -77.22759, 38.70774 ], [ -77.23139, 38.70965 ], [ -77.23155, 38.71048 ], [ -77.231, 38.71127 ], [ -77.23129, 38.71148 ], [ -77.23238, 38.71119 ], [ -77.23276, 38.71012 ], [ -77.23416, 38.70939 ], [ -77.23697, 38.70984 ], [ -77.23659, 38.71164 ], [ -77.23437, 38.71154 ], [ -77.23398, 38.71235 ], [ -77.2325, 38.71346 ], [ -77.23291, 38.71409 ], [ -77.23356, 38.71381 ], [ -77.23471, 38.71406 ], [ -77.23533, 38.71203 ], [ -77.23806, 38.71201 ], [ -77.23938, 38.7116 ], [ -77.23983, 38.71228 ], [ -77.2391, 38.71275 ], [ -77.23891, 38.71369 ] ], [ [ -77.23319, 38.71799 ], [ -77.23461, 38.71751 ], [ -77.2329, 38.71586 ], [ -77.23172, 38.71649 ], [ -77.23148, 38.71726 ], [ -77.23319, 38.71799 ] ], [ [ -77.24645, 38.722 ], [ -77.24357, 38.71924 ], [ -77.24307, 38.71955 ], [ -77.24581, 38.7224 ], [ -77.24645, 38.722 ] ], [ [ -77.23196, 38.71231 ], [ -77.2321, 38.71225 ], [ -77.23191, 38.71223 ], [ -77.23196, 38.71231 ] ], [ [ -77.23217, 38.72025 ], [ -77.23234, 38.72043 ], [ -77.23233, 38.72015 ], [ -77.23217, 38.72025 ] ], [ [ -77.22802, 38.71488 ], [ -77.22708, 38.7143 ], [ -77.22691, 38.7142 ], [ -77.22679, 38.71464 ], [ -77.22802, 38.71488 ] ] ] } },
{ "type": "Feature", "properties": { "variant": "T0", "miles": 1.5 }, "geometry": { "type": "Polygon", "coordinates": [ [ [ -77.2391, 38.71275 ], [ -77.23874, 38.71397 ], [ -77.23786, 38.71421 ], [ -77.23824, 38.71481 ], [ -77.24041, 38.71529 ], [ -77.24242, 38.71641 ], [ -77.24777, 38.72155 ], [ -77.24989, 38.72295 ], [ -77.2509, 38.72224 ], [ -77.24978, 38.72015 ], [ -77.25193, 38.71886 ], [ -77.256, 38.72093 ], [ -77.25408, 38.72355 ], [ -77.25329, 38.72372 ], [ -77.25343, 38.72513 ], [ -77.25184, 38.72754 ], [ -77.25358, 38.7277 ], [ -77.25361, 38.72846 ], [ -77.25113, 38.72862 ], [ -77.25153, 38.72932 ], [ -77.25088, 38.72988 ], [ -77.24942, 38.72927 ], [ -77.24814, 38.7298 ], [ -77.24668, 38.72931 ], [ -77.24575, 38.72939 ], [ -77.24552, 38.72907 ], [ -77.24499, 38.72932 ], [ -77.24312, 38.72908 ], [ -77.24235, 38.72941 ], [ -77.24075, 38.72916 ], [ -77.24104, 38.72743 ], [ -77.24181, 38.7274 ], [ -77.2423, 38.72682 ], [ -77.24314, 38.72703 ], [ -77.24341, 38.72626 ], [ -77.24081, 38.7239 ], [ -77.24015, 38.72477 ], [ -77.23932, 38.7246 ], [ -77.23923, 38.7241 ], [ -77.23853, 38.72405 ], [ -77.23821, 38.72472 ], [ -77.23727, 38.72493 ], [ -77.23715, 38.72397 ], [ -77.23555, 38.7234 ], [ -77.23586, 38.72268 ], [ -77.23756, 38.72293 ], [ -77.2399, 38.72297 ], [ -77.23958, 38.7226 ], [ -77.23861, 38.7229 ], [ -77.23771, 38.72273 ], [ -77.23676, 38.72139 ], [ -77.23625, 38.72114 ], [ -77.23658, 38.72164 ], [ -77.23632, 38.72209 ], [ -77.23426, 38.72194 ], [ -77.23438, 38.72109 ], [ -77.23586, 38.71961 ], [ -77.23665, 38.71934 ], [ -77.23551, 38.71833 ], [ -77.23367, 38.71905 ], [ -77.23365, 38.72084 ], [ -77.23257, 38.72153 ], [ -77.22968, 38.72042 ], [ -77.22787, 38.72058 ], [ -77.22755, 38.72018 ], [ -77.22808, 38.7188 ], [ -77.22743, 38.71864 ], [ -77.22657, 38.71967 ], [ -77.22561, 38.71953 ], [ -77.22576, 38.71851 ], [ -77.22453, 38.71933 ], [ -77.22317, 38.71939 ], [ -77.22289, 38.72002 ], [ -77.22183, 38.71994 ], [ -77.2222, 38.7186 ], [ -77.22411, 38.71825 ], [ -77.22347, 38.71752 ], [ -77.22195, 38.71841 ], [ -77.22093, 38.72022 ], [ -77.21977, 38.71993 ], [ -77.22072, 38.71782 ], [ -77.22212, 38.71692 ], [ -77.22132, 38.71656 ], [ -77.22026, 38.7174 ], [ -77.21973, 38.71741 ], [ -77.21935, 38.71713 ], [ -77.21948, 38.71644 ], [ -77.21869, 38.71588 ], [ -77.22022, 38.71485 ], [ -77.21984, 38.71439 ], [ -77.22066, 38.71385 ], [ -77.2201, 38.71268 ], [ -77.22044, 38.71235 ], [ -77.2213, 38.71252 ], [ -77.22141, 38.71198 ], [ -77.22257, 38.71182 ], [ -77.22339, 38.7121 ], [ -77.22383, 38.71276 ], [ -77.22513, 38.71196 ], [ -77.22463, 38.71072 ], [ -77.22389, 38.71085 ], [ -77.22354, 38.71055 ], [ -77.2231, 38.70926 ], [ -77.22347, 38.70897 ], [ -77.22461, 38.70901 ], [ -77.22369, 38.70872 ], [ -77.22343, 38.70804 ], [ -77.22399, 38.70726 ], [ -77.2249, 38.70726 ], [ -77.22516, 38.70664 ], [ -77.22572, 38.70658 ], [ -77.22581, 38.70548 ], [ -77.22301, 38.70597 ], [ -77.22269, 38.70503 ], [ -77.22691, 38.70407 ], [ -77.22722, 38.70295 ], [ -77.22639, 38.70138 ], [ -77.22718, 38.70052 ], [ -77.22811, 38.70075 ], [ -77.22805, 38.70139 ], [ -77.22961, 38.70145 ], [ -77.22974, 38.70209 ], [ -77.23085, 38.70245 ], [ -77.23076, 38.70285 ], [ -77.22841, 38.70404 ], [ -77.23282, 38.70459 ], [ -77.23268, 38.70562 ], [ -77.23033, 38.70547 ], [ -77.23091, 38.70733 ], [ -77.23196, 38.70848 ], [ -77.23264, 38.70864 ], [ -77.23299, 38.70997 ], [ -77.23416, 38.70939 ], [ -77.23581, 38.70958 ], [ -77.23615, 38.70894 ], [ -77.23666, 38.70885 ], [ -77.23719, 38.70969 ], [ -77.23805, 38.7098 ], [ -77.23777, 38.70866 ], [ -77.2386, 38.70812 ], [ -77.23908, 38.70829 ], [ -77.23926, 38.70929 ], [ -77.2401, 38.70963 ], [ -77.24318, 38.70865 ], [ -77.24379, 38.70925 ], [ -77.2391, 38.71275 ] ], [ [ -77.23461, 38.71751 ], [ -77.2329, 38.71586 ], [ -77.23172, 38.71649 ], [ -77.23148, 38.71726 ], [ -77.23319, 38.71799 ], [ -77.23461, 38.71751 ] ], [ [ -77.2321, 38.71225 ], [ -77.23191, 38.71223 ], [ -77.23196, 38.71231 ], [ -77.2321, 38.71225 ] ], [ [ -77.23238, 38.71119 ], [ -77.23251, 38.71061 ], [ -77.2315, 38.71057 ], [ -77.231, 38.71127 ], [ -77.23129, 38.71148 ], [ -77.23238, 38.71119 ] ], [ [ -77.24515, 38.72765 ], [ -77.24539, 38.72721 ], [ -77.2447, 38.72688 ], [ -77.24355, 38.72724 ], [ -77.24406, 38.72789 ], [ -77.24515, 38.72765 ] ], [ [ -77.24242, 38.72261 ], [ -77.24355, 38.72188 ], [ -77.24139, 38.71945 ], [ -77.24274, 38.71838 ], [ -77.24102, 38.71691 ], [ -77.23967, 38.71622 ], [ -77.23874, 38.71619 ], [ -77.23663, 38.71751 ], [ -77.23946, 38.72003 ], [ -77.24205, 38.72335 ], [ -77.24242, 38.72261 ] ], [ [ -77.23416, 38.71374 ], [ -77.23454, 38.71156 ], [ -77.2325, 38.71346 ], [ -77.23291, 38.71409 ], [ -77.23416, 38.71374 ] ], [ [ -77.23857, 38.71096 ], [ -77.23693, 38.71075 ], [ -77.23683, 38.71124 ], [ -77.23847, 38.71134 ], [ -77.23857, 38.71096 ] ], [ [ -77.24776, 38.72825 ], [ -77.24755, 38.72838 ], [ -77.24948, 38.72887 ], [ -77.24966, 38.72853 ], [ -77.24776, 38.72825 ] ], [ [ -77.24581, 38.7224 ], [ -77.24645, 38.722 ], [ -77.24357, 38.71924 ], [ -77.24307, 38.71955 ], [ -77.24581, 38.7224 ] ], [ [ -77.24745, 38.72276 ], [ -77.24593, 38.72351 ], [ -77.24439, 38.72274 ], [ -77.24285, 38.72431 ], [ -77.24383, 38.72519 ], [ -77.24771, 38.72707 ], [ -77.24711, 38.72647 ], [ -77.24883, 38.72492 ], [ -77.24981, 38.72497 ], [ -77.24992, 38.72545 ], [ -77.25173, 38.72543 ], [ -77.25002, 38.72496 ], [ -77.24982, 38.72445 ], [ -77.24745, 38.72276 ] ], [ [ -77.25265, 38.72263 ], [ -77.25288, 38.72297 ], [ -77.25343, 38.72229 ], [ -77.25265, 38.72263 ] ], [ [ -77.25306, 38.72079 ], [ -77.25419, 38.72139 ], [ -77.25437, 38.72118 ], [ -77.25288, 38.72041 ], [ -77.25306, 38.72079 ] ], [ [ -77.25206, 38.72163 ], [ -77.25212, 38.72158 ], [ -77.25186, 38.72133 ], [ -77.25206, 38.72163 ] ], [ [ -77.25073, 38.72407 ], [ -77.25142, 38.72421 ], [ -77.25186, 38.72382 ], [ -77.2515, 38.72325 ], [ -77.25073, 38.72407 ] ], [ [ -77.22799, 38.71485 ], [ -77.22691, 38.7142 ], [ -77.22679, 38.71464 ], [ -77.22799, 38.71485 ] ], [ [ -77.23234, 38.72043 ], [ -77.23233, 38.72015 ], [ -77.23217, 38.72025 ], [ -77.23234, 38.72043 ] ], [ [ -77.22852, 38.70254 ], [ -77.22872, 38.70243 ], [ -77.2285, 38.70244 ], [ -77.22852, 38.70254 ] ], [ [ -77.22729, 38.71195 ], [ -77.22701, 38.71199 ], [ -77.22724, 38.71206 ], [ -77.22729, 38.71195 ] ], [ [ -77.22453, 38.71426 ], [ -77.22457, 38.71443 ], [ -77.22542, 38.71446 ], [ -77.22545, 38.71415 ], [ -77.22453, 38.71426 ] ], [ [ -77.22533, 38.70999 ], [ -77.22533, 38.70994 ], [ -77.22513, 38.71006 ], [ -77.22533, 38.70999 ] ], [ [ -77.22152, 38.71278 ], [ -77.22278, 38.71435 ], [ -77.22306, 38.71372 ], [ -77.22241, 38.71303 ], [ -77.22152, 38.71278 ] ] ] } },
{ "type": "Feature", "properties": { "variant": "T0", "miles": 2.0 }, "geometry": { "type": "Polygon", "coordinates": [ [ [ -77.25225, 38.70467 ], [ -77.25129, 38.70481 ], [ -77.25102, 38.70439 ], [ -77.24852, 38.706 ], [ -77.24737, 38.70839 ], [ -77.24656, 38.70881 ], [ -77.24602, 38.70817 ], [ -77.24676, 38.70627 ], [ -77.24491, 38.70872 ], [ -77.23981, 38.71207 ], [ -77.2391, 38.71275 ], [ -77.23874, 38.71397 ], [ -77.23781, 38.71439 ], [ -77.24242, 38.71641 ], [ -77.24777, 38.72155 ], [ -77.24989, 38.72295 ], [ -77.2509, 38.72224 ], [ -77.24967, 38.72029 ], [ -77.24989, 38.71764 ], [ -77.25266, 38.71386 ], [ -77.25358, 38.71371 ], [ -77.25558, 38.71517 ], [ -77.25498, 38.71586 ], [ -77.25332, 38.71511 ], [ -77.25263, 38.71602 ], [ -77.25708, 38.71809 ], [ -77.25798, 38.71709 ], [ -77.25664, 38.7167 ], [ -77.25632, 38.71627 ], [ -77.25714, 38.71516 ], [ -77.25812, 38.71512 ], [ -77.2588, 38.71622 ], [ -77.25967, 38.71616 ], [ -77.25986, 38.71691 ], [ -77.25794, 38.719 ], [ -77.25957, 38.71984 ], [ -77.25975, 38.72059 ], [ -77.25899, 38.72077 ], [ -77.25908, 38.7214 ], [ -77.25864, 38.72163 ], [ -77.25646, 38.72068 ], [ -77.25629, 38.72088 ], [ -77.25827, 38.72211 ], [ -77.25771, 38.72274 ], [ -77.25548, 38.72182 ], [ -77.25733, 38.72322 ], [ -77.2568, 38.72386 ], [ -77.25458, 38.72289 ], [ -77.25439, 38.7231 ], [ -77.25638, 38.72438 ], [ -77.25627, 38.72478 ], [ -77.25553, 38.72495 ], [ -77.25589, 38.72711 ], [ -77.25502, 38.72745 ], [ -77.25446, 38.72694 ], [ -77.25383, 38.72755 ], [ -77.25851, 38.72756 ], [ -77.25773, 38.7269 ], [ -77.25812, 38.72621 ], [ -77.25935, 38.72671 ], [ -77.26036, 38.7261 ], [ -77.26106, 38.72663 ], [ -77.26026, 38.72763 ], [ -77.26085, 38.72876 ], [ -77.26004, 38.72928 ], [ -77.26037, 38.73013 ], [ -77.25988, 38.7311 ], [ -77.25851, 38.73173 ], [ -77.25579, 38.73165 ], [ -77.2567, 38.73294 ], [ -77.25656, 38.73333 ], [ -77.25472, 38.73342 ], [ -77.25429, 38.73318 ], [ -77.25439, 38.73256 ], [ -77.25348, 38.73207 ], [ -77.25408, 38.7315 ], [ -77.25372, 38.73119 ], [ -77.25286, 38.73154 ], [ -77.25245, 38.73127 ], [ -77.25271, 38.73012 ], [ -77.25496, 38.72958 ], [ -77.25364, 38.72938 ], [ -77.25253, 38.72864 ], [ -77.25193, 38.72959 ], [ -77.25051, 38.72986 ], [ -77.25011, 38.731 ], [ -77.25004, 38.73132 ], [ -77.25103, 38.73162 ], [ -77.25178, 38.73261 ], [ -77.25166, 38.73301 ], [ -77.25085, 38.73316 ], [ -77.25207, 38.73497 ], [ -77.25068, 38.73565 ], [ -77.25025, 38.7354 ], [ -77.25021, 38.73438 ], [ -77.24931, 38.73449 ], [ -77.24898, 38.73416 ], [ -77.2495, 38.73343 ], [ -77.24887, 38.73196 ], [ -77.24821, 38.73194 ], [ -77.2477, 38.73304 ], [ -77.24677, 38.73281 ], [ -77.24683, 38.73211 ], [ -77.24617, 38.73278 ], [ -77.24529, 38.73246 ], [ -77.24643, 38.73083 ], [ -77.24873, 38.73088 ], [ -77.24919, 38.72952 ], [ -77.24785, 38.7298 ], [ -77.24701, 38.72937 ], [ -77.24575, 38.72939 ], [ -77.24552, 38.72907 ], [ -77.24446, 38.72916 ], [ -77.24438, 38.72966 ], [ -77.24335, 38.73004 ], [ -77.24319, 38.73069 ], [ -77.24226, 38.73076 ], [ -77.24178, 38.73054 ], [ -77.2417, 38.72994 ], [ -77.24066, 38.72966 ], [ -77.24051, 38.73016 ], [ -77.23944, 38.73047 ], [ -77.23843, 38.72985 ], [ -77.23845, 38.72882 ], [ -77.23768, 38.72922 ], [ -77.23723, 38.72901 ], [ -77.23757, 38.72733 ], [ -77.2364, 38.72777 ], [ -77.23677, 38.72854 ], [ -77.23548, 38.72943 ], [ -77.23496, 38.72951 ], [ -77.2342, 38.7289 ], [ -77.23324, 38.72904 ], [ -77.23301, 38.72809 ], [ -77.2338, 38.72782 ], [ -77.23393, 38.72705 ], [ -77.23502, 38.72729 ], [ -77.23844, 38.7257 ], [ -77.23695, 38.7246 ], [ -77.23715, 38.72397 ], [ -77.23555, 38.7234 ], [ -77.23586, 38.72268 ], [ -77.23756, 38.72293 ], [ -77.2399, 38.72297 ], [ -77.23958, 38.7226 ], [ -77.23861, 38.7229 ], [ -77.23771, 38.72273 ], [ -77.23676, 38.72139 ], [ -77.23625, 38.72114 ], [ -77.23658, 38.72164 ], [ -77.23632, 38.72209 ], [ -77.23426, 38.72194 ], [ -77.23438, 38.72109 ], [ -77.23586, 38.71961 ], [ -77.23665, 38.71934 ], [ -77.23551, 38.71833 ], [ -77.23367, 38.71905 ], [ -77.23361, 38.72091 ], [ -77.23226, 38.72154 ], [ -77.22968, 38.72042 ], [ -77.22787, 38.72058 ], [ -77.22755, 38.72018 ], [ -77.22808, 38.7188 ], [ -77.22743, 38.71864 ], [ -77.22657, 38.71967 ], [ -77.22561, 38.71953 ], [ -77.22576, 38.71851 ], [ -77.22453, 38.71933 ], [ -77.22317, 38.71939 ], [ -77.22289, 38.72002 ], [ -77.22183, 38.71994 ], [ -77.2222, 38.7186 ], [ -77.22411, 38.71825 ], [ -77.22347, 38.71752 ], [ -77.22195, 38.71841 ], [ -77.22093, 38.72022 ], [ -77.21697, 38.72232 ], [ -77.21774, 38.72296 ], [ -77.2172, 38.72372 ], [ -77.21555, 38.72321 ], [ -77.21551, 38.72272 ], [ -77.21419, 38.72193 ], [ -77.2141, 38.72134 ], [ -77.21468, 38.72077 ], [ -77.21702, 38.7211 ], [ -77.2202, 38.71918 ], [ -77.22075, 38.71778 ], [ -77.22212, 38.71692 ], [ -77.22132, 38.71656 ], [ -77.22026, 38.7174 ], [ -77.21973, 38.71741 ], [ -77.21935, 38.71713 ], [ -77.21948, 38.71644 ], [ -77.21869, 38.71588 ], [ -77.22022, 38.71485 ], [ -77.21984, 38.71439 ], [ -77.22066, 38.71385 ], [ -77.22016, 38.71309 ], [ -77.22044, 38.71235 ], [ -77.2213, 38.71252 ], [ -77.22141, 38.71198 ], [ -77.22278, 38.71184 ], [ -77.22383, 38.71276 ], [ -77.22513, 38.71196 ], [ -77.22463, 38.71072 ], [ -77.22389, 38.71085 ], [ -77.22354, 38.71055 ], [ -77.2231, 38.70926 ], [ -77.22347, 38.70897 ], [ -77.22461, 38.70901 ], [ -77.22369, 38.70872 ], [ -77.22343, 38.70804 ], [ -77.22399, 38.70726 ], [ -77.2249, 38.70726 ], [ -77.22516, 38.70664 ], [ -77.22572, 38.70658 ], [ -77.22581, 38.70548 ], [ -77.22189, 38.70611 ], [ -77.22181, 38.70848 ], [ -77.22146, 38.70936 ], [ -77.2206, 38.70973 ], [ -77.22013, 38.70907 ], [ -77.22055, 38.70579 ], [ -77.21816, 38.70488 ], [ -77.21373, 38.70449 ], [ -77.21365, 38.7036 ], [ -77.21664, 38.70347 ], [ -77.21706, 38.70304 ], [ -77.2163, 38.70224 ], [ -77.21775, 38.7016 ], [ -77.21885, 38.70195 ], [ -77.21886, 38.70315 ], [ -77.22068, 38.70097 ], [ -77.22149, 38.70069 ], [ -77.22248, 38.70107 ], [ -77.22256, 38.70148 ], [ -77.22174, 38.70346 ], [ -77.22302, 38.70363 ], [ -77.22313, 38.70476 ], [ -77.2264, 38.70413 ], [ -77.22558, 38.70251 ], [ -77.22656, 38.70175 ], [ -77.22554, 38.70045 ], [ -77.22591, 38.69972 ], [ -77.22702, 38.69913 ], [ -77.22593, 38.69801 ], [ -77.22649, 38.69555 ], [ -77.22767, 38.69598 ], [ -77.22784, 38.69689 ], [ -77.2273, 38.69787 ], [ -77.22824, 38.6986 ], [ -77.22824, 38.69964 ], [ -77.22947, 38.70095 ], [ -77.23036, 38.70105 ], [ -77.23006, 38.69794 ], [ -77.23102, 38.69729 ], [ -77.23117, 38.69627 ], [ -77.23165, 38.69609 ], [ -77.23323, 38.69727 ], [ -77.23336, 38.69909 ], [ -77.23436, 38.69869 ], [ -77.23662, 38.69975 ], [ -77.23761, 38.70127 ], [ -77.23724, 38.70391 ], [ -77.23401, 38.70461 ], [ -77.23731, 38.70494 ], [ -77.23824, 38.70446 ], [ -77.23991, 38.70262 ], [ -77.24088, 38.70263 ], [ -77.24088, 38.70339 ], [ -77.23929, 38.70517 ], [ -77.23809, 38.70586 ], [ -77.23934, 38.70747 ], [ -77.23889, 38.7081 ], [ -77.23926, 38.70929 ], [ -77.2401, 38.70963 ], [ -77.24219, 38.70904 ], [ -77.24372, 38.70814 ], [ -77.24596, 38.70536 ], [ -77.24389, 38.70524 ], [ -77.24314, 38.70477 ], [ -77.24244, 38.70524 ], [ -77.24193, 38.70512 ], [ -77.24168, 38.70465 ], [ -77.24225, 38.70381 ], [ -77.24325, 38.70364 ], [ -77.24436, 38.70421 ], [ -77.24531, 38.7042 ], [ -77.24598, 38.70407 ], [ -77.24596, 38.70336 ], [ -77.24644, 38.70318 ], [ -77.24812, 38.70415 ], [ -77.25124, 38.70307 ], [ -77.25215, 38.70364 ], [ -77.25225, 38.70467 ] ], [ [ -77.23416, 38.71374 ], [ -77.23454, 38.71156 ], [ -77.2325, 38.71346 ], [ -77.23291, 38.71409 ], [ -77.23416, 38.71374 ] ], [ [ -77.23666, 38.70885 ], [ -77.23719, 38.70969 ], [ -77.23805, 38.7098 ], [ -77.23479, 38.70598 ], [ -77.23033, 38.70547 ], [ -77.23091, 38.70733 ], [ -77.23196, 38.70848 ], [ -77.23264, 38.70864 ], [ -77.23299, 38.70997 ], [ -77.23416, 38.70939 ], [ -77.23542, 38.70969 ], [ -77.23666, 38.70885 ] ], [ [ -77.24515, 38.72765 ], [ -77.24539, 38.72721 ], [ -77.2447, 38.72688 ], [ -77.24355, 38.72724 ], [ -77.24406, 38.72789 ], [ -77.24515, 38.72765 ] ], [ [ -77.24341, 38.72626 ], [ -77.24091, 38.72402 ], [ -77.2418, 38.72565 ], [ -77.24306, 38.72639 ], [ -77.24282, 38.72688 ], [ -77.24314, 38.72703 ], [ -77.24341, 38.72626 ] ], [ [ -77.24771, 38.72707 ], [ -77.24711, 38.72647 ], [ -77.24883, 38.72492 ], [ -77.24981, 38.72497 ], [ -77.24992, 38.72545 ], [ -77.25179, 38.72535 ], [ -77.25002, 38.72496 ], [ -77.24986, 38.72441 ], [ -77.24745, 38.72276 ], [ -77.24593, 38.72351 ], [ -77.24439, 38.72274 ], [ -77.24285, 38.72431 ], [ -77.24771, 38.72707 ] ], [ [ -77.24153, 38.71981 ], [ -77.24161, 38.71907 ], [ -77.24274, 38.71838 ], [ -77.2412, 38.71702 ], [ -77.23901, 38.71614 ], [ -77.23663, 38.71751 ], [ -77.23969, 38.72028 ], [ -77.24202, 38.72338 ], [ -77.24351, 38.7218 ], [ -77.24153, 38.71981 ] ], [ [ -77.25186, 38.72382 ], [ -77.2515, 38.72325 ], [ -77.25073, 38.72407 ], [ -77.25186, 38.72382 ] ], [ [ -77.25177, 38.71897 ], [ -77.25113, 38.71826 ], [ -77.25097, 38.71952 ], [ -77.25177, 38.71897 ] ], [ [ -77.25256, 38.71847 ], [ -77.25225, 38.71889 ], [ -77.25514, 38.72028 ], [ -77.25531, 38.72008 ], [ -77.25256, 38.71847 ] ], [ [ -77.25253, 38.71814 ], [ -77.25306, 38.71772 ], [ -77.25357, 38.71784 ], [ -77.25608, 38.71918 ], [ -77.25628, 38.71896 ], [ -77.25363, 38.71748 ], [ -77.25233, 38.71715 ], [ -77.25253, 38.71814 ] ], [ [ -77.25265, 38.72263 ], [ -77.25288, 38.72297 ], [ -77.25295, 38.72284 ], [ -77.25343, 38.72229 ], [ -77.25265, 38.72263 ] ], [ [ -77.25307, 38.7208 ], [ -77.25419, 38.72139 ], [ -77.25437, 38.72118 ], [ -77.25273, 38.72033 ], [ -77.25307, 38.7208 ] ], [ [ -77.25206, 38.72163 ], [ -77.25212, 38.72158 ], [ -77.25186, 38.72133 ], [ -77.25206, 38.72163 ] ], [ [ -77.2534, 38.72396 ], [ -77.25342, 38.7239 ], [ -77.25335, 38.72386 ], [ -77.2534, 38.72396 ] ], [ [ -77.25331, 38.72537 ], [ -77.25408, 38.7259 ], [ -77.25415, 38.72491 ], [ -77.25356, 38.72455 ], [ -77.25331, 38.72537 ] ], [ [ -77.25816, 38.73068 ], [ -77.25881, 38.73042 ], [ -77.25863, 38.73042 ], [ -77.25816, 38.73068 ] ], [ [ -77.25771, 38.72935 ], [ -77.25709, 38.72927 ], [ -77.2572, 38.7293 ], [ -77.25771, 38.72935 ] ], [ [ -77.25371, 38.73105 ], [ -77.25374, 38.73092 ], [ -77.25369, 38.73093 ], [ -77.25371, 38.73105 ] ], [ [ -77.24357, 38.71924 ], [ -77.24307, 38.71955 ], [ -77.24581, 38.7224 ], [ -77.24645, 38.722 ], [ -77.24357, 38.71924 ] ], [ [ -77.2477, 38.72843 ], [ -77.24781, 38.72826 ], [ -77.24776, 38.72825 ], [ -77.2477, 38.72843 ] ], [ [ -77.23919, 38.72426 ], [ -77.23923, 38.7241 ], [ -77.23853, 38.72405 ], [ -77.23919, 38.72426 ] ], [ [ -77.24081, 38.7239 ], [ -77.24081, 38.72396 ], [ -77.24088, 38.72399 ], [ -77.24081, 38.7239 ] ], [ [ -77.23683, 38.71124 ], [ -77.23847, 38.71134 ], [ -77.23857, 38.71096 ], [ -77.23716, 38.71078 ], [ -77.23683, 38.71124 ] ], [ [ -77.2324, 38.70201 ], [ -77.23314, 38.70154 ], [ -77.23264, 38.7012 ], [ -77.23069, 38.70227 ], [ -77.23076, 38.70285 ], [ -77.22841, 38.70404 ], [ -77.23175, 38.70435 ], [ -77.23277, 38.70317 ], [ -77.2324, 38.70201 ] ], [ [ -77.2344, 38.70143 ], [ -77.23444, 38.70144 ], [ -77.23443, 38.70142 ], [ -77.2344, 38.70143 ] ], [ [ -77.23427, 38.70145 ], [ -77.23318, 38.70154 ], [ -77.23362, 38.70173 ], [ -77.23427, 38.70145 ] ], [ [ -77.22852, 38.70254 ], [ -77.22872, 38.70243 ], [ -77.2285, 38.70244 ], [ -77.22852, 38.70254 ] ], [ [ -77.23315, 38.70451 ], [ -77.2335, 38.70455 ], [ -77.23331, 38.70447 ], [ -77.23315, 38.70451 ] ], [ [ -77.232, 38.71241 ], [ -77.2321, 38.71225 ], [ -77.23191, 38.71223 ], [ -77.232, 38.71241 ] ], [ [ -77.23105, 38.71097 ], [ -77.23129, 38.71148 ], [ -77.23238, 38.71119 ], [ -77.23251, 38.71061 ], [ -77.23155, 38.71059 ], [ -77.23105, 38.71097 ] ], [ [ -77.23461, 38.71751 ], [ -77.2329, 38.71586 ], [ -77.23172, 38.71649 ], [ -77.23148, 38.71726 ], [ -77.23356, 38.71798 ], [ -77.23461, 38.71751 ] ], [ [ -77.23169, 38.69957 ], [ -77.23163, 38.70046 ], [ -77.23199, 38.70013 ], [ -77.23193, 38.69816 ], [ -77.23151, 38.6983 ], [ -77.23169, 38.69957 ] ], [ [ -77.23202, 38.72031 ], [ -77.23234, 38.72043 ], [ -77.23233, 38.72015 ], [ -77.23202, 38.72031 ] ], [ [ -77.22759, 38.71478 ], [ -77.22802, 38.71488 ], [ -77.22691, 38.7142 ], [ -77.22698, 38.71467 ], [ -77.22759, 38.71478 ] ], [ [ -77.22533, 38.70994 ], [ -77.22513, 38.71006 ], [ -77.2252, 38.71003 ], [ -77.22533, 38.70994 ] ], [ [ -77.22724, 38.71206 ], [ -77.22736, 38.71194 ], [ -77.22701, 38.71199 ], [ -77.22724, 38.71206 ] ], [ [ -77.2255, 38.71414 ], [ -77.22453, 38.71426 ], [ -77.22457, 38.71443 ], [ -77.22543, 38.7144 ], [ -77.2255, 38.71414 ] ], [ [ -77.22152, 38.71278 ], [ -77.22278, 38.71435 ], [ -77.22306, 38.71372 ], [ -77.22239, 38.71298 ], [ -77.22152, 38.71278 ] ], [ [ -77.21855, 38.70349 ], [ -77.21831, 38.70364 ], [ -77.21856, 38.70369 ], [ -77.21855, 38.70349 ] ], [ [ -77.22069, 38.70432 ], [ -77.22059, 38.70438 ], [ -77.22098, 38.70454 ], [ -77.22104, 38.70411 ], [ -77.22069, 38.70432 ] ] ] } },
{ "type": "Feature", "properties": { "variant": "T2s", "miles": 1.0 }, "geometry": { "type": "Polygon", "coordinates": [ [ [ -77.23368, 38.70959 ], [ -77.23697, 38.70984 ], [ -77.23682, 38.71134 ], [ -77.2361, 38.71178 ], [ -77.23437, 38.71154 ], [ -77.23398, 38.71235 ], [ -77.2325, 38.71346 ], [ -77.23284, 38.71403 ], [ -77.23356, 38.71381 ], [ -77.23471, 38.71406 ], [ -77.23533, 38.71203 ], [ -77.23806, 38.71201 ], [ -77.23938, 38.7116 ], [ -77.23983, 38.71228 ], [ -77.2391, 38.71275 ], [ -77.23874, 38.71397 ], [ -77.23781, 38.71439 ], [ -77.23824, 38.71481 ], [ -77.24047, 38.71532 ], [ -77.24263, 38.71655 ], [ -77.24777, 38.72155 ], [ -77.25023, 38.72317 ], [ -77.25031, 38.72394 ], [ -77.24934, 38.724 ], [ -77.24745, 38.72276 ], [ -77.24608, 38.7235 ], [ -77.24498, 38.72328 ], [ -77.24153, 38.71981 ], [ -77.24161, 38.71907 ], [ -77.24274, 38.71838 ], [ -77.24149, 38.7172 ], [ -77.2394, 38.71616 ], [ -77.23839, 38.71633 ], [ -77.23663, 38.71751 ], [ -77.23986, 38.72049 ], [ -77.24152, 38.72282 ], [ -77.24122, 38.72354 ], [ -77.2403, 38.72331 ], [ -77.23836, 38.72068 ], [ -77.23269, 38.71547 ], [ -77.23172, 38.7163 ], [ -77.23148, 38.71726 ], [ -77.23359, 38.71819 ], [ -77.23348, 38.7211 ], [ -77.23226, 38.72154 ], [ -77.22968, 38.72042 ], [ -77.22787, 38.72058 ], [ -77.22755, 38.72018 ], [ -77.22808, 38.7188 ], [ -77.22633, 38.71881 ], [ -77.22609, 38.71844 ], [ -77.22676, 38.71744 ], [ -77.22623, 38.71733 ], [ -77.2257, 38.71587 ], [ -77.22499, 38.71633 ], [ -77.22434, 38.71576 ], [ -77.22736, 38.71194 ], [ -77.2268, 38.71179 ], [ -77.22679, 38.71102 ], [ -77.22788, 38.7109 ], [ -77.22908, 38.71141 ], [ -77.22949, 38.7126 ], [ -77.22859, 38.71289 ], [ -77.22898, 38.71313 ], [ -77.23059, 38.71259 ], [ -77.22833, 38.71045 ], [ -77.22834, 38.70838 ], [ -77.22931, 38.70843 ], [ -77.22947, 38.70885 ], [ -77.23139, 38.70965 ], [ -77.23155, 38.71048 ], [ -77.231, 38.71127 ], [ -77.23129, 38.71148 ], [ -77.23238, 38.71119 ], [ -77.23267, 38.71022 ], [ -77.23368, 38.70959 ] ], [ [ -77.23196, 38.71231 ], [ -77.2321, 38.71225 ], [ -77.23191, 38.71223 ], [ -77.23196, 38.71231 ] ], [ [ -77.24307, 38.71955 ], [ -77.24581, 38.7224 ], [ -77.24645, 38.722 ], [ -77.24357, 38.71924 ], [ -77.24307, 38.71955 ] ], [ [ -77.23233, 38.72015 ], [ -77.23202, 38.72031 ], [ -77.23234, 38.72043 ], [ -77.23233, 38.72015 ] ], [ [ -77.22679, 38.71464 ], [ -77.22799, 38.71485 ], [ -77.22691, 38.7142 ], [ -77.22679, 38.71464 ] ], [ [ -77.22857, 38.71288 ], [ -77.22835, 38.71271 ], [ -77.22832, 38.71273 ], [ -77.22857, 38.71288 ] ] ] } },
{ "type": "Feature", "properties": { "variant": "T2s", "miles": 1.5 }, "geometry": { "type": "Polygon", "coordinates": [ [ [ -77.23774, 38.7088 ], [ -77.2386, 38.70812 ], [ -77.23908, 38.70829 ], [ -77.23926, 38.70929 ], [ -77.2401, 38.70963 ], [ -77.24318, 38.70865 ], [ -77.24364, 38.70886 ], [ -77.24353, 38.70962 ], [ -77.23981, 38.71207 ], [ -77.2391, 38.71275 ], [ -77.23874, 38.71397 ], [ -77.23781, 38.71439 ], [ -77.24242, 38.71641 ], [ -77.24777, 38.72155 ], [ -77.25065, 38.72322 ], [ -77.25073, 38.72407 ], [ -77.25142, 38.72421 ], [ -77.25227, 38.72379 ], [ -77.25268, 38.72406 ], [ -77.25257, 38.72529 ], [ -77.25048, 38.72518 ], [ -77.24745, 38.72276 ], [ -77.24593, 38.72351 ], [ -77.24439, 38.72274 ], [ -77.2427, 38.72446 ], [ -77.24173, 38.72454 ], [ -77.24147, 38.72417 ], [ -77.24229, 38.72277 ], [ -77.24355, 38.72188 ], [ -77.24139, 38.71945 ], [ -77.24274, 38.71838 ], [ -77.24149, 38.7172 ], [ -77.2394, 38.71616 ], [ -77.23839, 38.71633 ], [ -77.23663, 38.71751 ], [ -77.23946, 38.72003 ], [ -77.24152, 38.72282 ], [ -77.24086, 38.72425 ], [ -77.24015, 38.72477 ], [ -77.23932, 38.7246 ], [ -77.23923, 38.7241 ], [ -77.23853, 38.72405 ], [ -77.23821, 38.72472 ], [ -77.23727, 38.72493 ], [ -77.23715, 38.72397 ], [ -77.23555, 38.7234 ], [ -77.23586, 38.72268 ], [ -77.23965, 38.72304 ], [ -77.24, 38.72291 ], [ -77.23966, 38.72248 ], [ -77.23881, 38.72287 ], [ -77.23784, 38.72278 ], [ -77.23676, 38.72139 ], [ -77.23625, 38.72114 ], [ -77.23658, 38.72164 ], [ -77.23632, 38.72209 ], [ -77.23426, 38.72194 ], [ -77.23438, 38.72109 ], [ -77.23586, 38.71961 ], [ -77.23665, 38.71934 ], [ -77.23551, 38.71833 ], [ -77.23367, 38.71905 ], [ -77.23365, 38.72084 ], [ -77.23257, 38.72153 ], [ -77.22968, 38.72042 ], [ -77.22787, 38.72058 ], [ -77.22755, 38.72018 ], [ -77.22808, 38.7188 ], [ -77.22743, 38.71864 ], [ -77.22657, 38.71967 ], [ -77.22561, 38.71953 ], [ -77.22576, 38.71851 ], [ -77.22453, 38.71933 ], [ -77.22317, 38.71939 ], [ -77.22289, 38.72002 ], [ -77.22183, 38.71994 ], [ -77.2222, 38.7186 ], [ -77.22411, 38.71825 ], [ -77.22347, 38.71752 ], [ -77.22195, 38.71841 ], [ -77.22093, 38.72022 ], [ -77.21977, 38.71993 ], [ -77.22072, 38.71782 ], [ -77.22212, 38.71692 ], [ -77.22132, 38.71656 ], [ -77.22026, 38.7174 ], [ -77.21973, 38.71741 ], [ -77.21935, 38.71713 ], [ -77.21948, 38.71644 ], [ -77.21869, 38.71588 ], [ -77.22022, 38.71485 ], [ -77.21984, 38.71439 ], [ -77.22066, 38.71385 ], [ -77.22016, 38.71309 ], [ -77.22044, 38.71235 ], [ -77.2213, 38.71252 ], [ -77.22141, 38.71198 ], [ -77.22278, 38.71184 ], [ -77.22383, 38.71276 ], [ -77.22513, 38.71196 ], [ -77.22463, 38.71072 ], [ -77.22389, 38.71085 ], [ -77.22354, 38.71055 ], [ -77.2231, 38.70926 ], [ -77.22347, 38.70897 ], [ -77.22461, 38.70901 ], [ -77.22369, 38.70872 ], [ -77.22343, 38.70804 ], [ -77.22399, 38.70726 ], [ -77.2249, 38.70726 ], [ -77.22516, 38.70664 ], [ -77.22572, 38.70658 ], [ -77.22581, 38.70548 ], [ -77.22301, 38.70597 ], [ -77.22269, 38.70503 ], [ -77.22691, 38.70407 ], [ -77.22722, 38.70295 ], [ -77.22639, 38.70138 ], [ -77.22661, 38.701 ], [ -77.22758, 38.70102 ], [ -77.22852, 38.70254 ], [ -77.23002, 38.70204 ], [ -77.23085, 38.70245 ], [ -77.23076, 38.70285 ], [ -77.22841, 38.70404 ], [ -77.23282, 38.70459 ], [ -77.23268, 38.70562 ], [ -77.23033, 38.70547 ], [ -77.23091, 38.70733 ], [ -77.23196, 38.70848 ], [ -77.23264, 38.70864 ], [ -77.23299, 38.70997 ], [ -77.23416, 38.70939 ], [ -77.23581, 38.70958 ], [ -77.23615, 38.70894 ], [ -77.23666, 38.70885 ], [ -77.23719, 38.70969 ], [ -77.23805, 38.7098 ], [ -77.23774, 38.7088 ] ], [ [ -77.22924, 38.71164 ], [ -77.22919, 38.71148 ], [ -77.2288, 38.7111 ], [ -77.22924, 38.71164 ] ], [ [ -77.232, 38.71241 ], [ -77.2321, 38.71225 ], [ -77.23191, 38.71223 ], [ -77.232, 38.71241 ] ], [ [ -77.23129, 38.71148 ], [ -77.23238, 38.71119 ], [ -77.23251, 38.71061 ], [ -77.2315, 38.71057 ], [ -77.231, 38.71127 ], [ -77.23129, 38.71148 ] ], [ [ -77.24645, 38.722 ], [ -77.24357, 38.71924 ], [ -77.24307, 38.71955 ], [ -77.24581, 38.7224 ], [ -77.24645, 38.722 ] ], [ [ -77.23291, 38.71409 ], [ -77.23425, 38.71353 ], [ -77.23454, 38.71156 ], [ -77.2325, 38.71346 ], [ -77.23291, 38.71409 ] ], [ [ -77.23857, 38.71096 ], [ -77.23693, 38.71075 ], [ -77.23683, 38.71124 ], [ -77.23829, 38.71145 ], [ -77.23857, 38.71096 ] ], [ [ -77.23356, 38.71798 ], [ -77.23461, 38.71751 ], [ -77.2329, 38.71586 ], [ -77.23172, 38.71649 ], [ -77.23148, 38.71726 ], [ -77.23356, 38.71798 ] ], [ [ -77.23217, 38.72025 ], [ -77.23234, 38.72043 ], [ -77.23233, 38.72015 ], [ -77.23217, 38.72025 ] ], [ [ -77.22679, 38.71464 ], [ -77.22799, 38.71485 ], [ -77.22691, 38.7142 ], [ -77.22679, 38.71464 ] ], [ [ -77.22724, 38.71206 ], [ -77.22729, 38.71195 ], [ -77.22701, 38.71199 ], [ -77.22724, 38.71206 ] ], [ [ -77.22513, 38.71006 ], [ -77.22533, 38.70999 ], [ -77.22533, 38.70994 ], [ -77.22513, 38.71006 ] ], [ [ -77.22306, 38.71372 ], [ -77.22152, 38.71278 ], [ -77.22278, 38.71435 ], [ -77.22306, 38.71372 ] ], [ [ -77.22542, 38.71416 ], [ -77.22453, 38.71426 ], [ -77.22457, 38.71443 ], [ -77.22542, 38.71446 ], [ -77.22542, 38.71416 ] ] ] } },
{ "type": "Feature", "properties": { "variant": "T2s", "miles": 2.0 }, "geometry": { "type": "Polygon", "coordinates": [ [ [ -77.25241, 38.70404 ], [ -77.25225, 38.70467 ], [ -77.25129, 38.70481 ], [ -77.25102, 38.70439 ], [ -77.24907, 38.70568 ], [ -77.24807, 38.70548 ], [ -77.24821, 38.70627 ], [ -77.24779, 38.70651 ], [ -77.24693, 38.70613 ], [ -77.24491, 38.70872 ], [ -77.23981, 38.71207 ], [ -77.2391, 38.71275 ], [ -77.23874, 38.71397 ], [ -77.23781, 38.71439 ], [ -77.23824, 38.71481 ], [ -77.24047, 38.71532 ], [ -77.2426, 38.71654 ], [ -77.24777, 38.72155 ], [ -77.25065, 38.72322 ], [ -77.25073, 38.72407 ], [ -77.25142, 38.72421 ], [ -77.25227, 38.72379 ], [ -77.25339, 38.72467 ], [ -77.25331, 38.72537 ], [ -77.25383, 38.72598 ], [ -77.25524, 38.7258 ], [ -77.25589, 38.72711 ], [ -77.25502, 38.72745 ], [ -77.25446, 38.72694 ], [ -77.25383, 38.72755 ], [ -77.25612, 38.72771 ], [ -77.25611, 38.72935 ], [ -77.25384, 38.72944 ], [ -77.25238, 38.72864 ], [ -77.25236, 38.72924 ], [ -77.25137, 38.72982 ], [ -77.24928, 38.72946 ], [ -77.24785, 38.7298 ], [ -77.24469, 38.72886 ], [ -77.24457, 38.7281 ], [ -77.24586, 38.72745 ], [ -77.24389, 38.7263 ], [ -77.24441, 38.72565 ], [ -77.24771, 38.72707 ], [ -77.24711, 38.72647 ], [ -77.24883, 38.72492 ], [ -77.24981, 38.72497 ], [ -77.24992, 38.72545 ], [ -77.25136, 38.72597 ], [ -77.25179, 38.72535 ], [ -77.25002, 38.72496 ], [ -77.24986, 38.72441 ], [ -77.24745, 38.72276 ], [ -77.24593, 38.72351 ], [ -77.24439, 38.72274 ], [ -77.2427, 38.72446 ], [ -77.24173, 38.72454 ], [ -77.24147, 38.72417 ], [ -77.24229, 38.72277 ], [ -77.24355, 38.72188 ], [ -77.24139, 38.71945 ], [ -77.24274, 38.71838 ], [ -77.24149, 38.7172 ], [ -77.23951, 38.71618 ], [ -77.23844, 38.71631 ], [ -77.23663, 38.71751 ], [ -77.23946, 38.72003 ], [ -77.24152, 38.72282 ], [ -77.24149, 38.72335 ], [ -77.24015, 38.72477 ], [ -77.23932, 38.7246 ], [ -77.23923, 38.7241 ], [ -77.23853, 38.72405 ], [ -77.23821, 38.72472 ], [ -77.23727, 38.72493 ], [ -77.23715, 38.72397 ], [ -77.23555, 38.7234 ], [ -77.23586, 38.72268 ], [ -77.23756, 38.72293 ], [ -77.23978, 38.72302 ], [ -77.23958, 38.7226 ], [ -77.23777, 38.72275 ], [ -77.23676, 38.72139 ], [ -77.23625, 38.72114 ], [ -77.23658, 38.72164 ], [ -77.23632, 38.72209 ], [ -77.23426, 38.72194 ], [ -77.23438, 38.72109 ], [ -77.23586, 38.71961 ], [ -77.23665, 38.71934 ], [ -77.23551, 38.71833 ], [ -77.23367, 38.71905 ], [ -77.23361, 38.72091 ], [ -77.23226, 38.72154 ], [ -77.22968, 38.72042 ], [ -77.22787, 38.72058 ], [ -77.22755, 38.72018 ], [ -77.22808, 38.7188 ], [ -77.22743, 38.71864 ], [ -77.22657, 38.71967 ], [ -77.22561, 38.71953 ], [ -77.22576, 38.71851 ], [ -77.22453, 38.71933 ], [ -77.22317, 38.71939 ], [ -77.22289, 38.72002 ], [ -77.22183, 38.71994 ], [ -77.2222, 38.7186 ], [ -77.22411, 38.71825 ], [ -77.22347, 38.71752 ], [ -77.22195, 38.71841 ], [ -77.22093, 38.72022 ], [ -77.21697, 38.72232 ], [ -77.21774, 38.72296 ], [ -77.2172, 38.72372 ], [ -77.21419, 38.72193 ], [ -77.2141, 38.72134 ], [ -77.21468, 38.72077 ], [ -77.21702, 38.7211 ], [ -77.2202, 38.71918 ], [ -77.22075, 38.71778 ], [ -77.22212, 38.71692 ], [ -77.22132, 38.71656 ], [ -77.22026, 38.7174 ], [ -77.21973, 38.71741 ], [ -77.21935, 38.71713 ], [ -77.21948, 38.71644 ], [ -77.21869, 38.71588 ], [ -77.22022, 38.71485 ], [ -77.21984, 38.71439 ], [ -77.22066, 38.71385 ], [ -77.22016, 38.71309 ], [ -77.22044, 38.71235 ], [ -77.2213, 38.71252 ], [ -77.22141, 38.71198 ], [ -77.22278, 38.71184 ], [ -77.22383, 38.71276 ], [ -77.22513, 38.71196 ], [ -77.22463, 38.71072 ], [ -77.22389, 38.71085 ], [ -77.22354, 38.71055 ], [ -77.2231, 38.70926 ], [ -77.22347, 38.70897 ], [ -77.22461, 38.70901 ], [ -77.22369, 38.70872 ], [ -77.22343, 38.70804 ], [ -77.22399, 38.70726 ], [ -77.2249, 38.70726 ], [ -77.22516, 38.70664 ], [ -77.22572, 38.70658 ], [ -77.22581, 38.70548 ], [ -77.22189, 38.70611 ], [ -77.22181, 38.70848 ], [ -77.22146, 38.70936 ], [ -77.2206, 38.70973 ], [ -77.22013, 38.70907 ], [ -77.22055, 38.70579 ], [ -77.21816, 38.70488 ], [ -77.21373, 38.70449 ], [ -77.21369, 38.70373 ], [ -77.21657, 38.70363 ], [ -77.21808, 38.70261 ], [ -77.21854, 38.70281 ], [ -77.21856, 38.70369 ], [ -77.21979, 38.70223 ], [ -77.2208, 38.70248 ], [ -77.22122, 38.7012 ], [ -77.22206, 38.70082 ], [ -77.22256, 38.70148 ], [ -77.22174, 38.70346 ], [ -77.22302, 38.70363 ], [ -77.22313, 38.70476 ], [ -77.2264, 38.70413 ], [ -77.22558, 38.70251 ], [ -77.22656, 38.70175 ], [ -77.22554, 38.70045 ], [ -77.22591, 38.69972 ], [ -77.22702, 38.69913 ], [ -77.22593, 38.69801 ], [ -77.22649, 38.69555 ], [ -77.22767, 38.69598 ], [ -77.22784, 38.69689 ], [ -77.2273, 38.69787 ], [ -77.22824, 38.6986 ], [ -77.22824, 38.69964 ], [ -77.22947, 38.70095 ], [ -77.23036, 38.70105 ], [ -77.23017, 38.69772 ], [ -77.23239, 38.69688 ], [ -77.23323, 38.69727 ], [ -77.23336, 38.69909 ], [ -77.23436, 38.69869 ], [ -77.23662, 38.69975 ], [ -77.23761, 38.70127 ], [ -77.23724, 38.70391 ], [ -77.23401, 38.70461 ], [ -77.23722, 38.70498 ], [ -77.23731, 38.70567 ], [ -77.2379, 38.70568 ], [ -77.23923, 38.7072 ], [ -77.23911, 38.70893 ], [ -77.2401, 38.70963 ], [ -77.24219, 38.70904 ], [ -77.24372, 38.70814 ], [ -77.24596, 38.70536 ], [ -77.24389, 38.70524 ], [ -77.24314, 38.70477 ], [ -77.24244, 38.70524 ], [ -77.24193, 38.70512 ], [ -77.24168, 38.70465 ], [ -77.24225, 38.70381 ], [ -77.24325, 38.70364 ], [ -77.24447, 38.70422 ], [ -77.24611, 38.70407 ], [ -77.24705, 38.7047 ], [ -77.24972, 38.70338 ], [ -77.25124, 38.70307 ], [ -77.25241, 38.70404 ] ], [ [ -77.23319, 38.71799 ], [ -77.23461, 38.71751 ], [ -77.2329, 38.71586 ], [ -77.23172, 38.71649 ], [ -77.2316, 38.71731 ], [ -77.23319, 38.71799 ] ], [ [ -77.2321, 38.71225 ], [ -77.23191, 38.71223 ], [ -77.23196, 38.71231 ], [ -77.2321, 38.71225 ] ], [ [ -77.23238, 38.71119 ], [ -77.23251, 38.71061 ], [ -77.2315, 38.71057 ], [ -77.231, 38.71127 ], [ -77.23129, 38.71148 ], [ -77.23238, 38.71119 ] ], [ [ -77.23264, 38.70864 ], [ -77.23299, 38.70997 ], [ -77.23416, 38.70939 ], [ -77.23581, 38.70958 ], [ -77.23615, 38.70894 ], [ -77.23666, 38.70885 ], [ -77.23719, 38.70969 ], [ -77.23805, 38.7098 ], [ -77.23479, 38.70598 ], [ -77.23033, 38.70547 ], [ -77.23091, 38.70733 ], [ -77.23196, 38.70848 ], [ -77.23264, 38.70864 ] ], [ [ -77.23278, 38.70318 ], [ -77.23265, 38.70165 ], [ -77.23444, 38.70144 ], [ -77.23363, 38.70099 ], [ -77.23338, 38.69996 ], [ -77.23301, 38.70093 ], [ -77.23069, 38.70227 ], [ -77.23076, 38.70285 ], [ -77.2284, 38.70396 ], [ -77.23175, 38.70435 ], [ -77.23278, 38.70318 ] ], [ [ -77.23416, 38.71374 ], [ -77.23454, 38.71156 ], [ -77.2325, 38.71346 ], [ -77.23291, 38.71409 ], [ -77.23416, 38.71374 ] ], [ [ -77.23857, 38.71096 ], [ -77.23693, 38.71075 ], [ -77.23683, 38.71124 ], [ -77.23847, 38.71134 ], [ -77.23857, 38.71096 ] ], [ [ -77.24581, 38.7224 ], [ -77.24645, 38.722 ], [ -77.24357, 38.71924 ], [ -77.24307, 38.71955 ], [ -77.24581, 38.7224 ] ], [ [ -77.25001, 38.72655 ], [ -77.25057, 38.72712 ], [ -77.25092, 38.7266 ], [ -77.25001, 38.72655 ] ], [ [ -77.2477, 38.72843 ], [ -77.24781, 38.72826 ], [ -77.24776, 38.72825 ], [ -77.2477, 38.72843 ] ], [ [ -77.23169, 38.69957 ], [ -77.23163, 38.70046 ], [ -77.23199, 38.70013 ], [ -77.23193, 38.69816 ], [ -77.23151, 38.6983 ], [ -77.23169, 38.69957 ] ], [ [ -77.23334, 38.70453 ], [ -77.2335, 38.70455 ], [ -77.23326, 38.70435 ], [ -77.23334, 38.70453 ] ], [ [ -77.22756, 38.71478 ], [ -77.22802, 38.71488 ], [ -77.22691, 38.7142 ], [ -77.22696, 38.71466 ], [ -77.22756, 38.71478 ] ], [ [ -77.23234, 38.72043 ], [ -77.23233, 38.72015 ], [ -77.23217, 38.72025 ], [ -77.23234, 38.72043 ] ], [ [ -77.2285, 38.70244 ], [ -77.22852, 38.70254 ], [ -77.22872, 38.70243 ], [ -77.2285, 38.70244 ] ], [ [ -77.2255, 38.71414 ], [ -77.22453, 38.71426 ], [ -77.22457, 38.71443 ], [ -77.22543, 38.71441 ], [ -77.2255, 38.71414 ] ], [ [ -77.22533, 38.70994 ], [ -77.22513, 38.71006 ], [ -77.2252, 38.71003 ], [ -77.22533, 38.70994 ] ], [ [ -77.22724, 38.71206 ], [ -77.22736, 38.71194 ], [ -77.22701, 38.71199 ], [ -77.22724, 38.71206 ] ], [ [ -77.22152, 38.71278 ], [ -77.22278, 38.71435 ], [ -77.22306, 38.71372 ], [ -77.22239, 38.71298 ], [ -77.22152, 38.71278 ] ], [ [ -77.22069, 38.70432 ], [ -77.22059, 38.70438 ], [ -77.22098, 38.70454 ], [ -77.22104, 38.70411 ], [ -77.22069, 38.70432 ] ] ] } }
]
}
