{
"type": "FeatureCollection",
"name": "422",
"crs": { "type": "name", "properties": { "name": "urn:ogc:def:crs:OGC:1.3:CRS84" } },
"xy_coordinate_resolution": 1e-05,
"features": [
{ "type": "Feature", "properties": { "variant": "T0", "miles": 1.0 }, "geometry": { "type": "Polygon", "coordinates": [ [ [ -77.23858, 38.71511 ], [ -77.24027, 38.71524 ], [ -77.24242, 38.71641 ], [ -77.24777, 38.72155 ], [ -77.24989, 38.72295 ], [ -77.2509, 38.72224 ], [ -77.24978, 38.72015 ], [ -77.25097, 38.71952 ], [ -77.252, 38.71943 ], [ -77.25306, 38.72079 ], [ -77.25506, 38.72203 ], [ -77.25453, 38.72267 ], [ -77.25325, 38.7222 ], [ -77.25265, 38.72263 ], [ -77.25354, 38.72433 ], [ -77.25318, 38.72537 ], [ -77.25161, 38.72516 ], [ -77.25149, 38.72476 ], [ -77.25211, 38.72435 ], [ -77.2515, 38.72325 ], [ -77.25054, 38.72424 ], [ -77.24982, 38.72441 ], [ -77.24745, 38.72276 ], [ -77.24593, 38.72351 ], [ -77.24439, 38.72274 ], [ -77.2427, 38.72446 ], [ -77.24173, 38.72454 ], [ -77.24147, 38.72417 ], [ -77.24229, 38.72277 ], [ -77.24355, 38.72188 ], [ -77.24139, 38.71945 ], [ -77.24274, 38.71838 ], [ -77.24149, 38.7172 ], [ -77.23924, 38.71614 ], [ -77.23553, 38.7181 ], [ -77.23488, 38.71754 ], [ -77.23521, 38.71709 ], [ -77.23462, 38.71692 ], [ -77.2339, 38.71598 ], [ -77.23463, 38.71532 ], [ -77.23415, 38.71471 ], [ -77.23481, 38.71415 ], [ -77.23571, 38.71466 ], [ -77.2371, 38.71395 ], [ -77.23858, 38.71511 ] ], [ [ -77.24645, 38.722 ], [ -77.24357, 38.71924 ], [ -77.24307, 38.71955 ], [ -77.24581, 38.7224 ], [ -77.24645, 38.722 ] ], [ [ -77.25206, 38.72163 ], [ -77.25192, 38.7214 ], [ -77.25186, 38.72133 ], [ -77.25206, 38.72163 ] ], [ [ -77.25131, 38.7206 ], [ -77.25167, 38.72107 ], [ -77.25134, 38.72058 ], [ -77.25131, 38.7206 ] ] ] } },
{ "type": "Feature", "properties": { "variant": "T0", "miles": 1.5 }, "geometry": { "type": "Polygon", "coordinates": [ [ [ -77.25708, 38.71809 ], [ -77.25798, 38.71709 ], [ -77.25731, 38.71649 ], [ -77.2575, 38.71574 ], [ -77.25802, 38.71567 ], [ -77.25883, 38.71624 ], [ -77.25967, 38.71616 ], [ -77.25986, 38.71691 ], [ -77.25794, 38.719 ], [ -77.25986, 38.72018 ], [ -77.25975, 38.72059 ], [ -77.25899, 38.72077 ], [ -77.25908, 38.7214 ], [ -77.25864, 38.72163 ], [ -77.25646, 38.72068 ], [ -77.25629, 38.72088 ], [ -77.25827, 38.72211 ], [ -77.25771, 38.72274 ], [ -77.25552, 38.72178 ], [ -77.25534, 38.72199 ], [ -77.25704, 38.72288 ], [ -77.25723, 38.72363 ], [ -77.25628, 38.72378 ], [ -77.25458, 38.72289 ], [ -77.25439, 38.7231 ], [ -77.2561, 38.72403 ], [ -77.25627, 38.72478 ], [ -77.25531, 38.72492 ], [ -77.25335, 38.72386 ], [ -77.25354, 38.72478 ], [ -77.25299, 38.72588 ], [ -77.25353, 38.72612 ], [ -77.25472, 38.72574 ], [ -77.25556, 38.72613 ], [ -77.25549, 38.72654 ], [ -77.25383, 38.72755 ], [ -77.25612, 38.72771 ], [ -77.25612, 38.72934 ], [ -77.25384, 38.72944 ], [ -77.25238, 38.72864 ], [ -77.25193, 38.72959 ], [ -77.25051, 38.72986 ], [ -77.25003, 38.73136 ], [ -77.25029, 38.73214 ], [ -77.24942, 38.73248 ], [ -77.24865, 38.73144 ], [ -77.24922, 38.72944 ], [ -77.24791, 38.72911 ], [ -77.24781, 38.72826 ], [ -77.24598, 38.72872 ], [ -77.24533, 38.72815 ], [ -77.24654, 38.72672 ], [ -77.24771, 38.72707 ], [ -77.24834, 38.72636 ], [ -77.24837, 38.72556 ], [ -77.2499, 38.72584 ], [ -77.25057, 38.72712 ], [ -77.25179, 38.72535 ], [ -77.25002, 38.72496 ], [ -77.24986, 38.72441 ], [ -77.24745, 38.72276 ], [ -77.24593, 38.72351 ], [ -77.24439, 38.72274 ], [ -77.24234, 38.72468 ], [ -77.24138, 38.72456 ], [ -77.24081, 38.7239 ], [ -77.24053, 38.72457 ], [ -77.23962, 38.72477 ], [ -77.23919, 38.7242 ], [ -77.2399, 38.72297 ], [ -77.23958, 38.7226 ], [ -77.23777, 38.72275 ], [ -77.23676, 38.72139 ], [ -77.23625, 38.72114 ], [ -77.23658, 38.72164 ], [ -77.23632, 38.72209 ], [ -77.23426, 38.72194 ], [ -77.23438, 38.72109 ], [ -77.23586, 38.71961 ], [ -77.23665, 38.71934 ], [ -77.23551, 38.71833 ], [ -77.23367, 38.71905 ], [ -77.23361, 38.72091 ], [ -77.23226, 38.72154 ], [ -77.22968, 38.72042 ], [ -77.22787, 38.72058 ], [ -77.22755, 38.72018 ], [ -77.22808, 38.7188 ], [ -77.22634, 38.71881 ], [ -77.22456, 38.71728 ], [ -77.2256, 38.71567 ], [ -77.22545, 38.71431 ], [ -77.22619, 38.71305 ], [ -77.22716, 38.71297 ], [ -77.22822, 38.71363 ], [ -77.23043, 38.71261 ], [ -77.22923, 38.7117 ], [ -77.22859, 38.71218 ], [ -77.22775, 38.7118 ], [ -77.2285, 38.71073 ], [ -77.22822, 38.70936 ], [ -77.22868, 38.70915 ], [ -77.22987, 38.70942 ], [ -77.23093, 38.71041 ], [ -77.23087, 38.71118 ], [ -77.23129, 38.71148 ], [ -77.23238, 38.71119 ], [ -77.23267, 38.71022 ], [ -77.23337, 38.70984 ], [ -77.2355, 38.71076 ], [ -77.23534, 38.71151 ], [ -77.23437, 38.71154 ], [ -77.23398, 38.71235 ], [ -77.2325, 38.71346 ], [ -77.23291, 38.71409 ], [ -77.23356, 38.71381 ], [ -77.23471, 38.71406 ], [ -77.23533, 38.71203 ], [ -77.23806, 38.71201 ], [ -77.23938, 38.7116 ], [ -77.23983, 38.71228 ], [ -77.2391, 38.71275 ], [ -77.23874, 38.71397 ], [ -77.23781, 38.71439 ], [ -77.24242, 38.71641 ], [ -77.24777, 38.72155 ], [ -77.24989, 38.72295 ], [ -77.2509, 38.72224 ], [ -77.24967, 38.72029 ], [ -77.24989, 38.71764 ], [ -77.25263, 38.7139 ], [ -77.25358, 38.71371 ], [ -77.25382, 38.71445 ], [ -77.25282, 38.71608 ], [ -77.25708, 38.71809 ] ], [ [ -77.24202, 38.72338 ], [ -77.24242, 38.72261 ], [ -77.24355, 38.72188 ], [ -77.24139, 38.71945 ], [ -77.24274, 38.71838 ], [ -77.2412, 38.71702 ], [ -77.23904, 38.71614 ], [ -77.23663, 38.71751 ], [ -77.23942, 38.71999 ], [ -77.24202, 38.72338 ] ], [ [ -77.25343, 38.72229 ], [ -77.25325, 38.7222 ], [ -77.25265, 38.72263 ], [ -77.25295, 38.72284 ], [ -77.25343, 38.72229 ] ], [ [ -77.25177, 38.71897 ], [ -77.25113, 38.71826 ], [ -77.25097, 38.71952 ], [ -77.25177, 38.71897 ] ], [ [ -77.25256, 38.71847 ], [ -77.25225, 38.71889 ], [ -77.25514, 38.72028 ], [ -77.25531, 38.72008 ], [ -77.25256, 38.71847 ] ], [ [ -77.25253, 38.71814 ], [ -77.25306, 38.71772 ], [ -77.25357, 38.71784 ], [ -77.25608, 38.71918 ], [ -77.25628, 38.71896 ], [ -77.25231, 38.71712 ], [ -77.25253, 38.71814 ] ], [ [ -77.25306, 38.72079 ], [ -77.25419, 38.72139 ], [ -77.25437, 38.72118 ], [ -77.2529, 38.72042 ], [ -77.25306, 38.72079 ] ], [ [ -77.25186, 38.72133 ], [ -77.25206, 38.72163 ], [ -77.25212, 38.72158 ], [ -77.25186, 38.72133 ] ], [ [ -77.25086, 38.72373 ], [ -77.25086, 38.72414 ], [ -77.25142, 38.72421 ], [ -77.25186, 38.72382 ], [ -77.25143, 38.72329 ], [ -77.25086, 38.72373 ] ], [ [ -77.25264, 38.72695 ], [ -77.25236, 38.7268 ], [ -77.25184, 38.72754 ], [ -77.25245, 38.72745 ], [ -77.25264, 38.72695 ] ], [ [ -77.24357, 38.71924 ], [ -77.24307, 38.71955 ], [ -77.24581, 38.7224 ], [ -77.24645, 38.722 ], [ -77.24357, 38.71924 ] ], [ [ -77.23172, 38.71649 ], [ -77.23148, 38.71726 ], [ -77.23271, 38.7179 ], [ -77.23394, 38.71789 ], [ -77.23461, 38.71751 ], [ -77.23285, 38.71588 ], [ -77.23172, 38.71649 ] ], [ [ -77.2321, 38.71225 ], [ -77.23191, 38.71223 ], [ -77.232, 38.71241 ], [ -77.2321, 38.71225 ] ], [ [ -77.23202, 38.72031 ], [ -77.23234, 38.72043 ], [ -77.23233, 38.72015 ], [ -77.23202, 38.72031 ] ], [ [ -77.22691, 38.7142 ], [ -77.22679, 38.71464 ], [ -77.22802, 38.71488 ], [ -77.22691, 38.7142 ] ], [ [ -77.22755, 38.71612 ], [ -77.22772, 38.71622 ], [ -77.22721, 38.71582 ], [ -77.22755, 38.71612 ] ] ] } },
{ "type": "Feature", "properties": { "variant": "T0", "miles": 2.0 }, "geometry": { "type": "Polygon", "coordinates": [ [ [ -77.26014, 38.7087 ], [ -77.25935, 38.7091 ], [ -77.25731, 38.70871 ], [ -77.25674, 38.70961 ], [ -77.25782, 38.70967 ], [ -77.25798, 38.70907 ], [ -77.25849, 38.70896 ], [ -77.25895, 38.70915 ], [ -77.25947, 38.71047 ], [ -77.25877, 38.71153 ], [ -77.26235, 38.71093 ], [ -77.26284, 38.71159 ], [ -77.26134, 38.71239 ], [ -77.26282, 38.71218 ], [ -77.26334, 38.71283 ], [ -77.25794, 38.719 ], [ -77.25957, 38.71984 ], [ -77.26049, 38.72079 ], [ -77.25927, 38.72228 ], [ -77.26092, 38.72268 ], [ -77.26183, 38.7238 ], [ -77.26173, 38.72594 ], [ -77.26219, 38.72696 ], [ -77.26173, 38.72741 ], [ -77.26084, 38.72704 ], [ -77.26028, 38.72756 ], [ -77.26385, 38.72818 ], [ -77.26523, 38.72969 ], [ -77.26467, 38.73032 ], [ -77.26216, 38.72979 ], [ -77.26162, 38.73033 ], [ -77.26187, 38.73158 ], [ -77.26151, 38.73187 ], [ -77.2606, 38.7316 ], [ -77.26022, 38.73065 ], [ -77.25906, 38.7316 ], [ -77.25956, 38.73178 ], [ -77.25952, 38.73254 ], [ -77.25729, 38.73269 ], [ -77.25688, 38.73305 ], [ -77.25685, 38.73404 ], [ -77.25757, 38.7347 ], [ -77.2574, 38.73546 ], [ -77.25688, 38.73554 ], [ -77.25565, 38.73479 ], [ -77.25493, 38.73477 ], [ -77.25469, 38.73534 ], [ -77.25403, 38.73556 ], [ -77.25357, 38.73536 ], [ -77.25356, 38.73472 ], [ -77.25234, 38.73505 ], [ -77.253, 38.73698 ], [ -77.25235, 38.73755 ], [ -77.25185, 38.73741 ], [ -77.25115, 38.73559 ], [ -77.25025, 38.7354 ], [ -77.25021, 38.73438 ], [ -77.24931, 38.73449 ], [ -77.24898, 38.73416 ], [ -77.2495, 38.73343 ], [ -77.24887, 38.73196 ], [ -77.24821, 38.73194 ], [ -77.2477, 38.73304 ], [ -77.24677, 38.73281 ], [ -77.24683, 38.73211 ], [ -77.24617, 38.73278 ], [ -77.24529, 38.73246 ], [ -77.24643, 38.73083 ], [ -77.24873, 38.73088 ], [ -77.24919, 38.72952 ], [ -77.24785, 38.7298 ], [ -77.24701, 38.72937 ], [ -77.24575, 38.72939 ], [ -77.24552, 38.72907 ], [ -77.24446, 38.72916 ], [ -77.24438, 38.72966 ], [ -77.24335, 38.73004 ], [ -77.24319, 38.73069 ], [ -77.24269, 38.7308 ], [ -77.24178, 38.73054 ], [ -77.2417, 38.72994 ], [ -77.24066, 38.72966 ], [ -77.23984, 38.73047 ], [ -77.23855, 38.73002 ], [ -77.23753, 38.72624 ], [ -77.23782, 38.7259 ], [ -77.2405, 38.72533 ], [ -77.24191, 38.72575 ], [ -77.24186, 38.72656 ], [ -77.24314, 38.72703 ], [ -77.24341, 38.72626 ], [ -77.24081, 38.7239 ], [ -77.24015, 38.72477 ], [ -77.23932, 38.7246 ], [ -77.23923, 38.7241 ], [ -77.23853, 38.72405 ], [ -77.23821, 38.72472 ], [ -77.23727, 38.72493 ], [ -77.23715, 38.72397 ], [ -77.23555, 38.7234 ], [ -77.23586, 38.72268 ], [ -77.23756, 38.72293 ], [ -77.2399, 38.72297 ], [ -77.23958, 38.7226 ], [ -77.23861, 38.7229 ], [ -77.23771, 38.72273 ], [ -77.23676, 38.72139 ], [ -77.23625, 38.72114 ], [ -77.23658, 38.72164 ], [ -77.23632, 38.72209 ], [ -77.23426, 38.72194 ], [ -77.23438, 38.72109 ], [ -77.23586, 38.71961 ], [ -77.23665, 38.71934 ], [ -77.23551, 38.71833 ], [ -77.23367, 38.71905 ], [ -77.23365, 38.72084 ], [ -77.23257, 38.72153 ], [ -77.22968, 38.72042 ], [ -77.22787, 38.72058 ], [ -77.22755, 38.72018 ], [ -77.22808, 38.7188 ], [ -77.22743, 38.71864 ], [ -77.22657, 38.71967 ], [ -77.22561, 38.71953 ], [ -77.22576, 38.71851 ], [ -77.22453, 38.71933 ], [ -77.22317, 38.71939 ], [ -77.22289, 38.72002 ], [ -77.22183, 38.71994 ], [ -77.2222, 38.7186 ], [ -77.22411, 38.71825 ], [ -77.22347, 38.71752 ], [ -77.22195, 38.71841 ], [ -77.22093, 38.72022 ], [ -77.21999, 38.72003 ], [ -77.22067, 38.71789 ], [ -77.22212, 38.71692 ], [ -77.22132, 38.71656 ], [ -77.22026, 38.7174 ], [ -77.21973, 38.71741 ], [ -77.21935, 38.71713 ], [ -77.21948, 38.71644 ], [ -77.21869, 38.71588 ], [ -77.22022, 38.71485 ], [ -77.21984, 38.71439 ], [ -77.22066, 38.71385 ], [ -77.22016, 38.71309 ], [ -77.22044, 38.71235 ], [ -77.2213, 38.71252 ], [ -77.22141, 38.71198 ], [ -77.22278, 38.71184 ], [ -77.22383, 38.71276 ], [ -77.22513, 38.71196 ], [ -77.22463, 38.71072 ], [ -77.22389, 38.71085 ], [ -77.22354, 38.71055 ], [ -77.2231, 38.70926 ], [ -77.22347, 38.70897 ], [ -77.22461, 38.70901 ], [ -77.22348, 38.70852 ], [ -77.22362, 38.7076 ], [ -77.22405, 38.70723 ], [ -77.2249, 38.70726 ], [ -77.22516, 38.70664 ], [ -77.22572, 38.70658 ], [ -77.22581, 38.70543 ], [ -77.22512, 38.705 ], [ -77.22525, 38.70446 ], [ -77.22691, 38.70407 ], [ -77.22743, 38.70297 ], [ -77.22838, 38.70312 ], [ -77.22841, 38.70404 ], [ -77.23191, 38.70476 ], [ -77.23173, 38.70551 ], [ -77.23033, 38.70547 ], [ -77.23091, 38.70733 ], [ -77.23196, 38.70848 ], [ -77.23264, 38.70864 ], [ -77.23299, 38.70997 ], [ -77.23416, 38.70939 ], [ -77.23581, 38.70958 ], [ -77.23615, 38.70894 ], [ -77.23666, 38.70885 ], [ -77.23719, 38.70969 ], [ -77.23975, 38.71014 ], [ -77.24049, 38.70943 ], [ -77.24318, 38.70865 ], [ -77.24364, 38.70886 ], [ -77.24353, 38.70962 ], [ -77.23981, 38.71207 ], [ -77.2391, 38.71275 ], [ -77.23874, 38.71397 ], [ -77.23781, 38.71439 ], [ -77.24242, 38.71641 ], [ -77.24777, 38.72155 ], [ -77.24989, 38.72295 ], [ -77.2509, 38.72224 ], [ -77.24964, 38.72016 ], [ -77.24994, 38.71752 ], [ -77.25361, 38.71271 ], [ -77.25607, 38.708 ], [ -77.25819, 38.70628 ], [ -77.2587, 38.70617 ], [ -77.25929, 38.70658 ], [ -77.26014, 38.7087 ] ], [ [ -77.23969, 38.72028 ], [ -77.24202, 38.72338 ], [ -77.24242, 38.72261 ], [ -77.24355, 38.72188 ], [ -77.24139, 38.71945 ], [ -77.24274, 38.71838 ], [ -77.24149, 38.7172 ], [ -77.2394, 38.71616 ], [ -77.23839, 38.71633 ], [ -77.23663, 38.71751 ], [ -77.23969, 38.72028 ] ], [ [ -77.23416, 38.71374 ], [ -77.23454, 38.71156 ], [ -77.2325, 38.71346 ], [ -77.23291, 38.71409 ], [ -77.23416, 38.71374 ] ], [ [ -77.23857, 38.71096 ], [ -77.23693, 38.71075 ], [ -77.23683, 38.71124 ], [ -77.23829, 38.71145 ], [ -77.23857, 38.71096 ] ], [ [ -77.25162, 38.73413 ], [ -77.25348, 38.73364 ], [ -77.25339, 38.73292 ], [ -77.25439, 38.73256 ], [ -77.25348, 38.73207 ], [ -77.25408, 38.7315 ], [ -77.25372, 38.73119 ], [ -77.25286, 38.73154 ], [ -77.25234, 38.7306 ], [ -77.25296, 38.72998 ], [ -77.25495, 38.72948 ], [ -77.25364, 38.72938 ], [ -77.25238, 38.72864 ], [ -77.25193, 38.72959 ], [ -77.25051, 38.72986 ], [ -77.25004, 38.73132 ], [ -77.25103, 38.73162 ], [ -77.25178, 38.73261 ], [ -77.25166, 38.73301 ], [ -77.25085, 38.73316 ], [ -77.25162, 38.73413 ] ], [ [ -77.25002, 38.72496 ], [ -77.24986, 38.72441 ], [ -77.24745, 38.72276 ], [ -77.24593, 38.72351 ], [ -77.24439, 38.72274 ], [ -77.24285, 38.72431 ], [ -77.24383, 38.72519 ], [ -77.24771, 38.72707 ], [ -77.24711, 38.72647 ], [ -77.24883, 38.72492 ], [ -77.24981, 38.72497 ], [ -77.24992, 38.72545 ], [ -77.2516, 38.72534 ], [ -77.25002, 38.72496 ] ], [ [ -77.25748, 38.72948 ], [ -77.25771, 38.72935 ], [ -77.25709, 38.72927 ], [ -77.25748, 38.72948 ] ], [ [ -77.25851, 38.72756 ], [ -77.25773, 38.7269 ], [ -77.25812, 38.72621 ], [ -77.25935, 38.72671 ], [ -77.25916, 38.7257 ], [ -77.26034, 38.72579 ], [ -77.26051, 38.72412 ], [ -77.25987, 38.72344 ], [ -77.25854, 38.72365 ], [ -77.2578, 38.72514 ], [ -77.25679, 38.72621 ], [ -77.25581, 38.72662 ], [ -77.25555, 38.72742 ], [ -77.25502, 38.72745 ], [ -77.25446, 38.72694 ], [ -77.25383, 38.72755 ], [ -77.25851, 38.72756 ] ], [ [ -77.25662, 38.72457 ], [ -77.25695, 38.72378 ], [ -77.25628, 38.72378 ], [ -77.25458, 38.72289 ], [ -77.25439, 38.7231 ], [ -77.25638, 38.72438 ], [ -77.25627, 38.72478 ], [ -77.25553, 38.72495 ], [ -77.25566, 38.72552 ], [ -77.25662, 38.72457 ] ], [ [ -77.25792, 38.72263 ], [ -77.2572, 38.72265 ], [ -77.25552, 38.72178 ], [ -77.25534, 38.72199 ], [ -77.2574, 38.72304 ], [ -77.25792, 38.72263 ] ], [ [ -77.25802, 38.72181 ], [ -77.25819, 38.72155 ], [ -77.25646, 38.72068 ], [ -77.25629, 38.72088 ], [ -77.25802, 38.72181 ] ], [ [ -77.2536, 38.71749 ], [ -77.25228, 38.71708 ], [ -77.25253, 38.71814 ], [ -77.25306, 38.71772 ], [ -77.25357, 38.71784 ], [ -77.25608, 38.71918 ], [ -77.25628, 38.71896 ], [ -77.2536, 38.71749 ] ], [ [ -77.25683, 38.71742 ], [ -77.25521, 38.71711 ], [ -77.25708, 38.71809 ], [ -77.25683, 38.71742 ] ], [ [ -77.25489, 38.71585 ], [ -77.25332, 38.71511 ], [ -77.25263, 38.71602 ], [ -77.25388, 38.71667 ], [ -77.25489, 38.71585 ] ], [ [ -77.25634, 38.71621 ], [ -77.25698, 38.7157 ], [ -77.2575, 38.71426 ], [ -77.25944, 38.71326 ], [ -77.25986, 38.71254 ], [ -77.25865, 38.71336 ], [ -77.25806, 38.71271 ], [ -77.25732, 38.71322 ], [ -77.25633, 38.71325 ], [ -77.2557, 38.71247 ], [ -77.25675, 38.71221 ], [ -77.25575, 38.71168 ], [ -77.25414, 38.71404 ], [ -77.25558, 38.71517 ], [ -77.25501, 38.71585 ], [ -77.25634, 38.71621 ] ], [ [ -77.25829, 38.70778 ], [ -77.25847, 38.70782 ], [ -77.25842, 38.70773 ], [ -77.25829, 38.70778 ] ], [ [ -77.25716, 38.71118 ], [ -77.25759, 38.71092 ], [ -77.25651, 38.71016 ], [ -77.25647, 38.71071 ], [ -77.25716, 38.71118 ] ], [ [ -77.25885, 38.71473 ], [ -77.25856, 38.71496 ], [ -77.25937, 38.71455 ], [ -77.26014, 38.71465 ], [ -77.26079, 38.71386 ], [ -77.25885, 38.71473 ] ], [ [ -77.26125, 38.71244 ], [ -77.26129, 38.7124 ], [ -77.26125, 38.71241 ], [ -77.26125, 38.71244 ] ], [ [ -77.25879, 38.71621 ], [ -77.25895, 38.71603 ], [ -77.25858, 38.71604 ], [ -77.25879, 38.71621 ] ], [ [ -77.25909, 38.72088 ], [ -77.25915, 38.72079 ], [ -77.25899, 38.72077 ], [ -77.25909, 38.72088 ] ], [ [ -77.26079, 38.72929 ], [ -77.26151, 38.72884 ], [ -77.26085, 38.72868 ], [ -77.26079, 38.72929 ] ], [ [ -77.25816, 38.73068 ], [ -77.25881, 38.73042 ], [ -77.25839, 38.73041 ], [ -77.25816, 38.73068 ] ], [ [ -77.25306, 38.72079 ], [ -77.25419, 38.72139 ], [ -77.25437, 38.72118 ], [ -77.2529, 38.72042 ], [ -77.25306, 38.72079 ] ], [ [ -77.25186, 38.72133 ], [ -77.25206, 38.72163 ], [ -77.25212, 38.72158 ], [ -77.25186, 38.72133 ] ], [ [ -77.25514, 38.72028 ], [ -77.25531, 38.72008 ], [ -77.25256, 38.71847 ], [ -77.25225, 38.71889 ], [ -77.25514, 38.72028 ] ], [ [ -77.25097, 38.71952 ], [ -77.25177, 38.71897 ], [ -77.25113, 38.71826 ], [ -77.25097, 38.71952 ] ], [ [ -77.25131, 38.7206 ], [ -77.25167, 38.72107 ], [ -77.25159, 38.72094 ], [ -77.25131, 38.7206 ] ], [ [ -77.25335, 38.72386 ], [ -77.2534, 38.72396 ], [ -77.25342, 38.7239 ], [ -77.25335, 38.72386 ] ], [ [ -77.25331, 38.72537 ], [ -77.25408, 38.7259 ], [ -77.25415, 38.72491 ], [ -77.25356, 38.72455 ], [ -77.25331, 38.72537 ] ], [ [ -77.25086, 38.72373 ], [ -77.25086, 38.72414 ], [ -77.25142, 38.72421 ], [ -77.25186, 38.72382 ], [ -77.25143, 38.72329 ], [ -77.25086, 38.72373 ] ], [ [ -77.25265, 38.72263 ], [ -77.25288, 38.72297 ], [ -77.25343, 38.72229 ], [ -77.25265, 38.72263 ] ], [ [ -77.25374, 38.73092 ], [ -77.25369, 38.73093 ], [ -77.25371, 38.73105 ], [ -77.25374, 38.73092 ] ], [ [ -77.25552, 38.73371 ], [ -77.25558, 38.73343 ], [ -77.25488, 38.73339 ], [ -77.25552, 38.73371 ] ], [ [ -77.2477, 38.72843 ], [ -77.24781, 38.72826 ], [ -77.24776, 38.72825 ], [ -77.2477, 38.72843 ] ], [ [ -77.24539, 38.72721 ], [ -77.2447, 38.72688 ], [ -77.24355, 38.72724 ], [ -77.24406, 38.72789 ], [ -77.24539, 38.72721 ] ], [ [ -77.24581, 38.7224 ], [ -77.24645, 38.722 ], [ -77.24357, 38.71924 ], [ -77.24307, 38.71955 ], [ -77.24581, 38.7224 ] ], [ [ -77.23947, 38.72669 ], [ -77.23987, 38.72681 ], [ -77.23959, 38.72624 ], [ -77.23947, 38.72669 ] ], [ [ -77.23319, 38.71799 ], [ -77.23461, 38.71751 ], [ -77.2329, 38.71586 ], [ -77.23172, 38.71649 ], [ -77.23148, 38.71726 ], [ -77.23319, 38.71799 ] ], [ [ -77.23191, 38.71223 ], [ -77.232, 38.71241 ], [ -77.23207, 38.71232 ], [ -77.23191, 38.71223 ] ], [ [ -77.23251, 38.71061 ], [ -77.2315, 38.71057 ], [ -77.231, 38.71127 ], [ -77.23129, 38.71148 ], [ -77.23238, 38.71119 ], [ -77.23251, 38.71061 ] ], [ [ -77.22759, 38.71478 ], [ -77.22802, 38.71488 ], [ -77.22691, 38.7142 ], [ -77.22698, 38.71467 ], [ -77.22759, 38.71478 ] ], [ [ -77.22729, 38.71195 ], [ -77.22701, 38.71199 ], [ -77.22724, 38.71206 ], [ -77.22729, 38.71195 ] ], [ [ -77.23234, 38.72043 ], [ -77.23233, 38.72015 ], [ -77.23217, 38.72025 ], [ -77.23234, 38.72043 ] ], [ [ -77.22514, 38.71004 ], [ -77.22513, 38.71006 ], [ -77.22533, 38.70999 ], [ -77.22514, 38.71004 ] ], [ [ -77.22152, 38.71278 ], [ -77.22278, 38.71435 ], [ -77.22306, 38.71372 ], [ -77.22152, 38.71278 ] ], [ [ -77.22453, 38.71426 ], [ -77.22457, 38.71443 ], [ -77.22542, 38.71446 ], [ -77.22542, 38.71416 ], [ -77.22453, 38.71426 ] ] ] } },
{ "type": "Feature", "properties": { "variant": "T2s", "miles": 1.0 }, "geometry": { "type": "Polygon", "coordinates": [ [ [ -77.23678, 38.71402 ], [ -77.23745, 38.71406 ], [ -77.23855, 38.71511 ], [ -77.24027, 38.71524 ], [ -77.24242, 38.71641 ], [ -77.24777, 38.72155 ], [ -77.25067, 38.72324 ], [ -77.25061, 38.7242 ], [ -77.24951, 38.72433 ], [ -77.24745, 38.72276 ], [ -77.24593, 38.72351 ], [ -77.24439, 38.72274 ], [ -77.2427, 38.72446 ], [ -77.24173, 38.72454 ], [ -77.24147, 38.72417 ], [ -77.24229, 38.72277 ], [ -77.24355, 38.72188 ], [ -77.24139, 38.71945 ], [ -77.24274, 38.71838 ], [ -77.24149, 38.7172 ], [ -77.23924, 38.71614 ], [ -77.23834, 38.71636 ], [ -77.2362, 38.71785 ], [ -77.23522, 38.71787 ], [ -77.23521, 38.71709 ], [ -77.23462, 38.71692 ], [ -77.2339, 38.71598 ], [ -77.23463, 38.71532 ], [ -77.23415, 38.71471 ], [ -77.23481, 38.71415 ], [ -77.23571, 38.71466 ], [ -77.23678, 38.71402 ] ], [ [ -77.24645, 38.722 ], [ -77.24357, 38.71924 ], [ -77.24307, 38.71955 ], [ -77.24581, 38.7224 ], [ -77.24645, 38.722 ] ] ] } },
{ "type": "Feature", "properties": { "variant": "T2s", "miles": 1.5 }, "geometry": { "type": "Polygon", "coordinates": [ [ [ -77.24784, 38.72161 ], [ -77.25065, 38.72322 ], [ -77.25073, 38.72407 ], [ -77.25142, 38.72421 ], [ -77.25227, 38.72379 ], [ -77.25334, 38.72461 ], [ -77.25299, 38.72588 ], [ -77.25423, 38.72676 ], [ -77.25383, 38.72755 ], [ -77.25612, 38.72771 ], [ -77.25612, 38.72848 ], [ -77.25238, 38.72864 ], [ -77.25216, 38.72942 ], [ -77.25083, 38.72988 ], [ -77.24842, 38.72944 ], [ -77.24768, 38.72883 ], [ -77.24781, 38.72826 ], [ -77.24705, 38.72802 ], [ -77.24648, 38.72858 ], [ -77.24551, 38.72854 ], [ -77.24533, 38.72815 ], [ -77.24615, 38.72696 ], [ -77.24658, 38.72672 ], [ -77.24771, 38.72707 ], [ -77.24834, 38.72636 ], [ -77.24837, 38.72556 ], [ -77.2499, 38.72584 ], [ -77.25057, 38.72712 ], [ -77.25179, 38.72535 ], [ -77.25002, 38.72496 ], [ -77.24986, 38.72441 ], [ -77.24745, 38.72276 ], [ -77.24593, 38.72351 ], [ -77.24439, 38.72274 ], [ -77.2427, 38.72446 ], [ -77.24173, 38.72454 ], [ -77.24147, 38.72417 ], [ -77.24229, 38.72277 ], [ -77.24355, 38.72188 ], [ -77.24139, 38.71945 ], [ -77.24274, 38.71838 ], [ -77.23976, 38.71625 ], [ -77.23861, 38.71624 ], [ -77.23663, 38.71751 ], [ -77.23986, 38.72049 ], [ -77.24152, 38.72282 ], [ -77.24122, 38.72354 ], [ -77.2403, 38.72331 ], [ -77.23836, 38.72068 ], [ -77.23269, 38.71547 ], [ -77.23172, 38.7163 ], [ -77.23119, 38.71776 ], [ -77.23183, 38.71827 ], [ -77.23173, 38.71867 ], [ -77.22961, 38.71913 ], [ -77.22926, 38.71882 ], [ -77.22964, 38.71779 ], [ -77.22826, 38.71738 ], [ -77.22773, 38.71592 ], [ -77.22864, 38.71564 ], [ -77.2303, 38.71619 ], [ -77.22875, 38.7155 ], [ -77.22766, 38.71445 ], [ -77.22858, 38.71334 ], [ -77.23059, 38.71259 ], [ -77.22856, 38.71082 ], [ -77.22822, 38.70936 ], [ -77.22987, 38.70942 ], [ -77.23093, 38.71041 ], [ -77.23087, 38.71118 ], [ -77.23129, 38.71148 ], [ -77.23238, 38.71119 ], [ -77.23267, 38.71022 ], [ -77.23337, 38.70984 ], [ -77.2355, 38.71076 ], [ -77.23534, 38.71151 ], [ -77.23437, 38.71154 ], [ -77.23398, 38.71235 ], [ -77.2325, 38.71346 ], [ -77.23291, 38.71409 ], [ -77.23356, 38.71381 ], [ -77.23471, 38.71406 ], [ -77.23533, 38.71203 ], [ -77.23806, 38.71201 ], [ -77.23938, 38.7116 ], [ -77.23983, 38.71228 ], [ -77.2391, 38.71275 ], [ -77.23874, 38.71397 ], [ -77.23781, 38.71439 ], [ -77.24238, 38.71637 ], [ -77.24784, 38.72161 ] ], [ [ -77.24581, 38.7224 ], [ -77.24645, 38.722 ], [ -77.24357, 38.71924 ], [ -77.24307, 38.71955 ], [ -77.24581, 38.7224 ] ], [ [ -77.25184, 38.72754 ], [ -77.25243, 38.72756 ], [ -77.25236, 38.7268 ], [ -77.25184, 38.72754 ] ], [ [ -77.2321, 38.71225 ], [ -77.23191, 38.71223 ], [ -77.232, 38.71241 ], [ -77.2321, 38.71225 ] ] ] } },
{ "type": "Feature", "properties": { "variant": "T2s", "miles": 2.0 }, "geometry": { "type": "Polygon", "coordinates": [ [ [ -77.25615, 38.7194 ], [ -77.25694, 38.71984 ], [ -77.25534, 38.72199 ], [ -77.25728, 38.72316 ], [ -77.25793, 38.72264 ], [ -77.25828, 38.72146 ], [ -77.25963, 38.72043 ], [ -77.26015, 38.72047 ], [ -77.26043, 38.7212 ], [ -77.25927, 38.72228 ], [ -77.26064, 38.72254 ], [ -77.26161, 38.72333 ], [ -77.26173, 38.72594 ], [ -77.26223, 38.72676 ], [ -77.26173, 38.72741 ], [ -77.26084, 38.72704 ], [ -77.26028, 38.72756 ], [ -77.26385, 38.72818 ], [ -77.26435, 38.72883 ], [ -77.26131, 38.73046 ], [ -77.26034, 38.73032 ], [ -77.25913, 38.73157 ], [ -77.257, 38.73166 ], [ -77.25739, 38.73238 ], [ -77.25688, 38.73305 ], [ -77.25685, 38.73404 ], [ -77.25768, 38.73511 ], [ -77.25688, 38.73554 ], [ -77.25544, 38.73456 ], [ -77.25557, 38.73341 ], [ -77.25472, 38.73342 ], [ -77.25429, 38.73318 ], [ -77.25439, 38.73256 ], [ -77.25372, 38.73244 ], [ -77.25348, 38.73207 ], [ -77.25408, 38.7315 ], [ -77.25372, 38.73119 ], [ -77.25286, 38.73154 ], [ -77.25232, 38.731 ], [ -77.25283, 38.73005 ], [ -77.25495, 38.72948 ], [ -77.25364, 38.72938 ], [ -77.25253, 38.72864 ], [ -77.25216, 38.72942 ], [ -77.251, 38.72988 ], [ -77.24928, 38.72946 ], [ -77.24785, 38.7298 ], [ -77.24701, 38.72937 ], [ -77.24575, 38.72939 ], [ -77.24552, 38.72907 ], [ -77.24446, 38.72916 ], [ -77.24438, 38.72966 ], [ -77.24335, 38.73004 ], [ -77.24319, 38.73069 ], [ -77.24269, 38.7308 ], [ -77.24178, 38.73054 ], [ -77.2417, 38.72994 ], [ -77.23941, 38.72951 ], [ -77.23836, 38.72872 ], [ -77.23783, 38.72718 ], [ -77.23833, 38.72592 ], [ -77.23949, 38.72533 ], [ -77.24179, 38.72568 ], [ -77.24221, 38.72687 ], [ -77.24314, 38.72703 ], [ -77.24305, 38.7265 ], [ -77.24445, 38.72564 ], [ -77.24771, 38.72707 ], [ -77.24711, 38.72647 ], [ -77.24883, 38.72492 ], [ -77.24981, 38.72497 ], [ -77.24992, 38.72545 ], [ -77.25179, 38.72535 ], [ -77.25002, 38.72496 ], [ -77.24986, 38.72441 ], [ -77.24745, 38.72276 ], [ -77.24593, 38.72351 ], [ -77.24439, 38.72274 ], [ -77.2427, 38.72446 ], [ -77.24173, 38.72454 ], [ -77.24147, 38.72417 ], [ -77.24229, 38.72277 ], [ -77.24355, 38.72188 ], [ -77.24153, 38.71981 ], [ -77.24161, 38.71907 ], [ -77.24274, 38.71838 ], [ -77.2412, 38.71702 ], [ -77.23901, 38.71614 ], [ -77.23663, 38.71751 ], [ -77.23946, 38.72003 ], [ -77.24152, 38.72282 ], [ -77.24086, 38.72425 ], [ -77.23978, 38.72481 ], [ -77.23919, 38.7242 ], [ -77.24, 38.72291 ], [ -77.23966, 38.72248 ], [ -77.23881, 38.72287 ], [ -77.23784, 38.72278 ], [ -77.23676, 38.72139 ], [ -77.23625, 38.72114 ], [ -77.23658, 38.72164 ], [ -77.23632, 38.72209 ], [ -77.23426, 38.72194 ], [ -77.23438, 38.72109 ], [ -77.23586, 38.71961 ], [ -77.23665, 38.71934 ], [ -77.23551, 38.71833 ], [ -77.23367, 38.71905 ], [ -77.23365, 38.72084 ], [ -77.2326, 38.72153 ], [ -77.22968, 38.72042 ], [ -77.22787, 38.72058 ], [ -77.22755, 38.72018 ], [ -77.22808, 38.7188 ], [ -77.22743, 38.71864 ], [ -77.22657, 38.71967 ], [ -77.22561, 38.71953 ], [ -77.22576, 38.71851 ], [ -77.22453, 38.71933 ], [ -77.22317, 38.71939 ], [ -77.22289, 38.72002 ], [ -77.22183, 38.71994 ], [ -77.2222, 38.7186 ], [ -77.22411, 38.71825 ], [ -77.22334, 38.71718 ], [ -77.22375, 38.71627 ], [ -77.2215, 38.71583 ], [ -77.22001, 38.71478 ], [ -77.22007, 38.71401 ], [ -77.22066, 38.71385 ], [ -77.2201, 38.71268 ], [ -77.22044, 38.71235 ], [ -77.2213, 38.71252 ], [ -77.22141, 38.71198 ], [ -77.22257, 38.71182 ], [ -77.22339, 38.7121 ], [ -77.22383, 38.71276 ], [ -77.22513, 38.71196 ], [ -77.22463, 38.71072 ], [ -77.22389, 38.71085 ], [ -77.2231, 38.70967 ], [ -77.22347, 38.70897 ], [ -77.22461, 38.70901 ], [ -77.22369, 38.70872 ], [ -77.22343, 38.70804 ], [ -77.22399, 38.70726 ], [ -77.2249, 38.70726 ], [ -77.22516, 38.70664 ], [ -77.22572, 38.70658 ], [ -77.22581, 38.70543 ], [ -77.22512, 38.705 ], [ -77.22524, 38.7046 ], [ -77.22691, 38.70407 ], [ -77.22715, 38.70321 ], [ -77.22794, 38.70289 ], [ -77.22849, 38.70336 ], [ -77.22841, 38.70404 ], [ -77.22996, 38.70431 ], [ -77.23091, 38.70733 ], [ -77.23196, 38.70848 ], [ -77.23264, 38.70864 ], [ -77.23299, 38.70997 ], [ -77.23416, 38.70939 ], [ -77.23581, 38.70958 ], [ -77.23615, 38.70894 ], [ -77.23666, 38.70885 ], [ -77.23719, 38.70969 ], [ -77.23975, 38.71014 ], [ -77.24049, 38.70943 ], [ -77.24318, 38.70865 ], [ -77.24364, 38.70886 ], [ -77.24353, 38.70962 ], [ -77.23981, 38.71207 ], [ -77.2391, 38.71275 ], [ -77.23874, 38.71397 ], [ -77.23781, 38.71439 ], [ -77.24242, 38.71641 ], [ -77.24777, 38.72155 ], [ -77.24989, 38.72295 ], [ -77.2509, 38.72224 ], [ -77.24978, 38.72015 ], [ -77.25193, 38.71886 ], [ -77.25514, 38.72028 ], [ -77.25615, 38.7194 ] ], [ [ -77.2321, 38.71225 ], [ -77.23191, 38.71223 ], [ -77.23196, 38.71231 ], [ -77.2321, 38.71225 ] ], [ [ -77.23238, 38.71119 ], [ -77.23251, 38.71061 ], [ -77.2315, 38.71057 ], [ -77.231, 38.71127 ], [ -77.23129, 38.71148 ], [ -77.23238, 38.71119 ] ], [ [ -77.24774, 38.72827 ], [ -77.24755, 38.72838 ], [ -77.2477, 38.72843 ], [ -77.24774, 38.72827 ] ], [ [ -77.25107, 38.72355 ], [ -77.25073, 38.72407 ], [ -77.25142, 38.72421 ], [ -77.25186, 38.72382 ], [ -77.25158, 38.72337 ], [ -77.25107, 38.72355 ] ], [ [ -77.25198, 38.72146 ], [ -77.25186, 38.72133 ], [ -77.25206, 38.72163 ], [ -77.25198, 38.72146 ] ], [ [ -77.25131, 38.7206 ], [ -77.25167, 38.72107 ], [ -77.25159, 38.72094 ], [ -77.25131, 38.7206 ] ], [ [ -77.25774, 38.72649 ], [ -77.25865, 38.72622 ], [ -77.25935, 38.72671 ], [ -77.25916, 38.7257 ], [ -77.26041, 38.72562 ], [ -77.26049, 38.72404 ], [ -77.25973, 38.72339 ], [ -77.25854, 38.72365 ], [ -77.2578, 38.72514 ], [ -77.25679, 38.72621 ], [ -77.25581, 38.72662 ], [ -77.25555, 38.72742 ], [ -77.25502, 38.72745 ], [ -77.25446, 38.72694 ], [ -77.25383, 38.72755 ], [ -77.25851, 38.72756 ], [ -77.25774, 38.72649 ] ], [ [ -77.25695, 38.72378 ], [ -77.25628, 38.72378 ], [ -77.25458, 38.72289 ], [ -77.25393, 38.72363 ], [ -77.25523, 38.72423 ], [ -77.25544, 38.72558 ], [ -77.25695, 38.72378 ] ], [ [ -77.2534, 38.72396 ], [ -77.25358, 38.72377 ], [ -77.25329, 38.72372 ], [ -77.2534, 38.72396 ] ], [ [ -77.25331, 38.72537 ], [ -77.25383, 38.72598 ], [ -77.25415, 38.72491 ], [ -77.25356, 38.72455 ], [ -77.25331, 38.72537 ] ], [ [ -77.25265, 38.72263 ], [ -77.25288, 38.72297 ], [ -77.25343, 38.72229 ], [ -77.25265, 38.72263 ] ], [ [ -77.25307, 38.7208 ], [ -77.25419, 38.72139 ], [ -77.25437, 38.72118 ], [ -77.25273, 38.72033 ], [ -77.25307, 38.7208 ] ], [ [ -77.26079, 38.72929 ], [ -77.26151, 38.72884 ], [ -77.26085, 38.72868 ], [ -77.26048, 38.72922 ], [ -77.26079, 38.72929 ] ], [ [ -77.2589, 38.72931 ], [ -77.25863, 38.72934 ], [ -77.25881, 38.72933 ], [ -77.2589, 38.72931 ] ], [ [ -77.25748, 38.72948 ], [ -77.25771, 38.72935 ], [ -77.25709, 38.72927 ], [ -77.25748, 38.72948 ] ], [ [ -77.25816, 38.73068 ], [ -77.25881, 38.73042 ], [ -77.25839, 38.73041 ], [ -77.25816, 38.73068 ] ], [ [ -77.25371, 38.73105 ], [ -77.25374, 38.73092 ], [ -77.25369, 38.73093 ], [ -77.25371, 38.73105 ] ], [ [ -77.24581, 38.7224 ], [ -77.24645, 38.722 ], [ -77.24357, 38.71924 ], [ -77.24307, 38.71955 ], [ -77.24581, 38.7224 ] ], [ [ -77.24406, 38.72789 ], [ -77.24515, 38.72765 ], [ -77.24539, 38.72721 ], [ -77.2447, 38.72688 ], [ -77.24355, 38.72724 ], [ -77.24406, 38.72789 ] ], [ [ -77.23947, 38.72669 ], [ -77.23987, 38.72681 ], [ -77.23959, 38.72624 ], [ -77.23947, 38.72669 ] ], [ [ -77.23416, 38.71374 ], [ -77.23454, 38.71156 ], [ -77.2325, 38.71346 ], [ -77.23291, 38.71409 ], [ -77.23416, 38.71374 ] ], [ [ -77.23693, 38.71075 ], [ -77.23683, 38.71124 ], [ -77.23829, 38.71145 ], [ -77.23857, 38.71096 ], [ -77.23693, 38.71075 ] ], [ [ -77.22919, 38.71148 ], [ -77.2288, 38.7111 ], [ -77.22924, 38.71164 ], [ -77.22919, 38.71148 ] ], [ [ -77.23338, 38.71799 ], [ -77.2347, 38.71744 ], [ -77.23269, 38.71547 ], [ -77.23172, 38.7163 ], [ -77.23148, 38.71726 ], [ -77.23338, 38.71799 ] ], [ [ -77.23234, 38.72043 ], [ -77.23233, 38.72015 ], [ -77.23217, 38.72025 ], [ -77.23234, 38.72043 ] ], [ [ -77.22759, 38.71478 ], [ -77.22802, 38.71488 ], [ -77.22691, 38.7142 ], [ -77.22698, 38.71467 ], [ -77.22759, 38.71478 ] ], [ [ -77.22729, 38.71195 ], [ -77.22701, 38.71199 ], [ -77.22724, 38.71206 ], [ -77.22729, 38.71195 ] ], [ [ -77.22533, 38.70994 ], [ -77.22513, 38.71006 ], [ -77.2252, 38.71003 ], [ -77.22533, 38.70994 ] ], [ [ -77.22152, 38.71278 ], [ -77.22278, 38.71435 ], [ -77.22306, 38.71372 ], [ -77.22152, 38.71278 ] ], [ [ -77.22453, 38.71426 ], [ -77.22457, 38.71443 ], [ -77.22542, 38.71446 ], [ -77.22542, 38.71416 ], [ -77.22453, 38.71426 ] ] ] } }
]
}
