{
"type": "FeatureCollection",
"name": "424",
"crs": { "type": "name", "properties": { "name": "urn:ogc:def:crs:OGC:1.3:CRS84" } },
"xy_coordinate_resolution": 1e-05,
"features": [
{ "type": "Feature", "properties": { "variant": "T0", "miles": 0.5 }, "geometry": { "type": "Polygon", "coordinates": [ [ [ -77.37659, 38.82663 ], [ -77.37756, 38.82674 ], [ -77.3781, 38.82964 ], [ -77.3799, 38.83096 ], [ -77.37934, 38.83158 ], [ -77.3776, 38.83083 ], [ -77.37685, 38.8301 ], [ -77.37621, 38.82798 ], [ -77.37659, 38.82663 ] ] ] } },
{ "type": "Feature", "properties": { "variant": "T0", "miles": 1.0 }, "geometry": { "type": "Polygon", "coordinates": [ [ [ -77.37391, 38.82603 ], [ -77.38594, 38.82695 ], [ -77.38696, 38.82646 ], [ -77.38752, 38.82708 ], [ -77.38663, 38.82862 ], [ -77.38552, 38.82927 ], [ -77.38483, 38.82873 ], [ -77.3853, 38.82814 ], [ -77.38113, 38.82791 ], [ -77.38131, 38.82961 ], [ -77.38071, 38.83023 ], [ -77.37933, 38.82939 ], [ -77.37887, 38.82785 ], [ -77.37761, 38.82781 ], [ -77.37816, 38.82973 ], [ -77.3799, 38.83096 ], [ -77.37934, 38.83158 ], [ -77.37697, 38.83029 ], [ -77.37623, 38.82772 ], [ -77.37445, 38.82733 ], [ -77.37275, 38.82752 ], [ -77.37321, 38.82832 ], [ -77.37313, 38.83044 ], [ -77.37378, 38.83103 ], [ -77.37333, 38.83196 ], [ -77.37183, 38.83132 ], [ -77.37175, 38.83052 ], [ -77.37134, 38.83111 ], [ -77.37037, 38.83105 ], [ -77.3704, 38.8282 ], [ -77.36998, 38.82967 ], [ -77.3695, 38.82984 ], [ -77.36861, 38.82971 ], [ -77.36875, 38.82876 ], [ -77.36652, 38.82943 ], [ -77.36561, 38.82916 ], [ -77.3656, 38.82874 ], [ -77.36697, 38.82793 ], [ -77.37012, 38.82696 ], [ -77.36988, 38.82598 ], [ -77.3693, 38.82559 ], [ -77.36985, 38.82495 ], [ -77.37084, 38.82496 ], [ -77.37143, 38.82654 ], [ -77.37391, 38.82603 ] ], [ [ -77.37179, 38.82944 ], [ -77.37178, 38.82833 ], [ -77.37173, 38.82944 ], [ -77.37179, 38.82944 ] ] ] } },
{ "type": "Feature", "properties": { "variant": "T0", "miles": 1.5 }, "geometry": { "type": "Polygon", "coordinates": [ [ [ -77.38597, 38.82595 ], [ -77.38911, 38.82693 ], [ -77.38925, 38.8278 ], [ -77.39587, 38.83027 ], [ -77.39615, 38.831 ], [ -77.39521, 38.83122 ], [ -77.39398, 38.83068 ], [ -77.39289, 38.83176 ], [ -77.39322, 38.8324 ], [ -77.39296, 38.83276 ], [ -77.39245, 38.83286 ], [ -77.39159, 38.83214 ], [ -77.39084, 38.83214 ], [ -77.39082, 38.83293 ], [ -77.38953, 38.83281 ], [ -77.38882, 38.83322 ], [ -77.38821, 38.83262 ], [ -77.38849, 38.83164 ], [ -77.38753, 38.8312 ], [ -77.38806, 38.83418 ], [ -77.38725, 38.83461 ], [ -77.3854, 38.83381 ], [ -77.38532, 38.8334 ], [ -77.38637, 38.83302 ], [ -77.3865, 38.83248 ], [ -77.38513, 38.83199 ], [ -77.38564, 38.83135 ], [ -77.38379, 38.83184 ], [ -77.38209, 38.83141 ], [ -77.38139, 38.83069 ], [ -77.38145, 38.82972 ], [ -77.38129, 38.82952 ], [ -77.38071, 38.83023 ], [ -77.37933, 38.82939 ], [ -77.37887, 38.82785 ], [ -77.37759, 38.828 ], [ -77.37816, 38.82973 ], [ -77.3799, 38.83096 ], [ -77.37934, 38.83158 ], [ -77.37697, 38.83029 ], [ -77.37623, 38.82772 ], [ -77.3741, 38.82728 ], [ -77.37277, 38.82747 ], [ -77.37321, 38.82832 ], [ -77.37313, 38.83044 ], [ -77.37376, 38.83095 ], [ -77.37374, 38.8317 ], [ -77.37179, 38.83264 ], [ -77.37257, 38.83337 ], [ -77.3717, 38.83402 ], [ -77.37029, 38.83289 ], [ -77.37018, 38.83163 ], [ -77.36921, 38.83152 ], [ -77.36903, 38.83113 ], [ -77.36943, 38.83035 ], [ -77.37025, 38.83012 ], [ -77.3704, 38.8282 ], [ -77.36998, 38.82967 ], [ -77.3695, 38.82984 ], [ -77.36861, 38.82971 ], [ -77.36849, 38.82876 ], [ -77.36298, 38.8309 ], [ -77.35979, 38.83119 ], [ -77.35792, 38.83103 ], [ -77.3572, 38.83052 ], [ -77.35786, 38.82995 ], [ -77.36156, 38.82963 ], [ -77.37012, 38.82696 ], [ -77.36951, 38.82584 ], [ -77.36937, 38.82691 ], [ -77.36735, 38.82705 ], [ -77.36693, 38.8254 ], [ -77.36607, 38.8253 ], [ -77.36562, 38.82476 ], [ -77.3663, 38.82421 ], [ -77.37117, 38.8244 ], [ -77.37191, 38.82493 ], [ -77.37247, 38.82623 ], [ -77.37395, 38.82603 ], [ -77.37709, 38.82653 ], [ -77.38354, 38.82669 ], [ -77.3837, 38.82538 ], [ -77.38072, 38.82134 ], [ -77.38046, 38.81834 ], [ -77.38104, 38.81773 ], [ -77.38183, 38.81818 ], [ -77.38215, 38.82125 ], [ -77.38499, 38.825 ], [ -77.38491, 38.82622 ], [ -77.38597, 38.82595 ] ], [ [ -77.3864, 38.83028 ], [ -77.38431, 38.82866 ], [ -77.38252, 38.82869 ], [ -77.38275, 38.82921 ], [ -77.3864, 38.83028 ] ], [ [ -77.38649, 38.82875 ], [ -77.38652, 38.82878 ], [ -77.38653, 38.82871 ], [ -77.38649, 38.82875 ] ], [ [ -77.39117, 38.83107 ], [ -77.39179, 38.831 ], [ -77.39234, 38.83072 ], [ -77.39138, 38.83043 ], [ -77.39117, 38.83107 ] ], [ [ -77.38154, 38.82791 ], [ -77.38117, 38.8282 ], [ -77.38117, 38.82843 ], [ -77.38154, 38.82791 ] ], [ [ -77.38271, 38.83037 ], [ -77.38353, 38.83073 ], [ -77.38387, 38.83076 ], [ -77.38271, 38.83037 ] ], [ [ -77.37164, 38.83157 ], [ -77.3716, 38.83052 ], [ -77.37156, 38.83159 ], [ -77.37164, 38.83157 ] ], [ [ -77.37179, 38.82944 ], [ -77.37178, 38.82833 ], [ -77.37173, 38.82944 ], [ -77.37179, 38.82944 ] ] ] } },
{ "type": "Feature", "properties": { "variant": "T2s", "miles": 0.5 }, "geometry": { "type": "Polygon", "coordinates": [ [ [ -77.37934, 38.83158 ], [ -77.37693, 38.83023 ], [ -77.37625, 38.82826 ], [ -77.37629, 38.82717 ], [ -77.37704, 38.82668 ], [ -77.37767, 38.82726 ], [ -77.37816, 38.82973 ], [ -77.3799, 38.83096 ], [ -77.37934, 38.83158 ] ] ] } },
{ "type": "Feature", "properties": { "variant": "T2s", "miles": 1.0 }, "geometry": { "type": "Polygon", "coordinates": [ [ [ -77.3741, 38.82728 ], [ -77.37275, 38.82752 ], [ -77.37321, 38.82832 ], [ -77.37313, 38.83044 ], [ -77.37378, 38.83103 ], [ -77.37333, 38.83196 ], [ -77.37183, 38.83132 ], [ -77.37175, 38.83052 ], [ -77.37134, 38.83111 ], [ -77.37037, 38.83105 ], [ -77.3704, 38.8282 ], [ -77.36998, 38.82967 ], [ -77.3695, 38.82984 ], [ -77.36861, 38.82971 ], [ -77.36875, 38.82876 ], [ -77.36652, 38.82943 ], [ -77.36561, 38.82916 ], [ -77.3656, 38.82874 ], [ -77.36697, 38.82793 ], [ -77.37345, 38.82618 ], [ -77.37708, 38.82668 ], [ -77.38462, 38.82689 ], [ -77.38663, 38.82723 ], [ -77.38703, 38.82789 ], [ -77.38649, 38.82828 ], [ -77.38113, 38.82791 ], [ -77.38131, 38.82961 ], [ -77.38071, 38.83023 ], [ -77.37933, 38.82939 ], [ -77.37887, 38.82785 ], [ -77.37761, 38.82781 ], [ -77.37816, 38.82973 ], [ -77.3799, 38.83096 ], [ -77.37934, 38.83158 ], [ -77.37697, 38.83029 ], [ -77.37623, 38.82772 ], [ -77.3741, 38.82728 ] ], [ [ -77.37179, 38.82944 ], [ -77.37178, 38.82833 ], [ -77.37173, 38.82944 ], [ -77.37179, 38.82944 ] ] ] } },
{ "type": "Feature", "properties": { "variant": "T2s", "miles": 1.5 }, "geometry": { "type": "Polygon", "coordinates": [ [ [ -77.37883, 38.82785 ], [ -77.37759, 38.828 ], [ -77.37816, 38.82973 ], [ -77.3799, 38.83096 ], [ -77.37934, 38.83158 ], [ -77.37697, 38.83029 ], [ -77.37623, 38.82772 ], [ -77.3741, 38.82728 ], [ -77.37277, 38.82747 ], [ -77.37321, 38.82832 ], [ -77.37313, 38.83044 ], [ -77.37376, 38.83095 ], [ -77.37374, 38.8317 ], [ -77.37179, 38.83264 ], [ -77.37257, 38.83337 ], [ -77.3717, 38.83402 ], [ -77.37029, 38.83289 ], [ -77.37018, 38.83163 ], [ -77.36921, 38.83152 ], [ -77.36903, 38.83113 ], [ -77.36943, 38.83035 ], [ -77.37025, 38.83012 ], [ -77.3704, 38.8282 ], [ -77.36998, 38.82967 ], [ -77.3695, 38.82984 ], [ -77.36861, 38.82971 ], [ -77.36849, 38.82876 ], [ -77.36309, 38.83089 ], [ -77.35979, 38.83119 ], [ -77.35906, 38.8307 ], [ -77.35959, 38.82998 ], [ -77.37184, 38.82641 ], [ -77.37384, 38.82616 ], [ -77.37708, 38.82668 ], [ -77.38542, 38.827 ], [ -77.39161, 38.82862 ], [ -77.39205, 38.8291 ], [ -77.39113, 38.83025 ], [ -77.39142, 38.83087 ], [ -77.39106, 38.83116 ], [ -77.3899, 38.83098 ], [ -77.38958, 38.83274 ], [ -77.38882, 38.83322 ], [ -77.38821, 38.83262 ], [ -77.38849, 38.83164 ], [ -77.38753, 38.8312 ], [ -77.38769, 38.83212 ], [ -77.38588, 38.83247 ], [ -77.38513, 38.83199 ], [ -77.38564, 38.83135 ], [ -77.38212, 38.83017 ], [ -77.38129, 38.82952 ], [ -77.38118, 38.83 ], [ -77.38019, 38.83014 ], [ -77.37907, 38.82903 ], [ -77.37883, 38.82785 ] ], [ [ -77.38639, 38.83027 ], [ -77.38431, 38.82866 ], [ -77.38252, 38.82869 ], [ -77.38275, 38.82921 ], [ -77.38639, 38.83027 ] ], [ [ -77.38652, 38.82878 ], [ -77.38653, 38.82871 ], [ -77.38648, 38.82875 ], [ -77.38652, 38.82878 ] ], [ [ -77.38113, 38.82791 ], [ -77.38117, 38.8282 ], [ -77.38117, 38.82843 ], [ -77.38154, 38.82791 ], [ -77.38113, 38.82791 ] ], [ [ -77.37175, 38.83052 ], [ -77.37158, 38.83072 ], [ -77.37156, 38.83159 ], [ -77.37175, 38.83052 ] ], [ [ -77.37179, 38.82944 ], [ -77.37178, 38.82833 ], [ -77.37173, 38.82944 ], [ -77.37179, 38.82944 ] ] ] } }
]
}
