{
"type": "FeatureCollection",
"name": "436",
"crs": { "type": "name", "properties": { "name": "urn:ogc:def:crs:OGC:1.3:CRS84" } },
"xy_coordinate_resolution": 1e-05,
"features": [
{ "type": "Feature", "properties": { "variant": "T0", "miles": 0.5 }, "geometry": { "type": "Polygon", "coordinates": [ [ [ -77.4439, 38.82206 ], [ -77.44472, 38.82171 ], [ -77.44534, 38.822 ], [ -77.44524, 38.82419 ], [ -77.44682, 38.82413 ], [ -77.44637, 38.82341 ], [ -77.44668, 38.82268 ], [ -77.44761, 38.82293 ], [ -77.44807, 38.82368 ], [ -77.44887, 38.82303 ], [ -77.4498, 38.82319 ], [ -77.44997, 38.82358 ], [ -77.4492, 38.82432 ], [ -77.44951, 38.82463 ], [ -77.44906, 38.82603 ], [ -77.44939, 38.82637 ], [ -77.45014, 38.82601 ], [ -77.45058, 38.82624 ], [ -77.45067, 38.82671 ], [ -77.45164, 38.82712 ], [ -77.45134, 38.82785 ], [ -77.44871, 38.82731 ], [ -77.44787, 38.82659 ], [ -77.44766, 38.82557 ], [ -77.44606, 38.82532 ], [ -77.44207, 38.82664 ], [ -77.44167, 38.82777 ], [ -77.44252, 38.82813 ], [ -77.44226, 38.82886 ], [ -77.44028, 38.82846 ], [ -77.43998, 38.82774 ], [ -77.44074, 38.82483 ], [ -77.44349, 38.82288 ], [ -77.4439, 38.82206 ] ] ] } },
{ "type": "Feature", "properties": { "variant": "T0", "miles": 1.0 }, "geometry": { "type": "Polygon", "coordinates": [ [ [ -77.44459, 38.81867 ], [ -77.44574, 38.81704 ], [ -77.44663, 38.81735 ], [ -77.44573, 38.81931 ], [ -77.447, 38.82061 ], [ -77.44735, 38.82155 ], [ -77.44841, 38.82221 ], [ -77.44807, 38.82368 ], [ -77.44933, 38.823 ], [ -77.44997, 38.82358 ], [ -77.44921, 38.82431 ], [ -77.4518, 38.82512 ], [ -77.45422, 38.8243 ], [ -77.45462, 38.82493 ], [ -77.4555, 38.8251 ], [ -77.45554, 38.82571 ], [ -77.45496, 38.8263 ], [ -77.45405, 38.82648 ], [ -77.45289, 38.82602 ], [ -77.45173, 38.82621 ], [ -77.44902, 38.82574 ], [ -77.44939, 38.82637 ], [ -77.45014, 38.82601 ], [ -77.45067, 38.82671 ], [ -77.4517, 38.82697 ], [ -77.45259, 38.82654 ], [ -77.4537, 38.82763 ], [ -77.45362, 38.82804 ], [ -77.45267, 38.82833 ], [ -77.45253, 38.82909 ], [ -77.4511, 38.82897 ], [ -77.45101, 38.82944 ], [ -77.45242, 38.83077 ], [ -77.45194, 38.832 ], [ -77.4505, 38.83259 ], [ -77.44807, 38.83111 ], [ -77.44753, 38.83191 ], [ -77.44527, 38.83137 ], [ -77.44543, 38.83244 ], [ -77.44445, 38.83292 ], [ -77.44318, 38.83256 ], [ -77.44191, 38.83142 ], [ -77.44168, 38.83186 ], [ -77.44302, 38.83324 ], [ -77.44285, 38.83368 ], [ -77.44201, 38.83418 ], [ -77.44046, 38.83379 ], [ -77.44139, 38.83501 ], [ -77.44039, 38.8353 ], [ -77.4398, 38.83598 ], [ -77.43903, 38.83551 ], [ -77.43896, 38.8344 ], [ -77.43696, 38.83516 ], [ -77.43632, 38.83458 ], [ -77.43665, 38.83419 ], [ -77.43486, 38.83357 ], [ -77.43481, 38.83302 ], [ -77.43315, 38.83226 ], [ -77.4336, 38.83114 ], [ -77.43506, 38.83104 ], [ -77.43392, 38.83047 ], [ -77.43286, 38.83165 ], [ -77.43193, 38.83187 ], [ -77.43114, 38.83089 ], [ -77.43149, 38.83 ], [ -77.4294, 38.82901 ], [ -77.42995, 38.82791 ], [ -77.42967, 38.82692 ], [ -77.43062, 38.8266 ], [ -77.4314, 38.82709 ], [ -77.43269, 38.8269 ], [ -77.43199, 38.82602 ], [ -77.43092, 38.82588 ], [ -77.43079, 38.82512 ], [ -77.4327, 38.82502 ], [ -77.43396, 38.82567 ], [ -77.43459, 38.82514 ], [ -77.43356, 38.82431 ], [ -77.43384, 38.82358 ], [ -77.43583, 38.82416 ], [ -77.43624, 38.82576 ], [ -77.43682, 38.82581 ], [ -77.43835, 38.82377 ], [ -77.43817, 38.82313 ], [ -77.43908, 38.82282 ], [ -77.44249, 38.8183 ], [ -77.44338, 38.81812 ], [ -77.44459, 38.81867 ] ], [ [ -77.44257, 38.82074 ], [ -77.44264, 38.82093 ], [ -77.44293, 38.82029 ], [ -77.44257, 38.82074 ] ], [ [ -77.44637, 38.82823 ], [ -77.44627, 38.82805 ], [ -77.44627, 38.82818 ], [ -77.44637, 38.82823 ] ], [ [ -77.44623, 38.82787 ], [ -77.4475, 38.82706 ], [ -77.4485, 38.82719 ], [ -77.44784, 38.82654 ], [ -77.44766, 38.82557 ], [ -77.44592, 38.82533 ], [ -77.444, 38.82593 ], [ -77.4457, 38.82669 ], [ -77.44623, 38.82787 ] ], [ [ -77.45107, 38.83109 ], [ -77.44983, 38.83001 ], [ -77.44959, 38.8293 ], [ -77.44841, 38.82904 ], [ -77.44813, 38.82824 ], [ -77.44659, 38.82837 ], [ -77.44806, 38.82974 ], [ -77.4491, 38.82964 ], [ -77.44925, 38.83036 ], [ -77.45081, 38.83137 ], [ -77.45107, 38.83109 ] ], [ [ -77.44524, 38.82419 ], [ -77.44622, 38.8241 ], [ -77.44682, 38.82413 ], [ -77.44528, 38.82359 ], [ -77.44524, 38.82419 ] ], [ [ -77.4451, 38.82273 ], [ -77.44691, 38.8226 ], [ -77.44593, 38.82199 ], [ -77.4451, 38.82273 ] ], [ [ -77.44473, 38.82113 ], [ -77.44506, 38.82088 ], [ -77.44571, 38.82075 ], [ -77.44512, 38.82042 ], [ -77.44473, 38.82113 ] ], [ [ -77.45404, 38.82538 ], [ -77.45421, 38.82538 ], [ -77.45423, 38.82531 ], [ -77.45404, 38.82538 ] ], [ [ -77.44322, 38.83103 ], [ -77.44335, 38.831 ], [ -77.44319, 38.83097 ], [ -77.44322, 38.83103 ] ], [ [ -77.43895, 38.83389 ], [ -77.4386, 38.83324 ], [ -77.43821, 38.83356 ], [ -77.43895, 38.83389 ] ], [ [ -77.43875, 38.83155 ], [ -77.43938, 38.82945 ], [ -77.43892, 38.82925 ], [ -77.43805, 38.83096 ], [ -77.43875, 38.83155 ] ], [ [ -77.43419, 38.82932 ], [ -77.43525, 38.8279 ], [ -77.43162, 38.82831 ], [ -77.43289, 38.82883 ], [ -77.43396, 38.82847 ], [ -77.43419, 38.82932 ] ], [ [ -77.43492, 38.82664 ], [ -77.43498, 38.82642 ], [ -77.43485, 38.8265 ], [ -77.43492, 38.82664 ] ], [ [ -77.43749, 38.82874 ], [ -77.44039, 38.82702 ], [ -77.43707, 38.82806 ], [ -77.4357, 38.82993 ], [ -77.43681, 38.83042 ], [ -77.43749, 38.82874 ] ], [ [ -77.43843, 38.82632 ], [ -77.4387, 38.8262 ], [ -77.43855, 38.82617 ], [ -77.43843, 38.82632 ] ], [ [ -77.44088, 38.82411 ], [ -77.44077, 38.82319 ], [ -77.43972, 38.82458 ], [ -77.44088, 38.82411 ] ], [ [ -77.43949, 38.82588 ], [ -77.44048, 38.82576 ], [ -77.44049, 38.82548 ], [ -77.43949, 38.82588 ] ] ] } },
{ "type": "Feature", "properties": { "variant": "T0", "miles": 1.5 }, "geometry": { "type": "Polygon", "coordinates": [ [ [ -77.45037, 38.81114 ], [ -77.45214, 38.81286 ], [ -77.45211, 38.81433 ], [ -77.45012, 38.81575 ], [ -77.45011, 38.81672 ], [ -77.44954, 38.81728 ], [ -77.44871, 38.81743 ], [ -77.44797, 38.81695 ], [ -77.44798, 38.81911 ], [ -77.44701, 38.81915 ], [ -77.44616, 38.81852 ], [ -77.44573, 38.81931 ], [ -77.44614, 38.81969 ], [ -77.45176, 38.81902 ], [ -77.45068, 38.81734 ], [ -77.45106, 38.81664 ], [ -77.45236, 38.81711 ], [ -77.45316, 38.8188 ], [ -77.45392, 38.81869 ], [ -77.45335, 38.81827 ], [ -77.4538, 38.81759 ], [ -77.45468, 38.81779 ], [ -77.45541, 38.8185 ], [ -77.45682, 38.81835 ], [ -77.45759, 38.81882 ], [ -77.457, 38.81942 ], [ -77.45234, 38.82003 ], [ -77.45331, 38.82037 ], [ -77.45354, 38.82111 ], [ -77.45126, 38.82215 ], [ -77.44886, 38.82042 ], [ -77.44737, 38.82071 ], [ -77.45005, 38.82201 ], [ -77.45118, 38.82343 ], [ -77.45298, 38.82374 ], [ -77.45334, 38.82445 ], [ -77.45422, 38.8243 ], [ -77.45462, 38.82493 ], [ -77.4555, 38.8251 ], [ -77.45534, 38.82602 ], [ -77.45424, 38.82648 ], [ -77.45289, 38.82602 ], [ -77.45173, 38.82621 ], [ -77.44902, 38.82574 ], [ -77.44939, 38.82637 ], [ -77.45014, 38.82601 ], [ -77.45067, 38.82671 ], [ -77.4517, 38.82697 ], [ -77.45259, 38.82654 ], [ -77.4537, 38.82763 ], [ -77.45362, 38.82804 ], [ -77.45267, 38.82833 ], [ -77.45253, 38.82909 ], [ -77.4511, 38.82897 ], [ -77.45099, 38.82926 ], [ -77.45234, 38.83058 ], [ -77.45223, 38.83168 ], [ -77.45108, 38.83249 ], [ -77.44854, 38.83564 ], [ -77.44612, 38.83728 ], [ -77.44608, 38.83782 ], [ -77.44204, 38.83904 ], [ -77.44191, 38.84085 ], [ -77.4398, 38.84237 ], [ -77.43898, 38.84172 ], [ -77.4405, 38.84031 ], [ -77.4405, 38.83924 ], [ -77.43769, 38.83928 ], [ -77.43737, 38.84011 ], [ -77.43578, 38.84157 ], [ -77.4349, 38.84159 ], [ -77.43364, 38.84082 ], [ -77.43407, 38.83932 ], [ -77.43219, 38.83915 ], [ -77.43146, 38.83954 ], [ -77.43077, 38.83931 ], [ -77.43122, 38.83688 ], [ -77.43063, 38.83664 ], [ -77.42888, 38.83936 ], [ -77.4279, 38.83927 ], [ -77.42771, 38.83838 ], [ -77.42885, 38.83687 ], [ -77.42749, 38.83647 ], [ -77.42715, 38.83564 ], [ -77.42776, 38.83505 ], [ -77.42829, 38.83509 ], [ -77.42955, 38.83594 ], [ -77.43016, 38.83514 ], [ -77.42964, 38.8346 ], [ -77.42879, 38.83469 ], [ -77.42843, 38.83439 ], [ -77.42882, 38.83338 ], [ -77.42741, 38.83301 ], [ -77.42559, 38.83344 ], [ -77.4248, 38.83298 ], [ -77.42598, 38.83203 ], [ -77.42596, 38.83156 ], [ -77.42683, 38.83114 ], [ -77.42574, 38.83098 ], [ -77.42516, 38.83044 ], [ -77.42559, 38.82976 ], [ -77.42628, 38.82993 ], [ -77.42673, 38.82946 ], [ -77.4258, 38.82899 ], [ -77.42552, 38.82797 ], [ -77.42586, 38.82765 ], [ -77.42698, 38.82776 ], [ -77.42624, 38.82714 ], [ -77.42656, 38.82533 ], [ -77.42705, 38.82458 ], [ -77.42833, 38.82464 ], [ -77.4281, 38.82377 ], [ -77.42904, 38.82334 ], [ -77.42768, 38.82267 ], [ -77.42776, 38.82191 ], [ -77.42854, 38.82189 ], [ -77.42923, 38.82067 ], [ -77.42974, 38.82056 ], [ -77.43039, 38.82101 ], [ -77.43053, 38.82177 ], [ -77.43154, 38.82147 ], [ -77.43081, 38.82057 ], [ -77.43129, 38.8199 ], [ -77.4333, 38.82095 ], [ -77.43514, 38.82032 ], [ -77.43438, 38.82013 ], [ -77.43412, 38.81948 ], [ -77.43324, 38.81907 ], [ -77.43355, 38.81835 ], [ -77.43492, 38.81844 ], [ -77.43544, 38.81914 ], [ -77.43683, 38.81883 ], [ -77.43554, 38.81785 ], [ -77.43588, 38.8171 ], [ -77.4364, 38.81703 ], [ -77.43688, 38.81748 ], [ -77.43783, 38.81717 ], [ -77.43736, 38.81614 ], [ -77.43688, 38.81596 ], [ -77.4359, 38.81637 ], [ -77.43553, 38.81608 ], [ -77.43665, 38.81408 ], [ -77.43718, 38.81409 ], [ -77.43744, 38.81497 ], [ -77.43853, 38.81552 ], [ -77.43958, 38.81538 ], [ -77.43997, 38.81608 ], [ -77.44077, 38.81606 ], [ -77.44104, 38.81656 ], [ -77.44223, 38.81679 ], [ -77.44265, 38.81641 ], [ -77.44204, 38.81585 ], [ -77.44248, 38.81517 ], [ -77.44224, 38.81388 ], [ -77.44255, 38.81354 ], [ -77.44515, 38.81343 ], [ -77.44532, 38.81204 ], [ -77.44616, 38.811 ], [ -77.44705, 38.8113 ], [ -77.44655, 38.81269 ], [ -77.44766, 38.81326 ], [ -77.44984, 38.81117 ], [ -77.45037, 38.81114 ] ], [ [ -77.4416, 38.83782 ], [ -77.44191, 38.83774 ], [ -77.44145, 38.83766 ], [ -77.4416, 38.83782 ] ], [ [ -77.44049, 38.83413 ], [ -77.44168, 38.83409 ], [ -77.44046, 38.83379 ], [ -77.44049, 38.83413 ] ], [ [ -77.43699, 38.83027 ], [ -77.43749, 38.82874 ], [ -77.44039, 38.82702 ], [ -77.43707, 38.82806 ], [ -77.4357, 38.82993 ], [ -77.43699, 38.83027 ] ], [ [ -77.43702, 38.82555 ], [ -77.43835, 38.82377 ], [ -77.43817, 38.82313 ], [ -77.43933, 38.82248 ], [ -77.43819, 38.82199 ], [ -77.43838, 38.8209 ], [ -77.43779, 38.81965 ], [ -77.43649, 38.82009 ], [ -77.43768, 38.82034 ], [ -77.43765, 38.8211 ], [ -77.43536, 38.8214 ], [ -77.43281, 38.82231 ], [ -77.43357, 38.82271 ], [ -77.43418, 38.82228 ], [ -77.43468, 38.82243 ], [ -77.4357, 38.823 ], [ -77.43569, 38.82333 ], [ -77.43663, 38.82313 ], [ -77.43712, 38.82409 ], [ -77.43676, 38.82502 ], [ -77.4362, 38.82512 ], [ -77.43624, 38.82576 ], [ -77.43702, 38.82555 ] ], [ [ -77.44366, 38.83289 ], [ -77.44767, 38.83352 ], [ -77.44839, 38.83401 ], [ -77.44962, 38.8326 ], [ -77.44955, 38.83182 ], [ -77.44816, 38.83306 ], [ -77.44623, 38.83294 ], [ -77.4459, 38.83262 ], [ -77.44634, 38.83196 ], [ -77.44584, 38.83136 ], [ -77.44527, 38.83137 ], [ -77.44543, 38.83244 ], [ -77.44445, 38.83292 ], [ -77.44318, 38.83256 ], [ -77.44191, 38.83142 ], [ -77.44168, 38.83186 ], [ -77.44302, 38.83324 ], [ -77.44276, 38.83376 ], [ -77.44366, 38.83289 ] ], [ [ -77.4457, 38.82669 ], [ -77.44623, 38.82787 ], [ -77.44712, 38.82713 ], [ -77.4485, 38.82719 ], [ -77.44727, 38.82545 ], [ -77.44592, 38.82533 ], [ -77.444, 38.82593 ], [ -77.4457, 38.82669 ] ], [ [ -77.44243, 38.82092 ], [ -77.44291, 38.82034 ], [ -77.44293, 38.82029 ], [ -77.44243, 38.82092 ] ], [ [ -77.44952, 38.81429 ], [ -77.45047, 38.8136 ], [ -77.44905, 38.81412 ], [ -77.44888, 38.81476 ], [ -77.44956, 38.81473 ], [ -77.44952, 38.81429 ] ], [ [ -77.44682, 38.82413 ], [ -77.44528, 38.82359 ], [ -77.44502, 38.82381 ], [ -77.44524, 38.82419 ], [ -77.44682, 38.82413 ] ], [ [ -77.44807, 38.82368 ], [ -77.44903, 38.823 ], [ -77.44864, 38.82248 ], [ -77.44791, 38.82341 ], [ -77.44807, 38.82368 ] ], [ [ -77.44512, 38.82042 ], [ -77.44476, 38.82095 ], [ -77.44464, 38.82127 ], [ -77.44555, 38.82081 ], [ -77.44512, 38.82042 ] ], [ [ -77.44705, 38.82877 ], [ -77.44817, 38.82867 ], [ -77.44813, 38.82824 ], [ -77.44659, 38.82837 ], [ -77.44705, 38.82877 ] ], [ [ -77.44627, 38.82818 ], [ -77.44637, 38.82823 ], [ -77.44627, 38.82805 ], [ -77.44627, 38.82818 ] ], [ [ -77.45081, 38.83137 ], [ -77.45105, 38.83099 ], [ -77.45074, 38.83075 ], [ -77.45081, 38.83137 ] ], [ [ -77.44967, 38.82975 ], [ -77.44959, 38.8293 ], [ -77.44904, 38.82936 ], [ -77.44967, 38.82975 ] ], [ [ -77.45037, 38.82431 ], [ -77.44981, 38.82383 ], [ -77.44921, 38.82431 ], [ -77.45175, 38.82512 ], [ -77.45261, 38.82484 ], [ -77.45037, 38.82431 ] ], [ [ -77.45404, 38.82538 ], [ -77.45421, 38.82538 ], [ -77.45423, 38.82531 ], [ -77.45404, 38.82538 ] ], [ [ -77.44691, 38.8226 ], [ -77.44593, 38.82199 ], [ -77.4451, 38.82273 ], [ -77.44532, 38.82296 ], [ -77.44691, 38.8226 ] ], [ [ -77.44459, 38.81867 ], [ -77.44578, 38.81654 ], [ -77.44429, 38.81853 ], [ -77.44459, 38.81867 ] ], [ [ -77.44652, 38.83454 ], [ -77.44658, 38.8345 ], [ -77.44648, 38.83449 ], [ -77.44652, 38.83454 ] ], [ [ -77.44335, 38.831 ], [ -77.44319, 38.83097 ], [ -77.44322, 38.83103 ], [ -77.44335, 38.831 ] ], [ [ -77.44049, 38.82548 ], [ -77.43949, 38.82588 ], [ -77.43942, 38.82594 ], [ -77.44048, 38.82576 ], [ -77.44049, 38.82548 ] ], [ [ -77.4387, 38.8262 ], [ -77.43855, 38.82617 ], [ -77.43843, 38.82632 ], [ -77.4387, 38.8262 ] ], [ [ -77.44088, 38.82411 ], [ -77.44077, 38.82319 ], [ -77.43972, 38.82458 ], [ -77.44088, 38.82411 ] ], [ [ -77.43981, 38.82183 ], [ -77.44196, 38.81898 ], [ -77.43895, 38.81905 ], [ -77.43981, 38.82183 ] ], [ [ -77.44272, 38.83495 ], [ -77.4427, 38.83497 ], [ -77.44285, 38.83491 ], [ -77.44272, 38.83495 ] ], [ [ -77.44304, 38.83484 ], [ -77.44364, 38.83473 ], [ -77.44322, 38.83478 ], [ -77.44304, 38.83484 ] ], [ [ -77.43936, 38.83058 ], [ -77.43938, 38.82945 ], [ -77.43892, 38.82925 ], [ -77.43805, 38.83096 ], [ -77.43875, 38.83155 ], [ -77.43936, 38.83058 ] ], [ [ -77.4351, 38.84032 ], [ -77.43504, 38.84037 ], [ -77.43506, 38.84038 ], [ -77.4351, 38.84032 ] ], [ [ -77.43444, 38.83527 ], [ -77.43559, 38.83546 ], [ -77.43581, 38.83648 ], [ -77.43616, 38.83398 ], [ -77.43538, 38.83427 ], [ -77.43482, 38.83402 ], [ -77.43403, 38.83448 ], [ -77.4329, 38.83631 ], [ -77.43255, 38.83805 ], [ -77.43382, 38.83804 ], [ -77.43314, 38.83718 ], [ -77.43438, 38.83599 ], [ -77.43444, 38.83527 ] ], [ [ -77.43195, 38.82602 ], [ -77.43198, 38.82605 ], [ -77.43199, 38.82602 ], [ -77.43195, 38.82602 ] ], [ [ -77.43891, 38.83654 ], [ -77.43895, 38.83585 ], [ -77.43819, 38.83614 ], [ -77.43736, 38.83571 ], [ -77.43734, 38.83651 ], [ -77.43891, 38.83654 ] ], [ [ -77.43415, 38.8293 ], [ -77.43519, 38.82799 ], [ -77.4348, 38.82794 ], [ -77.43415, 38.8293 ] ], [ [ -77.43567, 38.82342 ], [ -77.43525, 38.82369 ], [ -77.43529, 38.82379 ], [ -77.43562, 38.82372 ], [ -77.43567, 38.82342 ] ], [ [ -77.43492, 38.82664 ], [ -77.43498, 38.82642 ], [ -77.43485, 38.8265 ], [ -77.43492, 38.82664 ] ], [ [ -77.43597, 38.83931 ], [ -77.43608, 38.8393 ], [ -77.43596, 38.83931 ], [ -77.43597, 38.83931 ] ], [ [ -77.43583, 38.83756 ], [ -77.43575, 38.83805 ], [ -77.43599, 38.83805 ], [ -77.43583, 38.83756 ] ], [ [ -77.43064, 38.8324 ], [ -77.43097, 38.83255 ], [ -77.43104, 38.83261 ], [ -77.43106, 38.83244 ], [ -77.43064, 38.8324 ] ] ] } },
{ "type": "Feature", "properties": { "variant": "T2s", "miles": 0.5 }, "geometry": { "type": "Polygon", "coordinates": [ [ [ -77.44807, 38.82368 ], [ -77.44894, 38.82301 ], [ -77.4498, 38.82319 ], [ -77.44997, 38.82358 ], [ -77.4492, 38.82432 ], [ -77.44951, 38.82463 ], [ -77.44906, 38.82603 ], [ -77.44939, 38.82637 ], [ -77.45014, 38.82601 ], [ -77.45058, 38.82624 ], [ -77.45067, 38.82671 ], [ -77.45164, 38.82712 ], [ -77.45134, 38.82785 ], [ -77.44871, 38.82731 ], [ -77.44787, 38.82659 ], [ -77.44766, 38.82557 ], [ -77.44621, 38.82532 ], [ -77.44207, 38.82664 ], [ -77.44167, 38.82777 ], [ -77.44252, 38.82813 ], [ -77.44226, 38.82886 ], [ -77.44106, 38.82874 ], [ -77.43995, 38.82815 ], [ -77.44055, 38.82524 ], [ -77.44151, 38.82401 ], [ -77.44229, 38.8239 ], [ -77.44265, 38.8242 ], [ -77.4422, 38.82524 ], [ -77.4449, 38.82425 ], [ -77.44682, 38.82413 ], [ -77.44637, 38.82341 ], [ -77.44668, 38.82268 ], [ -77.44761, 38.82293 ], [ -77.44807, 38.82368 ] ] ] } },
{ "type": "Feature", "properties": { "variant": "T2s", "miles": 1.0 }, "geometry": { "type": "Polygon", "coordinates": [ [ [ -77.447, 38.82061 ], [ -77.44735, 38.82155 ], [ -77.44845, 38.82232 ], [ -77.44807, 38.82368 ], [ -77.44933, 38.823 ], [ -77.44997, 38.82358 ], [ -77.44921, 38.82431 ], [ -77.4518, 38.82512 ], [ -77.45422, 38.8243 ], [ -77.45462, 38.82493 ], [ -77.4555, 38.8251 ], [ -77.45554, 38.82571 ], [ -77.45496, 38.8263 ], [ -77.45405, 38.82648 ], [ -77.45289, 38.82602 ], [ -77.45173, 38.82621 ], [ -77.44902, 38.82574 ], [ -77.44939, 38.82637 ], [ -77.45014, 38.82601 ], [ -77.45067, 38.82671 ], [ -77.4517, 38.82697 ], [ -77.45259, 38.82654 ], [ -77.4537, 38.82763 ], [ -77.45362, 38.82804 ], [ -77.45267, 38.82833 ], [ -77.45253, 38.82909 ], [ -77.4511, 38.82897 ], [ -77.45101, 38.82944 ], [ -77.45246, 38.83096 ], [ -77.45159, 38.83228 ], [ -77.44999, 38.8325 ], [ -77.44945, 38.83172 ], [ -77.44877, 38.83177 ], [ -77.44807, 38.83111 ], [ -77.44753, 38.83191 ], [ -77.44527, 38.83137 ], [ -77.44539, 38.83251 ], [ -77.44432, 38.83291 ], [ -77.44318, 38.83256 ], [ -77.44191, 38.83142 ], [ -77.44168, 38.83186 ], [ -77.44302, 38.83324 ], [ -77.44285, 38.83368 ], [ -77.44201, 38.83418 ], [ -77.44046, 38.83379 ], [ -77.44139, 38.83501 ], [ -77.44039, 38.8353 ], [ -77.4398, 38.83598 ], [ -77.43929, 38.83587 ], [ -77.43896, 38.8344 ], [ -77.4387, 38.83465 ], [ -77.43746, 38.83451 ], [ -77.43528, 38.8335 ], [ -77.43568, 38.8328 ], [ -77.43681, 38.83303 ], [ -77.43761, 38.83234 ], [ -77.43745, 38.83219 ], [ -77.43642, 38.83251 ], [ -77.43611, 38.83149 ], [ -77.43392, 38.83047 ], [ -77.43298, 38.83149 ], [ -77.43215, 38.83154 ], [ -77.43182, 38.83122 ], [ -77.43237, 38.8304 ], [ -77.43167, 38.82991 ], [ -77.43174, 38.8295 ], [ -77.43419, 38.82932 ], [ -77.43525, 38.8279 ], [ -77.43149, 38.82833 ], [ -77.43147, 38.8288 ], [ -77.43054, 38.82904 ], [ -77.42992, 38.82686 ], [ -77.43088, 38.82673 ], [ -77.43118, 38.82713 ], [ -77.43269, 38.8269 ], [ -77.43199, 38.82602 ], [ -77.43092, 38.82588 ], [ -77.43079, 38.82512 ], [ -77.4327, 38.82502 ], [ -77.43396, 38.82567 ], [ -77.43456, 38.8253 ], [ -77.43458, 38.82452 ], [ -77.43583, 38.82416 ], [ -77.43624, 38.82576 ], [ -77.43682, 38.82581 ], [ -77.43835, 38.82377 ], [ -77.43817, 38.82313 ], [ -77.43851, 38.82282 ], [ -77.43904, 38.82279 ], [ -77.43987, 38.8236 ], [ -77.43918, 38.82479 ], [ -77.44088, 38.82411 ], [ -77.44051, 38.82367 ], [ -77.4412, 38.82236 ], [ -77.44072, 38.82195 ], [ -77.44137, 38.82118 ], [ -77.44264, 38.82093 ], [ -77.44324, 38.8193 ], [ -77.44275, 38.81845 ], [ -77.44369, 38.81825 ], [ -77.44459, 38.81867 ], [ -77.44574, 38.81704 ], [ -77.44663, 38.81735 ], [ -77.44573, 38.81931 ], [ -77.447, 38.82061 ] ], [ [ -77.44637, 38.82823 ], [ -77.44627, 38.82805 ], [ -77.44627, 38.82818 ], [ -77.44637, 38.82823 ] ], [ [ -77.44623, 38.82787 ], [ -77.4475, 38.82706 ], [ -77.4485, 38.82719 ], [ -77.44784, 38.82654 ], [ -77.44766, 38.82557 ], [ -77.44592, 38.82533 ], [ -77.444, 38.82593 ], [ -77.4457, 38.82669 ], [ -77.44623, 38.82787 ] ], [ [ -77.44529, 38.82418 ], [ -77.44618, 38.8241 ], [ -77.44682, 38.82413 ], [ -77.44528, 38.82359 ], [ -77.44529, 38.82418 ] ], [ [ -77.4451, 38.82273 ], [ -77.44624, 38.82285 ], [ -77.44691, 38.8226 ], [ -77.44593, 38.82199 ], [ -77.4451, 38.82273 ] ], [ [ -77.44891, 38.82933 ], [ -77.44813, 38.82824 ], [ -77.44659, 38.82837 ], [ -77.44806, 38.82974 ], [ -77.4491, 38.82964 ], [ -77.44925, 38.83036 ], [ -77.45081, 38.83137 ], [ -77.45107, 38.83101 ], [ -77.44988, 38.83007 ], [ -77.44959, 38.8293 ], [ -77.44891, 38.82933 ] ], [ [ -77.44473, 38.82113 ], [ -77.44506, 38.82088 ], [ -77.44571, 38.82075 ], [ -77.44512, 38.82042 ], [ -77.44473, 38.82113 ] ], [ [ -77.45414, 38.8254 ], [ -77.45423, 38.82531 ], [ -77.45404, 38.82538 ], [ -77.45414, 38.8254 ] ], [ [ -77.43681, 38.83042 ], [ -77.43749, 38.82874 ], [ -77.44039, 38.82702 ], [ -77.43707, 38.82806 ], [ -77.4357, 38.82993 ], [ -77.43681, 38.83042 ] ], [ [ -77.44049, 38.82548 ], [ -77.43949, 38.82588 ], [ -77.43942, 38.82594 ], [ -77.44048, 38.82576 ], [ -77.44049, 38.82548 ] ], [ [ -77.43821, 38.8261 ], [ -77.43785, 38.82657 ], [ -77.4387, 38.8262 ], [ -77.43821, 38.8261 ] ], [ [ -77.44322, 38.83103 ], [ -77.44335, 38.831 ], [ -77.44319, 38.83097 ], [ -77.44322, 38.83103 ] ], [ [ -77.43938, 38.82945 ], [ -77.43856, 38.82944 ], [ -77.43805, 38.83096 ], [ -77.43875, 38.83155 ], [ -77.43936, 38.83058 ], [ -77.43938, 38.82945 ] ], [ [ -77.43894, 38.83381 ], [ -77.4386, 38.83324 ], [ -77.43821, 38.83356 ], [ -77.43894, 38.83381 ] ], [ [ -77.43498, 38.82642 ], [ -77.43492, 38.82664 ], [ -77.43509, 38.82665 ], [ -77.43498, 38.82642 ] ] ] } },
{ "type": "Feature", "properties": { "variant": "T2s", "miles": 1.5 }, "geometry": { "type": "Polygon", "coordinates": [ [ [ -77.45077, 38.8114 ], [ -77.45208, 38.81273 ], [ -77.45231, 38.81397 ], [ -77.45012, 38.81575 ], [ -77.45014, 38.81664 ], [ -77.44966, 38.8172 ], [ -77.44871, 38.81743 ], [ -77.44797, 38.81695 ], [ -77.44798, 38.81911 ], [ -77.44701, 38.81915 ], [ -77.44616, 38.81852 ], [ -77.44573, 38.81931 ], [ -77.44614, 38.81969 ], [ -77.45176, 38.81902 ], [ -77.45068, 38.81734 ], [ -77.45106, 38.81664 ], [ -77.45236, 38.81711 ], [ -77.45316, 38.8188 ], [ -77.45392, 38.81869 ], [ -77.45335, 38.81827 ], [ -77.4538, 38.81759 ], [ -77.45483, 38.81788 ], [ -77.45548, 38.81865 ], [ -77.45546, 38.81942 ], [ -77.45234, 38.82003 ], [ -77.45362, 38.8207 ], [ -77.45263, 38.82164 ], [ -77.45126, 38.82215 ], [ -77.44886, 38.82042 ], [ -77.44737, 38.82071 ], [ -77.45005, 38.82201 ], [ -77.45118, 38.82343 ], [ -77.45298, 38.82374 ], [ -77.45334, 38.82445 ], [ -77.45422, 38.8243 ], [ -77.45462, 38.82493 ], [ -77.4555, 38.8251 ], [ -77.45545, 38.82587 ], [ -77.45405, 38.82648 ], [ -77.45289, 38.82602 ], [ -77.45173, 38.82621 ], [ -77.44902, 38.82574 ], [ -77.44939, 38.82637 ], [ -77.45014, 38.82601 ], [ -77.45067, 38.82671 ], [ -77.4517, 38.82697 ], [ -77.45259, 38.82654 ], [ -77.4537, 38.82763 ], [ -77.45362, 38.82804 ], [ -77.45267, 38.82833 ], [ -77.45253, 38.82909 ], [ -77.4511, 38.82897 ], [ -77.45099, 38.82926 ], [ -77.45234, 38.83058 ], [ -77.45223, 38.83168 ], [ -77.45108, 38.83249 ], [ -77.44853, 38.83566 ], [ -77.44603, 38.83732 ], [ -77.44608, 38.83782 ], [ -77.44204, 38.83904 ], [ -77.44195, 38.8405 ], [ -77.44073, 38.84036 ], [ -77.4405, 38.83924 ], [ -77.43769, 38.83928 ], [ -77.43737, 38.84011 ], [ -77.43578, 38.84157 ], [ -77.4349, 38.84159 ], [ -77.43437, 38.84101 ], [ -77.4351, 38.84032 ], [ -77.43415, 38.84008 ], [ -77.43407, 38.83932 ], [ -77.43323, 38.83911 ], [ -77.4333, 38.83821 ], [ -77.43382, 38.83804 ], [ -77.43314, 38.83718 ], [ -77.43438, 38.83599 ], [ -77.43444, 38.83527 ], [ -77.43494, 38.83513 ], [ -77.43559, 38.83546 ], [ -77.43581, 38.83648 ], [ -77.43616, 38.83398 ], [ -77.43538, 38.83427 ], [ -77.43482, 38.83402 ], [ -77.43403, 38.83448 ], [ -77.43315, 38.83619 ], [ -77.43179, 38.8364 ], [ -77.43131, 38.83689 ], [ -77.43063, 38.83664 ], [ -77.42926, 38.83854 ], [ -77.42833, 38.83877 ], [ -77.42804, 38.83804 ], [ -77.42885, 38.83687 ], [ -77.42749, 38.83647 ], [ -77.42715, 38.83564 ], [ -77.42804, 38.83533 ], [ -77.42955, 38.83594 ], [ -77.43016, 38.83514 ], [ -77.42964, 38.8346 ], [ -77.42879, 38.83469 ], [ -77.42843, 38.83439 ], [ -77.42882, 38.83338 ], [ -77.42694, 38.83285 ], [ -77.42616, 38.83319 ], [ -77.42554, 38.8326 ], [ -77.42596, 38.83156 ], [ -77.42684, 38.83103 ], [ -77.42574, 38.83098 ], [ -77.42516, 38.83044 ], [ -77.42559, 38.82976 ], [ -77.42628, 38.82993 ], [ -77.42673, 38.82946 ], [ -77.4258, 38.82899 ], [ -77.42552, 38.82797 ], [ -77.42586, 38.82765 ], [ -77.42698, 38.82776 ], [ -77.42617, 38.82673 ], [ -77.42675, 38.82492 ], [ -77.42705, 38.82458 ], [ -77.42833, 38.82464 ], [ -77.4281, 38.82377 ], [ -77.42904, 38.82334 ], [ -77.42784, 38.8228 ], [ -77.42752, 38.82227 ], [ -77.42925, 38.82148 ], [ -77.43027, 38.82197 ], [ -77.43185, 38.82148 ], [ -77.43247, 38.82085 ], [ -77.43429, 38.82084 ], [ -77.43474, 38.82153 ], [ -77.43281, 38.82231 ], [ -77.43357, 38.82271 ], [ -77.43418, 38.82228 ], [ -77.43468, 38.82243 ], [ -77.4357, 38.823 ], [ -77.43569, 38.82333 ], [ -77.43663, 38.82313 ], [ -77.43712, 38.82409 ], [ -77.43676, 38.82502 ], [ -77.4362, 38.82512 ], [ -77.43624, 38.82576 ], [ -77.43682, 38.82581 ], [ -77.43835, 38.82377 ], [ -77.43817, 38.82313 ], [ -77.43908, 38.82282 ], [ -77.44249, 38.8183 ], [ -77.44338, 38.81812 ], [ -77.44459, 38.81867 ], [ -77.44648, 38.81532 ], [ -77.44644, 38.81389 ], [ -77.44779, 38.81319 ], [ -77.44814, 38.81246 ], [ -77.44984, 38.81117 ], [ -77.45077, 38.8114 ] ], [ [ -77.4416, 38.83782 ], [ -77.44191, 38.83774 ], [ -77.44145, 38.83766 ], [ -77.4416, 38.83782 ] ], [ [ -77.44049, 38.83413 ], [ -77.44168, 38.83409 ], [ -77.44046, 38.83379 ], [ -77.44049, 38.83413 ] ], [ [ -77.43699, 38.83027 ], [ -77.43749, 38.82874 ], [ -77.44039, 38.82702 ], [ -77.43707, 38.82806 ], [ -77.4357, 38.82993 ], [ -77.43699, 38.83027 ] ], [ [ -77.44366, 38.83289 ], [ -77.44767, 38.83352 ], [ -77.44839, 38.83401 ], [ -77.44962, 38.8326 ], [ -77.44955, 38.83182 ], [ -77.44816, 38.83306 ], [ -77.44623, 38.83294 ], [ -77.4459, 38.83262 ], [ -77.44634, 38.83196 ], [ -77.44584, 38.83136 ], [ -77.44527, 38.83137 ], [ -77.44543, 38.83244 ], [ -77.44445, 38.83292 ], [ -77.44318, 38.83256 ], [ -77.44191, 38.83142 ], [ -77.44168, 38.83186 ], [ -77.44302, 38.83324 ], [ -77.44276, 38.83376 ], [ -77.44366, 38.83289 ] ], [ [ -77.4457, 38.82669 ], [ -77.44623, 38.82787 ], [ -77.44712, 38.82713 ], [ -77.4485, 38.82719 ], [ -77.44727, 38.82545 ], [ -77.44592, 38.82533 ], [ -77.444, 38.82593 ], [ -77.4457, 38.82669 ] ], [ [ -77.44204, 38.82096 ], [ -77.44296, 38.82023 ], [ -77.44313, 38.81955 ], [ -77.44204, 38.82096 ] ], [ [ -77.44952, 38.81429 ], [ -77.45047, 38.8136 ], [ -77.44905, 38.81412 ], [ -77.44888, 38.81476 ], [ -77.44956, 38.81473 ], [ -77.44952, 38.81429 ] ], [ [ -77.4485, 38.82255 ], [ -77.44791, 38.82341 ], [ -77.44807, 38.82368 ], [ -77.44903, 38.823 ], [ -77.4485, 38.82255 ] ], [ [ -77.44512, 38.82042 ], [ -77.44476, 38.82095 ], [ -77.44464, 38.82127 ], [ -77.44555, 38.82081 ], [ -77.44512, 38.82042 ] ], [ [ -77.44904, 38.82936 ], [ -77.44947, 38.82962 ], [ -77.44967, 38.82975 ], [ -77.44959, 38.8293 ], [ -77.44904, 38.82936 ] ], [ [ -77.44813, 38.82851 ], [ -77.44771, 38.82813 ], [ -77.44659, 38.82837 ], [ -77.44705, 38.82877 ], [ -77.44813, 38.82851 ] ], [ [ -77.45414, 38.8254 ], [ -77.45423, 38.82531 ], [ -77.45404, 38.82538 ], [ -77.45414, 38.8254 ] ], [ [ -77.45037, 38.82431 ], [ -77.44981, 38.82383 ], [ -77.44921, 38.82431 ], [ -77.45175, 38.82512 ], [ -77.45261, 38.82484 ], [ -77.45037, 38.82431 ] ], [ [ -77.45081, 38.83137 ], [ -77.45105, 38.83099 ], [ -77.45074, 38.83075 ], [ -77.45081, 38.83137 ] ], [ [ -77.44691, 38.8226 ], [ -77.44593, 38.82199 ], [ -77.4451, 38.82273 ], [ -77.44532, 38.82296 ], [ -77.44691, 38.8226 ] ], [ [ -77.44682, 38.82413 ], [ -77.44528, 38.82359 ], [ -77.44502, 38.82381 ], [ -77.44524, 38.82419 ], [ -77.44682, 38.82413 ] ], [ [ -77.44627, 38.82818 ], [ -77.44637, 38.82823 ], [ -77.44627, 38.82805 ], [ -77.44627, 38.82818 ] ], [ [ -77.44652, 38.83454 ], [ -77.44658, 38.8345 ], [ -77.44648, 38.83449 ], [ -77.44652, 38.83454 ] ], [ [ -77.44335, 38.831 ], [ -77.44319, 38.83097 ], [ -77.44322, 38.83103 ], [ -77.44335, 38.831 ] ], [ [ -77.44049, 38.82548 ], [ -77.43949, 38.82588 ], [ -77.43942, 38.82594 ], [ -77.44048, 38.82576 ], [ -77.44049, 38.82548 ] ], [ [ -77.43821, 38.8261 ], [ -77.43785, 38.82657 ], [ -77.4387, 38.8262 ], [ -77.43821, 38.8261 ] ], [ [ -77.44088, 38.82411 ], [ -77.44051, 38.82367 ], [ -77.44104, 38.82233 ], [ -77.43918, 38.82479 ], [ -77.44088, 38.82411 ] ], [ [ -77.44272, 38.83495 ], [ -77.4427, 38.83497 ], [ -77.44285, 38.83491 ], [ -77.44272, 38.83495 ] ], [ [ -77.44304, 38.83484 ], [ -77.44364, 38.83473 ], [ -77.44322, 38.83478 ], [ -77.44304, 38.83484 ] ], [ [ -77.43938, 38.82945 ], [ -77.43856, 38.82944 ], [ -77.43805, 38.83096 ], [ -77.43875, 38.83155 ], [ -77.43929, 38.83083 ], [ -77.43938, 38.82945 ] ], [ [ -77.43195, 38.82602 ], [ -77.43198, 38.82605 ], [ -77.43199, 38.82602 ], [ -77.43195, 38.82602 ] ], [ [ -77.43891, 38.83654 ], [ -77.43895, 38.83585 ], [ -77.43819, 38.83614 ], [ -77.43736, 38.83571 ], [ -77.43734, 38.83651 ], [ -77.43891, 38.83654 ] ], [ [ -77.43415, 38.8293 ], [ -77.43519, 38.82799 ], [ -77.4348, 38.82794 ], [ -77.43415, 38.8293 ] ], [ [ -77.43525, 38.82369 ], [ -77.43562, 38.82372 ], [ -77.43567, 38.82342 ], [ -77.43525, 38.82369 ] ], [ [ -77.43492, 38.82664 ], [ -77.43498, 38.82642 ], [ -77.43485, 38.8265 ], [ -77.43492, 38.82664 ] ], [ [ -77.43608, 38.8393 ], [ -77.43596, 38.83931 ], [ -77.43606, 38.83935 ], [ -77.43608, 38.8393 ] ], [ [ -77.43583, 38.83756 ], [ -77.43575, 38.83805 ], [ -77.43599, 38.83805 ], [ -77.43583, 38.83756 ] ], [ [ -77.43097, 38.83255 ], [ -77.43106, 38.83244 ], [ -77.43064, 38.8324 ], [ -77.43097, 38.83255 ] ] ] } }
]
}
