{
"type": "FeatureCollection",
"name": "445",
"crs": { "type": "name", "properties": { "name": "urn:ogc:def:crs:OGC:1.3:CRS84" } },
"xy_coordinate_resolution": 1e-05,
"features": [
{ "type": "Feature", "properties": { "variant": "T0", "miles": 0.5 }, "geometry": { "type": "Polygon", "coordinates": [ [ [ -77.34524, 38.87249 ], [ -77.34764, 38.87365 ], [ -77.34826, 38.87479 ], [ -77.34794, 38.87512 ], [ -77.34713, 38.875 ], [ -77.34686, 38.87597 ], [ -77.34964, 38.87544 ], [ -77.34982, 38.87439 ], [ -77.35027, 38.87416 ], [ -77.35107, 38.8746 ], [ -77.35115, 38.87526 ], [ -77.35084, 38.87615 ], [ -77.34928, 38.87661 ], [ -77.34931, 38.87807 ], [ -77.3485, 38.87959 ], [ -77.34584, 38.8813 ], [ -77.34665, 38.88215 ], [ -77.34601, 38.88273 ], [ -77.34501, 38.88224 ], [ -77.34392, 38.88076 ], [ -77.34239, 38.88055 ], [ -77.34182, 38.88005 ], [ -77.34198, 38.87938 ], [ -77.34246, 38.87922 ], [ -77.34307, 38.87959 ], [ -77.34392, 38.87964 ], [ -77.34355, 38.87886 ], [ -77.34445, 38.87861 ], [ -77.34477, 38.87797 ], [ -77.34248, 38.87851 ], [ -77.34007, 38.87719 ], [ -77.33927, 38.87629 ], [ -77.34003, 38.8758 ], [ -77.34295, 38.87749 ], [ -77.34302, 38.87644 ], [ -77.34399, 38.87648 ], [ -77.3442, 38.87699 ], [ -77.34557, 38.87636 ], [ -77.34549, 38.87539 ], [ -77.34617, 38.87403 ], [ -77.34491, 38.87444 ], [ -77.34442, 38.87291 ], [ -77.34524, 38.87249 ] ], [ [ -77.34521, 38.88033 ], [ -77.34773, 38.87844 ], [ -77.34621, 38.87779 ], [ -77.34677, 38.87717 ], [ -77.34802, 38.87737 ], [ -77.34795, 38.8769 ], [ -77.34691, 38.87708 ], [ -77.34609, 38.87737 ], [ -77.34521, 38.88033 ] ] ] } },
{ "type": "Feature", "properties": { "variant": "T0", "miles": 1.0 }, "geometry": { "type": "Polygon", "coordinates": [ [ [ -77.34906, 38.8721 ], [ -77.34814, 38.87237 ], [ -77.34778, 38.87207 ], [ -77.34799, 38.87088 ], [ -77.34714, 38.87059 ], [ -77.34593, 38.87269 ], [ -77.34725, 38.87331 ], [ -77.34819, 38.87438 ], [ -77.34794, 38.87512 ], [ -77.34713, 38.875 ], [ -77.34686, 38.87597 ], [ -77.34964, 38.87544 ], [ -77.34982, 38.87439 ], [ -77.35027, 38.87416 ], [ -77.35079, 38.87425 ], [ -77.35115, 38.87513 ], [ -77.3525, 38.87488 ], [ -77.35042, 38.87371 ], [ -77.35057, 38.87332 ], [ -77.3518, 38.87312 ], [ -77.35299, 38.87358 ], [ -77.35396, 38.87466 ], [ -77.36207, 38.87731 ], [ -77.36238, 38.87804 ], [ -77.36146, 38.87828 ], [ -77.3583, 38.87736 ], [ -77.35785, 38.87786 ], [ -77.35733, 38.87782 ], [ -77.35702, 38.87694 ], [ -77.35528, 38.87637 ], [ -77.35474, 38.87768 ], [ -77.35383, 38.87797 ], [ -77.35346, 38.87727 ], [ -77.35394, 38.87575 ], [ -77.34928, 38.87661 ], [ -77.34908, 38.87872 ], [ -77.35074, 38.87854 ], [ -77.35213, 38.87884 ], [ -77.35271, 38.87943 ], [ -77.35285, 38.88072 ], [ -77.35201, 38.88111 ], [ -77.35145, 38.88063 ], [ -77.35138, 38.87975 ], [ -77.35017, 38.87962 ], [ -77.34826, 38.87984 ], [ -77.34741, 38.88051 ], [ -77.348, 38.88092 ], [ -77.34773, 38.88165 ], [ -77.34682, 38.88159 ], [ -77.34622, 38.88112 ], [ -77.34584, 38.8813 ], [ -77.34666, 38.88187 ], [ -77.34882, 38.88227 ], [ -77.34967, 38.88153 ], [ -77.35047, 38.8815 ], [ -77.35071, 38.88224 ], [ -77.34978, 38.88316 ], [ -77.35062, 38.88452 ], [ -77.35286, 38.88365 ], [ -77.35377, 38.88387 ], [ -77.35388, 38.88427 ], [ -77.35319, 38.8847 ], [ -77.35342, 38.88577 ], [ -77.35302, 38.88604 ], [ -77.3525, 38.88601 ], [ -77.35193, 38.88516 ], [ -77.35037, 38.8856 ], [ -77.34897, 38.88468 ], [ -77.34743, 38.88499 ], [ -77.34626, 38.88445 ], [ -77.34514, 38.88503 ], [ -77.34463, 38.88491 ], [ -77.34455, 38.88415 ], [ -77.34566, 38.88347 ], [ -77.3467, 38.88341 ], [ -77.34763, 38.8839 ], [ -77.34852, 38.88366 ], [ -77.34807, 38.88318 ], [ -77.3462, 38.88289 ], [ -77.34528, 38.88339 ], [ -77.34434, 38.88329 ], [ -77.34409, 38.88251 ], [ -77.34505, 38.88228 ], [ -77.34463, 38.88182 ], [ -77.34231, 38.88229 ], [ -77.34173, 38.88349 ], [ -77.34077, 38.88335 ], [ -77.34074, 38.88274 ], [ -77.3385, 38.88333 ], [ -77.33753, 38.88284 ], [ -77.33678, 38.88306 ], [ -77.33635, 38.88237 ], [ -77.33827, 38.87815 ], [ -77.3373, 38.87514 ], [ -77.33577, 38.87377 ], [ -77.33553, 38.87245 ], [ -77.33473, 38.87179 ], [ -77.33399, 38.87221 ], [ -77.33353, 38.87201 ], [ -77.33296, 38.87127 ], [ -77.33307, 38.87054 ], [ -77.33397, 38.87026 ], [ -77.33493, 38.8706 ], [ -77.33626, 38.86957 ], [ -77.33678, 38.86961 ], [ -77.33708, 38.87034 ], [ -77.33621, 38.87107 ], [ -77.33737, 38.87261 ], [ -77.33763, 38.87409 ], [ -77.33906, 38.87458 ], [ -77.34006, 38.87559 ], [ -77.34033, 38.87495 ], [ -77.3428, 38.8729 ], [ -77.34452, 38.87251 ], [ -77.34648, 38.86951 ], [ -77.34721, 38.86944 ], [ -77.34919, 38.87012 ], [ -77.34955, 38.87042 ], [ -77.34906, 38.8721 ] ], [ [ -77.34773, 38.87844 ], [ -77.34621, 38.87779 ], [ -77.34677, 38.87717 ], [ -77.34802, 38.87737 ], [ -77.34795, 38.8769 ], [ -77.34691, 38.87708 ], [ -77.34609, 38.87737 ], [ -77.34521, 38.88033 ], [ -77.34773, 38.87844 ] ], [ [ -77.34248, 38.87851 ], [ -77.33899, 38.87628 ], [ -77.33966, 38.87824 ], [ -77.33804, 38.88171 ], [ -77.33849, 38.88206 ], [ -77.34395, 38.88084 ], [ -77.34214, 38.88043 ], [ -77.34178, 38.87976 ], [ -77.34246, 38.87922 ], [ -77.34307, 38.87959 ], [ -77.34392, 38.87964 ], [ -77.34355, 38.87886 ], [ -77.34445, 38.87861 ], [ -77.34469, 38.878 ], [ -77.34248, 38.87851 ] ], [ [ -77.34302, 38.87644 ], [ -77.34399, 38.87648 ], [ -77.3442, 38.87699 ], [ -77.34557, 38.87636 ], [ -77.34549, 38.87539 ], [ -77.34617, 38.87403 ], [ -77.34491, 38.87444 ], [ -77.34472, 38.87358 ], [ -77.34383, 38.87366 ], [ -77.34149, 38.87558 ], [ -77.341, 38.87639 ], [ -77.34293, 38.87746 ], [ -77.34302, 38.87644 ] ], [ [ -77.35034, 38.88246 ], [ -77.35029, 38.88249 ], [ -77.35032, 38.88248 ], [ -77.35034, 38.88246 ] ], [ [ -77.35045, 38.8824 ], [ -77.35042, 38.88241 ], [ -77.35042, 38.88242 ], [ -77.35045, 38.8824 ] ] ] } },
{ "type": "Feature", "properties": { "variant": "T0", "miles": 1.5 }, "geometry": { "type": "Polygon", "coordinates": [ [ [ -77.35567, 38.86984 ], [ -77.35475, 38.87011 ], [ -77.35074, 38.86869 ], [ -77.34982, 38.87035 ], [ -77.3545, 38.87195 ], [ -77.35487, 38.87265 ], [ -77.35449, 38.87294 ], [ -77.34925, 38.87133 ], [ -77.34906, 38.8721 ], [ -77.34814, 38.87237 ], [ -77.34778, 38.87207 ], [ -77.34799, 38.87088 ], [ -77.34714, 38.87059 ], [ -77.34593, 38.87269 ], [ -77.34755, 38.87356 ], [ -77.34826, 38.87479 ], [ -77.34794, 38.87512 ], [ -77.34713, 38.875 ], [ -77.34686, 38.87597 ], [ -77.34964, 38.87544 ], [ -77.34982, 38.87439 ], [ -77.35027, 38.87416 ], [ -77.35079, 38.87425 ], [ -77.35115, 38.87513 ], [ -77.3525, 38.87488 ], [ -77.35042, 38.87371 ], [ -77.35057, 38.87332 ], [ -77.35155, 38.87309 ], [ -77.35289, 38.87351 ], [ -77.35396, 38.87466 ], [ -77.36133, 38.87702 ], [ -77.36192, 38.87603 ], [ -77.3618, 38.87555 ], [ -77.36072, 38.87483 ], [ -77.3607, 38.87423 ], [ -77.36112, 38.87398 ], [ -77.36196, 38.87434 ], [ -77.363, 38.8742 ], [ -77.3643, 38.8752 ], [ -77.36457, 38.87588 ], [ -77.36403, 38.87666 ], [ -77.36298, 38.87675 ], [ -77.36271, 38.87752 ], [ -77.36595, 38.87856 ], [ -77.36622, 38.87748 ], [ -77.36865, 38.87721 ], [ -77.36933, 38.87883 ], [ -77.37077, 38.8789 ], [ -77.37111, 38.87962 ], [ -77.37025, 38.88002 ], [ -77.36869, 38.87999 ], [ -77.36857, 38.88071 ], [ -77.36806, 38.88082 ], [ -77.36711, 38.88008 ], [ -77.36249, 38.87861 ], [ -77.36417, 38.87952 ], [ -77.36561, 38.87981 ], [ -77.36652, 38.88091 ], [ -77.36563, 38.88123 ], [ -77.36437, 38.88059 ], [ -77.36386, 38.88127 ], [ -77.36144, 38.88258 ], [ -77.35919, 38.8814 ], [ -77.35845, 38.87973 ], [ -77.35902, 38.87911 ], [ -77.36049, 38.87918 ], [ -77.36117, 38.87816 ], [ -77.3583, 38.87736 ], [ -77.35785, 38.87786 ], [ -77.35733, 38.87782 ], [ -77.35702, 38.87694 ], [ -77.35528, 38.87637 ], [ -77.35474, 38.87768 ], [ -77.35383, 38.87797 ], [ -77.35346, 38.87727 ], [ -77.35394, 38.87575 ], [ -77.34928, 38.87661 ], [ -77.34908, 38.87872 ], [ -77.35074, 38.87854 ], [ -77.35213, 38.87884 ], [ -77.35271, 38.87943 ], [ -77.35285, 38.88072 ], [ -77.35201, 38.88111 ], [ -77.35145, 38.88063 ], [ -77.35138, 38.87975 ], [ -77.35017, 38.87962 ], [ -77.34826, 38.87984 ], [ -77.34741, 38.88051 ], [ -77.348, 38.88092 ], [ -77.34773, 38.88165 ], [ -77.34682, 38.88159 ], [ -77.34622, 38.88112 ], [ -77.34584, 38.8813 ], [ -77.34666, 38.88187 ], [ -77.34882, 38.88227 ], [ -77.34967, 38.88153 ], [ -77.35047, 38.8815 ], [ -77.35071, 38.88224 ], [ -77.34978, 38.88316 ], [ -77.35025, 38.88423 ], [ -77.35069, 38.88453 ], [ -77.35286, 38.88365 ], [ -77.35377, 38.88387 ], [ -77.35388, 38.88427 ], [ -77.35319, 38.8847 ], [ -77.35478, 38.88811 ], [ -77.35591, 38.88751 ], [ -77.35686, 38.88767 ], [ -77.35665, 38.88842 ], [ -77.35541, 38.8891 ], [ -77.35574, 38.88962 ], [ -77.35705, 38.88978 ], [ -77.35813, 38.88936 ], [ -77.35849, 38.89007 ], [ -77.35792, 38.89065 ], [ -77.35691, 38.89086 ], [ -77.3573, 38.89182 ], [ -77.35676, 38.89246 ], [ -77.35624, 38.89238 ], [ -77.35419, 38.8896 ], [ -77.35196, 38.89037 ], [ -77.3519, 38.89138 ], [ -77.35138, 38.89146 ], [ -77.35067, 38.89086 ], [ -77.34799, 38.89147 ], [ -77.34286, 38.88696 ], [ -77.34293, 38.89006 ], [ -77.34165, 38.89247 ], [ -77.34074, 38.89275 ], [ -77.34037, 38.89204 ], [ -77.34162, 38.8896 ], [ -77.34142, 38.88589 ], [ -77.33753, 38.88284 ], [ -77.33678, 38.88306 ], [ -77.33639, 38.88279 ], [ -77.33827, 38.87815 ], [ -77.3373, 38.87514 ], [ -77.33577, 38.87377 ], [ -77.33553, 38.87245 ], [ -77.33473, 38.87179 ], [ -77.33399, 38.87221 ], [ -77.33329, 38.87176 ], [ -77.33315, 38.87247 ], [ -77.33157, 38.87262 ], [ -77.33148, 38.874 ], [ -77.3308, 38.87456 ], [ -77.33009, 38.87403 ], [ -77.33016, 38.87246 ], [ -77.32963, 38.87172 ], [ -77.32718, 38.87042 ], [ -77.32458, 38.86988 ], [ -77.32442, 38.86948 ], [ -77.32467, 38.86912 ], [ -77.3256, 38.86902 ], [ -77.32543, 38.86838 ], [ -77.3263, 38.86805 ], [ -77.32754, 38.86937 ], [ -77.32749, 38.86839 ], [ -77.32836, 38.86769 ], [ -77.32887, 38.86781 ], [ -77.32879, 38.8689 ], [ -77.32954, 38.86941 ], [ -77.33141, 38.86851 ], [ -77.33189, 38.86918 ], [ -77.33129, 38.86963 ], [ -77.33326, 38.87001 ], [ -77.33307, 38.86892 ], [ -77.33394, 38.86857 ], [ -77.33493, 38.8706 ], [ -77.33579, 38.86992 ], [ -77.33592, 38.86822 ], [ -77.33517, 38.86729 ], [ -77.3328, 38.86638 ], [ -77.33268, 38.86569 ], [ -77.33424, 38.86537 ], [ -77.3346, 38.86606 ], [ -77.33513, 38.8662 ], [ -77.33581, 38.86459 ], [ -77.33579, 38.86332 ], [ -77.3365, 38.8628 ], [ -77.33717, 38.86336 ], [ -77.33715, 38.86488 ], [ -77.33859, 38.86445 ], [ -77.33892, 38.86478 ], [ -77.33852, 38.8654 ], [ -77.33982, 38.86607 ], [ -77.33939, 38.86676 ], [ -77.33817, 38.86647 ], [ -77.33712, 38.86685 ], [ -77.3366, 38.86616 ], [ -77.33636, 38.86674 ], [ -77.33791, 38.86816 ], [ -77.33726, 38.8686 ], [ -77.33714, 38.86947 ], [ -77.338, 38.86932 ], [ -77.339, 38.86965 ], [ -77.33943, 38.87157 ], [ -77.33857, 38.87192 ], [ -77.33816, 38.87166 ], [ -77.33786, 38.8704 ], [ -77.33621, 38.87107 ], [ -77.33631, 38.87149 ], [ -77.33737, 38.87261 ], [ -77.33763, 38.87409 ], [ -77.33906, 38.87458 ], [ -77.34006, 38.87559 ], [ -77.34033, 38.87495 ], [ -77.3428, 38.8729 ], [ -77.34452, 38.87251 ], [ -77.34627, 38.86963 ], [ -77.34703, 38.86941 ], [ -77.34857, 38.8699 ], [ -77.34869, 38.86969 ], [ -77.34948, 38.86824 ], [ -77.34818, 38.86745 ], [ -77.34612, 38.86692 ], [ -77.34492, 38.86718 ], [ -77.34484, 38.86837 ], [ -77.34411, 38.86888 ], [ -77.3434, 38.86839 ], [ -77.34348, 38.86754 ], [ -77.34209, 38.86784 ], [ -77.34134, 38.86736 ], [ -77.34196, 38.86677 ], [ -77.34634, 38.86586 ], [ -77.347, 38.86485 ], [ -77.34608, 38.8644 ], [ -77.34669, 38.86375 ], [ -77.34831, 38.86342 ], [ -77.34879, 38.86381 ], [ -77.34762, 38.86627 ], [ -77.35081, 38.86753 ], [ -77.35165, 38.8667 ], [ -77.35316, 38.86701 ], [ -77.35352, 38.86756 ], [ -77.3543, 38.86765 ], [ -77.35408, 38.86867 ], [ -77.35533, 38.86913 ], [ -77.35567, 38.86984 ] ], [ [ -77.35291, 38.86801 ], [ -77.35216, 38.86785 ], [ -77.35213, 38.86799 ], [ -77.35291, 38.86801 ] ], [ [ -77.34773, 38.87844 ], [ -77.34621, 38.87779 ], [ -77.34677, 38.87717 ], [ -77.34802, 38.87737 ], [ -77.34795, 38.8769 ], [ -77.34691, 38.87708 ], [ -77.34609, 38.87737 ], [ -77.34521, 38.88033 ], [ -77.34773, 38.87844 ] ], [ [ -77.36782, 38.87905 ], [ -77.36759, 38.87833 ], [ -77.36732, 38.87837 ], [ -77.36782, 38.87905 ] ], [ [ -77.36177, 38.8796 ], [ -77.36029, 38.88028 ], [ -77.36026, 38.8807 ], [ -77.36154, 38.88128 ], [ -77.36295, 38.88046 ], [ -77.36299, 38.88009 ], [ -77.36177, 38.8796 ] ], [ [ -77.3486, 38.89036 ], [ -77.35115, 38.88949 ], [ -77.35095, 38.88909 ], [ -77.34981, 38.88894 ], [ -77.35038, 38.88811 ], [ -77.35, 38.88754 ], [ -77.34906, 38.88687 ], [ -77.34843, 38.88666 ], [ -77.3479, 38.88657 ], [ -77.34736, 38.88684 ], [ -77.34876, 38.88681 ], [ -77.34877, 38.88758 ], [ -77.34644, 38.88823 ], [ -77.3486, 38.89036 ] ], [ [ -77.34767, 38.8855 ], [ -77.34914, 38.88571 ], [ -77.35046, 38.88639 ], [ -77.35193, 38.88516 ], [ -77.35054, 38.88561 ], [ -77.34897, 38.88468 ], [ -77.34743, 38.88499 ], [ -77.34626, 38.88445 ], [ -77.34514, 38.88503 ], [ -77.34452, 38.88473 ], [ -77.3431, 38.88563 ], [ -77.34504, 38.88713 ], [ -77.34767, 38.8855 ] ], [ [ -77.34807, 38.88318 ], [ -77.3462, 38.88289 ], [ -77.34528, 38.88339 ], [ -77.34434, 38.88329 ], [ -77.34409, 38.88251 ], [ -77.34505, 38.88228 ], [ -77.34463, 38.88182 ], [ -77.34231, 38.88229 ], [ -77.34173, 38.88349 ], [ -77.34077, 38.88335 ], [ -77.34074, 38.88274 ], [ -77.33946, 38.88286 ], [ -77.34203, 38.88487 ], [ -77.34459, 38.88349 ], [ -77.34509, 38.88376 ], [ -77.34656, 38.88339 ], [ -77.34763, 38.8839 ], [ -77.3485, 38.88359 ], [ -77.34807, 38.88318 ] ], [ [ -77.35335, 38.88795 ], [ -77.3523, 38.88783 ], [ -77.35208, 38.88745 ], [ -77.35296, 38.88689 ], [ -77.35255, 38.88629 ], [ -77.35139, 38.88727 ], [ -77.35238, 38.889 ], [ -77.35357, 38.88864 ], [ -77.35335, 38.88795 ] ], [ [ -77.35029, 38.88249 ], [ -77.35034, 38.88247 ], [ -77.35034, 38.88246 ], [ -77.35029, 38.88249 ] ], [ [ -77.35042, 38.88242 ], [ -77.35045, 38.8824 ], [ -77.35042, 38.88241 ], [ -77.35042, 38.88242 ] ], [ [ -77.34395, 38.88084 ], [ -77.34214, 38.88043 ], [ -77.34178, 38.87976 ], [ -77.34246, 38.87922 ], [ -77.34307, 38.87959 ], [ -77.34392, 38.87964 ], [ -77.34355, 38.87886 ], [ -77.34445, 38.87861 ], [ -77.34477, 38.87797 ], [ -77.34248, 38.87851 ], [ -77.33899, 38.87628 ], [ -77.33967, 38.87816 ], [ -77.33804, 38.88171 ], [ -77.33862, 38.88199 ], [ -77.34395, 38.88084 ] ], [ [ -77.34458, 38.87412 ], [ -77.34472, 38.87358 ], [ -77.34383, 38.87366 ], [ -77.341, 38.87639 ], [ -77.34295, 38.87749 ], [ -77.34302, 38.87644 ], [ -77.34399, 38.87648 ], [ -77.3442, 38.87699 ], [ -77.34557, 38.87636 ], [ -77.34549, 38.87539 ], [ -77.34617, 38.87403 ], [ -77.34544, 38.87448 ], [ -77.34458, 38.87412 ] ], [ [ -77.33296, 38.8711 ], [ -77.33189, 38.87064 ], [ -77.33093, 38.87128 ], [ -77.33116, 38.87158 ], [ -77.33308, 38.87153 ], [ -77.33296, 38.8711 ] ] ] } },
{ "type": "Feature", "properties": { "variant": "T2s", "miles": 0.5 }, "geometry": { "type": "Polygon", "coordinates": [ [ [ -77.34755, 38.87356 ], [ -77.34826, 38.87479 ], [ -77.34794, 38.87512 ], [ -77.34713, 38.875 ], [ -77.34686, 38.87597 ], [ -77.34964, 38.87544 ], [ -77.34982, 38.87439 ], [ -77.35027, 38.87416 ], [ -77.35107, 38.8746 ], [ -77.35114, 38.87533 ], [ -77.35084, 38.87615 ], [ -77.34928, 38.87661 ], [ -77.34931, 38.87807 ], [ -77.3485, 38.87959 ], [ -77.34584, 38.8813 ], [ -77.34665, 38.88215 ], [ -77.34601, 38.88273 ], [ -77.34501, 38.88224 ], [ -77.34392, 38.88076 ], [ -77.34239, 38.88055 ], [ -77.34178, 38.87976 ], [ -77.34246, 38.87922 ], [ -77.34307, 38.87959 ], [ -77.34392, 38.87964 ], [ -77.34355, 38.87886 ], [ -77.34445, 38.87861 ], [ -77.34475, 38.87802 ], [ -77.34373, 38.87821 ], [ -77.34332, 38.87794 ], [ -77.34279, 38.87714 ], [ -77.34302, 38.87644 ], [ -77.34399, 38.87648 ], [ -77.3442, 38.87699 ], [ -77.34557, 38.87636 ], [ -77.34549, 38.87539 ], [ -77.34617, 38.87403 ], [ -77.34544, 38.87448 ], [ -77.34458, 38.87412 ], [ -77.34472, 38.87257 ], [ -77.3457, 38.8726 ], [ -77.34755, 38.87356 ] ], [ [ -77.34521, 38.88033 ], [ -77.34773, 38.87844 ], [ -77.3465, 38.87814 ], [ -77.34633, 38.87739 ], [ -77.34699, 38.87715 ], [ -77.34802, 38.87737 ], [ -77.34795, 38.8769 ], [ -77.34609, 38.87737 ], [ -77.34521, 38.88033 ] ] ] } },
{ "type": "Feature", "properties": { "variant": "T2s", "miles": 1.0 }, "geometry": { "type": "Polygon", "coordinates": [ [ [ -77.34593, 38.87269 ], [ -77.34725, 38.87331 ], [ -77.34819, 38.87438 ], [ -77.34794, 38.87512 ], [ -77.34713, 38.875 ], [ -77.34686, 38.87597 ], [ -77.34964, 38.87544 ], [ -77.34982, 38.87439 ], [ -77.35027, 38.87416 ], [ -77.35107, 38.8746 ], [ -77.35084, 38.87615 ], [ -77.34928, 38.87661 ], [ -77.34908, 38.87872 ], [ -77.35074, 38.87854 ], [ -77.35213, 38.87884 ], [ -77.35271, 38.87943 ], [ -77.35285, 38.88072 ], [ -77.35201, 38.88111 ], [ -77.35145, 38.88063 ], [ -77.35138, 38.87975 ], [ -77.35017, 38.87962 ], [ -77.34826, 38.87984 ], [ -77.34741, 38.88051 ], [ -77.348, 38.88092 ], [ -77.34773, 38.88165 ], [ -77.34682, 38.88159 ], [ -77.34622, 38.88112 ], [ -77.34584, 38.8813 ], [ -77.34666, 38.88187 ], [ -77.34882, 38.88227 ], [ -77.34967, 38.88153 ], [ -77.35047, 38.8815 ], [ -77.35071, 38.88224 ], [ -77.34978, 38.88316 ], [ -77.35062, 38.88452 ], [ -77.35286, 38.88365 ], [ -77.35377, 38.88387 ], [ -77.35388, 38.88427 ], [ -77.35319, 38.8847 ], [ -77.35342, 38.88577 ], [ -77.35302, 38.88604 ], [ -77.3525, 38.88601 ], [ -77.35193, 38.88516 ], [ -77.35037, 38.8856 ], [ -77.34897, 38.88468 ], [ -77.34743, 38.88499 ], [ -77.34626, 38.88445 ], [ -77.34514, 38.88503 ], [ -77.34463, 38.88491 ], [ -77.34455, 38.88415 ], [ -77.34566, 38.88347 ], [ -77.3467, 38.88341 ], [ -77.34763, 38.8839 ], [ -77.34852, 38.88366 ], [ -77.34807, 38.88318 ], [ -77.3462, 38.88289 ], [ -77.34528, 38.88339 ], [ -77.34434, 38.88329 ], [ -77.34409, 38.88251 ], [ -77.34505, 38.88228 ], [ -77.34463, 38.88182 ], [ -77.34231, 38.88229 ], [ -77.34173, 38.88349 ], [ -77.34122, 38.88357 ], [ -77.34074, 38.88274 ], [ -77.3385, 38.88333 ], [ -77.33753, 38.88284 ], [ -77.33678, 38.88306 ], [ -77.33639, 38.88279 ], [ -77.33667, 38.88195 ], [ -77.33757, 38.88156 ], [ -77.33849, 38.88206 ], [ -77.34395, 38.88084 ], [ -77.34214, 38.88043 ], [ -77.34178, 38.87976 ], [ -77.34246, 38.87922 ], [ -77.34307, 38.87959 ], [ -77.34392, 38.87964 ], [ -77.34355, 38.87886 ], [ -77.34445, 38.87861 ], [ -77.34477, 38.87797 ], [ -77.34248, 38.87851 ], [ -77.34007, 38.87719 ], [ -77.33927, 38.87628 ], [ -77.3428, 38.8729 ], [ -77.34452, 38.87251 ], [ -77.34637, 38.86957 ], [ -77.34732, 38.86947 ], [ -77.34955, 38.87042 ], [ -77.34867, 38.87238 ], [ -77.34778, 38.87207 ], [ -77.34799, 38.87088 ], [ -77.34714, 38.87059 ], [ -77.34593, 38.87269 ] ], [ [ -77.34773, 38.87844 ], [ -77.34621, 38.87779 ], [ -77.34677, 38.87717 ], [ -77.34802, 38.87737 ], [ -77.34795, 38.8769 ], [ -77.34691, 38.87708 ], [ -77.34609, 38.87737 ], [ -77.34521, 38.88033 ], [ -77.34773, 38.87844 ] ], [ [ -77.34557, 38.87636 ], [ -77.34549, 38.87539 ], [ -77.34617, 38.87403 ], [ -77.34491, 38.87444 ], [ -77.34472, 38.87358 ], [ -77.34369, 38.87372 ], [ -77.341, 38.87639 ], [ -77.34295, 38.87749 ], [ -77.34302, 38.87644 ], [ -77.34399, 38.87648 ], [ -77.3442, 38.87699 ], [ -77.34557, 38.87636 ] ], [ [ -77.35032, 38.88248 ], [ -77.35034, 38.88247 ], [ -77.35034, 38.88246 ], [ -77.35032, 38.88248 ] ], [ [ -77.35044, 38.88241 ], [ -77.35045, 38.8824 ], [ -77.35042, 38.88241 ], [ -77.35044, 38.88241 ] ] ] } },
{ "type": "Feature", "properties": { "variant": "T2s", "miles": 1.5 }, "geometry": { "type": "Polygon", "coordinates": [ [ [ -77.34982, 38.87035 ], [ -77.3545, 38.87195 ], [ -77.35487, 38.87265 ], [ -77.35396, 38.87294 ], [ -77.34925, 38.87133 ], [ -77.34906, 38.8721 ], [ -77.34814, 38.87237 ], [ -77.34778, 38.87207 ], [ -77.34799, 38.87088 ], [ -77.34714, 38.87059 ], [ -77.34593, 38.87269 ], [ -77.34725, 38.87331 ], [ -77.34819, 38.87438 ], [ -77.34794, 38.87512 ], [ -77.34713, 38.875 ], [ -77.34686, 38.87597 ], [ -77.34964, 38.87544 ], [ -77.34982, 38.87439 ], [ -77.35079, 38.87425 ], [ -77.35114, 38.87507 ], [ -77.35087, 38.87612 ], [ -77.34928, 38.87661 ], [ -77.34908, 38.87872 ], [ -77.35169, 38.87869 ], [ -77.35276, 38.87959 ], [ -77.35254, 38.88105 ], [ -77.35159, 38.88086 ], [ -77.35138, 38.87975 ], [ -77.35027, 38.87962 ], [ -77.34826, 38.87984 ], [ -77.34741, 38.88051 ], [ -77.348, 38.88092 ], [ -77.34773, 38.88165 ], [ -77.34682, 38.88159 ], [ -77.34622, 38.88112 ], [ -77.34584, 38.8813 ], [ -77.34666, 38.88187 ], [ -77.34882, 38.88227 ], [ -77.34967, 38.88153 ], [ -77.35047, 38.8815 ], [ -77.35071, 38.88224 ], [ -77.34978, 38.88316 ], [ -77.35064, 38.88453 ], [ -77.35286, 38.88365 ], [ -77.35377, 38.88387 ], [ -77.35388, 38.88427 ], [ -77.35319, 38.8847 ], [ -77.35455, 38.88755 ], [ -77.35346, 38.88794 ], [ -77.3523, 38.88783 ], [ -77.35227, 38.88706 ], [ -77.35296, 38.88689 ], [ -77.35255, 38.88629 ], [ -77.35139, 38.88727 ], [ -77.35196, 38.88854 ], [ -77.35022, 38.88921 ], [ -77.34977, 38.88853 ], [ -77.35038, 38.88811 ], [ -77.34894, 38.88682 ], [ -77.34772, 38.88661 ], [ -77.34584, 38.88784 ], [ -77.3451, 38.88734 ], [ -77.34721, 38.8856 ], [ -77.34885, 38.88562 ], [ -77.35046, 38.88639 ], [ -77.35198, 38.8853 ], [ -77.35037, 38.8856 ], [ -77.34897, 38.88468 ], [ -77.34743, 38.88499 ], [ -77.34632, 38.88446 ], [ -77.34514, 38.88503 ], [ -77.34463, 38.88491 ], [ -77.34455, 38.88415 ], [ -77.34547, 38.88354 ], [ -77.34663, 38.8834 ], [ -77.34763, 38.8839 ], [ -77.34852, 38.88366 ], [ -77.34817, 38.88322 ], [ -77.3462, 38.88289 ], [ -77.34535, 38.88338 ], [ -77.34444, 38.88334 ], [ -77.34399, 38.88292 ], [ -77.34409, 38.88251 ], [ -77.34505, 38.88228 ], [ -77.34463, 38.88182 ], [ -77.34231, 38.88229 ], [ -77.34173, 38.88349 ], [ -77.34122, 38.88357 ], [ -77.34074, 38.88274 ], [ -77.33845, 38.88333 ], [ -77.33753, 38.88284 ], [ -77.33678, 38.88306 ], [ -77.33635, 38.88237 ], [ -77.33757, 38.88156 ], [ -77.33849, 38.88206 ], [ -77.34395, 38.88084 ], [ -77.34214, 38.88043 ], [ -77.34178, 38.87976 ], [ -77.34246, 38.87922 ], [ -77.34307, 38.87959 ], [ -77.34392, 38.87964 ], [ -77.34355, 38.87886 ], [ -77.34445, 38.87861 ], [ -77.34477, 38.87797 ], [ -77.34248, 38.87851 ], [ -77.34007, 38.87719 ], [ -77.33927, 38.87628 ], [ -77.3428, 38.8729 ], [ -77.34452, 38.87251 ], [ -77.34627, 38.86963 ], [ -77.34705, 38.86942 ], [ -77.34857, 38.8699 ], [ -77.34948, 38.86824 ], [ -77.34818, 38.86745 ], [ -77.34598, 38.86692 ], [ -77.34492, 38.86718 ], [ -77.34484, 38.86837 ], [ -77.34411, 38.86888 ], [ -77.3434, 38.86839 ], [ -77.34348, 38.86754 ], [ -77.34159, 38.86772 ], [ -77.34149, 38.86696 ], [ -77.34634, 38.86586 ], [ -77.347, 38.86485 ], [ -77.34631, 38.86478 ], [ -77.34626, 38.86401 ], [ -77.34831, 38.86342 ], [ -77.34878, 38.86409 ], [ -77.34762, 38.86627 ], [ -77.35081, 38.86753 ], [ -77.35165, 38.8667 ], [ -77.35316, 38.86701 ], [ -77.35352, 38.86756 ], [ -77.3543, 38.86765 ], [ -77.35408, 38.86867 ], [ -77.35533, 38.86913 ], [ -77.35567, 38.86984 ], [ -77.35475, 38.87011 ], [ -77.35074, 38.86869 ], [ -77.34982, 38.87035 ] ], [ [ -77.34609, 38.87737 ], [ -77.34521, 38.88033 ], [ -77.34689, 38.87943 ], [ -77.34773, 38.87844 ], [ -77.3465, 38.87814 ], [ -77.34633, 38.87739 ], [ -77.34699, 38.87715 ], [ -77.34802, 38.87737 ], [ -77.3479, 38.8769 ], [ -77.34609, 38.87737 ] ], [ [ -77.34554, 38.87522 ], [ -77.34617, 38.87403 ], [ -77.34491, 38.87444 ], [ -77.34472, 38.87358 ], [ -77.34369, 38.87372 ], [ -77.341, 38.87639 ], [ -77.34295, 38.87749 ], [ -77.34302, 38.87644 ], [ -77.34399, 38.87648 ], [ -77.3442, 38.87699 ], [ -77.34554, 38.87629 ], [ -77.34554, 38.87522 ] ], [ [ -77.35291, 38.86801 ], [ -77.35216, 38.86785 ], [ -77.35213, 38.86799 ], [ -77.35291, 38.86801 ] ], [ [ -77.35034, 38.88246 ], [ -77.35029, 38.88249 ], [ -77.35032, 38.88248 ], [ -77.35034, 38.88246 ] ], [ [ -77.35045, 38.8824 ], [ -77.35042, 38.88241 ], [ -77.35042, 38.88242 ], [ -77.35045, 38.8824 ] ] ] } }
]
}
