{
"type": "FeatureCollection",
"name": "452",
"crs": { "type": "name", "properties": { "name": "urn:ogc:def:crs:OGC:1.3:CRS84" } },
"xy_coordinate_resolution": 1e-05,
"features": [
{ "type": "Feature", "properties": { "variant": "T0", "miles": 0.5 }, "geometry": { "type": "Polygon", "coordinates": [ [ [ -77.21731, 38.84862 ], [ -77.21904, 38.85049 ], [ -77.21886, 38.85237 ], [ -77.2219, 38.85405 ], [ -77.22213, 38.85479 ], [ -77.2217, 38.85503 ], [ -77.22068, 38.85497 ], [ -77.21981, 38.85443 ], [ -77.21877, 38.8545 ], [ -77.21811, 38.85518 ], [ -77.21664, 38.85505 ], [ -77.21659, 38.8565 ], [ -77.21554, 38.85786 ], [ -77.21448, 38.85823 ], [ -77.21326, 38.85785 ], [ -77.21198, 38.85642 ], [ -77.20994, 38.85645 ], [ -77.20975, 38.85568 ], [ -77.20866, 38.85561 ], [ -77.20856, 38.85485 ], [ -77.20951, 38.85462 ], [ -77.21041, 38.85313 ], [ -77.21138, 38.85324 ], [ -77.21159, 38.854 ], [ -77.21393, 38.85193 ], [ -77.2103, 38.85046 ], [ -77.20962, 38.8524 ], [ -77.20865, 38.85239 ], [ -77.2085, 38.85123 ], [ -77.20916, 38.84973 ], [ -77.20746, 38.84899 ], [ -77.20708, 38.84829 ], [ -77.21077, 38.84695 ], [ -77.21003, 38.84584 ], [ -77.21034, 38.84512 ], [ -77.21127, 38.84536 ], [ -77.21403, 38.84935 ], [ -77.21731, 38.84862 ] ], [ [ -77.21817, 38.85394 ], [ -77.21842, 38.85364 ], [ -77.21838, 38.85358 ], [ -77.21817, 38.85394 ] ], [ [ -77.21719, 38.8519 ], [ -77.2171, 38.85111 ], [ -77.21595, 38.85145 ], [ -77.21719, 38.8519 ] ], [ [ -77.21321, 38.85043 ], [ -77.21145, 38.8479 ], [ -77.20964, 38.84865 ], [ -77.21181, 38.84996 ], [ -77.21321, 38.85043 ] ], [ [ -77.21539, 38.85595 ], [ -77.21529, 38.85527 ], [ -77.21264, 38.85547 ], [ -77.21444, 38.85715 ], [ -77.21539, 38.85595 ] ], [ [ -77.21403, 38.85428 ], [ -77.21435, 38.85425 ], [ -77.21432, 38.85404 ], [ -77.21403, 38.85428 ] ], [ [ -77.21488, 38.85338 ], [ -77.21451, 38.85325 ], [ -77.21434, 38.85389 ], [ -77.21445, 38.85357 ], [ -77.21488, 38.85338 ] ], [ [ -77.2162, 38.85402 ], [ -77.21553, 38.85364 ], [ -77.21572, 38.85415 ], [ -77.2162, 38.85402 ] ], [ [ -77.21715, 38.85308 ], [ -77.21681, 38.85302 ], [ -77.21709, 38.85319 ], [ -77.21715, 38.85308 ] ], [ [ -77.21342, 38.85432 ], [ -77.21317, 38.85422 ], [ -77.21301, 38.85435 ], [ -77.21342, 38.85432 ] ] ] } },
{ "type": "Feature", "properties": { "variant": "T0", "miles": 1.0 }, "geometry": { "type": "Polygon", "coordinates": [ [ [ -77.22301, 38.85111 ], [ -77.22397, 38.85118 ], [ -77.22449, 38.85085 ], [ -77.22527, 38.85153 ], [ -77.22622, 38.85164 ], [ -77.22688, 38.85294 ], [ -77.22686, 38.85394 ], [ -77.23062, 38.85349 ], [ -77.23135, 38.85399 ], [ -77.23065, 38.85469 ], [ -77.22878, 38.85489 ], [ -77.22861, 38.85713 ], [ -77.22684, 38.85681 ], [ -77.22692, 38.85907 ], [ -77.22765, 38.85962 ], [ -77.22695, 38.86015 ], [ -77.22587, 38.85999 ], [ -77.22407, 38.85632 ], [ -77.21981, 38.85443 ], [ -77.21877, 38.8545 ], [ -77.21816, 38.85516 ], [ -77.21897, 38.85618 ], [ -77.21843, 38.85733 ], [ -77.2164, 38.85775 ], [ -77.2158, 38.85756 ], [ -77.21471, 38.85821 ], [ -77.21336, 38.85792 ], [ -77.21197, 38.85641 ], [ -77.20994, 38.85645 ], [ -77.20975, 38.85568 ], [ -77.20825, 38.85612 ], [ -77.20488, 38.85613 ], [ -77.20439, 38.85547 ], [ -77.20472, 38.85489 ], [ -77.20671, 38.8551 ], [ -77.20713, 38.85451 ], [ -77.20728, 38.85377 ], [ -77.20568, 38.85376 ], [ -77.20502, 38.85295 ], [ -77.2052, 38.85161 ], [ -77.20575, 38.8514 ], [ -77.20518, 38.85091 ], [ -77.20563, 38.85028 ], [ -77.20521, 38.84975 ], [ -77.20682, 38.84879 ], [ -77.20504, 38.84832 ], [ -77.20466, 38.85017 ], [ -77.20225, 38.85021 ], [ -77.20224, 38.85108 ], [ -77.2018, 38.8513 ], [ -77.20075, 38.85088 ], [ -77.20094, 38.84979 ], [ -77.19912, 38.84978 ], [ -77.19827, 38.84853 ], [ -77.19839, 38.84777 ], [ -77.20015, 38.84812 ], [ -77.20056, 38.84703 ], [ -77.20154, 38.84717 ], [ -77.20228, 38.8464 ], [ -77.20184, 38.84595 ], [ -77.19997, 38.84646 ], [ -77.1991, 38.84614 ], [ -77.1989, 38.84518 ], [ -77.20082, 38.84465 ], [ -77.19983, 38.84311 ], [ -77.20064, 38.84268 ], [ -77.20108, 38.8429 ], [ -77.20294, 38.8453 ], [ -77.20513, 38.84297 ], [ -77.2061, 38.84287 ], [ -77.20636, 38.84323 ], [ -77.2057, 38.84413 ], [ -77.20639, 38.84403 ], [ -77.20783, 38.84207 ], [ -77.2089, 38.84163 ], [ -77.20936, 38.8423 ], [ -77.20896, 38.84271 ], [ -77.20884, 38.84528 ], [ -77.20924, 38.84562 ], [ -77.21288, 38.84395 ], [ -77.21264, 38.84325 ], [ -77.21346, 38.84302 ], [ -77.21311, 38.84218 ], [ -77.21336, 38.84161 ], [ -77.21417, 38.84143 ], [ -77.21455, 38.84173 ], [ -77.21492, 38.8429 ], [ -77.21579, 38.8425 ], [ -77.21567, 38.84105 ], [ -77.21662, 38.84085 ], [ -77.21708, 38.84156 ], [ -77.21811, 38.8419 ], [ -77.21856, 38.8441 ], [ -77.21793, 38.84511 ], [ -77.21904, 38.84608 ], [ -77.219, 38.8465 ], [ -77.21337, 38.8484 ], [ -77.21791, 38.84697 ], [ -77.21883, 38.84697 ], [ -77.21901, 38.84773 ], [ -77.21543, 38.84896 ], [ -77.21731, 38.84862 ], [ -77.2176, 38.84933 ], [ -77.21901, 38.85037 ], [ -77.21886, 38.85237 ], [ -77.22044, 38.85333 ], [ -77.21996, 38.84954 ], [ -77.22014, 38.84915 ], [ -77.22112, 38.84911 ], [ -77.22198, 38.8539 ], [ -77.22139, 38.84929 ], [ -77.22236, 38.84834 ], [ -77.22311, 38.84883 ], [ -77.22277, 38.8494 ], [ -77.22301, 38.85111 ] ], [ [ -77.21572, 38.85415 ], [ -77.2162, 38.85402 ], [ -77.21553, 38.85364 ], [ -77.21572, 38.85415 ] ], [ [ -77.21709, 38.85319 ], [ -77.21654, 38.85285 ], [ -77.21648, 38.85283 ], [ -77.21709, 38.85319 ] ], [ [ -77.2137, 38.85185 ], [ -77.2103, 38.85046 ], [ -77.20982, 38.85236 ], [ -77.21084, 38.85206 ], [ -77.21098, 38.85296 ], [ -77.2119, 38.85293 ], [ -77.21218, 38.85347 ], [ -77.21333, 38.85269 ], [ -77.2137, 38.85185 ] ], [ [ -77.20964, 38.84865 ], [ -77.21193, 38.85002 ], [ -77.21325, 38.85051 ], [ -77.21145, 38.8479 ], [ -77.20964, 38.84865 ] ], [ [ -77.21036, 38.84636 ], [ -77.20999, 38.84653 ], [ -77.20986, 38.84732 ], [ -77.21077, 38.84695 ], [ -77.21036, 38.84636 ] ], [ [ -77.22697, 38.85502 ], [ -77.22719, 38.85544 ], [ -77.22745, 38.85564 ], [ -77.2274, 38.85499 ], [ -77.22697, 38.85502 ] ], [ [ -77.22497, 38.8553 ], [ -77.22561, 38.85581 ], [ -77.22583, 38.85608 ], [ -77.22559, 38.85512 ], [ -77.22497, 38.8553 ] ], [ [ -77.22545, 38.85387 ], [ -77.2254, 38.85355 ], [ -77.22335, 38.85369 ], [ -77.22341, 38.85418 ], [ -77.22545, 38.85387 ] ], [ [ -77.21579, 38.84482 ], [ -77.216, 38.84473 ], [ -77.21596, 38.84469 ], [ -77.21579, 38.84482 ] ], [ [ -77.2166, 38.84338 ], [ -77.21658, 38.84339 ], [ -77.21663, 38.84344 ], [ -77.2166, 38.84338 ] ], [ [ -77.21715, 38.84414 ], [ -77.21718, 38.84397 ], [ -77.21696, 38.84388 ], [ -77.21715, 38.84414 ] ], [ [ -77.21673, 38.84565 ], [ -77.21267, 38.84739 ], [ -77.21692, 38.84586 ], [ -77.21673, 38.84565 ] ], [ [ -77.21846, 38.85383 ], [ -77.21817, 38.85394 ], [ -77.21853, 38.85401 ], [ -77.21846, 38.85383 ] ], [ [ -77.21712, 38.85187 ], [ -77.2171, 38.85111 ], [ -77.21595, 38.85145 ], [ -77.21712, 38.85187 ] ], [ [ -77.21565, 38.84488 ], [ -77.21325, 38.84561 ], [ -77.21303, 38.846 ], [ -77.21565, 38.84488 ] ], [ [ -77.2127, 38.84614 ], [ -77.21156, 38.84582 ], [ -77.21199, 38.84644 ], [ -77.2127, 38.84614 ] ], [ [ -77.20986, 38.85409 ], [ -77.21009, 38.85389 ], [ -77.20984, 38.85387 ], [ -77.20986, 38.85409 ] ], [ [ -77.20657, 38.84679 ], [ -77.20643, 38.84678 ], [ -77.20642, 38.84686 ], [ -77.20657, 38.84679 ] ], [ [ -77.20392, 38.8462 ], [ -77.20648, 38.8454 ], [ -77.208, 38.84616 ], [ -77.20679, 38.84512 ], [ -77.20477, 38.8451 ], [ -77.20392, 38.8462 ] ], [ [ -77.21432, 38.85404 ], [ -77.21403, 38.85428 ], [ -77.21435, 38.85425 ], [ -77.21432, 38.85404 ] ], [ [ -77.21332, 38.85429 ], [ -77.21301, 38.85435 ], [ -77.21342, 38.85432 ], [ -77.21332, 38.85429 ] ], [ [ -77.21451, 38.85325 ], [ -77.21434, 38.85389 ], [ -77.21488, 38.85338 ], [ -77.21451, 38.85325 ] ], [ [ -77.2116, 38.85395 ], [ -77.21159, 38.854 ], [ -77.21165, 38.85394 ], [ -77.2116, 38.85395 ] ], [ [ -77.21492, 38.85617 ], [ -77.21486, 38.85649 ], [ -77.21521, 38.85614 ], [ -77.21492, 38.85617 ] ], [ [ -77.21264, 38.85547 ], [ -77.21302, 38.85568 ], [ -77.21316, 38.85543 ], [ -77.21264, 38.85547 ] ], [ [ -77.20916, 38.84973 ], [ -77.20907, 38.84981 ], [ -77.20907, 38.84993 ], [ -77.20916, 38.84973 ] ], [ [ -77.20889, 38.84773 ], [ -77.20952, 38.84746 ], [ -77.20969, 38.84739 ], [ -77.20914, 38.84734 ], [ -77.20889, 38.84773 ] ], [ [ -77.20783, 38.84747 ], [ -77.20722, 38.84775 ], [ -77.20816, 38.84805 ], [ -77.20874, 38.8478 ], [ -77.20783, 38.84747 ] ], [ [ -77.20871, 38.8507 ], [ -77.20798, 38.85127 ], [ -77.20713, 38.85127 ], [ -77.20789, 38.85184 ], [ -77.20847, 38.85151 ], [ -77.20871, 38.8507 ] ], [ [ -77.20766, 38.85233 ], [ -77.20761, 38.85237 ], [ -77.20763, 38.85242 ], [ -77.20766, 38.85233 ] ], [ [ -77.20284, 38.84856 ], [ -77.20245, 38.84913 ], [ -77.20359, 38.84917 ], [ -77.20364, 38.84853 ], [ -77.20284, 38.84856 ] ] ] } },
{ "type": "Feature", "properties": { "variant": "T0", "miles": 1.5 }, "geometry": { "type": "Polygon", "coordinates": [ [ [ -77.23306, 38.84862 ], [ -77.2344, 38.84738 ], [ -77.23504, 38.84796 ], [ -77.23383, 38.84958 ], [ -77.23506, 38.84958 ], [ -77.23569, 38.85084 ], [ -77.23607, 38.8501 ], [ -77.23658, 38.85001 ], [ -77.23719, 38.85044 ], [ -77.23718, 38.85164 ], [ -77.23597, 38.8519 ], [ -77.23609, 38.85316 ], [ -77.23788, 38.85296 ], [ -77.23857, 38.85248 ], [ -77.2394, 38.85288 ], [ -77.23933, 38.85329 ], [ -77.23851, 38.85395 ], [ -77.23631, 38.85423 ], [ -77.23675, 38.85479 ], [ -77.23624, 38.85623 ], [ -77.23662, 38.8568 ], [ -77.23532, 38.85773 ], [ -77.23438, 38.85752 ], [ -77.23435, 38.857 ], [ -77.23378, 38.85665 ], [ -77.23328, 38.85708 ], [ -77.23225, 38.85716 ], [ -77.23253, 38.85782 ], [ -77.2318, 38.8583 ], [ -77.23173, 38.85885 ], [ -77.23327, 38.86113 ], [ -77.2328, 38.8622 ], [ -77.23277, 38.86471 ], [ -77.23183, 38.86516 ], [ -77.23143, 38.8647 ], [ -77.22851, 38.86357 ], [ -77.22844, 38.86681 ], [ -77.22771, 38.86732 ], [ -77.2268, 38.86675 ], [ -77.22688, 38.86466 ], [ -77.22506, 38.86516 ], [ -77.22371, 38.8641 ], [ -77.22375, 38.85765 ], [ -77.22443, 38.85668 ], [ -77.21981, 38.85443 ], [ -77.21877, 38.8545 ], [ -77.21816, 38.85516 ], [ -77.21897, 38.85618 ], [ -77.21843, 38.85733 ], [ -77.2164, 38.85775 ], [ -77.2158, 38.85756 ], [ -77.21471, 38.85821 ], [ -77.21336, 38.85792 ], [ -77.21197, 38.85641 ], [ -77.20994, 38.85645 ], [ -77.20975, 38.85568 ], [ -77.20825, 38.85612 ], [ -77.20574, 38.85605 ], [ -77.20576, 38.85667 ], [ -77.2084, 38.85703 ], [ -77.21062, 38.85816 ], [ -77.21151, 38.85793 ], [ -77.21183, 38.85865 ], [ -77.20978, 38.86001 ], [ -77.2079, 38.86013 ], [ -77.20718, 38.85961 ], [ -77.2073, 38.85804 ], [ -77.20601, 38.8581 ], [ -77.20537, 38.85924 ], [ -77.20465, 38.85933 ], [ -77.20467, 38.86041 ], [ -77.20529, 38.86092 ], [ -77.20438, 38.86237 ], [ -77.20388, 38.86249 ], [ -77.20145, 38.86225 ], [ -77.2, 38.86138 ], [ -77.20158, 38.85912 ], [ -77.20276, 38.85849 ], [ -77.19888, 38.85792 ], [ -77.19844, 38.8577 ], [ -77.19839, 38.85663 ], [ -77.19484, 38.85679 ], [ -77.19434, 38.85615 ], [ -77.19419, 38.85437 ], [ -77.19259, 38.8545 ], [ -77.19222, 38.8542 ], [ -77.19224, 38.85379 ], [ -77.19369, 38.85333 ], [ -77.1942, 38.85264 ], [ -77.19523, 38.85316 ], [ -77.1957, 38.85223 ], [ -77.19619, 38.85208 ], [ -77.19668, 38.85223 ], [ -77.19688, 38.85287 ], [ -77.19862, 38.85221 ], [ -77.19794, 38.85157 ], [ -77.19812, 38.85118 ], [ -77.19707, 38.85092 ], [ -77.19698, 38.85045 ], [ -77.19506, 38.8505 ], [ -77.19377, 38.84939 ], [ -77.19249, 38.84993 ], [ -77.19167, 38.84951 ], [ -77.19328, 38.8478 ], [ -77.19216, 38.84694 ], [ -77.19154, 38.84562 ], [ -77.19157, 38.84521 ], [ -77.1925, 38.84479 ], [ -77.19238, 38.84402 ], [ -77.1933, 38.84377 ], [ -77.19381, 38.84444 ], [ -77.19722, 38.84352 ], [ -77.19659, 38.84244 ], [ -77.19687, 38.84209 ], [ -77.19783, 38.84222 ], [ -77.19834, 38.84284 ], [ -77.19908, 38.84215 ], [ -77.1983, 38.84128 ], [ -77.19753, 38.84113 ], [ -77.19462, 38.84284 ], [ -77.19365, 38.84273 ], [ -77.19352, 38.84233 ], [ -77.19473, 38.84142 ], [ -77.19444, 38.84039 ], [ -77.19488, 38.84016 ], [ -77.19583, 38.84077 ], [ -77.19614, 38.84059 ], [ -77.19375, 38.83912 ], [ -77.19348, 38.83876 ], [ -77.19408, 38.83815 ], [ -77.19518, 38.83862 ], [ -77.19584, 38.83816 ], [ -77.19636, 38.83824 ], [ -77.19664, 38.83859 ], [ -77.19626, 38.83929 ], [ -77.19862, 38.84023 ], [ -77.19812, 38.83865 ], [ -77.19699, 38.8386 ], [ -77.19678, 38.83822 ], [ -77.19698, 38.83775 ], [ -77.19778, 38.83759 ], [ -77.19735, 38.83625 ], [ -77.19785, 38.8356 ], [ -77.19869, 38.83599 ], [ -77.1996, 38.83882 ], [ -77.20005, 38.83873 ], [ -77.19988, 38.83761 ], [ -77.2003, 38.83736 ], [ -77.20115, 38.83773 ], [ -77.20139, 38.83847 ], [ -77.20249, 38.8385 ], [ -77.20204, 38.83785 ], [ -77.20272, 38.8373 ], [ -77.20382, 38.83815 ], [ -77.20419, 38.83967 ], [ -77.20687, 38.84057 ], [ -77.20758, 38.83903 ], [ -77.20464, 38.83784 ], [ -77.20421, 38.83711 ], [ -77.2051, 38.83679 ], [ -77.2069, 38.83742 ], [ -77.20799, 38.83741 ], [ -77.20977, 38.83454 ], [ -77.21073, 38.83467 ], [ -77.21044, 38.83629 ], [ -77.20921, 38.83829 ], [ -77.21163, 38.83935 ], [ -77.21103, 38.8414 ], [ -77.21142, 38.84162 ], [ -77.21161, 38.84083 ], [ -77.21208, 38.84064 ], [ -77.21283, 38.84113 ], [ -77.2121, 38.8443 ], [ -77.21288, 38.84395 ], [ -77.21264, 38.84325 ], [ -77.21346, 38.84302 ], [ -77.21314, 38.84194 ], [ -77.21416, 38.84143 ], [ -77.21435, 38.84093 ], [ -77.21385, 38.84021 ], [ -77.21483, 38.83926 ], [ -77.21494, 38.83826 ], [ -77.21617, 38.83725 ], [ -77.21734, 38.83742 ], [ -77.21768, 38.83774 ], [ -77.21743, 38.83844 ], [ -77.21813, 38.83897 ], [ -77.2173, 38.8401 ], [ -77.21778, 38.84045 ], [ -77.21856, 38.84392 ], [ -77.21793, 38.84511 ], [ -77.21904, 38.84608 ], [ -77.219, 38.8465 ], [ -77.21337, 38.8484 ], [ -77.21791, 38.84697 ], [ -77.21883, 38.84697 ], [ -77.21901, 38.84773 ], [ -77.21543, 38.84896 ], [ -77.21731, 38.84862 ], [ -77.2176, 38.84933 ], [ -77.21901, 38.85037 ], [ -77.21886, 38.85237 ], [ -77.22044, 38.85333 ], [ -77.22002, 38.8489 ], [ -77.2208, 38.84839 ], [ -77.2212, 38.847 ], [ -77.22183, 38.84642 ], [ -77.22309, 38.84643 ], [ -77.22406, 38.84735 ], [ -77.22277, 38.84939 ], [ -77.22286, 38.85007 ], [ -77.22539, 38.84889 ], [ -77.22619, 38.84932 ], [ -77.22686, 38.85394 ], [ -77.23012, 38.85369 ], [ -77.23206, 38.8495 ], [ -77.23149, 38.84919 ], [ -77.23159, 38.84845 ], [ -77.23246, 38.8481 ], [ -77.23306, 38.84862 ] ], [ [ -77.21521, 38.85614 ], [ -77.21471, 38.85639 ], [ -77.21486, 38.85649 ], [ -77.21521, 38.85614 ] ], [ [ -77.21302, 38.85568 ], [ -77.21316, 38.85543 ], [ -77.21264, 38.85547 ], [ -77.21302, 38.85568 ] ], [ [ -77.21165, 38.85394 ], [ -77.2116, 38.85395 ], [ -77.21159, 38.854 ], [ -77.21165, 38.85394 ] ], [ [ -77.211, 38.85295 ], [ -77.2119, 38.85293 ], [ -77.21218, 38.85347 ], [ -77.21393, 38.85193 ], [ -77.2103, 38.85046 ], [ -77.20982, 38.85236 ], [ -77.21084, 38.85206 ], [ -77.211, 38.85295 ] ], [ [ -77.20964, 38.84865 ], [ -77.21193, 38.85002 ], [ -77.21325, 38.85051 ], [ -77.21145, 38.8479 ], [ -77.20964, 38.84865 ] ], [ [ -77.21036, 38.84636 ], [ -77.20999, 38.84653 ], [ -77.20986, 38.84732 ], [ -77.21077, 38.84695 ], [ -77.21036, 38.84636 ] ], [ [ -77.22341, 38.85418 ], [ -77.22548, 38.85405 ], [ -77.2254, 38.85355 ], [ -77.22335, 38.85369 ], [ -77.22341, 38.85418 ] ], [ [ -77.2239, 38.85107 ], [ -77.22397, 38.85118 ], [ -77.22401, 38.85106 ], [ -77.2239, 38.85107 ] ], [ [ -77.22851, 38.85737 ], [ -77.22693, 38.85675 ], [ -77.22672, 38.85831 ], [ -77.23041, 38.85827 ], [ -77.23037, 38.85741 ], [ -77.22851, 38.85737 ] ], [ [ -77.23377, 38.855 ], [ -77.23382, 38.85622 ], [ -77.23465, 38.85594 ], [ -77.23422, 38.85498 ], [ -77.23377, 38.855 ] ], [ [ -77.23113, 38.85477 ], [ -77.23056, 38.85495 ], [ -77.23102, 38.85556 ], [ -77.23185, 38.85561 ], [ -77.23243, 38.85607 ], [ -77.23113, 38.85477 ] ], [ [ -77.22914, 38.85485 ], [ -77.22921, 38.85614 ], [ -77.22917, 38.85485 ], [ -77.22914, 38.85485 ] ], [ [ -77.23396, 38.85209 ], [ -77.23401, 38.85332 ], [ -77.23471, 38.85327 ], [ -77.2346, 38.85203 ], [ -77.23396, 38.85209 ] ], [ [ -77.23258, 38.85222 ], [ -77.23212, 38.85226 ], [ -77.23166, 38.85346 ], [ -77.23263, 38.85341 ], [ -77.23258, 38.85222 ] ], [ [ -77.2343, 38.85097 ], [ -77.23418, 38.85064 ], [ -77.23392, 38.85067 ], [ -77.23394, 38.851 ], [ -77.2343, 38.85097 ] ], [ [ -77.23256, 38.85105 ], [ -77.23253, 38.85113 ], [ -77.23256, 38.85113 ], [ -77.23256, 38.85105 ] ], [ [ -77.23059, 38.85599 ], [ -77.23067, 38.85608 ], [ -77.23069, 38.85596 ], [ -77.23059, 38.85599 ] ], [ [ -77.23045, 38.86011 ], [ -77.23037, 38.86096 ], [ -77.23073, 38.86106 ], [ -77.23055, 38.86043 ], [ -77.23045, 38.86011 ] ], [ [ -77.23016, 38.8622 ], [ -77.23063, 38.86219 ], [ -77.23015, 38.86204 ], [ -77.23016, 38.8622 ] ], [ [ -77.23051, 38.86328 ], [ -77.23147, 38.86359 ], [ -77.23159, 38.86321 ], [ -77.23051, 38.86328 ] ], [ [ -77.22512, 38.85838 ], [ -77.22508, 38.86133 ], [ -77.22621, 38.86121 ], [ -77.22512, 38.85838 ] ], [ [ -77.22738, 38.85558 ], [ -77.2274, 38.85499 ], [ -77.22697, 38.85502 ], [ -77.22708, 38.85531 ], [ -77.22738, 38.85558 ] ], [ [ -77.22476, 38.85517 ], [ -77.22561, 38.85581 ], [ -77.22583, 38.85608 ], [ -77.22559, 38.85512 ], [ -77.22476, 38.85517 ] ], [ [ -77.22677, 38.86219 ], [ -77.22667, 38.86269 ], [ -77.2269, 38.86291 ], [ -77.22677, 38.86219 ] ], [ [ -77.22505, 38.86382 ], [ -77.22544, 38.86411 ], [ -77.22589, 38.8638 ], [ -77.22521, 38.86241 ], [ -77.22505, 38.86382 ] ], [ [ -77.22807, 38.86025 ], [ -77.22784, 38.86014 ], [ -77.22812, 38.86047 ], [ -77.22807, 38.86025 ] ], [ [ -77.21673, 38.84565 ], [ -77.21267, 38.84739 ], [ -77.21692, 38.84586 ], [ -77.21673, 38.84565 ] ], [ [ -77.21715, 38.84414 ], [ -77.21718, 38.84397 ], [ -77.21696, 38.84388 ], [ -77.21715, 38.84414 ] ], [ [ -77.21663, 38.84344 ], [ -77.2166, 38.84338 ], [ -77.21658, 38.84339 ], [ -77.21663, 38.84344 ] ], [ [ -77.21648, 38.85283 ], [ -77.21709, 38.85319 ], [ -77.21715, 38.85308 ], [ -77.21648, 38.85283 ] ], [ [ -77.21719, 38.8519 ], [ -77.21678, 38.8512 ], [ -77.21595, 38.85145 ], [ -77.21719, 38.8519 ] ], [ [ -77.2214, 38.84903 ], [ -77.22187, 38.85369 ], [ -77.22198, 38.8539 ], [ -77.2214, 38.84903 ] ], [ [ -77.22244, 38.84749 ], [ -77.22247, 38.84741 ], [ -77.22241, 38.84754 ], [ -77.22244, 38.84749 ] ], [ [ -77.21828, 38.85377 ], [ -77.21853, 38.85401 ], [ -77.21838, 38.85358 ], [ -77.21828, 38.85377 ] ], [ [ -77.21593, 38.84476 ], [ -77.21596, 38.84469 ], [ -77.21579, 38.84482 ], [ -77.21593, 38.84476 ] ], [ [ -77.21565, 38.84488 ], [ -77.21325, 38.84561 ], [ -77.21303, 38.846 ], [ -77.21565, 38.84488 ] ], [ [ -77.21455, 38.8418 ], [ -77.21451, 38.84225 ], [ -77.21492, 38.8429 ], [ -77.21503, 38.8421 ], [ -77.21455, 38.8418 ] ], [ [ -77.2127, 38.84614 ], [ -77.21189, 38.84567 ], [ -77.21156, 38.84582 ], [ -77.21199, 38.84644 ], [ -77.2127, 38.84614 ] ], [ [ -77.21572, 38.85414 ], [ -77.2162, 38.85402 ], [ -77.21553, 38.85364 ], [ -77.21568, 38.85385 ], [ -77.21572, 38.85414 ] ], [ [ -77.21435, 38.85425 ], [ -77.21432, 38.85404 ], [ -77.21403, 38.85428 ], [ -77.21435, 38.85425 ] ], [ [ -77.21317, 38.85422 ], [ -77.21301, 38.85435 ], [ -77.21342, 38.85432 ], [ -77.21317, 38.85422 ] ], [ [ -77.21451, 38.85325 ], [ -77.21434, 38.85389 ], [ -77.21488, 38.85338 ], [ -77.21451, 38.85325 ] ], [ [ -77.21104, 38.84267 ], [ -77.21014, 38.84223 ], [ -77.20902, 38.84265 ], [ -77.20903, 38.84423 ], [ -77.21094, 38.84364 ], [ -77.21104, 38.84267 ] ], [ [ -77.2097, 38.84112 ], [ -77.21019, 38.83982 ], [ -77.2089, 38.83936 ], [ -77.20812, 38.84104 ], [ -77.2089, 38.84152 ], [ -77.2097, 38.84112 ] ], [ [ -77.20322, 38.85746 ], [ -77.20383, 38.85642 ], [ -77.20438, 38.85652 ], [ -77.20436, 38.85616 ], [ -77.19976, 38.8565 ], [ -77.19979, 38.85696 ], [ -77.20322, 38.85746 ] ], [ [ -77.20378, 38.85415 ], [ -77.20418, 38.85442 ], [ -77.20413, 38.85509 ], [ -77.20522, 38.85476 ], [ -77.20671, 38.8551 ], [ -77.20713, 38.85451 ], [ -77.20728, 38.85377 ], [ -77.20579, 38.8538 ], [ -77.20504, 38.8531 ], [ -77.2052, 38.85161 ], [ -77.20575, 38.8514 ], [ -77.20518, 38.85091 ], [ -77.20563, 38.85028 ], [ -77.20521, 38.84975 ], [ -77.20682, 38.84879 ], [ -77.20504, 38.84832 ], [ -77.20458, 38.85333 ], [ -77.20405, 38.85394 ], [ -77.20317, 38.85361 ], [ -77.20321, 38.85314 ], [ -77.20135, 38.85285 ], [ -77.20117, 38.85177 ], [ -77.199, 38.85332 ], [ -77.19918, 38.85445 ], [ -77.19876, 38.8547 ], [ -77.19751, 38.85459 ], [ -77.19711, 38.85396 ], [ -77.19556, 38.85422 ], [ -77.19652, 38.85454 ], [ -77.19692, 38.85562 ], [ -77.1996, 38.85543 ], [ -77.19961, 38.85458 ], [ -77.20007, 38.85438 ], [ -77.2007, 38.85457 ], [ -77.20378, 38.85415 ] ], [ [ -77.20245, 38.84913 ], [ -77.20359, 38.84917 ], [ -77.20364, 38.84853 ], [ -77.20257, 38.84857 ], [ -77.20245, 38.84913 ] ], [ [ -77.20218, 38.84653 ], [ -77.20184, 38.84595 ], [ -77.20099, 38.84619 ], [ -77.20177, 38.84689 ], [ -77.20218, 38.84653 ] ], [ [ -77.20294, 38.8453 ], [ -77.20312, 38.84506 ], [ -77.20357, 38.84455 ], [ -77.20241, 38.84461 ], [ -77.20294, 38.8453 ] ], [ [ -77.20226, 38.84209 ], [ -77.20227, 38.84175 ], [ -77.20165, 38.84187 ], [ -77.20226, 38.84209 ] ], [ [ -77.20236, 38.84066 ], [ -77.20238, 38.84067 ], [ -77.20239, 38.84065 ], [ -77.20236, 38.84066 ] ], [ [ -77.20789, 38.85184 ], [ -77.20847, 38.85151 ], [ -77.20871, 38.8507 ], [ -77.20822, 38.8507 ], [ -77.20798, 38.85127 ], [ -77.20713, 38.85127 ], [ -77.20789, 38.85184 ] ], [ [ -77.20641, 38.84669 ], [ -77.20642, 38.84686 ], [ -77.20657, 38.84679 ], [ -77.20641, 38.84669 ] ], [ [ -77.208, 38.84616 ], [ -77.20679, 38.84512 ], [ -77.20477, 38.8451 ], [ -77.20392, 38.8462 ], [ -77.20608, 38.84535 ], [ -77.208, 38.84616 ] ], [ [ -77.20655, 38.84388 ], [ -77.20773, 38.84217 ], [ -77.20751, 38.84204 ], [ -77.2057, 38.84413 ], [ -77.20655, 38.84388 ] ], [ [ -77.20556, 38.84251 ], [ -77.20627, 38.84156 ], [ -77.20376, 38.84081 ], [ -77.20363, 38.84196 ], [ -77.20483, 38.84195 ], [ -77.20556, 38.84251 ] ], [ [ -77.20916, 38.84973 ], [ -77.20907, 38.84981 ], [ -77.20907, 38.84993 ], [ -77.20916, 38.84973 ] ], [ [ -77.20918, 38.84531 ], [ -77.20924, 38.84562 ], [ -77.20995, 38.84529 ], [ -77.20965, 38.84532 ], [ -77.20918, 38.84531 ] ], [ [ -77.20952, 38.84746 ], [ -77.20914, 38.84734 ], [ -77.20889, 38.84773 ], [ -77.20952, 38.84746 ] ], [ [ -77.20722, 38.84775 ], [ -77.20874, 38.8478 ], [ -77.20783, 38.84747 ], [ -77.20722, 38.84775 ] ], [ [ -77.20766, 38.85233 ], [ -77.20761, 38.85237 ], [ -77.20763, 38.85242 ], [ -77.20766, 38.85233 ] ], [ [ -77.20986, 38.85409 ], [ -77.21009, 38.85389 ], [ -77.20984, 38.85387 ], [ -77.20986, 38.85409 ] ], [ [ -77.20425, 38.84381 ], [ -77.20378, 38.84379 ], [ -77.20382, 38.84427 ], [ -77.20425, 38.84381 ] ], [ [ -77.20303, 38.84352 ], [ -77.20302, 38.84358 ], [ -77.20309, 38.84355 ], [ -77.20303, 38.84352 ] ], [ [ -77.20275, 38.8437 ], [ -77.20272, 38.8437 ], [ -77.2027, 38.84371 ], [ -77.20275, 38.8437 ] ], [ [ -77.20338, 38.85028 ], [ -77.20343, 38.85036 ], [ -77.20345, 38.85025 ], [ -77.20338, 38.85028 ] ], [ [ -77.20327, 38.86135 ], [ -77.20331, 38.86135 ], [ -77.20331, 38.86133 ], [ -77.20327, 38.86135 ] ], [ [ -77.19846, 38.85012 ], [ -77.19792, 38.84991 ], [ -77.19788, 38.85007 ], [ -77.19846, 38.85012 ] ], [ [ -77.1989, 38.84517 ], [ -77.1989, 38.84519 ], [ -77.19893, 38.84516 ], [ -77.1989, 38.84517 ] ], [ [ -77.19853, 38.84317 ], [ -77.19857, 38.84316 ], [ -77.1985, 38.84311 ], [ -77.19853, 38.84317 ] ], [ [ -77.19993, 38.83987 ], [ -77.20238, 38.83972 ], [ -77.20184, 38.83951 ], [ -77.19993, 38.83987 ] ], [ [ -77.20095, 38.84255 ], [ -77.201, 38.84225 ], [ -77.20129, 38.84194 ], [ -77.20062, 38.84207 ], [ -77.20095, 38.84255 ] ], [ [ -77.19984, 38.84496 ], [ -77.20005, 38.84486 ], [ -77.19973, 38.84495 ], [ -77.19984, 38.84496 ] ], [ [ -77.20088, 38.85006 ], [ -77.19986, 38.85061 ], [ -77.19991, 38.85122 ], [ -77.20062, 38.85062 ], [ -77.20088, 38.85006 ] ], [ [ -77.20018, 38.8479 ], [ -77.20018, 38.84795 ], [ -77.20019, 38.8479 ], [ -77.20018, 38.8479 ] ], [ [ -77.19678, 38.84719 ], [ -77.1968, 38.84735 ], [ -77.19704, 38.84717 ], [ -77.19678, 38.84719 ] ], [ [ -77.19594, 38.84727 ], [ -77.19563, 38.8473 ], [ -77.19528, 38.84758 ], [ -77.19579, 38.84779 ], [ -77.19594, 38.84727 ] ], [ [ -77.19438, 38.84546 ], [ -77.19426, 38.84546 ], [ -77.19429, 38.84553 ], [ -77.19438, 38.84546 ] ], [ [ -77.19744, 38.84556 ], [ -77.19712, 38.84565 ], [ -77.19724, 38.84584 ], [ -77.19744, 38.84556 ] ], [ [ -77.19555, 38.84899 ], [ -77.19549, 38.84897 ], [ -77.19538, 38.84912 ], [ -77.19555, 38.84899 ] ] ] } },
{ "type": "Feature", "properties": { "variant": "T2s", "miles": 0.5 }, "geometry": { "type": "Polygon", "coordinates": [ [ [ -77.21731, 38.84862 ], [ -77.21904, 38.85049 ], [ -77.21886, 38.85237 ], [ -77.2219, 38.85405 ], [ -77.22213, 38.85479 ], [ -77.2217, 38.85503 ], [ -77.21987, 38.85433 ], [ -77.21928, 38.85468 ], [ -77.21877, 38.8545 ], [ -77.21811, 38.85518 ], [ -77.21664, 38.85505 ], [ -77.21659, 38.8565 ], [ -77.21554, 38.85786 ], [ -77.21448, 38.85823 ], [ -77.21326, 38.85785 ], [ -77.21198, 38.85642 ], [ -77.20994, 38.85645 ], [ -77.20975, 38.85568 ], [ -77.20866, 38.85561 ], [ -77.20856, 38.85485 ], [ -77.20951, 38.85462 ], [ -77.21041, 38.85313 ], [ -77.21138, 38.85324 ], [ -77.21159, 38.854 ], [ -77.21393, 38.85193 ], [ -77.2103, 38.85046 ], [ -77.20962, 38.8524 ], [ -77.20865, 38.85239 ], [ -77.2085, 38.85123 ], [ -77.20916, 38.84973 ], [ -77.20746, 38.84899 ], [ -77.20708, 38.84829 ], [ -77.21077, 38.84695 ], [ -77.21003, 38.84584 ], [ -77.21034, 38.84512 ], [ -77.21127, 38.84536 ], [ -77.21403, 38.84935 ], [ -77.21731, 38.84862 ] ], [ [ -77.21817, 38.85394 ], [ -77.21842, 38.85364 ], [ -77.21838, 38.85358 ], [ -77.21817, 38.85394 ] ], [ [ -77.21709, 38.85319 ], [ -77.21654, 38.85285 ], [ -77.21648, 38.85283 ], [ -77.21709, 38.85319 ] ], [ [ -77.21719, 38.8519 ], [ -77.2171, 38.85111 ], [ -77.21595, 38.85145 ], [ -77.21719, 38.8519 ] ], [ [ -77.21321, 38.85043 ], [ -77.21145, 38.8479 ], [ -77.20964, 38.84865 ], [ -77.21181, 38.84996 ], [ -77.21321, 38.85043 ] ], [ [ -77.21451, 38.85325 ], [ -77.21434, 38.85389 ], [ -77.21488, 38.85338 ], [ -77.21451, 38.85325 ] ], [ [ -77.21269, 38.85549 ], [ -77.21362, 38.85658 ], [ -77.21453, 38.85712 ], [ -77.2154, 38.85594 ], [ -77.21529, 38.85527 ], [ -77.21269, 38.85549 ] ], [ [ -77.21403, 38.85428 ], [ -77.21435, 38.85425 ], [ -77.21432, 38.85404 ], [ -77.21403, 38.85428 ] ], [ [ -77.21572, 38.85414 ], [ -77.2162, 38.85402 ], [ -77.21553, 38.85364 ], [ -77.21568, 38.85385 ], [ -77.21572, 38.85414 ] ], [ [ -77.21342, 38.85432 ], [ -77.21317, 38.85422 ], [ -77.21301, 38.85435 ], [ -77.21342, 38.85432 ] ] ] } },
{ "type": "Feature", "properties": { "variant": "T2s", "miles": 1.0 }, "geometry": { "type": "Polygon", "coordinates": [ [ [ -77.22301, 38.85111 ], [ -77.22397, 38.85118 ], [ -77.22449, 38.85085 ], [ -77.22527, 38.85153 ], [ -77.22622, 38.85164 ], [ -77.22688, 38.85294 ], [ -77.22686, 38.85394 ], [ -77.23062, 38.85349 ], [ -77.23135, 38.85399 ], [ -77.23065, 38.85469 ], [ -77.22878, 38.85489 ], [ -77.22861, 38.85713 ], [ -77.22684, 38.85681 ], [ -77.22692, 38.85907 ], [ -77.22765, 38.85962 ], [ -77.22695, 38.86015 ], [ -77.22569, 38.85973 ], [ -77.225, 38.85725 ], [ -77.22428, 38.85627 ], [ -77.21987, 38.85433 ], [ -77.21928, 38.85468 ], [ -77.21877, 38.8545 ], [ -77.21816, 38.85516 ], [ -77.21897, 38.85618 ], [ -77.21843, 38.85733 ], [ -77.2164, 38.85775 ], [ -77.2158, 38.85756 ], [ -77.21471, 38.85821 ], [ -77.21336, 38.85792 ], [ -77.21197, 38.85641 ], [ -77.20994, 38.85645 ], [ -77.20975, 38.85568 ], [ -77.20825, 38.85612 ], [ -77.20488, 38.85613 ], [ -77.20439, 38.85547 ], [ -77.20472, 38.85489 ], [ -77.20671, 38.8551 ], [ -77.20713, 38.85451 ], [ -77.20728, 38.85377 ], [ -77.20568, 38.85376 ], [ -77.20502, 38.85295 ], [ -77.2052, 38.85161 ], [ -77.20575, 38.8514 ], [ -77.20518, 38.85091 ], [ -77.20563, 38.85028 ], [ -77.20521, 38.84975 ], [ -77.20682, 38.84879 ], [ -77.20504, 38.84832 ], [ -77.20466, 38.85017 ], [ -77.20225, 38.85021 ], [ -77.20224, 38.85108 ], [ -77.2018, 38.8513 ], [ -77.20077, 38.85091 ], [ -77.20118, 38.84848 ], [ -77.20034, 38.84822 ], [ -77.20029, 38.84739 ], [ -77.20108, 38.84693 ], [ -77.20154, 38.84717 ], [ -77.20228, 38.8464 ], [ -77.20184, 38.84595 ], [ -77.19997, 38.84646 ], [ -77.1991, 38.84613 ], [ -77.20006, 38.84482 ], [ -77.20082, 38.84465 ], [ -77.19993, 38.84318 ], [ -77.20077, 38.84279 ], [ -77.2012, 38.84303 ], [ -77.20294, 38.8453 ], [ -77.20513, 38.84297 ], [ -77.2061, 38.84287 ], [ -77.20636, 38.84323 ], [ -77.2057, 38.84413 ], [ -77.20639, 38.84403 ], [ -77.20783, 38.84207 ], [ -77.2089, 38.84163 ], [ -77.20936, 38.8423 ], [ -77.20896, 38.84271 ], [ -77.20884, 38.84528 ], [ -77.20924, 38.84562 ], [ -77.21288, 38.84395 ], [ -77.21264, 38.84325 ], [ -77.21346, 38.84302 ], [ -77.21311, 38.84218 ], [ -77.21336, 38.84161 ], [ -77.21417, 38.84143 ], [ -77.21455, 38.84173 ], [ -77.21492, 38.8429 ], [ -77.21579, 38.8425 ], [ -77.21567, 38.84105 ], [ -77.21662, 38.84085 ], [ -77.21708, 38.84156 ], [ -77.21811, 38.8419 ], [ -77.21856, 38.8441 ], [ -77.21793, 38.84511 ], [ -77.21904, 38.84608 ], [ -77.219, 38.8465 ], [ -77.21337, 38.8484 ], [ -77.21791, 38.84697 ], [ -77.21883, 38.84697 ], [ -77.21901, 38.84773 ], [ -77.21543, 38.84896 ], [ -77.21731, 38.84862 ], [ -77.2176, 38.84933 ], [ -77.21901, 38.85037 ], [ -77.21886, 38.85237 ], [ -77.22044, 38.85333 ], [ -77.21996, 38.84954 ], [ -77.22014, 38.84915 ], [ -77.22112, 38.84911 ], [ -77.22198, 38.8539 ], [ -77.22139, 38.84929 ], [ -77.22236, 38.84834 ], [ -77.22311, 38.84883 ], [ -77.22277, 38.8494 ], [ -77.22301, 38.85111 ] ], [ [ -77.21572, 38.85415 ], [ -77.2162, 38.85402 ], [ -77.21553, 38.85364 ], [ -77.21572, 38.85415 ] ], [ [ -77.21488, 38.85338 ], [ -77.21422, 38.85353 ], [ -77.21434, 38.85389 ], [ -77.21488, 38.85338 ] ], [ [ -77.21325, 38.85051 ], [ -77.21145, 38.8479 ], [ -77.20964, 38.84865 ], [ -77.21325, 38.85051 ] ], [ [ -77.20821, 38.84802 ], [ -77.20874, 38.8478 ], [ -77.20783, 38.84747 ], [ -77.20722, 38.84775 ], [ -77.20821, 38.84802 ] ], [ [ -77.20952, 38.84746 ], [ -77.20914, 38.84734 ], [ -77.20889, 38.84773 ], [ -77.20952, 38.84746 ] ], [ [ -77.21066, 38.847 ], [ -77.21036, 38.84636 ], [ -77.20986, 38.84732 ], [ -77.21066, 38.847 ] ], [ [ -77.22697, 38.85502 ], [ -77.22719, 38.85544 ], [ -77.22745, 38.85564 ], [ -77.2274, 38.85499 ], [ -77.22697, 38.85502 ] ], [ [ -77.22497, 38.8553 ], [ -77.22561, 38.85581 ], [ -77.22583, 38.85608 ], [ -77.22559, 38.85512 ], [ -77.22497, 38.8553 ] ], [ [ -77.2254, 38.85355 ], [ -77.22335, 38.85369 ], [ -77.22341, 38.85418 ], [ -77.22548, 38.85405 ], [ -77.2254, 38.85355 ] ], [ [ -77.21696, 38.84388 ], [ -77.21715, 38.84414 ], [ -77.21718, 38.84397 ], [ -77.21696, 38.84388 ] ], [ [ -77.21658, 38.84339 ], [ -77.21663, 38.84344 ], [ -77.2166, 38.84338 ], [ -77.21658, 38.84339 ] ], [ [ -77.21673, 38.84565 ], [ -77.21267, 38.84739 ], [ -77.21692, 38.84586 ], [ -77.21673, 38.84565 ] ], [ [ -77.21593, 38.84476 ], [ -77.21596, 38.84469 ], [ -77.21579, 38.84482 ], [ -77.21593, 38.84476 ] ], [ [ -77.21846, 38.85383 ], [ -77.21817, 38.85394 ], [ -77.21853, 38.85401 ], [ -77.21846, 38.85383 ] ], [ [ -77.2171, 38.85111 ], [ -77.21595, 38.85145 ], [ -77.21719, 38.8519 ], [ -77.2171, 38.85111 ] ], [ [ -77.21658, 38.85289 ], [ -77.21709, 38.85319 ], [ -77.21648, 38.85283 ], [ -77.21658, 38.85289 ] ], [ [ -77.21565, 38.84488 ], [ -77.21325, 38.84561 ], [ -77.21303, 38.846 ], [ -77.21565, 38.84488 ] ], [ [ -77.21199, 38.84644 ], [ -77.2127, 38.84614 ], [ -77.21189, 38.84567 ], [ -77.21156, 38.84582 ], [ -77.21199, 38.84644 ] ], [ [ -77.20986, 38.85409 ], [ -77.21009, 38.85389 ], [ -77.20984, 38.85387 ], [ -77.20986, 38.85409 ] ], [ [ -77.20657, 38.84679 ], [ -77.20643, 38.84678 ], [ -77.20642, 38.84686 ], [ -77.20657, 38.84679 ] ], [ [ -77.20392, 38.8462 ], [ -77.20648, 38.8454 ], [ -77.208, 38.84616 ], [ -77.20679, 38.84512 ], [ -77.20477, 38.8451 ], [ -77.20392, 38.8462 ] ], [ [ -77.21393, 38.85193 ], [ -77.2103, 38.85046 ], [ -77.20982, 38.85236 ], [ -77.21084, 38.85206 ], [ -77.21098, 38.85296 ], [ -77.2119, 38.85293 ], [ -77.21218, 38.85347 ], [ -77.21393, 38.85193 ] ], [ [ -77.20789, 38.85184 ], [ -77.20871, 38.8507 ], [ -77.20822, 38.8507 ], [ -77.20798, 38.85127 ], [ -77.20713, 38.85127 ], [ -77.20789, 38.85184 ] ], [ [ -77.20916, 38.84973 ], [ -77.20906, 38.84976 ], [ -77.20907, 38.84993 ], [ -77.20916, 38.84973 ] ], [ [ -77.21403, 38.85428 ], [ -77.21435, 38.85425 ], [ -77.21432, 38.85404 ], [ -77.21403, 38.85428 ] ], [ [ -77.21332, 38.85429 ], [ -77.21301, 38.85435 ], [ -77.21342, 38.85432 ], [ -77.21332, 38.85429 ] ], [ [ -77.21159, 38.854 ], [ -77.21165, 38.85394 ], [ -77.2116, 38.85395 ], [ -77.21159, 38.854 ] ], [ [ -77.21264, 38.85547 ], [ -77.21302, 38.85568 ], [ -77.21316, 38.85543 ], [ -77.21264, 38.85547 ] ], [ [ -77.2149, 38.85618 ], [ -77.21486, 38.85649 ], [ -77.21521, 38.85614 ], [ -77.2149, 38.85618 ] ], [ [ -77.20762, 38.85237 ], [ -77.20763, 38.85242 ], [ -77.20766, 38.85233 ], [ -77.20762, 38.85237 ] ], [ [ -77.20284, 38.84856 ], [ -77.20245, 38.84913 ], [ -77.20359, 38.84917 ], [ -77.20364, 38.84853 ], [ -77.20284, 38.84856 ] ] ] } },
{ "type": "Feature", "properties": { "variant": "T2s", "miles": 1.5 }, "geometry": { "type": "Polygon", "coordinates": [ [ [ -77.23306, 38.84862 ], [ -77.2344, 38.84738 ], [ -77.23504, 38.84796 ], [ -77.23383, 38.84958 ], [ -77.23506, 38.84958 ], [ -77.23569, 38.85084 ], [ -77.23607, 38.8501 ], [ -77.23658, 38.85001 ], [ -77.23719, 38.85044 ], [ -77.23718, 38.85164 ], [ -77.23597, 38.8519 ], [ -77.23609, 38.85316 ], [ -77.23788, 38.85296 ], [ -77.23857, 38.85248 ], [ -77.2394, 38.85288 ], [ -77.23933, 38.85329 ], [ -77.23851, 38.85395 ], [ -77.23631, 38.85423 ], [ -77.23675, 38.85479 ], [ -77.23624, 38.85623 ], [ -77.23662, 38.8568 ], [ -77.23532, 38.85773 ], [ -77.23438, 38.85752 ], [ -77.23435, 38.857 ], [ -77.23378, 38.85665 ], [ -77.23328, 38.85708 ], [ -77.23225, 38.85716 ], [ -77.23253, 38.85782 ], [ -77.2318, 38.8583 ], [ -77.23173, 38.85885 ], [ -77.23327, 38.86113 ], [ -77.2328, 38.8622 ], [ -77.23277, 38.86471 ], [ -77.23183, 38.86516 ], [ -77.23143, 38.8647 ], [ -77.22851, 38.86357 ], [ -77.22844, 38.86681 ], [ -77.22771, 38.86732 ], [ -77.22705, 38.86676 ], [ -77.22713, 38.86433 ], [ -77.22637, 38.865 ], [ -77.22529, 38.86519 ], [ -77.22425, 38.86481 ], [ -77.22371, 38.8641 ], [ -77.22389, 38.86149 ], [ -77.22651, 38.8613 ], [ -77.22471, 38.85671 ], [ -77.22392, 38.85603 ], [ -77.21987, 38.85433 ], [ -77.21928, 38.85468 ], [ -77.21877, 38.8545 ], [ -77.21816, 38.85516 ], [ -77.21897, 38.85618 ], [ -77.21843, 38.85733 ], [ -77.2164, 38.85775 ], [ -77.2158, 38.85756 ], [ -77.21471, 38.85821 ], [ -77.21336, 38.85792 ], [ -77.21197, 38.85641 ], [ -77.20994, 38.85645 ], [ -77.20975, 38.85568 ], [ -77.20825, 38.85612 ], [ -77.20574, 38.85605 ], [ -77.20576, 38.85667 ], [ -77.2084, 38.85703 ], [ -77.21062, 38.85816 ], [ -77.21151, 38.85793 ], [ -77.21186, 38.85824 ], [ -77.21151, 38.85907 ], [ -77.20969, 38.86004 ], [ -77.2079, 38.86013 ], [ -77.20718, 38.85961 ], [ -77.2073, 38.85804 ], [ -77.20605, 38.85809 ], [ -77.20557, 38.85833 ], [ -77.20537, 38.85924 ], [ -77.20465, 38.85933 ], [ -77.20467, 38.86041 ], [ -77.20529, 38.86092 ], [ -77.20438, 38.86237 ], [ -77.20161, 38.86229 ], [ -77.2003, 38.86172 ], [ -77.20008, 38.86097 ], [ -77.20173, 38.85897 ], [ -77.20276, 38.85849 ], [ -77.19888, 38.85792 ], [ -77.19844, 38.8577 ], [ -77.19839, 38.85663 ], [ -77.19529, 38.85696 ], [ -77.19465, 38.85638 ], [ -77.1955, 38.85575 ], [ -77.1996, 38.85543 ], [ -77.19961, 38.85458 ], [ -77.20007, 38.85438 ], [ -77.2007, 38.85457 ], [ -77.20378, 38.85415 ], [ -77.20418, 38.85442 ], [ -77.20413, 38.85509 ], [ -77.20522, 38.85476 ], [ -77.20671, 38.8551 ], [ -77.20728, 38.85377 ], [ -77.20568, 38.85376 ], [ -77.20501, 38.8529 ], [ -77.2052, 38.85161 ], [ -77.20575, 38.8514 ], [ -77.20518, 38.85091 ], [ -77.20563, 38.85028 ], [ -77.20521, 38.84975 ], [ -77.20682, 38.84879 ], [ -77.20504, 38.84832 ], [ -77.20456, 38.85341 ], [ -77.20405, 38.85394 ], [ -77.20352, 38.85392 ], [ -77.20321, 38.85314 ], [ -77.20128, 38.8528 ], [ -77.20117, 38.85177 ], [ -77.19944, 38.85291 ], [ -77.19874, 38.85238 ], [ -77.20066, 38.85058 ], [ -77.20109, 38.84898 ], [ -77.19956, 38.84932 ], [ -77.19948, 38.85002 ], [ -77.19792, 38.84991 ], [ -77.1974, 38.85051 ], [ -77.19514, 38.85053 ], [ -77.19377, 38.84939 ], [ -77.19197, 38.84985 ], [ -77.19177, 38.84911 ], [ -77.19277, 38.84864 ], [ -77.19328, 38.8478 ], [ -77.19209, 38.84685 ], [ -77.19157, 38.84521 ], [ -77.1925, 38.84479 ], [ -77.19238, 38.84402 ], [ -77.19278, 38.84374 ], [ -77.1933, 38.84377 ], [ -77.19381, 38.84444 ], [ -77.19722, 38.84352 ], [ -77.19659, 38.84244 ], [ -77.19687, 38.84209 ], [ -77.19783, 38.84222 ], [ -77.19834, 38.84284 ], [ -77.19908, 38.84215 ], [ -77.1983, 38.84128 ], [ -77.19753, 38.84113 ], [ -77.19462, 38.84284 ], [ -77.19365, 38.84273 ], [ -77.19352, 38.84233 ], [ -77.19473, 38.84142 ], [ -77.19444, 38.84039 ], [ -77.19488, 38.84016 ], [ -77.19583, 38.84077 ], [ -77.19614, 38.84059 ], [ -77.19461, 38.83945 ], [ -77.19584, 38.83816 ], [ -77.19664, 38.83859 ], [ -77.19626, 38.83929 ], [ -77.19862, 38.84023 ], [ -77.19812, 38.83865 ], [ -77.19699, 38.8386 ], [ -77.19678, 38.83822 ], [ -77.19698, 38.83775 ], [ -77.19778, 38.83759 ], [ -77.19763, 38.83647 ], [ -77.19805, 38.83622 ], [ -77.19889, 38.83661 ], [ -77.1996, 38.83882 ], [ -77.20005, 38.83873 ], [ -77.19988, 38.83761 ], [ -77.20082, 38.83741 ], [ -77.20139, 38.83847 ], [ -77.20274, 38.83858 ], [ -77.20474, 38.84002 ], [ -77.20687, 38.84057 ], [ -77.20758, 38.83903 ], [ -77.20618, 38.83837 ], [ -77.2058, 38.83767 ], [ -77.20617, 38.83737 ], [ -77.20799, 38.83741 ], [ -77.20948, 38.83489 ], [ -77.21029, 38.83445 ], [ -77.21081, 38.83522 ], [ -77.20921, 38.83829 ], [ -77.21163, 38.83935 ], [ -77.21103, 38.8414 ], [ -77.21142, 38.84162 ], [ -77.21161, 38.84083 ], [ -77.21208, 38.84064 ], [ -77.21283, 38.84113 ], [ -77.2121, 38.8443 ], [ -77.21288, 38.84395 ], [ -77.21264, 38.84325 ], [ -77.21346, 38.84302 ], [ -77.21314, 38.84194 ], [ -77.21416, 38.84143 ], [ -77.21435, 38.84093 ], [ -77.21385, 38.84021 ], [ -77.21483, 38.83926 ], [ -77.21494, 38.83826 ], [ -77.21617, 38.83725 ], [ -77.21764, 38.83766 ], [ -77.21743, 38.83844 ], [ -77.21813, 38.83897 ], [ -77.2173, 38.8401 ], [ -77.21778, 38.84045 ], [ -77.21856, 38.84395 ], [ -77.21793, 38.84511 ], [ -77.21904, 38.84608 ], [ -77.219, 38.8465 ], [ -77.21337, 38.8484 ], [ -77.21791, 38.84697 ], [ -77.21883, 38.84697 ], [ -77.21901, 38.84773 ], [ -77.21543, 38.84896 ], [ -77.21679, 38.84858 ], [ -77.21765, 38.84894 ], [ -77.2176, 38.84933 ], [ -77.21901, 38.85037 ], [ -77.21917, 38.85269 ], [ -77.22044, 38.85333 ], [ -77.22002, 38.8489 ], [ -77.2208, 38.84839 ], [ -77.22121, 38.84697 ], [ -77.22191, 38.84639 ], [ -77.22315, 38.84646 ], [ -77.22406, 38.84735 ], [ -77.22277, 38.84939 ], [ -77.22286, 38.85007 ], [ -77.22539, 38.84889 ], [ -77.22619, 38.84932 ], [ -77.22686, 38.85394 ], [ -77.23012, 38.85369 ], [ -77.23206, 38.8495 ], [ -77.23149, 38.84919 ], [ -77.23159, 38.84845 ], [ -77.23246, 38.8481 ], [ -77.23306, 38.84862 ] ], [ [ -77.21572, 38.85415 ], [ -77.2162, 38.85402 ], [ -77.21553, 38.85364 ], [ -77.21572, 38.85415 ] ], [ [ -77.21488, 38.85338 ], [ -77.21422, 38.85353 ], [ -77.21434, 38.85389 ], [ -77.21488, 38.85338 ] ], [ [ -77.2137, 38.85185 ], [ -77.2103, 38.85046 ], [ -77.20982, 38.85236 ], [ -77.21084, 38.85206 ], [ -77.21098, 38.85296 ], [ -77.2119, 38.85293 ], [ -77.21218, 38.85347 ], [ -77.21333, 38.85269 ], [ -77.2137, 38.85185 ] ], [ [ -77.20916, 38.84973 ], [ -77.20903, 38.84965 ], [ -77.20907, 38.84993 ], [ -77.20916, 38.84973 ] ], [ [ -77.20821, 38.84802 ], [ -77.20874, 38.8478 ], [ -77.20783, 38.84747 ], [ -77.20722, 38.84775 ], [ -77.20821, 38.84802 ] ], [ [ -77.20952, 38.84746 ], [ -77.20914, 38.84734 ], [ -77.20889, 38.84773 ], [ -77.20952, 38.84746 ] ], [ [ -77.20793, 38.84619 ], [ -77.20679, 38.84512 ], [ -77.20477, 38.8451 ], [ -77.20392, 38.8462 ], [ -77.20608, 38.84535 ], [ -77.20793, 38.84619 ] ], [ [ -77.20892, 38.84535 ], [ -77.20942, 38.84554 ], [ -77.20995, 38.84529 ], [ -77.20892, 38.84535 ] ], [ [ -77.20911, 38.84423 ], [ -77.21094, 38.84364 ], [ -77.21116, 38.84272 ], [ -77.21014, 38.84223 ], [ -77.20902, 38.84265 ], [ -77.20911, 38.84423 ] ], [ [ -77.20649, 38.84394 ], [ -77.20751, 38.84204 ], [ -77.2057, 38.84413 ], [ -77.20649, 38.84394 ] ], [ [ -77.20891, 38.84152 ], [ -77.20967, 38.8412 ], [ -77.21019, 38.83982 ], [ -77.2089, 38.83936 ], [ -77.20812, 38.84104 ], [ -77.20891, 38.84152 ] ], [ [ -77.23073, 38.86106 ], [ -77.23045, 38.86011 ], [ -77.23021, 38.86011 ], [ -77.23073, 38.86106 ] ], [ [ -77.22807, 38.86025 ], [ -77.22784, 38.86014 ], [ -77.22812, 38.86047 ], [ -77.22807, 38.86025 ] ], [ [ -77.22851, 38.85737 ], [ -77.22693, 38.85675 ], [ -77.22672, 38.85831 ], [ -77.23041, 38.85827 ], [ -77.23037, 38.85741 ], [ -77.22851, 38.85737 ] ], [ [ -77.23377, 38.855 ], [ -77.23382, 38.85622 ], [ -77.23465, 38.85594 ], [ -77.23422, 38.85498 ], [ -77.23377, 38.855 ] ], [ [ -77.23123, 38.85477 ], [ -77.23056, 38.85505 ], [ -77.23102, 38.85556 ], [ -77.23185, 38.85561 ], [ -77.23243, 38.85607 ], [ -77.23123, 38.85477 ] ], [ [ -77.22914, 38.85485 ], [ -77.22921, 38.85614 ], [ -77.22917, 38.85485 ], [ -77.22914, 38.85485 ] ], [ [ -77.23396, 38.85209 ], [ -77.23401, 38.85332 ], [ -77.23471, 38.85327 ], [ -77.2346, 38.85203 ], [ -77.23396, 38.85209 ] ], [ [ -77.23258, 38.85222 ], [ -77.23212, 38.85226 ], [ -77.23166, 38.85346 ], [ -77.23263, 38.85341 ], [ -77.23258, 38.85222 ] ], [ [ -77.2343, 38.85097 ], [ -77.23418, 38.85064 ], [ -77.23392, 38.85067 ], [ -77.23394, 38.851 ], [ -77.2343, 38.85097 ] ], [ [ -77.23253, 38.85113 ], [ -77.23256, 38.85113 ], [ -77.23256, 38.85105 ], [ -77.23253, 38.85113 ] ], [ [ -77.23067, 38.85608 ], [ -77.23059, 38.85599 ], [ -77.23059, 38.85608 ], [ -77.23067, 38.85608 ] ], [ [ -77.23159, 38.86321 ], [ -77.23051, 38.86328 ], [ -77.23147, 38.86359 ], [ -77.23159, 38.86321 ] ], [ [ -77.23016, 38.8622 ], [ -77.23063, 38.86219 ], [ -77.23015, 38.86204 ], [ -77.23016, 38.8622 ] ], [ [ -77.2214, 38.84903 ], [ -77.22187, 38.85369 ], [ -77.22198, 38.8539 ], [ -77.2214, 38.84903 ] ], [ [ -77.2254, 38.85355 ], [ -77.22335, 38.85369 ], [ -77.22341, 38.85418 ], [ -77.22548, 38.85405 ], [ -77.2254, 38.85355 ] ], [ [ -77.22244, 38.84749 ], [ -77.22247, 38.84741 ], [ -77.22241, 38.84754 ], [ -77.22244, 38.84749 ] ], [ [ -77.2239, 38.85107 ], [ -77.22397, 38.85118 ], [ -77.22401, 38.85106 ], [ -77.2239, 38.85107 ] ], [ [ -77.2256, 38.8552 ], [ -77.22476, 38.85517 ], [ -77.22583, 38.85608 ], [ -77.22597, 38.85596 ], [ -77.2256, 38.8552 ] ], [ [ -77.22739, 38.85559 ], [ -77.2274, 38.85499 ], [ -77.22697, 38.85502 ], [ -77.22708, 38.85531 ], [ -77.22739, 38.85559 ] ], [ [ -77.22688, 38.86187 ], [ -77.22667, 38.86269 ], [ -77.22713, 38.86323 ], [ -77.22688, 38.86187 ] ], [ [ -77.22506, 38.86386 ], [ -77.22553, 38.86411 ], [ -77.22589, 38.8638 ], [ -77.22521, 38.86241 ], [ -77.22506, 38.86386 ] ], [ [ -77.21673, 38.84565 ], [ -77.21267, 38.84739 ], [ -77.21692, 38.84586 ], [ -77.21673, 38.84565 ] ], [ [ -77.21593, 38.84476 ], [ -77.21596, 38.84469 ], [ -77.21579, 38.84482 ], [ -77.21593, 38.84476 ] ], [ [ -77.21565, 38.84488 ], [ -77.21325, 38.84561 ], [ -77.21303, 38.846 ], [ -77.21565, 38.84488 ] ], [ [ -77.21508, 38.84282 ], [ -77.21455, 38.8418 ], [ -77.21492, 38.8429 ], [ -77.21508, 38.84282 ] ], [ [ -77.21715, 38.84414 ], [ -77.21718, 38.84397 ], [ -77.21696, 38.84388 ], [ -77.21715, 38.84414 ] ], [ [ -77.21663, 38.84344 ], [ -77.2166, 38.84338 ], [ -77.21658, 38.84339 ], [ -77.21663, 38.84344 ] ], [ [ -77.21828, 38.85377 ], [ -77.21853, 38.85401 ], [ -77.21838, 38.85358 ], [ -77.21828, 38.85377 ] ], [ [ -77.21658, 38.85289 ], [ -77.21709, 38.85319 ], [ -77.21648, 38.85283 ], [ -77.21658, 38.85289 ] ], [ [ -77.21595, 38.85145 ], [ -77.21712, 38.85187 ], [ -77.21719, 38.8519 ], [ -77.2171, 38.85111 ], [ -77.21595, 38.85145 ] ], [ [ -77.20999, 38.84653 ], [ -77.20986, 38.84732 ], [ -77.21077, 38.84695 ], [ -77.21036, 38.84636 ], [ -77.20999, 38.84653 ] ], [ [ -77.21246, 38.84619 ], [ -77.21189, 38.84567 ], [ -77.21156, 38.84582 ], [ -77.21199, 38.84644 ], [ -77.21246, 38.84619 ] ], [ [ -77.21145, 38.8479 ], [ -77.20964, 38.84865 ], [ -77.21325, 38.85051 ], [ -77.21145, 38.8479 ] ], [ [ -77.20439, 38.85642 ], [ -77.20436, 38.85616 ], [ -77.19976, 38.8565 ], [ -77.19979, 38.85696 ], [ -77.20322, 38.85746 ], [ -77.2034, 38.85666 ], [ -77.20439, 38.85642 ] ], [ [ -77.20359, 38.84917 ], [ -77.20364, 38.84853 ], [ -77.20257, 38.84857 ], [ -77.20245, 38.84913 ], [ -77.20359, 38.84917 ] ], [ [ -77.20382, 38.84427 ], [ -77.20425, 38.84381 ], [ -77.20378, 38.84379 ], [ -77.20382, 38.84427 ] ], [ [ -77.20348, 38.8446 ], [ -77.20291, 38.84472 ], [ -77.20241, 38.84461 ], [ -77.20294, 38.8453 ], [ -77.20348, 38.8446 ] ], [ [ -77.20107, 38.84617 ], [ -77.20177, 38.84689 ], [ -77.20228, 38.8464 ], [ -77.20184, 38.84595 ], [ -77.20107, 38.84617 ] ], [ [ -77.19973, 38.84495 ], [ -77.19999, 38.8451 ], [ -77.20005, 38.84486 ], [ -77.19973, 38.84495 ] ], [ [ -77.19993, 38.83987 ], [ -77.20238, 38.83972 ], [ -77.20184, 38.83951 ], [ -77.19993, 38.83987 ] ], [ [ -77.20789, 38.85184 ], [ -77.20871, 38.8507 ], [ -77.20822, 38.8507 ], [ -77.20798, 38.85127 ], [ -77.20713, 38.85133 ], [ -77.20789, 38.85184 ] ], [ [ -77.21435, 38.85425 ], [ -77.21432, 38.85404 ], [ -77.21403, 38.85428 ], [ -77.21435, 38.85425 ] ], [ [ -77.21327, 38.85427 ], [ -77.21301, 38.85435 ], [ -77.21342, 38.85432 ], [ -77.21327, 38.85427 ] ], [ [ -77.21159, 38.854 ], [ -77.21165, 38.85394 ], [ -77.2116, 38.85395 ], [ -77.21159, 38.854 ] ], [ [ -77.20984, 38.85387 ], [ -77.20997, 38.85399 ], [ -77.21009, 38.85389 ], [ -77.20984, 38.85387 ] ], [ [ -77.21282, 38.85555 ], [ -77.21316, 38.85543 ], [ -77.21264, 38.85547 ], [ -77.21282, 38.85555 ] ], [ [ -77.21489, 38.85618 ], [ -77.21496, 38.85639 ], [ -77.21521, 38.85614 ], [ -77.21489, 38.85618 ] ], [ [ -77.20303, 38.84352 ], [ -77.20302, 38.84358 ], [ -77.20309, 38.84355 ], [ -77.20303, 38.84352 ] ], [ [ -77.20409, 38.84184 ], [ -77.20556, 38.84251 ], [ -77.20627, 38.84156 ], [ -77.20366, 38.84076 ], [ -77.20253, 38.8417 ], [ -77.20165, 38.84187 ], [ -77.20226, 38.84209 ], [ -77.20281, 38.84163 ], [ -77.20352, 38.84201 ], [ -77.20409, 38.84184 ] ], [ [ -77.20641, 38.84669 ], [ -77.20642, 38.84686 ], [ -77.20657, 38.84679 ], [ -77.20641, 38.84669 ] ], [ [ -77.20762, 38.85237 ], [ -77.20763, 38.85242 ], [ -77.20766, 38.85233 ], [ -77.20762, 38.85237 ] ], [ [ -77.20084, 38.84257 ], [ -77.201, 38.84225 ], [ -77.20129, 38.84194 ], [ -77.20062, 38.84207 ], [ -77.20084, 38.84257 ] ], [ [ -77.20249, 38.84068 ], [ -77.20245, 38.84063 ], [ -77.20236, 38.84067 ], [ -77.20249, 38.84068 ] ], [ [ -77.20275, 38.8437 ], [ -77.20272, 38.8437 ], [ -77.2027, 38.84371 ], [ -77.20275, 38.8437 ] ], [ [ -77.20338, 38.85028 ], [ -77.20343, 38.85036 ], [ -77.20345, 38.85025 ], [ -77.20338, 38.85028 ] ], [ [ -77.19678, 38.84719 ], [ -77.1968, 38.84735 ], [ -77.19704, 38.84717 ], [ -77.19678, 38.84719 ] ], [ [ -77.19594, 38.84727 ], [ -77.19563, 38.8473 ], [ -77.19528, 38.84758 ], [ -77.19579, 38.84779 ], [ -77.19594, 38.84727 ] ], [ [ -77.1989, 38.84517 ], [ -77.1989, 38.84519 ], [ -77.19893, 38.84516 ], [ -77.1989, 38.84517 ] ], [ [ -77.19438, 38.84546 ], [ -77.19426, 38.84546 ], [ -77.19429, 38.84553 ], [ -77.19438, 38.84546 ] ], [ [ -77.19853, 38.84317 ], [ -77.19857, 38.84316 ], [ -77.1985, 38.84311 ], [ -77.19853, 38.84317 ] ], [ [ -77.19724, 38.84584 ], [ -77.19744, 38.84556 ], [ -77.19712, 38.84565 ], [ -77.19724, 38.84584 ] ], [ [ -77.20018, 38.8479 ], [ -77.20018, 38.84795 ], [ -77.20019, 38.8479 ], [ -77.20018, 38.8479 ] ], [ [ -77.19555, 38.84899 ], [ -77.19549, 38.84897 ], [ -77.19538, 38.84912 ], [ -77.19555, 38.84899 ] ], [ [ -77.20327, 38.86135 ], [ -77.20331, 38.86135 ], [ -77.20331, 38.86133 ], [ -77.20327, 38.86135 ] ] ] } }
]
}
