{
"type": "FeatureCollection",
"name": "455",
"crs": { "type": "name", "properties": { "name": "urn:ogc:def:crs:OGC:1.3:CRS84" } },
"xy_coordinate_resolution": 1e-05,
"features": [
{ "type": "Feature", "properties": { "variant": "T0", "miles": 0.5 }, "geometry": { "type": "Polygon", "coordinates": [ [ [ -77.17918, 38.82398 ], [ -77.17841, 38.82581 ], [ -77.17962, 38.8262 ], [ -77.18002, 38.82555 ], [ -77.18099, 38.82528 ], [ -77.18317, 38.82664 ], [ -77.18352, 38.82809 ], [ -77.18261, 38.82855 ], [ -77.18035, 38.82791 ], [ -77.17744, 38.83209 ], [ -77.17798, 38.83292 ], [ -77.1779, 38.83503 ], [ -77.17702, 38.83565 ], [ -77.17637, 38.8353 ], [ -77.17582, 38.83388 ], [ -77.1748, 38.83361 ], [ -77.17418, 38.83416 ], [ -77.17365, 38.83412 ], [ -77.17344, 38.83309 ], [ -77.17255, 38.83291 ], [ -77.17239, 38.83219 ], [ -77.17144, 38.83241 ], [ -77.17103, 38.83215 ], [ -77.17026, 38.83068 ], [ -77.17065, 38.83011 ], [ -77.17188, 38.82977 ], [ -77.17169, 38.82816 ], [ -77.17268, 38.82776 ], [ -77.17248, 38.82725 ], [ -77.17402, 38.82611 ], [ -77.17217, 38.82534 ], [ -77.17222, 38.82475 ], [ -77.17306, 38.82446 ], [ -77.17634, 38.82489 ], [ -77.17696, 38.82424 ], [ -77.17767, 38.82436 ], [ -77.17824, 38.8237 ], [ -77.17918, 38.82398 ] ], [ [ -77.17782, 38.82923 ], [ -77.17311, 38.82796 ], [ -77.17487, 38.8288 ], [ -77.17516, 38.82946 ], [ -77.17715, 38.83016 ], [ -77.17782, 38.82923 ] ], [ [ -77.17899, 38.8276 ], [ -77.17803, 38.8273 ], [ -77.1776, 38.82799 ], [ -77.1785, 38.82828 ], [ -77.17899, 38.8276 ] ], [ [ -77.17508, 38.832 ], [ -77.17518, 38.83192 ], [ -77.17386, 38.83163 ], [ -77.17413, 38.83209 ], [ -77.17508, 38.832 ] ], [ [ -77.17538, 38.83066 ], [ -77.17392, 38.8303 ], [ -77.17318, 38.83043 ], [ -77.17538, 38.83066 ] ], [ [ -77.17175, 38.83097 ], [ -77.17178, 38.831 ], [ -77.1718, 38.8309 ], [ -77.17175, 38.83097 ] ], [ [ -77.17322, 38.82926 ], [ -77.17316, 38.82923 ], [ -77.17318, 38.82931 ], [ -77.17322, 38.82926 ] ] ] } },
{ "type": "Feature", "properties": { "variant": "T0", "miles": 1.0 }, "geometry": { "type": "Polygon", "coordinates": [ [ [ -77.1848, 38.82635 ], [ -77.1863, 38.82473 ], [ -77.18727, 38.82464 ], [ -77.18739, 38.8254 ], [ -77.18627, 38.82652 ], [ -77.18623, 38.82812 ], [ -77.19074, 38.82899 ], [ -77.19034, 38.83108 ], [ -77.18925, 38.83089 ], [ -77.18929, 38.82999 ], [ -77.18601, 38.82934 ], [ -77.18667, 38.83135 ], [ -77.18722, 38.83101 ], [ -77.188, 38.83146 ], [ -77.18795, 38.83239 ], [ -77.18653, 38.83293 ], [ -77.18574, 38.83242 ], [ -77.18362, 38.83228 ], [ -77.18315, 38.83209 ], [ -77.18324, 38.83133 ], [ -77.18514, 38.83121 ], [ -77.18399, 38.83088 ], [ -77.18035, 38.82791 ], [ -77.17744, 38.83209 ], [ -77.17798, 38.83292 ], [ -77.17782, 38.83528 ], [ -77.17716, 38.83565 ], [ -77.17616, 38.83538 ], [ -77.1761, 38.83565 ], [ -77.1773, 38.83589 ], [ -77.17721, 38.83665 ], [ -77.17208, 38.83745 ], [ -77.17158, 38.83679 ], [ -77.17245, 38.83621 ], [ -77.1719, 38.83572 ], [ -77.17077, 38.836 ], [ -77.17016, 38.8357 ], [ -77.17019, 38.83637 ], [ -77.16972, 38.83656 ], [ -77.16786, 38.83635 ], [ -77.16772, 38.83595 ], [ -77.16846, 38.83522 ], [ -77.16637, 38.83446 ], [ -77.16622, 38.83406 ], [ -77.16647, 38.8337 ], [ -77.16745, 38.83363 ], [ -77.16673, 38.83176 ], [ -77.16631, 38.83136 ], [ -77.16522, 38.83133 ], [ -77.16508, 38.83093 ], [ -77.17093, 38.82683 ], [ -77.17013, 38.8268 ], [ -77.16914, 38.82755 ], [ -77.1681, 38.82726 ], [ -77.1666, 38.82777 ], [ -77.16503, 38.82716 ], [ -77.1648, 38.82642 ], [ -77.16668, 38.82585 ], [ -77.16686, 38.82494 ], [ -77.16625, 38.82482 ], [ -77.16519, 38.82538 ], [ -77.16454, 38.82481 ], [ -77.1648, 38.82442 ], [ -77.16415, 38.82424 ], [ -77.16407, 38.82352 ], [ -77.16518, 38.823 ], [ -77.16486, 38.82211 ], [ -77.1652, 38.82179 ], [ -77.16682, 38.82202 ], [ -77.16744, 38.82307 ], [ -77.16763, 38.82227 ], [ -77.16858, 38.82169 ], [ -77.17005, 38.82193 ], [ -77.17022, 38.8225 ], [ -77.17053, 38.82194 ], [ -77.16943, 38.82155 ], [ -77.16968, 38.82081 ], [ -77.17276, 38.82127 ], [ -77.17289, 38.81999 ], [ -77.17201, 38.81898 ], [ -77.17275, 38.81848 ], [ -77.17423, 38.81965 ], [ -77.17443, 38.82194 ], [ -77.17564, 38.8215 ], [ -77.17631, 38.82195 ], [ -77.17661, 38.82105 ], [ -77.17759, 38.82106 ], [ -77.17743, 38.82264 ], [ -77.17882, 38.82284 ], [ -77.17993, 38.82345 ], [ -77.18103, 38.8253 ], [ -77.18317, 38.82664 ], [ -77.18325, 38.82745 ], [ -77.18485, 38.82781 ], [ -77.1848, 38.82635 ] ], [ [ -77.1758, 38.8348 ], [ -77.17582, 38.83482 ], [ -77.1758, 38.83479 ], [ -77.1758, 38.8348 ] ], [ [ -77.1741, 38.83211 ], [ -77.17508, 38.832 ], [ -77.17518, 38.83192 ], [ -77.17386, 38.83163 ], [ -77.1741, 38.83211 ] ], [ [ -77.17318, 38.83043 ], [ -77.17538, 38.83066 ], [ -77.17392, 38.8303 ], [ -77.17318, 38.83043 ] ], [ [ -77.17517, 38.82946 ], [ -77.17715, 38.83016 ], [ -77.17782, 38.82923 ], [ -77.17311, 38.82796 ], [ -77.17487, 38.8288 ], [ -77.17517, 38.82946 ] ], [ [ -77.1791, 38.82499 ], [ -77.17841, 38.82581 ], [ -77.17914, 38.82605 ], [ -77.17956, 38.82528 ], [ -77.1791, 38.82499 ] ], [ [ -77.17657, 38.82363 ], [ -77.17607, 38.82417 ], [ -77.1754, 38.82488 ], [ -77.17555, 38.82492 ], [ -77.17657, 38.82363 ] ], [ [ -77.18468, 38.82904 ], [ -77.18462, 38.82903 ], [ -77.18462, 38.82905 ], [ -77.18468, 38.82904 ] ], [ [ -77.17899, 38.8276 ], [ -77.17803, 38.8273 ], [ -77.1776, 38.82799 ], [ -77.1785, 38.82828 ], [ -77.17899, 38.8276 ] ], [ [ -77.17264, 38.83414 ], [ -77.17223, 38.8335 ], [ -77.17118, 38.83342 ], [ -77.17112, 38.83486 ], [ -77.17165, 38.83493 ], [ -77.17264, 38.83414 ] ], [ [ -77.17185, 38.82963 ], [ -77.17164, 38.82852 ], [ -77.1709, 38.82902 ], [ -77.16983, 38.82909 ], [ -77.17008, 38.82954 ], [ -77.16922, 38.83007 ], [ -77.17031, 38.83048 ], [ -77.17185, 38.82963 ] ], [ [ -77.16987, 38.82361 ], [ -77.16996, 38.82331 ], [ -77.16928, 38.82337 ], [ -77.16922, 38.82351 ], [ -77.16987, 38.82361 ] ], [ [ -77.17202, 38.8276 ], [ -77.17268, 38.82776 ], [ -77.17248, 38.82727 ], [ -77.17202, 38.8276 ] ], [ [ -77.17236, 38.82428 ], [ -77.17314, 38.8237 ], [ -77.17325, 38.82357 ], [ -77.17236, 38.82428 ] ], [ [ -77.17143, 38.82324 ], [ -77.17137, 38.82334 ], [ -77.17145, 38.82337 ], [ -77.17143, 38.82324 ] ], [ [ -77.17167, 38.8226 ], [ -77.1716, 38.82272 ], [ -77.17168, 38.82258 ], [ -77.17167, 38.8226 ] ], [ [ -77.17181, 38.82239 ], [ -77.17187, 38.82221 ], [ -77.17176, 38.82246 ], [ -77.17181, 38.82239 ] ], [ [ -77.17354, 38.82278 ], [ -77.17356, 38.82312 ], [ -77.17351, 38.82329 ], [ -77.1738, 38.82298 ], [ -77.17354, 38.82278 ] ], [ [ -77.17298, 38.82692 ], [ -77.17383, 38.82653 ], [ -77.17399, 38.82617 ], [ -77.17298, 38.82692 ] ], [ [ -77.17326, 38.82928 ], [ -77.17316, 38.82923 ], [ -77.17318, 38.82931 ], [ -77.17326, 38.82928 ] ], [ [ -77.17006, 38.83558 ], [ -77.17001, 38.83559 ], [ -77.17008, 38.8356 ], [ -77.17006, 38.83558 ] ], [ [ -77.16855, 38.83402 ], [ -77.1685, 38.83382 ], [ -77.16833, 38.83393 ], [ -77.16855, 38.83402 ] ], [ [ -77.1683, 38.83249 ], [ -77.16846, 38.83269 ], [ -77.16869, 38.83255 ], [ -77.1683, 38.83249 ] ], [ [ -77.17086, 38.83215 ], [ -77.16778, 38.83042 ], [ -77.16738, 38.83067 ], [ -77.16816, 38.83132 ], [ -77.17086, 38.83215 ] ], [ [ -77.17178, 38.83098 ], [ -77.17171, 38.83092 ], [ -77.17178, 38.831 ], [ -77.17178, 38.83098 ] ] ] } },
{ "type": "Feature", "properties": { "variant": "T0", "miles": 1.5 }, "geometry": { "type": "Polygon", "coordinates": [ [ [ -77.19628, 38.82473 ], [ -77.19773, 38.82519 ], [ -77.19807, 38.82601 ], [ -77.19724, 38.82648 ], [ -77.19732, 38.827 ], [ -77.19659, 38.82725 ], [ -77.19623, 38.82803 ], [ -77.1978, 38.82799 ], [ -77.19854, 38.82743 ], [ -77.2003, 38.82811 ], [ -77.19998, 38.82883 ], [ -77.19898, 38.82871 ], [ -77.19792, 38.83016 ], [ -77.20002, 38.83054 ], [ -77.2005, 38.83117 ], [ -77.19919, 38.83318 ], [ -77.19837, 38.83372 ], [ -77.19652, 38.83402 ], [ -77.19433, 38.83315 ], [ -77.19354, 38.83408 ], [ -77.19364, 38.8348 ], [ -77.19183, 38.83662 ], [ -77.1926, 38.83726 ], [ -77.19247, 38.83767 ], [ -77.19201, 38.83788 ], [ -77.19074, 38.83733 ], [ -77.1902, 38.83814 ], [ -77.18935, 38.83797 ], [ -77.1889, 38.83904 ], [ -77.18802, 38.83938 ], [ -77.18766, 38.83852 ], [ -77.18568, 38.83757 ], [ -77.18545, 38.83815 ], [ -77.18448, 38.8381 ], [ -77.18376, 38.83658 ], [ -77.18303, 38.83648 ], [ -77.18262, 38.83731 ], [ -77.1821, 38.83738 ], [ -77.18167, 38.83713 ], [ -77.18164, 38.83641 ], [ -77.17908, 38.83633 ], [ -77.17828, 38.83231 ], [ -77.17914, 38.83083 ], [ -77.18008, 38.83062 ], [ -77.18037, 38.83123 ], [ -77.18115, 38.83114 ], [ -77.18228, 38.832 ], [ -77.18236, 38.83273 ], [ -77.1828, 38.83177 ], [ -77.18026, 38.82986 ], [ -77.18027, 38.82945 ], [ -77.18065, 38.82916 ], [ -77.18164, 38.82932 ], [ -77.18403, 38.83123 ], [ -77.18518, 38.8313 ], [ -77.18399, 38.83088 ], [ -77.18035, 38.82791 ], [ -77.17744, 38.83209 ], [ -77.17798, 38.83292 ], [ -77.17782, 38.83528 ], [ -77.17716, 38.83565 ], [ -77.17616, 38.83538 ], [ -77.1761, 38.83565 ], [ -77.1773, 38.83589 ], [ -77.17721, 38.83665 ], [ -77.17185, 38.83732 ], [ -77.17141, 38.83799 ], [ -77.16768, 38.83849 ], [ -77.16741, 38.83937 ], [ -77.16541, 38.84133 ], [ -77.16492, 38.84117 ], [ -77.16476, 38.84016 ], [ -77.1663, 38.83858 ], [ -77.1629, 38.83874 ], [ -77.16075, 38.8377 ], [ -77.16144, 38.83443 ], [ -77.16004, 38.83532 ], [ -77.15907, 38.83524 ], [ -77.15891, 38.83485 ], [ -77.1597, 38.83414 ], [ -77.15786, 38.83265 ], [ -77.15765, 38.83126 ], [ -77.15801, 38.83095 ], [ -77.1564, 38.83033 ], [ -77.15674, 38.82961 ], [ -77.15906, 38.8301 ], [ -77.15926, 38.82824 ], [ -77.15778, 38.82722 ], [ -77.15668, 38.82771 ], [ -77.15606, 38.82712 ], [ -77.15734, 38.82475 ], [ -77.15611, 38.82363 ], [ -77.15673, 38.82302 ], [ -77.15745, 38.82304 ], [ -77.15798, 38.82218 ], [ -77.15555, 38.82158 ], [ -77.15439, 38.82098 ], [ -77.15434, 38.82057 ], [ -77.1552, 38.8202 ], [ -77.15704, 38.82051 ], [ -77.15742, 38.81949 ], [ -77.1579, 38.81931 ], [ -77.15863, 38.81981 ], [ -77.15836, 38.82084 ], [ -77.16062, 38.82139 ], [ -77.16082, 38.81815 ], [ -77.16226, 38.81741 ], [ -77.16412, 38.81891 ], [ -77.16333, 38.81774 ], [ -77.16357, 38.81738 ], [ -77.16471, 38.8176 ], [ -77.1654, 38.81698 ], [ -77.16718, 38.81656 ], [ -77.16952, 38.81408 ], [ -77.17037, 38.81376 ], [ -77.17094, 38.81447 ], [ -77.16972, 38.81594 ], [ -77.17136, 38.81648 ], [ -77.17134, 38.81712 ], [ -77.17413, 38.81949 ], [ -77.17443, 38.82194 ], [ -77.17564, 38.8215 ], [ -77.17631, 38.82195 ], [ -77.17546, 38.81248 ], [ -77.17436, 38.81248 ], [ -77.17368, 38.81194 ], [ -77.17389, 38.8115 ], [ -77.17539, 38.81134 ], [ -77.17559, 38.81066 ], [ -77.17607, 38.81049 ], [ -77.17656, 38.81065 ], [ -77.17677, 38.81133 ], [ -77.17796, 38.81133 ], [ -77.17865, 38.81185 ], [ -77.1796, 38.82113 ], [ -77.17909, 38.82171 ], [ -77.17773, 38.82192 ], [ -77.17743, 38.82264 ], [ -77.17882, 38.82284 ], [ -77.17993, 38.82345 ], [ -77.18103, 38.8253 ], [ -77.18317, 38.82664 ], [ -77.18325, 38.82745 ], [ -77.18485, 38.82781 ], [ -77.18503, 38.82701 ], [ -77.18384, 38.82658 ], [ -77.18273, 38.82506 ], [ -77.18109, 38.82422 ], [ -77.18087, 38.82348 ], [ -77.18183, 38.82331 ], [ -77.18366, 38.82425 ], [ -77.18511, 38.82593 ], [ -77.18589, 38.82514 ], [ -77.18313, 38.82351 ], [ -77.1837, 38.82289 ], [ -77.18503, 38.82336 ], [ -77.18514, 38.82315 ], [ -77.18394, 38.82281 ], [ -77.1801, 38.82306 ], [ -77.17927, 38.82243 ], [ -77.18005, 38.82195 ], [ -77.1805, 38.82047 ], [ -77.18238, 38.82059 ], [ -77.18207, 38.81958 ], [ -77.18266, 38.81898 ], [ -77.18317, 38.81908 ], [ -77.18375, 38.82044 ], [ -77.18459, 38.8208 ], [ -77.18381, 38.82173 ], [ -77.1856, 38.82213 ], [ -77.18616, 38.82132 ], [ -77.18685, 38.82117 ], [ -77.18806, 38.82167 ], [ -77.19021, 38.82179 ], [ -77.19069, 38.82272 ], [ -77.19125, 38.8228 ], [ -77.19055, 38.82118 ], [ -77.19145, 38.82087 ], [ -77.19381, 38.82465 ], [ -77.19494, 38.82432 ], [ -77.19589, 38.82491 ], [ -77.19628, 38.82473 ] ], [ [ -77.17408, 38.83212 ], [ -77.17518, 38.83192 ], [ -77.17386, 38.83163 ], [ -77.17408, 38.83212 ] ], [ [ -77.17318, 38.83043 ], [ -77.17538, 38.83066 ], [ -77.17392, 38.8303 ], [ -77.17318, 38.83043 ] ], [ [ -77.17715, 38.83016 ], [ -77.17782, 38.82923 ], [ -77.17311, 38.82796 ], [ -77.17487, 38.8288 ], [ -77.17516, 38.82946 ], [ -77.17715, 38.83016 ] ], [ [ -77.18925, 38.83392 ], [ -77.18889, 38.83397 ], [ -77.18762, 38.83456 ], [ -77.18817, 38.8348 ], [ -77.18819, 38.83445 ], [ -77.18925, 38.83392 ] ], [ [ -77.18954, 38.83373 ], [ -77.1895, 38.83379 ], [ -77.18957, 38.83378 ], [ -77.18954, 38.83373 ] ], [ [ -77.19091, 38.83188 ], [ -77.19024, 38.83148 ], [ -77.1901, 38.83219 ], [ -77.1902, 38.83215 ], [ -77.19091, 38.83188 ] ], [ [ -77.18841, 38.83164 ], [ -77.18929, 38.82999 ], [ -77.18601, 38.82934 ], [ -77.18667, 38.83135 ], [ -77.18722, 38.83101 ], [ -77.188, 38.83146 ], [ -77.18795, 38.83239 ], [ -77.18739, 38.83261 ], [ -77.18772, 38.83317 ], [ -77.18858, 38.8327 ], [ -77.18841, 38.83164 ] ], [ [ -77.18574, 38.83242 ], [ -77.18401, 38.83231 ], [ -77.18366, 38.83334 ], [ -77.18416, 38.83394 ], [ -77.18336, 38.83437 ], [ -77.1822, 38.83391 ], [ -77.18218, 38.83505 ], [ -77.18651, 38.8337 ], [ -77.18574, 38.83242 ] ], [ [ -77.18468, 38.82904 ], [ -77.18462, 38.82905 ], [ -77.18467, 38.82906 ], [ -77.18468, 38.82904 ] ], [ [ -77.19372, 38.82926 ], [ -77.19189, 38.82877 ], [ -77.19124, 38.82893 ], [ -77.19372, 38.82926 ] ], [ [ -77.18884, 38.82743 ], [ -77.18897, 38.82529 ], [ -77.18859, 38.82526 ], [ -77.1885, 38.82845 ], [ -77.18973, 38.82867 ], [ -77.19053, 38.828 ], [ -77.18884, 38.82743 ] ], [ [ -77.18911, 38.82421 ], [ -77.18808, 38.82359 ], [ -77.18797, 38.8245 ], [ -77.18911, 38.82421 ] ], [ [ -77.18879, 38.8226 ], [ -77.18905, 38.82282 ], [ -77.18928, 38.8229 ], [ -77.1893, 38.82273 ], [ -77.18879, 38.8226 ] ], [ [ -77.19672, 38.82909 ], [ -77.19518, 38.82917 ], [ -77.19516, 38.82968 ], [ -77.19638, 38.82989 ], [ -77.19672, 38.82909 ] ], [ [ -77.19516, 38.82603 ], [ -77.19511, 38.82599 ], [ -77.19506, 38.82606 ], [ -77.19516, 38.82603 ] ], [ [ -77.19765, 38.83277 ], [ -77.19842, 38.8316 ], [ -77.19716, 38.83123 ], [ -77.19765, 38.83277 ] ], [ [ -77.19561, 38.83131 ], [ -77.19578, 38.83139 ], [ -77.19576, 38.83126 ], [ -77.19561, 38.83131 ] ], [ [ -77.19166, 38.82394 ], [ -77.19055, 38.82379 ], [ -77.19037, 38.82518 ], [ -77.19284, 38.82561 ], [ -77.19166, 38.82394 ] ], [ [ -77.19215, 38.83456 ], [ -77.19111, 38.83499 ], [ -77.19113, 38.83557 ], [ -77.19215, 38.83456 ] ], [ [ -77.19346, 38.83218 ], [ -77.19348, 38.83216 ], [ -77.19345, 38.83217 ], [ -77.19346, 38.83218 ] ], [ [ -77.19075, 38.83022 ], [ -77.19228, 38.83131 ], [ -77.19366, 38.83064 ], [ -77.19075, 38.83022 ] ], [ [ -77.19075, 38.83321 ], [ -77.19112, 38.8332 ], [ -77.19104, 38.8331 ], [ -77.19075, 38.83321 ] ], [ [ -77.18713, 38.82831 ], [ -77.18749, 38.82558 ], [ -77.18819, 38.82513 ], [ -77.1879, 38.82476 ], [ -77.18627, 38.82652 ], [ -77.18623, 38.82812 ], [ -77.18713, 38.82831 ] ], [ [ -77.18718, 38.82251 ], [ -77.1862, 38.82396 ], [ -77.18662, 38.82421 ], [ -77.18718, 38.82251 ] ], [ [ -77.1865, 38.83664 ], [ -77.18663, 38.8366 ], [ -77.1869, 38.83643 ], [ -77.1865, 38.83664 ] ], [ [ -77.18087, 38.8333 ], [ -77.17993, 38.83325 ], [ -77.18084, 38.83351 ], [ -77.18087, 38.8333 ] ], [ [ -77.18065, 38.8343 ], [ -77.18081, 38.83427 ], [ -77.18081, 38.83419 ], [ -77.18065, 38.8343 ] ], [ [ -77.18007, 38.83432 ], [ -77.18002, 38.83466 ], [ -77.18049, 38.83435 ], [ -77.18007, 38.83432 ] ], [ [ -77.18163, 38.8216 ], [ -77.18143, 38.82194 ], [ -77.18244, 38.82187 ], [ -77.18243, 38.82174 ], [ -77.18163, 38.8216 ] ], [ [ -77.1785, 38.82828 ], [ -77.17899, 38.8276 ], [ -77.17803, 38.8273 ], [ -77.1776, 38.82799 ], [ -77.1785, 38.82828 ] ], [ [ -77.1791, 38.82499 ], [ -77.17841, 38.82581 ], [ -77.17914, 38.82605 ], [ -77.17956, 38.82528 ], [ -77.1791, 38.82499 ] ], [ [ -77.17684, 38.81247 ], [ -77.17775, 38.82082 ], [ -77.1782, 38.82077 ], [ -77.17732, 38.81247 ], [ -77.17684, 38.81247 ] ], [ [ -77.17657, 38.82363 ], [ -77.1754, 38.82488 ], [ -77.17555, 38.82492 ], [ -77.17657, 38.82363 ] ], [ [ -77.17091, 38.82683 ], [ -77.17013, 38.8268 ], [ -77.16748, 38.82876 ], [ -77.1639, 38.82768 ], [ -77.16354, 38.82702 ], [ -77.16177, 38.82629 ], [ -77.16169, 38.82588 ], [ -77.1626, 38.82513 ], [ -77.16261, 38.82432 ], [ -77.16355, 38.82338 ], [ -77.16013, 38.82575 ], [ -77.16444, 38.82872 ], [ -77.16593, 38.83025 ], [ -77.17091, 38.82683 ] ], [ [ -77.1666, 38.82575 ], [ -77.16631, 38.82583 ], [ -77.16668, 38.82585 ], [ -77.1666, 38.82575 ] ], [ [ -77.16857, 38.83657 ], [ -77.16779, 38.83615 ], [ -77.16736, 38.83719 ], [ -77.16845, 38.83711 ], [ -77.16857, 38.83657 ] ], [ [ -77.16784, 38.83578 ], [ -77.16846, 38.83522 ], [ -77.16754, 38.83482 ], [ -77.16784, 38.83578 ] ], [ [ -77.16855, 38.83402 ], [ -77.1685, 38.83382 ], [ -77.16833, 38.83393 ], [ -77.16855, 38.83402 ] ], [ [ -77.1683, 38.83249 ], [ -77.16846, 38.83269 ], [ -77.16869, 38.83255 ], [ -77.1683, 38.83249 ] ], [ [ -77.16816, 38.83132 ], [ -77.17068, 38.83217 ], [ -77.171, 38.8321 ], [ -77.16778, 38.83042 ], [ -77.16738, 38.83067 ], [ -77.16816, 38.83132 ] ], [ [ -77.17264, 38.83414 ], [ -77.17223, 38.8335 ], [ -77.17118, 38.83342 ], [ -77.17112, 38.83486 ], [ -77.17165, 38.83493 ], [ -77.17264, 38.83414 ] ], [ [ -77.17178, 38.83098 ], [ -77.17171, 38.83092 ], [ -77.17178, 38.831 ], [ -77.17178, 38.83098 ] ], [ [ -77.17185, 38.82961 ], [ -77.17164, 38.82852 ], [ -77.1709, 38.82902 ], [ -77.16983, 38.82909 ], [ -77.17008, 38.82954 ], [ -77.16922, 38.83007 ], [ -77.17031, 38.83048 ], [ -77.17185, 38.82961 ] ], [ [ -77.17202, 38.8276 ], [ -77.17268, 38.82776 ], [ -77.17248, 38.82727 ], [ -77.17202, 38.8276 ] ], [ [ -77.17236, 38.82428 ], [ -77.17314, 38.8237 ], [ -77.17325, 38.82357 ], [ -77.17236, 38.82428 ] ], [ [ -77.17143, 38.82324 ], [ -77.17137, 38.82334 ], [ -77.17145, 38.82337 ], [ -77.17143, 38.82324 ] ], [ [ -77.17167, 38.8226 ], [ -77.1716, 38.82272 ], [ -77.17168, 38.82258 ], [ -77.17167, 38.8226 ] ], [ [ -77.17181, 38.82239 ], [ -77.17187, 38.82221 ], [ -77.17176, 38.82246 ], [ -77.17181, 38.82239 ] ], [ [ -77.16936, 38.82114 ], [ -77.1702, 38.82076 ], [ -77.17276, 38.82127 ], [ -77.1699, 38.82055 ], [ -77.1694, 38.8199 ], [ -77.16971, 38.81957 ], [ -77.17289, 38.81999 ], [ -77.16965, 38.81904 ], [ -77.16993, 38.81831 ], [ -77.171, 38.81839 ], [ -77.16884, 38.81684 ], [ -77.16782, 38.81887 ], [ -77.16819, 38.82028 ], [ -77.16717, 38.823 ], [ -77.16858, 38.82169 ], [ -77.17005, 38.82193 ], [ -77.17022, 38.8225 ], [ -77.17053, 38.82194 ], [ -77.16943, 38.82155 ], [ -77.16936, 38.82114 ] ], [ [ -77.17162, 38.83703 ], [ -77.17245, 38.83621 ], [ -77.1719, 38.83572 ], [ -77.17077, 38.836 ], [ -77.17016, 38.8357 ], [ -77.17046, 38.83697 ], [ -77.17162, 38.83703 ] ], [ [ -77.17582, 38.83482 ], [ -77.1758, 38.83479 ], [ -77.1758, 38.8348 ], [ -77.17582, 38.83482 ] ], [ [ -77.17318, 38.82931 ], [ -77.17326, 38.82928 ], [ -77.17316, 38.82923 ], [ -77.17318, 38.82931 ] ], [ [ -77.1738, 38.82298 ], [ -77.17356, 38.82312 ], [ -77.17351, 38.82329 ], [ -77.1738, 38.82298 ] ], [ [ -77.17399, 38.82617 ], [ -77.17298, 38.82692 ], [ -77.17334, 38.82689 ], [ -77.17399, 38.82617 ] ], [ [ -77.17001, 38.83559 ], [ -77.17008, 38.8356 ], [ -77.17006, 38.83558 ], [ -77.17001, 38.83559 ] ], [ [ -77.16985, 38.82367 ], [ -77.16996, 38.82331 ], [ -77.16928, 38.82337 ], [ -77.16922, 38.82351 ], [ -77.16985, 38.82367 ] ], [ [ -77.16676, 38.81794 ], [ -77.16679, 38.81787 ], [ -77.16664, 38.8179 ], [ -77.16676, 38.81794 ] ], [ [ -77.16571, 38.81895 ], [ -77.16533, 38.81982 ], [ -77.16617, 38.82022 ], [ -77.16648, 38.82101 ], [ -77.1668, 38.8202 ], [ -77.16643, 38.81896 ], [ -77.16571, 38.81895 ] ], [ [ -77.16612, 38.82157 ], [ -77.16616, 38.82186 ], [ -77.16632, 38.82142 ], [ -77.16612, 38.82157 ] ], [ [ -77.16104, 38.82297 ], [ -77.16142, 38.82331 ], [ -77.16167, 38.82314 ], [ -77.16104, 38.82297 ] ], [ [ -77.16342, 38.81992 ], [ -77.16191, 38.81884 ], [ -77.16201, 38.82174 ], [ -77.1629, 38.82196 ], [ -77.16342, 38.81992 ] ], [ [ -77.16591, 38.83713 ], [ -77.166, 38.83664 ], [ -77.16428, 38.8364 ], [ -77.16404, 38.8371 ], [ -77.16306, 38.83707 ], [ -77.16315, 38.83334 ], [ -77.16216, 38.83712 ], [ -77.16386, 38.83741 ], [ -77.16591, 38.83713 ] ], [ [ -77.16455, 38.8352 ], [ -77.16451, 38.8349 ], [ -77.16453, 38.83431 ], [ -77.16455, 38.8352 ] ], [ [ -77.16481, 38.83247 ], [ -77.16491, 38.83225 ], [ -77.16424, 38.83267 ], [ -77.16481, 38.83247 ] ], [ [ -77.16667, 38.8323 ], [ -77.16673, 38.83176 ], [ -77.16631, 38.83136 ], [ -77.16598, 38.83156 ], [ -77.16667, 38.8323 ] ], [ [ -77.16595, 38.83331 ], [ -77.1659, 38.83496 ], [ -77.16635, 38.83558 ], [ -77.16626, 38.83368 ], [ -77.16595, 38.83331 ] ], [ [ -77.16044, 38.82906 ], [ -77.16035, 38.83049 ], [ -77.16152, 38.83083 ], [ -77.16077, 38.82928 ], [ -77.16044, 38.82906 ] ], [ [ -77.16061, 38.82773 ], [ -77.16118, 38.82791 ], [ -77.15888, 38.82654 ], [ -77.16061, 38.82773 ] ], [ [ -77.16257, 38.83232 ], [ -77.15976, 38.83148 ], [ -77.15906, 38.83126 ], [ -77.16242, 38.83241 ], [ -77.16257, 38.83232 ] ], [ [ -77.16124, 38.83316 ], [ -77.16061, 38.83298 ], [ -77.16005, 38.83281 ], [ -77.16077, 38.83346 ], [ -77.16124, 38.83316 ] ], [ [ -77.16271, 38.83024 ], [ -77.16298, 38.83127 ], [ -77.16368, 38.83164 ], [ -77.16393, 38.83148 ], [ -77.16309, 38.83121 ], [ -77.1631, 38.8306 ], [ -77.16271, 38.83024 ] ], [ [ -77.16428, 38.8303 ], [ -77.16415, 38.83015 ], [ -77.16441, 38.83044 ], [ -77.16428, 38.8303 ] ], [ [ -77.15974, 38.82261 ], [ -77.15974, 38.8226 ], [ -77.15973, 38.8226 ], [ -77.15974, 38.82261 ] ], [ [ -77.15924, 38.82262 ], [ -77.1597, 38.82259 ], [ -77.15932, 38.8225 ], [ -77.15924, 38.82262 ] ], [ [ -77.15912, 38.825 ], [ -77.15862, 38.82522 ], [ -77.15857, 38.82535 ], [ -77.15912, 38.825 ] ] ] } },
{ "type": "Feature", "properties": { "variant": "T2s", "miles": 0.5 }, "geometry": { "type": "Polygon", "coordinates": [ [ [ -77.17832, 38.82639 ], [ -77.1776, 38.82799 ], [ -77.17948, 38.82881 ], [ -77.17744, 38.83209 ], [ -77.17798, 38.83292 ], [ -77.1779, 38.83503 ], [ -77.17714, 38.83565 ], [ -77.17643, 38.83538 ], [ -77.17582, 38.83388 ], [ -77.1748, 38.83361 ], [ -77.17418, 38.83416 ], [ -77.17365, 38.83412 ], [ -77.17344, 38.83309 ], [ -77.17255, 38.83291 ], [ -77.17239, 38.83219 ], [ -77.17144, 38.83241 ], [ -77.17103, 38.83215 ], [ -77.17026, 38.83075 ], [ -77.17065, 38.83011 ], [ -77.17188, 38.82977 ], [ -77.17169, 38.82816 ], [ -77.17268, 38.82776 ], [ -77.17281, 38.82693 ], [ -77.17383, 38.82653 ], [ -77.17402, 38.82611 ], [ -77.17355, 38.82544 ], [ -77.17388, 38.82511 ], [ -77.17832, 38.82639 ] ], [ [ -77.17392, 38.8303 ], [ -77.17318, 38.83043 ], [ -77.17533, 38.83083 ], [ -77.17392, 38.8303 ] ], [ [ -77.17715, 38.83016 ], [ -77.17782, 38.82923 ], [ -77.17311, 38.82796 ], [ -77.17487, 38.8288 ], [ -77.17517, 38.82946 ], [ -77.17715, 38.83016 ] ], [ [ -77.17405, 38.83168 ], [ -77.17386, 38.83163 ], [ -77.17408, 38.83212 ], [ -77.17518, 38.83192 ], [ -77.17405, 38.83168 ] ], [ [ -77.17322, 38.82926 ], [ -77.17316, 38.82923 ], [ -77.17318, 38.82931 ], [ -77.17322, 38.82926 ] ], [ [ -77.17178, 38.831 ], [ -77.1718, 38.8309 ], [ -77.17171, 38.83092 ], [ -77.17178, 38.831 ] ] ] } },
{ "type": "Feature", "properties": { "variant": "T2s", "miles": 1.0 }, "geometry": { "type": "MultiPolygon", "coordinates": [ [ [ [ -77.17793, 38.82611 ], [ -77.17835, 38.82678 ], [ -77.1776, 38.82799 ], [ -77.17915, 38.82848 ], [ -77.17945, 38.82915 ], [ -77.17744, 38.83209 ], [ -77.17798, 38.83292 ], [ -77.17784, 38.83524 ], [ -77.17716, 38.83565 ], [ -77.17616, 38.83538 ], [ -77.1761, 38.83565 ], [ -77.1773, 38.83589 ], [ -77.17721, 38.83665 ], [ -77.17208, 38.83745 ], [ -77.17158, 38.83679 ], [ -77.17245, 38.83621 ], [ -77.1719, 38.83572 ], [ -77.17077, 38.836 ], [ -77.17016, 38.8357 ], [ -77.17019, 38.83637 ], [ -77.16972, 38.83656 ], [ -77.16786, 38.83635 ], [ -77.16772, 38.83595 ], [ -77.16846, 38.83522 ], [ -77.16637, 38.83446 ], [ -77.16622, 38.83406 ], [ -77.16647, 38.8337 ], [ -77.16745, 38.83363 ], [ -77.16673, 38.83176 ], [ -77.16631, 38.83136 ], [ -77.16522, 38.83133 ], [ -77.16508, 38.83093 ], [ -77.17093, 38.82683 ], [ -77.17013, 38.8268 ], [ -77.16914, 38.82755 ], [ -77.1681, 38.82726 ], [ -77.1666, 38.82777 ], [ -77.16503, 38.82716 ], [ -77.1648, 38.82642 ], [ -77.16668, 38.82585 ], [ -77.16686, 38.82494 ], [ -77.16625, 38.82482 ], [ -77.16519, 38.82538 ], [ -77.16472, 38.8252 ], [ -77.1648, 38.82442 ], [ -77.16415, 38.82424 ], [ -77.16407, 38.82352 ], [ -77.1654, 38.82298 ], [ -77.16649, 38.82334 ], [ -77.16756, 38.82426 ], [ -77.16951, 38.82433 ], [ -77.17358, 38.82541 ], [ -77.1744, 38.82507 ], [ -77.17793, 38.82611 ] ], [ [ -77.1758, 38.8348 ], [ -77.17582, 38.83482 ], [ -77.1758, 38.83479 ], [ -77.1758, 38.8348 ] ], [ [ -77.17185, 38.82961 ], [ -77.17164, 38.82852 ], [ -77.1709, 38.82902 ], [ -77.16983, 38.82909 ], [ -77.17008, 38.82954 ], [ -77.16922, 38.83007 ], [ -77.17031, 38.83048 ], [ -77.17185, 38.82961 ] ], [ [ -77.17211, 38.82779 ], [ -77.17268, 38.82776 ], [ -77.17248, 38.82725 ], [ -77.17402, 38.82611 ], [ -77.17377, 38.82595 ], [ -77.1723, 38.82701 ], [ -77.17191, 38.82738 ], [ -77.17211, 38.82779 ] ], [ [ -77.17715, 38.83016 ], [ -77.17782, 38.82923 ], [ -77.17311, 38.82796 ], [ -77.17487, 38.8288 ], [ -77.17516, 38.82946 ], [ -77.17715, 38.83016 ] ], [ [ -77.17424, 38.83205 ], [ -77.17508, 38.832 ], [ -77.17518, 38.83192 ], [ -77.17386, 38.83163 ], [ -77.17424, 38.83205 ] ], [ [ -77.17318, 38.83043 ], [ -77.17538, 38.83066 ], [ -77.17392, 38.8303 ], [ -77.17318, 38.83043 ] ], [ [ -77.17326, 38.82928 ], [ -77.17316, 38.82923 ], [ -77.17318, 38.82931 ], [ -77.17326, 38.82928 ] ], [ [ -77.17264, 38.83414 ], [ -77.17223, 38.8335 ], [ -77.17118, 38.83342 ], [ -77.17112, 38.83486 ], [ -77.17165, 38.83493 ], [ -77.17264, 38.83414 ] ], [ [ -77.16855, 38.83402 ], [ -77.1685, 38.83382 ], [ -77.16833, 38.83393 ], [ -77.16855, 38.83402 ] ], [ [ -77.1683, 38.83249 ], [ -77.16846, 38.83269 ], [ -77.16869, 38.83255 ], [ -77.1683, 38.83249 ] ], [ [ -77.17082, 38.83215 ], [ -77.17087, 38.83189 ], [ -77.16849, 38.83104 ], [ -77.16778, 38.83042 ], [ -77.16738, 38.83067 ], [ -77.16816, 38.83132 ], [ -77.17082, 38.83215 ] ], [ [ -77.17171, 38.83092 ], [ -77.17178, 38.831 ], [ -77.1718, 38.8309 ], [ -77.17171, 38.83092 ] ], [ [ -77.17006, 38.83558 ], [ -77.17001, 38.83559 ], [ -77.17008, 38.8356 ], [ -77.17006, 38.83558 ] ] ], [ [ [ -77.18295, 38.82767 ], [ -77.18462, 38.82905 ], [ -77.18582, 38.82942 ], [ -77.18667, 38.83135 ], [ -77.18773, 38.83111 ], [ -77.18795, 38.83239 ], [ -77.18706, 38.8329 ], [ -77.18315, 38.83209 ], [ -77.18324, 38.83133 ], [ -77.18518, 38.8313 ], [ -77.18403, 38.8309 ], [ -77.18211, 38.82914 ], [ -77.18089, 38.82853 ], [ -77.18131, 38.82742 ], [ -77.18295, 38.82767 ] ] ], [ [ [ -77.18845, 38.82913 ], [ -77.18933, 38.82859 ], [ -77.19074, 38.82899 ], [ -77.19034, 38.83108 ], [ -77.18925, 38.83089 ], [ -77.18932, 38.82984 ], [ -77.18854, 38.82954 ], [ -77.18845, 38.82913 ] ] ] ] } },
{ "type": "Feature", "properties": { "variant": "T2s", "miles": 1.5 }, "geometry": { "type": "Polygon", "coordinates": [ [ [ -77.19543, 38.82483 ], [ -77.19525, 38.8256 ], [ -77.19593, 38.82535 ], [ -77.19736, 38.82658 ], [ -77.19623, 38.82803 ], [ -77.1978, 38.82799 ], [ -77.19844, 38.82745 ], [ -77.19928, 38.82783 ], [ -77.19792, 38.83016 ], [ -77.20002, 38.83054 ], [ -77.2005, 38.83117 ], [ -77.19961, 38.8318 ], [ -77.19716, 38.83123 ], [ -77.19751, 38.83253 ], [ -77.197, 38.83294 ], [ -77.19502, 38.8323 ], [ -77.19424, 38.83295 ], [ -77.19372, 38.83288 ], [ -77.19349, 38.83215 ], [ -77.19312, 38.8323 ], [ -77.19338, 38.83312 ], [ -77.19291, 38.83346 ], [ -77.19181, 38.83369 ], [ -77.19075, 38.83321 ], [ -77.19172, 38.83437 ], [ -77.19082, 38.83602 ], [ -77.1926, 38.83726 ], [ -77.19201, 38.83788 ], [ -77.19074, 38.83733 ], [ -77.1902, 38.83814 ], [ -77.18935, 38.83797 ], [ -77.18885, 38.83866 ], [ -77.18833, 38.83869 ], [ -77.18575, 38.83762 ], [ -77.18446, 38.83576 ], [ -77.18405, 38.83636 ], [ -77.18303, 38.83648 ], [ -77.18262, 38.83731 ], [ -77.1821, 38.83738 ], [ -77.18167, 38.83713 ], [ -77.18164, 38.83641 ], [ -77.17907, 38.83625 ], [ -77.17828, 38.83231 ], [ -77.17914, 38.83083 ], [ -77.18008, 38.83062 ], [ -77.18037, 38.83123 ], [ -77.18115, 38.83114 ], [ -77.18228, 38.832 ], [ -77.18236, 38.83273 ], [ -77.1828, 38.83177 ], [ -77.18026, 38.82986 ], [ -77.18027, 38.82945 ], [ -77.18065, 38.82916 ], [ -77.18164, 38.82932 ], [ -77.18403, 38.83123 ], [ -77.18518, 38.8313 ], [ -77.18399, 38.83088 ], [ -77.18035, 38.82791 ], [ -77.17744, 38.83209 ], [ -77.17798, 38.83292 ], [ -77.17782, 38.83528 ], [ -77.17716, 38.83565 ], [ -77.17616, 38.83538 ], [ -77.1761, 38.83565 ], [ -77.1773, 38.83589 ], [ -77.17721, 38.83665 ], [ -77.17208, 38.83745 ], [ -77.17158, 38.83679 ], [ -77.17232, 38.83603 ], [ -77.1719, 38.83572 ], [ -77.17077, 38.836 ], [ -77.17016, 38.8357 ], [ -77.17019, 38.83637 ], [ -77.16972, 38.83656 ], [ -77.16833, 38.83655 ], [ -77.16779, 38.83615 ], [ -77.16716, 38.83687 ], [ -77.16428, 38.8364 ], [ -77.16404, 38.8371 ], [ -77.16355, 38.83724 ], [ -77.16288, 38.83669 ], [ -77.16315, 38.83334 ], [ -77.16216, 38.83712 ], [ -77.16368, 38.83762 ], [ -77.16378, 38.83802 ], [ -77.16297, 38.83845 ], [ -77.1607, 38.83762 ], [ -77.16144, 38.83443 ], [ -77.16004, 38.83532 ], [ -77.15907, 38.83524 ], [ -77.15891, 38.83485 ], [ -77.1597, 38.83414 ], [ -77.15786, 38.83265 ], [ -77.15765, 38.83126 ], [ -77.15801, 38.83095 ], [ -77.1564, 38.83033 ], [ -77.15674, 38.82961 ], [ -77.15906, 38.8301 ], [ -77.15953, 38.82772 ], [ -77.16026, 38.82755 ], [ -77.16118, 38.82791 ], [ -77.15851, 38.82607 ], [ -77.15853, 38.82539 ], [ -77.15912, 38.825 ], [ -77.15777, 38.82555 ], [ -77.15711, 38.82431 ], [ -77.15629, 38.82401 ], [ -77.15629, 38.82329 ], [ -77.15745, 38.82304 ], [ -77.15798, 38.82218 ], [ -77.15555, 38.82158 ], [ -77.15508, 38.82098 ], [ -77.15539, 38.82035 ], [ -77.1559, 38.82025 ], [ -77.16062, 38.82139 ], [ -77.16082, 38.81815 ], [ -77.16226, 38.81741 ], [ -77.16412, 38.81891 ], [ -77.16333, 38.81774 ], [ -77.16357, 38.81738 ], [ -77.16471, 38.8176 ], [ -77.16586, 38.81692 ], [ -77.16719, 38.81866 ], [ -77.16682, 38.81895 ], [ -77.16577, 38.81882 ], [ -77.16533, 38.81982 ], [ -77.16617, 38.82022 ], [ -77.16651, 38.82125 ], [ -77.16605, 38.82184 ], [ -77.16723, 38.82228 ], [ -77.16717, 38.823 ], [ -77.16858, 38.82169 ], [ -77.17005, 38.82193 ], [ -77.17021, 38.82292 ], [ -77.16922, 38.82351 ], [ -77.16985, 38.82367 ], [ -77.1707, 38.82321 ], [ -77.17121, 38.82386 ], [ -77.17094, 38.82465 ], [ -77.17246, 38.82524 ], [ -77.17358, 38.82541 ], [ -77.1744, 38.82507 ], [ -77.17793, 38.82611 ], [ -77.17835, 38.82678 ], [ -77.1776, 38.82799 ], [ -77.1785, 38.82828 ], [ -77.1798, 38.8266 ], [ -77.182, 38.82662 ], [ -77.1823, 38.82721 ], [ -77.18485, 38.82781 ], [ -77.18484, 38.82626 ], [ -77.18676, 38.82453 ], [ -77.18753, 38.825 ], [ -77.18627, 38.82652 ], [ -77.18623, 38.82812 ], [ -77.18713, 38.82831 ], [ -77.18749, 38.82558 ], [ -77.18826, 38.82511 ], [ -77.18886, 38.82571 ], [ -77.1885, 38.82845 ], [ -77.18973, 38.82867 ], [ -77.19159, 38.8277 ], [ -77.1938, 38.82798 ], [ -77.19245, 38.82453 ], [ -77.19281, 38.82423 ], [ -77.19334, 38.82422 ], [ -77.19385, 38.82473 ], [ -77.19484, 38.82442 ], [ -77.19543, 38.82483 ] ], [ [ -77.1741, 38.83211 ], [ -77.17508, 38.832 ], [ -77.17518, 38.83192 ], [ -77.17386, 38.83163 ], [ -77.1741, 38.83211 ] ], [ [ -77.17318, 38.83043 ], [ -77.17538, 38.83066 ], [ -77.17392, 38.8303 ], [ -77.17318, 38.83043 ] ], [ [ -77.17517, 38.82946 ], [ -77.17715, 38.83016 ], [ -77.17782, 38.82923 ], [ -77.17311, 38.82796 ], [ -77.17487, 38.8288 ], [ -77.17517, 38.82946 ] ], [ [ -77.17381, 38.82654 ], [ -77.17377, 38.82595 ], [ -77.17191, 38.82738 ], [ -77.17205, 38.82781 ], [ -77.17268, 38.82776 ], [ -77.17248, 38.82725 ], [ -77.17381, 38.82654 ] ], [ [ -77.1869, 38.83643 ], [ -77.1865, 38.83664 ], [ -77.18661, 38.83676 ], [ -77.1869, 38.83643 ] ], [ [ -77.18839, 38.83272 ], [ -77.18841, 38.83164 ], [ -77.18929, 38.82999 ], [ -77.18601, 38.82934 ], [ -77.18667, 38.83135 ], [ -77.18722, 38.83101 ], [ -77.188, 38.83146 ], [ -77.18795, 38.83239 ], [ -77.18739, 38.83261 ], [ -77.18772, 38.83317 ], [ -77.18839, 38.83272 ] ], [ [ -77.19362, 38.8307 ], [ -77.19075, 38.83022 ], [ -77.1907, 38.8304 ], [ -77.19228, 38.83131 ], [ -77.19362, 38.8307 ] ], [ [ -77.19372, 38.82926 ], [ -77.19189, 38.82877 ], [ -77.19124, 38.82893 ], [ -77.19372, 38.82926 ] ], [ [ -77.19671, 38.82909 ], [ -77.19518, 38.82917 ], [ -77.19516, 38.82968 ], [ -77.19638, 38.82989 ], [ -77.19671, 38.82909 ] ], [ [ -77.19516, 38.82603 ], [ -77.19511, 38.82599 ], [ -77.19506, 38.82606 ], [ -77.19516, 38.82603 ] ], [ [ -77.19561, 38.83131 ], [ -77.19578, 38.83139 ], [ -77.19576, 38.83126 ], [ -77.19561, 38.83131 ] ], [ [ -77.19024, 38.83148 ], [ -77.1901, 38.83219 ], [ -77.19091, 38.83188 ], [ -77.19024, 38.83148 ] ], [ [ -77.18819, 38.83445 ], [ -77.18905, 38.83417 ], [ -77.18925, 38.83392 ], [ -77.18762, 38.83456 ], [ -77.18817, 38.8348 ], [ -77.18819, 38.83445 ] ], [ [ -77.18954, 38.83373 ], [ -77.1895, 38.83379 ], [ -77.18957, 38.83378 ], [ -77.18954, 38.83373 ] ], [ [ -77.18, 38.83433 ], [ -77.18036, 38.83441 ], [ -77.18049, 38.83435 ], [ -77.18, 38.83433 ] ], [ [ -77.17988, 38.83307 ], [ -77.18067, 38.83336 ], [ -77.18084, 38.83351 ], [ -77.18078, 38.83326 ], [ -77.17988, 38.83307 ] ], [ [ -77.18574, 38.83242 ], [ -77.18401, 38.83231 ], [ -77.18366, 38.83334 ], [ -77.18416, 38.83394 ], [ -77.18336, 38.83437 ], [ -77.1822, 38.83391 ], [ -77.18218, 38.83505 ], [ -77.18651, 38.8337 ], [ -77.18574, 38.83242 ] ], [ [ -77.18468, 38.82904 ], [ -77.18462, 38.82905 ], [ -77.18467, 38.82906 ], [ -77.18468, 38.82904 ] ], [ [ -77.18073, 38.83428 ], [ -77.18081, 38.83419 ], [ -77.18065, 38.8343 ], [ -77.18073, 38.83428 ] ], [ [ -77.17582, 38.83482 ], [ -77.1758, 38.83479 ], [ -77.1758, 38.8348 ], [ -77.17582, 38.83482 ] ], [ [ -77.17008, 38.8356 ], [ -77.17004, 38.83559 ], [ -77.17001, 38.83559 ], [ -77.17008, 38.8356 ] ], [ [ -77.16855, 38.83402 ], [ -77.1685, 38.83382 ], [ -77.16833, 38.83393 ], [ -77.16855, 38.83402 ] ], [ [ -77.16635, 38.83558 ], [ -77.16595, 38.83331 ], [ -77.1659, 38.83496 ], [ -77.16635, 38.83558 ] ], [ [ -77.16481, 38.83247 ], [ -77.16491, 38.83225 ], [ -77.16424, 38.83267 ], [ -77.16481, 38.83247 ] ], [ [ -77.16599, 38.83021 ], [ -77.17093, 38.82683 ], [ -77.17013, 38.8268 ], [ -77.16748, 38.82876 ], [ -77.1639, 38.82768 ], [ -77.16354, 38.82702 ], [ -77.16177, 38.82629 ], [ -77.16169, 38.82588 ], [ -77.1626, 38.82513 ], [ -77.16261, 38.82432 ], [ -77.16355, 38.82338 ], [ -77.16013, 38.82575 ], [ -77.16599, 38.83021 ] ], [ [ -77.1683, 38.83249 ], [ -77.16846, 38.83269 ], [ -77.16869, 38.83255 ], [ -77.1683, 38.83249 ] ], [ [ -77.17086, 38.83215 ], [ -77.16778, 38.83042 ], [ -77.16738, 38.83067 ], [ -77.16816, 38.83132 ], [ -77.17086, 38.83215 ] ], [ [ -77.16922, 38.83007 ], [ -77.17031, 38.83048 ], [ -77.17188, 38.82977 ], [ -77.17164, 38.82852 ], [ -77.1709, 38.82902 ], [ -77.16983, 38.82909 ], [ -77.17008, 38.82954 ], [ -77.16922, 38.83007 ] ], [ [ -77.17322, 38.82926 ], [ -77.17318, 38.82931 ], [ -77.17326, 38.82928 ], [ -77.17322, 38.82926 ] ], [ [ -77.17178, 38.83098 ], [ -77.17171, 38.83092 ], [ -77.17178, 38.831 ], [ -77.17178, 38.83098 ] ], [ [ -77.17264, 38.83414 ], [ -77.17223, 38.8335 ], [ -77.17118, 38.83342 ], [ -77.17112, 38.83486 ], [ -77.17165, 38.83493 ], [ -77.17264, 38.83414 ] ], [ [ -77.16668, 38.82585 ], [ -77.1663, 38.82577 ], [ -77.16631, 38.82583 ], [ -77.16668, 38.82585 ] ], [ [ -77.16598, 38.83156 ], [ -77.16653, 38.83216 ], [ -77.16667, 38.8323 ], [ -77.16673, 38.83176 ], [ -77.16631, 38.83136 ], [ -77.16598, 38.83156 ] ], [ [ -77.16754, 38.83482 ], [ -77.16784, 38.83578 ], [ -77.16843, 38.83548 ], [ -77.16754, 38.83482 ] ], [ [ -77.1611, 38.823 ], [ -77.1609, 38.82329 ], [ -77.16167, 38.82314 ], [ -77.1611, 38.823 ] ], [ [ -77.16346, 38.81996 ], [ -77.16191, 38.81884 ], [ -77.16201, 38.82174 ], [ -77.1629, 38.82196 ], [ -77.16346, 38.81996 ] ], [ [ -77.16242, 38.83241 ], [ -77.16179, 38.83206 ], [ -77.15906, 38.83126 ], [ -77.16242, 38.83241 ] ], [ [ -77.16152, 38.83083 ], [ -77.16077, 38.82928 ], [ -77.16044, 38.82906 ], [ -77.16035, 38.83049 ], [ -77.16152, 38.83083 ] ], [ [ -77.16415, 38.83038 ], [ -77.16441, 38.83044 ], [ -77.16415, 38.83015 ], [ -77.16415, 38.83038 ] ], [ [ -77.16271, 38.83024 ], [ -77.16298, 38.83127 ], [ -77.16368, 38.83164 ], [ -77.16393, 38.83148 ], [ -77.16309, 38.83121 ], [ -77.1631, 38.8306 ], [ -77.16271, 38.83024 ] ], [ [ -77.16005, 38.83281 ], [ -77.16077, 38.83346 ], [ -77.16124, 38.83316 ], [ -77.16087, 38.83305 ], [ -77.16005, 38.83281 ] ], [ [ -77.16442, 38.83481 ], [ -77.16455, 38.8352 ], [ -77.16453, 38.83431 ], [ -77.16442, 38.83481 ] ], [ [ -77.15973, 38.8226 ], [ -77.15974, 38.82261 ], [ -77.15974, 38.8226 ], [ -77.15973, 38.8226 ] ], [ [ -77.15932, 38.8225 ], [ -77.15924, 38.82262 ], [ -77.1597, 38.82259 ], [ -77.15932, 38.8225 ] ] ] } }
]
}
