{
"type": "FeatureCollection",
"name": "456",
"crs": { "type": "name", "properties": { "name": "urn:ogc:def:crs:OGC:1.3:CRS84" } },
"xy_coordinate_resolution": 1e-05,
"features": [
{ "type": "Feature", "properties": { "variant": "T0", "miles": 0.5 }, "geometry": { "type": "Polygon", "coordinates": [ [ [ -77.17058, 38.83709 ], [ -77.17203, 38.83672 ], [ -77.17295, 38.83698 ], [ -77.17297, 38.8374 ], [ -77.17204, 38.83791 ], [ -77.17217, 38.83892 ], [ -77.17119, 38.83998 ], [ -77.17217, 38.84077 ], [ -77.17191, 38.84141 ], [ -77.17288, 38.84212 ], [ -77.17259, 38.84277 ], [ -77.17188, 38.84305 ], [ -77.17225, 38.84401 ], [ -77.17179, 38.84469 ], [ -77.17093, 38.84433 ], [ -77.1706, 38.84348 ], [ -77.16977, 38.84388 ], [ -77.16934, 38.84364 ], [ -77.16972, 38.84253 ], [ -77.16915, 38.84206 ], [ -77.1698, 38.84133 ], [ -77.16611, 38.84133 ], [ -77.16676, 38.84215 ], [ -77.16842, 38.84304 ], [ -77.16837, 38.8438 ], [ -77.16787, 38.84394 ], [ -77.16597, 38.84304 ], [ -77.16512, 38.84222 ], [ -77.16225, 38.84192 ], [ -77.16208, 38.84153 ], [ -77.16302, 38.84104 ], [ -77.16309, 38.8404 ], [ -77.16475, 38.84025 ], [ -77.16613, 38.83891 ], [ -77.16638, 38.83742 ], [ -77.16685, 38.83723 ], [ -77.16761, 38.83771 ], [ -77.16766, 38.83879 ], [ -77.16619, 38.84025 ], [ -77.16748, 38.84025 ], [ -77.16801, 38.83941 ], [ -77.16854, 38.83939 ], [ -77.16889, 38.84025 ], [ -77.1698, 38.84025 ], [ -77.17075, 38.83831 ], [ -77.17058, 38.83709 ] ], [ [ -77.17127, 38.84147 ], [ -77.17139, 38.8418 ], [ -77.17163, 38.84151 ], [ -77.17127, 38.84147 ] ] ] } },
{ "type": "Feature", "properties": { "variant": "T0", "miles": 1.0 }, "geometry": { "type": "Polygon", "coordinates": [ [ [ -77.18142, 38.83511 ], [ -77.18218, 38.83571 ], [ -77.18155, 38.8363 ], [ -77.17873, 38.83676 ], [ -77.179, 38.83809 ], [ -77.17846, 38.83913 ], [ -77.17762, 38.83874 ], [ -77.17757, 38.83778 ], [ -77.17706, 38.83765 ], [ -77.1769, 38.83707 ], [ -77.17435, 38.83723 ], [ -77.17485, 38.83899 ], [ -77.17447, 38.83977 ], [ -77.17598, 38.84292 ], [ -77.17569, 38.84386 ], [ -77.17486, 38.84382 ], [ -77.17503, 38.84428 ], [ -77.17611, 38.84456 ], [ -77.17703, 38.84349 ], [ -77.17823, 38.84369 ], [ -77.17877, 38.84433 ], [ -77.17847, 38.84531 ], [ -77.1777, 38.8459 ], [ -77.17645, 38.84598 ], [ -77.17542, 38.84553 ], [ -77.17519, 38.84868 ], [ -77.17557, 38.8491 ], [ -77.1749, 38.84966 ], [ -77.17388, 38.84951 ], [ -77.173, 38.84879 ], [ -77.17305, 38.84802 ], [ -77.17392, 38.84781 ], [ -77.17124, 38.84696 ], [ -77.17159, 38.84625 ], [ -77.174, 38.84673 ], [ -77.17401, 38.84546 ], [ -77.17218, 38.84565 ], [ -77.17113, 38.84484 ], [ -77.16798, 38.84627 ], [ -77.16606, 38.84543 ], [ -77.16351, 38.8457 ], [ -77.16135, 38.84432 ], [ -77.15956, 38.84439 ], [ -77.15924, 38.84406 ], [ -77.15972, 38.8434 ], [ -77.16117, 38.8432 ], [ -77.16242, 38.8435 ], [ -77.16265, 38.8426 ], [ -77.16092, 38.84237 ], [ -77.16061, 38.84141 ], [ -77.15995, 38.84232 ], [ -77.15859, 38.84223 ], [ -77.1566, 38.84032 ], [ -77.1566, 38.83946 ], [ -77.15561, 38.83926 ], [ -77.15572, 38.83869 ], [ -77.15472, 38.83765 ], [ -77.15493, 38.83684 ], [ -77.15741, 38.83562 ], [ -77.1593, 38.83611 ], [ -77.16035, 38.83441 ], [ -77.16123, 38.83404 ], [ -77.16266, 38.83435 ], [ -77.16216, 38.83712 ], [ -77.16247, 38.83722 ], [ -77.16321, 38.83552 ], [ -77.16329, 38.83362 ], [ -77.16258, 38.8325 ], [ -77.16337, 38.83205 ], [ -77.16426, 38.8327 ], [ -77.16481, 38.83247 ], [ -77.16422, 38.83154 ], [ -77.16509, 38.83095 ], [ -77.16727, 38.83286 ], [ -77.16764, 38.83367 ], [ -77.17109, 38.83479 ], [ -77.1715, 38.8355 ], [ -77.17127, 38.83587 ], [ -77.16981, 38.83558 ], [ -77.17046, 38.83697 ], [ -77.17358, 38.83597 ], [ -77.17723, 38.83571 ], [ -77.17723, 38.83411 ], [ -77.17792, 38.83357 ], [ -77.17861, 38.8341 ], [ -77.17881, 38.83524 ], [ -77.18142, 38.83511 ] ], [ [ -77.16894, 38.8414 ], [ -77.16926, 38.84174 ], [ -77.16983, 38.84146 ], [ -77.1698, 38.84133 ], [ -77.16611, 38.84133 ], [ -77.16894, 38.8414 ] ], [ [ -77.16801, 38.83941 ], [ -77.16854, 38.83939 ], [ -77.16889, 38.84025 ], [ -77.1698, 38.84025 ], [ -77.17069, 38.83815 ], [ -77.16768, 38.83849 ], [ -77.16733, 38.83946 ], [ -77.16619, 38.84025 ], [ -77.16748, 38.84025 ], [ -77.16801, 38.83941 ] ], [ [ -77.16845, 38.83711 ], [ -77.16872, 38.83646 ], [ -77.16846, 38.83522 ], [ -77.16754, 38.83482 ], [ -77.16783, 38.83595 ], [ -77.16729, 38.83707 ], [ -77.16845, 38.83711 ] ], [ [ -77.17245, 38.84453 ], [ -77.1737, 38.84456 ], [ -77.17358, 38.84426 ], [ -77.17245, 38.84453 ] ], [ [ -77.17281, 38.84248 ], [ -77.17188, 38.84305 ], [ -77.17205, 38.84349 ], [ -77.17318, 38.84323 ], [ -77.17281, 38.84248 ] ], [ [ -77.17309, 38.83985 ], [ -77.17322, 38.83847 ], [ -77.17205, 38.83794 ], [ -77.17292, 38.84059 ], [ -77.17357, 38.84116 ], [ -77.17309, 38.83985 ] ], [ [ -77.17451, 38.84272 ], [ -77.1743, 38.84244 ], [ -77.17461, 38.84323 ], [ -77.17451, 38.84272 ] ], [ [ -77.1715, 38.84157 ], [ -77.17163, 38.84151 ], [ -77.17127, 38.84147 ], [ -77.17139, 38.84179 ], [ -77.1715, 38.84157 ] ], [ [ -77.16935, 38.84232 ], [ -77.16881, 38.8435 ], [ -77.16915, 38.84437 ], [ -77.17073, 38.84381 ], [ -77.1706, 38.84348 ], [ -77.16977, 38.84388 ], [ -77.16934, 38.84364 ], [ -77.16935, 38.84232 ] ], [ [ -77.17139, 38.8403 ], [ -77.17127, 38.83991 ], [ -77.17118, 38.84029 ], [ -77.17139, 38.8403 ] ], [ [ -77.1633, 38.83936 ], [ -77.16407, 38.83872 ], [ -77.16252, 38.83942 ], [ -77.16292, 38.84018 ], [ -77.1633, 38.83936 ] ], [ [ -77.16595, 38.83331 ], [ -77.1659, 38.83496 ], [ -77.16635, 38.83558 ], [ -77.16595, 38.83331 ] ], [ [ -77.16455, 38.8352 ], [ -77.16453, 38.83431 ], [ -77.16442, 38.83481 ], [ -77.16455, 38.8352 ] ], [ [ -77.16428, 38.8364 ], [ -77.16426, 38.83663 ], [ -77.16485, 38.83674 ], [ -77.16512, 38.83733 ], [ -77.16593, 38.83728 ], [ -77.16568, 38.83654 ], [ -77.16428, 38.8364 ] ], [ [ -77.16453, 38.83986 ], [ -77.1643, 38.84025 ], [ -77.16475, 38.84025 ], [ -77.1663, 38.83858 ], [ -77.16453, 38.83986 ] ], [ [ -77.16562, 38.84278 ], [ -77.16561, 38.84277 ], [ -77.1656, 38.84278 ], [ -77.16562, 38.84278 ] ], [ [ -77.16544, 38.84386 ], [ -77.16489, 38.84438 ], [ -77.16642, 38.84429 ], [ -77.16544, 38.84386 ] ], [ [ -77.16396, 38.84355 ], [ -77.16445, 38.84308 ], [ -77.1638, 38.84322 ], [ -77.16396, 38.84355 ] ], [ [ -77.15999, 38.83832 ], [ -77.16207, 38.83839 ], [ -77.16188, 38.83833 ], [ -77.15835, 38.83706 ], [ -77.15999, 38.83832 ] ], [ [ -77.15658, 38.83827 ], [ -77.15731, 38.83778 ], [ -77.15697, 38.83743 ], [ -77.15638, 38.8378 ], [ -77.15658, 38.83827 ] ], [ [ -77.16087, 38.83666 ], [ -77.16116, 38.83553 ], [ -77.161, 38.8358 ], [ -77.16057, 38.83655 ], [ -77.16087, 38.83666 ] ], [ [ -77.15798, 38.8398 ], [ -77.15895, 38.84078 ], [ -77.15806, 38.83872 ], [ -77.15798, 38.8398 ] ], [ [ -77.16023, 38.83951 ], [ -77.15984, 38.83943 ], [ -77.16009, 38.84003 ], [ -77.16052, 38.83959 ], [ -77.16023, 38.83951 ] ] ] } },
{ "type": "Feature", "properties": { "variant": "T0", "miles": 1.5 }, "geometry": { "type": "Polygon", "coordinates": [ [ [ -77.18772, 38.83317 ], [ -77.18993, 38.83241 ], [ -77.19049, 38.8333 ], [ -77.18762, 38.83456 ], [ -77.1887, 38.83502 ], [ -77.18945, 38.83459 ], [ -77.19015, 38.83512 ], [ -77.18861, 38.83698 ], [ -77.18641, 38.83621 ], [ -77.18619, 38.83567 ], [ -77.18576, 38.83632 ], [ -77.18515, 38.83639 ], [ -77.18616, 38.83779 ], [ -77.18558, 38.83895 ], [ -77.18638, 38.83925 ], [ -77.18646, 38.83965 ], [ -77.18557, 38.84004 ], [ -77.18608, 38.84128 ], [ -77.18587, 38.84208 ], [ -77.18379, 38.84323 ], [ -77.18359, 38.84377 ], [ -77.18442, 38.84398 ], [ -77.18485, 38.84453 ], [ -77.18436, 38.84555 ], [ -77.18495, 38.84593 ], [ -77.18438, 38.84658 ], [ -77.1845, 38.84755 ], [ -77.1829, 38.84738 ], [ -77.18182, 38.84671 ], [ -77.18125, 38.84693 ], [ -77.18054, 38.8462 ], [ -77.17979, 38.8461 ], [ -77.17965, 38.84728 ], [ -77.17875, 38.84741 ], [ -77.17729, 38.846 ], [ -77.17542, 38.84553 ], [ -77.17522, 38.84858 ], [ -77.17621, 38.84773 ], [ -77.17873, 38.84742 ], [ -77.17944, 38.84781 ], [ -77.17929, 38.84855 ], [ -77.18057, 38.84834 ], [ -77.18091, 38.84896 ], [ -77.18183, 38.84877 ], [ -77.18205, 38.84957 ], [ -77.18401, 38.84962 ], [ -77.18465, 38.8502 ], [ -77.1839, 38.8507 ], [ -77.18125, 38.85065 ], [ -77.18037, 38.8509 ], [ -77.17986, 38.8498 ], [ -77.17989, 38.85083 ], [ -77.17947, 38.85105 ], [ -77.18123, 38.85085 ], [ -77.18194, 38.85137 ], [ -77.18126, 38.85199 ], [ -77.17832, 38.85222 ], [ -77.17838, 38.85291 ], [ -77.18028, 38.85383 ], [ -77.17913, 38.8551 ], [ -77.17816, 38.85504 ], [ -77.17806, 38.85396 ], [ -77.17713, 38.85355 ], [ -77.17657, 38.85104 ], [ -77.17586, 38.85053 ], [ -77.17564, 38.84969 ], [ -77.17481, 38.85124 ], [ -77.17154, 38.85139 ], [ -77.1706, 38.852 ], [ -77.17047, 38.8526 ], [ -77.17179, 38.85279 ], [ -77.17197, 38.85318 ], [ -77.17175, 38.85356 ], [ -77.1704, 38.85368 ], [ -77.17022, 38.85524 ], [ -77.16945, 38.85571 ], [ -77.16899, 38.8555 ], [ -77.16896, 38.85437 ], [ -77.1681, 38.85512 ], [ -77.16742, 38.85457 ], [ -77.16898, 38.85268 ], [ -77.16685, 38.85233 ], [ -77.16666, 38.85101 ], [ -77.16754, 38.85079 ], [ -77.16683, 38.85045 ], [ -77.16505, 38.85099 ], [ -77.16401, 38.85047 ], [ -77.16412, 38.84858 ], [ -77.16297, 38.84822 ], [ -77.16311, 38.84746 ], [ -77.16525, 38.84705 ], [ -77.16705, 38.84727 ], [ -77.17095, 38.84601 ], [ -77.174, 38.84673 ], [ -77.17401, 38.84546 ], [ -77.17218, 38.84565 ], [ -77.17113, 38.84484 ], [ -77.16837, 38.84626 ], [ -77.16722, 38.84613 ], [ -77.16602, 38.84543 ], [ -77.16381, 38.84586 ], [ -77.16129, 38.84434 ], [ -77.15822, 38.84489 ], [ -77.1556, 38.84452 ], [ -77.15496, 38.84376 ], [ -77.15546, 38.84253 ], [ -77.15509, 38.84226 ], [ -77.15389, 38.84259 ], [ -77.15252, 38.84143 ], [ -77.15204, 38.84149 ], [ -77.15207, 38.84278 ], [ -77.15136, 38.84333 ], [ -77.15006, 38.84281 ], [ -77.14875, 38.84327 ], [ -77.14851, 38.84246 ], [ -77.14751, 38.84237 ], [ -77.14764, 38.84163 ], [ -77.14708, 38.84079 ], [ -77.14773, 38.84021 ], [ -77.14709, 38.83925 ], [ -77.14737, 38.8389 ], [ -77.14848, 38.83823 ], [ -77.15068, 38.83849 ], [ -77.15124, 38.8355 ], [ -77.15286, 38.83546 ], [ -77.15389, 38.83611 ], [ -77.154, 38.83472 ], [ -77.15464, 38.83415 ], [ -77.15268, 38.83289 ], [ -77.15161, 38.83293 ], [ -77.15192, 38.83067 ], [ -77.1529, 38.83068 ], [ -77.15301, 38.83175 ], [ -77.15378, 38.8322 ], [ -77.15465, 38.8306 ], [ -77.15564, 38.83019 ], [ -77.15616, 38.83084 ], [ -77.15552, 38.83175 ], [ -77.15635, 38.83239 ], [ -77.15801, 38.83095 ], [ -77.15627, 38.83041 ], [ -77.15609, 38.82983 ], [ -77.15684, 38.82932 ], [ -77.15906, 38.8301 ], [ -77.1591, 38.82861 ], [ -77.15974, 38.82759 ], [ -77.1611, 38.82807 ], [ -77.1615, 38.82742 ], [ -77.16234, 38.82729 ], [ -77.16593, 38.83025 ], [ -77.17069, 38.82708 ], [ -77.17166, 38.82712 ], [ -77.17204, 38.82771 ], [ -77.17177, 38.82841 ], [ -77.1709, 38.82902 ], [ -77.16983, 38.82909 ], [ -77.17008, 38.82954 ], [ -77.16971, 38.82996 ], [ -77.16869, 38.82983 ], [ -77.16738, 38.83067 ], [ -77.16816, 38.83132 ], [ -77.17086, 38.83215 ], [ -77.16837, 38.83089 ], [ -77.16828, 38.83048 ], [ -77.16911, 38.83008 ], [ -77.17031, 38.83048 ], [ -77.1721, 38.8295 ], [ -77.17308, 38.82951 ], [ -77.17316, 38.83113 ], [ -77.17395, 38.83207 ], [ -77.17556, 38.83195 ], [ -77.17606, 38.83261 ], [ -77.17541, 38.8333 ], [ -77.17608, 38.83381 ], [ -77.17574, 38.83488 ], [ -77.17526, 38.83529 ], [ -77.174, 38.8352 ], [ -77.17367, 38.83596 ], [ -77.17723, 38.83571 ], [ -77.17725, 38.83171 ], [ -77.17844, 38.83022 ], [ -77.17927, 38.83075 ], [ -77.18008, 38.83062 ], [ -77.18037, 38.83123 ], [ -77.18115, 38.83114 ], [ -77.18196, 38.83167 ], [ -77.18236, 38.83273 ], [ -77.18324, 38.83133 ], [ -77.18682, 38.83157 ], [ -77.18772, 38.83317 ] ], [ [ -77.17305, 38.84802 ], [ -77.17392, 38.84781 ], [ -77.17246, 38.8475 ], [ -77.17198, 38.84891 ], [ -77.17104, 38.84869 ], [ -77.17107, 38.8475 ], [ -77.16994, 38.84826 ], [ -77.17055, 38.84909 ], [ -77.16984, 38.84962 ], [ -77.16923, 38.84937 ], [ -77.16886, 38.85042 ], [ -77.16933, 38.85157 ], [ -77.173, 38.84879 ], [ -77.17305, 38.84802 ] ], [ [ -77.16977, 38.84388 ], [ -77.16934, 38.84364 ], [ -77.16972, 38.84253 ], [ -77.16935, 38.84232 ], [ -77.16881, 38.8435 ], [ -77.16915, 38.84437 ], [ -77.17073, 38.84381 ], [ -77.1706, 38.84348 ], [ -77.16977, 38.84388 ] ], [ [ -77.17127, 38.84147 ], [ -77.17139, 38.8418 ], [ -77.1715, 38.84157 ], [ -77.17127, 38.84147 ] ], [ [ -77.17069, 38.83815 ], [ -77.16768, 38.83849 ], [ -77.16733, 38.83946 ], [ -77.16619, 38.84025 ], [ -77.16748, 38.84025 ], [ -77.16801, 38.83941 ], [ -77.16893, 38.83967 ], [ -77.16889, 38.84025 ], [ -77.1698, 38.84025 ], [ -77.17069, 38.83815 ] ], [ [ -77.17192, 38.83568 ], [ -77.17077, 38.836 ], [ -77.17016, 38.8357 ], [ -77.17046, 38.83697 ], [ -77.1726, 38.83624 ], [ -77.17192, 38.83568 ] ], [ [ -77.17248, 38.83488 ], [ -77.17264, 38.83414 ], [ -77.17223, 38.8335 ], [ -77.17118, 38.83342 ], [ -77.17129, 38.83484 ], [ -77.17248, 38.83488 ] ], [ [ -77.17894, 38.84522 ], [ -77.17893, 38.84386 ], [ -77.17837, 38.84544 ], [ -77.17894, 38.84522 ] ], [ [ -77.17951, 38.842 ], [ -77.17952, 38.84187 ], [ -77.17913, 38.84269 ], [ -77.17951, 38.842 ] ], [ [ -77.17886, 38.83906 ], [ -77.17702, 38.8391 ], [ -77.17711, 38.83971 ], [ -77.17811, 38.83954 ], [ -77.1784, 38.84003 ], [ -77.17886, 38.83906 ] ], [ [ -77.17994, 38.83771 ], [ -77.18041, 38.83638 ], [ -77.17873, 38.83676 ], [ -77.17918, 38.83789 ], [ -77.17994, 38.83771 ] ], [ [ -77.17863, 38.83465 ], [ -77.17861, 38.83465 ], [ -77.17862, 38.83529 ], [ -77.17863, 38.83465 ] ], [ [ -77.18307, 38.84484 ], [ -77.18276, 38.84536 ], [ -77.1833, 38.84486 ], [ -77.18307, 38.84484 ] ], [ [ -77.18291, 38.83713 ], [ -77.18291, 38.83736 ], [ -77.18293, 38.83709 ], [ -77.18291, 38.83713 ] ], [ [ -77.18651, 38.8337 ], [ -77.18574, 38.83242 ], [ -77.18401, 38.83231 ], [ -77.18366, 38.83334 ], [ -77.18416, 38.83394 ], [ -77.18336, 38.83437 ], [ -77.1822, 38.83391 ], [ -77.18218, 38.83505 ], [ -77.18651, 38.8337 ] ], [ [ -77.18431, 38.83767 ], [ -77.18428, 38.83758 ], [ -77.18418, 38.83888 ], [ -77.18431, 38.83767 ] ], [ [ -77.18448, 38.84088 ], [ -77.18441, 38.84073 ], [ -77.18433, 38.84077 ], [ -77.18448, 38.84088 ] ], [ [ -77.18152, 38.83729 ], [ -77.18139, 38.83728 ], [ -77.18112, 38.83827 ], [ -77.18169, 38.83845 ], [ -77.18152, 38.83729 ] ], [ [ -77.17993, 38.83325 ], [ -77.18084, 38.83351 ], [ -77.18078, 38.83326 ], [ -77.17993, 38.83325 ] ], [ [ -77.18065, 38.8343 ], [ -77.18081, 38.83427 ], [ -77.18081, 38.83419 ], [ -77.18065, 38.8343 ] ], [ [ -77.18036, 38.83441 ], [ -77.18049, 38.83435 ], [ -77.18, 38.83433 ], [ -77.18036, 38.83441 ] ], [ [ -77.18056, 38.83896 ], [ -77.18031, 38.83927 ], [ -77.18042, 38.83918 ], [ -77.18056, 38.83896 ] ], [ [ -77.18157, 38.83998 ], [ -77.18158, 38.83987 ], [ -77.18141, 38.83994 ], [ -77.18157, 38.83998 ] ], [ [ -77.18125, 38.84227 ], [ -77.18136, 38.84235 ], [ -77.18138, 38.84228 ], [ -77.18125, 38.84227 ] ], [ [ -77.18177, 38.84447 ], [ -77.18131, 38.84434 ], [ -77.18138, 38.84521 ], [ -77.18177, 38.84447 ] ], [ [ -77.17844, 38.8496 ], [ -77.17843, 38.8496 ], [ -77.178, 38.85116 ], [ -77.17942, 38.85106 ], [ -77.17863, 38.85064 ], [ -77.17844, 38.8496 ] ], [ [ -77.17707, 38.8498 ], [ -77.17705, 38.8497 ], [ -77.17704, 38.84971 ], [ -77.17707, 38.8498 ] ], [ [ -77.17611, 38.84456 ], [ -77.1763, 38.84405 ], [ -77.17564, 38.83918 ], [ -77.17527, 38.83883 ], [ -77.17483, 38.83885 ], [ -77.17447, 38.83977 ], [ -77.17598, 38.84287 ], [ -77.17569, 38.84386 ], [ -77.17486, 38.84382 ], [ -77.17611, 38.84456 ] ], [ [ -77.17663, 38.83757 ], [ -77.17762, 38.83799 ], [ -77.1769, 38.83707 ], [ -77.17435, 38.83723 ], [ -77.17467, 38.83788 ], [ -77.17663, 38.83757 ] ], [ [ -77.17759, 38.84355 ], [ -77.17753, 38.84356 ], [ -77.17756, 38.84358 ], [ -77.17759, 38.84355 ] ], [ [ -77.17791, 38.84218 ], [ -77.17805, 38.84193 ], [ -77.17742, 38.84198 ], [ -77.17748, 38.84241 ], [ -77.17791, 38.84218 ] ], [ [ -77.1743, 38.84244 ], [ -77.17461, 38.84323 ], [ -77.17459, 38.84294 ], [ -77.1743, 38.84244 ] ], [ [ -77.17171, 38.83092 ], [ -77.17178, 38.831 ], [ -77.17178, 38.83098 ], [ -77.17171, 38.83092 ] ], [ [ -77.17205, 38.83794 ], [ -77.17348, 38.84128 ], [ -77.17308, 38.83979 ], [ -77.17345, 38.83901 ], [ -77.17317, 38.83839 ], [ -77.17205, 38.83794 ] ], [ [ -77.17188, 38.84305 ], [ -77.17205, 38.84349 ], [ -77.17318, 38.84323 ], [ -77.17281, 38.84248 ], [ -77.17188, 38.84305 ] ], [ [ -77.17118, 38.84029 ], [ -77.17139, 38.8403 ], [ -77.17127, 38.83991 ], [ -77.17118, 38.84029 ] ], [ [ -77.1733, 38.84452 ], [ -77.1737, 38.84456 ], [ -77.17358, 38.84426 ], [ -77.17248, 38.84458 ], [ -77.1733, 38.84452 ] ], [ [ -77.16667, 38.84866 ], [ -77.16694, 38.84836 ], [ -77.16643, 38.84847 ], [ -77.16534, 38.8499 ], [ -77.16667, 38.84866 ] ], [ [ -77.17413, 38.8497 ], [ -77.17304, 38.85041 ], [ -77.17399, 38.85034 ], [ -77.17413, 38.8497 ] ], [ [ -77.16761, 38.84956 ], [ -77.16781, 38.84967 ], [ -77.16784, 38.8496 ], [ -77.16761, 38.84956 ] ], [ [ -77.16845, 38.84836 ], [ -77.1695, 38.84818 ], [ -77.1691, 38.84779 ], [ -77.16837, 38.84784 ], [ -77.16845, 38.84836 ] ], [ [ -77.16242, 38.8435 ], [ -77.16265, 38.8426 ], [ -77.16092, 38.84237 ], [ -77.16061, 38.84141 ], [ -77.16027, 38.84213 ], [ -77.15938, 38.84244 ], [ -77.15847, 38.84215 ], [ -77.15735, 38.84085 ], [ -77.15586, 38.84136 ], [ -77.15642, 38.84174 ], [ -77.15696, 38.8414 ], [ -77.15789, 38.84164 ], [ -77.15768, 38.84241 ], [ -77.1569, 38.84278 ], [ -77.1582, 38.84257 ], [ -77.1586, 38.84284 ], [ -77.15864, 38.84325 ], [ -77.15793, 38.84371 ], [ -77.15902, 38.84355 ], [ -77.15916, 38.84282 ], [ -77.15967, 38.84271 ], [ -77.16044, 38.84325 ], [ -77.16242, 38.8435 ] ], [ [ -77.16105, 38.83963 ], [ -77.16121, 38.83978 ], [ -77.16112, 38.83957 ], [ -77.15984, 38.83943 ], [ -77.16009, 38.84003 ], [ -77.16052, 38.83959 ], [ -77.16105, 38.83963 ] ], [ [ -77.16188, 38.83833 ], [ -77.15835, 38.83706 ], [ -77.15999, 38.83832 ], [ -77.16188, 38.83833 ] ], [ [ -77.16057, 38.83655 ], [ -77.16087, 38.83666 ], [ -77.16116, 38.83553 ], [ -77.16057, 38.83655 ] ], [ [ -77.1593, 38.83611 ], [ -77.1596, 38.83559 ], [ -77.15912, 38.8359 ], [ -77.1593, 38.83611 ] ], [ [ -77.16087, 38.83305 ], [ -77.16005, 38.83281 ], [ -77.16077, 38.83346 ], [ -77.16087, 38.83305 ] ], [ [ -77.16189, 38.83209 ], [ -77.15906, 38.83126 ], [ -77.16242, 38.83241 ], [ -77.16189, 38.83209 ] ], [ [ -77.16152, 38.83083 ], [ -77.16044, 38.82906 ], [ -77.16035, 38.83049 ], [ -77.16152, 38.83083 ] ], [ [ -77.166, 38.83664 ], [ -77.16428, 38.8364 ], [ -77.16512, 38.83733 ], [ -77.16591, 38.83713 ], [ -77.166, 38.83664 ] ], [ [ -77.16626, 38.83371 ], [ -77.16595, 38.83331 ], [ -77.1659, 38.83493 ], [ -77.16626, 38.83537 ], [ -77.16626, 38.83371 ] ], [ [ -77.16673, 38.83176 ], [ -77.16631, 38.83136 ], [ -77.16598, 38.83156 ], [ -77.16665, 38.83217 ], [ -77.16673, 38.83176 ] ], [ [ -77.16784, 38.83578 ], [ -77.16843, 38.83548 ], [ -77.16846, 38.83522 ], [ -77.16757, 38.83501 ], [ -77.16784, 38.83578 ] ], [ [ -77.16846, 38.83269 ], [ -77.16869, 38.83255 ], [ -77.1683, 38.83249 ], [ -77.16846, 38.83269 ] ], [ [ -77.16833, 38.83393 ], [ -77.16855, 38.83402 ], [ -77.16851, 38.83394 ], [ -77.16833, 38.83393 ] ], [ [ -77.16734, 38.83716 ], [ -77.16845, 38.83711 ], [ -77.16857, 38.83657 ], [ -77.16777, 38.8362 ], [ -77.16734, 38.83716 ] ], [ [ -77.16796, 38.84174 ], [ -77.16842, 38.84134 ], [ -77.16926, 38.84174 ], [ -77.16983, 38.84146 ], [ -77.1698, 38.84133 ], [ -77.16611, 38.84133 ], [ -77.16796, 38.84174 ] ], [ [ -77.16321, 38.83552 ], [ -77.16315, 38.83334 ], [ -77.16216, 38.83712 ], [ -77.16247, 38.83722 ], [ -77.16321, 38.83552 ] ], [ [ -77.16481, 38.83247 ], [ -77.16491, 38.83225 ], [ -77.16424, 38.83267 ], [ -77.16481, 38.83247 ] ], [ [ -77.16228, 38.82867 ], [ -77.16298, 38.83127 ], [ -77.16368, 38.83164 ], [ -77.16393, 38.83148 ], [ -77.16295, 38.83081 ], [ -77.16321, 38.83045 ], [ -77.16441, 38.83044 ], [ -77.16228, 38.82867 ] ], [ [ -77.16455, 38.8352 ], [ -77.16453, 38.83431 ], [ -77.16442, 38.83481 ], [ -77.16455, 38.8352 ] ], [ [ -77.16453, 38.83986 ], [ -77.1643, 38.84025 ], [ -77.16475, 38.84025 ], [ -77.1663, 38.83858 ], [ -77.16453, 38.83986 ] ], [ [ -77.16252, 38.83942 ], [ -77.16286, 38.84024 ], [ -77.16407, 38.83872 ], [ -77.16252, 38.83942 ] ], [ [ -77.16544, 38.84386 ], [ -77.16489, 38.84438 ], [ -77.16642, 38.84429 ], [ -77.16544, 38.84386 ] ], [ [ -77.1656, 38.84278 ], [ -77.16562, 38.84278 ], [ -77.16561, 38.84277 ], [ -77.1656, 38.84278 ] ], [ [ -77.16334, 38.84214 ], [ -77.16329, 38.84221 ], [ -77.16339, 38.84218 ], [ -77.16334, 38.84214 ] ], [ [ -77.16396, 38.84355 ], [ -77.16445, 38.84308 ], [ -77.16379, 38.84322 ], [ -77.16396, 38.84355 ] ], [ [ -77.1565, 38.83998 ], [ -77.1566, 38.83946 ], [ -77.15561, 38.83926 ], [ -77.15572, 38.83869 ], [ -77.15529, 38.83846 ], [ -77.15564, 38.84029 ], [ -77.1565, 38.83998 ] ], [ [ -77.15654, 38.83587 ], [ -77.15589, 38.83533 ], [ -77.15532, 38.83575 ], [ -77.15512, 38.83672 ], [ -77.15654, 38.83587 ] ], [ [ -77.1597, 38.83414 ], [ -77.15912, 38.83362 ], [ -77.15969, 38.83415 ], [ -77.1597, 38.83414 ] ], [ [ -77.15782, 38.83535 ], [ -77.15862, 38.83483 ], [ -77.15831, 38.83454 ], [ -77.15816, 38.83506 ], [ -77.15782, 38.83535 ] ], [ [ -77.15634, 38.83245 ], [ -77.15563, 38.8334 ], [ -77.15609, 38.83377 ], [ -77.15725, 38.83357 ], [ -77.15634, 38.83245 ] ], [ [ -77.15731, 38.83778 ], [ -77.15697, 38.83743 ], [ -77.15638, 38.8378 ], [ -77.15658, 38.83826 ], [ -77.15731, 38.83778 ] ], [ [ -77.15798, 38.8398 ], [ -77.15895, 38.84078 ], [ -77.15806, 38.83872 ], [ -77.15798, 38.8398 ] ], [ [ -77.15411, 38.83987 ], [ -77.15394, 38.83926 ], [ -77.15339, 38.83958 ], [ -77.15411, 38.83987 ] ], [ [ -77.15006, 38.83953 ], [ -77.15007, 38.83972 ], [ -77.15035, 38.83955 ], [ -77.15006, 38.83953 ] ], [ [ -77.1493, 38.84023 ], [ -77.14923, 38.84023 ], [ -77.14926, 38.84027 ], [ -77.1493, 38.84023 ] ] ] } },
{ "type": "Feature", "properties": { "variant": "T2s", "miles": 0.5 }, "geometry": { "type": "MultiPolygon", "coordinates": [ [ [ [ -77.17183, 38.83727 ], [ -77.17139, 38.83813 ], [ -77.17055, 38.83773 ], [ -77.17058, 38.83709 ], [ -77.17101, 38.83685 ], [ -77.17183, 38.83727 ] ] ], [ [ [ -77.1714, 38.8403 ], [ -77.17209, 38.84063 ], [ -77.17191, 38.84141 ], [ -77.17257, 38.84159 ], [ -77.17288, 38.84216 ], [ -77.17259, 38.84277 ], [ -77.17188, 38.84305 ], [ -77.17225, 38.84401 ], [ -77.17179, 38.84469 ], [ -77.17093, 38.84433 ], [ -77.1706, 38.84348 ], [ -77.16977, 38.84388 ], [ -77.16934, 38.84364 ], [ -77.16972, 38.84253 ], [ -77.16915, 38.84206 ], [ -77.1698, 38.84133 ], [ -77.16611, 38.84133 ], [ -77.16676, 38.84215 ], [ -77.16842, 38.84304 ], [ -77.16837, 38.8438 ], [ -77.16787, 38.84394 ], [ -77.16597, 38.84304 ], [ -77.16512, 38.84222 ], [ -77.16273, 38.84211 ], [ -77.16208, 38.84153 ], [ -77.16302, 38.84104 ], [ -77.16309, 38.8404 ], [ -77.16475, 38.84025 ], [ -77.16621, 38.83882 ], [ -77.16642, 38.83752 ], [ -77.1669, 38.83734 ], [ -77.16763, 38.83785 ], [ -77.16763, 38.83889 ], [ -77.16619, 38.84025 ], [ -77.16748, 38.84025 ], [ -77.16801, 38.83941 ], [ -77.16854, 38.83939 ], [ -77.16889, 38.84025 ], [ -77.1714, 38.8403 ] ], [ [ -77.17127, 38.84147 ], [ -77.17139, 38.8418 ], [ -77.17163, 38.84151 ], [ -77.17127, 38.84147 ] ] ] ] } },
{ "type": "Feature", "properties": { "variant": "T2s", "miles": 1.0 }, "geometry": { "type": "Polygon", "coordinates": [ [ [ -77.17993, 38.83509 ], [ -77.18069, 38.83557 ], [ -77.18054, 38.83597 ], [ -77.17873, 38.83676 ], [ -77.179, 38.83809 ], [ -77.17846, 38.83913 ], [ -77.17762, 38.83874 ], [ -77.17757, 38.83778 ], [ -77.17706, 38.83765 ], [ -77.1769, 38.83707 ], [ -77.17435, 38.83723 ], [ -77.17485, 38.83899 ], [ -77.17447, 38.83977 ], [ -77.17598, 38.84292 ], [ -77.17569, 38.84386 ], [ -77.17486, 38.84382 ], [ -77.17516, 38.84516 ], [ -77.17237, 38.84568 ], [ -77.17113, 38.84484 ], [ -77.16827, 38.84627 ], [ -77.16715, 38.84611 ], [ -77.16602, 38.84543 ], [ -77.16368, 38.84574 ], [ -77.16165, 38.8444 ], [ -77.15956, 38.84439 ], [ -77.15924, 38.84406 ], [ -77.15972, 38.8434 ], [ -77.16117, 38.8432 ], [ -77.16242, 38.8435 ], [ -77.16265, 38.8426 ], [ -77.16092, 38.84237 ], [ -77.16061, 38.84141 ], [ -77.15995, 38.84232 ], [ -77.15859, 38.84223 ], [ -77.1566, 38.84032 ], [ -77.1566, 38.83946 ], [ -77.15561, 38.83926 ], [ -77.15572, 38.83869 ], [ -77.15472, 38.83765 ], [ -77.15513, 38.83704 ], [ -77.15771, 38.83581 ], [ -77.15821, 38.83594 ], [ -77.15815, 38.83685 ], [ -77.15903, 38.83777 ], [ -77.1608, 38.83848 ], [ -77.16207, 38.83839 ], [ -77.16066, 38.83772 ], [ -77.16107, 38.83702 ], [ -77.16349, 38.83752 ], [ -77.16845, 38.83711 ], [ -77.16859, 38.83651 ], [ -77.16964, 38.83581 ], [ -77.17014, 38.83594 ], [ -77.17046, 38.83697 ], [ -77.17358, 38.83597 ], [ -77.17723, 38.83571 ], [ -77.17723, 38.83411 ], [ -77.17792, 38.83357 ], [ -77.17861, 38.8341 ], [ -77.17862, 38.83529 ], [ -77.17993, 38.83509 ] ], [ [ -77.17279, 38.84445 ], [ -77.17245, 38.84453 ], [ -77.1737, 38.84456 ], [ -77.17358, 38.84426 ], [ -77.17279, 38.84445 ] ], [ [ -77.17073, 38.84381 ], [ -77.1706, 38.84348 ], [ -77.16977, 38.84388 ], [ -77.16934, 38.84364 ], [ -77.16972, 38.84253 ], [ -77.16935, 38.84232 ], [ -77.16881, 38.8435 ], [ -77.16921, 38.84432 ], [ -77.17073, 38.84381 ] ], [ [ -77.16894, 38.8414 ], [ -77.16926, 38.84174 ], [ -77.16983, 38.84146 ], [ -77.1698, 38.84133 ], [ -77.16611, 38.84133 ], [ -77.16894, 38.8414 ] ], [ [ -77.17069, 38.83815 ], [ -77.16768, 38.83849 ], [ -77.16733, 38.83946 ], [ -77.16619, 38.84025 ], [ -77.16748, 38.84025 ], [ -77.16801, 38.83941 ], [ -77.16854, 38.83939 ], [ -77.16889, 38.84025 ], [ -77.1698, 38.84025 ], [ -77.17069, 38.83815 ] ], [ [ -77.17281, 38.84248 ], [ -77.17188, 38.84305 ], [ -77.17205, 38.84349 ], [ -77.17318, 38.84323 ], [ -77.17281, 38.84248 ] ], [ [ -77.17309, 38.83985 ], [ -77.17322, 38.83847 ], [ -77.17205, 38.83794 ], [ -77.17292, 38.84059 ], [ -77.17357, 38.84116 ], [ -77.17309, 38.83985 ] ], [ [ -77.1743, 38.84244 ], [ -77.17461, 38.84323 ], [ -77.17461, 38.84301 ], [ -77.1743, 38.84244 ] ], [ [ -77.1715, 38.84157 ], [ -77.17163, 38.84151 ], [ -77.17127, 38.84147 ], [ -77.17139, 38.84179 ], [ -77.1715, 38.84157 ] ], [ [ -77.17118, 38.84029 ], [ -77.17139, 38.8403 ], [ -77.17127, 38.83991 ], [ -77.17118, 38.84029 ] ], [ [ -77.1633, 38.83936 ], [ -77.16407, 38.83872 ], [ -77.16252, 38.83942 ], [ -77.16292, 38.84018 ], [ -77.1633, 38.83936 ] ], [ [ -77.16613, 38.83891 ], [ -77.1663, 38.83858 ], [ -77.16567, 38.83862 ], [ -77.1643, 38.84025 ], [ -77.16613, 38.83891 ] ], [ [ -77.1656, 38.84278 ], [ -77.16562, 38.84278 ], [ -77.16561, 38.84277 ], [ -77.1656, 38.84278 ] ], [ [ -77.16396, 38.84355 ], [ -77.16445, 38.84308 ], [ -77.16391, 38.84319 ], [ -77.16396, 38.84355 ] ], [ [ -77.16544, 38.84386 ], [ -77.16489, 38.84438 ], [ -77.16642, 38.84429 ], [ -77.16544, 38.84386 ] ], [ [ -77.15658, 38.83827 ], [ -77.15731, 38.83778 ], [ -77.15697, 38.83743 ], [ -77.15638, 38.8378 ], [ -77.15658, 38.83827 ] ], [ [ -77.16027, 38.83951 ], [ -77.15984, 38.83943 ], [ -77.16009, 38.84003 ], [ -77.16052, 38.83959 ], [ -77.16121, 38.83978 ], [ -77.16027, 38.83951 ] ], [ [ -77.15798, 38.8398 ], [ -77.15895, 38.84078 ], [ -77.15806, 38.83872 ], [ -77.15798, 38.8398 ] ] ] } },
{ "type": "Feature", "properties": { "variant": "T2s", "miles": 1.5 }, "geometry": { "type": "Polygon", "coordinates": [ [ [ -77.18228, 38.832 ], [ -77.18236, 38.83273 ], [ -77.18322, 38.83134 ], [ -77.1842, 38.83138 ], [ -77.18437, 38.83177 ], [ -77.18366, 38.83334 ], [ -77.18416, 38.83394 ], [ -77.18336, 38.83437 ], [ -77.1822, 38.83391 ], [ -77.18218, 38.83505 ], [ -77.18651, 38.8337 ], [ -77.18575, 38.83209 ], [ -77.18663, 38.83175 ], [ -77.18772, 38.83317 ], [ -77.18892, 38.83268 ], [ -77.18952, 38.8331 ], [ -77.18945, 38.83387 ], [ -77.18762, 38.83456 ], [ -77.18928, 38.83527 ], [ -77.18955, 38.836 ], [ -77.18862, 38.83622 ], [ -77.18756, 38.83576 ], [ -77.18692, 38.83632 ], [ -77.18641, 38.83621 ], [ -77.1862, 38.83567 ], [ -77.18525, 38.83643 ], [ -77.18446, 38.83576 ], [ -77.18362, 38.83661 ], [ -77.18303, 38.83648 ], [ -77.18291, 38.84054 ], [ -77.18093, 38.84153 ], [ -77.18086, 38.84222 ], [ -77.18155, 38.84248 ], [ -77.18143, 38.84323 ], [ -77.18211, 38.84398 ], [ -77.18175, 38.84429 ], [ -77.18034, 38.84408 ], [ -77.18001, 38.84505 ], [ -77.17911, 38.84535 ], [ -77.17873, 38.84507 ], [ -77.17893, 38.84386 ], [ -77.17847, 38.84531 ], [ -77.17753, 38.84595 ], [ -77.17641, 38.84597 ], [ -77.17542, 38.84553 ], [ -77.17522, 38.84858 ], [ -77.17757, 38.84855 ], [ -77.17835, 38.84901 ], [ -77.17777, 38.84962 ], [ -77.17552, 38.84969 ], [ -77.17535, 38.85075 ], [ -77.17463, 38.85131 ], [ -77.17216, 38.85156 ], [ -77.17098, 38.85108 ], [ -77.17091, 38.85042 ], [ -77.17316, 38.84892 ], [ -77.17305, 38.84802 ], [ -77.17392, 38.84781 ], [ -77.17246, 38.8475 ], [ -77.17231, 38.84858 ], [ -77.17145, 38.84895 ], [ -77.17104, 38.84869 ], [ -77.17107, 38.8475 ], [ -77.16994, 38.84826 ], [ -77.17051, 38.84882 ], [ -77.17034, 38.84947 ], [ -77.16923, 38.84937 ], [ -77.16886, 38.85042 ], [ -77.16933, 38.85197 ], [ -77.16841, 38.85263 ], [ -77.16732, 38.85252 ], [ -77.16685, 38.85233 ], [ -77.16655, 38.85142 ], [ -77.16666, 38.85101 ], [ -77.16754, 38.85079 ], [ -77.16683, 38.85045 ], [ -77.16557, 38.85097 ], [ -77.16431, 38.85078 ], [ -77.16393, 38.85015 ], [ -77.1641, 38.84852 ], [ -77.16297, 38.84822 ], [ -77.16284, 38.84782 ], [ -77.16311, 38.84746 ], [ -77.16491, 38.84708 ], [ -77.16705, 38.84727 ], [ -77.17089, 38.84601 ], [ -77.174, 38.84673 ], [ -77.17401, 38.84546 ], [ -77.17218, 38.84565 ], [ -77.17113, 38.84484 ], [ -77.16837, 38.84626 ], [ -77.16722, 38.84613 ], [ -77.16602, 38.84543 ], [ -77.16381, 38.84586 ], [ -77.16129, 38.84434 ], [ -77.15822, 38.84489 ], [ -77.1556, 38.84452 ], [ -77.15496, 38.84376 ], [ -77.15546, 38.84253 ], [ -77.15509, 38.84226 ], [ -77.15389, 38.84259 ], [ -77.15252, 38.84143 ], [ -77.15204, 38.84149 ], [ -77.15207, 38.84278 ], [ -77.15136, 38.84333 ], [ -77.15006, 38.84281 ], [ -77.14875, 38.84327 ], [ -77.14851, 38.84246 ], [ -77.14751, 38.84237 ], [ -77.14766, 38.84161 ], [ -77.15055, 38.83976 ], [ -77.14966, 38.83934 ], [ -77.14975, 38.83858 ], [ -77.15179, 38.8387 ], [ -77.15295, 38.8382 ], [ -77.15292, 38.83652 ], [ -77.15315, 38.83615 ], [ -77.15389, 38.83611 ], [ -77.154, 38.83472 ], [ -77.15464, 38.83415 ], [ -77.15268, 38.83289 ], [ -77.15161, 38.83293 ], [ -77.15192, 38.83067 ], [ -77.1529, 38.83068 ], [ -77.15301, 38.83175 ], [ -77.15378, 38.8322 ], [ -77.15465, 38.8306 ], [ -77.15564, 38.83019 ], [ -77.15616, 38.83084 ], [ -77.15552, 38.83175 ], [ -77.15635, 38.83239 ], [ -77.15801, 38.83095 ], [ -77.16242, 38.83241 ], [ -77.16507, 38.83106 ], [ -77.16558, 38.83171 ], [ -77.16424, 38.83267 ], [ -77.16456, 38.83373 ], [ -77.16361, 38.83392 ], [ -77.16308, 38.83338 ], [ -77.16216, 38.83712 ], [ -77.16434, 38.83662 ], [ -77.16485, 38.83674 ], [ -77.16512, 38.83733 ], [ -77.16845, 38.83711 ], [ -77.16859, 38.83651 ], [ -77.16964, 38.83581 ], [ -77.17014, 38.83594 ], [ -77.17046, 38.83697 ], [ -77.17358, 38.83597 ], [ -77.17723, 38.83571 ], [ -77.17723, 38.83177 ], [ -77.17803, 38.83047 ], [ -77.17897, 38.83027 ], [ -77.17927, 38.83075 ], [ -77.18008, 38.83062 ], [ -77.18037, 38.83123 ], [ -77.18115, 38.83114 ], [ -77.18228, 38.832 ] ], [ [ -77.16784, 38.84938 ], [ -77.16775, 38.84936 ], [ -77.16761, 38.84956 ], [ -77.16784, 38.84938 ] ], [ [ -77.16894, 38.8414 ], [ -77.16926, 38.84174 ], [ -77.16983, 38.84146 ], [ -77.1698, 38.84133 ], [ -77.16611, 38.84133 ], [ -77.16894, 38.8414 ] ], [ [ -77.16801, 38.83941 ], [ -77.16854, 38.83939 ], [ -77.16889, 38.84025 ], [ -77.1698, 38.84025 ], [ -77.17069, 38.83815 ], [ -77.16768, 38.83849 ], [ -77.16733, 38.83946 ], [ -77.16619, 38.84025 ], [ -77.16748, 38.84025 ], [ -77.16801, 38.83941 ] ], [ [ -77.18166, 38.83876 ], [ -77.18152, 38.83729 ], [ -77.18122, 38.83814 ], [ -77.18042, 38.83918 ], [ -77.18166, 38.83876 ] ], [ [ -77.18002, 38.83685 ], [ -77.18047, 38.83627 ], [ -77.17873, 38.83676 ], [ -77.179, 38.83792 ], [ -77.17996, 38.83768 ], [ -77.18002, 38.83685 ] ], [ [ -77.17702, 38.8391 ], [ -77.17711, 38.83971 ], [ -77.17811, 38.83954 ], [ -77.17839, 38.84007 ], [ -77.17886, 38.83906 ], [ -77.17702, 38.8391 ] ], [ [ -77.17447, 38.83977 ], [ -77.17599, 38.84308 ], [ -77.17569, 38.84386 ], [ -77.17486, 38.84382 ], [ -77.17503, 38.84428 ], [ -77.17611, 38.84456 ], [ -77.1763, 38.84405 ], [ -77.17564, 38.83918 ], [ -77.17483, 38.83885 ], [ -77.17447, 38.83977 ] ], [ [ -77.1765, 38.83756 ], [ -77.17762, 38.83799 ], [ -77.1769, 38.83707 ], [ -77.17435, 38.83723 ], [ -77.17461, 38.83792 ], [ -77.1765, 38.83756 ] ], [ [ -77.18036, 38.83441 ], [ -77.18049, 38.83435 ], [ -77.18, 38.83433 ], [ -77.18036, 38.83441 ] ], [ [ -77.18081, 38.83419 ], [ -77.18065, 38.8343 ], [ -77.18073, 38.83428 ], [ -77.18081, 38.83419 ] ], [ [ -77.18025, 38.83301 ], [ -77.17988, 38.83307 ], [ -77.18084, 38.83351 ], [ -77.18025, 38.83301 ] ], [ [ -77.18131, 38.84002 ], [ -77.18126, 38.84007 ], [ -77.18158, 38.83987 ], [ -77.18131, 38.84002 ] ], [ [ -77.17863, 38.83465 ], [ -77.17861, 38.83465 ], [ -77.17862, 38.83529 ], [ -77.17863, 38.83465 ] ], [ [ -77.17245, 38.84453 ], [ -77.1737, 38.84456 ], [ -77.17358, 38.84426 ], [ -77.17245, 38.84453 ] ], [ [ -77.17451, 38.84272 ], [ -77.1743, 38.84244 ], [ -77.17461, 38.84323 ], [ -77.17451, 38.84272 ] ], [ [ -77.17309, 38.8399 ], [ -77.17322, 38.83847 ], [ -77.17205, 38.83794 ], [ -77.17292, 38.84059 ], [ -77.17348, 38.84128 ], [ -77.17309, 38.8399 ] ], [ [ -77.17913, 38.84269 ], [ -77.17921, 38.84269 ], [ -77.17929, 38.84246 ], [ -77.17913, 38.84269 ] ], [ [ -77.17757, 38.84359 ], [ -77.17759, 38.84355 ], [ -77.17753, 38.84356 ], [ -77.17757, 38.84359 ] ], [ [ -77.17805, 38.84193 ], [ -77.17742, 38.84198 ], [ -77.17748, 38.84241 ], [ -77.17805, 38.84193 ] ], [ [ -77.17188, 38.84305 ], [ -77.17205, 38.84349 ], [ -77.17318, 38.84323 ], [ -77.17287, 38.84257 ], [ -77.17188, 38.84305 ] ], [ [ -77.16935, 38.84232 ], [ -77.16881, 38.8435 ], [ -77.16915, 38.84437 ], [ -77.17073, 38.84381 ], [ -77.1706, 38.84348 ], [ -77.16977, 38.84388 ], [ -77.16934, 38.84364 ], [ -77.16935, 38.84232 ] ], [ [ -77.17127, 38.83991 ], [ -77.17118, 38.84029 ], [ -77.17139, 38.8403 ], [ -77.17127, 38.83991 ] ], [ [ -77.17127, 38.84147 ], [ -77.17139, 38.8418 ], [ -77.1715, 38.84157 ], [ -77.17127, 38.84147 ] ], [ [ -77.16845, 38.84836 ], [ -77.1695, 38.84818 ], [ -77.1691, 38.84779 ], [ -77.16858, 38.84782 ], [ -77.16845, 38.84836 ] ], [ [ -77.17413, 38.8497 ], [ -77.17304, 38.85041 ], [ -77.17374, 38.85036 ], [ -77.17413, 38.8497 ] ], [ [ -77.16694, 38.84836 ], [ -77.16643, 38.84847 ], [ -77.16534, 38.8499 ], [ -77.16694, 38.84836 ] ], [ [ -77.16242, 38.8435 ], [ -77.16265, 38.8426 ], [ -77.16092, 38.84237 ], [ -77.16061, 38.84141 ], [ -77.16027, 38.84213 ], [ -77.15938, 38.84244 ], [ -77.15847, 38.84215 ], [ -77.15735, 38.84085 ], [ -77.15586, 38.84136 ], [ -77.15642, 38.84174 ], [ -77.15696, 38.8414 ], [ -77.15789, 38.84164 ], [ -77.15768, 38.84241 ], [ -77.1569, 38.84278 ], [ -77.1582, 38.84257 ], [ -77.1586, 38.84284 ], [ -77.15864, 38.84325 ], [ -77.15793, 38.84371 ], [ -77.15902, 38.84355 ], [ -77.15916, 38.84282 ], [ -77.15967, 38.84271 ], [ -77.16044, 38.84325 ], [ -77.16242, 38.8435 ] ], [ [ -77.16105, 38.83963 ], [ -77.16121, 38.83978 ], [ -77.16112, 38.83957 ], [ -77.15984, 38.83943 ], [ -77.16009, 38.84003 ], [ -77.16052, 38.83959 ], [ -77.16105, 38.83963 ] ], [ [ -77.16188, 38.83833 ], [ -77.15835, 38.83706 ], [ -77.15999, 38.83832 ], [ -77.16188, 38.83833 ] ], [ [ -77.16057, 38.83655 ], [ -77.16087, 38.83666 ], [ -77.16116, 38.83553 ], [ -77.16057, 38.83655 ] ], [ [ -77.15654, 38.83587 ], [ -77.15589, 38.83533 ], [ -77.15532, 38.83575 ], [ -77.15512, 38.83672 ], [ -77.15654, 38.83587 ] ], [ [ -77.15609, 38.83377 ], [ -77.15725, 38.83357 ], [ -77.15634, 38.83245 ], [ -77.15572, 38.83347 ], [ -77.15609, 38.83377 ] ], [ [ -77.1593, 38.83611 ], [ -77.1596, 38.83559 ], [ -77.15912, 38.8359 ], [ -77.1593, 38.83611 ] ], [ [ -77.16061, 38.83298 ], [ -77.16005, 38.83281 ], [ -77.16077, 38.83346 ], [ -77.16124, 38.83316 ], [ -77.16061, 38.83298 ] ], [ [ -77.16538, 38.83922 ], [ -77.1643, 38.84025 ], [ -77.16475, 38.84025 ], [ -77.1663, 38.83858 ], [ -77.16538, 38.83922 ] ], [ [ -77.16252, 38.83942 ], [ -77.16286, 38.84024 ], [ -77.16407, 38.83872 ], [ -77.16252, 38.83942 ] ], [ [ -77.16561, 38.84277 ], [ -77.1656, 38.84278 ], [ -77.16562, 38.84278 ], [ -77.16561, 38.84277 ] ], [ [ -77.16396, 38.84355 ], [ -77.16445, 38.84308 ], [ -77.16391, 38.84319 ], [ -77.16396, 38.84355 ] ], [ [ -77.16537, 38.84389 ], [ -77.16493, 38.84443 ], [ -77.16642, 38.84429 ], [ -77.16537, 38.84389 ] ], [ [ -77.15969, 38.83415 ], [ -77.1597, 38.83414 ], [ -77.15921, 38.8337 ], [ -77.15969, 38.83415 ] ], [ [ -77.15782, 38.83535 ], [ -77.15862, 38.83483 ], [ -77.15831, 38.83454 ], [ -77.15782, 38.83535 ] ], [ [ -77.1565, 38.83998 ], [ -77.1566, 38.83946 ], [ -77.15561, 38.83926 ], [ -77.15572, 38.83869 ], [ -77.15529, 38.83846 ], [ -77.15564, 38.84029 ], [ -77.1565, 38.83998 ] ], [ [ -77.15731, 38.83778 ], [ -77.15697, 38.83743 ], [ -77.15638, 38.8378 ], [ -77.15658, 38.83826 ], [ -77.15731, 38.83778 ] ], [ [ -77.15798, 38.8398 ], [ -77.15895, 38.84078 ], [ -77.15806, 38.83872 ], [ -77.15798, 38.8398 ] ], [ [ -77.15411, 38.83987 ], [ -77.15394, 38.83926 ], [ -77.15339, 38.83958 ], [ -77.15411, 38.83987 ] ] ] } }
]
}
