{
"type": "FeatureCollection",
"name": "50",
"crs": { "type": "name", "properties": { "name": "urn:ogc:def:crs:OGC:1.3:CRS84" } },
"xy_coordinate_resolution": 1e-05,
"features": [
{ "type": "Feature", "properties": { "variant": "T0", "miles": 1.0 }, "geometry": { "type": "Polygon", "coordinates": [ [ [ -77.29235, 38.87145 ], [ -77.29206, 38.87218 ], [ -77.2911, 38.87221 ], [ -77.29022, 38.8728 ], [ -77.28941, 38.87197 ], [ -77.28918, 38.87285 ], [ -77.28837, 38.87327 ], [ -77.28783, 38.87263 ], [ -77.28668, 38.87282 ], [ -77.28662, 38.87212 ], [ -77.28553, 38.87223 ], [ -77.28643, 38.87279 ], [ -77.28667, 38.87372 ], [ -77.28472, 38.87375 ], [ -77.28375, 38.87449 ], [ -77.28415, 38.87484 ], [ -77.29084, 38.87339 ], [ -77.29184, 38.87437 ], [ -77.29181, 38.87588 ], [ -77.29347, 38.876 ], [ -77.29359, 38.87496 ], [ -77.29215, 38.87415 ], [ -77.29331, 38.8729 ], [ -77.29382, 38.87281 ], [ -77.2956, 38.87397 ], [ -77.29567, 38.8749 ], [ -77.2964, 38.87449 ], [ -77.2969, 38.87463 ], [ -77.29716, 38.87531 ], [ -77.29779, 38.87502 ], [ -77.29826, 38.87521 ], [ -77.29868, 38.87668 ], [ -77.29609, 38.87736 ], [ -77.2976, 38.87934 ], [ -77.29731, 38.87969 ], [ -77.29628, 38.87947 ], [ -77.29617, 38.87982 ], [ -77.29529, 38.87995 ], [ -77.29579, 38.88065 ], [ -77.29547, 38.88137 ], [ -77.29319, 38.88114 ], [ -77.29378, 38.88013 ], [ -77.29321, 38.87946 ], [ -77.2926, 38.88002 ], [ -77.29107, 38.88039 ], [ -77.29026, 38.87958 ], [ -77.29007, 38.88002 ], [ -77.29062, 38.88028 ], [ -77.29071, 38.8813 ], [ -77.29025, 38.88208 ], [ -77.29196, 38.88216 ], [ -77.29219, 38.88253 ], [ -77.29176, 38.88343 ], [ -77.28854, 38.88428 ], [ -77.28757, 38.88289 ], [ -77.28873, 38.88197 ], [ -77.28455, 38.88251 ], [ -77.28395, 38.88303 ], [ -77.28324, 38.88261 ], [ -77.28095, 38.88273 ], [ -77.28117, 38.88463 ], [ -77.28231, 38.88428 ], [ -77.2828, 38.88494 ], [ -77.27927, 38.88677 ], [ -77.27871, 38.88614 ], [ -77.27986, 38.88532 ], [ -77.2797, 38.88396 ], [ -77.27831, 38.88333 ], [ -77.27852, 38.88182 ], [ -77.27819, 38.88131 ], [ -77.2756, 38.88118 ], [ -77.27455, 38.88185 ], [ -77.27403, 38.88171 ], [ -77.2719, 38.88263 ], [ -77.27139, 38.88252 ], [ -77.27116, 38.88155 ], [ -77.27179, 38.88123 ], [ -77.27101, 38.88023 ], [ -77.27009, 38.88015 ], [ -77.26994, 38.87924 ], [ -77.27074, 38.87902 ], [ -77.27073, 38.87837 ], [ -77.27131, 38.87799 ], [ -77.2725, 38.87801 ], [ -77.27291, 38.87875 ], [ -77.27382, 38.87861 ], [ -77.27426, 38.87668 ], [ -77.27404, 38.87606 ], [ -77.27351, 38.87661 ], [ -77.2725, 38.87658 ], [ -77.2723, 38.87588 ], [ -77.27271, 38.87539 ], [ -77.27234, 38.87513 ], [ -77.27232, 38.87395 ], [ -77.27326, 38.87354 ], [ -77.27473, 38.87351 ], [ -77.27572, 38.87389 ], [ -77.27601, 38.87475 ], [ -77.27731, 38.87463 ], [ -77.27754, 38.87539 ], [ -77.2782, 38.8753 ], [ -77.27642, 38.87304 ], [ -77.27548, 38.87291 ], [ -77.27536, 38.87251 ], [ -77.27626, 38.87185 ], [ -77.2738, 38.87088 ], [ -77.2741, 38.87023 ], [ -77.27474, 38.87003 ], [ -77.27462, 38.86931 ], [ -77.27381, 38.86904 ], [ -77.27357, 38.86796 ], [ -77.27254, 38.86744 ], [ -77.27275, 38.86673 ], [ -77.27343, 38.86655 ], [ -77.27427, 38.86683 ], [ -77.27549, 38.86603 ], [ -77.27863, 38.86618 ], [ -77.27977, 38.86778 ], [ -77.28114, 38.86786 ], [ -77.28176, 38.86845 ], [ -77.28151, 38.86882 ], [ -77.27942, 38.86914 ], [ -77.28004, 38.86976 ], [ -77.2799, 38.87034 ], [ -77.28043, 38.87058 ], [ -77.28114, 38.86999 ], [ -77.28181, 38.87068 ], [ -77.28256, 38.87034 ], [ -77.28461, 38.87128 ], [ -77.28682, 38.871 ], [ -77.28745, 38.86857 ], [ -77.28862, 38.8682 ], [ -77.28985, 38.8689 ], [ -77.28959, 38.8709 ], [ -77.29235, 38.87145 ] ], [ [ -77.28372, 38.87931 ], [ -77.28449, 38.87899 ], [ -77.28399, 38.87857 ], [ -77.28392, 38.87642 ], [ -77.28198, 38.87635 ], [ -77.28055, 38.87676 ], [ -77.28083, 38.88165 ], [ -77.28416, 38.88145 ], [ -77.28372, 38.87931 ] ], [ [ -77.28121, 38.87476 ], [ -77.28037, 38.87562 ], [ -77.28247, 38.87528 ], [ -77.28121, 38.87476 ] ], [ [ -77.27803, 38.87294 ], [ -77.27814, 38.8722 ], [ -77.27759, 38.87247 ], [ -77.27911, 38.87448 ], [ -77.27973, 38.8745 ], [ -77.27803, 38.87294 ] ], [ [ -77.27913, 38.87228 ], [ -77.27879, 38.87196 ], [ -77.2782, 38.87218 ], [ -77.27913, 38.87228 ] ], [ [ -77.29141, 38.87897 ], [ -77.29187, 38.87913 ], [ -77.29194, 38.87895 ], [ -77.29141, 38.87897 ] ], [ [ -77.29164, 38.87787 ], [ -77.29165, 38.87797 ], [ -77.29185, 38.87788 ], [ -77.29164, 38.87787 ] ], [ [ -77.29034, 38.87736 ], [ -77.29067, 38.8774 ], [ -77.29071, 38.87707 ], [ -77.29028, 38.87704 ], [ -77.29034, 38.87736 ] ], [ [ -77.29425, 38.8773 ], [ -77.29386, 38.87728 ], [ -77.29395, 38.87739 ], [ -77.29425, 38.8773 ] ], [ [ -77.29491, 38.87832 ], [ -77.29522, 38.87828 ], [ -77.29451, 38.87815 ], [ -77.29447, 38.87852 ], [ -77.29491, 38.87832 ] ], [ [ -77.29047, 38.87564 ], [ -77.2905, 38.87553 ], [ -77.29041, 38.87552 ], [ -77.29047, 38.87564 ] ], [ [ -77.28812, 38.88078 ], [ -77.28833, 38.88094 ], [ -77.2884, 38.88092 ], [ -77.28812, 38.88078 ] ], [ [ -77.28343, 38.87188 ], [ -77.2806, 38.87168 ], [ -77.28179, 38.87273 ], [ -77.28343, 38.87188 ] ], [ [ -77.27823, 38.87642 ], [ -77.27579, 38.87626 ], [ -77.27559, 38.87708 ], [ -77.27763, 38.87669 ], [ -77.27816, 38.87721 ], [ -77.27823, 38.87642 ] ], [ [ -77.27804, 38.87102 ], [ -77.27784, 38.87074 ], [ -77.27729, 38.87134 ], [ -77.27804, 38.87102 ] ], [ [ -77.27934, 38.87617 ], [ -77.27939, 38.87613 ], [ -77.27922, 38.87617 ], [ -77.27934, 38.87617 ] ], [ [ -77.27654, 38.86721 ], [ -77.27616, 38.86768 ], [ -77.27661, 38.86792 ], [ -77.27716, 38.86724 ], [ -77.27654, 38.86721 ] ], [ [ -77.27922, 38.88034 ], [ -77.2786, 38.87989 ], [ -77.27857, 38.87993 ], [ -77.27922, 38.88034 ] ], [ [ -77.27573, 38.87018 ], [ -77.27568, 38.87012 ], [ -77.27566, 38.87013 ], [ -77.27573, 38.87018 ] ], [ [ -77.27451, 38.87493 ], [ -77.27431, 38.875 ], [ -77.27451, 38.87502 ], [ -77.27451, 38.87493 ] ] ] } },
{ "type": "Feature", "properties": { "variant": "T0", "miles": 1.5 }, "geometry": { "type": "Polygon", "coordinates": [ [ [ -77.30121, 38.87089 ], [ -77.30129, 38.87159 ], [ -77.30349, 38.87162 ], [ -77.30495, 38.87232 ], [ -77.30452, 38.873 ], [ -77.30301, 38.87266 ], [ -77.30217, 38.8747 ], [ -77.30555, 38.8763 ], [ -77.30619, 38.87585 ], [ -77.307, 38.87628 ], [ -77.30667, 38.8773 ], [ -77.3033, 38.88023 ], [ -77.30393, 38.88031 ], [ -77.30409, 38.88106 ], [ -77.30163, 38.88129 ], [ -77.30165, 38.88176 ], [ -77.30259, 38.8819 ], [ -77.30267, 38.88266 ], [ -77.30154, 38.88332 ], [ -77.30103, 38.8832 ], [ -77.30027, 38.88195 ], [ -77.29885, 38.88287 ], [ -77.2997, 38.8844 ], [ -77.29964, 38.88485 ], [ -77.29891, 38.88517 ], [ -77.30069, 38.88637 ], [ -77.30021, 38.88704 ], [ -77.29861, 38.88656 ], [ -77.29782, 38.88695 ], [ -77.29738, 38.88672 ], [ -77.29563, 38.88467 ], [ -77.29528, 38.88325 ], [ -77.29402, 38.88323 ], [ -77.29675, 38.88682 ], [ -77.29614, 38.88762 ], [ -77.29469, 38.88804 ], [ -77.29438, 38.8877 ], [ -77.29519, 38.88681 ], [ -77.29489, 38.88643 ], [ -77.29405, 38.88691 ], [ -77.29298, 38.88646 ], [ -77.2927, 38.88557 ], [ -77.29159, 38.88595 ], [ -77.29116, 38.88571 ], [ -77.2914, 38.884 ], [ -77.28989, 38.8846 ], [ -77.29022, 38.88557 ], [ -77.28941, 38.8869 ], [ -77.28849, 38.88664 ], [ -77.28866, 38.88509 ], [ -77.2862, 38.88606 ], [ -77.2865, 38.88644 ], [ -77.28731, 38.88624 ], [ -77.28774, 38.88648 ], [ -77.28783, 38.88688 ], [ -77.28722, 38.88737 ], [ -77.28783, 38.88814 ], [ -77.28762, 38.88889 ], [ -77.28666, 38.88872 ], [ -77.28505, 38.88665 ], [ -77.2813, 38.88964 ], [ -77.28168, 38.89018 ], [ -77.28077, 38.89087 ], [ -77.28104, 38.89178 ], [ -77.28067, 38.89208 ], [ -77.27907, 38.8914 ], [ -77.27804, 38.89202 ], [ -77.27726, 38.89137 ], [ -77.27881, 38.88992 ], [ -77.27827, 38.88981 ], [ -77.27724, 38.89043 ], [ -77.2769, 38.89116 ], [ -77.27638, 38.89125 ], [ -77.27556, 38.89066 ], [ -77.27517, 38.89139 ], [ -77.27465, 38.89145 ], [ -77.27416, 38.89061 ], [ -77.27335, 38.89062 ], [ -77.27298, 38.89115 ], [ -77.27246, 38.89115 ], [ -77.27171, 38.88993 ], [ -77.27507, 38.88731 ], [ -77.27601, 38.88705 ], [ -77.27598, 38.88629 ], [ -77.2765, 38.88579 ], [ -77.27737, 38.88613 ], [ -77.27733, 38.8867 ], [ -77.27849, 38.88606 ], [ -77.27859, 38.88488 ], [ -77.27903, 38.88465 ], [ -77.27983, 38.88506 ], [ -77.2797, 38.88396 ], [ -77.27879, 38.88377 ], [ -77.27826, 38.88324 ], [ -77.27856, 38.88245 ], [ -77.27819, 38.88131 ], [ -77.27603, 38.88131 ], [ -77.27608, 38.88224 ], [ -77.27538, 38.88278 ], [ -77.27391, 38.88221 ], [ -77.27217, 38.8829 ], [ -77.27244, 38.88349 ], [ -77.27339, 38.8836 ], [ -77.27341, 38.88578 ], [ -77.27244, 38.88572 ], [ -77.27164, 38.88492 ], [ -77.27067, 38.88265 ], [ -77.26876, 38.88335 ], [ -77.26996, 38.88626 ], [ -77.26952, 38.88694 ], [ -77.26886, 38.88694 ], [ -77.26825, 38.88601 ], [ -77.26675, 38.88506 ], [ -77.26535, 38.88569 ], [ -77.26441, 38.88547 ], [ -77.26436, 38.88506 ], [ -77.26532, 38.88446 ], [ -77.26478, 38.88413 ], [ -77.26488, 38.88343 ], [ -77.26346, 38.88325 ], [ -77.26351, 38.88248 ], [ -77.26673, 38.88242 ], [ -77.26625, 38.88105 ], [ -77.26555, 38.88107 ], [ -77.26525, 38.88034 ], [ -77.2669, 38.87934 ], [ -77.26804, 38.87971 ], [ -77.26819, 38.8807 ], [ -77.26856, 38.87898 ], [ -77.26945, 38.87826 ], [ -77.27209, 38.8779 ], [ -77.27291, 38.87875 ], [ -77.27382, 38.87861 ], [ -77.27422, 38.87696 ], [ -77.27404, 38.87606 ], [ -77.27294, 38.87727 ], [ -77.26906, 38.8781 ], [ -77.2659, 38.8766 ], [ -77.2648, 38.87563 ], [ -77.26422, 38.87595 ], [ -77.26345, 38.87548 ], [ -77.26381, 38.87487 ], [ -77.26493, 38.87442 ], [ -77.26675, 38.87574 ], [ -77.26752, 38.87571 ], [ -77.2663, 38.87492 ], [ -77.26624, 38.87387 ], [ -77.26726, 38.87357 ], [ -77.26666, 38.87225 ], [ -77.2659, 38.87206 ], [ -77.26562, 38.87126 ], [ -77.26853, 38.8702 ], [ -77.26886, 38.86941 ], [ -77.27176, 38.86742 ], [ -77.27047, 38.86687 ], [ -77.26976, 38.86609 ], [ -77.2697, 38.86681 ], [ -77.26814, 38.86685 ], [ -77.26728, 38.86627 ], [ -77.26708, 38.86561 ], [ -77.26529, 38.86564 ], [ -77.26458, 38.86511 ], [ -77.26526, 38.86456 ], [ -77.26933, 38.86435 ], [ -77.26919, 38.8621 ], [ -77.26976, 38.86079 ], [ -77.27032, 38.86076 ], [ -77.27074, 38.86166 ], [ -77.27186, 38.86203 ], [ -77.2758, 38.86275 ], [ -77.27631, 38.86201 ], [ -77.27625, 38.86121 ], [ -77.27843, 38.86085 ], [ -77.27925, 38.86142 ], [ -77.27919, 38.86183 ], [ -77.27819, 38.86202 ], [ -77.27676, 38.86384 ], [ -77.28455, 38.86311 ], [ -77.28644, 38.86553 ], [ -77.2875, 38.86504 ], [ -77.28811, 38.86563 ], [ -77.28685, 38.86693 ], [ -77.28567, 38.86681 ], [ -77.28575, 38.86716 ], [ -77.28687, 38.86712 ], [ -77.28804, 38.86818 ], [ -77.28887, 38.86831 ], [ -77.29165, 38.86801 ], [ -77.29202, 38.86857 ], [ -77.29153, 38.87055 ], [ -77.29188, 38.87057 ], [ -77.29246, 38.86928 ], [ -77.29328, 38.86957 ], [ -77.29322, 38.86867 ], [ -77.29398, 38.86818 ], [ -77.29538, 38.8682 ], [ -77.29638, 38.86898 ], [ -77.29672, 38.86813 ], [ -77.29586, 38.86788 ], [ -77.29573, 38.86748 ], [ -77.2965, 38.86702 ], [ -77.29917, 38.86755 ], [ -77.29935, 38.8683 ], [ -77.29808, 38.86832 ], [ -77.29833, 38.86917 ], [ -77.29971, 38.86898 ], [ -77.30053, 38.8694 ], [ -77.3, 38.87004 ], [ -77.2987, 38.87027 ], [ -77.29728, 38.86988 ], [ -77.2959, 38.87076 ], [ -77.29239, 38.87175 ], [ -77.29206, 38.87218 ], [ -77.2911, 38.87221 ], [ -77.29074, 38.87273 ], [ -77.28979, 38.87256 ], [ -77.28975, 38.87199 ], [ -77.28941, 38.87197 ], [ -77.28889, 38.87319 ], [ -77.28793, 38.87304 ], [ -77.28783, 38.87263 ], [ -77.28668, 38.87282 ], [ -77.28662, 38.87212 ], [ -77.28553, 38.87223 ], [ -77.28643, 38.87279 ], [ -77.28667, 38.87372 ], [ -77.28472, 38.87375 ], [ -77.28375, 38.87449 ], [ -77.28415, 38.87484 ], [ -77.28563, 38.87429 ], [ -77.28741, 38.87429 ], [ -77.28773, 38.87385 ], [ -77.2887, 38.87404 ], [ -77.28993, 38.8737 ], [ -77.29144, 38.87248 ], [ -77.29197, 38.87249 ], [ -77.29248, 38.87313 ], [ -77.29313, 38.87297 ], [ -77.29391, 38.872 ], [ -77.29518, 38.87138 ], [ -77.29759, 38.87143 ], [ -77.29846, 38.87078 ], [ -77.30031, 38.87061 ], [ -77.30121, 38.87089 ] ], [ [ -77.28387, 38.88583 ], [ -77.28257, 38.88646 ], [ -77.2828, 38.88673 ], [ -77.28387, 38.88583 ] ], [ [ -77.28408, 38.88006 ], [ -77.28365, 38.87972 ], [ -77.28372, 38.87931 ], [ -77.28449, 38.87899 ], [ -77.28399, 38.87857 ], [ -77.28392, 38.87642 ], [ -77.28198, 38.87635 ], [ -77.28068, 38.87669 ], [ -77.2803, 38.8771 ], [ -77.28083, 38.88165 ], [ -77.28416, 38.88145 ], [ -77.28408, 38.88006 ] ], [ [ -77.28121, 38.87476 ], [ -77.28037, 38.87562 ], [ -77.28247, 38.87528 ], [ -77.28121, 38.87476 ] ], [ [ -77.27803, 38.87294 ], [ -77.27814, 38.8722 ], [ -77.27759, 38.87247 ], [ -77.27903, 38.87439 ], [ -77.27962, 38.87461 ], [ -77.27803, 38.87294 ] ], [ [ -77.27913, 38.87228 ], [ -77.27879, 38.87196 ], [ -77.2782, 38.87218 ], [ -77.27913, 38.87228 ] ], [ [ -77.2801, 38.86711 ], [ -77.28043, 38.86781 ], [ -77.2807, 38.8646 ], [ -77.27866, 38.86484 ], [ -77.27855, 38.86618 ], [ -77.27909, 38.86638 ], [ -77.27918, 38.86695 ], [ -77.2801, 38.86711 ] ], [ [ -77.29359, 38.8814 ], [ -77.29319, 38.88114 ], [ -77.29378, 38.88013 ], [ -77.29321, 38.87946 ], [ -77.29231, 38.88013 ], [ -77.29275, 38.8811 ], [ -77.29222, 38.88203 ], [ -77.2952, 38.88205 ], [ -77.29452, 38.88109 ], [ -77.29359, 38.8814 ] ], [ [ -77.2906, 38.87991 ], [ -77.29026, 38.87958 ], [ -77.29007, 38.88002 ], [ -77.29065, 38.88071 ], [ -77.2906, 38.87991 ] ], [ [ -77.29071, 38.87707 ], [ -77.29028, 38.87704 ], [ -77.29034, 38.87736 ], [ -77.29071, 38.87707 ] ], [ [ -77.29041, 38.87552 ], [ -77.29038, 38.87564 ], [ -77.29047, 38.87564 ], [ -77.29041, 38.87552 ] ], [ [ -77.30093, 38.87906 ], [ -77.30139, 38.87926 ], [ -77.3013, 38.88001 ], [ -77.30256, 38.87916 ], [ -77.2999, 38.87833 ], [ -77.29987, 38.8775 ], [ -77.29763, 38.87736 ], [ -77.29817, 38.87801 ], [ -77.2991, 38.8777 ], [ -77.29955, 38.87792 ], [ -77.30001, 38.87878 ], [ -77.29953, 38.87956 ], [ -77.29983, 38.8799 ], [ -77.30093, 38.87906 ] ], [ [ -77.29581, 38.87458 ], [ -77.29567, 38.8749 ], [ -77.29586, 38.87484 ], [ -77.29581, 38.87458 ] ], [ [ -77.29575, 38.87402 ], [ -77.29563, 38.87403 ], [ -77.29579, 38.8743 ], [ -77.29575, 38.87402 ] ], [ [ -77.29925, 38.87402 ], [ -77.29876, 38.87421 ], [ -77.29923, 38.87494 ], [ -77.29995, 38.8747 ], [ -77.29925, 38.87402 ] ], [ [ -77.29543, 38.88013 ], [ -77.29568, 38.88002 ], [ -77.29529, 38.87995 ], [ -77.29543, 38.88013 ] ], [ [ -77.29628, 38.87947 ], [ -77.29602, 38.87989 ], [ -77.29649, 38.8797 ], [ -77.29628, 38.87947 ] ], [ [ -77.29447, 38.87852 ], [ -77.29522, 38.87828 ], [ -77.29508, 38.87811 ], [ -77.29451, 38.87816 ], [ -77.29447, 38.87852 ] ], [ [ -77.29611, 38.8811 ], [ -77.2974, 38.8807 ], [ -77.29729, 38.88059 ], [ -77.29611, 38.8811 ] ], [ [ -77.29281, 38.87463 ], [ -77.29194, 38.87485 ], [ -77.29181, 38.87588 ], [ -77.29347, 38.876 ], [ -77.29366, 38.87521 ], [ -77.29281, 38.87463 ] ], [ [ -77.29425, 38.8773 ], [ -77.29386, 38.87728 ], [ -77.29395, 38.87739 ], [ -77.29425, 38.8773 ] ], [ [ -77.29164, 38.87787 ], [ -77.29165, 38.87797 ], [ -77.29185, 38.87788 ], [ -77.29164, 38.87787 ] ], [ [ -77.29194, 38.87895 ], [ -77.29155, 38.87878 ], [ -77.29141, 38.87897 ], [ -77.29194, 38.87895 ] ], [ [ -77.29461, 38.86988 ], [ -77.29456, 38.87001 ], [ -77.29473, 38.86996 ], [ -77.29461, 38.86988 ] ], [ [ -77.29333, 38.87036 ], [ -77.29357, 38.8703 ], [ -77.29338, 38.87019 ], [ -77.29333, 38.87036 ] ], [ [ -77.2868, 38.88388 ], [ -77.28676, 38.88398 ], [ -77.28701, 38.88393 ], [ -77.2868, 38.88388 ] ], [ [ -77.28732, 38.88222 ], [ -77.28717, 38.88222 ], [ -77.2872, 38.88226 ], [ -77.28732, 38.88222 ] ], [ [ -77.29063, 38.88165 ], [ -77.29025, 38.88208 ], [ -77.29077, 38.88206 ], [ -77.29063, 38.88165 ] ], [ [ -77.29291, 38.88424 ], [ -77.29349, 38.88462 ], [ -77.29262, 38.88351 ], [ -77.29169, 38.88388 ], [ -77.29291, 38.88424 ] ], [ [ -77.28821, 38.88212 ], [ -77.28878, 38.88211 ], [ -77.28873, 38.88197 ], [ -77.28821, 38.88212 ] ], [ [ -77.28833, 38.88064 ], [ -77.28812, 38.88078 ], [ -77.2884, 38.88092 ], [ -77.28833, 38.88064 ] ], [ [ -77.28187, 38.86722 ], [ -77.28183, 38.86772 ], [ -77.28327, 38.86782 ], [ -77.2833, 38.86742 ], [ -77.28187, 38.86722 ] ], [ [ -77.28297, 38.86488 ], [ -77.2828, 38.86443 ], [ -77.28216, 38.86451 ], [ -77.28205, 38.8661 ], [ -77.28249, 38.86615 ], [ -77.28297, 38.86488 ] ], [ [ -77.28737, 38.86884 ], [ -77.28557, 38.86926 ], [ -77.2855, 38.87003 ], [ -77.28471, 38.87056 ], [ -77.28386, 38.87036 ], [ -77.28418, 38.86934 ], [ -77.28315, 38.86927 ], [ -77.28361, 38.86994 ], [ -77.2827, 38.87039 ], [ -77.28461, 38.87128 ], [ -77.28682, 38.871 ], [ -77.28737, 38.86884 ] ], [ [ -77.28101, 38.8717 ], [ -77.2806, 38.87168 ], [ -77.28179, 38.87273 ], [ -77.28342, 38.87188 ], [ -77.28101, 38.8717 ] ], [ [ -77.28496, 38.88475 ], [ -77.28511, 38.8847 ], [ -77.28482, 38.88435 ], [ -77.28496, 38.88475 ] ], [ [ -77.2817, 38.87031 ], [ -77.28181, 38.87068 ], [ -77.28244, 38.87037 ], [ -77.2817, 38.87031 ] ], [ [ -77.28043, 38.87058 ], [ -77.2806, 38.87023 ], [ -77.28006, 38.8702 ], [ -77.28043, 38.87058 ] ], [ [ -77.27451, 38.87493 ], [ -77.27431, 38.875 ], [ -77.27451, 38.87502 ], [ -77.27451, 38.87493 ] ], [ [ -77.27601, 38.87475 ], [ -77.27731, 38.87463 ], [ -77.27754, 38.87539 ], [ -77.2782, 38.8753 ], [ -77.27642, 38.87304 ], [ -77.27548, 38.87291 ], [ -77.27536, 38.87251 ], [ -77.27626, 38.87185 ], [ -77.27489, 38.87136 ], [ -77.27324, 38.87197 ], [ -77.27343, 38.87275 ], [ -77.27473, 38.873 ], [ -77.27601, 38.87475 ] ], [ [ -77.27409, 38.87024 ], [ -77.27339, 38.86789 ], [ -77.27238, 38.86861 ], [ -77.27342, 38.86958 ], [ -77.27343, 38.86997 ], [ -77.27258, 38.87048 ], [ -77.27409, 38.87024 ] ], [ [ -77.27368, 38.8658 ], [ -77.27397, 38.86539 ], [ -77.27121, 38.86553 ], [ -77.27217, 38.86593 ], [ -77.27368, 38.8658 ] ], [ [ -77.27353, 38.86422 ], [ -77.27308, 38.86338 ], [ -77.2708, 38.86281 ], [ -77.27097, 38.86432 ], [ -77.27353, 38.86422 ] ], [ [ -77.28041, 38.88794 ], [ -77.27937, 38.88945 ], [ -77.28046, 38.88859 ], [ -77.28041, 38.88794 ] ], [ [ -77.27963, 38.88748 ], [ -77.27962, 38.88749 ], [ -77.27964, 38.88749 ], [ -77.27963, 38.88748 ] ], [ [ -77.27986, 38.88532 ], [ -77.27984, 38.8851 ], [ -77.27977, 38.88537 ], [ -77.27986, 38.88532 ] ], [ [ -77.27816, 38.87721 ], [ -77.27823, 38.87642 ], [ -77.27579, 38.87626 ], [ -77.27559, 38.87708 ], [ -77.27763, 38.87669 ], [ -77.27816, 38.87721 ] ], [ [ -77.27654, 38.86721 ], [ -77.27616, 38.86768 ], [ -77.27661, 38.86792 ], [ -77.27716, 38.86724 ], [ -77.27654, 38.86721 ] ], [ [ -77.27564, 38.86555 ], [ -77.27524, 38.86607 ], [ -77.27604, 38.86607 ], [ -77.2761, 38.86538 ], [ -77.27564, 38.86555 ] ], [ [ -77.27922, 38.88034 ], [ -77.2786, 38.87989 ], [ -77.27884, 38.88016 ], [ -77.27922, 38.88034 ] ], [ [ -77.27934, 38.87617 ], [ -77.27939, 38.87613 ], [ -77.27922, 38.87617 ], [ -77.27934, 38.87617 ] ], [ [ -77.28153, 38.88404 ], [ -77.28105, 38.88367 ], [ -77.28117, 38.88463 ], [ -77.28153, 38.88404 ] ], [ [ -77.28156, 38.88295 ], [ -77.28182, 38.88298 ], [ -77.28189, 38.8827 ], [ -77.28095, 38.88273 ], [ -77.281, 38.88331 ], [ -77.28156, 38.88295 ] ], [ [ -77.28178, 38.88299 ], [ -77.28179, 38.883 ], [ -77.28179, 38.88299 ], [ -77.28178, 38.88299 ] ], [ [ -77.28103, 38.8873 ], [ -77.28105, 38.88737 ], [ -77.28113, 38.88731 ], [ -77.28103, 38.8873 ] ], [ [ -77.27732, 38.87132 ], [ -77.27729, 38.87134 ], [ -77.27804, 38.87102 ], [ -77.27784, 38.87074 ], [ -77.27732, 38.87132 ] ], [ [ -77.27815, 38.88851 ], [ -77.27893, 38.88785 ], [ -77.27802, 38.88763 ], [ -77.27769, 38.88781 ], [ -77.27815, 38.88851 ] ], [ [ -77.27238, 38.87568 ], [ -77.27088, 38.87589 ], [ -77.27074, 38.87635 ], [ -77.27209, 38.87626 ], [ -77.27238, 38.87568 ] ], [ [ -77.27185, 38.87166 ], [ -77.27154, 38.8712 ], [ -77.27109, 38.87138 ], [ -77.27188, 38.87218 ], [ -77.27185, 38.87166 ] ], [ [ -77.27076, 38.8748 ], [ -77.27089, 38.87479 ], [ -77.27094, 38.87467 ], [ -77.27076, 38.8748 ] ], [ [ -77.27011, 38.88035 ], [ -77.26985, 38.88061 ], [ -77.27099, 38.88052 ], [ -77.27011, 38.88035 ] ], [ [ -77.26618, 38.88386 ], [ -77.26608, 38.88411 ], [ -77.26609, 38.88411 ], [ -77.26618, 38.88386 ] ] ] } },
{ "type": "Feature", "properties": { "variant": "T0", "miles": 2.0 }, "geometry": { "type": "Polygon", "coordinates": [ [ [ -77.30328, 38.86826 ], [ -77.30368, 38.86905 ], [ -77.30327, 38.86932 ], [ -77.29856, 38.87029 ], [ -77.29728, 38.86988 ], [ -77.2959, 38.87076 ], [ -77.29239, 38.87176 ], [ -77.29206, 38.87218 ], [ -77.2911, 38.87221 ], [ -77.29074, 38.87273 ], [ -77.28979, 38.87256 ], [ -77.28975, 38.87199 ], [ -77.28941, 38.87197 ], [ -77.28889, 38.87319 ], [ -77.28793, 38.87304 ], [ -77.28783, 38.87263 ], [ -77.28668, 38.87282 ], [ -77.28662, 38.87212 ], [ -77.28553, 38.87223 ], [ -77.28643, 38.87279 ], [ -77.28667, 38.87372 ], [ -77.28472, 38.87375 ], [ -77.28375, 38.87449 ], [ -77.28415, 38.87484 ], [ -77.28563, 38.87429 ], [ -77.28741, 38.87429 ], [ -77.28773, 38.87385 ], [ -77.2887, 38.87404 ], [ -77.28993, 38.8737 ], [ -77.29144, 38.87248 ], [ -77.29197, 38.87249 ], [ -77.29248, 38.87313 ], [ -77.29313, 38.87297 ], [ -77.29487, 38.87147 ], [ -77.29759, 38.87143 ], [ -77.29824, 38.87085 ], [ -77.30095, 38.87022 ], [ -77.30245, 38.8707 ], [ -77.30279, 38.87019 ], [ -77.30495, 38.87005 ], [ -77.30531, 38.87047 ], [ -77.3064, 38.87053 ], [ -77.30803, 38.87122 ], [ -77.3078, 38.86962 ], [ -77.30842, 38.86903 ], [ -77.30918, 38.86952 ], [ -77.3096, 38.87104 ], [ -77.31069, 38.87078 ], [ -77.31107, 38.87107 ], [ -77.30898, 38.87477 ], [ -77.30981, 38.87583 ], [ -77.31396, 38.87337 ], [ -77.31493, 38.87343 ], [ -77.31497, 38.8743 ], [ -77.31235, 38.87597 ], [ -77.31354, 38.87892 ], [ -77.31418, 38.87895 ], [ -77.31443, 38.87969 ], [ -77.30705, 38.88085 ], [ -77.30854, 38.88268 ], [ -77.30732, 38.88452 ], [ -77.3068, 38.88459 ], [ -77.30546, 38.88355 ], [ -77.30457, 38.88352 ], [ -77.30506, 38.88436 ], [ -77.30377, 38.88624 ], [ -77.30462, 38.88706 ], [ -77.3032, 38.88764 ], [ -77.3047, 38.88947 ], [ -77.3045, 38.89022 ], [ -77.30354, 38.89007 ], [ -77.30248, 38.88876 ], [ -77.30106, 38.88972 ], [ -77.30009, 38.8897 ], [ -77.30011, 38.88893 ], [ -77.30175, 38.88784 ], [ -77.30146, 38.88736 ], [ -77.30104, 38.88694 ], [ -77.29946, 38.88806 ], [ -77.29848, 38.88804 ], [ -77.29866, 38.88716 ], [ -77.29738, 38.88672 ], [ -77.29589, 38.88504 ], [ -77.29528, 38.88325 ], [ -77.29402, 38.88323 ], [ -77.29839, 38.88884 ], [ -77.2992, 38.88849 ], [ -77.29964, 38.88872 ], [ -77.29968, 38.88928 ], [ -77.29901, 38.89002 ], [ -77.30072, 38.89065 ], [ -77.30093, 38.89173 ], [ -77.29997, 38.89236 ], [ -77.29948, 38.89222 ], [ -77.29961, 38.89131 ], [ -77.29927, 38.89109 ], [ -77.29907, 38.89188 ], [ -77.2981, 38.89181 ], [ -77.29757, 38.88986 ], [ -77.29591, 38.88774 ], [ -77.29591, 38.88911 ], [ -77.29708, 38.88943 ], [ -77.29743, 38.89056 ], [ -77.29654, 38.89087 ], [ -77.29606, 38.89019 ], [ -77.29483, 38.88985 ], [ -77.29433, 38.88766 ], [ -77.29519, 38.88681 ], [ -77.29489, 38.88643 ], [ -77.29457, 38.88684 ], [ -77.29364, 38.8869 ], [ -77.29403, 38.88892 ], [ -77.29373, 38.88926 ], [ -77.29142, 38.88909 ], [ -77.28972, 38.88717 ], [ -77.29169, 38.88971 ], [ -77.29338, 38.89031 ], [ -77.29395, 38.88992 ], [ -77.29445, 38.89005 ], [ -77.29466, 38.89072 ], [ -77.2955, 38.89116 ], [ -77.29497, 38.89181 ], [ -77.29342, 38.89183 ], [ -77.29147, 38.89281 ], [ -77.29279, 38.89246 ], [ -77.29322, 38.8927 ], [ -77.29331, 38.89311 ], [ -77.29226, 38.89381 ], [ -77.29274, 38.89469 ], [ -77.29245, 38.89503 ], [ -77.29193, 38.89511 ], [ -77.29108, 38.89438 ], [ -77.28934, 38.89528 ], [ -77.2827, 38.88852 ], [ -77.28242, 38.88874 ], [ -77.28889, 38.89582 ], [ -77.28862, 38.89618 ], [ -77.28765, 38.89607 ], [ -77.28144, 38.88953 ], [ -77.28168, 38.89018 ], [ -77.28078, 38.8909 ], [ -77.28154, 38.89048 ], [ -77.28242, 38.89082 ], [ -77.28226, 38.8914 ], [ -77.28131, 38.89197 ], [ -77.28313, 38.89154 ], [ -77.28322, 38.89246 ], [ -77.28515, 38.89346 ], [ -77.28691, 38.89539 ], [ -77.28701, 38.8958 ], [ -77.2862, 38.89622 ], [ -77.28495, 38.89514 ], [ -77.28404, 38.89542 ], [ -77.2856, 38.89727 ], [ -77.28568, 38.89828 ], [ -77.28525, 38.89852 ], [ -77.28472, 38.89845 ], [ -77.28291, 38.89604 ], [ -77.28058, 38.89638 ], [ -77.28004, 38.89615 ], [ -77.27721, 38.8929 ], [ -77.27661, 38.89356 ], [ -77.27831, 38.89602 ], [ -77.27663, 38.89709 ], [ -77.27613, 38.89721 ], [ -77.27505, 38.89656 ], [ -77.27363, 38.89779 ], [ -77.27216, 38.89681 ], [ -77.27098, 38.89752 ], [ -77.27028, 38.89699 ], [ -77.27063, 38.89649 ], [ -77.26785, 38.89505 ], [ -77.26754, 38.89611 ], [ -77.26669, 38.8965 ], [ -77.2662, 38.89584 ], [ -77.26677, 38.89371 ], [ -77.26527, 38.89363 ], [ -77.26424, 38.89407 ], [ -77.26377, 38.89387 ], [ -77.26389, 38.89311 ], [ -77.265, 38.89243 ], [ -77.26277, 38.89016 ], [ -77.26112, 38.89095 ], [ -77.25864, 38.88848 ], [ -77.25771, 38.88878 ], [ -77.25682, 38.88848 ], [ -77.25683, 38.88806 ], [ -77.25755, 38.88767 ], [ -77.25649, 38.88733 ], [ -77.25612, 38.88663 ], [ -77.2573, 38.88643 ], [ -77.25839, 38.88536 ], [ -77.25674, 38.88431 ], [ -77.25606, 38.8834 ], [ -77.25625, 38.88301 ], [ -77.25755, 38.8826 ], [ -77.25583, 38.88128 ], [ -77.25601, 38.88038 ], [ -77.25721, 38.88023 ], [ -77.25936, 38.88077 ], [ -77.26055, 38.88009 ], [ -77.2611, 38.88079 ], [ -77.26065, 38.88123 ], [ -77.26144, 38.88159 ], [ -77.26119, 38.88213 ], [ -77.26177, 38.88223 ], [ -77.26212, 38.88169 ], [ -77.26265, 38.88167 ], [ -77.26315, 38.88219 ], [ -77.26673, 38.88242 ], [ -77.26625, 38.88105 ], [ -77.26521, 38.88075 ], [ -77.26525, 38.88034 ], [ -77.2664, 38.87988 ], [ -77.26657, 38.8794 ], [ -77.26607, 38.87796 ], [ -77.26362, 38.87798 ], [ -77.263, 38.87837 ], [ -77.26114, 38.87791 ], [ -77.25997, 38.87627 ], [ -77.26037, 38.87497 ], [ -77.26141, 38.87496 ], [ -77.25942, 38.87302 ], [ -77.25771, 38.87306 ], [ -77.25703, 38.87254 ], [ -77.25722, 38.87194 ], [ -77.25842, 38.87103 ], [ -77.26005, 38.87106 ], [ -77.26052, 38.87181 ], [ -77.2623, 38.87179 ], [ -77.26274, 38.86998 ], [ -77.26225, 38.86877 ], [ -77.25979, 38.86874 ], [ -77.25956, 38.86813 ], [ -77.25794, 38.86738 ], [ -77.25801, 38.86593 ], [ -77.2566, 38.86595 ], [ -77.25589, 38.86543 ], [ -77.25608, 38.86504 ], [ -77.25778, 38.86472 ], [ -77.25755, 38.86416 ], [ -77.25689, 38.864 ], [ -77.25688, 38.86324 ], [ -77.25892, 38.86337 ], [ -77.25937, 38.86265 ], [ -77.26027, 38.86301 ], [ -77.26094, 38.86434 ], [ -77.26933, 38.86435 ], [ -77.26919, 38.8621 ], [ -77.26982, 38.86031 ], [ -77.26878, 38.85922 ], [ -77.26898, 38.85807 ], [ -77.2701, 38.85736 ], [ -77.27013, 38.8544 ], [ -77.2719, 38.85482 ], [ -77.27137, 38.86036 ], [ -77.27367, 38.85997 ], [ -77.27733, 38.861 ], [ -77.28618, 38.8577 ], [ -77.28676, 38.85845 ], [ -77.28455, 38.85963 ], [ -77.28563, 38.86188 ], [ -77.28749, 38.86175 ], [ -77.28817, 38.86253 ], [ -77.29361, 38.8613 ], [ -77.2946, 38.86276 ], [ -77.29572, 38.86355 ], [ -77.29738, 38.86328 ], [ -77.29813, 38.86262 ], [ -77.30084, 38.86279 ], [ -77.3014, 38.8631 ], [ -77.30151, 38.86378 ], [ -77.30264, 38.86344 ], [ -77.30322, 38.86389 ], [ -77.30467, 38.86415 ], [ -77.30483, 38.86454 ], [ -77.30414, 38.8652 ], [ -77.30328, 38.86826 ] ], [ [ -77.2796, 38.89152 ], [ -77.27907, 38.8914 ], [ -77.27894, 38.89151 ], [ -77.27988, 38.89247 ], [ -77.2796, 38.89152 ] ], [ [ -77.28022, 38.88794 ], [ -77.27937, 38.88945 ], [ -77.28045, 38.88859 ], [ -77.28022, 38.88794 ] ], [ [ -77.27962, 38.88749 ], [ -77.27964, 38.88749 ], [ -77.27963, 38.88748 ], [ -77.27962, 38.88749 ] ], [ [ -77.27903, 38.88465 ], [ -77.27983, 38.88506 ], [ -77.2797, 38.88396 ], [ -77.27878, 38.88377 ], [ -77.27839, 38.88544 ], [ -77.27903, 38.88465 ] ], [ [ -77.27819, 38.88131 ], [ -77.27737, 38.88111 ], [ -77.27603, 38.88131 ], [ -77.27587, 38.88262 ], [ -77.27487, 38.88278 ], [ -77.27391, 38.88221 ], [ -77.27217, 38.8829 ], [ -77.27244, 38.88349 ], [ -77.27339, 38.8836 ], [ -77.27336, 38.88483 ], [ -77.27506, 38.88602 ], [ -77.27443, 38.8866 ], [ -77.27368, 38.88652 ], [ -77.27407, 38.88715 ], [ -77.27491, 38.88743 ], [ -77.27601, 38.88705 ], [ -77.27611, 38.88605 ], [ -77.2754, 38.8851 ], [ -77.27592, 38.88444 ], [ -77.2746, 38.88435 ], [ -77.27433, 38.88361 ], [ -77.27668, 38.88218 ], [ -77.27855, 38.88242 ], [ -77.27819, 38.88131 ] ], [ [ -77.27922, 38.88034 ], [ -77.2786, 38.87989 ], [ -77.27857, 38.87993 ], [ -77.27922, 38.88034 ] ], [ [ -77.27823, 38.87642 ], [ -77.27579, 38.87626 ], [ -77.27559, 38.87708 ], [ -77.27763, 38.87669 ], [ -77.27816, 38.87721 ], [ -77.27823, 38.87642 ] ], [ [ -77.27939, 38.87613 ], [ -77.27922, 38.87617 ], [ -77.27934, 38.87617 ], [ -77.27939, 38.87613 ] ], [ [ -77.27803, 38.87294 ], [ -77.27814, 38.8722 ], [ -77.27759, 38.87247 ], [ -77.27911, 38.87448 ], [ -77.27973, 38.8745 ], [ -77.27803, 38.87294 ] ], [ [ -77.27913, 38.87228 ], [ -77.27879, 38.87196 ], [ -77.2782, 38.87218 ], [ -77.27913, 38.87228 ] ], [ [ -77.27945, 38.86355 ], [ -77.27949, 38.86324 ], [ -77.27777, 38.86243 ], [ -77.27676, 38.86384 ], [ -77.27945, 38.86355 ] ], [ [ -77.2919, 38.86784 ], [ -77.29302, 38.86845 ], [ -77.29504, 38.86812 ], [ -77.29633, 38.86891 ], [ -77.29663, 38.86812 ], [ -77.29413, 38.86761 ], [ -77.2931, 38.86832 ], [ -77.29245, 38.86755 ], [ -77.29089, 38.86739 ], [ -77.2905, 38.86705 ], [ -77.29008, 38.86718 ], [ -77.28944, 38.86678 ], [ -77.28847, 38.8672 ], [ -77.288, 38.86701 ], [ -77.28795, 38.86614 ], [ -77.28956, 38.86569 ], [ -77.28924, 38.86463 ], [ -77.28987, 38.86345 ], [ -77.28914, 38.86358 ], [ -77.28834, 38.86457 ], [ -77.28788, 38.86619 ], [ -77.28685, 38.86693 ], [ -77.28567, 38.86681 ], [ -77.28575, 38.86716 ], [ -77.28687, 38.86712 ], [ -77.28804, 38.86818 ], [ -77.28887, 38.86831 ], [ -77.2919, 38.86784 ] ], [ [ -77.30092, 38.86742 ], [ -77.30082, 38.86741 ], [ -77.30087, 38.86746 ], [ -77.30092, 38.86742 ] ], [ [ -77.2946, 38.86991 ], [ -77.29465, 38.8699 ], [ -77.29461, 38.86988 ], [ -77.2946, 38.86991 ] ], [ [ -77.29581, 38.86531 ], [ -77.29566, 38.86562 ], [ -77.29595, 38.86548 ], [ -77.29581, 38.86531 ] ], [ [ -77.29563, 38.86692 ], [ -77.29581, 38.86694 ], [ -77.29583, 38.86682 ], [ -77.29563, 38.86692 ] ], [ [ -77.29295, 38.86287 ], [ -77.29157, 38.86313 ], [ -77.29062, 38.8647 ], [ -77.2909, 38.8654 ], [ -77.29413, 38.86399 ], [ -77.29295, 38.86287 ] ], [ [ -77.29336, 38.87027 ], [ -77.29347, 38.87024 ], [ -77.29338, 38.87019 ], [ -77.29336, 38.87027 ] ], [ [ -77.29329, 38.86953 ], [ -77.29324, 38.86953 ], [ -77.29328, 38.86957 ], [ -77.29329, 38.86953 ] ], [ [ -77.29568, 38.88002 ], [ -77.29529, 38.87995 ], [ -77.29543, 38.88013 ], [ -77.29568, 38.88002 ] ], [ [ -77.29628, 38.87947 ], [ -77.29602, 38.87989 ], [ -77.29644, 38.87972 ], [ -77.29628, 38.87947 ] ], [ [ -77.29447, 38.87852 ], [ -77.29522, 38.87828 ], [ -77.29508, 38.87811 ], [ -77.29447, 38.87852 ] ], [ [ -77.29348, 38.87483 ], [ -77.29194, 38.87485 ], [ -77.29181, 38.87588 ], [ -77.29348, 38.87593 ], [ -77.29348, 38.87483 ] ], [ [ -77.29041, 38.87552 ], [ -77.29038, 38.87564 ], [ -77.29047, 38.87564 ], [ -77.29041, 38.87552 ] ], [ [ -77.30178, 38.88121 ], [ -77.30165, 38.88176 ], [ -77.30231, 38.88181 ], [ -77.303, 38.8814 ], [ -77.30178, 38.88121 ] ], [ [ -77.29885, 38.88287 ], [ -77.29963, 38.88479 ], [ -77.30048, 38.8844 ], [ -77.30027, 38.88195 ], [ -77.29885, 38.88287 ] ], [ [ -77.30007, 38.87942 ], [ -77.29999, 38.87903 ], [ -77.29953, 38.87956 ], [ -77.29983, 38.8799 ], [ -77.30007, 38.87942 ] ], [ [ -77.29987, 38.8775 ], [ -77.29763, 38.87736 ], [ -77.29817, 38.87801 ], [ -77.2991, 38.8777 ], [ -77.29955, 38.87792 ], [ -77.30007, 38.87877 ], [ -77.29987, 38.8775 ] ], [ [ -77.29925, 38.87402 ], [ -77.29876, 38.87421 ], [ -77.29923, 38.87494 ], [ -77.30003, 38.87444 ], [ -77.29925, 38.87402 ] ], [ [ -77.30775, 38.87966 ], [ -77.30756, 38.87868 ], [ -77.30691, 38.87848 ], [ -77.30683, 38.878 ], [ -77.30593, 38.878 ], [ -77.3033, 38.88023 ], [ -77.30775, 38.87966 ] ], [ [ -77.30649, 38.87524 ], [ -77.30464, 38.87452 ], [ -77.30425, 38.87389 ], [ -77.30444, 38.87313 ], [ -77.30302, 38.87265 ], [ -77.30217, 38.8747 ], [ -77.30555, 38.8763 ], [ -77.30649, 38.87524 ] ], [ [ -77.30781, 38.87586 ], [ -77.30715, 38.87659 ], [ -77.30809, 38.87634 ], [ -77.30781, 38.87586 ] ], [ [ -77.30722, 38.87232 ], [ -77.30631, 38.8723 ], [ -77.30563, 38.87376 ], [ -77.30722, 38.87432 ], [ -77.30788, 38.8718 ], [ -77.30722, 38.87232 ] ], [ [ -77.31137, 38.87911 ], [ -77.31095, 38.87894 ], [ -77.31107, 38.87924 ], [ -77.31216, 38.87915 ], [ -77.31137, 38.87911 ] ], [ [ -77.31058, 38.87872 ], [ -77.31088, 38.87885 ], [ -77.31075, 38.8785 ], [ -77.31058, 38.87872 ] ], [ [ -77.30661, 38.88291 ], [ -77.30698, 38.88273 ], [ -77.30666, 38.88235 ], [ -77.30661, 38.88291 ] ], [ [ -77.30508, 38.88219 ], [ -77.30506, 38.8822 ], [ -77.30509, 38.8822 ], [ -77.30508, 38.88219 ] ], [ [ -77.30141, 38.87993 ], [ -77.30256, 38.87916 ], [ -77.30184, 38.87901 ], [ -77.30141, 38.87993 ] ], [ [ -77.29956, 38.88492 ], [ -77.29891, 38.88517 ], [ -77.29988, 38.88563 ], [ -77.29956, 38.88492 ] ], [ [ -77.30182, 38.88401 ], [ -77.30186, 38.8843 ], [ -77.30267, 38.88432 ], [ -77.3029, 38.8847 ], [ -77.30275, 38.88519 ], [ -77.30199, 38.88554 ], [ -77.30216, 38.88596 ], [ -77.30289, 38.88534 ], [ -77.30382, 38.88369 ], [ -77.30182, 38.88401 ] ], [ [ -77.29574, 38.87482 ], [ -77.29567, 38.8749 ], [ -77.29586, 38.87484 ], [ -77.29582, 38.87459 ], [ -77.29574, 38.87482 ] ], [ [ -77.29563, 38.87403 ], [ -77.29579, 38.8743 ], [ -77.29575, 38.87402 ], [ -77.29563, 38.87403 ] ], [ [ -77.29611, 38.8811 ], [ -77.2974, 38.8807 ], [ -77.29729, 38.88059 ], [ -77.29611, 38.8811 ] ], [ [ -77.29029, 38.89337 ], [ -77.28937, 38.89375 ], [ -77.28958, 38.89397 ], [ -77.29029, 38.89337 ] ], [ [ -77.28947, 38.8923 ], [ -77.28847, 38.89281 ], [ -77.28865, 38.893 ], [ -77.28947, 38.8923 ] ], [ [ -77.28843, 38.89144 ], [ -77.28752, 38.89179 ], [ -77.28773, 38.89201 ], [ -77.28843, 38.89144 ] ], [ [ -77.28671, 38.89074 ], [ -77.28656, 38.89079 ], [ -77.28682, 38.89106 ], [ -77.28762, 38.89056 ], [ -77.28671, 38.89074 ] ], [ [ -77.28841, 38.88753 ], [ -77.28866, 38.88509 ], [ -77.2862, 38.88606 ], [ -77.2865, 38.88644 ], [ -77.28731, 38.88624 ], [ -77.28774, 38.88648 ], [ -77.28783, 38.88688 ], [ -77.28722, 38.88737 ], [ -77.28841, 38.88753 ] ], [ [ -77.2868, 38.88388 ], [ -77.28676, 38.88398 ], [ -77.28701, 38.88393 ], [ -77.2868, 38.88388 ] ], [ [ -77.28732, 38.88222 ], [ -77.28717, 38.88222 ], [ -77.2872, 38.88226 ], [ -77.28732, 38.88222 ] ], [ [ -77.29244, 38.888 ], [ -77.29232, 38.88748 ], [ -77.29084, 38.88652 ], [ -77.29244, 38.888 ] ], [ [ -77.29024, 38.88541 ], [ -77.29043, 38.88539 ], [ -77.29028, 38.88532 ], [ -77.29024, 38.88541 ] ], [ [ -77.29063, 38.88165 ], [ -77.29025, 38.88208 ], [ -77.29077, 38.88206 ], [ -77.29063, 38.88165 ] ], [ [ -77.2906, 38.87991 ], [ -77.29026, 38.87958 ], [ -77.29007, 38.88002 ], [ -77.29065, 38.88071 ], [ -77.2906, 38.87991 ] ], [ [ -77.29165, 38.87797 ], [ -77.29185, 38.87788 ], [ -77.29183, 38.87785 ], [ -77.29165, 38.87797 ] ], [ [ -77.29034, 38.87736 ], [ -77.29067, 38.8774 ], [ -77.29071, 38.87707 ], [ -77.29034, 38.87736 ] ], [ [ -77.29314, 38.88073 ], [ -77.29378, 38.88013 ], [ -77.29321, 38.87946 ], [ -77.29231, 38.88013 ], [ -77.29275, 38.8811 ], [ -77.29222, 38.88203 ], [ -77.2952, 38.88205 ], [ -77.2945, 38.88106 ], [ -77.29359, 38.8814 ], [ -77.29314, 38.88073 ] ], [ [ -77.29386, 38.87728 ], [ -77.29406, 38.87752 ], [ -77.29425, 38.8773 ], [ -77.29386, 38.87728 ] ], [ [ -77.29155, 38.87878 ], [ -77.29141, 38.87897 ], [ -77.2916, 38.87915 ], [ -77.29155, 38.87878 ] ], [ [ -77.29349, 38.88462 ], [ -77.29262, 38.88351 ], [ -77.29169, 38.88388 ], [ -77.29349, 38.88462 ] ], [ [ -77.29119, 38.88412 ], [ -77.2914, 38.884 ], [ -77.29073, 38.88427 ], [ -77.29113, 38.88446 ], [ -77.29119, 38.88412 ] ], [ [ -77.29255, 38.88567 ], [ -77.29257, 38.88613 ], [ -77.29302, 38.8858 ], [ -77.29255, 38.88567 ] ], [ [ -77.29142, 38.89078 ], [ -77.28981, 38.88938 ], [ -77.28912, 38.88979 ], [ -77.29001, 38.89094 ], [ -77.29098, 38.89077 ], [ -77.29136, 38.89105 ], [ -77.29076, 38.89188 ], [ -77.29164, 38.89146 ], [ -77.29142, 38.89078 ] ], [ [ -77.28833, 38.88064 ], [ -77.28812, 38.88078 ], [ -77.2884, 38.88092 ], [ -77.28833, 38.88064 ] ], [ [ -77.28878, 38.88211 ], [ -77.28873, 38.88197 ], [ -77.28821, 38.88212 ], [ -77.28878, 38.88211 ] ], [ [ -77.28888, 38.88872 ], [ -77.28933, 38.88877 ], [ -77.2889, 38.88821 ], [ -77.28819, 38.88862 ], [ -77.28888, 38.88872 ] ], [ [ -77.28187, 38.86722 ], [ -77.28183, 38.86772 ], [ -77.28327, 38.86782 ], [ -77.2833, 38.86742 ], [ -77.28187, 38.86722 ] ], [ [ -77.28297, 38.86488 ], [ -77.2828, 38.86443 ], [ -77.28216, 38.86451 ], [ -77.28205, 38.8661 ], [ -77.28249, 38.86615 ], [ -77.28297, 38.86488 ] ], [ [ -77.28339, 38.86308 ], [ -77.28283, 38.86229 ], [ -77.28208, 38.862 ], [ -77.28095, 38.86278 ], [ -77.28091, 38.86329 ], [ -77.28339, 38.86308 ] ], [ [ -77.28674, 38.86547 ], [ -77.28719, 38.86395 ], [ -77.28561, 38.86412 ], [ -77.28674, 38.86547 ] ], [ [ -77.28462, 38.86263 ], [ -77.28435, 38.86232 ], [ -77.28434, 38.86298 ], [ -77.28497, 38.86284 ], [ -77.28462, 38.86263 ] ], [ [ -77.28737, 38.86884 ], [ -77.28557, 38.86926 ], [ -77.2855, 38.87003 ], [ -77.28471, 38.87056 ], [ -77.28386, 38.87036 ], [ -77.28418, 38.86934 ], [ -77.28315, 38.86927 ], [ -77.28361, 38.86994 ], [ -77.2827, 38.87039 ], [ -77.28461, 38.87128 ], [ -77.28682, 38.871 ], [ -77.28737, 38.86884 ] ], [ [ -77.28257, 38.88646 ], [ -77.2828, 38.88673 ], [ -77.2839, 38.88588 ], [ -77.28257, 38.88646 ] ], [ [ -77.28372, 38.87931 ], [ -77.28449, 38.87899 ], [ -77.28399, 38.87857 ], [ -77.28392, 38.87642 ], [ -77.28198, 38.87635 ], [ -77.2806, 38.87672 ], [ -77.2803, 38.8771 ], [ -77.28083, 38.88165 ], [ -77.28416, 38.88145 ], [ -77.28372, 38.87931 ] ], [ [ -77.28101, 38.8717 ], [ -77.2806, 38.87168 ], [ -77.28179, 38.87273 ], [ -77.28342, 38.87188 ], [ -77.28101, 38.8717 ] ], [ [ -77.28496, 38.88475 ], [ -77.28511, 38.8847 ], [ -77.28482, 38.88435 ], [ -77.28496, 38.88475 ] ], [ [ -77.28522, 38.88936 ], [ -77.28545, 38.88909 ], [ -77.28469, 38.88797 ], [ -77.28499, 38.88763 ], [ -77.28592, 38.88778 ], [ -77.28505, 38.88665 ], [ -77.28367, 38.88773 ], [ -77.28522, 38.88936 ] ], [ [ -77.2818, 38.89298 ], [ -77.28321, 38.89454 ], [ -77.28418, 38.89424 ], [ -77.2818, 38.89298 ] ], [ [ -77.28019, 38.86175 ], [ -77.27996, 38.86107 ], [ -77.27977, 38.86154 ], [ -77.28019, 38.86175 ] ], [ [ -77.28121, 38.87476 ], [ -77.28037, 38.87562 ], [ -77.28247, 38.87528 ], [ -77.28121, 38.87476 ] ], [ [ -77.27978, 38.86471 ], [ -77.27932, 38.86695 ], [ -77.2801, 38.86711 ], [ -77.28043, 38.86781 ], [ -77.2807, 38.8647 ], [ -77.27978, 38.86471 ] ], [ [ -77.28244, 38.87037 ], [ -77.2817, 38.87031 ], [ -77.28181, 38.87068 ], [ -77.28244, 38.87037 ] ], [ [ -77.2806, 38.87023 ], [ -77.28006, 38.8702 ], [ -77.2799, 38.87034 ], [ -77.28043, 38.87058 ], [ -77.2806, 38.87023 ] ], [ [ -77.27984, 38.8851 ], [ -77.27977, 38.88537 ], [ -77.27986, 38.88532 ], [ -77.27984, 38.8851 ] ], [ [ -77.28156, 38.88295 ], [ -77.28182, 38.88298 ], [ -77.28189, 38.8827 ], [ -77.28095, 38.88273 ], [ -77.281, 38.88331 ], [ -77.28156, 38.88295 ] ], [ [ -77.28153, 38.88404 ], [ -77.28105, 38.88367 ], [ -77.28117, 38.88463 ], [ -77.28153, 38.88404 ] ], [ [ -77.28178, 38.88299 ], [ -77.28179, 38.883 ], [ -77.28179, 38.88299 ], [ -77.28178, 38.88299 ] ], [ [ -77.28113, 38.88731 ], [ -77.28103, 38.8873 ], [ -77.28105, 38.88737 ], [ -77.28113, 38.88731 ] ], [ [ -77.2728, 38.89468 ], [ -77.27302, 38.89452 ], [ -77.27268, 38.89442 ], [ -77.2728, 38.89468 ] ], [ [ -77.27239, 38.89133 ], [ -77.27233, 38.89135 ], [ -77.27297, 38.89214 ], [ -77.27239, 38.89133 ] ], [ [ -77.27398, 38.88834 ], [ -77.27294, 38.88782 ], [ -77.27197, 38.88541 ], [ -77.27113, 38.88624 ], [ -77.2718, 38.8866 ], [ -77.27274, 38.88914 ], [ -77.27398, 38.88834 ] ], [ [ -77.27243, 38.87798 ], [ -77.27291, 38.87875 ], [ -77.27382, 38.87861 ], [ -77.27431, 38.87609 ], [ -77.27294, 38.87727 ], [ -77.27078, 38.87791 ], [ -77.26906, 38.8781 ], [ -77.26738, 38.87731 ], [ -77.26853, 38.87997 ], [ -77.26845, 38.87922 ], [ -77.26914, 38.87837 ], [ -77.27243, 38.87798 ] ], [ [ -77.27238, 38.87568 ], [ -77.27088, 38.87589 ], [ -77.27074, 38.87635 ], [ -77.27209, 38.87626 ], [ -77.27238, 38.87568 ] ], [ [ -77.27076, 38.8748 ], [ -77.27089, 38.87479 ], [ -77.27094, 38.87467 ], [ -77.27076, 38.8748 ] ], [ [ -77.26865, 38.86983 ], [ -77.26839, 38.87028 ], [ -77.26868, 38.87009 ], [ -77.26865, 38.86983 ] ], [ [ -77.26792, 38.8677 ], [ -77.26733, 38.86815 ], [ -77.26689, 38.86804 ], [ -77.26685, 38.869 ], [ -77.26631, 38.86948 ], [ -77.26789, 38.8693 ], [ -77.26874, 38.86956 ], [ -77.26792, 38.8677 ] ], [ [ -77.27176, 38.86742 ], [ -77.27047, 38.86687 ], [ -77.26976, 38.86609 ], [ -77.2697, 38.86681 ], [ -77.26926, 38.86701 ], [ -77.26936, 38.8682 ], [ -77.26995, 38.86862 ], [ -77.27176, 38.86742 ] ], [ [ -77.27881, 38.88992 ], [ -77.27827, 38.88981 ], [ -77.27724, 38.89043 ], [ -77.2769, 38.89116 ], [ -77.27627, 38.8912 ], [ -77.27552, 38.89226 ], [ -77.27487, 38.8924 ], [ -77.27485, 38.89306 ], [ -77.27881, 38.88992 ] ], [ [ -77.27815, 38.88851 ], [ -77.27893, 38.88785 ], [ -77.27802, 38.88763 ], [ -77.27769, 38.88781 ], [ -77.27815, 38.88851 ] ], [ [ -77.27601, 38.87475 ], [ -77.27731, 38.87463 ], [ -77.27754, 38.87539 ], [ -77.2782, 38.8753 ], [ -77.27642, 38.87304 ], [ -77.27548, 38.87291 ], [ -77.27536, 38.87251 ], [ -77.27626, 38.87185 ], [ -77.27489, 38.87136 ], [ -77.2742, 38.8716 ], [ -77.27451, 38.87241 ], [ -77.27349, 38.87275 ], [ -77.27478, 38.87303 ], [ -77.27601, 38.87475 ] ], [ [ -77.27409, 38.87024 ], [ -77.27339, 38.86789 ], [ -77.27238, 38.86861 ], [ -77.27389, 38.87045 ], [ -77.27409, 38.87024 ] ], [ [ -77.27254, 38.8655 ], [ -77.27126, 38.86553 ], [ -77.27161, 38.86594 ], [ -77.27233, 38.86598 ], [ -77.27368, 38.8658 ], [ -77.27395, 38.8654 ], [ -77.27254, 38.8655 ] ], [ [ -77.27086, 38.86284 ], [ -77.27103, 38.86432 ], [ -77.27353, 38.86422 ], [ -77.27308, 38.86338 ], [ -77.27086, 38.86284 ] ], [ [ -77.27631, 38.86201 ], [ -77.27493, 38.8614 ], [ -77.27382, 38.86116 ], [ -77.27103, 38.86144 ], [ -77.27095, 38.8617 ], [ -77.27215, 38.86211 ], [ -77.27589, 38.86262 ], [ -77.27631, 38.86201 ] ], [ [ -77.27616, 38.86768 ], [ -77.27661, 38.86792 ], [ -77.27716, 38.86724 ], [ -77.27654, 38.86721 ], [ -77.27616, 38.86768 ] ], [ [ -77.27562, 38.86557 ], [ -77.27524, 38.86607 ], [ -77.27604, 38.86607 ], [ -77.27611, 38.86529 ], [ -77.27562, 38.86557 ] ], [ [ -77.27804, 38.87102 ], [ -77.27784, 38.87074 ], [ -77.27773, 38.87075 ], [ -77.27732, 38.87132 ], [ -77.27804, 38.87102 ] ], [ [ -77.27431, 38.875 ], [ -77.27451, 38.87502 ], [ -77.27451, 38.87493 ], [ -77.27431, 38.875 ] ], [ [ -77.27417, 38.89196 ], [ -77.27412, 38.89188 ], [ -77.27409, 38.89192 ], [ -77.27417, 38.89196 ] ], [ [ -77.2751, 38.89488 ], [ -77.27551, 38.89423 ], [ -77.27494, 38.89468 ], [ -77.2751, 38.89488 ] ], [ [ -77.27596, 38.89574 ], [ -77.27622, 38.89595 ], [ -77.27623, 38.89594 ], [ -77.27596, 38.89574 ] ], [ [ -77.27348, 38.89065 ], [ -77.27355, 38.89074 ], [ -77.27356, 38.89067 ], [ -77.27348, 38.89065 ] ], [ [ -77.27407, 38.88653 ], [ -77.27412, 38.88653 ], [ -77.27396, 38.8865 ], [ -77.27407, 38.88653 ] ], [ [ -77.27439, 38.89324 ], [ -77.27437, 38.89342 ], [ -77.27451, 38.89332 ], [ -77.27474, 38.89314 ], [ -77.27439, 38.89324 ] ], [ [ -77.27351, 38.89636 ], [ -77.27414, 38.89571 ], [ -77.27394, 38.89547 ], [ -77.27313, 38.89604 ], [ -77.27351, 38.89636 ] ], [ [ -77.26659, 38.87527 ], [ -77.26546, 38.87389 ], [ -77.26472, 38.87397 ], [ -77.26667, 38.8757 ], [ -77.26752, 38.87565 ], [ -77.26659, 38.87527 ] ], [ [ -77.26696, 38.87273 ], [ -77.26683, 38.87274 ], [ -77.26666, 38.87334 ], [ -77.26701, 38.8736 ], [ -77.26696, 38.87273 ] ], [ [ -77.26376, 38.86806 ], [ -77.26401, 38.86736 ], [ -77.26358, 38.86584 ], [ -77.26267, 38.86567 ], [ -77.2641, 38.86973 ], [ -77.26368, 38.87153 ], [ -77.26483, 38.87126 ], [ -77.26503, 38.87083 ], [ -77.26455, 38.86962 ], [ -77.26494, 38.86905 ], [ -77.26376, 38.86806 ] ], [ [ -77.26786, 38.8668 ], [ -77.26781, 38.86674 ], [ -77.26788, 38.86707 ], [ -77.26786, 38.8668 ] ], [ [ -77.26715, 38.88993 ], [ -77.26747, 38.8897 ], [ -77.26693, 38.88957 ], [ -77.26715, 38.88993 ] ], [ [ -77.26729, 38.88814 ], [ -77.26752, 38.88814 ], [ -77.26747, 38.88802 ], [ -77.26729, 38.88814 ] ], [ [ -77.26825, 38.88601 ], [ -77.26797, 38.88602 ], [ -77.2681, 38.88622 ], [ -77.26825, 38.88601 ] ], [ [ -77.27094, 38.89392 ], [ -77.26941, 38.89286 ], [ -77.26935, 38.89228 ], [ -77.26849, 38.89275 ], [ -77.26813, 38.89388 ], [ -77.2702, 38.89505 ], [ -77.27094, 38.89392 ] ], [ [ -77.27131, 38.8923 ], [ -77.27073, 38.89156 ], [ -77.26996, 38.89196 ], [ -77.27078, 38.89242 ], [ -77.27131, 38.8923 ] ], [ [ -77.26875, 38.88717 ], [ -77.26947, 38.89027 ], [ -77.26996, 38.88998 ], [ -77.26875, 38.88717 ] ], [ [ -77.26995, 38.88565 ], [ -77.26964, 38.88553 ], [ -77.26976, 38.8858 ], [ -77.26995, 38.88565 ] ], [ [ -77.27011, 38.88035 ], [ -77.26985, 38.88061 ], [ -77.27099, 38.88052 ], [ -77.27011, 38.88035 ] ], [ [ -77.26819, 38.8807 ], [ -77.26831, 38.8804 ], [ -77.26816, 38.88046 ], [ -77.26819, 38.8807 ] ], [ [ -77.26247, 38.88897 ], [ -77.26261, 38.88888 ], [ -77.26255, 38.88888 ], [ -77.26247, 38.88897 ] ], [ [ -77.26389, 38.8881 ], [ -77.26375, 38.88831 ], [ -77.26398, 38.88822 ], [ -77.26389, 38.8881 ] ], [ [ -77.26388, 38.88464 ], [ -77.26348, 38.88367 ], [ -77.26215, 38.88348 ], [ -77.26373, 38.88513 ], [ -77.26472, 38.88472 ], [ -77.26388, 38.88464 ] ], [ [ -77.26238, 38.87592 ], [ -77.26291, 38.87577 ], [ -77.26248, 38.87585 ], [ -77.26238, 38.87592 ] ], [ [ -77.26286, 38.87468 ], [ -77.26327, 38.87541 ], [ -77.26354, 38.87513 ], [ -77.26286, 38.87468 ] ], [ [ -77.26416, 38.87265 ], [ -77.26428, 38.87292 ], [ -77.2654, 38.8728 ], [ -77.26542, 38.87238 ], [ -77.26416, 38.87265 ] ], [ [ -77.2661, 38.88592 ], [ -77.26596, 38.88579 ], [ -77.26595, 38.88592 ], [ -77.2661, 38.88592 ] ], [ [ -77.26618, 38.88386 ], [ -77.26608, 38.88411 ], [ -77.26633, 38.88399 ], [ -77.26618, 38.88386 ] ], [ [ -77.26505, 38.88436 ], [ -77.26487, 38.88466 ], [ -77.26532, 38.88446 ], [ -77.26505, 38.88436 ] ], [ [ -77.26515, 38.8868 ], [ -77.26449, 38.88653 ], [ -77.26468, 38.88694 ], [ -77.26489, 38.88729 ], [ -77.26515, 38.8868 ] ], [ [ -77.26446, 38.88608 ], [ -77.26449, 38.88604 ], [ -77.26432, 38.88611 ], [ -77.26445, 38.88644 ], [ -77.26446, 38.88608 ] ], [ [ -77.26528, 38.88781 ], [ -77.26553, 38.88773 ], [ -77.2651, 38.88758 ], [ -77.26528, 38.88781 ] ], [ [ -77.26549, 38.8911 ], [ -77.26541, 38.89108 ], [ -77.26545, 38.89112 ], [ -77.26549, 38.8911 ] ], [ [ -77.26568, 38.89002 ], [ -77.26563, 38.88994 ], [ -77.26551, 38.88999 ], [ -77.26568, 38.89002 ] ], [ [ -77.26129, 38.86587 ], [ -77.26107, 38.86588 ], [ -77.26107, 38.86598 ], [ -77.26129, 38.86587 ] ], [ [ -77.2598, 38.867 ], [ -77.25969, 38.8659 ], [ -77.2594, 38.86591 ], [ -77.25932, 38.86698 ], [ -77.2598, 38.867 ] ], [ [ -77.25875, 38.88336 ], [ -77.25862, 38.88328 ], [ -77.25812, 38.88379 ], [ -77.25844, 38.8839 ], [ -77.25875, 38.88336 ] ], [ [ -77.25816, 38.88159 ], [ -77.2584, 38.88174 ], [ -77.25846, 38.88167 ], [ -77.25816, 38.88159 ] ], [ [ -77.26246, 38.8856 ], [ -77.26207, 38.8852 ], [ -77.26229, 38.8855 ], [ -77.26246, 38.8856 ] ], [ [ -77.26088, 38.88617 ], [ -77.26115, 38.88606 ], [ -77.26097, 38.88599 ], [ -77.26088, 38.88617 ] ], [ [ -77.26201, 38.88513 ], [ -77.26124, 38.88433 ], [ -77.26096, 38.88461 ], [ -77.26201, 38.88513 ] ], [ [ -77.25936, 38.88443 ], [ -77.25918, 38.88447 ], [ -77.25927, 38.88452 ], [ -77.25936, 38.88443 ] ], [ [ -77.26033, 38.88566 ], [ -77.26055, 38.88574 ], [ -77.26009, 38.88545 ], [ -77.26033, 38.88566 ] ], [ [ -77.26162, 38.88505 ], [ -77.26163, 38.88504 ], [ -77.26162, 38.88504 ], [ -77.26162, 38.88505 ] ], [ [ -77.26198, 38.88802 ], [ -77.26156, 38.88806 ], [ -77.2617, 38.8882 ], [ -77.26198, 38.88802 ] ], [ [ -77.26092, 38.88742 ], [ -77.26111, 38.88761 ], [ -77.26108, 38.88739 ], [ -77.26092, 38.88742 ] ], [ [ -77.2613, 38.88956 ], [ -77.26136, 38.88964 ], [ -77.26137, 38.88963 ], [ -77.2613, 38.88956 ] ] ] } },
{ "type": "Feature", "properties": { "variant": "T2s", "miles": 1.0 }, "geometry": { "type": "MultiPolygon", "coordinates": [ [ [ [ -77.28852, 38.8767 ], [ -77.29012, 38.87683 ], [ -77.29067, 38.8774 ], [ -77.29112, 38.87675 ], [ -77.29221, 38.87665 ], [ -77.29328, 38.87686 ], [ -77.29406, 38.87752 ], [ -77.29541, 38.87685 ], [ -77.29594, 38.87749 ], [ -77.29451, 38.87815 ], [ -77.29447, 38.87852 ], [ -77.29503, 38.87845 ], [ -77.29553, 38.87911 ], [ -77.29424, 38.87985 ], [ -77.29321, 38.87946 ], [ -77.2926, 38.88002 ], [ -77.29107, 38.88039 ], [ -77.29026, 38.87958 ], [ -77.29007, 38.88002 ], [ -77.29062, 38.88028 ], [ -77.29071, 38.8813 ], [ -77.29025, 38.88208 ], [ -77.29127, 38.88258 ], [ -77.29061, 38.88315 ], [ -77.28837, 38.88304 ], [ -77.28816, 38.88266 ], [ -77.28873, 38.88197 ], [ -77.28455, 38.88251 ], [ -77.28395, 38.88303 ], [ -77.28324, 38.88261 ], [ -77.28095, 38.88273 ], [ -77.28117, 38.88463 ], [ -77.28231, 38.88428 ], [ -77.2828, 38.88494 ], [ -77.27927, 38.88677 ], [ -77.27871, 38.88614 ], [ -77.27986, 38.88532 ], [ -77.2797, 38.88396 ], [ -77.27831, 38.88333 ], [ -77.27852, 38.88182 ], [ -77.27819, 38.88131 ], [ -77.2756, 38.88118 ], [ -77.27455, 38.88185 ], [ -77.27403, 38.88171 ], [ -77.2719, 38.88263 ], [ -77.27113, 38.88216 ], [ -77.27116, 38.88155 ], [ -77.27179, 38.88123 ], [ -77.27146, 38.88053 ], [ -77.27009, 38.88015 ], [ -77.26978, 38.87963 ], [ -77.26994, 38.87924 ], [ -77.27074, 38.87902 ], [ -77.27118, 38.87802 ], [ -77.27243, 38.87798 ], [ -77.27291, 38.87875 ], [ -77.27382, 38.87861 ], [ -77.27431, 38.87609 ], [ -77.27345, 38.87663 ], [ -77.2725, 38.87658 ], [ -77.2723, 38.87588 ], [ -77.27271, 38.87539 ], [ -77.27234, 38.87513 ], [ -77.27229, 38.874 ], [ -77.27265, 38.87369 ], [ -77.27473, 38.87351 ], [ -77.27572, 38.87389 ], [ -77.27601, 38.87475 ], [ -77.27731, 38.87463 ], [ -77.27754, 38.87539 ], [ -77.2782, 38.8753 ], [ -77.27642, 38.87304 ], [ -77.27548, 38.87291 ], [ -77.27536, 38.87251 ], [ -77.27626, 38.87185 ], [ -77.2738, 38.87088 ], [ -77.27458, 38.87003 ], [ -77.27573, 38.87018 ], [ -77.27577, 38.86966 ], [ -77.27674, 38.86897 ], [ -77.27792, 38.86944 ], [ -77.27845, 38.87036 ], [ -77.27661, 38.87179 ], [ -77.27724, 38.87199 ], [ -77.27911, 38.87448 ], [ -77.27973, 38.8745 ], [ -77.27789, 38.87254 ], [ -77.27867, 38.87208 ], [ -77.28056, 38.87364 ], [ -77.2816, 38.87346 ], [ -77.2826, 38.87433 ], [ -77.2822, 38.87503 ], [ -77.28121, 38.87476 ], [ -77.28037, 38.87562 ], [ -77.28384, 38.87521 ], [ -77.28432, 38.87564 ], [ -77.28417, 38.87634 ], [ -77.28188, 38.87636 ], [ -77.28032, 38.87696 ], [ -77.28083, 38.88165 ], [ -77.28416, 38.88145 ], [ -77.28372, 38.87931 ], [ -77.28449, 38.87899 ], [ -77.28399, 38.87857 ], [ -77.28408, 38.8774 ], [ -77.28513, 38.87622 ], [ -77.28765, 38.87599 ], [ -77.28852, 38.8767 ] ], [ [ -77.2884, 38.88092 ], [ -77.28812, 38.88078 ], [ -77.28833, 38.88094 ], [ -77.2884, 38.88092 ] ], [ [ -77.29155, 38.87878 ], [ -77.2916, 38.87915 ], [ -77.29194, 38.87895 ], [ -77.29155, 38.87878 ] ], [ [ -77.29183, 38.87785 ], [ -77.29165, 38.87797 ], [ -77.29185, 38.87788 ], [ -77.29183, 38.87785 ] ], [ [ -77.27559, 38.87708 ], [ -77.27763, 38.87669 ], [ -77.27816, 38.87721 ], [ -77.27823, 38.87642 ], [ -77.27579, 38.87626 ], [ -77.27559, 38.87708 ] ], [ [ -77.27939, 38.87613 ], [ -77.27922, 38.87617 ], [ -77.27934, 38.87617 ], [ -77.27939, 38.87613 ] ], [ [ -77.27451, 38.87502 ], [ -77.27451, 38.87493 ], [ -77.27431, 38.875 ], [ -77.27451, 38.87502 ] ], [ [ -77.27857, 38.87993 ], [ -77.2789, 38.88032 ], [ -77.27922, 38.88034 ], [ -77.27884, 38.88016 ], [ -77.27857, 38.87993 ] ] ], [ [ [ -77.29601, 38.87719 ], [ -77.29571, 38.87634 ], [ -77.29665, 38.87613 ], [ -77.29695, 38.87698 ], [ -77.29601, 38.87719 ] ] ] ] } },
{ "type": "Feature", "properties": { "variant": "T2s", "miles": 1.5 }, "geometry": { "type": "Polygon", "coordinates": [ [ [ -77.29988, 38.87119 ], [ -77.30066, 38.8724 ], [ -77.30142, 38.8719 ], [ -77.30238, 38.87206 ], [ -77.30237, 38.87284 ], [ -77.30159, 38.87364 ], [ -77.30217, 38.8747 ], [ -77.30536, 38.87657 ], [ -77.30448, 38.87754 ], [ -77.30396, 38.87745 ], [ -77.30376, 38.87683 ], [ -77.30236, 38.87642 ], [ -77.30213, 38.87697 ], [ -77.30344, 38.87711 ], [ -77.30367, 38.87749 ], [ -77.30319, 38.87814 ], [ -77.30361, 38.87867 ], [ -77.30294, 38.87922 ], [ -77.30132, 38.87886 ], [ -77.30042, 38.87755 ], [ -77.29763, 38.87736 ], [ -77.29817, 38.87801 ], [ -77.2991, 38.8777 ], [ -77.29955, 38.87792 ], [ -77.30002, 38.87889 ], [ -77.29953, 38.87956 ], [ -77.30039, 38.88051 ], [ -77.30188, 38.87986 ], [ -77.30247, 38.88047 ], [ -77.3022, 38.88083 ], [ -77.30055, 38.88169 ], [ -77.29844, 38.88146 ], [ -77.29563, 38.88234 ], [ -77.2945, 38.88106 ], [ -77.29359, 38.8814 ], [ -77.29319, 38.88114 ], [ -77.29378, 38.88013 ], [ -77.29321, 38.87946 ], [ -77.29231, 38.88013 ], [ -77.29274, 38.88124 ], [ -77.29176, 38.88343 ], [ -77.28744, 38.88455 ], [ -77.28633, 38.88552 ], [ -77.28492, 38.88606 ], [ -77.28387, 38.88583 ], [ -77.28257, 38.88646 ], [ -77.28297, 38.8872 ], [ -77.2824, 38.88784 ], [ -77.28096, 38.88876 ], [ -77.28047, 38.88861 ], [ -77.28022, 38.88794 ], [ -77.27913, 38.88986 ], [ -77.27827, 38.88981 ], [ -77.27724, 38.89043 ], [ -77.2769, 38.89116 ], [ -77.27638, 38.89125 ], [ -77.27556, 38.89066 ], [ -77.27517, 38.89139 ], [ -77.27465, 38.89145 ], [ -77.27416, 38.89061 ], [ -77.27335, 38.89062 ], [ -77.27298, 38.89115 ], [ -77.27246, 38.89115 ], [ -77.27171, 38.88993 ], [ -77.27507, 38.88731 ], [ -77.27601, 38.88705 ], [ -77.27598, 38.88629 ], [ -77.2765, 38.88579 ], [ -77.27737, 38.88613 ], [ -77.27733, 38.8867 ], [ -77.27849, 38.88606 ], [ -77.27859, 38.88488 ], [ -77.27903, 38.88465 ], [ -77.27983, 38.88506 ], [ -77.2797, 38.88396 ], [ -77.27879, 38.88377 ], [ -77.27826, 38.88324 ], [ -77.27856, 38.88245 ], [ -77.27819, 38.88131 ], [ -77.27603, 38.88131 ], [ -77.27608, 38.88224 ], [ -77.27538, 38.88278 ], [ -77.27391, 38.88221 ], [ -77.27217, 38.8829 ], [ -77.27244, 38.88349 ], [ -77.27339, 38.8836 ], [ -77.27352, 38.884 ], [ -77.27365, 38.88541 ], [ -77.27291, 38.88591 ], [ -77.27159, 38.88484 ], [ -77.27078, 38.88267 ], [ -77.26943, 38.88291 ], [ -77.26876, 38.88335 ], [ -77.26996, 38.88626 ], [ -77.26938, 38.88697 ], [ -77.26886, 38.88694 ], [ -77.26825, 38.88601 ], [ -77.26675, 38.88506 ], [ -77.26574, 38.88534 ], [ -77.26532, 38.88509 ], [ -77.26546, 38.88446 ], [ -77.2648, 38.88416 ], [ -77.26488, 38.88343 ], [ -77.26346, 38.88325 ], [ -77.26351, 38.88248 ], [ -77.26401, 38.88235 ], [ -77.26691, 38.88244 ], [ -77.2668, 38.88048 ], [ -77.26742, 38.88012 ], [ -77.26824, 38.88067 ], [ -77.26867, 38.87978 ], [ -77.26845, 38.87922 ], [ -77.26918, 38.87835 ], [ -77.27209, 38.8779 ], [ -77.27291, 38.87875 ], [ -77.27382, 38.87861 ], [ -77.27431, 38.87609 ], [ -77.2728, 38.87732 ], [ -77.26919, 38.87811 ], [ -77.2659, 38.8766 ], [ -77.26386, 38.87504 ], [ -77.26507, 38.87443 ], [ -77.26675, 38.87574 ], [ -77.26752, 38.87571 ], [ -77.2663, 38.87492 ], [ -77.26624, 38.87387 ], [ -77.26726, 38.87357 ], [ -77.26667, 38.87208 ], [ -77.26603, 38.87208 ], [ -77.26572, 38.87135 ], [ -77.26864, 38.87026 ], [ -77.27176, 38.86742 ], [ -77.27047, 38.86687 ], [ -77.26976, 38.86609 ], [ -77.26933, 38.86488 ], [ -77.26974, 38.86424 ], [ -77.27084, 38.86448 ], [ -77.27161, 38.86594 ], [ -77.27298, 38.86581 ], [ -77.27351, 38.86608 ], [ -77.27397, 38.86538 ], [ -77.27318, 38.8648 ], [ -77.27378, 38.8642 ], [ -77.27545, 38.86433 ], [ -77.27662, 38.86397 ], [ -77.2774, 38.86443 ], [ -77.27524, 38.86607 ], [ -77.27666, 38.86633 ], [ -77.27616, 38.86768 ], [ -77.27695, 38.8681 ], [ -77.27795, 38.86789 ], [ -77.27868, 38.86958 ], [ -77.27815, 38.8707 ], [ -77.27661, 38.87179 ], [ -77.27724, 38.87199 ], [ -77.27914, 38.8745 ], [ -77.27973, 38.8745 ], [ -77.27789, 38.87254 ], [ -77.27867, 38.87208 ], [ -77.28056, 38.87364 ], [ -77.2816, 38.87346 ], [ -77.2826, 38.87433 ], [ -77.2822, 38.87503 ], [ -77.28121, 38.87476 ], [ -77.28037, 38.87562 ], [ -77.28384, 38.87521 ], [ -77.28438, 38.87586 ], [ -77.28368, 38.8765 ], [ -77.28198, 38.87635 ], [ -77.28032, 38.87696 ], [ -77.28083, 38.88165 ], [ -77.28416, 38.88145 ], [ -77.28408, 38.88006 ], [ -77.28365, 38.87972 ], [ -77.28372, 38.87931 ], [ -77.28449, 38.87899 ], [ -77.28399, 38.87857 ], [ -77.28422, 38.87701 ], [ -77.28542, 38.8761 ], [ -77.28698, 38.87617 ], [ -77.2874, 38.87509 ], [ -77.28792, 38.87502 ], [ -77.28878, 38.87568 ], [ -77.28904, 38.874 ], [ -77.28964, 38.87394 ], [ -77.29034, 38.87446 ], [ -77.29038, 38.87564 ], [ -77.29347, 38.876 ], [ -77.29348, 38.87483 ], [ -77.29163, 38.87482 ], [ -77.29108, 38.87439 ], [ -77.29099, 38.87326 ], [ -77.29139, 38.87299 ], [ -77.29228, 38.87338 ], [ -77.2941, 38.87186 ], [ -77.29509, 38.87153 ], [ -77.29561, 38.87217 ], [ -77.29464, 38.873 ], [ -77.29798, 38.87286 ], [ -77.29771, 38.87199 ], [ -77.29882, 38.87187 ], [ -77.29935, 38.87119 ], [ -77.29988, 38.87119 ] ], [ [ -77.27963, 38.88748 ], [ -77.27962, 38.88749 ], [ -77.27964, 38.88749 ], [ -77.27963, 38.88748 ] ], [ [ -77.27986, 38.88532 ], [ -77.27984, 38.8851 ], [ -77.27977, 38.88537 ], [ -77.27986, 38.88532 ] ], [ [ -77.27816, 38.87721 ], [ -77.27823, 38.87642 ], [ -77.27579, 38.87626 ], [ -77.27559, 38.87708 ], [ -77.27763, 38.87669 ], [ -77.27816, 38.87721 ] ], [ [ -77.27618, 38.87471 ], [ -77.27731, 38.87463 ], [ -77.27754, 38.87539 ], [ -77.2782, 38.8753 ], [ -77.27642, 38.87304 ], [ -77.27548, 38.87291 ], [ -77.27536, 38.87251 ], [ -77.27626, 38.87185 ], [ -77.27489, 38.87136 ], [ -77.27399, 38.87162 ], [ -77.27356, 38.87138 ], [ -77.27409, 38.87024 ], [ -77.27339, 38.86789 ], [ -77.27219, 38.86875 ], [ -77.27292, 38.87115 ], [ -77.27264, 38.87149 ], [ -77.27212, 38.87158 ], [ -77.27145, 38.8711 ], [ -77.27108, 38.86968 ], [ -77.27042, 38.87035 ], [ -77.2721, 38.8729 ], [ -77.27455, 38.87291 ], [ -77.27618, 38.87471 ] ], [ [ -77.29194, 38.87895 ], [ -77.29155, 38.87878 ], [ -77.29141, 38.87897 ], [ -77.2916, 38.87915 ], [ -77.29194, 38.87895 ] ], [ [ -77.29185, 38.87788 ], [ -77.29164, 38.87787 ], [ -77.29165, 38.87797 ], [ -77.29185, 38.87788 ] ], [ [ -77.29028, 38.87704 ], [ -77.29034, 38.87736 ], [ -77.29067, 38.8774 ], [ -77.29071, 38.87707 ], [ -77.29028, 38.87704 ] ], [ [ -77.29923, 38.87494 ], [ -77.30003, 38.87444 ], [ -77.29925, 38.87402 ], [ -77.29876, 38.87421 ], [ -77.29923, 38.87494 ] ], [ [ -77.29575, 38.87402 ], [ -77.29563, 38.87403 ], [ -77.29579, 38.8743 ], [ -77.29575, 38.87402 ] ], [ [ -77.29386, 38.87728 ], [ -77.29406, 38.87752 ], [ -77.29425, 38.8773 ], [ -77.29386, 38.87728 ] ], [ [ -77.29567, 38.8749 ], [ -77.29591, 38.87472 ], [ -77.29581, 38.87458 ], [ -77.29567, 38.8749 ] ], [ [ -77.2974, 38.8807 ], [ -77.29628, 38.881 ], [ -77.29609, 38.88108 ], [ -77.2974, 38.8807 ] ], [ [ -77.29644, 38.87972 ], [ -77.29628, 38.87947 ], [ -77.29602, 38.87989 ], [ -77.29644, 38.87972 ] ], [ [ -77.29448, 38.87851 ], [ -77.29491, 38.87832 ], [ -77.29522, 38.87828 ], [ -77.29451, 38.87815 ], [ -77.29448, 38.87851 ] ], [ [ -77.29529, 38.87995 ], [ -77.29562, 38.88005 ], [ -77.29568, 38.88002 ], [ -77.29529, 38.87995 ] ], [ [ -77.28701, 38.88393 ], [ -77.2868, 38.88388 ], [ -77.28676, 38.88398 ], [ -77.28701, 38.88393 ] ], [ [ -77.2872, 38.88226 ], [ -77.28732, 38.88222 ], [ -77.28717, 38.88222 ], [ -77.2872, 38.88226 ] ], [ [ -77.29089, 38.8817 ], [ -77.2904, 38.88196 ], [ -77.29025, 38.88208 ], [ -77.29077, 38.88206 ], [ -77.29089, 38.8817 ] ], [ [ -77.28878, 38.88211 ], [ -77.28873, 38.88197 ], [ -77.28821, 38.88212 ], [ -77.28878, 38.88211 ] ], [ [ -77.29026, 38.87958 ], [ -77.29065, 38.88071 ], [ -77.29083, 38.88064 ], [ -77.29026, 38.87958 ] ], [ [ -77.28812, 38.88078 ], [ -77.2884, 38.88092 ], [ -77.28833, 38.88064 ], [ -77.28812, 38.88078 ] ], [ [ -77.27939, 38.87613 ], [ -77.27922, 38.87617 ], [ -77.27934, 38.87617 ], [ -77.27939, 38.87613 ] ], [ [ -77.28189, 38.8827 ], [ -77.28095, 38.88273 ], [ -77.28101, 38.8834 ], [ -77.2811, 38.88315 ], [ -77.28182, 38.88298 ], [ -77.28189, 38.8827 ] ], [ [ -77.28496, 38.88475 ], [ -77.28482, 38.88435 ], [ -77.28471, 38.8844 ], [ -77.28496, 38.88475 ] ], [ [ -77.28105, 38.88367 ], [ -77.28117, 38.88463 ], [ -77.28153, 38.88404 ], [ -77.28105, 38.88367 ] ], [ [ -77.28179, 38.88299 ], [ -77.28178, 38.88299 ], [ -77.28179, 38.883 ], [ -77.28179, 38.88299 ] ], [ [ -77.28103, 38.8873 ], [ -77.28105, 38.88737 ], [ -77.28113, 38.88731 ], [ -77.28103, 38.8873 ] ], [ [ -77.27209, 38.87626 ], [ -77.27238, 38.87568 ], [ -77.27088, 38.87589 ], [ -77.27074, 38.87635 ], [ -77.27209, 38.87626 ] ], [ [ -77.2786, 38.87989 ], [ -77.2789, 38.88032 ], [ -77.27922, 38.88034 ], [ -77.2786, 38.87989 ] ], [ [ -77.27451, 38.87502 ], [ -77.27451, 38.87493 ], [ -77.27431, 38.875 ], [ -77.27451, 38.87502 ] ], [ [ -77.27099, 38.88052 ], [ -77.27011, 38.88035 ], [ -77.26985, 38.88061 ], [ -77.27099, 38.88052 ] ], [ [ -77.26609, 38.88411 ], [ -77.26618, 38.88386 ], [ -77.26608, 38.88411 ], [ -77.26609, 38.88411 ] ], [ [ -77.27089, 38.87479 ], [ -77.27075, 38.87469 ], [ -77.27076, 38.8748 ], [ -77.27089, 38.87479 ] ], [ [ -77.27769, 38.88781 ], [ -77.27815, 38.88851 ], [ -77.27893, 38.88785 ], [ -77.27846, 38.8876 ], [ -77.27769, 38.88781 ] ] ] } },
{ "type": "Feature", "properties": { "variant": "T2s", "miles": 2.0 }, "geometry": { "type": "MultiPolygon", "coordinates": [ [ [ [ -77.30495, 38.87005 ], [ -77.30531, 38.87047 ], [ -77.30796, 38.87104 ], [ -77.30788, 38.8718 ], [ -77.30722, 38.87232 ], [ -77.30631, 38.8723 ], [ -77.30562, 38.87375 ], [ -77.30863, 38.87477 ], [ -77.30981, 38.87583 ], [ -77.31221, 38.87453 ], [ -77.31328, 38.87468 ], [ -77.31318, 38.87544 ], [ -77.31174, 38.87641 ], [ -77.31193, 38.87825 ], [ -77.31054, 38.87862 ], [ -77.31004, 38.88028 ], [ -77.30705, 38.88085 ], [ -77.30855, 38.88309 ], [ -77.3067, 38.88409 ], [ -77.30464, 38.88323 ], [ -77.30324, 38.88393 ], [ -77.30182, 38.88401 ], [ -77.3029, 38.8847 ], [ -77.30246, 38.88543 ], [ -77.3004, 38.88565 ], [ -77.29983, 38.88553 ], [ -77.29956, 38.88492 ], [ -77.29872, 38.88515 ], [ -77.29797, 38.88612 ], [ -77.29601, 38.88517 ], [ -77.29528, 38.88325 ], [ -77.29282, 38.88339 ], [ -77.2923, 38.88311 ], [ -77.29127, 38.8836 ], [ -77.29001, 38.88367 ], [ -77.28907, 38.88434 ], [ -77.28846, 38.88418 ], [ -77.28744, 38.88455 ], [ -77.28633, 38.88552 ], [ -77.28492, 38.88606 ], [ -77.28387, 38.88583 ], [ -77.28257, 38.88646 ], [ -77.28296, 38.88722 ], [ -77.28145, 38.8886 ], [ -77.28047, 38.88861 ], [ -77.28022, 38.88794 ], [ -77.27927, 38.88916 ], [ -77.2792, 38.88976 ], [ -77.27986, 38.88986 ], [ -77.28055, 38.89076 ], [ -77.28013, 38.89124 ], [ -77.27894, 38.89151 ], [ -77.2804, 38.89336 ], [ -77.27959, 38.89379 ], [ -77.27797, 38.89229 ], [ -77.27711, 38.89297 ], [ -77.27661, 38.89356 ], [ -77.27831, 38.89602 ], [ -77.27663, 38.89709 ], [ -77.27613, 38.89721 ], [ -77.27505, 38.89656 ], [ -77.27397, 38.89765 ], [ -77.27311, 38.8977 ], [ -77.2709, 38.89576 ], [ -77.27103, 38.89492 ], [ -77.27154, 38.8948 ], [ -77.27218, 38.89524 ], [ -77.27302, 38.89452 ], [ -77.27141, 38.89432 ], [ -77.27115, 38.89396 ], [ -77.27188, 38.893 ], [ -77.27073, 38.89156 ], [ -77.26872, 38.89241 ], [ -77.26667, 38.89133 ], [ -77.26563, 38.88994 ], [ -77.26401, 38.89037 ], [ -77.2635, 38.88971 ], [ -77.26226, 38.89026 ], [ -77.25976, 38.88801 ], [ -77.25771, 38.88878 ], [ -77.25682, 38.88848 ], [ -77.25683, 38.88806 ], [ -77.25755, 38.88767 ], [ -77.25698, 38.88691 ], [ -77.25839, 38.88536 ], [ -77.25674, 38.88431 ], [ -77.25606, 38.8834 ], [ -77.25625, 38.88301 ], [ -77.25755, 38.8826 ], [ -77.25583, 38.88128 ], [ -77.25601, 38.88038 ], [ -77.25721, 38.88023 ], [ -77.25936, 38.88077 ], [ -77.26012, 38.88009 ], [ -77.26065, 38.88012 ], [ -77.261, 38.88042 ], [ -77.26065, 38.88123 ], [ -77.26144, 38.88159 ], [ -77.26119, 38.88213 ], [ -77.26177, 38.88223 ], [ -77.26212, 38.88169 ], [ -77.26265, 38.88167 ], [ -77.26315, 38.88219 ], [ -77.26673, 38.88242 ], [ -77.26625, 38.88105 ], [ -77.26521, 38.88075 ], [ -77.26565, 38.88007 ], [ -77.26681, 38.8799 ], [ -77.26793, 38.88024 ], [ -77.26819, 38.8807 ], [ -77.26856, 38.87898 ], [ -77.26945, 38.87826 ], [ -77.27209, 38.8779 ], [ -77.27291, 38.87875 ], [ -77.27382, 38.87861 ], [ -77.27431, 38.87609 ], [ -77.2728, 38.87732 ], [ -77.26893, 38.87807 ], [ -77.26697, 38.87686 ], [ -77.26496, 38.87674 ], [ -77.26371, 38.87584 ], [ -77.26298, 38.87461 ], [ -77.26299, 38.87576 ], [ -77.26203, 38.87563 ], [ -77.26054, 38.87393 ], [ -77.26092, 38.87299 ], [ -77.25775, 38.87306 ], [ -77.25703, 38.87254 ], [ -77.25896, 38.87101 ], [ -77.26015, 38.8711 ], [ -77.26052, 38.87181 ], [ -77.26483, 38.87126 ], [ -77.26507, 38.87058 ], [ -77.26455, 38.86962 ], [ -77.26508, 38.86897 ], [ -77.26594, 38.86952 ], [ -77.26789, 38.8693 ], [ -77.26866, 38.86975 ], [ -77.26892, 38.86936 ], [ -77.26802, 38.86846 ], [ -77.26774, 38.86633 ], [ -77.26851, 38.86495 ], [ -77.26937, 38.86464 ], [ -77.26919, 38.8621 ], [ -77.26982, 38.86031 ], [ -77.26877, 38.85938 ], [ -77.2689, 38.85824 ], [ -77.26958, 38.85745 ], [ -77.27091, 38.85744 ], [ -77.27159, 38.85791 ], [ -77.27137, 38.86036 ], [ -77.27367, 38.85997 ], [ -77.27798, 38.86122 ], [ -77.27803, 38.86199 ], [ -77.27669, 38.86396 ], [ -77.28456, 38.86322 ], [ -77.2847, 38.86398 ], [ -77.28216, 38.86451 ], [ -77.28205, 38.8661 ], [ -77.28382, 38.86618 ], [ -77.2845, 38.86568 ], [ -77.28501, 38.86578 ], [ -77.28572, 38.86747 ], [ -77.28666, 38.86773 ], [ -77.28654, 38.86893 ], [ -77.28557, 38.86926 ], [ -77.28502, 38.87051 ], [ -77.28386, 38.87036 ], [ -77.28418, 38.86934 ], [ -77.28315, 38.86927 ], [ -77.28361, 38.86994 ], [ -77.28271, 38.87039 ], [ -77.28006, 38.8702 ], [ -77.27951, 38.8705 ], [ -77.28179, 38.87273 ], [ -77.28317, 38.87201 ], [ -77.28413, 38.87217 ], [ -77.28482, 38.87333 ], [ -77.28375, 38.87449 ], [ -77.28415, 38.87484 ], [ -77.28563, 38.87429 ], [ -77.28741, 38.87429 ], [ -77.28773, 38.87385 ], [ -77.2887, 38.87404 ], [ -77.28993, 38.8737 ], [ -77.29144, 38.87248 ], [ -77.29197, 38.87249 ], [ -77.29248, 38.87313 ], [ -77.29313, 38.87297 ], [ -77.29391, 38.872 ], [ -77.29518, 38.87138 ], [ -77.29759, 38.87143 ], [ -77.29824, 38.87085 ], [ -77.30095, 38.87022 ], [ -77.30245, 38.8707 ], [ -77.30278, 38.8702 ], [ -77.30495, 38.87005 ] ], [ [ -77.27827, 38.88981 ], [ -77.27724, 38.89043 ], [ -77.2769, 38.89116 ], [ -77.27627, 38.8912 ], [ -77.27552, 38.89226 ], [ -77.27487, 38.8924 ], [ -77.27485, 38.89306 ], [ -77.27861, 38.88996 ], [ -77.27827, 38.88981 ] ], [ [ -77.27846, 38.8876 ], [ -77.27769, 38.88781 ], [ -77.27815, 38.88851 ], [ -77.27892, 38.88787 ], [ -77.27846, 38.8876 ] ], [ [ -77.27855, 38.88243 ], [ -77.27819, 38.88131 ], [ -77.27737, 38.88111 ], [ -77.27603, 38.88131 ], [ -77.27587, 38.88262 ], [ -77.27487, 38.88278 ], [ -77.27391, 38.88221 ], [ -77.27217, 38.8829 ], [ -77.27244, 38.88349 ], [ -77.27339, 38.8836 ], [ -77.27336, 38.88483 ], [ -77.27506, 38.88602 ], [ -77.27443, 38.8866 ], [ -77.27368, 38.88652 ], [ -77.27407, 38.88715 ], [ -77.27491, 38.88743 ], [ -77.27601, 38.88705 ], [ -77.27611, 38.88605 ], [ -77.2754, 38.8851 ], [ -77.27592, 38.88444 ], [ -77.2746, 38.88435 ], [ -77.27433, 38.88361 ], [ -77.27662, 38.8822 ], [ -77.27855, 38.88243 ] ], [ [ -77.27823, 38.87642 ], [ -77.27579, 38.87626 ], [ -77.27559, 38.87708 ], [ -77.27763, 38.87669 ], [ -77.27822, 38.87713 ], [ -77.27823, 38.87642 ] ], [ [ -77.2782, 38.8753 ], [ -77.27642, 38.87304 ], [ -77.27548, 38.87291 ], [ -77.27536, 38.87251 ], [ -77.27626, 38.87185 ], [ -77.27489, 38.87136 ], [ -77.2742, 38.8716 ], [ -77.27451, 38.87241 ], [ -77.27349, 38.87275 ], [ -77.27494, 38.87314 ], [ -77.27601, 38.87475 ], [ -77.27731, 38.87463 ], [ -77.27768, 38.87539 ], [ -77.2782, 38.8753 ] ], [ [ -77.27804, 38.87102 ], [ -77.27784, 38.87074 ], [ -77.27729, 38.87134 ], [ -77.27804, 38.87102 ] ], [ [ -77.27654, 38.86721 ], [ -77.27616, 38.86768 ], [ -77.27661, 38.86792 ], [ -77.27702, 38.86741 ], [ -77.27654, 38.86721 ] ], [ [ -77.2952, 38.88205 ], [ -77.2945, 38.88106 ], [ -77.29359, 38.8814 ], [ -77.29319, 38.88114 ], [ -77.29378, 38.88013 ], [ -77.29321, 38.87946 ], [ -77.29231, 38.88013 ], [ -77.29275, 38.8811 ], [ -77.29222, 38.88203 ], [ -77.2952, 38.88205 ] ], [ [ -77.29348, 38.87483 ], [ -77.29194, 38.87485 ], [ -77.29181, 38.87588 ], [ -77.29348, 38.87593 ], [ -77.29348, 38.87483 ] ], [ [ -77.30178, 38.88121 ], [ -77.30165, 38.88176 ], [ -77.30231, 38.88181 ], [ -77.303, 38.8814 ], [ -77.30178, 38.88121 ] ], [ [ -77.30579, 38.87988 ], [ -77.30803, 38.87962 ], [ -77.30683, 38.878 ], [ -77.30593, 38.878 ], [ -77.3033, 38.88023 ], [ -77.30579, 38.87988 ] ], [ [ -77.30003, 38.87444 ], [ -77.29925, 38.87402 ], [ -77.29876, 38.87421 ], [ -77.29923, 38.87494 ], [ -77.30003, 38.87444 ] ], [ [ -77.30649, 38.87524 ], [ -77.30464, 38.87452 ], [ -77.30425, 38.87389 ], [ -77.30444, 38.87313 ], [ -77.30302, 38.87265 ], [ -77.30217, 38.8747 ], [ -77.30555, 38.8763 ], [ -77.30649, 38.87524 ] ], [ [ -77.30781, 38.87586 ], [ -77.30715, 38.87659 ], [ -77.30809, 38.87634 ], [ -77.30781, 38.87586 ] ], [ [ -77.30661, 38.88291 ], [ -77.30698, 38.88273 ], [ -77.30666, 38.88235 ], [ -77.30661, 38.88291 ] ], [ [ -77.30506, 38.8822 ], [ -77.30509, 38.8822 ], [ -77.30508, 38.88219 ], [ -77.30506, 38.8822 ] ], [ [ -77.30902, 38.87906 ], [ -77.309, 38.87917 ], [ -77.30926, 38.87904 ], [ -77.30902, 38.87906 ] ], [ [ -77.29963, 38.88479 ], [ -77.30048, 38.8844 ], [ -77.30027, 38.88195 ], [ -77.29885, 38.88287 ], [ -77.29963, 38.88479 ] ], [ [ -77.30021, 38.87852 ], [ -77.29973, 38.87801 ], [ -77.29987, 38.8775 ], [ -77.29763, 38.87736 ], [ -77.29817, 38.87801 ], [ -77.2991, 38.8777 ], [ -77.29955, 38.87792 ], [ -77.30002, 38.87888 ], [ -77.30021, 38.87852 ] ], [ [ -77.29953, 38.87956 ], [ -77.29983, 38.8799 ], [ -77.29999, 38.87903 ], [ -77.29953, 38.87956 ] ], [ [ -77.30256, 38.87916 ], [ -77.30236, 38.87901 ], [ -77.30184, 38.87901 ], [ -77.30144, 38.87991 ], [ -77.30256, 38.87916 ] ], [ [ -77.29591, 38.87472 ], [ -77.29581, 38.87458 ], [ -77.29574, 38.87482 ], [ -77.29591, 38.87472 ] ], [ [ -77.29579, 38.8743 ], [ -77.29575, 38.87402 ], [ -77.29563, 38.87403 ], [ -77.29579, 38.8743 ] ], [ [ -77.29628, 38.87947 ], [ -77.29602, 38.87989 ], [ -77.29644, 38.87972 ], [ -77.29628, 38.87947 ] ], [ [ -77.29447, 38.87852 ], [ -77.29522, 38.87828 ], [ -77.29451, 38.87815 ], [ -77.29447, 38.87852 ] ], [ [ -77.29386, 38.87728 ], [ -77.29406, 38.87752 ], [ -77.29425, 38.8773 ], [ -77.29386, 38.87728 ] ], [ [ -77.29543, 38.88013 ], [ -77.29568, 38.88002 ], [ -77.29529, 38.87995 ], [ -77.29543, 38.88013 ] ], [ [ -77.29611, 38.8811 ], [ -77.2974, 38.8807 ], [ -77.29729, 38.88059 ], [ -77.29611, 38.8811 ] ], [ [ -77.2868, 38.88388 ], [ -77.28676, 38.88398 ], [ -77.28701, 38.88393 ], [ -77.2868, 38.88388 ] ], [ [ -77.28732, 38.88222 ], [ -77.28717, 38.88222 ], [ -77.2872, 38.88226 ], [ -77.28732, 38.88222 ] ], [ [ -77.28121, 38.87476 ], [ -77.28037, 38.87562 ], [ -77.28247, 38.87528 ], [ -77.28121, 38.87476 ] ], [ [ -77.27879, 38.87196 ], [ -77.2782, 38.87218 ], [ -77.27913, 38.87228 ], [ -77.27879, 38.87196 ] ], [ [ -77.29141, 38.87897 ], [ -77.29187, 38.87913 ], [ -77.29194, 38.87895 ], [ -77.29141, 38.87897 ] ], [ [ -77.29071, 38.87707 ], [ -77.29028, 38.87704 ], [ -77.29034, 38.87736 ], [ -77.29071, 38.87707 ] ], [ [ -77.2905, 38.87553 ], [ -77.29041, 38.87552 ], [ -77.29038, 38.87564 ], [ -77.2905, 38.87553 ] ], [ [ -77.29164, 38.87787 ], [ -77.29165, 38.87797 ], [ -77.29185, 38.87788 ], [ -77.29164, 38.87787 ] ], [ [ -77.2884, 38.88207 ], [ -77.28821, 38.88212 ], [ -77.28878, 38.88211 ], [ -77.2884, 38.88207 ] ], [ [ -77.29065, 38.88071 ], [ -77.29072, 38.88018 ], [ -77.29026, 38.87958 ], [ -77.29007, 38.88002 ], [ -77.29065, 38.88071 ] ], [ [ -77.29077, 38.88206 ], [ -77.29089, 38.8817 ], [ -77.29063, 38.88165 ], [ -77.29029, 38.88205 ], [ -77.29077, 38.88206 ] ], [ [ -77.2884, 38.88092 ], [ -77.28833, 38.88064 ], [ -77.28812, 38.88078 ], [ -77.2884, 38.88092 ] ], [ [ -77.2807, 38.8647 ], [ -77.2807, 38.8646 ], [ -77.27978, 38.86471 ], [ -77.27932, 38.86695 ], [ -77.28019, 38.86719 ], [ -77.28039, 38.86781 ], [ -77.2807, 38.8647 ] ], [ [ -77.28187, 38.86722 ], [ -77.28183, 38.86772 ], [ -77.28429, 38.86765 ], [ -77.28435, 38.86727 ], [ -77.28187, 38.86722 ] ], [ [ -77.28103, 38.8873 ], [ -77.28105, 38.88737 ], [ -77.28113, 38.88731 ], [ -77.28103, 38.8873 ] ], [ [ -77.28153, 38.88404 ], [ -77.28105, 38.88367 ], [ -77.28117, 38.88463 ], [ -77.28153, 38.88404 ] ], [ [ -77.28189, 38.8827 ], [ -77.28095, 38.88273 ], [ -77.28101, 38.8834 ], [ -77.2811, 38.88315 ], [ -77.28189, 38.8827 ] ], [ [ -77.28408, 38.88006 ], [ -77.28365, 38.87972 ], [ -77.28372, 38.87931 ], [ -77.28449, 38.87899 ], [ -77.28399, 38.87857 ], [ -77.28392, 38.87642 ], [ -77.28198, 38.87635 ], [ -77.28068, 38.87669 ], [ -77.2803, 38.8771 ], [ -77.28083, 38.88165 ], [ -77.28416, 38.88145 ], [ -77.28408, 38.88006 ] ], [ [ -77.27939, 38.87613 ], [ -77.27922, 38.87617 ], [ -77.27934, 38.87617 ], [ -77.27939, 38.87613 ] ], [ [ -77.28179, 38.883 ], [ -77.28179, 38.88299 ], [ -77.28178, 38.88299 ], [ -77.28179, 38.883 ] ], [ [ -77.28482, 38.88435 ], [ -77.28471, 38.8844 ], [ -77.28496, 38.88475 ], [ -77.28482, 38.88435 ] ], [ [ -77.27911, 38.87448 ], [ -77.27962, 38.87461 ], [ -77.27803, 38.87294 ], [ -77.27814, 38.8722 ], [ -77.27759, 38.87247 ], [ -77.27911, 38.87448 ] ], [ [ -77.27832, 38.88509 ], [ -77.27841, 38.88562 ], [ -77.27903, 38.88465 ], [ -77.27983, 38.88506 ], [ -77.2797, 38.88396 ], [ -77.27899, 38.88386 ], [ -77.27832, 38.88509 ] ], [ [ -77.27922, 38.88034 ], [ -77.2786, 38.87989 ], [ -77.27857, 38.87993 ], [ -77.27922, 38.88034 ] ], [ [ -77.27986, 38.88532 ], [ -77.27984, 38.8851 ], [ -77.27977, 38.88537 ], [ -77.27986, 38.88532 ] ], [ [ -77.27964, 38.88749 ], [ -77.27963, 38.88748 ], [ -77.27962, 38.88749 ], [ -77.27964, 38.88749 ] ], [ [ -77.27414, 38.89571 ], [ -77.27394, 38.89547 ], [ -77.27313, 38.89604 ], [ -77.27366, 38.89621 ], [ -77.27414, 38.89571 ] ], [ [ -77.27274, 38.88914 ], [ -77.27398, 38.88834 ], [ -77.27294, 38.88782 ], [ -77.27197, 38.88541 ], [ -77.27113, 38.88624 ], [ -77.2718, 38.8866 ], [ -77.27274, 38.88914 ] ], [ [ -77.27211, 38.87625 ], [ -77.27238, 38.87568 ], [ -77.27088, 38.87589 ], [ -77.2709, 38.8764 ], [ -77.27211, 38.87625 ] ], [ [ -77.27076, 38.8748 ], [ -77.27089, 38.87479 ], [ -77.27094, 38.87467 ], [ -77.27076, 38.8748 ] ], [ [ -77.27176, 38.86742 ], [ -77.27047, 38.86687 ], [ -77.26976, 38.86609 ], [ -77.26923, 38.86665 ], [ -77.26936, 38.8682 ], [ -77.26995, 38.86862 ], [ -77.27176, 38.86742 ] ], [ [ -77.27353, 38.86422 ], [ -77.27308, 38.86338 ], [ -77.2708, 38.86281 ], [ -77.27097, 38.86432 ], [ -77.27353, 38.86422 ] ], [ [ -77.2758, 38.86275 ], [ -77.27631, 38.86201 ], [ -77.27382, 38.86116 ], [ -77.27107, 38.86143 ], [ -77.27094, 38.8617 ], [ -77.2758, 38.86275 ] ], [ [ -77.27596, 38.89574 ], [ -77.27622, 38.89595 ], [ -77.27623, 38.89594 ], [ -77.27596, 38.89574 ] ], [ [ -77.2751, 38.89488 ], [ -77.27551, 38.89423 ], [ -77.27494, 38.89468 ], [ -77.2751, 38.89488 ] ], [ [ -77.27409, 38.87024 ], [ -77.27339, 38.86789 ], [ -77.27238, 38.86861 ], [ -77.27389, 38.87045 ], [ -77.27409, 38.87024 ] ], [ [ -77.27397, 38.86539 ], [ -77.27121, 38.86553 ], [ -77.27161, 38.86594 ], [ -77.27368, 38.8658 ], [ -77.27397, 38.86539 ] ], [ [ -77.27604, 38.86607 ], [ -77.27611, 38.86529 ], [ -77.27524, 38.86607 ], [ -77.27604, 38.86607 ] ], [ [ -77.27451, 38.87493 ], [ -77.27431, 38.875 ], [ -77.27451, 38.87502 ], [ -77.27451, 38.87493 ] ], [ [ -77.27439, 38.89324 ], [ -77.27437, 38.89342 ], [ -77.27451, 38.89332 ], [ -77.27474, 38.89314 ], [ -77.27439, 38.89324 ] ], [ [ -77.27409, 38.89192 ], [ -77.27417, 38.89196 ], [ -77.27415, 38.89194 ], [ -77.27409, 38.89192 ] ], [ [ -77.27356, 38.89067 ], [ -77.27348, 38.89065 ], [ -77.27355, 38.89074 ], [ -77.27356, 38.89067 ] ], [ [ -77.27407, 38.88653 ], [ -77.27412, 38.88653 ], [ -77.27396, 38.8865 ], [ -77.27407, 38.88653 ] ], [ [ -77.26696, 38.87273 ], [ -77.26683, 38.87274 ], [ -77.26665, 38.87328 ], [ -77.26701, 38.8736 ], [ -77.26696, 38.87273 ] ], [ [ -77.26546, 38.87389 ], [ -77.26472, 38.87397 ], [ -77.26667, 38.8757 ], [ -77.26752, 38.87571 ], [ -77.26659, 38.87527 ], [ -77.26546, 38.87389 ] ], [ [ -77.26416, 38.87265 ], [ -77.26428, 38.87292 ], [ -77.2654, 38.8728 ], [ -77.26532, 38.8724 ], [ -77.26416, 38.87265 ] ], [ [ -77.26865, 38.86983 ], [ -77.26839, 38.87028 ], [ -77.26868, 38.87009 ], [ -77.26865, 38.86983 ] ], [ [ -77.26937, 38.88864 ], [ -77.26875, 38.88717 ], [ -77.26947, 38.89027 ], [ -77.26996, 38.88998 ], [ -77.26937, 38.88864 ] ], [ [ -77.26995, 38.88565 ], [ -77.26964, 38.88553 ], [ -77.26976, 38.8858 ], [ -77.26995, 38.88565 ] ], [ [ -77.26985, 38.88061 ], [ -77.27099, 38.88052 ], [ -77.27095, 38.88023 ], [ -77.26985, 38.88061 ] ], [ [ -77.26747, 38.8897 ], [ -77.26693, 38.88957 ], [ -77.26709, 38.88982 ], [ -77.26747, 38.8897 ] ], [ [ -77.26729, 38.88814 ], [ -77.26752, 38.88814 ], [ -77.26747, 38.88802 ], [ -77.26729, 38.88814 ] ], [ [ -77.26595, 38.88596 ], [ -77.26592, 38.88612 ], [ -77.2661, 38.88592 ], [ -77.26595, 38.88596 ] ], [ [ -77.26618, 38.88386 ], [ -77.26608, 38.88411 ], [ -77.26633, 38.88399 ], [ -77.26618, 38.88386 ] ], [ [ -77.26825, 38.88601 ], [ -77.26797, 38.88602 ], [ -77.2681, 38.88622 ], [ -77.26825, 38.88601 ] ], [ [ -77.25875, 38.88336 ], [ -77.25862, 38.88328 ], [ -77.25812, 38.88379 ], [ -77.25849, 38.88403 ], [ -77.25875, 38.88336 ] ], [ [ -77.25816, 38.88159 ], [ -77.2584, 38.88174 ], [ -77.25846, 38.88167 ], [ -77.25816, 38.88159 ] ], [ [ -77.26432, 38.88611 ], [ -77.26445, 38.88644 ], [ -77.26446, 38.88608 ], [ -77.26432, 38.88611 ] ], [ [ -77.26207, 38.8852 ], [ -77.26222, 38.88568 ], [ -77.26229, 38.8855 ], [ -77.26207, 38.8852 ] ], [ [ -77.26088, 38.88617 ], [ -77.26115, 38.88606 ], [ -77.26105, 38.88602 ], [ -77.26088, 38.88617 ] ], [ [ -77.26472, 38.88472 ], [ -77.26388, 38.88464 ], [ -77.26348, 38.88367 ], [ -77.2622, 38.88343 ], [ -77.26373, 38.88513 ], [ -77.26472, 38.88472 ] ], [ [ -77.25927, 38.88452 ], [ -77.25936, 38.88443 ], [ -77.25918, 38.88447 ], [ -77.25927, 38.88452 ] ], [ [ -77.26532, 38.88446 ], [ -77.26505, 38.88436 ], [ -77.26487, 38.88466 ], [ -77.26532, 38.88446 ] ], [ [ -77.26169, 38.88506 ], [ -77.26201, 38.88513 ], [ -77.26124, 38.88433 ], [ -77.26096, 38.88461 ], [ -77.26169, 38.88506 ] ], [ [ -77.26033, 38.88566 ], [ -77.26055, 38.88574 ], [ -77.26009, 38.88545 ], [ -77.26033, 38.88566 ] ], [ [ -77.26162, 38.88505 ], [ -77.26163, 38.88504 ], [ -77.26162, 38.88504 ], [ -77.26162, 38.88505 ] ], [ [ -77.26538, 38.88774 ], [ -77.2651, 38.88758 ], [ -77.26528, 38.88781 ], [ -77.26538, 38.88774 ] ], [ [ -77.26474, 38.88703 ], [ -77.26492, 38.88733 ], [ -77.26515, 38.8868 ], [ -77.26449, 38.88653 ], [ -77.26474, 38.88703 ] ], [ [ -77.26183, 38.88833 ], [ -77.26198, 38.88802 ], [ -77.26156, 38.88806 ], [ -77.26183, 38.88833 ] ], [ [ -77.26111, 38.88761 ], [ -77.26119, 38.88727 ], [ -77.26108, 38.88739 ], [ -77.26111, 38.88761 ] ], [ [ -77.26398, 38.88822 ], [ -77.26389, 38.8881 ], [ -77.26383, 38.88819 ], [ -77.26398, 38.88822 ] ], [ [ -77.26242, 38.88887 ], [ -77.26236, 38.88886 ], [ -77.26247, 38.88897 ], [ -77.26242, 38.88887 ] ] ], [ [ [ -77.30336, 38.88817 ], [ -77.30252, 38.88855 ], [ -77.30126, 38.88677 ], [ -77.30175, 38.88622 ], [ -77.3027, 38.88672 ], [ -77.30336, 38.88817 ] ] ] ] } }
]
}
