{
"type": "FeatureCollection",
"name": "500",
"crs": { "type": "name", "properties": { "name": "urn:ogc:def:crs:OGC:1.3:CRS84" } },
"xy_coordinate_resolution": 1e-05,
"features": [
{ "type": "Feature", "properties": { "variant": "T0", "miles": 1.0 }, "geometry": { "type": "Polygon", "coordinates": [ [ [ -77.29558, 38.85246 ], [ -77.2985, 38.85039 ], [ -77.29938, 38.85084 ], [ -77.29867, 38.85189 ], [ -77.29926, 38.85235 ], [ -77.29905, 38.8531 ], [ -77.29745, 38.85336 ], [ -77.29696, 38.85308 ], [ -77.29576, 38.85374 ], [ -77.2984, 38.85694 ], [ -77.29736, 38.85917 ], [ -77.29523, 38.86107 ], [ -77.29443, 38.86127 ], [ -77.2922, 38.86094 ], [ -77.29089, 38.86176 ], [ -77.2897, 38.86045 ], [ -77.28874, 38.8606 ], [ -77.28865, 38.85973 ], [ -77.28736, 38.85835 ], [ -77.28457, 38.85967 ], [ -77.28563, 38.86188 ], [ -77.28723, 38.86172 ], [ -77.28794, 38.862 ], [ -77.28817, 38.8636 ], [ -77.2872, 38.8637 ], [ -77.28683, 38.86284 ], [ -77.28525, 38.86293 ], [ -77.28435, 38.86232 ], [ -77.28438, 38.86295 ], [ -77.28366, 38.86316 ], [ -77.28426, 38.86379 ], [ -77.28356, 38.86434 ], [ -77.27676, 38.86505 ], [ -77.27476, 38.86618 ], [ -77.2739, 38.86581 ], [ -77.27397, 38.86538 ], [ -77.27267, 38.86522 ], [ -77.27257, 38.86446 ], [ -77.27353, 38.86422 ], [ -77.27309, 38.86335 ], [ -77.27405, 38.8632 ], [ -77.27511, 38.86374 ], [ -77.27631, 38.86201 ], [ -77.27629, 38.86117 ], [ -77.2851, 38.85811 ], [ -77.28342, 38.85675 ], [ -77.28286, 38.85501 ], [ -77.27935, 38.85444 ], [ -77.2783, 38.85364 ], [ -77.27913, 38.85259 ], [ -77.28146, 38.85243 ], [ -77.28194, 38.852 ], [ -77.28232, 38.84963 ], [ -77.28329, 38.84968 ], [ -77.28346, 38.85103 ], [ -77.28563, 38.85027 ], [ -77.28785, 38.85075 ], [ -77.28858, 38.85019 ], [ -77.2903, 38.84988 ], [ -77.29111, 38.85034 ], [ -77.2911, 38.85101 ], [ -77.2904, 38.85143 ], [ -77.29103, 38.85203 ], [ -77.29145, 38.85166 ], [ -77.29323, 38.85159 ], [ -77.2936, 38.85105 ], [ -77.29548, 38.85174 ], [ -77.29558, 38.85246 ] ], [ [ -77.28985, 38.85786 ], [ -77.2896, 38.85791 ], [ -77.28957, 38.85803 ], [ -77.28985, 38.85786 ] ], [ [ -77.28775, 38.85496 ], [ -77.2886, 38.85621 ], [ -77.28881, 38.8561 ], [ -77.28775, 38.85496 ] ], [ [ -77.28281, 38.8532 ], [ -77.28352, 38.85262 ], [ -77.28404, 38.85285 ], [ -77.28405, 38.85202 ], [ -77.28354, 38.85211 ], [ -77.28281, 38.8532 ] ], [ [ -77.29266, 38.85985 ], [ -77.29246, 38.85984 ], [ -77.29235, 38.85982 ], [ -77.29238, 38.85985 ], [ -77.29266, 38.85985 ] ], [ [ -77.29282, 38.85737 ], [ -77.2933, 38.85673 ], [ -77.2931, 38.8567 ], [ -77.29282, 38.85737 ] ], [ [ -77.29199, 38.85657 ], [ -77.29213, 38.85654 ], [ -77.29208, 38.8565 ], [ -77.29199, 38.85657 ] ], [ [ -77.29488, 38.85634 ], [ -77.29475, 38.85636 ], [ -77.2947, 38.85644 ], [ -77.29488, 38.85634 ] ], [ [ -77.29419, 38.85555 ], [ -77.29415, 38.85551 ], [ -77.29412, 38.85556 ], [ -77.29419, 38.85555 ] ], [ [ -77.29555, 38.85912 ], [ -77.29513, 38.85856 ], [ -77.295, 38.85864 ], [ -77.2951, 38.85964 ], [ -77.29555, 38.85912 ] ], [ [ -77.2963, 38.85793 ], [ -77.29642, 38.85818 ], [ -77.29662, 38.85777 ], [ -77.2963, 38.85793 ] ], [ [ -77.29215, 38.85832 ], [ -77.29204, 38.85829 ], [ -77.29201, 38.85833 ], [ -77.29215, 38.85832 ] ], [ [ -77.29102, 38.86021 ], [ -77.29071, 38.8597 ], [ -77.29044, 38.85986 ], [ -77.29102, 38.86021 ] ], [ [ -77.28648, 38.85184 ], [ -77.28545, 38.85156 ], [ -77.28547, 38.85253 ], [ -77.28692, 38.85239 ], [ -77.28648, 38.85184 ] ], [ [ -77.28751, 38.85319 ], [ -77.28749, 38.85347 ], [ -77.28782, 38.85358 ], [ -77.28751, 38.85319 ] ], [ [ -77.28668, 38.85416 ], [ -77.28684, 38.85412 ], [ -77.28682, 38.85407 ], [ -77.28668, 38.85416 ] ], [ [ -77.28245, 38.86304 ], [ -77.28207, 38.86201 ], [ -77.28095, 38.86278 ], [ -77.28091, 38.86329 ], [ -77.28245, 38.86304 ] ], [ [ -77.28467, 38.85561 ], [ -77.28464, 38.85623 ], [ -77.28636, 38.85742 ], [ -77.28467, 38.85561 ] ], [ [ -77.27998, 38.86136 ], [ -77.28019, 38.86175 ], [ -77.27997, 38.86109 ], [ -77.27998, 38.86136 ] ], [ [ -77.27949, 38.86325 ], [ -77.27777, 38.86243 ], [ -77.27676, 38.86384 ], [ -77.27945, 38.86355 ], [ -77.27949, 38.86325 ] ] ] } },
{ "type": "Feature", "properties": { "variant": "T0", "miles": 1.5 }, "geometry": { "type": "Polygon", "coordinates": [ [ [ -77.30454, 38.84616 ], [ -77.3056, 38.84655 ], [ -77.30567, 38.84696 ], [ -77.30525, 38.84987 ], [ -77.30607, 38.84983 ], [ -77.3071, 38.85146 ], [ -77.30611, 38.85517 ], [ -77.30214, 38.85513 ], [ -77.30202, 38.85594 ], [ -77.30054, 38.85603 ], [ -77.30014, 38.85685 ], [ -77.29961, 38.85692 ], [ -77.29918, 38.85668 ], [ -77.29922, 38.85565 ], [ -77.29841, 38.85551 ], [ -77.29784, 38.85606 ], [ -77.2984, 38.85699 ], [ -77.29751, 38.85896 ], [ -77.29479, 38.86124 ], [ -77.2922, 38.86094 ], [ -77.29089, 38.86176 ], [ -77.2897, 38.86045 ], [ -77.28874, 38.8606 ], [ -77.28865, 38.85973 ], [ -77.28736, 38.85835 ], [ -77.28457, 38.85967 ], [ -77.28563, 38.86188 ], [ -77.28749, 38.86175 ], [ -77.28817, 38.86253 ], [ -77.29274, 38.86168 ], [ -77.29308, 38.86135 ], [ -77.29387, 38.86148 ], [ -77.29762, 38.86094 ], [ -77.29796, 38.86139 ], [ -77.29745, 38.86204 ], [ -77.29448, 38.86259 ], [ -77.29572, 38.86355 ], [ -77.29682, 38.86335 ], [ -77.29762, 38.86378 ], [ -77.29751, 38.86419 ], [ -77.29632, 38.86453 ], [ -77.2953, 38.86598 ], [ -77.29398, 38.8666 ], [ -77.29282, 38.86666 ], [ -77.29251, 38.86753 ], [ -77.29201, 38.86765 ], [ -77.28945, 38.86679 ], [ -77.28855, 38.8672 ], [ -77.28805, 38.86706 ], [ -77.28795, 38.86614 ], [ -77.28956, 38.86569 ], [ -77.28924, 38.86463 ], [ -77.28987, 38.86345 ], [ -77.28914, 38.86358 ], [ -77.28834, 38.86457 ], [ -77.28799, 38.86606 ], [ -77.28685, 38.86693 ], [ -77.28509, 38.86672 ], [ -77.28429, 38.86728 ], [ -77.28187, 38.86722 ], [ -77.28183, 38.86772 ], [ -77.28319, 38.86796 ], [ -77.2839, 38.86749 ], [ -77.28514, 38.86801 ], [ -77.28576, 38.86744 ], [ -77.28666, 38.86773 ], [ -77.28668, 38.86871 ], [ -77.28587, 38.86923 ], [ -77.28065, 38.86909 ], [ -77.28315, 38.86927 ], [ -77.28361, 38.86994 ], [ -77.28311, 38.87033 ], [ -77.2797, 38.87005 ], [ -77.27709, 38.87098 ], [ -77.27662, 38.8708 ], [ -77.27627, 38.86969 ], [ -77.27613, 38.87041 ], [ -77.2752, 38.87065 ], [ -77.27469, 38.87024 ], [ -77.27462, 38.86931 ], [ -77.27344, 38.86861 ], [ -77.27339, 38.86789 ], [ -77.27219, 38.86875 ], [ -77.27314, 38.87184 ], [ -77.2722, 38.87205 ], [ -77.27154, 38.8712 ], [ -77.27053, 38.87137 ], [ -77.26998, 38.87076 ], [ -77.26907, 38.87135 ], [ -77.2681, 38.87124 ], [ -77.26886, 38.86941 ], [ -77.27176, 38.86742 ], [ -77.27047, 38.86687 ], [ -77.26976, 38.86609 ], [ -77.2697, 38.86681 ], [ -77.26924, 38.86702 ], [ -77.26784, 38.86676 ], [ -77.26708, 38.86561 ], [ -77.26599, 38.86563 ], [ -77.26596, 38.8661 ], [ -77.26504, 38.86634 ], [ -77.26457, 38.86483 ], [ -77.26525, 38.86428 ], [ -77.26933, 38.86435 ], [ -77.26919, 38.8621 ], [ -77.26982, 38.86031 ], [ -77.26887, 38.85964 ], [ -77.2689, 38.85825 ], [ -77.26937, 38.85759 ], [ -77.2701, 38.85736 ], [ -77.27075, 38.85457 ], [ -77.27151, 38.85453 ], [ -77.27195, 38.85515 ], [ -77.27137, 38.86036 ], [ -77.27367, 38.85997 ], [ -77.27733, 38.861 ], [ -77.2851, 38.85811 ], [ -77.28342, 38.85675 ], [ -77.28286, 38.85501 ], [ -77.27935, 38.85444 ], [ -77.2783, 38.85364 ], [ -77.27909, 38.85261 ], [ -77.28146, 38.85243 ], [ -77.28228, 38.85165 ], [ -77.28157, 38.84768 ], [ -77.28178, 38.84201 ], [ -77.2826, 38.84196 ], [ -77.28317, 38.84249 ], [ -77.28295, 38.84759 ], [ -77.28346, 38.85103 ], [ -77.28563, 38.85027 ], [ -77.28785, 38.85075 ], [ -77.28818, 38.85035 ], [ -77.2899, 38.8499 ], [ -77.28926, 38.84809 ], [ -77.28825, 38.84767 ], [ -77.28883, 38.8489 ], [ -77.28807, 38.84939 ], [ -77.2875, 38.84908 ], [ -77.28669, 38.84735 ], [ -77.28848, 38.84633 ], [ -77.28962, 38.84634 ], [ -77.29006, 38.8448 ], [ -77.29202, 38.8447 ], [ -77.29198, 38.84379 ], [ -77.29272, 38.84329 ], [ -77.29336, 38.84386 ], [ -77.29347, 38.84554 ], [ -77.29294, 38.84672 ], [ -77.2938, 38.84648 ], [ -77.29416, 38.84578 ], [ -77.29469, 38.84578 ], [ -77.2954, 38.84637 ], [ -77.29546, 38.84746 ], [ -77.29636, 38.84657 ], [ -77.29799, 38.84742 ], [ -77.29827, 38.84674 ], [ -77.29879, 38.84665 ], [ -77.30066, 38.84736 ], [ -77.30297, 38.84624 ], [ -77.30245, 38.84544 ], [ -77.30279, 38.84509 ], [ -77.30421, 38.8452 ], [ -77.30454, 38.84616 ] ], [ [ -77.28601, 38.85705 ], [ -77.28467, 38.85561 ], [ -77.28464, 38.85623 ], [ -77.28636, 38.85742 ], [ -77.28601, 38.85705 ] ], [ [ -77.28692, 38.85239 ], [ -77.2868, 38.85191 ], [ -77.28576, 38.85142 ], [ -77.28547, 38.85253 ], [ -77.28692, 38.85239 ] ], [ [ -77.29293, 38.85676 ], [ -77.29282, 38.85737 ], [ -77.29321, 38.85724 ], [ -77.29327, 38.85674 ], [ -77.29293, 38.85676 ] ], [ [ -77.29475, 38.85636 ], [ -77.2947, 38.85644 ], [ -77.29488, 38.85634 ], [ -77.29475, 38.85636 ] ], [ [ -77.29419, 38.85555 ], [ -77.29415, 38.85551 ], [ -77.29412, 38.85556 ], [ -77.29419, 38.85555 ] ], [ [ -77.29516, 38.85072 ], [ -77.29394, 38.85056 ], [ -77.29366, 38.84959 ], [ -77.29339, 38.85039 ], [ -77.2944, 38.85089 ], [ -77.29516, 38.85072 ] ], [ [ -77.29374, 38.84796 ], [ -77.29375, 38.84801 ], [ -77.29376, 38.84799 ], [ -77.29374, 38.84796 ] ], [ [ -77.30062, 38.85459 ], [ -77.30062, 38.85433 ], [ -77.30018, 38.85495 ], [ -77.30065, 38.85489 ], [ -77.30062, 38.85459 ] ], [ [ -77.30308, 38.85028 ], [ -77.30143, 38.84999 ], [ -77.30308, 38.85036 ], [ -77.30382, 38.85041 ], [ -77.3038, 38.84992 ], [ -77.30308, 38.85028 ] ], [ [ -77.30083, 38.84872 ], [ -77.30073, 38.84888 ], [ -77.30097, 38.84881 ], [ -77.30083, 38.84872 ] ], [ [ -77.30267, 38.84784 ], [ -77.30386, 38.84811 ], [ -77.30414, 38.84723 ], [ -77.30267, 38.84784 ] ], [ [ -77.3027, 38.84912 ], [ -77.30275, 38.84903 ], [ -77.30236, 38.84896 ], [ -77.3027, 38.84912 ] ], [ [ -77.30272, 38.85141 ], [ -77.29966, 38.8507 ], [ -77.29867, 38.85189 ], [ -77.30168, 38.85218 ], [ -77.30272, 38.85141 ] ], [ [ -77.29677, 38.85101 ], [ -77.29554, 38.85188 ], [ -77.29558, 38.85246 ], [ -77.2976, 38.85113 ], [ -77.29677, 38.85101 ] ], [ [ -77.29576, 38.85374 ], [ -77.29649, 38.85452 ], [ -77.29741, 38.85386 ], [ -77.29685, 38.85314 ], [ -77.29576, 38.85374 ] ], [ [ -77.2963, 38.85793 ], [ -77.29642, 38.85818 ], [ -77.29654, 38.85793 ], [ -77.2963, 38.85793 ] ], [ [ -77.29509, 38.85936 ], [ -77.2951, 38.85964 ], [ -77.29535, 38.85943 ], [ -77.29509, 38.85936 ] ], [ [ -77.29071, 38.8597 ], [ -77.29044, 38.85986 ], [ -77.29102, 38.86021 ], [ -77.29071, 38.8597 ] ], [ [ -77.29147, 38.84848 ], [ -77.29143, 38.8486 ], [ -77.29159, 38.84825 ], [ -77.29147, 38.84848 ] ], [ [ -77.29215, 38.85832 ], [ -77.29204, 38.85829 ], [ -77.29201, 38.85833 ], [ -77.29215, 38.85832 ] ], [ [ -77.29213, 38.85654 ], [ -77.29208, 38.8565 ], [ -77.29199, 38.85657 ], [ -77.29213, 38.85654 ] ], [ [ -77.29235, 38.85982 ], [ -77.29238, 38.85985 ], [ -77.29266, 38.85985 ], [ -77.29235, 38.85982 ] ], [ [ -77.28808, 38.85531 ], [ -77.28752, 38.85506 ], [ -77.28794, 38.85551 ], [ -77.28859, 38.85619 ], [ -77.28808, 38.85531 ] ], [ [ -77.28749, 38.85347 ], [ -77.28786, 38.85356 ], [ -77.28751, 38.85319 ], [ -77.28749, 38.85347 ] ], [ [ -77.28682, 38.85407 ], [ -77.28668, 38.85416 ], [ -77.28669, 38.85417 ], [ -77.28682, 38.85407 ] ], [ [ -77.2896, 38.85791 ], [ -77.28957, 38.85803 ], [ -77.28985, 38.85786 ], [ -77.2896, 38.85791 ] ], [ [ -77.28674, 38.86547 ], [ -77.28719, 38.86395 ], [ -77.28561, 38.86412 ], [ -77.28674, 38.86547 ] ], [ [ -77.28512, 38.86289 ], [ -77.28435, 38.86232 ], [ -77.28447, 38.86254 ], [ -77.2844, 38.86297 ], [ -77.28512, 38.86289 ] ], [ [ -77.29312, 38.86284 ], [ -77.29157, 38.86313 ], [ -77.29062, 38.8647 ], [ -77.2909, 38.8654 ], [ -77.29414, 38.86393 ], [ -77.29312, 38.86284 ] ], [ [ -77.27654, 38.86721 ], [ -77.27616, 38.86768 ], [ -77.27661, 38.86792 ], [ -77.27703, 38.8674 ], [ -77.27654, 38.86721 ] ], [ [ -77.27611, 38.86529 ], [ -77.27524, 38.86607 ], [ -77.27604, 38.86607 ], [ -77.27611, 38.86529 ] ], [ [ -77.27598, 38.86177 ], [ -77.27382, 38.86116 ], [ -77.27107, 38.86143 ], [ -77.27095, 38.8617 ], [ -77.2758, 38.86275 ], [ -77.27598, 38.86177 ] ], [ [ -77.2807, 38.8647 ], [ -77.2807, 38.8646 ], [ -77.27978, 38.86471 ], [ -77.27932, 38.86695 ], [ -77.2801, 38.86711 ], [ -77.28043, 38.86781 ], [ -77.2807, 38.8647 ] ], [ [ -77.28207, 38.86201 ], [ -77.28095, 38.86278 ], [ -77.28091, 38.86329 ], [ -77.28265, 38.86316 ], [ -77.28207, 38.86201 ] ], [ [ -77.2801, 38.86145 ], [ -77.27997, 38.86109 ], [ -77.27977, 38.86154 ], [ -77.2801, 38.86145 ] ], [ [ -77.28354, 38.85211 ], [ -77.28259, 38.8531 ], [ -77.28352, 38.85262 ], [ -77.28404, 38.85285 ], [ -77.28405, 38.85225 ], [ -77.28354, 38.85211 ] ], [ [ -77.28216, 38.86451 ], [ -77.28205, 38.8661 ], [ -77.28249, 38.86615 ], [ -77.28283, 38.86458 ], [ -77.28216, 38.86451 ] ], [ [ -77.27777, 38.86243 ], [ -77.27676, 38.86384 ], [ -77.27945, 38.86355 ], [ -77.27949, 38.86325 ], [ -77.27777, 38.86243 ] ], [ [ -77.27368, 38.8658 ], [ -77.27397, 38.86539 ], [ -77.27126, 38.86553 ], [ -77.27161, 38.86594 ], [ -77.27368, 38.8658 ] ], [ [ -77.27308, 38.86338 ], [ -77.27086, 38.86284 ], [ -77.27103, 38.86432 ], [ -77.27346, 38.86423 ], [ -77.27308, 38.86338 ] ] ] } },
{ "type": "Feature", "properties": { "variant": "T0", "miles": 2.0 }, "geometry": { "type": "Polygon", "coordinates": [ [ [ -77.30753, 38.83952 ], [ -77.30815, 38.83952 ], [ -77.30857, 38.84021 ], [ -77.30803, 38.84098 ], [ -77.31003, 38.84183 ], [ -77.3089, 38.84378 ], [ -77.31082, 38.84406 ], [ -77.31119, 38.84435 ], [ -77.31091, 38.84526 ], [ -77.31188, 38.8449 ], [ -77.31264, 38.84503 ], [ -77.31267, 38.8458 ], [ -77.31112, 38.84643 ], [ -77.30872, 38.84619 ], [ -77.31346, 38.84803 ], [ -77.31329, 38.84961 ], [ -77.3129, 38.84989 ], [ -77.31204, 38.84959 ], [ -77.31149, 38.84992 ], [ -77.3138, 38.85074 ], [ -77.31414, 38.85145 ], [ -77.31357, 38.85194 ], [ -77.31181, 38.85211 ], [ -77.31099, 38.85168 ], [ -77.31115, 38.85099 ], [ -77.3103, 38.85069 ], [ -77.30944, 38.85125 ], [ -77.30895, 38.85106 ], [ -77.30874, 38.85025 ], [ -77.3085, 38.85103 ], [ -77.30899, 38.85142 ], [ -77.30835, 38.8521 ], [ -77.31049, 38.85187 ], [ -77.31096, 38.85206 ], [ -77.31108, 38.85292 ], [ -77.31206, 38.85291 ], [ -77.31276, 38.85345 ], [ -77.31208, 38.85399 ], [ -77.30813, 38.85404 ], [ -77.30816, 38.85745 ], [ -77.30878, 38.85773 ], [ -77.30879, 38.85814 ], [ -77.3082, 38.85867 ], [ -77.30828, 38.86139 ], [ -77.30793, 38.8617 ], [ -77.30088, 38.8613 ], [ -77.29453, 38.86266 ], [ -77.29572, 38.86355 ], [ -77.29738, 38.86328 ], [ -77.29813, 38.86262 ], [ -77.30077, 38.86278 ], [ -77.3014, 38.8631 ], [ -77.30151, 38.86378 ], [ -77.30264, 38.86344 ], [ -77.30322, 38.86389 ], [ -77.30467, 38.86415 ], [ -77.30483, 38.86454 ], [ -77.30368, 38.86587 ], [ -77.30358, 38.86713 ], [ -77.30328, 38.86747 ], [ -77.3023, 38.86751 ], [ -77.30169, 38.86868 ], [ -77.30043, 38.86895 ], [ -77.30026, 38.86994 ], [ -77.29837, 38.87029 ], [ -77.29728, 38.86988 ], [ -77.2962, 38.87045 ], [ -77.2955, 38.86997 ], [ -77.29486, 38.87005 ], [ -77.29442, 38.86937 ], [ -77.29546, 38.86877 ], [ -77.29637, 38.86899 ], [ -77.29672, 38.86813 ], [ -77.29413, 38.86761 ], [ -77.2931, 38.86832 ], [ -77.29245, 38.86755 ], [ -77.29066, 38.86721 ], [ -77.28996, 38.86778 ], [ -77.28691, 38.86714 ], [ -77.28807, 38.86852 ], [ -77.28557, 38.86926 ], [ -77.2855, 38.87003 ], [ -77.28484, 38.87055 ], [ -77.28386, 38.87036 ], [ -77.28418, 38.86934 ], [ -77.28065, 38.86909 ], [ -77.28355, 38.86953 ], [ -77.28311, 38.87033 ], [ -77.28006, 38.8702 ], [ -77.27951, 38.8705 ], [ -77.28179, 38.87273 ], [ -77.28452, 38.87147 ], [ -77.2859, 38.87253 ], [ -77.2859, 38.87294 ], [ -77.28481, 38.87317 ], [ -77.28462, 38.87391 ], [ -77.28375, 38.87449 ], [ -77.2853, 38.87574 ], [ -77.28514, 38.87638 ], [ -77.28464, 38.87651 ], [ -77.28319, 38.87633 ], [ -77.28218, 38.87503 ], [ -77.28121, 38.87476 ], [ -77.28001, 38.87579 ], [ -77.27835, 38.87539 ], [ -77.27642, 38.87304 ], [ -77.27548, 38.87291 ], [ -77.27536, 38.87251 ], [ -77.27626, 38.87185 ], [ -77.27489, 38.87136 ], [ -77.2742, 38.8716 ], [ -77.27451, 38.87241 ], [ -77.27349, 38.87275 ], [ -77.27466, 38.87296 ], [ -77.27572, 38.87389 ], [ -77.27636, 38.8758 ], [ -77.27608, 38.87615 ], [ -77.27454, 38.87597 ], [ -77.27451, 38.87493 ], [ -77.27088, 38.87589 ], [ -77.27079, 38.87702 ], [ -77.2704, 38.87729 ], [ -77.26898, 38.87693 ], [ -77.26838, 38.87751 ], [ -77.26785, 38.87748 ], [ -77.26754, 38.8768 ], [ -77.26601, 38.87666 ], [ -77.26478, 38.87562 ], [ -77.26386, 38.87552 ], [ -77.26298, 38.87461 ], [ -77.26184, 38.87511 ], [ -77.26137, 38.87492 ], [ -77.26146, 38.87416 ], [ -77.26216, 38.87374 ], [ -77.26142, 38.87235 ], [ -77.2623, 38.87179 ], [ -77.26274, 38.87001 ], [ -77.26225, 38.86877 ], [ -77.25963, 38.86884 ], [ -77.25914, 38.86867 ], [ -77.25896, 38.86803 ], [ -77.25764, 38.86804 ], [ -77.25734, 38.86731 ], [ -77.25794, 38.86699 ], [ -77.25801, 38.86593 ], [ -77.25513, 38.86597 ], [ -77.25445, 38.86542 ], [ -77.25495, 38.8649 ], [ -77.25585, 38.86472 ], [ -77.25659, 38.8632 ], [ -77.25768, 38.86308 ], [ -77.25833, 38.86256 ], [ -77.26002, 38.86278 ], [ -77.26094, 38.86434 ], [ -77.26933, 38.86435 ], [ -77.26919, 38.8621 ], [ -77.26982, 38.86031 ], [ -77.26878, 38.85922 ], [ -77.26898, 38.85807 ], [ -77.26978, 38.85738 ], [ -77.2695, 38.85507 ], [ -77.26875, 38.8549 ], [ -77.26863, 38.85449 ], [ -77.26873, 38.8523 ], [ -77.26918, 38.85169 ], [ -77.27037, 38.85122 ], [ -77.27154, 38.85138 ], [ -77.27245, 38.84791 ], [ -77.27305, 38.8477 ], [ -77.27381, 38.84814 ], [ -77.27339, 38.85057 ], [ -77.27403, 38.85117 ], [ -77.27352, 38.85376 ], [ -77.27232, 38.85409 ], [ -77.27184, 38.85577 ], [ -77.27144, 38.86036 ], [ -77.27367, 38.85997 ], [ -77.27733, 38.861 ], [ -77.2851, 38.85811 ], [ -77.28342, 38.85675 ], [ -77.28286, 38.85501 ], [ -77.27935, 38.85444 ], [ -77.2783, 38.85364 ], [ -77.27909, 38.85261 ], [ -77.28146, 38.85243 ], [ -77.28228, 38.85165 ], [ -77.28197, 38.85031 ], [ -77.27985, 38.84967 ], [ -77.28012, 38.84893 ], [ -77.28187, 38.84916 ], [ -77.28108, 38.8488 ], [ -77.2804, 38.84772 ], [ -77.28069, 38.84738 ], [ -77.28157, 38.84748 ], [ -77.28172, 38.84588 ], [ -77.28136, 38.84587 ], [ -77.28113, 38.84714 ], [ -77.28016, 38.84711 ], [ -77.27997, 38.84673 ], [ -77.28044, 38.84353 ], [ -77.27962, 38.84404 ], [ -77.27942, 38.84514 ], [ -77.27625, 38.84592 ], [ -77.27546, 38.84546 ], [ -77.27628, 38.8447 ], [ -77.27583, 38.84414 ], [ -77.27631, 38.84304 ], [ -77.27623, 38.84244 ], [ -77.27528, 38.84223 ], [ -77.27522, 38.84155 ], [ -77.27602, 38.84111 ], [ -77.27785, 38.84134 ], [ -77.27805, 38.83903 ], [ -77.28099, 38.83892 ], [ -77.28154, 38.8395 ], [ -77.28155, 38.84122 ], [ -77.28395, 38.84121 ], [ -77.28398, 38.84039 ], [ -77.28303, 38.83997 ], [ -77.28292, 38.83932 ], [ -77.28332, 38.83905 ], [ -77.28401, 38.83922 ], [ -77.28406, 38.8378 ], [ -77.28476, 38.83727 ], [ -77.28544, 38.83782 ], [ -77.28536, 38.84046 ], [ -77.28641, 38.84081 ], [ -77.28685, 38.84033 ], [ -77.28748, 38.84048 ], [ -77.28774, 38.83887 ], [ -77.28871, 38.83889 ], [ -77.28889, 38.83955 ], [ -77.29045, 38.83958 ], [ -77.29126, 38.83911 ], [ -77.29146, 38.83807 ], [ -77.29234, 38.83804 ], [ -77.29255, 38.83757 ], [ -77.29554, 38.83741 ], [ -77.29617, 38.83773 ], [ -77.29674, 38.83741 ], [ -77.29743, 38.83795 ], [ -77.29743, 38.8393 ], [ -77.29913, 38.83933 ], [ -77.3006, 38.84006 ], [ -77.30076, 38.84162 ], [ -77.30031, 38.84229 ], [ -77.3008, 38.84263 ], [ -77.30128, 38.84209 ], [ -77.30181, 38.84206 ], [ -77.30226, 38.84252 ], [ -77.30303, 38.84051 ], [ -77.30609, 38.84059 ], [ -77.30753, 38.83952 ] ], [ [ -77.2828, 38.86443 ], [ -77.28216, 38.86451 ], [ -77.28205, 38.8661 ], [ -77.28249, 38.86615 ], [ -77.2828, 38.86443 ] ], [ [ -77.28512, 38.86289 ], [ -77.28435, 38.86232 ], [ -77.28447, 38.86254 ], [ -77.2844, 38.86297 ], [ -77.28512, 38.86289 ] ], [ [ -77.28601, 38.85705 ], [ -77.28467, 38.85561 ], [ -77.28464, 38.85623 ], [ -77.28636, 38.85742 ], [ -77.28601, 38.85705 ] ], [ [ -77.28405, 38.85202 ], [ -77.28354, 38.85211 ], [ -77.28259, 38.8531 ], [ -77.28352, 38.85262 ], [ -77.28404, 38.85282 ], [ -77.28405, 38.85202 ] ], [ [ -77.28568, 38.85027 ], [ -77.28785, 38.85075 ], [ -77.28818, 38.85035 ], [ -77.2899, 38.8499 ], [ -77.28926, 38.84809 ], [ -77.28825, 38.84767 ], [ -77.2895, 38.84907 ], [ -77.28901, 38.84973 ], [ -77.28819, 38.84953 ], [ -77.28745, 38.84995 ], [ -77.28694, 38.84983 ], [ -77.28669, 38.84947 ], [ -77.2871, 38.84885 ], [ -77.28627, 38.84903 ], [ -77.28563, 38.85008 ], [ -77.28341, 38.85033 ], [ -77.28345, 38.85103 ], [ -77.28568, 38.85027 ] ], [ [ -77.2867, 38.84781 ], [ -77.28682, 38.84715 ], [ -77.28771, 38.84666 ], [ -77.28729, 38.84619 ], [ -77.28625, 38.84642 ], [ -77.28458, 38.84819 ], [ -77.2867, 38.84781 ] ], [ [ -77.28501, 38.84592 ], [ -77.2835, 38.84543 ], [ -77.28337, 38.84411 ], [ -77.2838, 38.84367 ], [ -77.28316, 38.84328 ], [ -77.28313, 38.8458 ], [ -77.28484, 38.84626 ], [ -77.28501, 38.84592 ] ], [ [ -77.30278, 38.85929 ], [ -77.3021, 38.8585 ], [ -77.29821, 38.86008 ], [ -77.29781, 38.86058 ], [ -77.29686, 38.8604 ], [ -77.29688, 38.85971 ], [ -77.29499, 38.86118 ], [ -77.2922, 38.86094 ], [ -77.29089, 38.86176 ], [ -77.2897, 38.86045 ], [ -77.28874, 38.8606 ], [ -77.28865, 38.85973 ], [ -77.28736, 38.85835 ], [ -77.28457, 38.85967 ], [ -77.28563, 38.86188 ], [ -77.28749, 38.86175 ], [ -77.28817, 38.86253 ], [ -77.29274, 38.86168 ], [ -77.29308, 38.86135 ], [ -77.29387, 38.86148 ], [ -77.29734, 38.86083 ], [ -77.30278, 38.85929 ] ], [ [ -77.2963, 38.85793 ], [ -77.29642, 38.85818 ], [ -77.29654, 38.85793 ], [ -77.2963, 38.85793 ] ], [ [ -77.29741, 38.85386 ], [ -77.29696, 38.85308 ], [ -77.29576, 38.85374 ], [ -77.2965, 38.85448 ], [ -77.29741, 38.85386 ] ], [ [ -77.2976, 38.85113 ], [ -77.29677, 38.85101 ], [ -77.29554, 38.85188 ], [ -77.29548, 38.85236 ], [ -77.2976, 38.85113 ] ], [ [ -77.29394, 38.85056 ], [ -77.29366, 38.84959 ], [ -77.29339, 38.85039 ], [ -77.29416, 38.85094 ], [ -77.29516, 38.85072 ], [ -77.29394, 38.85056 ] ], [ [ -77.29602, 38.84295 ], [ -77.29603, 38.8422 ], [ -77.29577, 38.84368 ], [ -77.29602, 38.84295 ] ], [ [ -77.29605, 38.83836 ], [ -77.2958, 38.84086 ], [ -77.29605, 38.83983 ], [ -77.29605, 38.83836 ] ], [ [ -77.30668, 38.85921 ], [ -77.30524, 38.85971 ], [ -77.30585, 38.86018 ], [ -77.30579, 38.86064 ], [ -77.30642, 38.86066 ], [ -77.30668, 38.85921 ] ], [ [ -77.30668, 38.85585 ], [ -77.30614, 38.85585 ], [ -77.30551, 38.85718 ], [ -77.30333, 38.858 ], [ -77.30406, 38.85884 ], [ -77.3064, 38.85799 ], [ -77.30668, 38.85585 ] ], [ [ -77.30646, 38.85456 ], [ -77.30641, 38.85477 ], [ -77.30671, 38.85476 ], [ -77.30646, 38.85456 ] ], [ [ -77.30681, 38.85307 ], [ -77.3069, 38.85247 ], [ -77.30659, 38.85321 ], [ -77.30681, 38.85307 ] ], [ [ -77.30524, 38.84964 ], [ -77.30525, 38.84987 ], [ -77.30589, 38.84979 ], [ -77.30524, 38.84964 ] ], [ [ -77.30548, 38.84751 ], [ -77.30541, 38.84772 ], [ -77.30555, 38.84765 ], [ -77.30548, 38.84751 ] ], [ [ -77.30295, 38.85029 ], [ -77.30143, 38.84999 ], [ -77.30308, 38.85036 ], [ -77.30368, 38.85042 ], [ -77.30378, 38.85007 ], [ -77.30295, 38.85029 ] ], [ [ -77.30391, 38.84718 ], [ -77.30267, 38.84784 ], [ -77.30376, 38.84809 ], [ -77.30391, 38.84718 ] ], [ [ -77.30153, 38.84584 ], [ -77.30094, 38.84723 ], [ -77.30264, 38.84645 ], [ -77.303, 38.84619 ], [ -77.30153, 38.84584 ] ], [ [ -77.30137, 38.84442 ], [ -77.30011, 38.84359 ], [ -77.30012, 38.84426 ], [ -77.30137, 38.84442 ] ], [ [ -77.30829, 38.84219 ], [ -77.30744, 38.84197 ], [ -77.30649, 38.84467 ], [ -77.30829, 38.84219 ] ], [ [ -77.3095, 38.84509 ], [ -77.30912, 38.84497 ], [ -77.30911, 38.84508 ], [ -77.3095, 38.84509 ] ], [ [ -77.30901, 38.8476 ], [ -77.30818, 38.8481 ], [ -77.30696, 38.8478 ], [ -77.30724, 38.84957 ], [ -77.30753, 38.84861 ], [ -77.30822, 38.84829 ], [ -77.30881, 38.84852 ], [ -77.30883, 38.84916 ], [ -77.30999, 38.84958 ], [ -77.31158, 38.84851 ], [ -77.30901, 38.8476 ] ], [ [ -77.30413, 38.8432 ], [ -77.3039, 38.84339 ], [ -77.30514, 38.8436 ], [ -77.30554, 38.84306 ], [ -77.30469, 38.84291 ], [ -77.30413, 38.8432 ] ], [ [ -77.30425, 38.84165 ], [ -77.30424, 38.84174 ], [ -77.30434, 38.8417 ], [ -77.30425, 38.84165 ] ], [ [ -77.30148, 38.8575 ], [ -77.30137, 38.85714 ], [ -77.30136, 38.85717 ], [ -77.30123, 38.85765 ], [ -77.30148, 38.8575 ] ], [ [ -77.30108, 38.85625 ], [ -77.30097, 38.85617 ], [ -77.3006, 38.85604 ], [ -77.30108, 38.85625 ] ], [ [ -77.30062, 38.85459 ], [ -77.30062, 38.85433 ], [ -77.30018, 38.85495 ], [ -77.30062, 38.85459 ] ], [ [ -77.30272, 38.85141 ], [ -77.29966, 38.8507 ], [ -77.29867, 38.85189 ], [ -77.30155, 38.85228 ], [ -77.30272, 38.85141 ] ], [ [ -77.30083, 38.84872 ], [ -77.30073, 38.84888 ], [ -77.30097, 38.84881 ], [ -77.30083, 38.84872 ] ], [ [ -77.30275, 38.84903 ], [ -77.30236, 38.84896 ], [ -77.30234, 38.84904 ], [ -77.30275, 38.84903 ] ], [ [ -77.30495, 38.85517 ], [ -77.30313, 38.85517 ], [ -77.3036, 38.85547 ], [ -77.30495, 38.85517 ] ], [ [ -77.30289, 38.85516 ], [ -77.30214, 38.85513 ], [ -77.30233, 38.85571 ], [ -77.30289, 38.85516 ] ], [ [ -77.30396, 38.85657 ], [ -77.30429, 38.85645 ], [ -77.3042, 38.85643 ], [ -77.30396, 38.85657 ] ], [ [ -77.30353, 38.86031 ], [ -77.30302, 38.8605 ], [ -77.30375, 38.86054 ], [ -77.30353, 38.86031 ] ], [ [ -77.29901, 38.84643 ], [ -77.29927, 38.84686 ], [ -77.30003, 38.84625 ], [ -77.29961, 38.84538 ], [ -77.29911, 38.84532 ], [ -77.29901, 38.84643 ] ], [ [ -77.29875, 38.84266 ], [ -77.29741, 38.84176 ], [ -77.2974, 38.84351 ], [ -77.29778, 38.84395 ], [ -77.29873, 38.84407 ], [ -77.29875, 38.84266 ] ], [ [ -77.29935, 38.8415 ], [ -77.29915, 38.8415 ], [ -77.29926, 38.84158 ], [ -77.29935, 38.8415 ] ], [ [ -77.29778, 38.85842 ], [ -77.29728, 38.85927 ], [ -77.29794, 38.85899 ], [ -77.29778, 38.85842 ] ], [ [ -77.29841, 38.85551 ], [ -77.29784, 38.85606 ], [ -77.29839, 38.85703 ], [ -77.29922, 38.85565 ], [ -77.29841, 38.85551 ] ], [ [ -77.29919, 38.85854 ], [ -77.2995, 38.85843 ], [ -77.29922, 38.85833 ], [ -77.29919, 38.85854 ] ], [ [ -77.29992, 38.85726 ], [ -77.29982, 38.85736 ], [ -77.29989, 38.85738 ], [ -77.29992, 38.85726 ] ], [ [ -77.30087, 38.86746 ], [ -77.30091, 38.86749 ], [ -77.30092, 38.86742 ], [ -77.30087, 38.86746 ] ], [ [ -77.29318, 38.86295 ], [ -77.29154, 38.86323 ], [ -77.29062, 38.8647 ], [ -77.2909, 38.8654 ], [ -77.29411, 38.8639 ], [ -77.29318, 38.86295 ] ], [ [ -77.28834, 38.86457 ], [ -77.28794, 38.86612 ], [ -77.28956, 38.86569 ], [ -77.28924, 38.86463 ], [ -77.2898, 38.86355 ], [ -77.28918, 38.86366 ], [ -77.28834, 38.86457 ] ], [ [ -77.29686, 38.86645 ], [ -77.29677, 38.86635 ], [ -77.29671, 38.86638 ], [ -77.29686, 38.86645 ] ], [ [ -77.29583, 38.86682 ], [ -77.29563, 38.86692 ], [ -77.29581, 38.86694 ], [ -77.29583, 38.86682 ] ], [ [ -77.29603, 38.86544 ], [ -77.29585, 38.86523 ], [ -77.29576, 38.86544 ], [ -77.29603, 38.86544 ] ], [ [ -77.29293, 38.85676 ], [ -77.29282, 38.85737 ], [ -77.29321, 38.85724 ], [ -77.29327, 38.85674 ], [ -77.29293, 38.85676 ] ], [ [ -77.29475, 38.85636 ], [ -77.2947, 38.85644 ], [ -77.29488, 38.85634 ], [ -77.29475, 38.85636 ] ], [ [ -77.29415, 38.85551 ], [ -77.29412, 38.85556 ], [ -77.29419, 38.85555 ], [ -77.29415, 38.85551 ] ], [ [ -77.28784, 38.84527 ], [ -77.28733, 38.84578 ], [ -77.28739, 38.84601 ], [ -77.28784, 38.84527 ] ], [ [ -77.28686, 38.84377 ], [ -77.28668, 38.84405 ], [ -77.28899, 38.84433 ], [ -77.28686, 38.84377 ] ], [ [ -77.28918, 38.84064 ], [ -77.28886, 38.84063 ], [ -77.28878, 38.84278 ], [ -77.2891, 38.84282 ], [ -77.28918, 38.84064 ] ], [ [ -77.29374, 38.84796 ], [ -77.29375, 38.84801 ], [ -77.29377, 38.84798 ], [ -77.29374, 38.84796 ] ], [ [ -77.29356, 38.84659 ], [ -77.29328, 38.84629 ], [ -77.29294, 38.84672 ], [ -77.29356, 38.84659 ] ], [ [ -77.29239, 38.84099 ], [ -77.29111, 38.84175 ], [ -77.29057, 38.84112 ], [ -77.29094, 38.8406 ], [ -77.29056, 38.84066 ], [ -77.29048, 38.843 ], [ -77.2927, 38.84328 ], [ -77.29239, 38.84099 ] ], [ [ -77.29549, 38.84715 ], [ -77.29546, 38.84746 ], [ -77.2955, 38.84725 ], [ -77.29549, 38.84715 ] ], [ [ -77.29381, 38.84144 ], [ -77.29407, 38.84216 ], [ -77.29442, 38.8419 ], [ -77.29442, 38.83993 ], [ -77.29387, 38.83945 ], [ -77.29372, 38.8385 ], [ -77.29381, 38.84144 ] ], [ [ -77.29469, 38.84479 ], [ -77.29504, 38.84494 ], [ -77.29503, 38.84478 ], [ -77.29444, 38.8447 ], [ -77.29469, 38.84479 ] ], [ [ -77.29548, 38.84698 ], [ -77.29552, 38.8467 ], [ -77.29547, 38.8467 ], [ -77.29548, 38.84698 ] ], [ [ -77.29535, 38.85943 ], [ -77.29509, 38.85936 ], [ -77.2951, 38.85964 ], [ -77.29535, 38.85943 ] ], [ [ -77.29032, 38.84463 ], [ -77.29202, 38.8447 ], [ -77.29199, 38.84439 ], [ -77.29042, 38.84419 ], [ -77.29032, 38.84463 ] ], [ [ -77.28961, 38.84633 ], [ -77.28962, 38.84634 ], [ -77.28962, 38.84633 ], [ -77.28961, 38.84633 ] ], [ [ -77.29143, 38.8486 ], [ -77.29159, 38.84825 ], [ -77.29155, 38.84832 ], [ -77.29143, 38.8486 ] ], [ [ -77.29208, 38.8565 ], [ -77.29199, 38.85657 ], [ -77.29213, 38.85654 ], [ -77.29208, 38.8565 ] ], [ [ -77.29201, 38.85833 ], [ -77.29215, 38.85832 ], [ -77.29204, 38.85829 ], [ -77.29201, 38.85833 ] ], [ [ -77.28957, 38.85803 ], [ -77.28981, 38.85779 ], [ -77.2896, 38.85791 ], [ -77.28957, 38.85803 ] ], [ [ -77.29238, 38.85985 ], [ -77.29266, 38.85985 ], [ -77.29266, 38.85984 ], [ -77.29238, 38.85985 ] ], [ [ -77.29044, 38.85986 ], [ -77.29102, 38.86021 ], [ -77.29104, 38.8602 ], [ -77.29044, 38.85986 ] ], [ [ -77.28749, 38.85347 ], [ -77.28782, 38.85358 ], [ -77.28751, 38.85319 ], [ -77.28749, 38.85347 ] ], [ [ -77.28576, 38.85142 ], [ -77.28545, 38.85156 ], [ -77.28547, 38.85253 ], [ -77.28685, 38.85217 ], [ -77.28576, 38.85142 ] ], [ [ -77.2886, 38.85621 ], [ -77.28881, 38.8561 ], [ -77.28775, 38.85496 ], [ -77.2886, 38.85621 ] ], [ [ -77.28682, 38.85407 ], [ -77.28668, 38.85416 ], [ -77.28669, 38.85417 ], [ -77.28682, 38.85407 ] ], [ [ -77.28719, 38.86395 ], [ -77.28561, 38.86412 ], [ -77.28644, 38.86553 ], [ -77.28719, 38.86395 ] ], [ [ -77.28574, 38.86707 ], [ -77.28607, 38.86727 ], [ -77.28641, 38.86711 ], [ -77.28574, 38.86707 ] ], [ [ -77.28623, 38.84143 ], [ -77.28585, 38.84154 ], [ -77.28742, 38.84225 ], [ -77.28744, 38.84179 ], [ -77.28678, 38.84189 ], [ -77.28623, 38.84143 ] ], [ [ -77.27409, 38.87024 ], [ -77.27339, 38.86789 ], [ -77.27238, 38.86861 ], [ -77.27387, 38.87047 ], [ -77.27409, 38.87024 ] ], [ [ -77.27368, 38.8658 ], [ -77.27397, 38.86539 ], [ -77.27126, 38.86553 ], [ -77.27161, 38.86594 ], [ -77.27368, 38.8658 ] ], [ [ -77.27308, 38.86338 ], [ -77.27086, 38.86284 ], [ -77.27103, 38.86432 ], [ -77.27333, 38.86424 ], [ -77.27308, 38.86338 ] ], [ [ -77.2758, 38.86275 ], [ -77.27631, 38.86201 ], [ -77.27382, 38.86116 ], [ -77.27107, 38.86143 ], [ -77.27102, 38.86172 ], [ -77.2758, 38.86275 ] ], [ [ -77.2807, 38.8647 ], [ -77.2807, 38.8646 ], [ -77.27978, 38.86471 ], [ -77.27932, 38.86695 ], [ -77.2801, 38.86711 ], [ -77.28043, 38.86781 ], [ -77.2807, 38.8647 ] ], [ [ -77.28207, 38.86201 ], [ -77.28095, 38.86278 ], [ -77.28091, 38.86329 ], [ -77.28265, 38.86316 ], [ -77.28207, 38.86201 ] ], [ [ -77.27676, 38.86384 ], [ -77.27945, 38.86355 ], [ -77.27949, 38.86324 ], [ -77.27769, 38.86253 ], [ -77.27676, 38.86384 ] ], [ [ -77.2801, 38.86145 ], [ -77.27997, 38.86109 ], [ -77.27977, 38.86154 ], [ -77.2801, 38.86145 ] ], [ [ -77.28017, 38.83993 ], [ -77.27923, 38.83994 ], [ -77.27923, 38.84152 ], [ -77.28017, 38.84164 ], [ -77.28017, 38.83993 ] ], [ [ -77.28306, 38.84689 ], [ -77.28301, 38.8478 ], [ -77.28371, 38.84732 ], [ -77.28361, 38.84695 ], [ -77.28306, 38.84689 ] ], [ [ -77.2833, 38.86742 ], [ -77.28187, 38.86722 ], [ -77.28183, 38.86772 ], [ -77.28299, 38.86784 ], [ -77.2833, 38.86742 ] ], [ [ -77.27784, 38.87074 ], [ -77.27729, 38.87134 ], [ -77.27774, 38.87113 ], [ -77.27784, 38.87074 ] ], [ [ -77.27616, 38.86768 ], [ -77.27661, 38.86792 ], [ -77.27716, 38.86724 ], [ -77.27654, 38.86721 ], [ -77.27616, 38.86768 ] ], [ [ -77.27803, 38.87294 ], [ -77.27814, 38.8722 ], [ -77.27759, 38.87247 ], [ -77.27903, 38.87439 ], [ -77.27962, 38.87461 ], [ -77.27803, 38.87294 ] ], [ [ -77.28004, 38.87332 ], [ -77.28056, 38.87364 ], [ -77.27923, 38.87238 ], [ -77.28004, 38.87332 ] ], [ [ -77.27879, 38.87196 ], [ -77.2782, 38.87218 ], [ -77.27923, 38.87238 ], [ -77.27879, 38.87196 ] ], [ [ -77.27559, 38.86559 ], [ -77.27524, 38.86607 ], [ -77.27604, 38.86607 ], [ -77.27588, 38.8654 ], [ -77.27559, 38.86559 ] ], [ [ -77.27094, 38.87467 ], [ -77.27075, 38.87469 ], [ -77.27076, 38.8748 ], [ -77.27094, 38.87467 ] ], [ [ -77.2684, 38.86941 ], [ -77.26866, 38.86975 ], [ -77.26892, 38.86936 ], [ -77.26813, 38.8687 ], [ -77.26792, 38.8677 ], [ -77.26733, 38.86815 ], [ -77.26689, 38.86804 ], [ -77.26744, 38.86935 ], [ -77.2684, 38.86941 ] ], [ [ -77.27176, 38.86742 ], [ -77.27047, 38.86687 ], [ -77.26976, 38.86609 ], [ -77.2697, 38.86681 ], [ -77.26926, 38.86701 ], [ -77.26941, 38.86827 ], [ -77.26995, 38.86862 ], [ -77.27176, 38.86742 ] ], [ [ -77.26865, 38.86983 ], [ -77.26839, 38.87028 ], [ -77.26854, 38.87016 ], [ -77.26865, 38.86983 ] ], [ [ -77.26787, 38.86685 ], [ -77.26781, 38.86674 ], [ -77.26784, 38.86683 ], [ -77.26787, 38.86685 ] ], [ [ -77.26659, 38.87527 ], [ -77.26546, 38.87389 ], [ -77.26472, 38.87397 ], [ -77.26667, 38.8757 ], [ -77.26744, 38.87562 ], [ -77.26659, 38.87527 ] ], [ [ -77.26666, 38.87334 ], [ -77.26726, 38.87357 ], [ -77.26695, 38.87272 ], [ -77.26666, 38.87334 ] ], [ [ -77.26358, 38.86584 ], [ -77.26267, 38.86567 ], [ -77.2641, 38.86973 ], [ -77.26368, 38.87153 ], [ -77.26483, 38.87126 ], [ -77.26507, 38.87058 ], [ -77.26455, 38.86962 ], [ -77.26494, 38.86905 ], [ -77.26423, 38.86886 ], [ -77.26376, 38.86806 ], [ -77.26358, 38.86584 ] ], [ [ -77.26129, 38.86587 ], [ -77.26107, 38.86588 ], [ -77.26107, 38.86598 ], [ -77.26129, 38.86587 ] ], [ [ -77.2598, 38.867 ], [ -77.25969, 38.8659 ], [ -77.2594, 38.86591 ], [ -77.25933, 38.86698 ], [ -77.2598, 38.867 ] ], [ [ -77.26416, 38.87265 ], [ -77.26428, 38.87292 ], [ -77.2654, 38.8728 ], [ -77.26542, 38.87238 ], [ -77.26416, 38.87265 ] ] ] } },
{ "type": "Feature", "properties": { "variant": "T2s", "miles": 1.0 }, "geometry": { "type": "MultiPolygon", "coordinates": [ [ [ [ -77.2985, 38.85039 ], [ -77.29938, 38.85084 ], [ -77.29867, 38.85189 ], [ -77.29926, 38.85235 ], [ -77.29905, 38.8531 ], [ -77.29745, 38.85336 ], [ -77.29696, 38.85308 ], [ -77.29576, 38.85374 ], [ -77.2984, 38.85699 ], [ -77.29735, 38.85919 ], [ -77.29513, 38.86113 ], [ -77.2922, 38.86094 ], [ -77.29089, 38.86176 ], [ -77.2897, 38.86045 ], [ -77.28874, 38.8606 ], [ -77.28865, 38.85973 ], [ -77.28736, 38.85835 ], [ -77.28405, 38.85985 ], [ -77.28412, 38.86062 ], [ -77.28529, 38.86185 ], [ -77.2851, 38.86223 ], [ -77.28435, 38.86232 ], [ -77.28438, 38.86295 ], [ -77.2829, 38.8633 ], [ -77.28207, 38.86201 ], [ -77.28052, 38.86291 ], [ -77.2784, 38.86211 ], [ -77.27784, 38.86235 ], [ -77.27583, 38.86488 ], [ -77.27462, 38.86487 ], [ -77.27299, 38.86376 ], [ -77.27353, 38.86312 ], [ -77.27511, 38.86374 ], [ -77.27631, 38.86201 ], [ -77.27629, 38.86117 ], [ -77.28445, 38.85842 ], [ -77.28636, 38.85742 ], [ -77.28372, 38.85459 ], [ -77.28227, 38.85508 ], [ -77.27955, 38.8545 ], [ -77.2785, 38.85397 ], [ -77.27843, 38.85323 ], [ -77.27939, 38.85311 ], [ -77.28232, 38.854 ], [ -77.28416, 38.85337 ], [ -77.28749, 38.8568 ], [ -77.28881, 38.8561 ], [ -77.2869, 38.85431 ], [ -77.28704, 38.85356 ], [ -77.28786, 38.85356 ], [ -77.28681, 38.85177 ], [ -77.28736, 38.85113 ], [ -77.28863, 38.85128 ], [ -77.28847, 38.85054 ], [ -77.28891, 38.85011 ], [ -77.29085, 38.85005 ], [ -77.2912, 38.85074 ], [ -77.2904, 38.85143 ], [ -77.29103, 38.85203 ], [ -77.29145, 38.85166 ], [ -77.29323, 38.85159 ], [ -77.2936, 38.85105 ], [ -77.29548, 38.85174 ], [ -77.29558, 38.85246 ], [ -77.2985, 38.85039 ] ], [ [ -77.29071, 38.8597 ], [ -77.29044, 38.85986 ], [ -77.29078, 38.85992 ], [ -77.29104, 38.8602 ], [ -77.29071, 38.8597 ] ], [ [ -77.29293, 38.85676 ], [ -77.29282, 38.85737 ], [ -77.29321, 38.85724 ], [ -77.29327, 38.85674 ], [ -77.29293, 38.85676 ] ], [ [ -77.29475, 38.85636 ], [ -77.2947, 38.85644 ], [ -77.29488, 38.85634 ], [ -77.29475, 38.85636 ] ], [ [ -77.29419, 38.85555 ], [ -77.29415, 38.85551 ], [ -77.29412, 38.85556 ], [ -77.29419, 38.85555 ] ], [ [ -77.29513, 38.85856 ], [ -77.2951, 38.85964 ], [ -77.29565, 38.85918 ], [ -77.29513, 38.85856 ] ], [ [ -77.29642, 38.85818 ], [ -77.29662, 38.85777 ], [ -77.2963, 38.85793 ], [ -77.29642, 38.85818 ] ], [ [ -77.29243, 38.85983 ], [ -77.29235, 38.85982 ], [ -77.29238, 38.85985 ], [ -77.29266, 38.85985 ], [ -77.29243, 38.85983 ] ], [ [ -77.29208, 38.8565 ], [ -77.29199, 38.85657 ], [ -77.29213, 38.85654 ], [ -77.29208, 38.8565 ] ], [ [ -77.29204, 38.85829 ], [ -77.29201, 38.85833 ], [ -77.29215, 38.85832 ], [ -77.29204, 38.85829 ] ], [ [ -77.27977, 38.86154 ], [ -77.28019, 38.86175 ], [ -77.27997, 38.86109 ], [ -77.27977, 38.86154 ] ], [ [ -77.2896, 38.85791 ], [ -77.28957, 38.85803 ], [ -77.28985, 38.85786 ], [ -77.2896, 38.85791 ] ] ], [ [ [ -77.28351, 38.86372 ], [ -77.28293, 38.86433 ], [ -77.28031, 38.86464 ], [ -77.27952, 38.86419 ], [ -77.2801, 38.86358 ], [ -77.2829, 38.8633 ], [ -77.28351, 38.86372 ] ] ] ] } },
{ "type": "Feature", "properties": { "variant": "T2s", "miles": 1.5 }, "geometry": { "type": "Polygon", "coordinates": [ [ [ -77.30427, 38.84522 ], [ -77.30454, 38.84616 ], [ -77.3056, 38.84656 ], [ -77.30525, 38.84987 ], [ -77.30607, 38.84983 ], [ -77.30707, 38.85134 ], [ -77.30639, 38.85485 ], [ -77.30559, 38.85525 ], [ -77.30214, 38.85513 ], [ -77.30202, 38.85594 ], [ -77.30054, 38.85603 ], [ -77.30014, 38.85685 ], [ -77.29961, 38.85692 ], [ -77.29918, 38.85668 ], [ -77.29922, 38.85565 ], [ -77.29841, 38.85551 ], [ -77.29784, 38.85606 ], [ -77.2984, 38.85699 ], [ -77.29751, 38.85896 ], [ -77.29481, 38.86124 ], [ -77.2922, 38.86094 ], [ -77.29089, 38.86176 ], [ -77.2897, 38.86045 ], [ -77.28874, 38.8606 ], [ -77.28865, 38.85973 ], [ -77.28736, 38.85835 ], [ -77.28405, 38.85985 ], [ -77.28412, 38.86062 ], [ -77.28529, 38.86185 ], [ -77.2851, 38.86223 ], [ -77.28435, 38.86232 ], [ -77.2841, 38.86311 ], [ -77.29069, 38.86219 ], [ -77.29152, 38.86258 ], [ -77.29101, 38.86324 ], [ -77.28888, 38.86375 ], [ -77.28801, 38.86603 ], [ -77.28685, 38.86693 ], [ -77.28509, 38.86672 ], [ -77.28429, 38.86728 ], [ -77.28187, 38.86722 ], [ -77.28183, 38.86772 ], [ -77.28328, 38.86802 ], [ -77.2861, 38.86793 ], [ -77.2867, 38.86853 ], [ -77.28636, 38.86905 ], [ -77.28492, 38.8694 ], [ -77.27979, 38.86898 ], [ -77.27867, 38.86919 ], [ -77.27912, 38.87028 ], [ -77.27826, 38.87064 ], [ -77.27609, 38.86889 ], [ -77.27625, 38.86838 ], [ -77.27728, 38.86793 ], [ -77.27784, 38.86678 ], [ -77.27726, 38.86642 ], [ -77.27621, 38.86648 ], [ -77.27611, 38.86529 ], [ -77.27462, 38.86697 ], [ -77.27526, 38.86735 ], [ -77.27467, 38.86808 ], [ -77.27114, 38.86722 ], [ -77.26976, 38.86609 ], [ -77.26917, 38.86667 ], [ -77.26841, 38.86645 ], [ -77.26842, 38.86507 ], [ -77.26937, 38.86464 ], [ -77.26919, 38.8621 ], [ -77.27076, 38.85456 ], [ -77.27171, 38.85473 ], [ -77.2718, 38.85513 ], [ -77.27137, 38.86036 ], [ -77.27367, 38.85997 ], [ -77.27733, 38.861 ], [ -77.2851, 38.85811 ], [ -77.28342, 38.85675 ], [ -77.28286, 38.85501 ], [ -77.27918, 38.85439 ], [ -77.2785, 38.85397 ], [ -77.27836, 38.8533 ], [ -77.27923, 38.85255 ], [ -77.28146, 38.85243 ], [ -77.28194, 38.852 ], [ -77.28232, 38.84963 ], [ -77.28329, 38.84968 ], [ -77.28346, 38.85103 ], [ -77.28563, 38.85027 ], [ -77.28785, 38.85075 ], [ -77.28818, 38.85035 ], [ -77.2899, 38.8499 ], [ -77.28926, 38.84809 ], [ -77.28832, 38.84764 ], [ -77.28847, 38.84818 ], [ -77.28767, 38.84862 ], [ -77.28665, 38.84754 ], [ -77.28832, 38.84639 ], [ -77.28962, 38.84634 ], [ -77.29025, 38.84467 ], [ -77.29322, 38.84492 ], [ -77.29345, 38.84581 ], [ -77.29294, 38.84672 ], [ -77.2938, 38.84648 ], [ -77.29416, 38.84578 ], [ -77.29469, 38.84578 ], [ -77.2954, 38.84637 ], [ -77.29546, 38.84746 ], [ -77.29636, 38.84657 ], [ -77.29799, 38.84742 ], [ -77.29827, 38.84674 ], [ -77.29879, 38.84665 ], [ -77.30066, 38.84736 ], [ -77.30286, 38.84633 ], [ -77.30372, 38.84521 ], [ -77.30427, 38.84522 ] ], [ [ -77.29071, 38.8597 ], [ -77.29044, 38.85986 ], [ -77.29078, 38.85992 ], [ -77.29104, 38.8602 ], [ -77.29071, 38.8597 ] ], [ [ -77.28775, 38.85496 ], [ -77.28752, 38.85506 ], [ -77.2886, 38.85621 ], [ -77.28775, 38.85496 ] ], [ [ -77.28692, 38.85239 ], [ -77.2868, 38.85191 ], [ -77.28576, 38.85142 ], [ -77.28547, 38.85253 ], [ -77.28692, 38.85239 ] ], [ [ -77.29576, 38.85374 ], [ -77.29649, 38.85452 ], [ -77.29741, 38.85386 ], [ -77.29697, 38.85309 ], [ -77.29576, 38.85374 ] ], [ [ -77.29516, 38.85072 ], [ -77.29394, 38.85056 ], [ -77.29366, 38.84959 ], [ -77.29339, 38.85039 ], [ -77.2944, 38.85089 ], [ -77.29516, 38.85072 ] ], [ [ -77.29374, 38.84796 ], [ -77.29375, 38.84801 ], [ -77.29376, 38.84799 ], [ -77.29374, 38.84796 ] ], [ [ -77.30062, 38.85433 ], [ -77.30018, 38.85495 ], [ -77.30067, 38.85496 ], [ -77.30062, 38.85433 ] ], [ [ -77.30131, 38.85237 ], [ -77.30272, 38.85141 ], [ -77.29966, 38.8507 ], [ -77.29867, 38.85189 ], [ -77.30131, 38.85237 ] ], [ [ -77.30308, 38.85028 ], [ -77.30143, 38.84999 ], [ -77.30308, 38.85036 ], [ -77.30382, 38.85041 ], [ -77.3038, 38.84992 ], [ -77.30308, 38.85028 ] ], [ [ -77.30083, 38.84872 ], [ -77.30073, 38.84888 ], [ -77.30097, 38.84881 ], [ -77.30083, 38.84872 ] ], [ [ -77.30267, 38.84784 ], [ -77.30386, 38.84811 ], [ -77.30414, 38.84723 ], [ -77.30267, 38.84784 ] ], [ [ -77.30275, 38.84903 ], [ -77.30236, 38.84896 ], [ -77.30234, 38.84904 ], [ -77.30275, 38.84903 ] ], [ [ -77.29677, 38.85101 ], [ -77.29554, 38.85188 ], [ -77.29558, 38.85246 ], [ -77.2976, 38.85113 ], [ -77.29677, 38.85101 ] ], [ [ -77.2951, 38.85964 ], [ -77.29535, 38.85943 ], [ -77.29509, 38.85936 ], [ -77.2951, 38.85964 ] ], [ [ -77.29475, 38.85636 ], [ -77.2947, 38.85644 ], [ -77.29488, 38.85634 ], [ -77.29475, 38.85636 ] ], [ [ -77.29415, 38.85551 ], [ -77.29412, 38.85556 ], [ -77.29419, 38.85555 ], [ -77.29415, 38.85551 ] ], [ [ -77.29147, 38.84848 ], [ -77.29143, 38.8486 ], [ -77.2917, 38.84843 ], [ -77.29147, 38.84848 ] ], [ [ -77.29293, 38.85676 ], [ -77.2929, 38.8574 ], [ -77.29321, 38.85724 ], [ -77.29293, 38.85676 ] ], [ [ -77.29199, 38.85657 ], [ -77.29213, 38.85654 ], [ -77.29208, 38.8565 ], [ -77.29199, 38.85657 ] ], [ [ -77.29235, 38.85982 ], [ -77.29238, 38.85985 ], [ -77.29266, 38.85985 ], [ -77.29235, 38.85982 ] ], [ [ -77.29201, 38.85833 ], [ -77.29215, 38.85832 ], [ -77.29204, 38.85829 ], [ -77.29201, 38.85833 ] ], [ [ -77.28682, 38.85407 ], [ -77.28668, 38.85416 ], [ -77.28669, 38.85417 ], [ -77.28682, 38.85407 ] ], [ [ -77.28749, 38.85347 ], [ -77.28786, 38.85356 ], [ -77.28751, 38.85319 ], [ -77.28749, 38.85347 ] ], [ [ -77.2807, 38.8647 ], [ -77.2807, 38.8646 ], [ -77.27978, 38.86471 ], [ -77.27932, 38.86695 ], [ -77.2801, 38.86711 ], [ -77.28043, 38.86781 ], [ -77.2807, 38.8647 ] ], [ [ -77.28282, 38.86325 ], [ -77.28207, 38.86201 ], [ -77.28052, 38.86291 ], [ -77.2784, 38.86211 ], [ -77.27669, 38.86396 ], [ -77.28282, 38.86325 ] ], [ [ -77.27631, 38.86201 ], [ -77.27493, 38.8614 ], [ -77.27382, 38.86116 ], [ -77.27103, 38.86144 ], [ -77.27095, 38.8617 ], [ -77.27196, 38.86206 ], [ -77.27582, 38.86271 ], [ -77.27631, 38.86201 ] ], [ [ -77.28019, 38.86175 ], [ -77.27997, 38.86109 ], [ -77.27998, 38.86136 ], [ -77.28019, 38.86175 ] ], [ [ -77.28553, 38.85653 ], [ -77.28467, 38.85561 ], [ -77.28464, 38.85623 ], [ -77.28623, 38.85748 ], [ -77.28553, 38.85653 ] ], [ [ -77.2896, 38.85791 ], [ -77.28957, 38.85803 ], [ -77.28985, 38.85786 ], [ -77.2896, 38.85791 ] ], [ [ -77.28352, 38.85262 ], [ -77.28404, 38.85285 ], [ -77.28405, 38.85202 ], [ -77.28354, 38.85211 ], [ -77.28286, 38.85308 ], [ -77.28352, 38.85262 ] ], [ [ -77.28674, 38.86547 ], [ -77.28719, 38.86395 ], [ -77.28561, 38.86412 ], [ -77.28674, 38.86547 ] ], [ [ -77.28205, 38.8661 ], [ -77.28249, 38.86615 ], [ -77.28297, 38.86488 ], [ -77.2828, 38.86443 ], [ -77.28216, 38.86457 ], [ -77.28205, 38.8661 ] ], [ [ -77.28367, 38.86316 ], [ -77.2835, 38.86314 ], [ -77.28346, 38.86318 ], [ -77.28367, 38.86316 ] ], [ [ -77.27254, 38.8655 ], [ -77.27126, 38.86553 ], [ -77.27161, 38.86594 ], [ -77.27298, 38.86581 ], [ -77.27351, 38.86608 ], [ -77.2737, 38.86541 ], [ -77.27254, 38.8655 ] ], [ [ -77.27086, 38.86284 ], [ -77.27103, 38.86432 ], [ -77.27353, 38.86422 ], [ -77.27306, 38.86338 ], [ -77.27086, 38.86284 ] ] ] } },
{ "type": "Feature", "properties": { "variant": "T2s", "miles": 2.0 }, "geometry": { "type": "MultiPolygon", "coordinates": [ [ [ [ -77.30753, 38.83952 ], [ -77.30854, 38.8398 ], [ -77.30803, 38.84098 ], [ -77.31003, 38.84183 ], [ -77.3089, 38.84378 ], [ -77.31082, 38.84406 ], [ -77.31119, 38.84435 ], [ -77.31082, 38.84543 ], [ -77.3115, 38.84578 ], [ -77.31145, 38.84619 ], [ -77.31042, 38.8465 ], [ -77.30799, 38.84588 ], [ -77.30765, 38.84544 ], [ -77.30717, 38.84666 ], [ -77.3081, 38.84654 ], [ -77.30903, 38.84771 ], [ -77.30818, 38.8481 ], [ -77.30696, 38.8478 ], [ -77.30701, 38.84818 ], [ -77.30724, 38.84957 ], [ -77.30829, 38.85014 ], [ -77.30852, 38.85091 ], [ -77.30823, 38.85137 ], [ -77.30711, 38.85154 ], [ -77.30627, 38.85529 ], [ -77.30565, 38.85567 ], [ -77.30604, 38.85625 ], [ -77.30562, 38.8571 ], [ -77.29821, 38.86008 ], [ -77.29781, 38.86058 ], [ -77.29686, 38.8604 ], [ -77.29688, 38.85971 ], [ -77.29499, 38.86118 ], [ -77.2922, 38.86094 ], [ -77.29142, 38.86171 ], [ -77.29047, 38.86151 ], [ -77.2897, 38.86045 ], [ -77.28874, 38.8606 ], [ -77.28865, 38.85973 ], [ -77.28736, 38.85835 ], [ -77.28405, 38.85985 ], [ -77.28412, 38.86062 ], [ -77.28529, 38.86185 ], [ -77.2851, 38.86223 ], [ -77.28435, 38.86232 ], [ -77.2841, 38.86311 ], [ -77.28856, 38.86258 ], [ -77.30133, 38.86008 ], [ -77.30171, 38.86079 ], [ -77.30133, 38.86108 ], [ -77.29448, 38.86259 ], [ -77.29572, 38.86355 ], [ -77.29778, 38.86323 ], [ -77.29852, 38.86347 ], [ -77.29819, 38.86425 ], [ -77.29885, 38.86467 ], [ -77.29869, 38.86532 ], [ -77.29937, 38.8655 ], [ -77.29933, 38.86626 ], [ -77.29738, 38.86673 ], [ -77.29677, 38.86635 ], [ -77.2931, 38.86832 ], [ -77.29245, 38.86755 ], [ -77.29149, 38.86732 ], [ -77.29066, 38.86721 ], [ -77.29045, 38.86763 ], [ -77.28908, 38.86775 ], [ -77.28691, 38.86714 ], [ -77.28807, 38.86852 ], [ -77.28557, 38.86926 ], [ -77.2855, 38.87003 ], [ -77.28484, 38.87055 ], [ -77.28386, 38.87036 ], [ -77.28418, 38.86934 ], [ -77.28065, 38.86909 ], [ -77.28355, 38.86953 ], [ -77.28311, 38.87033 ], [ -77.28006, 38.8702 ], [ -77.27951, 38.8705 ], [ -77.28179, 38.87273 ], [ -77.28402, 38.87154 ], [ -77.28497, 38.87171 ], [ -77.2845, 38.8726 ], [ -77.28474, 38.8737 ], [ -77.28375, 38.87449 ], [ -77.28471, 38.87556 ], [ -77.28398, 38.87607 ], [ -77.27784, 38.87074 ], [ -77.27709, 38.87098 ], [ -77.27644, 38.87041 ], [ -77.27545, 38.87071 ], [ -77.27397, 38.87019 ], [ -77.27339, 38.86789 ], [ -77.27238, 38.86861 ], [ -77.27342, 38.86958 ], [ -77.27343, 38.86997 ], [ -77.27258, 38.87048 ], [ -77.27398, 38.87066 ], [ -77.27451, 38.87241 ], [ -77.27261, 38.87319 ], [ -77.27276, 38.87369 ], [ -77.27226, 38.8741 ], [ -77.27071, 38.87333 ], [ -77.26983, 38.87359 ], [ -77.26922, 38.87433 ], [ -77.26845, 38.87371 ], [ -77.26772, 38.87367 ], [ -77.26682, 38.87256 ], [ -77.2656, 38.87209 ], [ -77.26537, 38.87045 ], [ -77.26597, 38.86985 ], [ -77.26788, 38.87051 ], [ -77.26868, 38.87009 ], [ -77.26892, 38.86936 ], [ -77.26802, 38.86846 ], [ -77.26774, 38.86633 ], [ -77.26851, 38.86495 ], [ -77.26936, 38.86468 ], [ -77.26919, 38.8621 ], [ -77.26982, 38.86031 ], [ -77.26878, 38.85922 ], [ -77.26898, 38.85807 ], [ -77.2701, 38.85736 ], [ -77.27032, 38.85537 ], [ -77.26906, 38.85386 ], [ -77.26967, 38.85326 ], [ -77.27084, 38.85359 ], [ -77.2724, 38.84796 ], [ -77.27335, 38.84779 ], [ -77.27366, 38.84812 ], [ -77.2733, 38.8504 ], [ -77.27403, 38.85117 ], [ -77.27352, 38.85376 ], [ -77.27232, 38.85409 ], [ -77.27184, 38.85577 ], [ -77.27144, 38.86036 ], [ -77.27367, 38.85997 ], [ -77.27733, 38.861 ], [ -77.2851, 38.85811 ], [ -77.28342, 38.85675 ], [ -77.28286, 38.85501 ], [ -77.27935, 38.85444 ], [ -77.2783, 38.85364 ], [ -77.27909, 38.85261 ], [ -77.28146, 38.85243 ], [ -77.28228, 38.85165 ], [ -77.28197, 38.85031 ], [ -77.28026, 38.84992 ], [ -77.27979, 38.84925 ], [ -77.28065, 38.84889 ], [ -77.2819, 38.84917 ], [ -77.28108, 38.8488 ], [ -77.2804, 38.84772 ], [ -77.28069, 38.84738 ], [ -77.2816, 38.8475 ], [ -77.28196, 38.84497 ], [ -77.28294, 38.84497 ], [ -77.28313, 38.8458 ], [ -77.28475, 38.84629 ], [ -77.28543, 38.8455 ], [ -77.28634, 38.84576 ], [ -77.28601, 38.84684 ], [ -77.28452, 38.8482 ], [ -77.2867, 38.84781 ], [ -77.28682, 38.84715 ], [ -77.28771, 38.84666 ], [ -77.28728, 38.84622 ], [ -77.28794, 38.84528 ], [ -77.28678, 38.84579 ], [ -77.28414, 38.84497 ], [ -77.28384, 38.84299 ], [ -77.28483, 38.84279 ], [ -77.28588, 38.84316 ], [ -77.28633, 38.84338 ], [ -77.28634, 38.84414 ], [ -77.29322, 38.84492 ], [ -77.29345, 38.84581 ], [ -77.29294, 38.84672 ], [ -77.29337, 38.84671 ], [ -77.2938, 38.84648 ], [ -77.29418, 38.8449 ], [ -77.29504, 38.84494 ], [ -77.29433, 38.84418 ], [ -77.29463, 38.84369 ], [ -77.29709, 38.84342 ], [ -77.29873, 38.84407 ], [ -77.29875, 38.84266 ], [ -77.29779, 38.8418 ], [ -77.29843, 38.84123 ], [ -77.29926, 38.84158 ], [ -77.29958, 38.84058 ], [ -77.30056, 38.84054 ], [ -77.30079, 38.84092 ], [ -77.30031, 38.84229 ], [ -77.3008, 38.84263 ], [ -77.30128, 38.84209 ], [ -77.30181, 38.84206 ], [ -77.30226, 38.84252 ], [ -77.30303, 38.84051 ], [ -77.30603, 38.84058 ], [ -77.30753, 38.83952 ] ], [ [ -77.28775, 38.85496 ], [ -77.28752, 38.85506 ], [ -77.2886, 38.85621 ], [ -77.28775, 38.85496 ] ], [ [ -77.2899, 38.8499 ], [ -77.28993, 38.84957 ], [ -77.28926, 38.84809 ], [ -77.28832, 38.84764 ], [ -77.2895, 38.84907 ], [ -77.28943, 38.84948 ], [ -77.28901, 38.84973 ], [ -77.28819, 38.84953 ], [ -77.28745, 38.84995 ], [ -77.28669, 38.84947 ], [ -77.2871, 38.84885 ], [ -77.28627, 38.84903 ], [ -77.28582, 38.84998 ], [ -77.28341, 38.85033 ], [ -77.28337, 38.85088 ], [ -77.28563, 38.85027 ], [ -77.28785, 38.85075 ], [ -77.2899, 38.8499 ] ], [ [ -77.29922, 38.85833 ], [ -77.29917, 38.8585 ], [ -77.29919, 38.85854 ], [ -77.29922, 38.85833 ] ], [ [ -77.30148, 38.8575 ], [ -77.30137, 38.85714 ], [ -77.30123, 38.85765 ], [ -77.30148, 38.8575 ] ], [ [ -77.30086, 38.85612 ], [ -77.30108, 38.85625 ], [ -77.30102, 38.85606 ], [ -77.30086, 38.85612 ] ], [ [ -77.29922, 38.85565 ], [ -77.29841, 38.85551 ], [ -77.29784, 38.85606 ], [ -77.29839, 38.85703 ], [ -77.29922, 38.85565 ] ], [ [ -77.30067, 38.85496 ], [ -77.30062, 38.85433 ], [ -77.30018, 38.85495 ], [ -77.30067, 38.85496 ] ], [ [ -77.30147, 38.85234 ], [ -77.30272, 38.85141 ], [ -77.29966, 38.8507 ], [ -77.29867, 38.85189 ], [ -77.30147, 38.85234 ] ], [ [ -77.30097, 38.84881 ], [ -77.30091, 38.84864 ], [ -77.30073, 38.84888 ], [ -77.30097, 38.84881 ] ], [ [ -77.30404, 38.8552 ], [ -77.30313, 38.85517 ], [ -77.3051, 38.85551 ], [ -77.3049, 38.85517 ], [ -77.30404, 38.8552 ] ], [ [ -77.30295, 38.85029 ], [ -77.30143, 38.84999 ], [ -77.30308, 38.85036 ], [ -77.30368, 38.85042 ], [ -77.30378, 38.85007 ], [ -77.30295, 38.85029 ] ], [ [ -77.30391, 38.84718 ], [ -77.30267, 38.84784 ], [ -77.30376, 38.84809 ], [ -77.30391, 38.84718 ] ], [ [ -77.3007, 38.84399 ], [ -77.30011, 38.84359 ], [ -77.30012, 38.84426 ], [ -77.30121, 38.84432 ], [ -77.3007, 38.84399 ] ], [ [ -77.30548, 38.84751 ], [ -77.30541, 38.84772 ], [ -77.30555, 38.84765 ], [ -77.30548, 38.84751 ] ], [ [ -77.30524, 38.84964 ], [ -77.30525, 38.84987 ], [ -77.30589, 38.84979 ], [ -77.30524, 38.84964 ] ], [ [ -77.30514, 38.8436 ], [ -77.30554, 38.84306 ], [ -77.30468, 38.8429 ], [ -77.3039, 38.84339 ], [ -77.30514, 38.8436 ] ], [ [ -77.30425, 38.84165 ], [ -77.30424, 38.84174 ], [ -77.30434, 38.8417 ], [ -77.30425, 38.84165 ] ], [ [ -77.30829, 38.84219 ], [ -77.30744, 38.84197 ], [ -77.30649, 38.84467 ], [ -77.30829, 38.84219 ] ], [ [ -77.30945, 38.84518 ], [ -77.3095, 38.84509 ], [ -77.30912, 38.84497 ], [ -77.30945, 38.84518 ] ], [ [ -77.30003, 38.84625 ], [ -77.29961, 38.84538 ], [ -77.29909, 38.84532 ], [ -77.29901, 38.84643 ], [ -77.29942, 38.84677 ], [ -77.30003, 38.84625 ] ], [ [ -77.30153, 38.84584 ], [ -77.30094, 38.84723 ], [ -77.30286, 38.84633 ], [ -77.30153, 38.84584 ] ], [ [ -77.30275, 38.84903 ], [ -77.30236, 38.84896 ], [ -77.30234, 38.84904 ], [ -77.30275, 38.84903 ] ], [ [ -77.3025, 38.85532 ], [ -77.30289, 38.85516 ], [ -77.30214, 38.85513 ], [ -77.30233, 38.85571 ], [ -77.3025, 38.85532 ] ], [ [ -77.30396, 38.85657 ], [ -77.30429, 38.85645 ], [ -77.3042, 38.85643 ], [ -77.30396, 38.85657 ] ], [ [ -77.29642, 38.85818 ], [ -77.29662, 38.85777 ], [ -77.2963, 38.85793 ], [ -77.29642, 38.85818 ] ], [ [ -77.29475, 38.85636 ], [ -77.2947, 38.85644 ], [ -77.29488, 38.85634 ], [ -77.29475, 38.85636 ] ], [ [ -77.29415, 38.85551 ], [ -77.29412, 38.85556 ], [ -77.29419, 38.85555 ], [ -77.29415, 38.85551 ] ], [ [ -77.29741, 38.85386 ], [ -77.29696, 38.85308 ], [ -77.29576, 38.85374 ], [ -77.29652, 38.85444 ], [ -77.29741, 38.85386 ] ], [ [ -77.2976, 38.85113 ], [ -77.29677, 38.85101 ], [ -77.29554, 38.85188 ], [ -77.29548, 38.85236 ], [ -77.2976, 38.85113 ] ], [ [ -77.29394, 38.85056 ], [ -77.29366, 38.84959 ], [ -77.29339, 38.85039 ], [ -77.29416, 38.85094 ], [ -77.29512, 38.85072 ], [ -77.29394, 38.85056 ] ], [ [ -77.29989, 38.85738 ], [ -77.29992, 38.85726 ], [ -77.29982, 38.85736 ], [ -77.29989, 38.85738 ] ], [ [ -77.29778, 38.85842 ], [ -77.29728, 38.85927 ], [ -77.29794, 38.85899 ], [ -77.29778, 38.85842 ] ], [ [ -77.29548, 38.84685 ], [ -77.29548, 38.84698 ], [ -77.29552, 38.8467 ], [ -77.29548, 38.84685 ] ], [ [ -77.29377, 38.84798 ], [ -77.29374, 38.84796 ], [ -77.29375, 38.84801 ], [ -77.29377, 38.84798 ] ], [ [ -77.29558, 38.84723 ], [ -77.29549, 38.84715 ], [ -77.29546, 38.84746 ], [ -77.29558, 38.84723 ] ], [ [ -77.29243, 38.85983 ], [ -77.29235, 38.85982 ], [ -77.29238, 38.85985 ], [ -77.29266, 38.85985 ], [ -77.29243, 38.85983 ] ], [ [ -77.29293, 38.85676 ], [ -77.29282, 38.85737 ], [ -77.29321, 38.85724 ], [ -77.2933, 38.85673 ], [ -77.29293, 38.85676 ] ], [ [ -77.29199, 38.85657 ], [ -77.29213, 38.85654 ], [ -77.29208, 38.8565 ], [ -77.29199, 38.85657 ] ], [ [ -77.2951, 38.85964 ], [ -77.29535, 38.85943 ], [ -77.29509, 38.85936 ], [ -77.2951, 38.85964 ] ], [ [ -77.28962, 38.84633 ], [ -77.28961, 38.84633 ], [ -77.28962, 38.84634 ], [ -77.28962, 38.84633 ] ], [ [ -77.29147, 38.84848 ], [ -77.29143, 38.8486 ], [ -77.29159, 38.84825 ], [ -77.29147, 38.84848 ] ], [ [ -77.2896, 38.85791 ], [ -77.28957, 38.85803 ], [ -77.28985, 38.85786 ], [ -77.2896, 38.85791 ] ], [ [ -77.29215, 38.85832 ], [ -77.29204, 38.85829 ], [ -77.29201, 38.85833 ], [ -77.29215, 38.85832 ] ], [ [ -77.29044, 38.85986 ], [ -77.29102, 38.86021 ], [ -77.29104, 38.8602 ], [ -77.29044, 38.85986 ] ], [ [ -77.28924, 38.86463 ], [ -77.28987, 38.86345 ], [ -77.28888, 38.86375 ], [ -77.28794, 38.86612 ], [ -77.28956, 38.86568 ], [ -77.28924, 38.86463 ] ], [ [ -77.29419, 38.86396 ], [ -77.29312, 38.86284 ], [ -77.29157, 38.86313 ], [ -77.29061, 38.86477 ], [ -77.2909, 38.8654 ], [ -77.29419, 38.86396 ] ], [ [ -77.29603, 38.86544 ], [ -77.29585, 38.86523 ], [ -77.29576, 38.86544 ], [ -77.29603, 38.86544 ] ], [ [ -77.27654, 38.86721 ], [ -77.27616, 38.86768 ], [ -77.27661, 38.86792 ], [ -77.27703, 38.8674 ], [ -77.27654, 38.86721 ] ], [ [ -77.27255, 38.8655 ], [ -77.27126, 38.86553 ], [ -77.27161, 38.86594 ], [ -77.27233, 38.86598 ], [ -77.27368, 38.8658 ], [ -77.27396, 38.86539 ], [ -77.27255, 38.8655 ] ], [ [ -77.27631, 38.86201 ], [ -77.27493, 38.8614 ], [ -77.27382, 38.86116 ], [ -77.27103, 38.86144 ], [ -77.27095, 38.8617 ], [ -77.27196, 38.86206 ], [ -77.27582, 38.86271 ], [ -77.27631, 38.86201 ] ], [ [ -77.28216, 38.86451 ], [ -77.28205, 38.8661 ], [ -77.28249, 38.86615 ], [ -77.28284, 38.86463 ], [ -77.28216, 38.86451 ] ], [ [ -77.28719, 38.86395 ], [ -77.28561, 38.86412 ], [ -77.28644, 38.86553 ], [ -77.28719, 38.86395 ] ], [ [ -77.28641, 38.86711 ], [ -77.28574, 38.86707 ], [ -77.28607, 38.86727 ], [ -77.28641, 38.86711 ] ], [ [ -77.28371, 38.84732 ], [ -77.28361, 38.84695 ], [ -77.28306, 38.84689 ], [ -77.28311, 38.84769 ], [ -77.28371, 38.84732 ] ], [ [ -77.28352, 38.85262 ], [ -77.28404, 38.85285 ], [ -77.28405, 38.85202 ], [ -77.28354, 38.85211 ], [ -77.28283, 38.85307 ], [ -77.28352, 38.85262 ] ], [ [ -77.28684, 38.85412 ], [ -77.28682, 38.85407 ], [ -77.28668, 38.85416 ], [ -77.28684, 38.85412 ] ], [ [ -77.28545, 38.85156 ], [ -77.28547, 38.85253 ], [ -77.28692, 38.85239 ], [ -77.2868, 38.85191 ], [ -77.28545, 38.85156 ] ], [ [ -77.28749, 38.85347 ], [ -77.28786, 38.85356 ], [ -77.28751, 38.85319 ], [ -77.28749, 38.85347 ] ], [ [ -77.28464, 38.85623 ], [ -77.28636, 38.85742 ], [ -77.28467, 38.85561 ], [ -77.28464, 38.85623 ] ], [ [ -77.28282, 38.86325 ], [ -77.28207, 38.86201 ], [ -77.28052, 38.86291 ], [ -77.2784, 38.86211 ], [ -77.27669, 38.86396 ], [ -77.28282, 38.86325 ] ], [ [ -77.27978, 38.86471 ], [ -77.27932, 38.86695 ], [ -77.2801, 38.86711 ], [ -77.28043, 38.86781 ], [ -77.2807, 38.86461 ], [ -77.27978, 38.86471 ] ], [ [ -77.28019, 38.86175 ], [ -77.27997, 38.86109 ], [ -77.27998, 38.86136 ], [ -77.28019, 38.86175 ] ], [ [ -77.28346, 38.86318 ], [ -77.28367, 38.86316 ], [ -77.2835, 38.86314 ], [ -77.28346, 38.86318 ] ], [ [ -77.28187, 38.86722 ], [ -77.28183, 38.86772 ], [ -77.28327, 38.86782 ], [ -77.2833, 38.86742 ], [ -77.28187, 38.86722 ] ], [ [ -77.27559, 38.86559 ], [ -77.27524, 38.86607 ], [ -77.27604, 38.86607 ], [ -77.27588, 38.8654 ], [ -77.27559, 38.86559 ] ], [ [ -77.26976, 38.86609 ], [ -77.26923, 38.86665 ], [ -77.26941, 38.86827 ], [ -77.26995, 38.86862 ], [ -77.27042, 38.86844 ], [ -77.27176, 38.86742 ], [ -77.26976, 38.86609 ] ], [ [ -77.27353, 38.86422 ], [ -77.27308, 38.86338 ], [ -77.27086, 38.86284 ], [ -77.27103, 38.86432 ], [ -77.27353, 38.86422 ] ] ], [ [ [ -77.30781, 38.85997 ], [ -77.30731, 38.8601 ], [ -77.30684, 38.85991 ], [ -77.30668, 38.85921 ], [ -77.30579, 38.85934 ], [ -77.30536, 38.85897 ], [ -77.30533, 38.85856 ], [ -77.30737, 38.85723 ], [ -77.30878, 38.85773 ], [ -77.30781, 38.85997 ] ] ] ] } }
]
}
