{
"type": "FeatureCollection",
"name": "501",
"crs": { "type": "name", "properties": { "name": "urn:ogc:def:crs:OGC:1.3:CRS84" } },
"xy_coordinate_resolution": 1e-05,
"features": [
{ "type": "Feature", "properties": { "variant": "T0", "miles": 1.0 }, "geometry": { "type": "Polygon", "coordinates": [ [ [ -77.33675, 38.8518 ], [ -77.33309, 38.85223 ], [ -77.33342, 38.85323 ], [ -77.33508, 38.85331 ], [ -77.33542, 38.8527 ], [ -77.33594, 38.85261 ], [ -77.33648, 38.85332 ], [ -77.33968, 38.8531 ], [ -77.3405, 38.8536 ], [ -77.34015, 38.8546 ], [ -77.33823, 38.85458 ], [ -77.33754, 38.85549 ], [ -77.3403, 38.8573 ], [ -77.34008, 38.85844 ], [ -77.34107, 38.859 ], [ -77.34078, 38.85979 ], [ -77.33981, 38.85989 ], [ -77.33764, 38.85897 ], [ -77.33804, 38.85957 ], [ -77.33772, 38.8599 ], [ -77.33612, 38.86028 ], [ -77.33704, 38.86216 ], [ -77.33625, 38.86282 ], [ -77.33579, 38.86262 ], [ -77.33447, 38.85997 ], [ -77.33463, 38.85778 ], [ -77.33256, 38.85689 ], [ -77.33101, 38.85856 ], [ -77.33203, 38.85908 ], [ -77.33194, 38.85994 ], [ -77.32993, 38.86185 ], [ -77.32937, 38.8639 ], [ -77.32844, 38.86413 ], [ -77.32618, 38.86331 ], [ -77.32486, 38.86424 ], [ -77.32553, 38.86462 ], [ -77.32558, 38.86539 ], [ -77.3247, 38.86553 ], [ -77.32386, 38.86498 ], [ -77.32172, 38.86804 ], [ -77.32358, 38.86835 ], [ -77.32383, 38.86898 ], [ -77.32564, 38.86918 ], [ -77.32556, 38.86994 ], [ -77.32209, 38.87001 ], [ -77.32042, 38.86944 ], [ -77.31879, 38.87144 ], [ -77.31782, 38.87151 ], [ -77.31746, 38.87107 ], [ -77.31823, 38.86987 ], [ -77.31725, 38.86942 ], [ -77.3175, 38.86828 ], [ -77.31648, 38.86792 ], [ -77.31699, 38.86727 ], [ -77.31859, 38.86702 ], [ -77.31817, 38.8667 ], [ -77.31854, 38.86566 ], [ -77.3143, 38.86464 ], [ -77.31384, 38.86396 ], [ -77.31471, 38.8636 ], [ -77.31727, 38.86421 ], [ -77.31818, 38.86153 ], [ -77.31911, 38.8613 ], [ -77.3195, 38.86181 ], [ -77.31926, 38.86241 ], [ -77.32007, 38.86257 ], [ -77.32031, 38.86108 ], [ -77.31437, 38.86025 ], [ -77.31418, 38.86106 ], [ -77.31337, 38.86149 ], [ -77.31293, 38.86127 ], [ -77.313, 38.86012 ], [ -77.31151, 38.85998 ], [ -77.3109, 38.85938 ], [ -77.31167, 38.85891 ], [ -77.3132, 38.85905 ], [ -77.31341, 38.85742 ], [ -77.31127, 38.85729 ], [ -77.31088, 38.85702 ], [ -77.31105, 38.85638 ], [ -77.31337, 38.85545 ], [ -77.31324, 38.8548 ], [ -77.31497, 38.85404 ], [ -77.31612, 38.85214 ], [ -77.31665, 38.85213 ], [ -77.31731, 38.85286 ], [ -77.31826, 38.85149 ], [ -77.31936, 38.85134 ], [ -77.31986, 38.85057 ], [ -77.32156, 38.85109 ], [ -77.3224, 38.85039 ], [ -77.32408, 38.85072 ], [ -77.32434, 38.85108 ], [ -77.32375, 38.85199 ], [ -77.32405, 38.85211 ], [ -77.33063, 38.85131 ], [ -77.33008, 38.84981 ], [ -77.32915, 38.84923 ], [ -77.33042, 38.84794 ], [ -77.33091, 38.8481 ], [ -77.33148, 38.84973 ], [ -77.33336, 38.84966 ], [ -77.33378, 38.85078 ], [ -77.33544, 38.85042 ], [ -77.33706, 38.85072 ], [ -77.33733, 38.85108 ], [ -77.33675, 38.8518 ] ], [ [ -77.32956, 38.85799 ], [ -77.32919, 38.85771 ], [ -77.32848, 38.85872 ], [ -77.32722, 38.85941 ], [ -77.32582, 38.86131 ], [ -77.32615, 38.86144 ], [ -77.32956, 38.85799 ] ], [ [ -77.32751, 38.8549 ], [ -77.3238, 38.85336 ], [ -77.31922, 38.85447 ], [ -77.32261, 38.85383 ], [ -77.32462, 38.85405 ], [ -77.32673, 38.85488 ], [ -77.32716, 38.85556 ], [ -77.32751, 38.8549 ] ], [ [ -77.32785, 38.85369 ], [ -77.32864, 38.85275 ], [ -77.32631, 38.85305 ], [ -77.32785, 38.85369 ] ], [ [ -77.33155, 38.85242 ], [ -77.33052, 38.85253 ], [ -77.33118, 38.85348 ], [ -77.33017, 38.8537 ], [ -77.32963, 38.85441 ], [ -77.33189, 38.85527 ], [ -77.33155, 38.85242 ] ], [ [ -77.33534, 38.85617 ], [ -77.33455, 38.85631 ], [ -77.33516, 38.85655 ], [ -77.33534, 38.85617 ] ], [ [ -77.33798, 38.85741 ], [ -77.33684, 38.85643 ], [ -77.33654, 38.85707 ], [ -77.33893, 38.85801 ], [ -77.33798, 38.85741 ] ], [ [ -77.33639, 38.85461 ], [ -77.33647, 38.85451 ], [ -77.33646, 38.85451 ], [ -77.33639, 38.85461 ] ], [ [ -77.33735, 38.85885 ], [ -77.3374, 38.85888 ], [ -77.33746, 38.85889 ], [ -77.33735, 38.85885 ] ], [ [ -77.33647, 38.85873 ], [ -77.33709, 38.85874 ], [ -77.33593, 38.85828 ], [ -77.33602, 38.85901 ], [ -77.33647, 38.85873 ] ], [ [ -77.33121, 38.85635 ], [ -77.32874, 38.8554 ], [ -77.32881, 38.85617 ], [ -77.33063, 38.85702 ], [ -77.33121, 38.85635 ] ], [ [ -77.32527, 38.86239 ], [ -77.32404, 38.86231 ], [ -77.32376, 38.86159 ], [ -77.32216, 38.86136 ], [ -77.3212, 38.86312 ], [ -77.32186, 38.86384 ], [ -77.32234, 38.86361 ], [ -77.32304, 38.86394 ], [ -77.32527, 38.86239 ] ], [ [ -77.3246, 38.86069 ], [ -77.32502, 38.86026 ], [ -77.32424, 38.85978 ], [ -77.32268, 38.85981 ], [ -77.32268, 38.86033 ], [ -77.3246, 38.86069 ] ], [ [ -77.31966, 38.8574 ], [ -77.31921, 38.85695 ], [ -77.31876, 38.85716 ], [ -77.31959, 38.85748 ], [ -77.32089, 38.8576 ], [ -77.31966, 38.8574 ] ], [ [ -77.31795, 38.85498 ], [ -77.31745, 38.85518 ], [ -77.31818, 38.85602 ], [ -77.31842, 38.85536 ], [ -77.31795, 38.85498 ] ], [ [ -77.31856, 38.85333 ], [ -77.3185, 38.85342 ], [ -77.31851, 38.85343 ], [ -77.31856, 38.85333 ] ], [ [ -77.32132, 38.85252 ], [ -77.32161, 38.85246 ], [ -77.32151, 38.85241 ], [ -77.32132, 38.85252 ] ], [ [ -77.32332, 38.85698 ], [ -77.3238, 38.85712 ], [ -77.32395, 38.85679 ], [ -77.32334, 38.85671 ], [ -77.32332, 38.85698 ] ], [ [ -77.32318, 38.85524 ], [ -77.32317, 38.85522 ], [ -77.32317, 38.85525 ], [ -77.32318, 38.85524 ] ], [ [ -77.31884, 38.86856 ], [ -77.31872, 38.86885 ], [ -77.31897, 38.86895 ], [ -77.31923, 38.86868 ], [ -77.31884, 38.86856 ] ], [ [ -77.3201, 38.86783 ], [ -77.32135, 38.86631 ], [ -77.31987, 38.86597 ], [ -77.31939, 38.86688 ], [ -77.31864, 38.86702 ], [ -77.3201, 38.86783 ] ], [ [ -77.31911, 38.86438 ], [ -77.31871, 38.86404 ], [ -77.3186, 38.86454 ], [ -77.31911, 38.86438 ] ], [ [ -77.31847, 38.85943 ], [ -77.31461, 38.8588 ], [ -77.31457, 38.85918 ], [ -77.32012, 38.85996 ], [ -77.3212, 38.86011 ], [ -77.32129, 38.85972 ], [ -77.31847, 38.85943 ] ], [ [ -77.31662, 38.8576 ], [ -77.31479, 38.85749 ], [ -77.31476, 38.85772 ], [ -77.31877, 38.85837 ], [ -77.31662, 38.8576 ] ], [ [ -77.32132, 38.86854 ], [ -77.32127, 38.86859 ], [ -77.32135, 38.86863 ], [ -77.32132, 38.86854 ] ], [ [ -77.31621, 38.85566 ], [ -77.31438, 38.85638 ], [ -77.31677, 38.85652 ], [ -77.31621, 38.85566 ] ] ] } },
{ "type": "Feature", "properties": { "variant": "T0", "miles": 1.5 }, "geometry": { "type": "Polygon", "coordinates": [ [ [ -77.34653, 38.85228 ], [ -77.34564, 38.85243 ], [ -77.34541, 38.85309 ], [ -77.34762, 38.85241 ], [ -77.34831, 38.85392 ], [ -77.34788, 38.85449 ], [ -77.34736, 38.85453 ], [ -77.34691, 38.85385 ], [ -77.34586, 38.85425 ], [ -77.34585, 38.85495 ], [ -77.34655, 38.85555 ], [ -77.34571, 38.85641 ], [ -77.347, 38.85735 ], [ -77.34717, 38.85774 ], [ -77.34666, 38.85818 ], [ -77.34813, 38.85907 ], [ -77.34685, 38.86063 ], [ -77.34608, 38.86097 ], [ -77.34955, 38.86224 ], [ -77.34994, 38.86251 ], [ -77.34962, 38.86324 ], [ -77.34831, 38.86304 ], [ -77.34846, 38.86345 ], [ -77.34768, 38.86391 ], [ -77.34495, 38.86336 ], [ -77.33888, 38.85946 ], [ -77.3401, 38.86161 ], [ -77.33907, 38.86261 ], [ -77.33733, 38.86324 ], [ -77.33715, 38.86488 ], [ -77.33859, 38.86445 ], [ -77.33883, 38.86552 ], [ -77.33931, 38.86471 ], [ -77.34023, 38.86444 ], [ -77.34057, 38.86516 ], [ -77.34008, 38.86598 ], [ -77.34109, 38.86652 ], [ -77.34106, 38.86694 ], [ -77.34014, 38.86719 ], [ -77.33817, 38.86647 ], [ -77.33712, 38.86685 ], [ -77.3366, 38.86616 ], [ -77.33636, 38.86674 ], [ -77.33791, 38.86816 ], [ -77.33765, 38.86852 ], [ -77.33667, 38.86864 ], [ -77.33517, 38.86729 ], [ -77.334, 38.86706 ], [ -77.33263, 38.8661 ], [ -77.3331, 38.86543 ], [ -77.33424, 38.86537 ], [ -77.3346, 38.86606 ], [ -77.33513, 38.8662 ], [ -77.33581, 38.86459 ], [ -77.33583, 38.86397 ], [ -77.33449, 38.86428 ], [ -77.33371, 38.86383 ], [ -77.33383, 38.86343 ], [ -77.3352, 38.86301 ], [ -77.33489, 38.86245 ], [ -77.33562, 38.86187 ], [ -77.33466, 38.8604 ], [ -77.33187, 38.86301 ], [ -77.33207, 38.86361 ], [ -77.33316, 38.86401 ], [ -77.3326, 38.86463 ], [ -77.32875, 38.86516 ], [ -77.3285, 38.86442 ], [ -77.3292, 38.86402 ], [ -77.32841, 38.86412 ], [ -77.32618, 38.86331 ], [ -77.32486, 38.86424 ], [ -77.32553, 38.86462 ], [ -77.32558, 38.86539 ], [ -77.3247, 38.86553 ], [ -77.32386, 38.86498 ], [ -77.32172, 38.86804 ], [ -77.32239, 38.86812 ], [ -77.32221, 38.86758 ], [ -77.32298, 38.8671 ], [ -77.32373, 38.86772 ], [ -77.32383, 38.86898 ], [ -77.32444, 38.86898 ], [ -77.32377, 38.86744 ], [ -77.32465, 38.86711 ], [ -77.32558, 38.86824 ], [ -77.3263, 38.86805 ], [ -77.32754, 38.86937 ], [ -77.32717, 38.86797 ], [ -77.3277, 38.86732 ], [ -77.32887, 38.86781 ], [ -77.32879, 38.8689 ], [ -77.32954, 38.86941 ], [ -77.33088, 38.86856 ], [ -77.33183, 38.86877 ], [ -77.33189, 38.86918 ], [ -77.33003, 38.87068 ], [ -77.33116, 38.87158 ], [ -77.33281, 38.8715 ], [ -77.33341, 38.87211 ], [ -77.33315, 38.87247 ], [ -77.33157, 38.87262 ], [ -77.33128, 38.87439 ], [ -77.33031, 38.8744 ], [ -77.33016, 38.87246 ], [ -77.32963, 38.87172 ], [ -77.3273, 38.87046 ], [ -77.32682, 38.87083 ], [ -77.32811, 38.87207 ], [ -77.3281, 38.87272 ], [ -77.32714, 38.87287 ], [ -77.32618, 38.87178 ], [ -77.3264, 38.87266 ], [ -77.32475, 38.87297 ], [ -77.32439, 38.87226 ], [ -77.32575, 38.87014 ], [ -77.32197, 38.87 ], [ -77.32042, 38.86944 ], [ -77.31819, 38.87207 ], [ -77.3152, 38.87412 ], [ -77.31549, 38.87568 ], [ -77.31461, 38.87578 ], [ -77.31381, 38.87504 ], [ -77.31194, 38.87623 ], [ -77.31171, 38.87687 ], [ -77.31078, 38.8771 ], [ -77.31012, 38.87586 ], [ -77.31344, 38.87371 ], [ -77.31264, 38.87193 ], [ -77.31015, 38.87178 ], [ -77.30979, 38.87077 ], [ -77.31379, 38.86794 ], [ -77.31741, 38.8685 ], [ -77.31648, 38.86792 ], [ -77.31656, 38.86751 ], [ -77.31843, 38.86704 ], [ -77.31309, 38.86575 ], [ -77.31303, 38.86604 ], [ -77.31505, 38.86633 ], [ -77.31595, 38.86693 ], [ -77.31518, 38.8676 ], [ -77.31305, 38.86718 ], [ -77.31171, 38.86665 ], [ -77.31176, 38.86545 ], [ -77.30773, 38.86453 ], [ -77.30634, 38.86119 ], [ -77.30668, 38.85921 ], [ -77.30416, 38.8601 ], [ -77.30317, 38.85974 ], [ -77.30348, 38.85903 ], [ -77.30668, 38.85788 ], [ -77.30668, 38.85585 ], [ -77.30614, 38.85585 ], [ -77.30574, 38.85659 ], [ -77.30522, 38.85666 ], [ -77.30352, 38.85635 ], [ -77.30323, 38.856 ], [ -77.3038, 38.85538 ], [ -77.30484, 38.85545 ], [ -77.30546, 38.85487 ], [ -77.30671, 38.85476 ], [ -77.30623, 38.85371 ], [ -77.30713, 38.85223 ], [ -77.3081, 38.85231 ], [ -77.30822, 38.85296 ], [ -77.30963, 38.85295 ], [ -77.30928, 38.85232 ], [ -77.30982, 38.85193 ], [ -77.31262, 38.85213 ], [ -77.31316, 38.85166 ], [ -77.31288, 38.851 ], [ -77.3138, 38.85056 ], [ -77.31141, 38.84969 ], [ -77.31099, 38.84904 ], [ -77.31256, 38.84773 ], [ -77.31318, 38.84777 ], [ -77.31357, 38.84673 ], [ -77.31448, 38.84647 ], [ -77.31484, 38.84677 ], [ -77.31459, 38.84758 ], [ -77.31521, 38.84763 ], [ -77.316, 38.84712 ], [ -77.31734, 38.84739 ], [ -77.31833, 38.84546 ], [ -77.31882, 38.8453 ], [ -77.31931, 38.84545 ], [ -77.31949, 38.84644 ], [ -77.32083, 38.84648 ], [ -77.32262, 38.84354 ], [ -77.32314, 38.84363 ], [ -77.32333, 38.84476 ], [ -77.32463, 38.84571 ], [ -77.32495, 38.84508 ], [ -77.32591, 38.84523 ], [ -77.32659, 38.84601 ], [ -77.32665, 38.84702 ], [ -77.32778, 38.8482 ], [ -77.3289, 38.84825 ], [ -77.32954, 38.84712 ], [ -77.33116, 38.84699 ], [ -77.33361, 38.848 ], [ -77.33538, 38.84793 ], [ -77.33588, 38.84859 ], [ -77.33536, 38.84746 ], [ -77.33559, 38.84709 ], [ -77.33793, 38.84689 ], [ -77.33912, 38.84526 ], [ -77.34, 38.84508 ], [ -77.34044, 38.84587 ], [ -77.33905, 38.84775 ], [ -77.34188, 38.84773 ], [ -77.34338, 38.84852 ], [ -77.34346, 38.85048 ], [ -77.34525, 38.84995 ], [ -77.34638, 38.85031 ], [ -77.34675, 38.85103 ], [ -77.34653, 38.85228 ] ], [ [ -77.32956, 38.85799 ], [ -77.32919, 38.85771 ], [ -77.32848, 38.85872 ], [ -77.32722, 38.85941 ], [ -77.32582, 38.86131 ], [ -77.32615, 38.86144 ], [ -77.32956, 38.85799 ] ], [ [ -77.32751, 38.8549 ], [ -77.3238, 38.85336 ], [ -77.31922, 38.85447 ], [ -77.32291, 38.85383 ], [ -77.32493, 38.85413 ], [ -77.32673, 38.85488 ], [ -77.32713, 38.85555 ], [ -77.32751, 38.8549 ] ], [ [ -77.32785, 38.85369 ], [ -77.32864, 38.85275 ], [ -77.32631, 38.85305 ], [ -77.32785, 38.85369 ] ], [ [ -77.3275, 38.85168 ], [ -77.32536, 38.85134 ], [ -77.32476, 38.8519 ], [ -77.32375, 38.85199 ], [ -77.3275, 38.85168 ] ], [ [ -77.32763, 38.84873 ], [ -77.32757, 38.84865 ], [ -77.32737, 38.84871 ], [ -77.32763, 38.84873 ] ], [ [ -77.34003, 38.85471 ], [ -77.33823, 38.85458 ], [ -77.33754, 38.85549 ], [ -77.3392, 38.85681 ], [ -77.34003, 38.85471 ] ], [ [ -77.3477, 38.86282 ], [ -77.3432, 38.86095 ], [ -77.3447, 38.86203 ], [ -77.3477, 38.86282 ] ], [ [ -77.34498, 38.85595 ], [ -77.34397, 38.85575 ], [ -77.34413, 38.85594 ], [ -77.34495, 38.85618 ], [ -77.34498, 38.85595 ] ], [ [ -77.34159, 38.85122 ], [ -77.33888, 38.8517 ], [ -77.33866, 38.85334 ], [ -77.34084, 38.85267 ], [ -77.34159, 38.85122 ] ], [ [ -77.34112, 38.84941 ], [ -77.34019, 38.84939 ], [ -77.33997, 38.84888 ], [ -77.33963, 38.84886 ], [ -77.33967, 38.84963 ], [ -77.33864, 38.84981 ], [ -77.33871, 38.85035 ], [ -77.34164, 38.85002 ], [ -77.34112, 38.84941 ] ], [ [ -77.34509, 38.85171 ], [ -77.3452, 38.85174 ], [ -77.34516, 38.85172 ], [ -77.34509, 38.85171 ] ], [ [ -77.34568, 38.85782 ], [ -77.34553, 38.85796 ], [ -77.34556, 38.85796 ], [ -77.34592, 38.85802 ], [ -77.34568, 38.85782 ] ], [ [ -77.34172, 38.85908 ], [ -77.34201, 38.85858 ], [ -77.34145, 38.85848 ], [ -77.34172, 38.85908 ] ], [ [ -77.33717, 38.85182 ], [ -77.33729, 38.85187 ], [ -77.33729, 38.85174 ], [ -77.33717, 38.85182 ] ], [ [ -77.33739, 38.86076 ], [ -77.3362, 38.86036 ], [ -77.33699, 38.86171 ], [ -77.33739, 38.86076 ] ], [ [ -77.33672, 38.85869 ], [ -77.33709, 38.85874 ], [ -77.33593, 38.85828 ], [ -77.33582, 38.85901 ], [ -77.33672, 38.85869 ] ], [ [ -77.3389, 38.85799 ], [ -77.33893, 38.85796 ], [ -77.33684, 38.85643 ], [ -77.33654, 38.85707 ], [ -77.3389, 38.85799 ] ], [ [ -77.33465, 38.8563 ], [ -77.33455, 38.85631 ], [ -77.33516, 38.85655 ], [ -77.33534, 38.85617 ], [ -77.33465, 38.8563 ] ], [ [ -77.33169, 38.85267 ], [ -77.33155, 38.85242 ], [ -77.33052, 38.85253 ], [ -77.33118, 38.85348 ], [ -77.33017, 38.8537 ], [ -77.32963, 38.85441 ], [ -77.33195, 38.85508 ], [ -77.33169, 38.85267 ] ], [ [ -77.33639, 38.85461 ], [ -77.33647, 38.85451 ], [ -77.33646, 38.85451 ], [ -77.33639, 38.85461 ] ], [ [ -77.33735, 38.85885 ], [ -77.3374, 38.85888 ], [ -77.33746, 38.85889 ], [ -77.33735, 38.85885 ] ], [ [ -77.33342, 38.85323 ], [ -77.33485, 38.8533 ], [ -77.33461, 38.85206 ], [ -77.33309, 38.85223 ], [ -77.33342, 38.85323 ] ], [ [ -77.33368, 38.85022 ], [ -77.33378, 38.85078 ], [ -77.33461, 38.85059 ], [ -77.33451, 38.85013 ], [ -77.33368, 38.85022 ] ], [ [ -77.33293, 38.86 ], [ -77.3344, 38.85934 ], [ -77.33463, 38.85778 ], [ -77.33256, 38.85689 ], [ -77.33101, 38.85856 ], [ -77.33203, 38.85908 ], [ -77.33188, 38.86006 ], [ -77.3309, 38.8607 ], [ -77.32968, 38.86241 ], [ -77.33122, 38.86206 ], [ -77.33293, 38.86 ] ], [ [ -77.33032, 38.85054 ], [ -77.32942, 38.85069 ], [ -77.32786, 38.85164 ], [ -77.33055, 38.85116 ], [ -77.33032, 38.85054 ] ], [ [ -77.32874, 38.8554 ], [ -77.3285, 38.85584 ], [ -77.33048, 38.85718 ], [ -77.33121, 38.85635 ], [ -77.32874, 38.8554 ] ], [ [ -77.33064, 38.8638 ], [ -77.3307, 38.8638 ], [ -77.33067, 38.86371 ], [ -77.33064, 38.8638 ] ], [ [ -77.31884, 38.86856 ], [ -77.31872, 38.86885 ], [ -77.31897, 38.86895 ], [ -77.31884, 38.86856 ] ], [ [ -77.3201, 38.86783 ], [ -77.32135, 38.86631 ], [ -77.31987, 38.86597 ], [ -77.31946, 38.86682 ], [ -77.31874, 38.86708 ], [ -77.3201, 38.86783 ] ], [ [ -77.3134, 38.86443 ], [ -77.31334, 38.86468 ], [ -77.31844, 38.86591 ], [ -77.31853, 38.86565 ], [ -77.3134, 38.86443 ] ], [ [ -77.31911, 38.86438 ], [ -77.31871, 38.86404 ], [ -77.3186, 38.86454 ], [ -77.31911, 38.86438 ] ], [ [ -77.31792, 38.86214 ], [ -77.31576, 38.86183 ], [ -77.31531, 38.86375 ], [ -77.31563, 38.86383 ], [ -77.31622, 38.8622 ], [ -77.31674, 38.86211 ], [ -77.31729, 38.86274 ], [ -77.31696, 38.86414 ], [ -77.31727, 38.86421 ], [ -77.31792, 38.86214 ] ], [ [ -77.31926, 38.86241 ], [ -77.32007, 38.86257 ], [ -77.32031, 38.86108 ], [ -77.31437, 38.86025 ], [ -77.31431, 38.86053 ], [ -77.31901, 38.86121 ], [ -77.31946, 38.86163 ], [ -77.31926, 38.86241 ] ], [ [ -77.31847, 38.85943 ], [ -77.31461, 38.8588 ], [ -77.31457, 38.85918 ], [ -77.32012, 38.85996 ], [ -77.3212, 38.86011 ], [ -77.32129, 38.85972 ], [ -77.31847, 38.85943 ] ], [ [ -77.31662, 38.8576 ], [ -77.31479, 38.85749 ], [ -77.31476, 38.85772 ], [ -77.31877, 38.85837 ], [ -77.31662, 38.8576 ] ], [ [ -77.3196, 38.85748 ], [ -77.32089, 38.8576 ], [ -77.31966, 38.8574 ], [ -77.31921, 38.85695 ], [ -77.31876, 38.85716 ], [ -77.3196, 38.85748 ] ], [ [ -77.31795, 38.85498 ], [ -77.31745, 38.85518 ], [ -77.31818, 38.85602 ], [ -77.31842, 38.85536 ], [ -77.31795, 38.85498 ] ], [ [ -77.31856, 38.85333 ], [ -77.3185, 38.85342 ], [ -77.31851, 38.85343 ], [ -77.31856, 38.85333 ] ], [ [ -77.31581, 38.85172 ], [ -77.31488, 38.85132 ], [ -77.31393, 38.85256 ], [ -77.31405, 38.85325 ], [ -77.31551, 38.85288 ], [ -77.31581, 38.85172 ] ], [ [ -77.31301, 38.84901 ], [ -77.31294, 38.84908 ], [ -77.31434, 38.84957 ], [ -77.31301, 38.84901 ] ], [ [ -77.31786, 38.84897 ], [ -77.31759, 38.84944 ], [ -77.31876, 38.84993 ], [ -77.31896, 38.84959 ], [ -77.31786, 38.84897 ] ], [ [ -77.32484, 38.8502 ], [ -77.32482, 38.85025 ], [ -77.32488, 38.85023 ], [ -77.32484, 38.8502 ] ], [ [ -77.32527, 38.86239 ], [ -77.32404, 38.86231 ], [ -77.32376, 38.86159 ], [ -77.32216, 38.86136 ], [ -77.3212, 38.86312 ], [ -77.32186, 38.86384 ], [ -77.32234, 38.86361 ], [ -77.32313, 38.86387 ], [ -77.32527, 38.86239 ] ], [ [ -77.3246, 38.86069 ], [ -77.32502, 38.86026 ], [ -77.32424, 38.85978 ], [ -77.32268, 38.85981 ], [ -77.32256, 38.86032 ], [ -77.3246, 38.86069 ] ], [ [ -77.3238, 38.85712 ], [ -77.32395, 38.85679 ], [ -77.32334, 38.85671 ], [ -77.3238, 38.85712 ] ], [ [ -77.32317, 38.85525 ], [ -77.32318, 38.85524 ], [ -77.32317, 38.85522 ], [ -77.32317, 38.85525 ] ], [ [ -77.32141, 38.85237 ], [ -77.32132, 38.85252 ], [ -77.32148, 38.85249 ], [ -77.32141, 38.85237 ] ], [ [ -77.32132, 38.86854 ], [ -77.32127, 38.86859 ], [ -77.32135, 38.86863 ], [ -77.32132, 38.86854 ] ], [ [ -77.3158, 38.84842 ], [ -77.31638, 38.84892 ], [ -77.3167, 38.84835 ], [ -77.3158, 38.84842 ] ], [ [ -77.31575, 38.85002 ], [ -77.31565, 38.85008 ], [ -77.31548, 38.85023 ], [ -77.31575, 38.85002 ] ], [ [ -77.31716, 38.87117 ], [ -77.31589, 38.87069 ], [ -77.31662, 38.87129 ], [ -77.3165, 38.87169 ], [ -77.31557, 38.872 ], [ -77.31585, 38.87215 ], [ -77.31654, 38.87169 ], [ -77.31716, 38.87117 ] ], [ [ -77.31793, 38.87026 ], [ -77.31823, 38.86987 ], [ -77.31409, 38.86908 ], [ -77.31793, 38.87026 ] ], [ [ -77.31091, 38.86383 ], [ -77.30861, 38.86327 ], [ -77.3087, 38.86366 ], [ -77.31201, 38.86438 ], [ -77.31207, 38.8641 ], [ -77.31091, 38.86383 ] ], [ [ -77.31271, 38.86139 ], [ -77.31246, 38.86135 ], [ -77.31185, 38.86292 ], [ -77.31233, 38.86303 ], [ -77.31271, 38.86139 ] ], [ [ -77.313, 38.86012 ], [ -77.31103, 38.86016 ], [ -77.3102, 38.86062 ], [ -77.30876, 38.86058 ], [ -77.30816, 38.8601 ], [ -77.30815, 38.86086 ], [ -77.30937, 38.86155 ], [ -77.31022, 38.86122 ], [ -77.31062, 38.86149 ], [ -77.31052, 38.86261 ], [ -77.31182, 38.86028 ], [ -77.313, 38.86012 ] ], [ [ -77.31114, 38.85772 ], [ -77.31114, 38.85775 ], [ -77.31117, 38.85762 ], [ -77.31114, 38.85772 ] ], [ [ -77.31138, 38.854 ], [ -77.30936, 38.85403 ], [ -77.3108, 38.85424 ], [ -77.31109, 38.8562 ], [ -77.31138, 38.854 ] ], [ [ -77.31677, 38.85652 ], [ -77.31621, 38.85566 ], [ -77.31438, 38.85638 ], [ -77.31677, 38.85652 ] ], [ [ -77.31407, 38.86159 ], [ -77.31365, 38.86336 ], [ -77.31398, 38.86344 ], [ -77.31436, 38.86178 ], [ -77.31407, 38.86159 ] ], [ [ -77.31302, 38.85848 ], [ -77.31235, 38.85897 ], [ -77.3132, 38.85905 ], [ -77.31341, 38.85742 ], [ -77.31259, 38.85738 ], [ -77.31302, 38.85848 ] ], [ [ -77.31231, 38.8703 ], [ -77.31232, 38.87031 ], [ -77.31232, 38.8703 ], [ -77.31231, 38.8703 ] ], [ [ -77.31376, 38.87026 ], [ -77.31389, 38.8702 ], [ -77.31369, 38.87014 ], [ -77.31376, 38.87026 ] ], [ [ -77.3082, 38.85902 ], [ -77.30965, 38.85902 ], [ -77.30977, 38.85812 ], [ -77.30847, 38.85858 ], [ -77.3082, 38.85902 ] ], [ [ -77.30807, 38.85604 ], [ -77.30875, 38.85608 ], [ -77.30888, 38.8551 ], [ -77.30808, 38.85508 ], [ -77.30807, 38.85604 ] ], [ [ -77.30859, 38.85721 ], [ -77.30873, 38.85716 ], [ -77.30814, 38.85713 ], [ -77.30859, 38.85721 ] ], [ [ -77.30908, 38.86226 ], [ -77.30911, 38.86218 ], [ -77.30896, 38.86223 ], [ -77.30908, 38.86226 ] ] ] } },
{ "type": "Feature", "properties": { "variant": "T0", "miles": 2.0 }, "geometry": { "type": "Polygon", "coordinates": [ [ [ -77.35138, 38.84611 ], [ -77.35178, 38.84684 ], [ -77.35251, 38.84708 ], [ -77.35237, 38.84784 ], [ -77.35123, 38.84787 ], [ -77.35129, 38.84874 ], [ -77.35364, 38.84819 ], [ -77.35416, 38.84745 ], [ -77.35469, 38.84742 ], [ -77.35509, 38.84769 ], [ -77.35505, 38.84874 ], [ -77.35596, 38.84872 ], [ -77.35674, 38.84931 ], [ -77.35683, 38.8504 ], [ -77.35607, 38.85075 ], [ -77.35688, 38.8512 ], [ -77.35674, 38.85182 ], [ -77.3563, 38.85205 ], [ -77.35512, 38.85171 ], [ -77.35499, 38.85219 ], [ -77.35421, 38.85252 ], [ -77.3547, 38.85305 ], [ -77.35453, 38.85344 ], [ -77.3534, 38.85355 ], [ -77.35269, 38.85488 ], [ -77.35138, 38.85551 ], [ -77.35545, 38.85617 ], [ -77.3557, 38.85654 ], [ -77.35508, 38.85713 ], [ -77.35204, 38.85694 ], [ -77.35179, 38.85756 ], [ -77.35267, 38.85801 ], [ -77.35258, 38.85872 ], [ -77.35364, 38.85875 ], [ -77.35351, 38.85986 ], [ -77.35407, 38.85974 ], [ -77.3538, 38.85818 ], [ -77.35476, 38.85803 ], [ -77.35592, 38.86024 ], [ -77.354, 38.86089 ], [ -77.35062, 38.86123 ], [ -77.34743, 38.85979 ], [ -77.34608, 38.86097 ], [ -77.35578, 38.86436 ], [ -77.35617, 38.86527 ], [ -77.35537, 38.86628 ], [ -77.3544, 38.86628 ], [ -77.35374, 38.8651 ], [ -77.35247, 38.86454 ], [ -77.34876, 38.86397 ], [ -77.34735, 38.86675 ], [ -77.34492, 38.86718 ], [ -77.34461, 38.86874 ], [ -77.34357, 38.86864 ], [ -77.34348, 38.86754 ], [ -77.34238, 38.86782 ], [ -77.34173, 38.86892 ], [ -77.34296, 38.86982 ], [ -77.34251, 38.8706 ], [ -77.34106, 38.87004 ], [ -77.3405, 38.87097 ], [ -77.33947, 38.87114 ], [ -77.33909, 38.87189 ], [ -77.33816, 38.87166 ], [ -77.33788, 38.8704 ], [ -77.33621, 38.87107 ], [ -77.33737, 38.87261 ], [ -77.33763, 38.87409 ], [ -77.33868, 38.87458 ], [ -77.33826, 38.87527 ], [ -77.33658, 38.87481 ], [ -77.33577, 38.87377 ], [ -77.33553, 38.87245 ], [ -77.33473, 38.87179 ], [ -77.33399, 38.87221 ], [ -77.33329, 38.87176 ], [ -77.33315, 38.87247 ], [ -77.33157, 38.87262 ], [ -77.33144, 38.87339 ], [ -77.33429, 38.87362 ], [ -77.3355, 38.87422 ], [ -77.3356, 38.87463 ], [ -77.33478, 38.87505 ], [ -77.3319, 38.87441 ], [ -77.33152, 38.87449 ], [ -77.33158, 38.87542 ], [ -77.33273, 38.8757 ], [ -77.33358, 38.87532 ], [ -77.33406, 38.87595 ], [ -77.33613, 38.87617 ], [ -77.3368, 38.877 ], [ -77.33685, 38.87787 ], [ -77.33635, 38.87838 ], [ -77.33546, 38.87807 ], [ -77.33543, 38.87717 ], [ -77.3349, 38.87701 ], [ -77.33372, 38.87917 ], [ -77.33321, 38.8793 ], [ -77.33274, 38.87912 ], [ -77.33272, 38.87832 ], [ -77.33194, 38.87843 ], [ -77.33161, 38.87811 ], [ -77.33183, 38.87661 ], [ -77.33117, 38.87645 ], [ -77.3294, 38.87893 ], [ -77.32719, 38.87887 ], [ -77.3257, 38.87783 ], [ -77.32632, 38.87724 ], [ -77.3286, 38.87794 ], [ -77.33005, 38.8758 ], [ -77.33015, 38.87458 ], [ -77.32962, 38.87456 ], [ -77.3286, 38.87536 ], [ -77.32792, 38.87482 ], [ -77.32874, 38.87373 ], [ -77.33005, 38.8735 ], [ -77.33016, 38.87246 ], [ -77.32963, 38.87172 ], [ -77.32717, 38.87042 ], [ -77.32682, 38.87083 ], [ -77.32811, 38.87207 ], [ -77.3281, 38.87272 ], [ -77.32714, 38.87287 ], [ -77.32618, 38.87178 ], [ -77.3264, 38.87266 ], [ -77.32475, 38.87297 ], [ -77.32439, 38.87226 ], [ -77.32575, 38.87014 ], [ -77.32197, 38.87 ], [ -77.32042, 38.86944 ], [ -77.31819, 38.87207 ], [ -77.3152, 38.87412 ], [ -77.31549, 38.87568 ], [ -77.31461, 38.87578 ], [ -77.31381, 38.87504 ], [ -77.31235, 38.87597 ], [ -77.31354, 38.87892 ], [ -77.31418, 38.87895 ], [ -77.3145, 38.87928 ], [ -77.31423, 38.87981 ], [ -77.31586, 38.88079 ], [ -77.31588, 38.88156 ], [ -77.3149, 38.88157 ], [ -77.31238, 38.88024 ], [ -77.30914, 38.88044 ], [ -77.30874, 38.87957 ], [ -77.30793, 38.8796 ], [ -77.30683, 38.878 ], [ -77.30593, 38.878 ], [ -77.30367, 38.87981 ], [ -77.30243, 38.87906 ], [ -77.30261, 38.87816 ], [ -77.3031, 38.878 ], [ -77.3037, 38.87837 ], [ -77.30411, 38.87799 ], [ -77.30374, 38.87717 ], [ -77.30276, 38.87683 ], [ -77.30298, 38.87628 ], [ -77.30258, 38.87545 ], [ -77.30353, 38.87527 ], [ -77.30555, 38.8763 ], [ -77.30649, 38.87524 ], [ -77.30458, 38.87447 ], [ -77.30444, 38.87313 ], [ -77.30356, 38.87281 ], [ -77.30325, 38.87208 ], [ -77.30365, 38.87181 ], [ -77.30483, 38.87208 ], [ -77.30536, 38.87137 ], [ -77.30627, 38.87148 ], [ -77.30652, 38.87185 ], [ -77.30562, 38.87375 ], [ -77.30722, 38.87432 ], [ -77.30828, 38.87077 ], [ -77.30878, 38.87064 ], [ -77.30954, 38.87108 ], [ -77.31403, 38.86786 ], [ -77.31741, 38.8685 ], [ -77.31648, 38.86792 ], [ -77.31656, 38.86751 ], [ -77.31843, 38.86704 ], [ -77.31309, 38.86575 ], [ -77.31303, 38.86604 ], [ -77.31566, 38.86659 ], [ -77.31585, 38.86734 ], [ -77.31475, 38.86757 ], [ -77.31208, 38.86692 ], [ -77.3116, 38.86639 ], [ -77.31115, 38.86686 ], [ -77.31063, 38.86682 ], [ -77.3085, 38.86535 ], [ -77.30943, 38.86943 ], [ -77.30859, 38.8701 ], [ -77.30781, 38.86964 ], [ -77.30723, 38.86689 ], [ -77.30646, 38.86729 ], [ -77.30597, 38.86714 ], [ -77.30624, 38.86562 ], [ -77.30464, 38.86382 ], [ -77.30533, 38.86287 ], [ -77.30585, 38.86291 ], [ -77.3064, 38.86367 ], [ -77.30634, 38.86181 ], [ -77.30076, 38.86126 ], [ -77.29371, 38.86273 ], [ -77.29293, 38.86232 ], [ -77.29342, 38.86156 ], [ -77.29875, 38.86055 ], [ -77.30278, 38.85929 ], [ -77.3021, 38.8585 ], [ -77.29821, 38.86008 ], [ -77.29781, 38.86058 ], [ -77.29686, 38.8604 ], [ -77.29701, 38.85952 ], [ -77.29794, 38.85899 ], [ -77.29805, 38.85755 ], [ -77.29931, 38.85543 ], [ -77.30067, 38.85496 ], [ -77.30067, 38.85403 ], [ -77.29951, 38.85337 ], [ -77.29934, 38.8523 ], [ -77.29977, 38.85206 ], [ -77.30177, 38.85249 ], [ -77.30383, 38.85117 ], [ -77.30414, 38.84723 ], [ -77.30295, 38.84729 ], [ -77.30268, 38.84693 ], [ -77.30303, 38.8461 ], [ -77.30252, 38.84582 ], [ -77.30275, 38.84511 ], [ -77.30351, 38.84507 ], [ -77.30396, 38.8444 ], [ -77.30512, 38.84449 ], [ -77.30557, 38.84385 ], [ -77.30651, 38.84407 ], [ -77.30649, 38.84467 ], [ -77.30752, 38.84372 ], [ -77.31178, 38.84426 ], [ -77.31146, 38.84363 ], [ -77.31209, 38.84239 ], [ -77.31269, 38.84215 ], [ -77.31253, 38.84137 ], [ -77.31357, 38.84082 ], [ -77.31472, 38.84104 ], [ -77.31533, 38.84191 ], [ -77.31698, 38.8414 ], [ -77.31833, 38.84171 ], [ -77.31881, 38.84225 ], [ -77.3205, 38.84151 ], [ -77.32109, 38.84256 ], [ -77.32143, 38.84186 ], [ -77.32335, 38.84231 ], [ -77.32477, 38.83848 ], [ -77.32564, 38.83812 ], [ -77.32604, 38.83839 ], [ -77.3259, 38.83929 ], [ -77.3267, 38.83966 ], [ -77.32735, 38.83982 ], [ -77.32699, 38.83927 ], [ -77.32744, 38.83859 ], [ -77.32901, 38.83948 ], [ -77.32707, 38.84349 ], [ -77.32924, 38.84025 ], [ -77.32932, 38.83932 ], [ -77.33015, 38.83891 ], [ -77.33058, 38.83915 ], [ -77.3306, 38.84004 ], [ -77.33222, 38.84083 ], [ -77.33224, 38.8426 ], [ -77.33328, 38.84265 ], [ -77.33327, 38.84334 ], [ -77.33224, 38.84391 ], [ -77.3321, 38.84449 ], [ -77.33149, 38.84462 ], [ -77.3315, 38.84551 ], [ -77.33038, 38.84638 ], [ -77.33041, 38.84715 ], [ -77.33149, 38.84704 ], [ -77.33361, 38.848 ], [ -77.33522, 38.84788 ], [ -77.33597, 38.84855 ], [ -77.33536, 38.84746 ], [ -77.33559, 38.84709 ], [ -77.33793, 38.84689 ], [ -77.33875, 38.8458 ], [ -77.33535, 38.84442 ], [ -77.33547, 38.84165 ], [ -77.33462, 38.83976 ], [ -77.33563, 38.83948 ], [ -77.33973, 38.84086 ], [ -77.3405, 38.84242 ], [ -77.34125, 38.84058 ], [ -77.34276, 38.83878 ], [ -77.34344, 38.83887 ], [ -77.34371, 38.83961 ], [ -77.34203, 38.84256 ], [ -77.34414, 38.8427 ], [ -77.34429, 38.84152 ], [ -77.34504, 38.84103 ], [ -77.34567, 38.84162 ], [ -77.34541, 38.84331 ], [ -77.3446, 38.8438 ], [ -77.34167, 38.84362 ], [ -77.34017, 38.84626 ], [ -77.34197, 38.8466 ], [ -77.34232, 38.84707 ], [ -77.3419, 38.84775 ], [ -77.34225, 38.84796 ], [ -77.34281, 38.84753 ], [ -77.3438, 38.84754 ], [ -77.34413, 38.84504 ], [ -77.34193, 38.84469 ], [ -77.34179, 38.84429 ], [ -77.34255, 38.84382 ], [ -77.34956, 38.84455 ], [ -77.35003, 38.84521 ], [ -77.34965, 38.84628 ], [ -77.35138, 38.84611 ] ], [ [ -77.33141, 38.86851 ], [ -77.33189, 38.86918 ], [ -77.33129, 38.86963 ], [ -77.33326, 38.87001 ], [ -77.33307, 38.86892 ], [ -77.33394, 38.86857 ], [ -77.33462, 38.86937 ], [ -77.33456, 38.87046 ], [ -77.33493, 38.8706 ], [ -77.33579, 38.86992 ], [ -77.33588, 38.86815 ], [ -77.33517, 38.86729 ], [ -77.334, 38.86706 ], [ -77.33263, 38.8661 ], [ -77.3331, 38.86543 ], [ -77.33424, 38.86537 ], [ -77.3346, 38.86606 ], [ -77.33513, 38.8662 ], [ -77.33581, 38.86459 ], [ -77.33583, 38.86397 ], [ -77.33449, 38.86428 ], [ -77.33371, 38.86383 ], [ -77.33383, 38.86343 ], [ -77.3352, 38.86301 ], [ -77.33489, 38.86245 ], [ -77.33562, 38.86187 ], [ -77.33466, 38.8604 ], [ -77.33187, 38.86301 ], [ -77.33207, 38.86361 ], [ -77.33288, 38.86366 ], [ -77.33304, 38.86441 ], [ -77.32875, 38.86516 ], [ -77.3285, 38.86442 ], [ -77.3292, 38.86402 ], [ -77.32841, 38.86412 ], [ -77.32618, 38.86331 ], [ -77.32486, 38.86424 ], [ -77.32553, 38.86462 ], [ -77.32558, 38.86539 ], [ -77.3247, 38.86553 ], [ -77.32386, 38.86498 ], [ -77.32172, 38.86804 ], [ -77.32239, 38.86812 ], [ -77.32221, 38.86758 ], [ -77.32298, 38.8671 ], [ -77.32373, 38.86772 ], [ -77.32383, 38.86898 ], [ -77.32444, 38.86898 ], [ -77.32381, 38.86786 ], [ -77.32412, 38.86713 ], [ -77.32505, 38.86738 ], [ -77.32558, 38.86824 ], [ -77.32743, 38.86629 ], [ -77.33066, 38.86573 ], [ -77.33126, 38.86625 ], [ -77.33133, 38.8671 ], [ -77.32881, 38.86872 ], [ -77.32958, 38.86937 ], [ -77.33141, 38.86851 ] ], [ [ -77.33145, 38.86192 ], [ -77.33293, 38.86 ], [ -77.3344, 38.85934 ], [ -77.33463, 38.85778 ], [ -77.33256, 38.85689 ], [ -77.33101, 38.85856 ], [ -77.33203, 38.85908 ], [ -77.33188, 38.86006 ], [ -77.3309, 38.8607 ], [ -77.32969, 38.8624 ], [ -77.33145, 38.86192 ] ], [ [ -77.32919, 38.85771 ], [ -77.32848, 38.85872 ], [ -77.32722, 38.85941 ], [ -77.32582, 38.86131 ], [ -77.32612, 38.86148 ], [ -77.32647, 38.86118 ], [ -77.32954, 38.85798 ], [ -77.32919, 38.85771 ] ], [ [ -77.33048, 38.85718 ], [ -77.33121, 38.85635 ], [ -77.32874, 38.8554 ], [ -77.3285, 38.85584 ], [ -77.33048, 38.85718 ] ], [ [ -77.32864, 38.85275 ], [ -77.32631, 38.85305 ], [ -77.32738, 38.8535 ], [ -77.32785, 38.85369 ], [ -77.32864, 38.85275 ] ], [ [ -77.32631, 38.85183 ], [ -77.3275, 38.85168 ], [ -77.32536, 38.85134 ], [ -77.32476, 38.8519 ], [ -77.32375, 38.85199 ], [ -77.32631, 38.85183 ] ], [ [ -77.32484, 38.8502 ], [ -77.32482, 38.85025 ], [ -77.32488, 38.85023 ], [ -77.32484, 38.8502 ] ], [ [ -77.32461, 38.84566 ], [ -77.32463, 38.84571 ], [ -77.32465, 38.84571 ], [ -77.32461, 38.84566 ] ], [ [ -77.32333, 38.84476 ], [ -77.3242, 38.84517 ], [ -77.32354, 38.84438 ], [ -77.32333, 38.84476 ] ], [ [ -77.34634, 38.86586 ], [ -77.34742, 38.86388 ], [ -77.3439, 38.86292 ], [ -77.33888, 38.85946 ], [ -77.3401, 38.86161 ], [ -77.33907, 38.86261 ], [ -77.33733, 38.86324 ], [ -77.33715, 38.86488 ], [ -77.33859, 38.86445 ], [ -77.33883, 38.86552 ], [ -77.33931, 38.86471 ], [ -77.34023, 38.86444 ], [ -77.34057, 38.86516 ], [ -77.3401, 38.86598 ], [ -77.34063, 38.86508 ], [ -77.34155, 38.86482 ], [ -77.34189, 38.86553 ], [ -77.34135, 38.86644 ], [ -77.34257, 38.86664 ], [ -77.34634, 38.86586 ] ], [ [ -77.34172, 38.85908 ], [ -77.34201, 38.85858 ], [ -77.34145, 38.85848 ], [ -77.34172, 38.85908 ] ], [ [ -77.34159, 38.85122 ], [ -77.33888, 38.8517 ], [ -77.33866, 38.85334 ], [ -77.34084, 38.85267 ], [ -77.34159, 38.85122 ] ], [ [ -77.33995, 38.84887 ], [ -77.33963, 38.84886 ], [ -77.33974, 38.84903 ], [ -77.33995, 38.84887 ] ], [ [ -77.33871, 38.85035 ], [ -77.33955, 38.85026 ], [ -77.33922, 38.84978 ], [ -77.33864, 38.84981 ], [ -77.33871, 38.85035 ] ], [ [ -77.33701, 38.84127 ], [ -77.33896, 38.84192 ], [ -77.33659, 38.84097 ], [ -77.33701, 38.84127 ] ], [ [ -77.35083, 38.85956 ], [ -77.35052, 38.85885 ], [ -77.3495, 38.85859 ], [ -77.34919, 38.85723 ], [ -77.35039, 38.85652 ], [ -77.34955, 38.8559 ], [ -77.34788, 38.85632 ], [ -77.34729, 38.85584 ], [ -77.34571, 38.85641 ], [ -77.347, 38.85735 ], [ -77.34717, 38.85774 ], [ -77.34666, 38.85818 ], [ -77.3502, 38.86003 ], [ -77.35166, 38.85997 ], [ -77.35083, 38.85956 ] ], [ [ -77.34672, 38.85447 ], [ -77.34691, 38.85385 ], [ -77.34646, 38.85404 ], [ -77.34632, 38.85495 ], [ -77.34672, 38.85447 ] ], [ [ -77.34857, 38.85207 ], [ -77.34775, 38.85043 ], [ -77.3466, 38.85058 ], [ -77.34653, 38.85228 ], [ -77.34564, 38.85243 ], [ -77.34541, 38.85309 ], [ -77.34857, 38.85207 ] ], [ [ -77.34516, 38.85172 ], [ -77.3452, 38.85174 ], [ -77.34519, 38.8517 ], [ -77.34516, 38.85172 ] ], [ [ -77.34771, 38.84907 ], [ -77.34784, 38.84838 ], [ -77.34693, 38.84818 ], [ -77.34634, 38.8472 ], [ -77.34463, 38.84848 ], [ -77.34356, 38.84861 ], [ -77.34349, 38.84978 ], [ -77.34771, 38.84907 ] ], [ [ -77.35113, 38.85772 ], [ -77.35124, 38.85767 ], [ -77.35114, 38.85767 ], [ -77.35113, 38.85772 ] ], [ [ -77.34921, 38.84854 ], [ -77.34914, 38.84889 ], [ -77.34982, 38.84881 ], [ -77.34921, 38.84854 ] ], [ [ -77.34987, 38.84764 ], [ -77.34993, 38.8473 ], [ -77.34944, 38.84735 ], [ -77.34987, 38.84764 ] ], [ [ -77.35063, 38.85094 ], [ -77.35097, 38.85065 ], [ -77.35037, 38.85073 ], [ -77.35063, 38.85094 ] ], [ [ -77.35539, 38.8498 ], [ -77.35464, 38.85006 ], [ -77.35497, 38.85009 ], [ -77.35539, 38.8498 ] ], [ [ -77.3505, 38.85451 ], [ -77.35051, 38.85453 ], [ -77.35052, 38.85451 ], [ -77.3505, 38.85451 ] ], [ [ -77.3455, 38.84517 ], [ -77.34536, 38.8462 ], [ -77.3463, 38.84536 ], [ -77.34748, 38.84543 ], [ -77.34798, 38.84597 ], [ -77.34772, 38.84712 ], [ -77.34805, 38.84731 ], [ -77.34834, 38.84541 ], [ -77.3455, 38.84517 ] ], [ [ -77.34407, 38.8557 ], [ -77.34397, 38.85575 ], [ -77.34512, 38.85619 ], [ -77.34407, 38.8557 ] ], [ [ -77.34553, 38.85796 ], [ -77.34592, 38.85802 ], [ -77.34571, 38.85783 ], [ -77.34553, 38.85796 ] ], [ [ -77.3477, 38.86282 ], [ -77.3432, 38.86095 ], [ -77.3447, 38.86203 ], [ -77.3477, 38.86282 ] ], [ [ -77.33656, 38.84389 ], [ -77.33936, 38.84483 ], [ -77.34011, 38.84346 ], [ -77.33666, 38.84233 ], [ -77.33656, 38.84389 ] ], [ [ -77.33905, 38.84775 ], [ -77.34121, 38.84759 ], [ -77.34095, 38.84738 ], [ -77.33999, 38.84733 ], [ -77.33905, 38.84775 ] ], [ [ -77.33883, 38.86953 ], [ -77.3393, 38.87044 ], [ -77.33987, 38.86948 ], [ -77.33823, 38.86921 ], [ -77.338, 38.86847 ], [ -77.33904, 38.86813 ], [ -77.34049, 38.86843 ], [ -77.34104, 38.86752 ], [ -77.33817, 38.86647 ], [ -77.33712, 38.86685 ], [ -77.3366, 38.86616 ], [ -77.33636, 38.86674 ], [ -77.33791, 38.86816 ], [ -77.33726, 38.8686 ], [ -77.33731, 38.86939 ], [ -77.33883, 38.86953 ] ], [ [ -77.33155, 38.85242 ], [ -77.33052, 38.85253 ], [ -77.33118, 38.85348 ], [ -77.33017, 38.8537 ], [ -77.32963, 38.85441 ], [ -77.33189, 38.85527 ], [ -77.33155, 38.85242 ] ], [ [ -77.3374, 38.85888 ], [ -77.33746, 38.85889 ], [ -77.33735, 38.85885 ], [ -77.3374, 38.85888 ] ], [ [ -77.33602, 38.85901 ], [ -77.33709, 38.85874 ], [ -77.33593, 38.85828 ], [ -77.33602, 38.85901 ] ], [ [ -77.3389, 38.85799 ], [ -77.33893, 38.85796 ], [ -77.33684, 38.85643 ], [ -77.33654, 38.85707 ], [ -77.3389, 38.85799 ] ], [ [ -77.33639, 38.85461 ], [ -77.33647, 38.85451 ], [ -77.33646, 38.85451 ], [ -77.33639, 38.85461 ] ], [ [ -77.33729, 38.85187 ], [ -77.33717, 38.85182 ], [ -77.33692, 38.85178 ], [ -77.33729, 38.85187 ] ], [ [ -77.3391, 38.85448 ], [ -77.33823, 38.85458 ], [ -77.33754, 38.85549 ], [ -77.3392, 38.85681 ], [ -77.33997, 38.85486 ], [ -77.3391, 38.85448 ] ], [ [ -77.33923, 38.87066 ], [ -77.33924, 38.87069 ], [ -77.33924, 38.87062 ], [ -77.33923, 38.87066 ] ], [ [ -77.33461, 38.85206 ], [ -77.33309, 38.85223 ], [ -77.33342, 38.85323 ], [ -77.33485, 38.8533 ], [ -77.33461, 38.85206 ] ], [ [ -77.33378, 38.85078 ], [ -77.33461, 38.85059 ], [ -77.33451, 38.85013 ], [ -77.33368, 38.85022 ], [ -77.33378, 38.85078 ] ], [ [ -77.33644, 38.85185 ], [ -77.33662, 38.85181 ], [ -77.33655, 38.85182 ], [ -77.33644, 38.85185 ] ], [ [ -77.33534, 38.85617 ], [ -77.33455, 38.85631 ], [ -77.33516, 38.85655 ], [ -77.33534, 38.85617 ] ], [ [ -77.33719, 38.86059 ], [ -77.3362, 38.86036 ], [ -77.33699, 38.86171 ], [ -77.33751, 38.86114 ], [ -77.33719, 38.86059 ] ], [ [ -77.33296, 38.8711 ], [ -77.33189, 38.87064 ], [ -77.33093, 38.87128 ], [ -77.33116, 38.87158 ], [ -77.33308, 38.87153 ], [ -77.33296, 38.8711 ] ], [ [ -77.33338, 38.87697 ], [ -77.33315, 38.87693 ], [ -77.3329, 38.87808 ], [ -77.33338, 38.87697 ] ], [ [ -77.33063, 38.85131 ], [ -77.33032, 38.85054 ], [ -77.32786, 38.85164 ], [ -77.33063, 38.85131 ] ], [ [ -77.32763, 38.84873 ], [ -77.32757, 38.84865 ], [ -77.32736, 38.84889 ], [ -77.32763, 38.84873 ] ], [ [ -77.32903, 38.84708 ], [ -77.32686, 38.8471 ], [ -77.32778, 38.8482 ], [ -77.3289, 38.84825 ], [ -77.32903, 38.84708 ] ], [ [ -77.32842, 38.84609 ], [ -77.3284, 38.84611 ], [ -77.32842, 38.84611 ], [ -77.32842, 38.84609 ] ], [ [ -77.32833, 38.84394 ], [ -77.32857, 38.84391 ], [ -77.32847, 38.84384 ], [ -77.32833, 38.84394 ] ], [ [ -77.32893, 38.845 ], [ -77.32917, 38.84517 ], [ -77.32906, 38.84487 ], [ -77.32893, 38.845 ] ], [ [ -77.32553, 38.84478 ], [ -77.32558, 38.84475 ], [ -77.32549, 38.84474 ], [ -77.32553, 38.84478 ] ], [ [ -77.32597, 38.84246 ], [ -77.32602, 38.8426 ], [ -77.3261, 38.84247 ], [ -77.32597, 38.84246 ] ], [ [ -77.32637, 38.8458 ], [ -77.32638, 38.84564 ], [ -77.32629, 38.8457 ], [ -77.32637, 38.8458 ] ], [ [ -77.33064, 38.8638 ], [ -77.3307, 38.8638 ], [ -77.33067, 38.86371 ], [ -77.33064, 38.8638 ] ], [ [ -77.32861, 38.8672 ], [ -77.32878, 38.86708 ], [ -77.32805, 38.8673 ], [ -77.32861, 38.8672 ] ], [ [ -77.31716, 38.87117 ], [ -77.31589, 38.87069 ], [ -77.31662, 38.87129 ], [ -77.3165, 38.87169 ], [ -77.31557, 38.872 ], [ -77.31585, 38.87215 ], [ -77.31654, 38.87169 ], [ -77.31716, 38.87117 ] ], [ [ -77.31793, 38.87026 ], [ -77.31823, 38.86987 ], [ -77.31409, 38.86908 ], [ -77.31793, 38.87026 ] ], [ [ -77.31176, 38.86545 ], [ -77.30999, 38.86501 ], [ -77.31159, 38.86616 ], [ -77.31176, 38.86545 ] ], [ [ -77.31207, 38.8641 ], [ -77.30861, 38.86327 ], [ -77.3087, 38.86366 ], [ -77.31207, 38.8641 ] ], [ [ -77.31246, 38.86135 ], [ -77.31186, 38.86289 ], [ -77.31233, 38.86301 ], [ -77.31246, 38.86135 ] ], [ [ -77.31295, 38.86033 ], [ -77.313, 38.86012 ], [ -77.31103, 38.86016 ], [ -77.31084, 38.86044 ], [ -77.31133, 38.86063 ], [ -77.31175, 38.8603 ], [ -77.31295, 38.86033 ] ], [ [ -77.31138, 38.854 ], [ -77.30936, 38.85403 ], [ -77.3108, 38.85424 ], [ -77.31109, 38.8562 ], [ -77.31138, 38.854 ] ], [ [ -77.30899, 38.85142 ], [ -77.30838, 38.8521 ], [ -77.30985, 38.85192 ], [ -77.30966, 38.85119 ], [ -77.30878, 38.8508 ], [ -77.30881, 38.85025 ], [ -77.30856, 38.85104 ], [ -77.30899, 38.85142 ] ], [ [ -77.31263, 38.85212 ], [ -77.3126, 38.85212 ], [ -77.31262, 38.85213 ], [ -77.31263, 38.85212 ] ], [ [ -77.3138, 38.85056 ], [ -77.31149, 38.84992 ], [ -77.31222, 38.85018 ], [ -77.3138, 38.85056 ] ], [ [ -77.30901, 38.8476 ], [ -77.30818, 38.8481 ], [ -77.30696, 38.8478 ], [ -77.30748, 38.84968 ], [ -77.30747, 38.84875 ], [ -77.30795, 38.84833 ], [ -77.30881, 38.84852 ], [ -77.30883, 38.84916 ], [ -77.30995, 38.84958 ], [ -77.31146, 38.84847 ], [ -77.30901, 38.8476 ] ], [ [ -77.31395, 38.84593 ], [ -77.31208, 38.84597 ], [ -77.31064, 38.84651 ], [ -77.30875, 38.84613 ], [ -77.31319, 38.84773 ], [ -77.31395, 38.84593 ] ], [ [ -77.31292, 38.84463 ], [ -77.31265, 38.84455 ], [ -77.3129, 38.84488 ], [ -77.31381, 38.84486 ], [ -77.31292, 38.84463 ] ], [ [ -77.32135, 38.86631 ], [ -77.31987, 38.86597 ], [ -77.31946, 38.86682 ], [ -77.31874, 38.86708 ], [ -77.3201, 38.86783 ], [ -77.32135, 38.86631 ] ], [ [ -77.32007, 38.86257 ], [ -77.32031, 38.86108 ], [ -77.31437, 38.86025 ], [ -77.31431, 38.86053 ], [ -77.31904, 38.86122 ], [ -77.31949, 38.86245 ], [ -77.32007, 38.86257 ] ], [ [ -77.31852, 38.85944 ], [ -77.31461, 38.8588 ], [ -77.31457, 38.85915 ], [ -77.32121, 38.86009 ], [ -77.3213, 38.85968 ], [ -77.31852, 38.85944 ] ], [ [ -77.31662, 38.8576 ], [ -77.31479, 38.85749 ], [ -77.31476, 38.85772 ], [ -77.31877, 38.85837 ], [ -77.31662, 38.8576 ] ], [ [ -77.3196, 38.85748 ], [ -77.32089, 38.8576 ], [ -77.31966, 38.8574 ], [ -77.31921, 38.85695 ], [ -77.31876, 38.85716 ], [ -77.3196, 38.85748 ] ], [ [ -77.32286, 38.85383 ], [ -77.32495, 38.85413 ], [ -77.32673, 38.85488 ], [ -77.32713, 38.85555 ], [ -77.32751, 38.8549 ], [ -77.3238, 38.85336 ], [ -77.31922, 38.85447 ], [ -77.32286, 38.85383 ] ], [ [ -77.31786, 38.84897 ], [ -77.31759, 38.84944 ], [ -77.31876, 38.84993 ], [ -77.31896, 38.84959 ], [ -77.31786, 38.84897 ] ], [ [ -77.32008, 38.84644 ], [ -77.31951, 38.84555 ], [ -77.31949, 38.84644 ], [ -77.32008, 38.84644 ] ], [ [ -77.31319, 38.84332 ], [ -77.313, 38.8435 ], [ -77.31463, 38.84393 ], [ -77.31319, 38.84332 ] ], [ [ -77.32527, 38.86239 ], [ -77.32404, 38.86231 ], [ -77.32376, 38.86159 ], [ -77.32216, 38.86136 ], [ -77.3212, 38.86312 ], [ -77.32186, 38.86384 ], [ -77.32234, 38.86361 ], [ -77.32316, 38.86385 ], [ -77.32527, 38.86239 ] ], [ [ -77.32424, 38.85978 ], [ -77.32268, 38.85981 ], [ -77.32257, 38.86028 ], [ -77.32463, 38.86066 ], [ -77.32502, 38.86026 ], [ -77.32424, 38.85978 ] ], [ [ -77.32332, 38.85698 ], [ -77.3238, 38.85712 ], [ -77.32395, 38.85679 ], [ -77.32332, 38.85698 ] ], [ [ -77.32751, 38.86833 ], [ -77.32729, 38.8682 ], [ -77.32696, 38.86874 ], [ -77.32736, 38.86929 ], [ -77.32751, 38.86833 ] ], [ [ -77.31885, 38.84305 ], [ -77.31885, 38.84307 ], [ -77.31886, 38.84306 ], [ -77.31885, 38.84305 ] ], [ [ -77.32004, 38.84432 ], [ -77.31997, 38.84423 ], [ -77.31998, 38.84449 ], [ -77.32004, 38.84432 ] ], [ [ -77.32141, 38.85237 ], [ -77.32132, 38.85252 ], [ -77.32148, 38.85249 ], [ -77.32141, 38.85237 ] ], [ [ -77.32318, 38.85524 ], [ -77.32317, 38.85522 ], [ -77.32317, 38.85525 ], [ -77.32318, 38.85524 ] ], [ [ -77.32127, 38.86859 ], [ -77.32135, 38.86863 ], [ -77.32132, 38.86854 ], [ -77.32127, 38.86859 ] ], [ [ -77.31747, 38.84344 ], [ -77.31747, 38.84324 ], [ -77.31717, 38.84349 ], [ -77.31747, 38.84344 ] ], [ [ -77.31746, 38.8426 ], [ -77.31721, 38.84255 ], [ -77.31747, 38.84275 ], [ -77.31746, 38.8426 ] ], [ [ -77.31729, 38.84466 ], [ -77.31753, 38.84473 ], [ -77.31751, 38.84469 ], [ -77.31729, 38.84466 ] ], [ [ -77.31677, 38.85652 ], [ -77.31621, 38.85566 ], [ -77.31438, 38.85638 ], [ -77.31677, 38.85652 ] ], [ [ -77.31551, 38.85288 ], [ -77.316, 38.85188 ], [ -77.31488, 38.85132 ], [ -77.31393, 38.85256 ], [ -77.31405, 38.85325 ], [ -77.31551, 38.85288 ] ], [ [ -77.3147, 38.84759 ], [ -77.31521, 38.84763 ], [ -77.3152, 38.84752 ], [ -77.31492, 38.84721 ], [ -77.3147, 38.84759 ] ], [ [ -77.3158, 38.84842 ], [ -77.31638, 38.84892 ], [ -77.3167, 38.84835 ], [ -77.3158, 38.84842 ] ], [ [ -77.31734, 38.84739 ], [ -77.31791, 38.84639 ], [ -77.31687, 38.84638 ], [ -77.31648, 38.84722 ], [ -77.31734, 38.84739 ] ], [ [ -77.31575, 38.85002 ], [ -77.31565, 38.85008 ], [ -77.31548, 38.85023 ], [ -77.31575, 38.85002 ] ], [ [ -77.31795, 38.85498 ], [ -77.31745, 38.85518 ], [ -77.31818, 38.85602 ], [ -77.31795, 38.85498 ] ], [ [ -77.31856, 38.85333 ], [ -77.3185, 38.85342 ], [ -77.31851, 38.85343 ], [ -77.31856, 38.85333 ] ], [ [ -77.31302, 38.85848 ], [ -77.31238, 38.85895 ], [ -77.3132, 38.85902 ], [ -77.31341, 38.85742 ], [ -77.3126, 38.85757 ], [ -77.31302, 38.85848 ] ], [ [ -77.31844, 38.86591 ], [ -77.31854, 38.86566 ], [ -77.3134, 38.86443 ], [ -77.31334, 38.86468 ], [ -77.31844, 38.86591 ] ], [ [ -77.31622, 38.8622 ], [ -77.31718, 38.86234 ], [ -77.31697, 38.86412 ], [ -77.31727, 38.86419 ], [ -77.31792, 38.86214 ], [ -77.31576, 38.86183 ], [ -77.31532, 38.86372 ], [ -77.31564, 38.8638 ], [ -77.31622, 38.8622 ] ], [ [ -77.31908, 38.86436 ], [ -77.31871, 38.86404 ], [ -77.31861, 38.8645 ], [ -77.31908, 38.86436 ] ], [ [ -77.31897, 38.86895 ], [ -77.31923, 38.86868 ], [ -77.31884, 38.86856 ], [ -77.31897, 38.86895 ] ], [ [ -77.31407, 38.84248 ], [ -77.31422, 38.84256 ], [ -77.31412, 38.84243 ], [ -77.31407, 38.84248 ] ], [ [ -77.31366, 38.86332 ], [ -77.31399, 38.8634 ], [ -77.3144, 38.86163 ], [ -77.31407, 38.86159 ], [ -77.31366, 38.86332 ] ], [ [ -77.30902, 38.87906 ], [ -77.309, 38.87917 ], [ -77.30926, 38.87904 ], [ -77.30902, 38.87906 ] ], [ [ -77.31258, 38.87189 ], [ -77.31064, 38.8718 ], [ -77.30901, 38.87513 ], [ -77.30981, 38.87583 ], [ -77.31332, 38.87357 ], [ -77.31258, 38.87189 ] ], [ [ -77.31231, 38.8703 ], [ -77.31232, 38.87031 ], [ -77.31232, 38.8703 ], [ -77.31231, 38.8703 ] ], [ [ -77.31376, 38.87026 ], [ -77.31389, 38.8702 ], [ -77.31372, 38.87015 ], [ -77.31376, 38.87026 ] ], [ [ -77.31092, 38.87893 ], [ -77.31075, 38.8785 ], [ -77.31042, 38.87932 ], [ -77.31216, 38.87915 ], [ -77.31092, 38.87893 ] ], [ [ -77.30781, 38.87586 ], [ -77.30715, 38.87659 ], [ -77.30809, 38.87634 ], [ -77.30781, 38.87586 ] ], [ [ -77.30825, 38.8601 ], [ -77.30816, 38.8601 ], [ -77.30815, 38.8603 ], [ -77.30825, 38.8601 ] ], [ [ -77.3082, 38.85867 ], [ -77.3082, 38.85902 ], [ -77.30965, 38.85902 ], [ -77.30977, 38.85812 ], [ -77.3082, 38.85867 ] ], [ [ -77.30814, 38.85713 ], [ -77.30815, 38.85736 ], [ -77.30836, 38.85728 ], [ -77.30814, 38.85713 ] ], [ [ -77.30888, 38.8551 ], [ -77.30808, 38.85508 ], [ -77.30807, 38.85604 ], [ -77.30875, 38.85605 ], [ -77.30888, 38.8551 ] ], [ [ -77.3069, 38.85247 ], [ -77.30659, 38.85321 ], [ -77.30681, 38.85307 ], [ -77.3069, 38.85247 ] ], [ [ -77.30638, 38.85041 ], [ -77.3064, 38.85055 ], [ -77.30658, 38.85052 ], [ -77.30638, 38.85041 ] ], [ [ -77.30524, 38.84964 ], [ -77.30525, 38.84987 ], [ -77.30589, 38.84979 ], [ -77.30524, 38.84964 ] ], [ [ -77.30548, 38.84751 ], [ -77.30541, 38.84772 ], [ -77.30555, 38.84765 ], [ -77.30548, 38.84751 ] ], [ [ -77.3095, 38.84509 ], [ -77.30912, 38.84497 ], [ -77.30911, 38.84508 ], [ -77.3095, 38.84509 ] ], [ [ -77.31095, 38.85183 ], [ -77.31089, 38.8519 ], [ -77.31128, 38.85195 ], [ -77.31095, 38.85183 ] ], [ [ -77.31111, 38.85764 ], [ -77.31114, 38.85775 ], [ -77.31117, 38.85762 ], [ -77.31111, 38.85764 ] ], [ [ -77.31041, 38.86254 ], [ -77.31054, 38.86257 ], [ -77.31097, 38.86146 ], [ -77.31041, 38.86254 ] ], [ [ -77.3094, 38.86153 ], [ -77.30936, 38.86153 ], [ -77.30937, 38.86155 ], [ -77.3094, 38.86153 ] ], [ [ -77.30911, 38.86218 ], [ -77.30901, 38.86221 ], [ -77.30909, 38.86223 ], [ -77.30911, 38.86218 ] ], [ [ -77.30641, 38.85477 ], [ -77.30671, 38.85476 ], [ -77.30671, 38.85469 ], [ -77.30641, 38.85477 ] ], [ [ -77.30668, 38.85921 ], [ -77.30524, 38.85971 ], [ -77.30585, 38.86018 ], [ -77.30579, 38.86064 ], [ -77.30642, 38.86066 ], [ -77.30668, 38.85921 ] ], [ [ -77.30668, 38.85585 ], [ -77.30614, 38.85585 ], [ -77.30551, 38.85718 ], [ -77.30333, 38.858 ], [ -77.30406, 38.85884 ], [ -77.30641, 38.85798 ], [ -77.30668, 38.85585 ] ], [ [ -77.30495, 38.85517 ], [ -77.30313, 38.85517 ], [ -77.3036, 38.85547 ], [ -77.30495, 38.85517 ] ], [ [ -77.30396, 38.85657 ], [ -77.30429, 38.85645 ], [ -77.3042, 38.85643 ], [ -77.30396, 38.85657 ] ], [ [ -77.30233, 38.85571 ], [ -77.30289, 38.85516 ], [ -77.30214, 38.85513 ], [ -77.30233, 38.85571 ] ], [ [ -77.3006, 38.85604 ], [ -77.30108, 38.85625 ], [ -77.30082, 38.85611 ], [ -77.3006, 38.85604 ] ], [ [ -77.30148, 38.8575 ], [ -77.30137, 38.85714 ], [ -77.30123, 38.85765 ], [ -77.30148, 38.8575 ] ], [ [ -77.29919, 38.85854 ], [ -77.2995, 38.85843 ], [ -77.29922, 38.85833 ], [ -77.29919, 38.85854 ] ], [ [ -77.29989, 38.85739 ], [ -77.29992, 38.85726 ], [ -77.29982, 38.85736 ], [ -77.29989, 38.85739 ] ], [ [ -77.30353, 38.86031 ], [ -77.30302, 38.8605 ], [ -77.30375, 38.86054 ], [ -77.30353, 38.86031 ] ] ] } },
{ "type": "Feature", "properties": { "variant": "T2s", "miles": 1.0 }, "geometry": { "type": "Polygon", "coordinates": [ [ [ -77.33581, 38.8519 ], [ -77.33309, 38.85223 ], [ -77.33342, 38.85323 ], [ -77.33508, 38.85331 ], [ -77.33542, 38.8527 ], [ -77.33594, 38.85261 ], [ -77.33648, 38.85332 ], [ -77.33796, 38.85339 ], [ -77.3385, 38.85391 ], [ -77.336, 38.85794 ], [ -77.33582, 38.85901 ], [ -77.33699, 38.85871 ], [ -77.33797, 38.85916 ], [ -77.33804, 38.85957 ], [ -77.33612, 38.86028 ], [ -77.33692, 38.86141 ], [ -77.33676, 38.86271 ], [ -77.33579, 38.86262 ], [ -77.33458, 38.86025 ], [ -77.33463, 38.85778 ], [ -77.33256, 38.85689 ], [ -77.33101, 38.85856 ], [ -77.33203, 38.85908 ], [ -77.33194, 38.85994 ], [ -77.32993, 38.86185 ], [ -77.32937, 38.8639 ], [ -77.32844, 38.86413 ], [ -77.32618, 38.86331 ], [ -77.32486, 38.86424 ], [ -77.32553, 38.86462 ], [ -77.32558, 38.86539 ], [ -77.3247, 38.86553 ], [ -77.32386, 38.86498 ], [ -77.32172, 38.86804 ], [ -77.32358, 38.86835 ], [ -77.32383, 38.86898 ], [ -77.32564, 38.86918 ], [ -77.32556, 38.86994 ], [ -77.32209, 38.87001 ], [ -77.32042, 38.86944 ], [ -77.31879, 38.87144 ], [ -77.31789, 38.87155 ], [ -77.31746, 38.87107 ], [ -77.31823, 38.86987 ], [ -77.31725, 38.86942 ], [ -77.3175, 38.86828 ], [ -77.31648, 38.86792 ], [ -77.31699, 38.86727 ], [ -77.31859, 38.86702 ], [ -77.31817, 38.8667 ], [ -77.31854, 38.86566 ], [ -77.3143, 38.86464 ], [ -77.31384, 38.86396 ], [ -77.31471, 38.8636 ], [ -77.31727, 38.86421 ], [ -77.31818, 38.86153 ], [ -77.31911, 38.8613 ], [ -77.3195, 38.86181 ], [ -77.31926, 38.86241 ], [ -77.32007, 38.86257 ], [ -77.32031, 38.86108 ], [ -77.31437, 38.86025 ], [ -77.31389, 38.86141 ], [ -77.31293, 38.86127 ], [ -77.313, 38.86012 ], [ -77.31151, 38.85998 ], [ -77.3109, 38.85938 ], [ -77.31167, 38.85891 ], [ -77.3132, 38.85905 ], [ -77.31341, 38.85742 ], [ -77.31153, 38.85731 ], [ -77.31106, 38.85675 ], [ -77.3113, 38.85639 ], [ -77.31998, 38.85298 ], [ -77.32355, 38.85217 ], [ -77.3252, 38.85225 ], [ -77.32546, 38.85268 ], [ -77.32785, 38.85369 ], [ -77.32864, 38.85275 ], [ -77.32737, 38.85275 ], [ -77.3272, 38.85188 ], [ -77.33063, 38.85131 ], [ -77.32992, 38.84946 ], [ -77.33033, 38.84877 ], [ -77.33086, 38.84879 ], [ -77.33148, 38.84973 ], [ -77.33336, 38.84966 ], [ -77.33378, 38.85078 ], [ -77.33595, 38.85052 ], [ -77.33632, 38.85125 ], [ -77.33581, 38.8519 ] ], [ [ -77.32919, 38.85771 ], [ -77.32848, 38.85872 ], [ -77.32722, 38.85941 ], [ -77.32582, 38.86131 ], [ -77.32612, 38.86148 ], [ -77.32647, 38.86118 ], [ -77.32954, 38.85798 ], [ -77.32919, 38.85771 ] ], [ [ -77.32751, 38.8549 ], [ -77.3238, 38.85336 ], [ -77.31922, 38.85447 ], [ -77.32261, 38.85383 ], [ -77.32462, 38.85405 ], [ -77.32673, 38.85488 ], [ -77.32716, 38.85556 ], [ -77.32751, 38.8549 ] ], [ [ -77.33465, 38.8563 ], [ -77.33455, 38.85631 ], [ -77.33516, 38.85655 ], [ -77.33534, 38.85617 ], [ -77.33465, 38.8563 ] ], [ [ -77.33639, 38.85461 ], [ -77.33647, 38.85451 ], [ -77.33625, 38.8545 ], [ -77.33639, 38.85461 ] ], [ [ -77.33048, 38.85718 ], [ -77.33121, 38.85635 ], [ -77.32874, 38.8554 ], [ -77.3285, 38.85584 ], [ -77.33048, 38.85718 ] ], [ [ -77.33189, 38.85527 ], [ -77.33202, 38.85482 ], [ -77.33155, 38.85242 ], [ -77.33052, 38.85253 ], [ -77.33118, 38.85348 ], [ -77.33017, 38.8537 ], [ -77.32963, 38.85441 ], [ -77.33189, 38.85527 ] ], [ [ -77.32302, 38.86396 ], [ -77.32527, 38.86239 ], [ -77.32404, 38.86231 ], [ -77.32376, 38.86159 ], [ -77.32216, 38.86136 ], [ -77.3212, 38.86312 ], [ -77.32186, 38.86384 ], [ -77.32234, 38.86361 ], [ -77.32302, 38.86396 ] ], [ [ -77.31847, 38.85943 ], [ -77.31461, 38.8588 ], [ -77.31457, 38.85918 ], [ -77.32012, 38.85996 ], [ -77.3212, 38.86011 ], [ -77.32129, 38.85972 ], [ -77.31847, 38.85943 ] ], [ [ -77.31966, 38.8574 ], [ -77.31921, 38.85695 ], [ -77.31876, 38.85716 ], [ -77.31959, 38.85748 ], [ -77.32089, 38.8576 ], [ -77.31966, 38.8574 ] ], [ [ -77.32424, 38.85978 ], [ -77.32268, 38.85981 ], [ -77.32256, 38.86032 ], [ -77.3246, 38.86069 ], [ -77.32502, 38.86026 ], [ -77.32424, 38.85978 ] ], [ [ -77.32317, 38.85525 ], [ -77.32318, 38.85524 ], [ -77.32317, 38.85522 ], [ -77.32317, 38.85525 ] ], [ [ -77.3238, 38.85712 ], [ -77.32395, 38.85679 ], [ -77.32334, 38.85671 ], [ -77.3238, 38.85712 ] ], [ [ -77.31987, 38.86597 ], [ -77.31939, 38.86688 ], [ -77.31864, 38.86702 ], [ -77.3201, 38.86783 ], [ -77.32133, 38.86633 ], [ -77.31987, 38.86597 ] ], [ [ -77.32135, 38.86863 ], [ -77.32132, 38.86854 ], [ -77.32127, 38.86859 ], [ -77.32135, 38.86863 ] ], [ [ -77.3186, 38.86454 ], [ -77.31897, 38.86463 ], [ -77.31911, 38.86438 ], [ -77.31872, 38.86405 ], [ -77.3186, 38.86454 ] ], [ [ -77.31872, 38.86885 ], [ -77.31897, 38.86895 ], [ -77.31923, 38.86868 ], [ -77.31884, 38.86856 ], [ -77.31872, 38.86885 ] ], [ [ -77.31621, 38.85566 ], [ -77.31438, 38.85638 ], [ -77.31677, 38.85652 ], [ -77.31621, 38.85566 ] ], [ [ -77.31795, 38.85498 ], [ -77.31745, 38.85518 ], [ -77.31796, 38.85597 ], [ -77.31835, 38.85532 ], [ -77.31795, 38.85498 ] ], [ [ -77.31479, 38.85749 ], [ -77.31476, 38.85772 ], [ -77.31877, 38.85837 ], [ -77.31649, 38.85758 ], [ -77.31479, 38.85749 ] ] ] } },
{ "type": "Feature", "properties": { "variant": "T2s", "miles": 1.5 }, "geometry": { "type": "Polygon", "coordinates": [ [ [ -77.34509, 38.85171 ], [ -77.34559, 38.85198 ], [ -77.34541, 38.85309 ], [ -77.3471, 38.8524 ], [ -77.34807, 38.85286 ], [ -77.3477, 38.85352 ], [ -77.34566, 38.85461 ], [ -77.34655, 38.8555 ], [ -77.34581, 38.85671 ], [ -77.347, 38.85735 ], [ -77.34717, 38.85774 ], [ -77.34666, 38.85818 ], [ -77.34813, 38.85907 ], [ -77.34675, 38.86069 ], [ -77.34528, 38.86111 ], [ -77.34333, 38.86053 ], [ -77.34262, 38.85991 ], [ -77.34189, 38.86001 ], [ -77.34155, 38.8597 ], [ -77.34201, 38.85858 ], [ -77.34145, 38.85848 ], [ -77.34063, 38.85945 ], [ -77.33889, 38.85894 ], [ -77.33861, 38.85859 ], [ -77.33893, 38.85793 ], [ -77.33684, 38.85643 ], [ -77.336, 38.85794 ], [ -77.33582, 38.85901 ], [ -77.33678, 38.85869 ], [ -77.33845, 38.85915 ], [ -77.34004, 38.86119 ], [ -77.3401, 38.86161 ], [ -77.33915, 38.86255 ], [ -77.33733, 38.86324 ], [ -77.33714, 38.86484 ], [ -77.33859, 38.86445 ], [ -77.33883, 38.86552 ], [ -77.33931, 38.86471 ], [ -77.34023, 38.86444 ], [ -77.34057, 38.86516 ], [ -77.34008, 38.86598 ], [ -77.34109, 38.86652 ], [ -77.34067, 38.86721 ], [ -77.33817, 38.86647 ], [ -77.33712, 38.86685 ], [ -77.33683, 38.86622 ], [ -77.33551, 38.86569 ], [ -77.33583, 38.86397 ], [ -77.33398, 38.86418 ], [ -77.33383, 38.86343 ], [ -77.3352, 38.86301 ], [ -77.33489, 38.86245 ], [ -77.33562, 38.86187 ], [ -77.33466, 38.8604 ], [ -77.33187, 38.86301 ], [ -77.33207, 38.86361 ], [ -77.33288, 38.86366 ], [ -77.33304, 38.86441 ], [ -77.32875, 38.86516 ], [ -77.3285, 38.86442 ], [ -77.3292, 38.86402 ], [ -77.32841, 38.86412 ], [ -77.32618, 38.86331 ], [ -77.32486, 38.86424 ], [ -77.32553, 38.86462 ], [ -77.32558, 38.86539 ], [ -77.3247, 38.86553 ], [ -77.32386, 38.86498 ], [ -77.32172, 38.86804 ], [ -77.32239, 38.86812 ], [ -77.32221, 38.86758 ], [ -77.32298, 38.8671 ], [ -77.32373, 38.86772 ], [ -77.32383, 38.86898 ], [ -77.32444, 38.86898 ], [ -77.32377, 38.86744 ], [ -77.32465, 38.86711 ], [ -77.32558, 38.86824 ], [ -77.3263, 38.86805 ], [ -77.32754, 38.86937 ], [ -77.32717, 38.86797 ], [ -77.3277, 38.86732 ], [ -77.32887, 38.86781 ], [ -77.32879, 38.8689 ], [ -77.32954, 38.86941 ], [ -77.33088, 38.86856 ], [ -77.33183, 38.86877 ], [ -77.33189, 38.86918 ], [ -77.33003, 38.87068 ], [ -77.33116, 38.87158 ], [ -77.33281, 38.8715 ], [ -77.33341, 38.87211 ], [ -77.33315, 38.87247 ], [ -77.33157, 38.87262 ], [ -77.33128, 38.87439 ], [ -77.33031, 38.8744 ], [ -77.33016, 38.87246 ], [ -77.32963, 38.87172 ], [ -77.3273, 38.87046 ], [ -77.32682, 38.87083 ], [ -77.32811, 38.87207 ], [ -77.3281, 38.87272 ], [ -77.32714, 38.87287 ], [ -77.32618, 38.87178 ], [ -77.3264, 38.87266 ], [ -77.32475, 38.87297 ], [ -77.32439, 38.87226 ], [ -77.32575, 38.87014 ], [ -77.32197, 38.87 ], [ -77.32042, 38.86944 ], [ -77.31819, 38.87207 ], [ -77.3152, 38.87412 ], [ -77.31549, 38.87568 ], [ -77.31461, 38.87578 ], [ -77.31381, 38.87504 ], [ -77.31194, 38.87623 ], [ -77.31171, 38.87687 ], [ -77.31078, 38.8771 ], [ -77.31012, 38.87586 ], [ -77.31344, 38.87371 ], [ -77.31264, 38.87193 ], [ -77.31015, 38.87178 ], [ -77.30979, 38.87077 ], [ -77.31379, 38.86794 ], [ -77.31741, 38.8685 ], [ -77.31648, 38.86792 ], [ -77.31656, 38.86751 ], [ -77.31843, 38.86704 ], [ -77.31309, 38.86575 ], [ -77.31303, 38.86604 ], [ -77.31566, 38.86659 ], [ -77.31585, 38.86734 ], [ -77.3149, 38.86759 ], [ -77.312, 38.86689 ], [ -77.3116, 38.86641 ], [ -77.31176, 38.86545 ], [ -77.30753, 38.86433 ], [ -77.3071, 38.86177 ], [ -77.30634, 38.86119 ], [ -77.30668, 38.85921 ], [ -77.30416, 38.8601 ], [ -77.30326, 38.85986 ], [ -77.30348, 38.85903 ], [ -77.30668, 38.85788 ], [ -77.30696, 38.85382 ], [ -77.30793, 38.85385 ], [ -77.30807, 38.85604 ], [ -77.31205, 38.85608 ], [ -77.31523, 38.85474 ], [ -77.31498, 38.85394 ], [ -77.316, 38.85188 ], [ -77.3158, 38.85133 ], [ -77.31665, 38.8504 ], [ -77.31464, 38.84942 ], [ -77.31509, 38.84861 ], [ -77.31876, 38.84993 ], [ -77.31902, 38.8495 ], [ -77.31741, 38.84878 ], [ -77.3172, 38.84803 ], [ -77.31816, 38.84787 ], [ -77.32048, 38.84906 ], [ -77.32187, 38.84702 ], [ -77.32403, 38.84761 ], [ -77.32448, 38.84651 ], [ -77.325, 38.84643 ], [ -77.32639, 38.84714 ], [ -77.32736, 38.84889 ], [ -77.32812, 38.84803 ], [ -77.3289, 38.84825 ], [ -77.32954, 38.84712 ], [ -77.33103, 38.84699 ], [ -77.33361, 38.848 ], [ -77.33538, 38.84793 ], [ -77.33588, 38.84859 ], [ -77.33536, 38.84746 ], [ -77.33559, 38.84709 ], [ -77.33793, 38.84689 ], [ -77.33948, 38.84505 ], [ -77.34035, 38.84539 ], [ -77.34032, 38.8458 ], [ -77.33905, 38.84775 ], [ -77.34079, 38.84801 ], [ -77.34137, 38.84902 ], [ -77.34067, 38.84956 ], [ -77.33997, 38.84888 ], [ -77.33963, 38.84886 ], [ -77.33967, 38.84963 ], [ -77.33864, 38.84981 ], [ -77.33871, 38.85035 ], [ -77.3421, 38.84996 ], [ -77.34217, 38.84885 ], [ -77.34289, 38.84834 ], [ -77.34355, 38.84891 ], [ -77.34346, 38.85048 ], [ -77.34391, 38.85014 ], [ -77.34577, 38.85005 ], [ -77.34673, 38.85095 ], [ -77.34616, 38.85157 ], [ -77.34509, 38.85171 ] ], [ [ -77.33064, 38.8638 ], [ -77.3307, 38.8638 ], [ -77.33067, 38.86371 ], [ -77.33064, 38.8638 ] ], [ [ -77.3317, 38.86171 ], [ -77.33299, 38.85995 ], [ -77.3344, 38.85934 ], [ -77.33463, 38.85778 ], [ -77.33256, 38.85689 ], [ -77.33101, 38.85856 ], [ -77.33203, 38.85908 ], [ -77.33188, 38.86006 ], [ -77.3309, 38.8607 ], [ -77.32968, 38.86241 ], [ -77.3317, 38.86171 ] ], [ [ -77.33121, 38.85635 ], [ -77.32874, 38.8554 ], [ -77.32881, 38.85617 ], [ -77.33054, 38.85712 ], [ -77.33121, 38.85635 ] ], [ [ -77.3238, 38.85336 ], [ -77.31922, 38.85447 ], [ -77.32284, 38.85383 ], [ -77.32493, 38.85413 ], [ -77.32673, 38.85488 ], [ -77.32713, 38.85555 ], [ -77.32746, 38.85488 ], [ -77.3238, 38.85336 ] ], [ [ -77.32785, 38.85369 ], [ -77.32864, 38.85275 ], [ -77.32631, 38.85305 ], [ -77.32785, 38.85369 ] ], [ [ -77.3275, 38.85168 ], [ -77.32536, 38.85134 ], [ -77.32476, 38.8519 ], [ -77.32375, 38.85199 ], [ -77.3275, 38.85168 ] ], [ [ -77.34003, 38.85471 ], [ -77.33823, 38.85458 ], [ -77.33754, 38.85549 ], [ -77.3392, 38.85681 ], [ -77.34003, 38.85471 ] ], [ [ -77.34084, 38.85267 ], [ -77.34159, 38.85122 ], [ -77.33888, 38.8517 ], [ -77.33866, 38.85334 ], [ -77.34084, 38.85267 ] ], [ [ -77.34397, 38.85575 ], [ -77.34512, 38.85619 ], [ -77.34498, 38.85595 ], [ -77.34397, 38.85575 ] ], [ [ -77.34592, 38.85802 ], [ -77.34568, 38.85782 ], [ -77.34556, 38.85796 ], [ -77.34592, 38.85802 ] ], [ [ -77.33534, 38.85617 ], [ -77.33455, 38.85631 ], [ -77.33516, 38.85655 ], [ -77.33534, 38.85617 ] ], [ [ -77.33644, 38.85183 ], [ -77.33644, 38.85185 ], [ -77.33662, 38.85181 ], [ -77.33644, 38.85183 ] ], [ [ -77.33032, 38.85054 ], [ -77.32786, 38.85164 ], [ -77.33063, 38.85131 ], [ -77.33032, 38.85054 ] ], [ [ -77.33717, 38.85182 ], [ -77.33729, 38.85187 ], [ -77.33729, 38.85174 ], [ -77.33717, 38.85182 ] ], [ [ -77.33368, 38.85022 ], [ -77.33378, 38.85078 ], [ -77.33461, 38.85059 ], [ -77.33451, 38.85013 ], [ -77.33368, 38.85022 ] ], [ [ -77.33739, 38.86076 ], [ -77.3362, 38.86036 ], [ -77.33699, 38.86171 ], [ -77.33739, 38.86076 ] ], [ [ -77.33179, 38.85284 ], [ -77.33155, 38.85242 ], [ -77.33052, 38.85253 ], [ -77.33118, 38.85348 ], [ -77.33017, 38.8537 ], [ -77.32963, 38.85441 ], [ -77.33189, 38.85527 ], [ -77.33179, 38.85284 ] ], [ [ -77.33342, 38.85323 ], [ -77.33485, 38.8533 ], [ -77.33461, 38.85206 ], [ -77.3331, 38.85223 ], [ -77.33342, 38.85323 ] ], [ [ -77.3186, 38.86454 ], [ -77.31897, 38.86463 ], [ -77.31911, 38.86438 ], [ -77.31877, 38.86409 ], [ -77.3186, 38.86454 ] ], [ [ -77.31792, 38.86214 ], [ -77.31576, 38.86183 ], [ -77.31531, 38.86375 ], [ -77.31563, 38.86383 ], [ -77.31622, 38.8622 ], [ -77.31674, 38.86211 ], [ -77.31729, 38.86274 ], [ -77.31696, 38.86414 ], [ -77.31727, 38.86421 ], [ -77.31792, 38.86214 ] ], [ [ -77.31926, 38.86241 ], [ -77.32007, 38.86257 ], [ -77.32031, 38.86108 ], [ -77.31437, 38.86025 ], [ -77.31431, 38.86053 ], [ -77.31901, 38.86121 ], [ -77.31946, 38.86163 ], [ -77.31926, 38.86241 ] ], [ [ -77.3212, 38.86011 ], [ -77.3213, 38.85968 ], [ -77.31461, 38.8588 ], [ -77.31457, 38.85918 ], [ -77.3212, 38.86011 ] ], [ [ -77.31782, 38.85806 ], [ -77.31877, 38.85837 ], [ -77.31671, 38.85761 ], [ -77.31479, 38.85749 ], [ -77.31476, 38.85772 ], [ -77.31782, 38.85806 ] ], [ [ -77.31846, 38.85538 ], [ -77.31795, 38.85498 ], [ -77.31745, 38.85518 ], [ -77.3182, 38.85593 ], [ -77.31846, 38.85538 ] ], [ [ -77.31732, 38.85281 ], [ -77.31732, 38.85286 ], [ -77.31733, 38.85284 ], [ -77.31732, 38.85281 ] ], [ [ -77.32956, 38.85799 ], [ -77.32919, 38.85771 ], [ -77.32848, 38.85872 ], [ -77.32722, 38.85941 ], [ -77.32582, 38.86131 ], [ -77.32621, 38.86138 ], [ -77.32956, 38.85799 ] ], [ [ -77.32334, 38.85671 ], [ -77.32332, 38.85698 ], [ -77.3238, 38.85712 ], [ -77.32387, 38.85683 ], [ -77.32334, 38.85671 ] ], [ [ -77.32317, 38.85522 ], [ -77.32317, 38.85525 ], [ -77.32318, 38.85524 ], [ -77.32317, 38.85522 ] ], [ [ -77.32132, 38.85252 ], [ -77.32161, 38.85246 ], [ -77.32151, 38.85241 ], [ -77.32132, 38.85252 ] ], [ [ -77.32484, 38.8502 ], [ -77.32482, 38.85025 ], [ -77.32488, 38.85023 ], [ -77.32484, 38.8502 ] ], [ [ -77.32527, 38.86239 ], [ -77.32404, 38.86231 ], [ -77.32376, 38.86159 ], [ -77.32216, 38.86136 ], [ -77.3212, 38.86312 ], [ -77.32186, 38.86384 ], [ -77.32234, 38.86361 ], [ -77.32304, 38.86394 ], [ -77.32527, 38.86239 ] ], [ [ -77.3246, 38.86069 ], [ -77.32502, 38.86026 ], [ -77.32424, 38.85978 ], [ -77.32268, 38.85981 ], [ -77.32256, 38.86032 ], [ -77.3246, 38.86069 ] ], [ [ -77.31856, 38.85333 ], [ -77.3185, 38.85342 ], [ -77.31851, 38.85343 ], [ -77.31856, 38.85333 ] ], [ [ -77.31921, 38.85695 ], [ -77.31876, 38.85716 ], [ -77.32089, 38.8576 ], [ -77.31921, 38.85695 ] ], [ [ -77.31716, 38.87117 ], [ -77.31589, 38.87069 ], [ -77.31662, 38.87129 ], [ -77.3165, 38.87169 ], [ -77.31685, 38.87145 ], [ -77.31716, 38.87117 ] ], [ [ -77.31557, 38.872 ], [ -77.31585, 38.87215 ], [ -77.3165, 38.87169 ], [ -77.31557, 38.872 ] ], [ [ -77.31232, 38.8703 ], [ -77.31231, 38.8703 ], [ -77.31232, 38.87031 ], [ -77.31232, 38.8703 ] ], [ [ -77.31091, 38.86383 ], [ -77.30861, 38.86327 ], [ -77.3087, 38.86366 ], [ -77.31201, 38.86438 ], [ -77.31207, 38.8641 ], [ -77.31091, 38.86383 ] ], [ [ -77.31246, 38.86135 ], [ -77.31185, 38.86292 ], [ -77.31233, 38.86303 ], [ -77.31246, 38.86135 ] ], [ [ -77.313, 38.86012 ], [ -77.31103, 38.86016 ], [ -77.3102, 38.86062 ], [ -77.30876, 38.86058 ], [ -77.30816, 38.8601 ], [ -77.30815, 38.86086 ], [ -77.30937, 38.86155 ], [ -77.31022, 38.86122 ], [ -77.31062, 38.86149 ], [ -77.31052, 38.86261 ], [ -77.31182, 38.86028 ], [ -77.313, 38.86012 ] ], [ [ -77.31341, 38.85742 ], [ -77.31259, 38.85738 ], [ -77.31302, 38.85848 ], [ -77.31235, 38.85897 ], [ -77.31321, 38.8589 ], [ -77.31341, 38.85742 ] ], [ [ -77.31439, 38.86891 ], [ -77.31409, 38.86908 ], [ -77.31793, 38.87026 ], [ -77.318, 38.86978 ], [ -77.31439, 38.86891 ] ], [ [ -77.3134, 38.86443 ], [ -77.31334, 38.86468 ], [ -77.31844, 38.86591 ], [ -77.31854, 38.86566 ], [ -77.3134, 38.86443 ] ], [ [ -77.31987, 38.86597 ], [ -77.31946, 38.86682 ], [ -77.31874, 38.86708 ], [ -77.3201, 38.86783 ], [ -77.32128, 38.86631 ], [ -77.31987, 38.86597 ] ], [ [ -77.32135, 38.86863 ], [ -77.32132, 38.86854 ], [ -77.32127, 38.86859 ], [ -77.32135, 38.86863 ] ], [ [ -77.31923, 38.86868 ], [ -77.31884, 38.86856 ], [ -77.31872, 38.86885 ], [ -77.31923, 38.86868 ] ], [ [ -77.31499, 38.85629 ], [ -77.31438, 38.85638 ], [ -77.31677, 38.85652 ], [ -77.31621, 38.85566 ], [ -77.31499, 38.85629 ] ], [ [ -77.31365, 38.86336 ], [ -77.31398, 38.86344 ], [ -77.3144, 38.86163 ], [ -77.31365, 38.86336 ] ], [ [ -77.31372, 38.87015 ], [ -77.31369, 38.87014 ], [ -77.31376, 38.87026 ], [ -77.31372, 38.87015 ] ], [ [ -77.3082, 38.85902 ], [ -77.30965, 38.85902 ], [ -77.30977, 38.85812 ], [ -77.3082, 38.85902 ] ], [ [ -77.30836, 38.85728 ], [ -77.30873, 38.85716 ], [ -77.30814, 38.85713 ], [ -77.30836, 38.85728 ] ], [ [ -77.31117, 38.85762 ], [ -77.31111, 38.85764 ], [ -77.31114, 38.85775 ], [ -77.31117, 38.85762 ] ], [ [ -77.30911, 38.86218 ], [ -77.30896, 38.86223 ], [ -77.30908, 38.86226 ], [ -77.30911, 38.86218 ] ] ] } },
{ "type": "Feature", "properties": { "variant": "T2s", "miles": 2.0 }, "geometry": { "type": "Polygon", "coordinates": [ [ [ -77.3512, 38.84693 ], [ -77.35129, 38.84874 ], [ -77.35427, 38.84832 ], [ -77.35479, 38.84841 ], [ -77.35495, 38.84917 ], [ -77.35408, 38.84944 ], [ -77.35446, 38.84999 ], [ -77.35398, 38.85057 ], [ -77.35247, 38.85053 ], [ -77.35211, 38.84984 ], [ -77.34923, 38.85022 ], [ -77.34941, 38.85064 ], [ -77.35046, 38.851 ], [ -77.35008, 38.85172 ], [ -77.35185, 38.85097 ], [ -77.35256, 38.85167 ], [ -77.35032, 38.85297 ], [ -77.35, 38.85567 ], [ -77.34788, 38.85632 ], [ -77.34729, 38.85584 ], [ -77.3464, 38.85605 ], [ -77.34571, 38.85641 ], [ -77.34581, 38.85671 ], [ -77.347, 38.85735 ], [ -77.34717, 38.85774 ], [ -77.34666, 38.85818 ], [ -77.34982, 38.85988 ], [ -77.35179, 38.86014 ], [ -77.35161, 38.85985 ], [ -77.35083, 38.85956 ], [ -77.34915, 38.85732 ], [ -77.35017, 38.85659 ], [ -77.35121, 38.85646 ], [ -77.35202, 38.857 ], [ -77.35179, 38.85756 ], [ -77.3527, 38.85805 ], [ -77.35258, 38.85872 ], [ -77.35364, 38.85875 ], [ -77.35351, 38.85986 ], [ -77.35407, 38.85974 ], [ -77.35392, 38.85888 ], [ -77.35485, 38.85864 ], [ -77.35581, 38.85953 ], [ -77.35592, 38.86024 ], [ -77.354, 38.86089 ], [ -77.35062, 38.86123 ], [ -77.34743, 38.85979 ], [ -77.34675, 38.86069 ], [ -77.34528, 38.86111 ], [ -77.34333, 38.86053 ], [ -77.34262, 38.85991 ], [ -77.34189, 38.86001 ], [ -77.34155, 38.8597 ], [ -77.34201, 38.85858 ], [ -77.34145, 38.85848 ], [ -77.34063, 38.85945 ], [ -77.33889, 38.85894 ], [ -77.33861, 38.85859 ], [ -77.33893, 38.85793 ], [ -77.33684, 38.85643 ], [ -77.33582, 38.85901 ], [ -77.33678, 38.85869 ], [ -77.33849, 38.85917 ], [ -77.33923, 38.8598 ], [ -77.3401, 38.86161 ], [ -77.33907, 38.86261 ], [ -77.33733, 38.86324 ], [ -77.33715, 38.86488 ], [ -77.33859, 38.86445 ], [ -77.33883, 38.86552 ], [ -77.33931, 38.86471 ], [ -77.34023, 38.86444 ], [ -77.34057, 38.86516 ], [ -77.3401, 38.86598 ], [ -77.34063, 38.86508 ], [ -77.34155, 38.86482 ], [ -77.34189, 38.86553 ], [ -77.34135, 38.86644 ], [ -77.34215, 38.86675 ], [ -77.34634, 38.86586 ], [ -77.34778, 38.86347 ], [ -77.34872, 38.86368 ], [ -77.34735, 38.86675 ], [ -77.34492, 38.86718 ], [ -77.34461, 38.86874 ], [ -77.34357, 38.86864 ], [ -77.34348, 38.86754 ], [ -77.34238, 38.86782 ], [ -77.34173, 38.86892 ], [ -77.34296, 38.86982 ], [ -77.34289, 38.87032 ], [ -77.34198, 38.87059 ], [ -77.34106, 38.87004 ], [ -77.34011, 38.87125 ], [ -77.33923, 38.87093 ], [ -77.33987, 38.86948 ], [ -77.33823, 38.86921 ], [ -77.338, 38.86847 ], [ -77.33904, 38.86813 ], [ -77.34049, 38.86843 ], [ -77.34104, 38.86752 ], [ -77.33817, 38.86647 ], [ -77.33712, 38.86685 ], [ -77.33683, 38.86622 ], [ -77.33551, 38.86569 ], [ -77.33583, 38.86397 ], [ -77.33398, 38.86418 ], [ -77.33383, 38.86343 ], [ -77.3352, 38.86301 ], [ -77.33489, 38.86245 ], [ -77.33562, 38.86187 ], [ -77.33466, 38.8604 ], [ -77.33187, 38.86301 ], [ -77.33207, 38.86361 ], [ -77.33288, 38.86366 ], [ -77.33304, 38.86441 ], [ -77.32875, 38.86516 ], [ -77.3285, 38.86442 ], [ -77.3292, 38.86402 ], [ -77.32841, 38.86412 ], [ -77.32618, 38.86331 ], [ -77.32486, 38.86424 ], [ -77.32553, 38.86462 ], [ -77.32558, 38.86539 ], [ -77.3247, 38.86553 ], [ -77.32386, 38.86498 ], [ -77.32172, 38.86804 ], [ -77.32239, 38.86812 ], [ -77.32221, 38.86758 ], [ -77.32298, 38.8671 ], [ -77.32373, 38.86772 ], [ -77.32383, 38.86898 ], [ -77.32444, 38.86898 ], [ -77.32381, 38.86786 ], [ -77.32412, 38.86713 ], [ -77.32505, 38.86738 ], [ -77.32558, 38.86824 ], [ -77.32743, 38.86629 ], [ -77.33066, 38.86573 ], [ -77.33126, 38.86625 ], [ -77.33133, 38.8671 ], [ -77.32958, 38.86797 ], [ -77.32891, 38.86904 ], [ -77.32954, 38.86941 ], [ -77.33141, 38.86851 ], [ -77.33189, 38.86918 ], [ -77.33129, 38.86963 ], [ -77.33326, 38.87001 ], [ -77.33307, 38.86892 ], [ -77.33394, 38.86857 ], [ -77.33493, 38.8706 ], [ -77.33626, 38.86957 ], [ -77.33678, 38.86961 ], [ -77.33708, 38.87034 ], [ -77.33621, 38.87107 ], [ -77.33631, 38.87149 ], [ -77.33737, 38.87261 ], [ -77.33763, 38.87409 ], [ -77.33868, 38.87458 ], [ -77.33865, 38.87499 ], [ -77.33773, 38.87525 ], [ -77.33661, 38.87484 ], [ -77.33577, 38.87377 ], [ -77.33553, 38.87245 ], [ -77.33473, 38.87179 ], [ -77.33399, 38.87221 ], [ -77.33329, 38.87176 ], [ -77.33315, 38.87247 ], [ -77.33157, 38.87262 ], [ -77.33144, 38.87339 ], [ -77.33417, 38.87359 ], [ -77.3355, 38.87422 ], [ -77.3353, 38.87497 ], [ -77.33478, 38.87505 ], [ -77.33383, 38.87464 ], [ -77.33152, 38.87449 ], [ -77.33158, 38.87542 ], [ -77.33273, 38.8757 ], [ -77.33358, 38.87532 ], [ -77.33406, 38.87595 ], [ -77.33613, 38.87617 ], [ -77.33684, 38.8773 ], [ -77.33635, 38.87838 ], [ -77.33546, 38.87807 ], [ -77.33543, 38.87717 ], [ -77.3349, 38.87701 ], [ -77.33372, 38.87917 ], [ -77.33321, 38.8793 ], [ -77.33274, 38.87912 ], [ -77.33272, 38.87832 ], [ -77.33194, 38.87843 ], [ -77.33161, 38.87811 ], [ -77.33183, 38.87661 ], [ -77.33117, 38.87645 ], [ -77.3294, 38.87893 ], [ -77.32789, 38.87902 ], [ -77.32655, 38.87859 ], [ -77.3257, 38.87783 ], [ -77.32585, 38.87743 ], [ -77.32632, 38.87724 ], [ -77.3286, 38.87794 ], [ -77.33014, 38.87566 ], [ -77.33015, 38.87458 ], [ -77.32962, 38.87456 ], [ -77.3286, 38.87536 ], [ -77.32792, 38.87482 ], [ -77.32874, 38.87373 ], [ -77.33005, 38.8735 ], [ -77.32997, 38.87214 ], [ -77.32717, 38.87042 ], [ -77.32682, 38.87083 ], [ -77.32811, 38.87207 ], [ -77.3281, 38.87272 ], [ -77.32714, 38.87287 ], [ -77.32618, 38.87178 ], [ -77.3264, 38.87266 ], [ -77.32475, 38.87297 ], [ -77.32439, 38.87226 ], [ -77.32575, 38.87014 ], [ -77.32197, 38.87 ], [ -77.32042, 38.86944 ], [ -77.31819, 38.87207 ], [ -77.3152, 38.87412 ], [ -77.31549, 38.87568 ], [ -77.31461, 38.87578 ], [ -77.31381, 38.87504 ], [ -77.31235, 38.87597 ], [ -77.31354, 38.87892 ], [ -77.31418, 38.87895 ], [ -77.3145, 38.87928 ], [ -77.31423, 38.87981 ], [ -77.31586, 38.88079 ], [ -77.31588, 38.88156 ], [ -77.3149, 38.88157 ], [ -77.31238, 38.88024 ], [ -77.30914, 38.88044 ], [ -77.30874, 38.87957 ], [ -77.30793, 38.8796 ], [ -77.30683, 38.878 ], [ -77.30593, 38.878 ], [ -77.30367, 38.87981 ], [ -77.30243, 38.87906 ], [ -77.30243, 38.8783 ], [ -77.3036, 38.87845 ], [ -77.30411, 38.87799 ], [ -77.30374, 38.87717 ], [ -77.30306, 38.87717 ], [ -77.30283, 38.87655 ], [ -77.30152, 38.87583 ], [ -77.30198, 38.87502 ], [ -77.30353, 38.87527 ], [ -77.30555, 38.8763 ], [ -77.30682, 38.87487 ], [ -77.3076, 38.87469 ], [ -77.30915, 38.87146 ], [ -77.31168, 38.86925 ], [ -77.31419, 38.86783 ], [ -77.31741, 38.8685 ], [ -77.31648, 38.86792 ], [ -77.31656, 38.86751 ], [ -77.31843, 38.86704 ], [ -77.31309, 38.86575 ], [ -77.31303, 38.86604 ], [ -77.31566, 38.86659 ], [ -77.31585, 38.86734 ], [ -77.31475, 38.86757 ], [ -77.31208, 38.86692 ], [ -77.3116, 38.86639 ], [ -77.31115, 38.86686 ], [ -77.31063, 38.86682 ], [ -77.30784, 38.86459 ], [ -77.30776, 38.86631 ], [ -77.30646, 38.86729 ], [ -77.30575, 38.86676 ], [ -77.30624, 38.86562 ], [ -77.30464, 38.86382 ], [ -77.30533, 38.86287 ], [ -77.30585, 38.86291 ], [ -77.3064, 38.86367 ], [ -77.30634, 38.86181 ], [ -77.30076, 38.86126 ], [ -77.29745, 38.86204 ], [ -77.29662, 38.86164 ], [ -77.2971, 38.86088 ], [ -77.30278, 38.85929 ], [ -77.3021, 38.8585 ], [ -77.29821, 38.86008 ], [ -77.29781, 38.86058 ], [ -77.29686, 38.8604 ], [ -77.29701, 38.85952 ], [ -77.29794, 38.85899 ], [ -77.29805, 38.85755 ], [ -77.29931, 38.85543 ], [ -77.30067, 38.85496 ], [ -77.30098, 38.85337 ], [ -77.30066, 38.85273 ], [ -77.30156, 38.85242 ], [ -77.30223, 38.85273 ], [ -77.30252, 38.85323 ], [ -77.3021, 38.85405 ], [ -77.30364, 38.85427 ], [ -77.30382, 38.85466 ], [ -77.30311, 38.85517 ], [ -77.3036, 38.85547 ], [ -77.30484, 38.85545 ], [ -77.30546, 38.85487 ], [ -77.30671, 38.85476 ], [ -77.30621, 38.85383 ], [ -77.30681, 38.85307 ], [ -77.30705, 38.85155 ], [ -77.30592, 38.85158 ], [ -77.30562, 38.85124 ], [ -77.30572, 38.85083 ], [ -77.30658, 38.85052 ], [ -77.30591, 38.84986 ], [ -77.3059, 38.84868 ], [ -77.30686, 38.84857 ], [ -77.30748, 38.84968 ], [ -77.30747, 38.84875 ], [ -77.30795, 38.84833 ], [ -77.30881, 38.84852 ], [ -77.30883, 38.84916 ], [ -77.30995, 38.84958 ], [ -77.31158, 38.84851 ], [ -77.30825, 38.84733 ], [ -77.30718, 38.84772 ], [ -77.30669, 38.84708 ], [ -77.30741, 38.84616 ], [ -77.30826, 38.84604 ], [ -77.31318, 38.84777 ], [ -77.31395, 38.84593 ], [ -77.31215, 38.84597 ], [ -77.31148, 38.84542 ], [ -77.31219, 38.84489 ], [ -77.31445, 38.84484 ], [ -77.31481, 38.84414 ], [ -77.31562, 38.84417 ], [ -77.31467, 38.84371 ], [ -77.31502, 38.84299 ], [ -77.3186, 38.84375 ], [ -77.31865, 38.84241 ], [ -77.31998, 38.84156 ], [ -77.32092, 38.84177 ], [ -77.32109, 38.84256 ], [ -77.32143, 38.84186 ], [ -77.32335, 38.84231 ], [ -77.32356, 38.84154 ], [ -77.32435, 38.84117 ], [ -77.32741, 38.84156 ], [ -77.32774, 38.84228 ], [ -77.32707, 38.84349 ], [ -77.32791, 38.84209 ], [ -77.32883, 38.84183 ], [ -77.32919, 38.84213 ], [ -77.329, 38.84282 ], [ -77.33003, 38.84362 ], [ -77.33101, 38.84539 ], [ -77.33041, 38.84715 ], [ -77.33149, 38.84704 ], [ -77.33361, 38.848 ], [ -77.33522, 38.84788 ], [ -77.33588, 38.84859 ], [ -77.33536, 38.84746 ], [ -77.33559, 38.84709 ], [ -77.33793, 38.84689 ], [ -77.33875, 38.8458 ], [ -77.33539, 38.84447 ], [ -77.33545, 38.84168 ], [ -77.33673, 38.84121 ], [ -77.3405, 38.84242 ], [ -77.34125, 38.84058 ], [ -77.34276, 38.83878 ], [ -77.34344, 38.83887 ], [ -77.34371, 38.83961 ], [ -77.34203, 38.84256 ], [ -77.34414, 38.8427 ], [ -77.34496, 38.84204 ], [ -77.34541, 38.84225 ], [ -77.34541, 38.84331 ], [ -77.3446, 38.8438 ], [ -77.34167, 38.84362 ], [ -77.34017, 38.84626 ], [ -77.34197, 38.8466 ], [ -77.34232, 38.84707 ], [ -77.3419, 38.84775 ], [ -77.34225, 38.84796 ], [ -77.34281, 38.84753 ], [ -77.3438, 38.84754 ], [ -77.34413, 38.84504 ], [ -77.3424, 38.84489 ], [ -77.34179, 38.84429 ], [ -77.34255, 38.84382 ], [ -77.34546, 38.84425 ], [ -77.34536, 38.8462 ], [ -77.34642, 38.84664 ], [ -77.34642, 38.84705 ], [ -77.34569, 38.84794 ], [ -77.34356, 38.84861 ], [ -77.34349, 38.84978 ], [ -77.34771, 38.84907 ], [ -77.34784, 38.84838 ], [ -77.34727, 38.84828 ], [ -77.34714, 38.84752 ], [ -77.34805, 38.84731 ], [ -77.34844, 38.8463 ], [ -77.34981, 38.8463 ], [ -77.3512, 38.84693 ] ], [ [ -77.32956, 38.85799 ], [ -77.32919, 38.85771 ], [ -77.32848, 38.85872 ], [ -77.32722, 38.85941 ], [ -77.32582, 38.86131 ], [ -77.32615, 38.86144 ], [ -77.32956, 38.85799 ] ], [ [ -77.32751, 38.8549 ], [ -77.3238, 38.85336 ], [ -77.31922, 38.85447 ], [ -77.32261, 38.85383 ], [ -77.32462, 38.85405 ], [ -77.32673, 38.85488 ], [ -77.32716, 38.85556 ], [ -77.32751, 38.8549 ] ], [ [ -77.32785, 38.85369 ], [ -77.32864, 38.85275 ], [ -77.32631, 38.85305 ], [ -77.32785, 38.85369 ] ], [ [ -77.32631, 38.85183 ], [ -77.3275, 38.85168 ], [ -77.32536, 38.85134 ], [ -77.32476, 38.8519 ], [ -77.32375, 38.85199 ], [ -77.32631, 38.85183 ] ], [ [ -77.32549, 38.84474 ], [ -77.32553, 38.84478 ], [ -77.32558, 38.84475 ], [ -77.32549, 38.84474 ] ], [ [ -77.32597, 38.84246 ], [ -77.32602, 38.8426 ], [ -77.3261, 38.84247 ], [ -77.32597, 38.84246 ] ], [ [ -77.34003, 38.85471 ], [ -77.33823, 38.85458 ], [ -77.33754, 38.85549 ], [ -77.3392, 38.85681 ], [ -77.34003, 38.85471 ] ], [ [ -77.34084, 38.85267 ], [ -77.34159, 38.85122 ], [ -77.33888, 38.8517 ], [ -77.33866, 38.85334 ], [ -77.34084, 38.85267 ] ], [ [ -77.33922, 38.84978 ], [ -77.33864, 38.84981 ], [ -77.33871, 38.85035 ], [ -77.3395, 38.85016 ], [ -77.33922, 38.84978 ] ], [ [ -77.33978, 38.84337 ], [ -77.33666, 38.84233 ], [ -77.33656, 38.84389 ], [ -77.33936, 38.84483 ], [ -77.34011, 38.84346 ], [ -77.33978, 38.84337 ] ], [ [ -77.34407, 38.8557 ], [ -77.34397, 38.85575 ], [ -77.34512, 38.85619 ], [ -77.34407, 38.8557 ] ], [ [ -77.34672, 38.85447 ], [ -77.34691, 38.85385 ], [ -77.34627, 38.85442 ], [ -77.34647, 38.85492 ], [ -77.34672, 38.85447 ] ], [ [ -77.34857, 38.85207 ], [ -77.34775, 38.85043 ], [ -77.3466, 38.85058 ], [ -77.34653, 38.85228 ], [ -77.34564, 38.85243 ], [ -77.34541, 38.85309 ], [ -77.34857, 38.85207 ] ], [ [ -77.34509, 38.85171 ], [ -77.3452, 38.85174 ], [ -77.34516, 38.85172 ], [ -77.34509, 38.85171 ] ], [ [ -77.34921, 38.84854 ], [ -77.34914, 38.84889 ], [ -77.34982, 38.84881 ], [ -77.34921, 38.84854 ] ], [ [ -77.34941, 38.84747 ], [ -77.34987, 38.84764 ], [ -77.34993, 38.8473 ], [ -77.34941, 38.84747 ] ], [ [ -77.34553, 38.85796 ], [ -77.34592, 38.85802 ], [ -77.34571, 38.85783 ], [ -77.34553, 38.85796 ] ], [ [ -77.35114, 38.85767 ], [ -77.35113, 38.85772 ], [ -77.35124, 38.85767 ], [ -77.35114, 38.85767 ] ], [ [ -77.33995, 38.84887 ], [ -77.33963, 38.84886 ], [ -77.33974, 38.84903 ], [ -77.33995, 38.84887 ] ], [ [ -77.33905, 38.84775 ], [ -77.34121, 38.84759 ], [ -77.34095, 38.84738 ], [ -77.33992, 38.84734 ], [ -77.33905, 38.84775 ] ], [ [ -77.33534, 38.85617 ], [ -77.33455, 38.85631 ], [ -77.33516, 38.85655 ], [ -77.33534, 38.85617 ] ], [ [ -77.33461, 38.85206 ], [ -77.33309, 38.85223 ], [ -77.33342, 38.85323 ], [ -77.33485, 38.8533 ], [ -77.33461, 38.85206 ] ], [ [ -77.33155, 38.85242 ], [ -77.33052, 38.85253 ], [ -77.33118, 38.85348 ], [ -77.33017, 38.8537 ], [ -77.32963, 38.85441 ], [ -77.33189, 38.85527 ], [ -77.33155, 38.85242 ] ], [ [ -77.33063, 38.85131 ], [ -77.33032, 38.85054 ], [ -77.32786, 38.85164 ], [ -77.33063, 38.85131 ] ], [ [ -77.32903, 38.84708 ], [ -77.32686, 38.8471 ], [ -77.32778, 38.8482 ], [ -77.32889, 38.84823 ], [ -77.32903, 38.84708 ] ], [ [ -77.32907, 38.84493 ], [ -77.32906, 38.84487 ], [ -77.32893, 38.845 ], [ -77.32907, 38.84493 ] ], [ [ -77.33461, 38.85059 ], [ -77.33451, 38.85013 ], [ -77.33368, 38.85022 ], [ -77.33378, 38.85078 ], [ -77.33461, 38.85059 ] ], [ [ -77.33644, 38.85185 ], [ -77.33662, 38.85181 ], [ -77.33655, 38.85182 ], [ -77.33644, 38.85185 ] ], [ [ -77.33692, 38.85178 ], [ -77.33729, 38.85187 ], [ -77.33729, 38.85174 ], [ -77.33692, 38.85178 ] ], [ [ -77.33706, 38.86053 ], [ -77.3362, 38.86036 ], [ -77.33699, 38.86171 ], [ -77.33742, 38.86082 ], [ -77.33706, 38.86053 ] ], [ [ -77.33145, 38.86192 ], [ -77.33293, 38.86 ], [ -77.3344, 38.85934 ], [ -77.33463, 38.85778 ], [ -77.33256, 38.85689 ], [ -77.33101, 38.85856 ], [ -77.33203, 38.85908 ], [ -77.3319, 38.86002 ], [ -77.3309, 38.8607 ], [ -77.32968, 38.86241 ], [ -77.33145, 38.86192 ] ], [ [ -77.33121, 38.85635 ], [ -77.32874, 38.8554 ], [ -77.32881, 38.85617 ], [ -77.33048, 38.85718 ], [ -77.33121, 38.85635 ] ], [ [ -77.33064, 38.8638 ], [ -77.3307, 38.8638 ], [ -77.33067, 38.86371 ], [ -77.33064, 38.8638 ] ], [ [ -77.32736, 38.84889 ], [ -77.32763, 38.84873 ], [ -77.32757, 38.84865 ], [ -77.32736, 38.84889 ] ], [ [ -77.32638, 38.84564 ], [ -77.32628, 38.84569 ], [ -77.32637, 38.8458 ], [ -77.32638, 38.84564 ] ], [ [ -77.32833, 38.84394 ], [ -77.32857, 38.84391 ], [ -77.32847, 38.84384 ], [ -77.32833, 38.84394 ] ], [ [ -77.32842, 38.84611 ], [ -77.32843, 38.8461 ], [ -77.32842, 38.84609 ], [ -77.32842, 38.84611 ] ], [ [ -77.33255, 38.87148 ], [ -77.33322, 38.87169 ], [ -77.33296, 38.8711 ], [ -77.33189, 38.87064 ], [ -77.33093, 38.87128 ], [ -77.33123, 38.87157 ], [ -77.33255, 38.87148 ] ], [ [ -77.3329, 38.87808 ], [ -77.33338, 38.87697 ], [ -77.33315, 38.87693 ], [ -77.3329, 38.87808 ] ], [ [ -77.32856, 38.86724 ], [ -77.32878, 38.86708 ], [ -77.32808, 38.86728 ], [ -77.32856, 38.86724 ] ], [ [ -77.32754, 38.86937 ], [ -77.32729, 38.8682 ], [ -77.32696, 38.86874 ], [ -77.32754, 38.86937 ] ], [ [ -77.31376, 38.87026 ], [ -77.31389, 38.8702 ], [ -77.31372, 38.87015 ], [ -77.31376, 38.87026 ] ], [ [ -77.31793, 38.87026 ], [ -77.31823, 38.86987 ], [ -77.31409, 38.86908 ], [ -77.31793, 38.87026 ] ], [ [ -77.31844, 38.86591 ], [ -77.31854, 38.86566 ], [ -77.3134, 38.86443 ], [ -77.31334, 38.86468 ], [ -77.31844, 38.86591 ] ], [ [ -77.3144, 38.86163 ], [ -77.31407, 38.86159 ], [ -77.31366, 38.86332 ], [ -77.31399, 38.8634 ], [ -77.3144, 38.86163 ] ], [ [ -77.31901, 38.86121 ], [ -77.31947, 38.86164 ], [ -77.31926, 38.86241 ], [ -77.32007, 38.86257 ], [ -77.32046, 38.86179 ], [ -77.32031, 38.86108 ], [ -77.31437, 38.86025 ], [ -77.31447, 38.86054 ], [ -77.31901, 38.86121 ] ], [ [ -77.30899, 38.85142 ], [ -77.30838, 38.8521 ], [ -77.30985, 38.85192 ], [ -77.30966, 38.85119 ], [ -77.30878, 38.8508 ], [ -77.30881, 38.85025 ], [ -77.30856, 38.85104 ], [ -77.30899, 38.85142 ] ], [ [ -77.31302, 38.85848 ], [ -77.31238, 38.85895 ], [ -77.3132, 38.85902 ], [ -77.31341, 38.85742 ], [ -77.31262, 38.85747 ], [ -77.31302, 38.85848 ] ], [ [ -77.32121, 38.86009 ], [ -77.3213, 38.85968 ], [ -77.31461, 38.8588 ], [ -77.31496, 38.8592 ], [ -77.32121, 38.86009 ] ], [ [ -77.31657, 38.85651 ], [ -77.31677, 38.85652 ], [ -77.31621, 38.85566 ], [ -77.31452, 38.85639 ], [ -77.31657, 38.85651 ] ], [ [ -77.31551, 38.85288 ], [ -77.31581, 38.85172 ], [ -77.31488, 38.85132 ], [ -77.31393, 38.85256 ], [ -77.31409, 38.85325 ], [ -77.31551, 38.85288 ] ], [ [ -77.31167, 38.84981 ], [ -77.31149, 38.84992 ], [ -77.31372, 38.85071 ], [ -77.31167, 38.84981 ] ], [ [ -77.31593, 38.84821 ], [ -77.31589, 38.84872 ], [ -77.31638, 38.84892 ], [ -77.31668, 38.84834 ], [ -77.31593, 38.84821 ] ], [ [ -77.31791, 38.84639 ], [ -77.31687, 38.84638 ], [ -77.31643, 38.8472 ], [ -77.31739, 38.84728 ], [ -77.31791, 38.84639 ] ], [ [ -77.31741, 38.84468 ], [ -77.31729, 38.84466 ], [ -77.31753, 38.84473 ], [ -77.31741, 38.84468 ] ], [ [ -77.32132, 38.85252 ], [ -77.32161, 38.85246 ], [ -77.32151, 38.85241 ], [ -77.32132, 38.85252 ] ], [ [ -77.32009, 38.84437 ], [ -77.31997, 38.84423 ], [ -77.31998, 38.84449 ], [ -77.32009, 38.84437 ] ], [ [ -77.32484, 38.8502 ], [ -77.32482, 38.85025 ], [ -77.32488, 38.85023 ], [ -77.32484, 38.8502 ] ], [ [ -77.32463, 38.84571 ], [ -77.32465, 38.84571 ], [ -77.32461, 38.84566 ], [ -77.32463, 38.84571 ] ], [ [ -77.32333, 38.84476 ], [ -77.3242, 38.84517 ], [ -77.32354, 38.84438 ], [ -77.32333, 38.84476 ] ], [ [ -77.32008, 38.84644 ], [ -77.31951, 38.84555 ], [ -77.31951, 38.84625 ], [ -77.32008, 38.84644 ] ], [ [ -77.31786, 38.84897 ], [ -77.31759, 38.84944 ], [ -77.31876, 38.84993 ], [ -77.31887, 38.84941 ], [ -77.31786, 38.84897 ] ], [ [ -77.32302, 38.86396 ], [ -77.32527, 38.86239 ], [ -77.32404, 38.86231 ], [ -77.32376, 38.86159 ], [ -77.32216, 38.86136 ], [ -77.3212, 38.86312 ], [ -77.32186, 38.86384 ], [ -77.32302, 38.86396 ] ], [ [ -77.32424, 38.85978 ], [ -77.32268, 38.85981 ], [ -77.32257, 38.86028 ], [ -77.32463, 38.86066 ], [ -77.32502, 38.86026 ], [ -77.32424, 38.85978 ] ], [ [ -77.32318, 38.85524 ], [ -77.32317, 38.85522 ], [ -77.32317, 38.85525 ], [ -77.32318, 38.85524 ] ], [ [ -77.3238, 38.85712 ], [ -77.32395, 38.85679 ], [ -77.32334, 38.85671 ], [ -77.3238, 38.85712 ] ], [ [ -77.32132, 38.86854 ], [ -77.32127, 38.86859 ], [ -77.32135, 38.86863 ], [ -77.32132, 38.86854 ] ], [ [ -77.31792, 38.86214 ], [ -77.31576, 38.86183 ], [ -77.31532, 38.86372 ], [ -77.31564, 38.8638 ], [ -77.31622, 38.8622 ], [ -77.31718, 38.86234 ], [ -77.31697, 38.86412 ], [ -77.31727, 38.86419 ], [ -77.31792, 38.86214 ] ], [ [ -77.31782, 38.85806 ], [ -77.31877, 38.85837 ], [ -77.31671, 38.85761 ], [ -77.31479, 38.85749 ], [ -77.31476, 38.85772 ], [ -77.31782, 38.85806 ] ], [ [ -77.31846, 38.85538 ], [ -77.31795, 38.85498 ], [ -77.31745, 38.85518 ], [ -77.31796, 38.85597 ], [ -77.31846, 38.85538 ] ], [ [ -77.31861, 38.8645 ], [ -77.31894, 38.86458 ], [ -77.31908, 38.86436 ], [ -77.31871, 38.86404 ], [ -77.31861, 38.8645 ] ], [ [ -77.31856, 38.85333 ], [ -77.3185, 38.85342 ], [ -77.31851, 38.85343 ], [ -77.31856, 38.85333 ] ], [ [ -77.31876, 38.85716 ], [ -77.31957, 38.85747 ], [ -77.32089, 38.8576 ], [ -77.31876, 38.85716 ] ], [ [ -77.31987, 38.86597 ], [ -77.31946, 38.86682 ], [ -77.31874, 38.86708 ], [ -77.3201, 38.86783 ], [ -77.32133, 38.86633 ], [ -77.31987, 38.86597 ] ], [ [ -77.31923, 38.86868 ], [ -77.31884, 38.86856 ], [ -77.31872, 38.86885 ], [ -77.31923, 38.86868 ] ], [ [ -77.31492, 38.84721 ], [ -77.3147, 38.84759 ], [ -77.31521, 38.84763 ], [ -77.31492, 38.84721 ] ], [ [ -77.31563, 38.84996 ], [ -77.31548, 38.85023 ], [ -77.31556, 38.85014 ], [ -77.31563, 38.84996 ] ], [ [ -77.31589, 38.87069 ], [ -77.31662, 38.87129 ], [ -77.3165, 38.87169 ], [ -77.31562, 38.87183 ], [ -77.31585, 38.87215 ], [ -77.31654, 38.87169 ], [ -77.31716, 38.87117 ], [ -77.31589, 38.87069 ] ], [ [ -77.31092, 38.87893 ], [ -77.31075, 38.8785 ], [ -77.31042, 38.87932 ], [ -77.31214, 38.87906 ], [ -77.31092, 38.87893 ] ], [ [ -77.31344, 38.87371 ], [ -77.31274, 38.87206 ], [ -77.31064, 38.8718 ], [ -77.30901, 38.87513 ], [ -77.30981, 38.87583 ], [ -77.31344, 38.87371 ] ], [ [ -77.31231, 38.8703 ], [ -77.31232, 38.87031 ], [ -77.31232, 38.8703 ], [ -77.31231, 38.8703 ] ], [ [ -77.30781, 38.87586 ], [ -77.30715, 38.87659 ], [ -77.30809, 38.87634 ], [ -77.30781, 38.87586 ] ], [ [ -77.30902, 38.87906 ], [ -77.309, 38.87917 ], [ -77.30926, 38.87904 ], [ -77.30902, 38.87906 ] ], [ [ -77.31077, 38.8652 ], [ -77.30999, 38.86501 ], [ -77.31159, 38.86616 ], [ -77.31176, 38.86545 ], [ -77.31077, 38.8652 ] ], [ [ -77.31091, 38.86383 ], [ -77.30861, 38.86327 ], [ -77.3087, 38.86366 ], [ -77.31201, 38.86438 ], [ -77.31207, 38.8641 ], [ -77.31091, 38.86383 ] ], [ [ -77.30911, 38.86218 ], [ -77.30901, 38.86221 ], [ -77.30909, 38.86223 ], [ -77.30911, 38.86218 ] ], [ [ -77.31094, 38.86157 ], [ -77.31097, 38.86146 ], [ -77.31063, 38.86151 ], [ -77.31054, 38.86257 ], [ -77.31094, 38.86157 ] ], [ [ -77.31295, 38.86033 ], [ -77.313, 38.86012 ], [ -77.31095, 38.86021 ], [ -77.31084, 38.86044 ], [ -77.31295, 38.86033 ] ], [ [ -77.3082, 38.85902 ], [ -77.30965, 38.85902 ], [ -77.30977, 38.85812 ], [ -77.3082, 38.85902 ] ], [ [ -77.30888, 38.8551 ], [ -77.30808, 38.85508 ], [ -77.30807, 38.85604 ], [ -77.30875, 38.85605 ], [ -77.30888, 38.8551 ] ], [ [ -77.31114, 38.85772 ], [ -77.31114, 38.85775 ], [ -77.31117, 38.85762 ], [ -77.31114, 38.85772 ] ], [ [ -77.31138, 38.854 ], [ -77.30936, 38.85403 ], [ -77.3108, 38.85424 ], [ -77.31109, 38.8562 ], [ -77.31138, 38.854 ] ], [ [ -77.31263, 38.85212 ], [ -77.3126, 38.85212 ], [ -77.31262, 38.85213 ], [ -77.31263, 38.85212 ] ], [ [ -77.31095, 38.85183 ], [ -77.31089, 38.8519 ], [ -77.31128, 38.85195 ], [ -77.31095, 38.85183 ] ], [ [ -77.31233, 38.86301 ], [ -77.31271, 38.86139 ], [ -77.3124, 38.8615 ], [ -77.31233, 38.86301 ] ], [ [ -77.30859, 38.85721 ], [ -77.30873, 38.85716 ], [ -77.30814, 38.85713 ], [ -77.30859, 38.85721 ] ], [ [ -77.30825, 38.8601 ], [ -77.30816, 38.8601 ], [ -77.30815, 38.8603 ], [ -77.30825, 38.8601 ] ], [ [ -77.30936, 38.86153 ], [ -77.30937, 38.86155 ], [ -77.3094, 38.86153 ], [ -77.30936, 38.86153 ] ], [ [ -77.30668, 38.85585 ], [ -77.30614, 38.85585 ], [ -77.3056, 38.85712 ], [ -77.30333, 38.858 ], [ -77.30406, 38.85884 ], [ -77.30668, 38.85777 ], [ -77.30668, 38.85585 ] ], [ [ -77.30148, 38.8575 ], [ -77.30137, 38.85714 ], [ -77.30136, 38.85717 ], [ -77.30123, 38.85765 ], [ -77.30148, 38.8575 ] ], [ [ -77.29922, 38.85833 ], [ -77.29919, 38.85854 ], [ -77.2995, 38.85843 ], [ -77.29922, 38.85833 ] ], [ [ -77.3025, 38.85532 ], [ -77.30289, 38.85516 ], [ -77.30214, 38.85513 ], [ -77.30233, 38.85571 ], [ -77.3025, 38.85532 ] ], [ [ -77.3006, 38.85604 ], [ -77.30108, 38.85625 ], [ -77.30082, 38.85611 ], [ -77.3006, 38.85604 ] ], [ [ -77.30396, 38.85657 ], [ -77.30429, 38.85645 ], [ -77.3042, 38.85643 ], [ -77.30396, 38.85657 ] ], [ [ -77.29989, 38.85738 ], [ -77.29992, 38.85726 ], [ -77.29982, 38.85736 ], [ -77.29989, 38.85738 ] ], [ [ -77.30524, 38.85971 ], [ -77.30585, 38.86018 ], [ -77.30579, 38.86064 ], [ -77.30642, 38.86066 ], [ -77.30663, 38.86031 ], [ -77.30668, 38.85921 ], [ -77.30524, 38.85971 ] ], [ [ -77.30353, 38.86031 ], [ -77.30302, 38.8605 ], [ -77.30375, 38.86054 ], [ -77.30353, 38.86031 ] ] ] } }
]
}
