{
"type": "FeatureCollection",
"name": "52",
"crs": { "type": "name", "properties": { "name": "urn:ogc:def:crs:OGC:1.3:CRS84" } },
"xy_coordinate_resolution": 1e-05,
"features": [
{ "type": "Feature", "properties": { "variant": "T0", "miles": 0.5 }, "geometry": { "type": "Polygon", "coordinates": [ [ [ -77.30682, 38.87487 ], [ -77.30863, 38.87477 ], [ -77.30894, 38.8755 ], [ -77.30781, 38.87586 ], [ -77.30715, 38.87659 ], [ -77.30929, 38.87603 ], [ -77.31023, 38.87645 ], [ -77.3102, 38.87687 ], [ -77.30937, 38.87727 ], [ -77.30895, 38.87873 ], [ -77.30734, 38.87871 ], [ -77.30683, 38.878 ], [ -77.30593, 38.878 ], [ -77.3033, 38.88023 ], [ -77.30775, 38.87966 ], [ -77.30834, 38.87902 ], [ -77.31039, 38.87867 ], [ -77.31107, 38.87924 ], [ -77.31249, 38.87916 ], [ -77.31309, 38.87976 ], [ -77.31231, 38.88023 ], [ -77.30705, 38.88085 ], [ -77.30854, 38.88268 ], [ -77.30732, 38.88452 ], [ -77.3068, 38.88459 ], [ -77.30483, 38.88335 ], [ -77.30369, 38.88359 ], [ -77.30338, 38.88325 ], [ -77.30378, 38.88263 ], [ -77.30287, 38.88265 ], [ -77.30162, 38.88402 ], [ -77.30048, 38.88391 ], [ -77.30027, 38.88195 ], [ -77.29875, 38.88291 ], [ -77.29685, 38.88287 ], [ -77.29672, 38.88225 ], [ -77.29842, 38.88144 ], [ -77.29832, 38.881 ], [ -77.29754, 38.88064 ], [ -77.29789, 38.87933 ], [ -77.29869, 38.8789 ], [ -77.29983, 38.8799 ], [ -77.30021, 38.87852 ], [ -77.29973, 38.87801 ], [ -77.29987, 38.8775 ], [ -77.2967, 38.87715 ], [ -77.29654, 38.87676 ], [ -77.29721, 38.87586 ], [ -77.29812, 38.87559 ], [ -77.29862, 38.87615 ], [ -77.29964, 38.87595 ], [ -77.3007, 38.87642 ], [ -77.30059, 38.87575 ], [ -77.30101, 38.87549 ], [ -77.30277, 38.87616 ], [ -77.30258, 38.87545 ], [ -77.30301, 38.87521 ], [ -77.30555, 38.8763 ], [ -77.30682, 38.87487 ] ], [ [ -77.30508, 38.88219 ], [ -77.30506, 38.8822 ], [ -77.30509, 38.8822 ], [ -77.30508, 38.88219 ] ], [ [ -77.30299, 38.88137 ], [ -77.30178, 38.88121 ], [ -77.30165, 38.88176 ], [ -77.30231, 38.88181 ], [ -77.30299, 38.88137 ] ], [ [ -77.30666, 38.88235 ], [ -77.30661, 38.88291 ], [ -77.30698, 38.88273 ], [ -77.30666, 38.88235 ] ], [ [ -77.3013, 38.88 ], [ -77.3013, 38.88001 ], [ -77.30131, 38.88 ], [ -77.3013, 38.88 ] ], [ [ -77.30256, 38.87916 ], [ -77.30184, 38.87901 ], [ -77.30141, 38.87993 ], [ -77.30256, 38.87916 ] ] ] } },
{ "type": "Feature", "properties": { "variant": "T0", "miles": 1.0 }, "geometry": { "type": "Polygon", "coordinates": [ [ [ -77.31427, 38.87153 ], [ -77.31508, 38.87128 ], [ -77.31553, 38.8715 ], [ -77.3152, 38.87234 ], [ -77.31619, 38.87214 ], [ -77.31692, 38.8728 ], [ -77.3152, 38.87412 ], [ -77.31549, 38.87568 ], [ -77.31461, 38.87578 ], [ -77.31381, 38.87504 ], [ -77.31235, 38.87597 ], [ -77.31306, 38.87794 ], [ -77.31354, 38.87892 ], [ -77.3145, 38.87928 ], [ -77.31423, 38.87981 ], [ -77.31534, 38.88042 ], [ -77.31738, 38.87886 ], [ -77.31842, 38.87891 ], [ -77.31844, 38.87967 ], [ -77.31633, 38.88118 ], [ -77.3195, 38.88347 ], [ -77.3196, 38.88423 ], [ -77.31863, 38.88431 ], [ -77.31727, 38.88334 ], [ -77.31645, 38.88372 ], [ -77.31588, 38.8849 ], [ -77.31491, 38.88495 ], [ -77.31467, 38.88458 ], [ -77.31506, 38.88399 ], [ -77.31426, 38.8832 ], [ -77.31526, 38.88186 ], [ -77.3143, 38.88114 ], [ -77.31287, 38.88042 ], [ -77.31263, 38.88102 ], [ -77.31278, 38.88144 ], [ -77.31294, 38.88101 ], [ -77.31392, 38.88098 ], [ -77.31473, 38.8822 ], [ -77.31461, 38.8826 ], [ -77.3127, 38.88361 ], [ -77.31185, 38.88308 ], [ -77.31224, 38.88263 ], [ -77.31129, 38.88144 ], [ -77.31146, 38.8803 ], [ -77.30705, 38.88085 ], [ -77.30855, 38.88309 ], [ -77.30751, 38.88375 ], [ -77.30732, 38.88452 ], [ -77.3068, 38.88459 ], [ -77.30546, 38.88355 ], [ -77.30457, 38.88352 ], [ -77.30506, 38.88436 ], [ -77.30377, 38.88624 ], [ -77.30462, 38.88706 ], [ -77.3032, 38.88764 ], [ -77.3047, 38.88947 ], [ -77.3048, 38.88988 ], [ -77.30398, 38.8903 ], [ -77.30248, 38.88876 ], [ -77.30105, 38.88973 ], [ -77.30009, 38.8897 ], [ -77.29954, 38.88901 ], [ -77.29976, 38.88863 ], [ -77.30056, 38.88859 ], [ -77.30175, 38.88784 ], [ -77.30146, 38.88736 ], [ -77.30104, 38.88694 ], [ -77.29941, 38.88745 ], [ -77.29861, 38.88656 ], [ -77.29782, 38.88695 ], [ -77.29738, 38.88672 ], [ -77.29563, 38.88467 ], [ -77.29528, 38.88325 ], [ -77.29402, 38.88323 ], [ -77.29556, 38.88549 ], [ -77.29438, 38.88629 ], [ -77.29342, 38.88615 ], [ -77.29332, 38.88574 ], [ -77.29395, 38.88522 ], [ -77.29262, 38.88351 ], [ -77.28921, 38.88487 ], [ -77.28831, 38.88463 ], [ -77.28816, 38.88263 ], [ -77.28878, 38.88213 ], [ -77.28879, 38.8815 ], [ -77.28974, 38.88132 ], [ -77.29018, 38.88208 ], [ -77.29077, 38.88206 ], [ -77.29029, 38.88101 ], [ -77.29122, 38.8798 ], [ -77.292, 38.87992 ], [ -77.29264, 38.88056 ], [ -77.29272, 38.88132 ], [ -77.29222, 38.88203 ], [ -77.2952, 38.88205 ], [ -77.2945, 38.88106 ], [ -77.29359, 38.8814 ], [ -77.29319, 38.88114 ], [ -77.29378, 38.88013 ], [ -77.29321, 38.87946 ], [ -77.29271, 38.8798 ], [ -77.29184, 38.87946 ], [ -77.29194, 38.87895 ], [ -77.29135, 38.87844 ], [ -77.29183, 38.87785 ], [ -77.29101, 38.87774 ], [ -77.29072, 38.87701 ], [ -77.28886, 38.87674 ], [ -77.2887, 38.87634 ], [ -77.28878, 38.87565 ], [ -77.2895, 38.87522 ], [ -77.29028, 38.87578 ], [ -77.29347, 38.876 ], [ -77.29348, 38.87483 ], [ -77.29167, 38.87476 ], [ -77.29138, 38.87442 ], [ -77.29434, 38.87171 ], [ -77.29572, 38.8713 ], [ -77.29759, 38.87143 ], [ -77.29824, 38.87085 ], [ -77.29992, 38.87061 ], [ -77.30082, 38.87067 ], [ -77.30129, 38.87159 ], [ -77.30207, 38.87169 ], [ -77.30276, 38.8702 ], [ -77.30403, 38.87033 ], [ -77.30443, 38.87003 ], [ -77.30803, 38.87122 ], [ -77.30732, 38.86736 ], [ -77.30805, 38.86661 ], [ -77.30888, 38.86701 ], [ -77.3096, 38.87104 ], [ -77.31245, 38.86871 ], [ -77.31343, 38.86879 ], [ -77.31427, 38.87153 ] ], [ [ -77.30369, 38.8841 ], [ -77.30182, 38.88401 ], [ -77.3029, 38.8847 ], [ -77.30275, 38.88519 ], [ -77.30199, 38.88554 ], [ -77.30216, 38.88596 ], [ -77.30369, 38.8841 ] ], [ [ -77.30299, 38.88137 ], [ -77.30163, 38.88129 ], [ -77.30165, 38.88176 ], [ -77.30299, 38.88137 ] ], [ [ -77.30184, 38.87901 ], [ -77.30141, 38.87993 ], [ -77.30256, 38.87916 ], [ -77.30184, 38.87901 ] ], [ [ -77.29987, 38.8775 ], [ -77.29763, 38.87736 ], [ -77.29817, 38.87801 ], [ -77.2991, 38.8777 ], [ -77.29955, 38.87792 ], [ -77.30001, 38.87894 ], [ -77.29987, 38.8775 ] ], [ [ -77.29925, 38.87402 ], [ -77.29876, 38.87421 ], [ -77.29923, 38.87494 ], [ -77.30003, 38.87449 ], [ -77.29925, 38.87402 ] ], [ [ -77.30593, 38.878 ], [ -77.3033, 38.88023 ], [ -77.30775, 38.87966 ], [ -77.30756, 38.87868 ], [ -77.30691, 38.87848 ], [ -77.30675, 38.87802 ], [ -77.30593, 38.878 ] ], [ [ -77.30649, 38.87524 ], [ -77.30464, 38.87452 ], [ -77.30425, 38.87389 ], [ -77.30444, 38.87313 ], [ -77.30302, 38.87265 ], [ -77.30217, 38.8747 ], [ -77.30555, 38.8763 ], [ -77.30649, 38.87524 ] ], [ [ -77.31344, 38.87371 ], [ -77.31243, 38.87183 ], [ -77.31045, 38.87189 ], [ -77.309, 38.87473 ], [ -77.30981, 38.87583 ], [ -77.31344, 38.87371 ] ], [ [ -77.31274, 38.87055 ], [ -77.31291, 38.87029 ], [ -77.31231, 38.8703 ], [ -77.31274, 38.87055 ] ], [ [ -77.31137, 38.87911 ], [ -77.31095, 38.87894 ], [ -77.31107, 38.87924 ], [ -77.31216, 38.87915 ], [ -77.31137, 38.87911 ] ], [ [ -77.31054, 38.87862 ], [ -77.31088, 38.87885 ], [ -77.31074, 38.87854 ], [ -77.31054, 38.87862 ] ], [ [ -77.30631, 38.8723 ], [ -77.30563, 38.87376 ], [ -77.30722, 38.87432 ], [ -77.30799, 38.87163 ], [ -77.30631, 38.8723 ] ], [ [ -77.30725, 38.87646 ], [ -77.30715, 38.87659 ], [ -77.30809, 38.87634 ], [ -77.30781, 38.87586 ], [ -77.30725, 38.87646 ] ], [ [ -77.30698, 38.88273 ], [ -77.30666, 38.88235 ], [ -77.30658, 38.88268 ], [ -77.30698, 38.88273 ] ], [ [ -77.30508, 38.88219 ], [ -77.30506, 38.8822 ], [ -77.30509, 38.8822 ], [ -77.30508, 38.88219 ] ], [ [ -77.3006, 38.88555 ], [ -77.29983, 38.88553 ], [ -77.29956, 38.88492 ], [ -77.29891, 38.88517 ], [ -77.30076, 38.88614 ], [ -77.3006, 38.88555 ] ], [ [ -77.30026, 38.88353 ], [ -77.30027, 38.88195 ], [ -77.29885, 38.88287 ], [ -77.29963, 38.88479 ], [ -77.30048, 38.8844 ], [ -77.30026, 38.88353 ] ], [ [ -77.30007, 38.87942 ], [ -77.29999, 38.87903 ], [ -77.29953, 38.87956 ], [ -77.29983, 38.8799 ], [ -77.30007, 38.87942 ] ], [ [ -77.29574, 38.87482 ], [ -77.29567, 38.8749 ], [ -77.29591, 38.87472 ], [ -77.29574, 38.87482 ] ], [ [ -77.29579, 38.8743 ], [ -77.29575, 38.87402 ], [ -77.29563, 38.87403 ], [ -77.29579, 38.8743 ] ], [ [ -77.29785, 38.87268 ], [ -77.29762, 38.87259 ], [ -77.2975, 38.87288 ], [ -77.29785, 38.87268 ] ], [ [ -77.29529, 38.87995 ], [ -77.29543, 38.88013 ], [ -77.29568, 38.88002 ], [ -77.29529, 38.87995 ] ], [ [ -77.29522, 38.87828 ], [ -77.29451, 38.87815 ], [ -77.29447, 38.87852 ], [ -77.29522, 38.87828 ] ], [ [ -77.29386, 38.87728 ], [ -77.29406, 38.87752 ], [ -77.29425, 38.8773 ], [ -77.29386, 38.87728 ] ], [ [ -77.29617, 38.87982 ], [ -77.29602, 38.87989 ], [ -77.29649, 38.8797 ], [ -77.29628, 38.87947 ], [ -77.29617, 38.87982 ] ], [ [ -77.29611, 38.8811 ], [ -77.2974, 38.8807 ], [ -77.29729, 38.88059 ], [ -77.29611, 38.8811 ] ] ] } },
{ "type": "Feature", "properties": { "variant": "T0", "miles": 1.5 }, "geometry": { "type": "Polygon", "coordinates": [ [ [ -77.32367, 38.86915 ], [ -77.32362, 38.86991 ], [ -77.32191, 38.86999 ], [ -77.32042, 38.86944 ], [ -77.31819, 38.87207 ], [ -77.3152, 38.87412 ], [ -77.31549, 38.87568 ], [ -77.31461, 38.87578 ], [ -77.31381, 38.87504 ], [ -77.31235, 38.87597 ], [ -77.31354, 38.87892 ], [ -77.31418, 38.87895 ], [ -77.3145, 38.87928 ], [ -77.31423, 38.87981 ], [ -77.31534, 38.88042 ], [ -77.31738, 38.87886 ], [ -77.31842, 38.87891 ], [ -77.31844, 38.87967 ], [ -77.31633, 38.88118 ], [ -77.31893, 38.88309 ], [ -77.31942, 38.88126 ], [ -77.3219, 38.87989 ], [ -77.32223, 38.87884 ], [ -77.32163, 38.87824 ], [ -77.32189, 38.87788 ], [ -77.32405, 38.87802 ], [ -77.32317, 38.88032 ], [ -77.32209, 38.88127 ], [ -77.32206, 38.88176 ], [ -77.32118, 38.88209 ], [ -77.32078, 38.88171 ], [ -77.32038, 38.88211 ], [ -77.32234, 38.88298 ], [ -77.32326, 38.88301 ], [ -77.32408, 38.88247 ], [ -77.32494, 38.88098 ], [ -77.32587, 38.88121 ], [ -77.32562, 38.88232 ], [ -77.32688, 38.88351 ], [ -77.3268, 38.88392 ], [ -77.32586, 38.88411 ], [ -77.32502, 38.88331 ], [ -77.32479, 38.88353 ], [ -77.32541, 38.88434 ], [ -77.32711, 38.88535 ], [ -77.32469, 38.88883 ], [ -77.32534, 38.88925 ], [ -77.32508, 38.88999 ], [ -77.32355, 38.88952 ], [ -77.32102, 38.89018 ], [ -77.3205, 38.89013 ], [ -77.32007, 38.8895 ], [ -77.31898, 38.88959 ], [ -77.31871, 38.88885 ], [ -77.31982, 38.88844 ], [ -77.32051, 38.88743 ], [ -77.31844, 38.88664 ], [ -77.3182, 38.8859 ], [ -77.31862, 38.88566 ], [ -77.32067, 38.88635 ], [ -77.32103, 38.88614 ], [ -77.31727, 38.88334 ], [ -77.31645, 38.88372 ], [ -77.31588, 38.8849 ], [ -77.31491, 38.88495 ], [ -77.31497, 38.88393 ], [ -77.31338, 38.8853 ], [ -77.3124, 38.88529 ], [ -77.31241, 38.88416 ], [ -77.31337, 38.8837 ], [ -77.31444, 38.88281 ], [ -77.31526, 38.88186 ], [ -77.3143, 38.88114 ], [ -77.31287, 38.88042 ], [ -77.31263, 38.88102 ], [ -77.31278, 38.88144 ], [ -77.31294, 38.88101 ], [ -77.31392, 38.88098 ], [ -77.31473, 38.8822 ], [ -77.31315, 38.88348 ], [ -77.31206, 38.88346 ], [ -77.31224, 38.88263 ], [ -77.31125, 38.88126 ], [ -77.31146, 38.8803 ], [ -77.30705, 38.88085 ], [ -77.30855, 38.88309 ], [ -77.30751, 38.88375 ], [ -77.30732, 38.88452 ], [ -77.3068, 38.88459 ], [ -77.30546, 38.88355 ], [ -77.30457, 38.88352 ], [ -77.30506, 38.88436 ], [ -77.30377, 38.88624 ], [ -77.30462, 38.88706 ], [ -77.3032, 38.88764 ], [ -77.30432, 38.88902 ], [ -77.30859, 38.88731 ], [ -77.30817, 38.88618 ], [ -77.30919, 38.88524 ], [ -77.31014, 38.88542 ], [ -77.31023, 38.88582 ], [ -77.30953, 38.88638 ], [ -77.30982, 38.88682 ], [ -77.31328, 38.8855 ], [ -77.31404, 38.88567 ], [ -77.31421, 38.88606 ], [ -77.31303, 38.88677 ], [ -77.31352, 38.88752 ], [ -77.31328, 38.88789 ], [ -77.31277, 38.88801 ], [ -77.31177, 38.88728 ], [ -77.305, 38.88996 ], [ -77.30521, 38.89091 ], [ -77.30869, 38.89085 ], [ -77.30777, 38.88975 ], [ -77.30786, 38.88934 ], [ -77.30881, 38.88917 ], [ -77.31052, 38.89102 ], [ -77.30916, 38.8919 ], [ -77.30912, 38.89316 ], [ -77.30963, 38.89383 ], [ -77.30931, 38.89416 ], [ -77.30623, 38.89408 ], [ -77.30613, 38.8946 ], [ -77.30523, 38.8949 ], [ -77.30454, 38.89401 ], [ -77.30456, 38.89555 ], [ -77.30619, 38.8958 ], [ -77.30668, 38.89623 ], [ -77.30613, 38.89686 ], [ -77.30373, 38.89658 ], [ -77.3033, 38.89603 ], [ -77.30269, 38.89662 ], [ -77.30216, 38.89659 ], [ -77.30182, 38.89628 ], [ -77.30224, 38.89527 ], [ -77.30112, 38.89503 ], [ -77.29985, 38.8938 ], [ -77.30056, 38.89326 ], [ -77.30198, 38.89417 ], [ -77.30305, 38.8942 ], [ -77.3038, 38.89144 ], [ -77.30287, 38.8913 ], [ -77.30127, 38.89253 ], [ -77.30029, 38.89247 ], [ -77.30026, 38.89171 ], [ -77.30129, 38.89095 ], [ -77.29968, 38.88929 ], [ -77.29899, 38.88982 ], [ -77.29932, 38.89152 ], [ -77.29907, 38.89188 ], [ -77.2981, 38.89181 ], [ -77.29757, 38.88986 ], [ -77.29591, 38.88774 ], [ -77.29591, 38.88911 ], [ -77.29708, 38.88943 ], [ -77.29743, 38.89056 ], [ -77.29654, 38.89087 ], [ -77.29606, 38.89019 ], [ -77.29477, 38.88979 ], [ -77.29434, 38.88759 ], [ -77.29519, 38.88681 ], [ -77.29489, 38.88643 ], [ -77.29405, 38.88691 ], [ -77.29298, 38.88646 ], [ -77.2927, 38.88557 ], [ -77.29276, 38.88739 ], [ -77.29225, 38.8875 ], [ -77.29084, 38.88652 ], [ -77.29179, 38.8877 ], [ -77.29395, 38.88852 ], [ -77.29373, 38.88926 ], [ -77.29142, 38.88909 ], [ -77.28972, 38.88717 ], [ -77.29168, 38.8897 ], [ -77.29294, 38.89018 ], [ -77.29265, 38.89091 ], [ -77.29077, 38.89051 ], [ -77.2889, 38.88821 ], [ -77.28819, 38.88862 ], [ -77.28881, 38.88964 ], [ -77.28855, 38.89 ], [ -77.28758, 38.8899 ], [ -77.28505, 38.88665 ], [ -77.28196, 38.88912 ], [ -77.28087, 38.88897 ], [ -77.28089, 38.88823 ], [ -77.2818, 38.88752 ], [ -77.27999, 38.88546 ], [ -77.28134, 38.88454 ], [ -77.28153, 38.88404 ], [ -77.28096, 38.88355 ], [ -77.28189, 38.8827 ], [ -77.28021, 38.88273 ], [ -77.27952, 38.88219 ], [ -77.28021, 38.88165 ], [ -77.28416, 38.88145 ], [ -77.28408, 38.88006 ], [ -77.28365, 38.87972 ], [ -77.28372, 38.87931 ], [ -77.28449, 38.87899 ], [ -77.28399, 38.87857 ], [ -77.28392, 38.87642 ], [ -77.28319, 38.87633 ], [ -77.28146, 38.87434 ], [ -77.28076, 38.87432 ], [ -77.28064, 38.87356 ], [ -77.28273, 38.87242 ], [ -77.28328, 38.87305 ], [ -77.28271, 38.87355 ], [ -77.28415, 38.87484 ], [ -77.28563, 38.87429 ], [ -77.28741, 38.87429 ], [ -77.28773, 38.87385 ], [ -77.2887, 38.87404 ], [ -77.28993, 38.8737 ], [ -77.29144, 38.87248 ], [ -77.29197, 38.87249 ], [ -77.29248, 38.87313 ], [ -77.29313, 38.87297 ], [ -77.29487, 38.87147 ], [ -77.29759, 38.87143 ], [ -77.29824, 38.87085 ], [ -77.30122, 38.8702 ], [ -77.30245, 38.8707 ], [ -77.30279, 38.87019 ], [ -77.30495, 38.87005 ], [ -77.30531, 38.87047 ], [ -77.3064, 38.87053 ], [ -77.30803, 38.87122 ], [ -77.30634, 38.86119 ], [ -77.30668, 38.86023 ], [ -77.30765, 38.86031 ], [ -77.30846, 38.86129 ], [ -77.30824, 38.86386 ], [ -77.3096, 38.87104 ], [ -77.31379, 38.86794 ], [ -77.31741, 38.8685 ], [ -77.31648, 38.86792 ], [ -77.31656, 38.86751 ], [ -77.31862, 38.86701 ], [ -77.3201, 38.86783 ], [ -77.32181, 38.86571 ], [ -77.32276, 38.86553 ], [ -77.32299, 38.86627 ], [ -77.3214, 38.86866 ], [ -77.32367, 38.86915 ] ], [ [ -77.3026, 38.88923 ], [ -77.30302, 38.88942 ], [ -77.30248, 38.88876 ], [ -77.30155, 38.88935 ], [ -77.3026, 38.88923 ] ], [ [ -77.30175, 38.88784 ], [ -77.30104, 38.88694 ], [ -77.29946, 38.88806 ], [ -77.29848, 38.88804 ], [ -77.29866, 38.88716 ], [ -77.29738, 38.88672 ], [ -77.29589, 38.88504 ], [ -77.29528, 38.88325 ], [ -77.29402, 38.88323 ], [ -77.29839, 38.88884 ], [ -77.30175, 38.88784 ] ], [ [ -77.30369, 38.8841 ], [ -77.30182, 38.88401 ], [ -77.3029, 38.8847 ], [ -77.30275, 38.88519 ], [ -77.30199, 38.88554 ], [ -77.30216, 38.88596 ], [ -77.30369, 38.8841 ] ], [ [ -77.30231, 38.88181 ], [ -77.30299, 38.88137 ], [ -77.30178, 38.88121 ], [ -77.30165, 38.88176 ], [ -77.30231, 38.88181 ] ], [ [ -77.30256, 38.87916 ], [ -77.30236, 38.87901 ], [ -77.30184, 38.87901 ], [ -77.30141, 38.87993 ], [ -77.30256, 38.87916 ] ], [ [ -77.30003, 38.87444 ], [ -77.29925, 38.87402 ], [ -77.29876, 38.87421 ], [ -77.29923, 38.87494 ], [ -77.30003, 38.87444 ] ], [ [ -77.30683, 38.878 ], [ -77.30593, 38.878 ], [ -77.3033, 38.88023 ], [ -77.30779, 38.87942 ], [ -77.30683, 38.878 ] ], [ [ -77.30781, 38.87586 ], [ -77.30715, 38.87659 ], [ -77.30768, 38.87644 ], [ -77.30809, 38.87634 ], [ -77.30781, 38.87586 ] ], [ [ -77.30799, 38.87163 ], [ -77.30722, 38.87232 ], [ -77.30631, 38.8723 ], [ -77.30563, 38.87376 ], [ -77.30722, 38.87432 ], [ -77.30799, 38.87163 ] ], [ [ -77.31258, 38.87189 ], [ -77.31064, 38.8718 ], [ -77.30901, 38.87513 ], [ -77.30981, 38.87583 ], [ -77.31336, 38.87362 ], [ -77.31258, 38.87189 ] ], [ [ -77.31376, 38.87026 ], [ -77.31389, 38.8702 ], [ -77.31372, 38.87015 ], [ -77.31376, 38.87026 ] ], [ [ -77.31662, 38.87129 ], [ -77.3165, 38.87169 ], [ -77.31562, 38.87183 ], [ -77.31585, 38.87215 ], [ -77.31654, 38.87169 ], [ -77.31716, 38.87117 ], [ -77.31589, 38.87069 ], [ -77.31662, 38.87129 ] ], [ [ -77.31872, 38.86885 ], [ -77.31897, 38.86895 ], [ -77.31923, 38.86868 ], [ -77.31884, 38.86856 ], [ -77.31872, 38.86885 ] ], [ [ -77.31409, 38.86908 ], [ -77.31793, 38.87026 ], [ -77.31823, 38.86987 ], [ -77.31409, 38.86908 ] ], [ [ -77.32358, 38.88406 ], [ -77.32209, 38.88405 ], [ -77.32331, 38.88506 ], [ -77.32302, 38.88541 ], [ -77.32204, 38.8854 ], [ -77.32445, 38.88719 ], [ -77.32555, 38.8857 ], [ -77.32358, 38.88406 ] ], [ [ -77.32, 38.88385 ], [ -77.32078, 38.88445 ], [ -77.32086, 38.88349 ], [ -77.32042, 38.88322 ], [ -77.32, 38.88385 ] ], [ [ -77.32366, 38.8881 ], [ -77.32205, 38.8869 ], [ -77.32118, 38.88862 ], [ -77.32132, 38.889 ], [ -77.32366, 38.8881 ] ], [ [ -77.31232, 38.8703 ], [ -77.31231, 38.8703 ], [ -77.31232, 38.87031 ], [ -77.31232, 38.8703 ] ], [ [ -77.31137, 38.87911 ], [ -77.31095, 38.87894 ], [ -77.31107, 38.87924 ], [ -77.31216, 38.87915 ], [ -77.31137, 38.87911 ] ], [ [ -77.31054, 38.87862 ], [ -77.31088, 38.87885 ], [ -77.31074, 38.87854 ], [ -77.31054, 38.87862 ] ], [ [ -77.30649, 38.87524 ], [ -77.30464, 38.87452 ], [ -77.30425, 38.87389 ], [ -77.30444, 38.87313 ], [ -77.30302, 38.87265 ], [ -77.30217, 38.8747 ], [ -77.30555, 38.8763 ], [ -77.30649, 38.87524 ] ], [ [ -77.30658, 38.88268 ], [ -77.30661, 38.88291 ], [ -77.30698, 38.88273 ], [ -77.30658, 38.88268 ] ], [ [ -77.30509, 38.8822 ], [ -77.30508, 38.88219 ], [ -77.30506, 38.8822 ], [ -77.30509, 38.8822 ] ], [ [ -77.30513, 38.89206 ], [ -77.3068, 38.89229 ], [ -77.30677, 38.89302 ], [ -77.30775, 38.89305 ], [ -77.30764, 38.89178 ], [ -77.30513, 38.89206 ] ], [ [ -77.30313, 38.88962 ], [ -77.30317, 38.88962 ], [ -77.30309, 38.88952 ], [ -77.30313, 38.88962 ] ], [ [ -77.29359, 38.8814 ], [ -77.29319, 38.88114 ], [ -77.29378, 38.88013 ], [ -77.29321, 38.87946 ], [ -77.29231, 38.88013 ], [ -77.29275, 38.8811 ], [ -77.29222, 38.88203 ], [ -77.2952, 38.88205 ], [ -77.29456, 38.88115 ], [ -77.29359, 38.8814 ] ], [ [ -77.2906, 38.87991 ], [ -77.29026, 38.87958 ], [ -77.29007, 38.88002 ], [ -77.29065, 38.88071 ], [ -77.2906, 38.87991 ] ], [ [ -77.29071, 38.87707 ], [ -77.29028, 38.87704 ], [ -77.29034, 38.87736 ], [ -77.29071, 38.87707 ] ], [ [ -77.29963, 38.88479 ], [ -77.30048, 38.8844 ], [ -77.30027, 38.88195 ], [ -77.29885, 38.88287 ], [ -77.29963, 38.88479 ] ], [ [ -77.29649, 38.8797 ], [ -77.29628, 38.87947 ], [ -77.29617, 38.87982 ], [ -77.29649, 38.8797 ] ], [ [ -77.29522, 38.87828 ], [ -77.29451, 38.87815 ], [ -77.29447, 38.87852 ], [ -77.29522, 38.87828 ] ], [ [ -77.29386, 38.87728 ], [ -77.29406, 38.87752 ], [ -77.29425, 38.8773 ], [ -77.29386, 38.87728 ] ], [ [ -77.29581, 38.87458 ], [ -77.29567, 38.8749 ], [ -77.29586, 38.87484 ], [ -77.29581, 38.87458 ] ], [ [ -77.29575, 38.87402 ], [ -77.29563, 38.87403 ], [ -77.29579, 38.8743 ], [ -77.29575, 38.87402 ] ], [ [ -77.30001, 38.87894 ], [ -77.29987, 38.8775 ], [ -77.29763, 38.87736 ], [ -77.29817, 38.87801 ], [ -77.2991, 38.8777 ], [ -77.30001, 38.87894 ] ], [ [ -77.29953, 38.87956 ], [ -77.29983, 38.8799 ], [ -77.29999, 38.87903 ], [ -77.29953, 38.87956 ] ], [ [ -77.29956, 38.88492 ], [ -77.29891, 38.88517 ], [ -77.29969, 38.88543 ], [ -77.29988, 38.88563 ], [ -77.29956, 38.88492 ] ], [ [ -77.29543, 38.88013 ], [ -77.29568, 38.88002 ], [ -77.29529, 38.87995 ], [ -77.29543, 38.88013 ] ], [ [ -77.29611, 38.8811 ], [ -77.2974, 38.8807 ], [ -77.29729, 38.88059 ], [ -77.29611, 38.8811 ] ], [ [ -77.29181, 38.87588 ], [ -77.29347, 38.876 ], [ -77.29348, 38.87483 ], [ -77.29281, 38.87463 ], [ -77.292, 38.875 ], [ -77.29181, 38.87588 ] ], [ [ -77.29041, 38.87552 ], [ -77.29038, 38.87564 ], [ -77.29047, 38.87564 ], [ -77.29041, 38.87552 ] ], [ [ -77.29155, 38.87878 ], [ -77.29141, 38.87897 ], [ -77.2916, 38.87915 ], [ -77.29155, 38.87878 ] ], [ [ -77.29164, 38.87787 ], [ -77.29165, 38.87797 ], [ -77.29185, 38.87788 ], [ -77.29164, 38.87787 ] ], [ [ -77.28885, 38.88538 ], [ -77.28866, 38.88509 ], [ -77.2862, 38.88606 ], [ -77.2865, 38.88644 ], [ -77.28731, 38.88624 ], [ -77.28774, 38.88648 ], [ -77.28783, 38.88688 ], [ -77.28722, 38.88737 ], [ -77.28747, 38.88769 ], [ -77.28833, 38.88732 ], [ -77.28885, 38.88538 ] ], [ [ -77.29024, 38.88541 ], [ -77.29043, 38.88539 ], [ -77.29039, 38.88537 ], [ -77.29024, 38.88541 ] ], [ [ -77.28878, 38.88211 ], [ -77.28873, 38.88197 ], [ -77.28821, 38.88212 ], [ -77.28878, 38.88211 ] ], [ [ -77.28717, 38.88222 ], [ -77.2872, 38.88226 ], [ -77.28732, 38.88222 ], [ -77.28717, 38.88222 ] ], [ [ -77.29089, 38.8817 ], [ -77.29063, 38.88165 ], [ -77.29025, 38.88208 ], [ -77.29077, 38.88206 ], [ -77.29089, 38.8817 ] ], [ [ -77.29349, 38.88462 ], [ -77.29262, 38.88351 ], [ -77.29169, 38.88388 ], [ -77.29349, 38.88462 ] ], [ [ -77.2914, 38.884 ], [ -77.29073, 38.88427 ], [ -77.29113, 38.88446 ], [ -77.2914, 38.884 ] ], [ [ -77.2884, 38.88092 ], [ -77.28833, 38.88064 ], [ -77.28812, 38.88078 ], [ -77.2884, 38.88092 ] ], [ [ -77.28676, 38.88398 ], [ -77.28701, 38.88393 ], [ -77.28694, 38.88391 ], [ -77.28676, 38.88398 ] ], [ [ -77.28193, 38.88553 ], [ -77.28173, 38.88564 ], [ -77.2828, 38.88673 ], [ -77.28387, 38.88583 ], [ -77.28315, 38.88619 ], [ -77.28193, 38.88553 ] ], [ [ -77.28482, 38.88435 ], [ -77.28471, 38.8844 ], [ -77.28496, 38.88475 ], [ -77.28482, 38.88435 ] ] ] } },
{ "type": "Feature", "properties": { "variant": "T2s", "miles": 0.5 }, "geometry": { "type": "Polygon", "coordinates": [ [ [ -77.30682, 38.87487 ], [ -77.30863, 38.87477 ], [ -77.30894, 38.8755 ], [ -77.30781, 38.87586 ], [ -77.30715, 38.87659 ], [ -77.30929, 38.87603 ], [ -77.31023, 38.87645 ], [ -77.3102, 38.87687 ], [ -77.30937, 38.87727 ], [ -77.30895, 38.87873 ], [ -77.30734, 38.87871 ], [ -77.30683, 38.878 ], [ -77.30593, 38.878 ], [ -77.3033, 38.88023 ], [ -77.30775, 38.87966 ], [ -77.30834, 38.87902 ], [ -77.31039, 38.87867 ], [ -77.31107, 38.87924 ], [ -77.31249, 38.87916 ], [ -77.31309, 38.87976 ], [ -77.31231, 38.88023 ], [ -77.30705, 38.88085 ], [ -77.30854, 38.88268 ], [ -77.30732, 38.88452 ], [ -77.3068, 38.88459 ], [ -77.30483, 38.88335 ], [ -77.30369, 38.88359 ], [ -77.30338, 38.88325 ], [ -77.30378, 38.88263 ], [ -77.30287, 38.88265 ], [ -77.30209, 38.88383 ], [ -77.30097, 38.88405 ], [ -77.30026, 38.88353 ], [ -77.30027, 38.88195 ], [ -77.29875, 38.88291 ], [ -77.29783, 38.88264 ], [ -77.29768, 38.88198 ], [ -77.29842, 38.88144 ], [ -77.29832, 38.881 ], [ -77.29754, 38.88064 ], [ -77.29789, 38.87933 ], [ -77.29869, 38.8789 ], [ -77.29983, 38.8799 ], [ -77.30021, 38.87852 ], [ -77.29973, 38.87801 ], [ -77.29987, 38.8775 ], [ -77.2967, 38.87715 ], [ -77.29654, 38.87676 ], [ -77.29713, 38.87603 ], [ -77.29816, 38.87571 ], [ -77.29862, 38.87615 ], [ -77.29964, 38.87595 ], [ -77.3007, 38.87642 ], [ -77.30059, 38.87575 ], [ -77.3025, 38.87495 ], [ -77.30555, 38.8763 ], [ -77.30682, 38.87487 ] ], [ [ -77.30299, 38.88137 ], [ -77.30178, 38.88121 ], [ -77.30165, 38.88176 ], [ -77.30231, 38.88181 ], [ -77.30299, 38.88137 ] ], [ [ -77.30666, 38.88235 ], [ -77.30661, 38.88291 ], [ -77.30698, 38.88273 ], [ -77.30666, 38.88235 ] ], [ [ -77.30509, 38.8822 ], [ -77.30508, 38.88219 ], [ -77.30506, 38.8822 ], [ -77.30509, 38.8822 ] ], [ [ -77.3013, 38.88 ], [ -77.3013, 38.88001 ], [ -77.30131, 38.88 ], [ -77.3013, 38.88 ] ], [ [ -77.30256, 38.87916 ], [ -77.30184, 38.87901 ], [ -77.30141, 38.87993 ], [ -77.30256, 38.87916 ] ] ] } },
{ "type": "Feature", "properties": { "variant": "T2s", "miles": 1.0 }, "geometry": { "type": "Polygon", "coordinates": [ [ [ -77.31427, 38.87153 ], [ -77.31508, 38.87128 ], [ -77.31553, 38.8715 ], [ -77.3152, 38.87234 ], [ -77.31619, 38.87214 ], [ -77.31692, 38.8728 ], [ -77.3152, 38.87412 ], [ -77.31549, 38.87568 ], [ -77.31461, 38.87578 ], [ -77.31381, 38.87504 ], [ -77.31235, 38.87597 ], [ -77.31306, 38.87794 ], [ -77.31354, 38.87892 ], [ -77.3145, 38.87928 ], [ -77.31423, 38.87981 ], [ -77.31534, 38.88042 ], [ -77.31738, 38.87886 ], [ -77.31842, 38.87891 ], [ -77.31844, 38.87967 ], [ -77.31633, 38.88118 ], [ -77.3195, 38.88347 ], [ -77.3196, 38.88423 ], [ -77.31863, 38.88431 ], [ -77.31727, 38.88334 ], [ -77.31645, 38.88372 ], [ -77.31588, 38.8849 ], [ -77.31491, 38.88495 ], [ -77.31467, 38.88458 ], [ -77.31506, 38.88399 ], [ -77.31426, 38.8832 ], [ -77.31526, 38.88186 ], [ -77.3143, 38.88114 ], [ -77.31287, 38.88042 ], [ -77.31263, 38.88102 ], [ -77.31278, 38.88144 ], [ -77.31294, 38.88101 ], [ -77.31392, 38.88098 ], [ -77.31473, 38.8822 ], [ -77.31461, 38.8826 ], [ -77.3127, 38.88361 ], [ -77.31185, 38.88308 ], [ -77.31224, 38.88263 ], [ -77.31129, 38.88144 ], [ -77.31146, 38.8803 ], [ -77.30705, 38.88085 ], [ -77.30855, 38.88309 ], [ -77.30751, 38.88375 ], [ -77.30732, 38.88452 ], [ -77.3068, 38.88459 ], [ -77.30546, 38.88355 ], [ -77.30457, 38.88352 ], [ -77.30506, 38.88436 ], [ -77.30377, 38.88624 ], [ -77.30462, 38.88706 ], [ -77.3032, 38.88764 ], [ -77.3047, 38.88947 ], [ -77.3048, 38.88988 ], [ -77.30398, 38.8903 ], [ -77.30248, 38.88876 ], [ -77.30057, 38.88986 ], [ -77.29954, 38.88901 ], [ -77.30175, 38.88784 ], [ -77.30137, 38.8865 ], [ -77.30279, 38.88546 ], [ -77.30369, 38.8841 ], [ -77.30182, 38.88401 ], [ -77.3029, 38.8847 ], [ -77.30223, 38.8855 ], [ -77.3004, 38.88565 ], [ -77.29983, 38.88553 ], [ -77.29956, 38.88492 ], [ -77.29891, 38.88517 ], [ -77.3012, 38.88652 ], [ -77.29994, 38.88749 ], [ -77.29941, 38.88745 ], [ -77.29861, 38.88656 ], [ -77.29782, 38.88695 ], [ -77.29738, 38.88672 ], [ -77.29563, 38.88467 ], [ -77.29528, 38.88325 ], [ -77.29402, 38.88323 ], [ -77.29546, 38.88509 ], [ -77.29527, 38.88584 ], [ -77.29431, 38.88569 ], [ -77.29262, 38.88351 ], [ -77.28921, 38.88487 ], [ -77.28831, 38.88463 ], [ -77.28816, 38.88263 ], [ -77.28878, 38.88213 ], [ -77.28879, 38.8815 ], [ -77.28974, 38.88132 ], [ -77.29018, 38.88208 ], [ -77.29077, 38.88206 ], [ -77.29029, 38.88101 ], [ -77.29122, 38.8798 ], [ -77.292, 38.87992 ], [ -77.29264, 38.88056 ], [ -77.29272, 38.88132 ], [ -77.29222, 38.88203 ], [ -77.2952, 38.88205 ], [ -77.2945, 38.88106 ], [ -77.29359, 38.8814 ], [ -77.29319, 38.88114 ], [ -77.29378, 38.88013 ], [ -77.29321, 38.87946 ], [ -77.29271, 38.8798 ], [ -77.29184, 38.87946 ], [ -77.29194, 38.87895 ], [ -77.29135, 38.87844 ], [ -77.29185, 38.87788 ], [ -77.29068, 38.87652 ], [ -77.29161, 38.87588 ], [ -77.29347, 38.876 ], [ -77.29364, 38.87509 ], [ -77.29301, 38.87412 ], [ -77.29351, 38.87346 ], [ -77.29403, 38.87352 ], [ -77.29493, 38.87468 ], [ -77.29565, 38.87491 ], [ -77.29662, 38.87449 ], [ -77.29686, 38.8731 ], [ -77.2962, 38.87216 ], [ -77.29649, 38.8714 ], [ -77.29759, 38.87143 ], [ -77.29846, 38.87078 ], [ -77.30031, 38.87061 ], [ -77.30121, 38.87089 ], [ -77.30129, 38.87159 ], [ -77.30207, 38.87169 ], [ -77.30276, 38.8702 ], [ -77.30495, 38.87005 ], [ -77.30531, 38.87047 ], [ -77.30796, 38.87104 ], [ -77.30788, 38.8718 ], [ -77.30722, 38.87232 ], [ -77.30631, 38.8723 ], [ -77.30562, 38.87373 ], [ -77.30762, 38.87456 ], [ -77.30997, 38.87059 ], [ -77.31296, 38.8686 ], [ -77.31343, 38.86879 ], [ -77.31427, 38.87153 ] ], [ [ -77.30299, 38.88137 ], [ -77.30163, 38.88129 ], [ -77.30165, 38.88176 ], [ -77.30299, 38.88137 ] ], [ [ -77.30184, 38.87901 ], [ -77.30141, 38.87993 ], [ -77.30256, 38.87916 ], [ -77.30184, 38.87901 ] ], [ [ -77.2992, 38.87393 ], [ -77.29845, 38.87403 ], [ -77.29923, 38.87494 ], [ -77.30003, 38.87449 ], [ -77.2992, 38.87393 ] ], [ [ -77.31216, 38.87909 ], [ -77.31095, 38.87894 ], [ -77.31107, 38.87924 ], [ -77.31216, 38.87909 ] ], [ [ -77.31058, 38.87872 ], [ -77.31088, 38.87885 ], [ -77.31083, 38.87872 ], [ -77.31058, 38.87872 ] ], [ [ -77.30683, 38.878 ], [ -77.30593, 38.878 ], [ -77.3033, 38.88023 ], [ -77.30775, 38.87966 ], [ -77.30756, 38.87868 ], [ -77.30691, 38.87848 ], [ -77.30683, 38.878 ] ], [ [ -77.30649, 38.87524 ], [ -77.30464, 38.87452 ], [ -77.30425, 38.87389 ], [ -77.30444, 38.87313 ], [ -77.30302, 38.87265 ], [ -77.30217, 38.8747 ], [ -77.30555, 38.8763 ], [ -77.30649, 38.87524 ] ], [ [ -77.31344, 38.87371 ], [ -77.31274, 38.87206 ], [ -77.31064, 38.8718 ], [ -77.30901, 38.87513 ], [ -77.30981, 38.87583 ], [ -77.31344, 38.87371 ] ], [ [ -77.31274, 38.87055 ], [ -77.31291, 38.87029 ], [ -77.31231, 38.8703 ], [ -77.31274, 38.87055 ] ], [ [ -77.30781, 38.87586 ], [ -77.30715, 38.87659 ], [ -77.30809, 38.87634 ], [ -77.30781, 38.87586 ] ], [ [ -77.30661, 38.88291 ], [ -77.30698, 38.88273 ], [ -77.30666, 38.88235 ], [ -77.30661, 38.88291 ] ], [ [ -77.30508, 38.88219 ], [ -77.30506, 38.8822 ], [ -77.30509, 38.8822 ], [ -77.30508, 38.88219 ] ], [ [ -77.29955, 38.87792 ], [ -77.30001, 38.87894 ], [ -77.29987, 38.8775 ], [ -77.29763, 38.87736 ], [ -77.29817, 38.87801 ], [ -77.29955, 38.87792 ] ], [ [ -77.30026, 38.88353 ], [ -77.30027, 38.88195 ], [ -77.29885, 38.88287 ], [ -77.29963, 38.88479 ], [ -77.30048, 38.8844 ], [ -77.30026, 38.88353 ] ], [ [ -77.29785, 38.87268 ], [ -77.29762, 38.87259 ], [ -77.2975, 38.87288 ], [ -77.29785, 38.87268 ] ], [ [ -77.29953, 38.87956 ], [ -77.29983, 38.8799 ], [ -77.29999, 38.87903 ], [ -77.29953, 38.87956 ] ], [ [ -77.29529, 38.87995 ], [ -77.29543, 38.88013 ], [ -77.29568, 38.88002 ], [ -77.29529, 38.87995 ] ], [ [ -77.29628, 38.87947 ], [ -77.29602, 38.87989 ], [ -77.29649, 38.8797 ], [ -77.29628, 38.87947 ] ], [ [ -77.29447, 38.87852 ], [ -77.29522, 38.87828 ], [ -77.29508, 38.87811 ], [ -77.29451, 38.87815 ], [ -77.29447, 38.87852 ] ], [ [ -77.29708, 38.88068 ], [ -77.29609, 38.88108 ], [ -77.2974, 38.8807 ], [ -77.29708, 38.88068 ] ], [ [ -77.29425, 38.8773 ], [ -77.29386, 38.87728 ], [ -77.29395, 38.87739 ], [ -77.29425, 38.8773 ] ] ] } },
{ "type": "Feature", "properties": { "variant": "T2s", "miles": 1.5 }, "geometry": { "type": "Polygon", "coordinates": [ [ [ -77.32367, 38.86915 ], [ -77.32362, 38.86991 ], [ -77.32191, 38.86999 ], [ -77.32042, 38.86944 ], [ -77.31819, 38.87207 ], [ -77.3152, 38.87412 ], [ -77.31549, 38.87568 ], [ -77.31461, 38.87578 ], [ -77.31381, 38.87504 ], [ -77.31235, 38.87597 ], [ -77.31354, 38.87892 ], [ -77.31418, 38.87895 ], [ -77.3145, 38.87928 ], [ -77.31423, 38.87981 ], [ -77.31534, 38.88042 ], [ -77.31738, 38.87886 ], [ -77.31842, 38.87891 ], [ -77.31844, 38.87967 ], [ -77.31633, 38.88118 ], [ -77.31893, 38.88309 ], [ -77.31942, 38.88126 ], [ -77.3219, 38.87989 ], [ -77.32223, 38.87884 ], [ -77.32163, 38.87824 ], [ -77.32189, 38.87788 ], [ -77.32405, 38.87802 ], [ -77.32317, 38.88032 ], [ -77.32209, 38.88127 ], [ -77.32206, 38.88176 ], [ -77.32118, 38.88209 ], [ -77.32078, 38.88171 ], [ -77.32038, 38.88211 ], [ -77.32234, 38.88298 ], [ -77.32326, 38.88301 ], [ -77.32408, 38.88247 ], [ -77.32494, 38.88098 ], [ -77.32587, 38.88121 ], [ -77.32562, 38.88232 ], [ -77.32688, 38.88351 ], [ -77.3268, 38.88392 ], [ -77.32586, 38.88411 ], [ -77.32502, 38.88331 ], [ -77.32479, 38.88353 ], [ -77.32541, 38.88434 ], [ -77.32711, 38.88535 ], [ -77.32469, 38.88883 ], [ -77.32534, 38.88925 ], [ -77.32508, 38.88999 ], [ -77.32355, 38.88952 ], [ -77.32102, 38.89018 ], [ -77.3205, 38.89013 ], [ -77.32007, 38.8895 ], [ -77.31898, 38.88959 ], [ -77.31871, 38.88885 ], [ -77.31982, 38.88844 ], [ -77.32051, 38.88743 ], [ -77.31844, 38.88664 ], [ -77.3182, 38.8859 ], [ -77.31862, 38.88566 ], [ -77.32067, 38.88635 ], [ -77.32103, 38.88614 ], [ -77.31727, 38.88334 ], [ -77.31645, 38.88372 ], [ -77.31588, 38.8849 ], [ -77.31491, 38.88495 ], [ -77.31497, 38.88393 ], [ -77.31338, 38.8853 ], [ -77.3124, 38.88529 ], [ -77.31241, 38.88416 ], [ -77.31337, 38.8837 ], [ -77.31444, 38.88281 ], [ -77.31526, 38.88186 ], [ -77.3143, 38.88114 ], [ -77.31287, 38.88042 ], [ -77.31263, 38.88102 ], [ -77.31278, 38.88144 ], [ -77.31294, 38.88101 ], [ -77.31392, 38.88098 ], [ -77.31473, 38.8822 ], [ -77.31315, 38.88348 ], [ -77.31206, 38.88346 ], [ -77.31224, 38.88263 ], [ -77.31125, 38.88126 ], [ -77.31146, 38.8803 ], [ -77.30705, 38.88085 ], [ -77.30855, 38.88309 ], [ -77.30751, 38.88375 ], [ -77.30732, 38.88452 ], [ -77.3068, 38.88459 ], [ -77.30546, 38.88355 ], [ -77.30457, 38.88352 ], [ -77.30506, 38.88436 ], [ -77.30377, 38.88624 ], [ -77.30462, 38.88706 ], [ -77.3032, 38.88764 ], [ -77.30432, 38.88902 ], [ -77.30859, 38.88731 ], [ -77.30827, 38.88592 ], [ -77.30971, 38.88518 ], [ -77.31023, 38.88582 ], [ -77.30953, 38.88638 ], [ -77.30982, 38.88682 ], [ -77.3121, 38.88594 ], [ -77.31304, 38.88615 ], [ -77.31352, 38.88752 ], [ -77.31328, 38.88789 ], [ -77.31277, 38.88801 ], [ -77.31177, 38.88728 ], [ -77.30387, 38.89024 ], [ -77.30446, 38.8909 ], [ -77.30427, 38.89128 ], [ -77.30287, 38.8913 ], [ -77.30127, 38.89253 ], [ -77.30029, 38.89247 ], [ -77.30026, 38.89171 ], [ -77.30129, 38.89095 ], [ -77.29968, 38.88929 ], [ -77.29899, 38.88982 ], [ -77.29932, 38.89152 ], [ -77.29907, 38.89188 ], [ -77.2981, 38.89181 ], [ -77.29757, 38.88986 ], [ -77.29591, 38.88774 ], [ -77.29591, 38.88911 ], [ -77.29708, 38.88943 ], [ -77.29744, 38.89052 ], [ -77.29654, 38.89087 ], [ -77.29606, 38.89019 ], [ -77.29489, 38.8899 ], [ -77.29433, 38.88766 ], [ -77.29519, 38.88681 ], [ -77.29489, 38.88643 ], [ -77.29405, 38.88691 ], [ -77.29298, 38.88646 ], [ -77.2927, 38.88557 ], [ -77.29276, 38.88739 ], [ -77.29225, 38.8875 ], [ -77.29084, 38.88652 ], [ -77.29179, 38.8877 ], [ -77.29395, 38.88852 ], [ -77.29373, 38.88926 ], [ -77.29142, 38.88909 ], [ -77.28972, 38.88717 ], [ -77.29168, 38.8897 ], [ -77.29294, 38.89018 ], [ -77.29265, 38.89091 ], [ -77.29077, 38.89051 ], [ -77.2889, 38.88821 ], [ -77.2876, 38.88889 ], [ -77.28666, 38.88872 ], [ -77.28505, 38.88665 ], [ -77.28196, 38.88912 ], [ -77.28087, 38.88897 ], [ -77.28089, 38.88823 ], [ -77.2818, 38.88752 ], [ -77.27999, 38.88546 ], [ -77.28134, 38.88454 ], [ -77.28153, 38.88404 ], [ -77.28096, 38.88355 ], [ -77.28189, 38.8827 ], [ -77.28021, 38.88273 ], [ -77.27952, 38.88219 ], [ -77.28021, 38.88165 ], [ -77.28416, 38.88145 ], [ -77.28408, 38.88006 ], [ -77.28365, 38.87972 ], [ -77.28372, 38.87931 ], [ -77.28449, 38.87899 ], [ -77.28399, 38.87857 ], [ -77.28392, 38.87642 ], [ -77.28319, 38.87633 ], [ -77.28225, 38.87497 ], [ -77.28235, 38.87421 ], [ -77.28301, 38.87404 ], [ -77.28415, 38.87484 ], [ -77.28563, 38.87429 ], [ -77.28741, 38.87429 ], [ -77.28773, 38.87385 ], [ -77.2887, 38.87404 ], [ -77.28993, 38.8737 ], [ -77.29144, 38.87248 ], [ -77.29197, 38.87249 ], [ -77.29248, 38.87313 ], [ -77.29313, 38.87297 ], [ -77.29391, 38.872 ], [ -77.29518, 38.87138 ], [ -77.29759, 38.87143 ], [ -77.29824, 38.87085 ], [ -77.30095, 38.87022 ], [ -77.30245, 38.8707 ], [ -77.30279, 38.87019 ], [ -77.30403, 38.87033 ], [ -77.30443, 38.87003 ], [ -77.30796, 38.87104 ], [ -77.30788, 38.8718 ], [ -77.30722, 38.87232 ], [ -77.30631, 38.8723 ], [ -77.30562, 38.87373 ], [ -77.30762, 38.87456 ], [ -77.30925, 38.87133 ], [ -77.31379, 38.86794 ], [ -77.31741, 38.8685 ], [ -77.31648, 38.86792 ], [ -77.31656, 38.86751 ], [ -77.31862, 38.86701 ], [ -77.3201, 38.86783 ], [ -77.32181, 38.86571 ], [ -77.32276, 38.86553 ], [ -77.32299, 38.86627 ], [ -77.3214, 38.86866 ], [ -77.32367, 38.86915 ] ], [ [ -77.3026, 38.88923 ], [ -77.30302, 38.88942 ], [ -77.30248, 38.88876 ], [ -77.30155, 38.88935 ], [ -77.3026, 38.88923 ] ], [ [ -77.30175, 38.88784 ], [ -77.30137, 38.8865 ], [ -77.30279, 38.88546 ], [ -77.30369, 38.8841 ], [ -77.30182, 38.88401 ], [ -77.30186, 38.8843 ], [ -77.30267, 38.88432 ], [ -77.30275, 38.88519 ], [ -77.30207, 38.88553 ], [ -77.30104, 38.88544 ], [ -77.30108, 38.88692 ], [ -77.29896, 38.88821 ], [ -77.29829, 38.88765 ], [ -77.29866, 38.88716 ], [ -77.29738, 38.88672 ], [ -77.29576, 38.88487 ], [ -77.29528, 38.88325 ], [ -77.29402, 38.88323 ], [ -77.29839, 38.88884 ], [ -77.30175, 38.88784 ] ], [ [ -77.30026, 38.88353 ], [ -77.30027, 38.88195 ], [ -77.29885, 38.88287 ], [ -77.29963, 38.88479 ], [ -77.30048, 38.8844 ], [ -77.30026, 38.88353 ] ], [ [ -77.29999, 38.87903 ], [ -77.29953, 38.87956 ], [ -77.29983, 38.8799 ], [ -77.29999, 38.87903 ] ], [ [ -77.29987, 38.8775 ], [ -77.29763, 38.87736 ], [ -77.29817, 38.87801 ], [ -77.2991, 38.8777 ], [ -77.29955, 38.87792 ], [ -77.30003, 38.87886 ], [ -77.29987, 38.8775 ] ], [ [ -77.30775, 38.87966 ], [ -77.30756, 38.87868 ], [ -77.30691, 38.87848 ], [ -77.30683, 38.878 ], [ -77.30593, 38.878 ], [ -77.3033, 38.88023 ], [ -77.30775, 38.87966 ] ], [ [ -77.30781, 38.87586 ], [ -77.30715, 38.87659 ], [ -77.30768, 38.87644 ], [ -77.30809, 38.87634 ], [ -77.30781, 38.87586 ] ], [ [ -77.30469, 38.87456 ], [ -77.30425, 38.87389 ], [ -77.30444, 38.87313 ], [ -77.30301, 38.87266 ], [ -77.30217, 38.8747 ], [ -77.30555, 38.8763 ], [ -77.30649, 38.87524 ], [ -77.30469, 38.87456 ] ], [ [ -77.31258, 38.87189 ], [ -77.31055, 38.87184 ], [ -77.30901, 38.87513 ], [ -77.30983, 38.87582 ], [ -77.31344, 38.87371 ], [ -77.31258, 38.87189 ] ], [ [ -77.31376, 38.87026 ], [ -77.31389, 38.8702 ], [ -77.31369, 38.87014 ], [ -77.31376, 38.87026 ] ], [ [ -77.31662, 38.87129 ], [ -77.3165, 38.87169 ], [ -77.31562, 38.87183 ], [ -77.31585, 38.87215 ], [ -77.31654, 38.87169 ], [ -77.31716, 38.87117 ], [ -77.31589, 38.87069 ], [ -77.31662, 38.87129 ] ], [ [ -77.31897, 38.86895 ], [ -77.31923, 38.86868 ], [ -77.31884, 38.86856 ], [ -77.31897, 38.86895 ] ], [ [ -77.31409, 38.86908 ], [ -77.31793, 38.87026 ], [ -77.31823, 38.86987 ], [ -77.31409, 38.86908 ] ], [ [ -77.31232, 38.87031 ], [ -77.31232, 38.8703 ], [ -77.31231, 38.8703 ], [ -77.31232, 38.87031 ] ], [ [ -77.32358, 38.88406 ], [ -77.32209, 38.88405 ], [ -77.32331, 38.88506 ], [ -77.32302, 38.88541 ], [ -77.32204, 38.8854 ], [ -77.32445, 38.88719 ], [ -77.32555, 38.8857 ], [ -77.32358, 38.88406 ] ], [ [ -77.32, 38.88385 ], [ -77.32078, 38.88445 ], [ -77.32086, 38.88349 ], [ -77.32039, 38.88321 ], [ -77.32, 38.88385 ] ], [ [ -77.32366, 38.8881 ], [ -77.32205, 38.8869 ], [ -77.32118, 38.88862 ], [ -77.32132, 38.889 ], [ -77.32366, 38.8881 ] ], [ [ -77.31137, 38.87911 ], [ -77.31095, 38.87894 ], [ -77.31107, 38.87924 ], [ -77.31216, 38.87915 ], [ -77.31137, 38.87911 ] ], [ [ -77.31058, 38.87872 ], [ -77.31088, 38.87885 ], [ -77.31075, 38.8785 ], [ -77.31058, 38.87872 ] ], [ [ -77.30666, 38.88235 ], [ -77.30661, 38.88291 ], [ -77.30698, 38.88273 ], [ -77.30666, 38.88235 ] ], [ [ -77.30184, 38.87901 ], [ -77.30141, 38.87993 ], [ -77.30256, 38.87916 ], [ -77.30184, 38.87901 ] ], [ [ -77.29925, 38.87402 ], [ -77.29876, 38.87421 ], [ -77.29923, 38.87494 ], [ -77.30003, 38.87444 ], [ -77.29925, 38.87402 ] ], [ [ -77.30299, 38.88137 ], [ -77.30163, 38.88129 ], [ -77.30165, 38.88176 ], [ -77.30299, 38.88137 ] ], [ [ -77.30509, 38.8822 ], [ -77.30508, 38.88219 ], [ -77.30506, 38.8822 ], [ -77.30509, 38.8822 ] ], [ [ -77.30317, 38.88962 ], [ -77.30309, 38.88952 ], [ -77.30313, 38.88962 ], [ -77.30317, 38.88962 ] ], [ [ -77.29359, 38.8814 ], [ -77.29319, 38.88114 ], [ -77.29378, 38.88013 ], [ -77.29321, 38.87946 ], [ -77.29231, 38.88013 ], [ -77.29275, 38.8811 ], [ -77.29222, 38.88203 ], [ -77.2952, 38.88205 ], [ -77.29456, 38.88115 ], [ -77.29359, 38.8814 ] ], [ [ -77.29077, 38.88206 ], [ -77.29089, 38.8817 ], [ -77.29025, 38.88208 ], [ -77.29077, 38.88206 ] ], [ [ -77.2906, 38.87991 ], [ -77.29026, 38.87958 ], [ -77.29007, 38.88002 ], [ -77.29079, 38.88065 ], [ -77.2906, 38.87991 ] ], [ [ -77.29071, 38.87707 ], [ -77.29028, 38.87704 ], [ -77.29034, 38.87736 ], [ -77.29071, 38.87707 ] ], [ [ -77.29649, 38.8797 ], [ -77.29628, 38.87947 ], [ -77.29617, 38.87982 ], [ -77.29649, 38.8797 ] ], [ [ -77.29522, 38.87828 ], [ -77.29451, 38.87815 ], [ -77.29447, 38.87852 ], [ -77.29522, 38.87828 ] ], [ [ -77.29386, 38.87728 ], [ -77.29406, 38.87752 ], [ -77.29425, 38.8773 ], [ -77.29386, 38.87728 ] ], [ [ -77.29281, 38.87463 ], [ -77.29194, 38.87485 ], [ -77.29181, 38.87588 ], [ -77.29347, 38.876 ], [ -77.29366, 38.87521 ], [ -77.29281, 38.87463 ] ], [ [ -77.29891, 38.88517 ], [ -77.29988, 38.88563 ], [ -77.29956, 38.88492 ], [ -77.29891, 38.88517 ] ], [ [ -77.29563, 38.87403 ], [ -77.29579, 38.8743 ], [ -77.29575, 38.87402 ], [ -77.29563, 38.87403 ] ], [ [ -77.29591, 38.87472 ], [ -77.29581, 38.87458 ], [ -77.29567, 38.8749 ], [ -77.29591, 38.87472 ] ], [ [ -77.29611, 38.8811 ], [ -77.2974, 38.8807 ], [ -77.29729, 38.88059 ], [ -77.29611, 38.8811 ] ], [ [ -77.29568, 38.88002 ], [ -77.29529, 38.87995 ], [ -77.29543, 38.88013 ], [ -77.29568, 38.88002 ] ], [ [ -77.29185, 38.87788 ], [ -77.29183, 38.87785 ], [ -77.29164, 38.87787 ], [ -77.29185, 38.87788 ] ], [ [ -77.29038, 38.87564 ], [ -77.29047, 38.87564 ], [ -77.2905, 38.87553 ], [ -77.29038, 38.87564 ] ], [ [ -77.29194, 38.87895 ], [ -77.29155, 38.87878 ], [ -77.29141, 38.87897 ], [ -77.29194, 38.87895 ] ], [ [ -77.28885, 38.88538 ], [ -77.28866, 38.88509 ], [ -77.2862, 38.88606 ], [ -77.2865, 38.88644 ], [ -77.28731, 38.88624 ], [ -77.28774, 38.88648 ], [ -77.28783, 38.88688 ], [ -77.28722, 38.88737 ], [ -77.28747, 38.88769 ], [ -77.28833, 38.88732 ], [ -77.28885, 38.88538 ] ], [ [ -77.29024, 38.88541 ], [ -77.29043, 38.88539 ], [ -77.29039, 38.88537 ], [ -77.29024, 38.88541 ] ], [ [ -77.28821, 38.88212 ], [ -77.28878, 38.88211 ], [ -77.28873, 38.88197 ], [ -77.28821, 38.88212 ] ], [ [ -77.28717, 38.88222 ], [ -77.2872, 38.88226 ], [ -77.28732, 38.88222 ], [ -77.28717, 38.88222 ] ], [ [ -77.29291, 38.88424 ], [ -77.29349, 38.88462 ], [ -77.29262, 38.88351 ], [ -77.29169, 38.88388 ], [ -77.29291, 38.88424 ] ], [ [ -77.29119, 38.88412 ], [ -77.2914, 38.884 ], [ -77.29073, 38.88427 ], [ -77.2911, 38.88444 ], [ -77.29119, 38.88412 ] ], [ [ -77.2884, 38.88092 ], [ -77.28833, 38.88064 ], [ -77.28812, 38.88078 ], [ -77.2884, 38.88092 ] ], [ [ -77.28676, 38.88398 ], [ -77.28701, 38.88393 ], [ -77.28694, 38.88391 ], [ -77.28676, 38.88398 ] ], [ [ -77.28482, 38.88435 ], [ -77.28471, 38.8844 ], [ -77.28496, 38.88475 ], [ -77.28482, 38.88435 ] ], [ [ -77.28178, 38.88299 ], [ -77.28179, 38.883 ], [ -77.28179, 38.88299 ], [ -77.28178, 38.88299 ] ], [ [ -77.28288, 38.88625 ], [ -77.28173, 38.88564 ], [ -77.2828, 38.88673 ], [ -77.28387, 38.88583 ], [ -77.28288, 38.88625 ] ] ] } }
]
}
