{
"type": "FeatureCollection",
"name": "62",
"crs": { "type": "name", "properties": { "name": "urn:ogc:def:crs:OGC:1.3:CRS84" } },
"xy_coordinate_resolution": 1e-05,
"features": [
{ "type": "Feature", "properties": { "variant": "T0", "miles": 0.5 }, "geometry": { "type": "Polygon", "coordinates": [ [ [ -77.26769, 38.89487 ], [ -77.26759, 38.89596 ], [ -77.26818, 38.89608 ], [ -77.26825, 38.89671 ], [ -77.27005, 38.89826 ], [ -77.26918, 38.89919 ], [ -77.26997, 38.89942 ], [ -77.27002, 38.89983 ], [ -77.26882, 38.90064 ], [ -77.27006, 38.90279 ], [ -77.26644, 38.90552 ], [ -77.26572, 38.90519 ], [ -77.265, 38.90576 ], [ -77.26284, 38.90425 ], [ -77.26146, 38.90535 ], [ -77.26048, 38.90535 ], [ -77.26047, 38.90459 ], [ -77.26185, 38.90349 ], [ -77.25891, 38.90157 ], [ -77.25705, 38.89958 ], [ -77.25773, 38.89903 ], [ -77.25839, 38.89931 ], [ -77.2596, 38.89802 ], [ -77.25794, 38.89675 ], [ -77.25793, 38.89599 ], [ -77.25891, 38.89598 ], [ -77.26056, 38.89724 ], [ -77.26333, 38.89526 ], [ -77.26403, 38.8958 ], [ -77.26343, 38.8965 ], [ -77.26435, 38.8972 ], [ -77.26613, 38.89613 ], [ -77.26673, 38.89473 ], [ -77.26769, 38.89487 ] ], [ [ -77.26695, 38.90096 ], [ -77.26619, 38.90157 ], [ -77.26626, 38.90163 ], [ -77.26695, 38.90096 ] ], [ [ -77.26563, 38.90047 ], [ -77.26505, 38.9005 ], [ -77.26463, 38.90037 ], [ -77.2652, 38.90081 ], [ -77.26563, 38.90047 ] ], [ [ -77.26438, 38.90002 ], [ -77.26429, 38.90011 ], [ -77.26453, 38.90029 ], [ -77.26438, 38.90002 ] ], [ [ -77.26423, 38.90158 ], [ -77.26192, 38.89981 ], [ -77.26092, 38.90061 ], [ -77.26388, 38.90186 ], [ -77.26423, 38.90158 ] ], [ [ -77.26251, 38.89874 ], [ -77.26361, 38.8991 ], [ -77.26398, 38.89881 ], [ -77.26347, 38.89868 ], [ -77.26333, 38.89809 ], [ -77.26251, 38.89874 ] ], [ [ -77.26721, 38.89742 ], [ -77.2675, 38.8985 ], [ -77.2677, 38.89882 ], [ -77.26837, 38.89829 ], [ -77.26721, 38.89742 ] ], [ [ -77.26284, 38.90265 ], [ -77.26258, 38.90254 ], [ -77.26281, 38.90272 ], [ -77.26284, 38.90265 ] ], [ [ -77.26532, 38.90255 ], [ -77.26522, 38.90234 ], [ -77.2651, 38.90243 ], [ -77.26532, 38.90255 ] ], [ [ -77.26083, 38.89898 ], [ -77.26, 38.8993 ], [ -77.26032, 38.89955 ], [ -77.26083, 38.89898 ] ] ] } },
{ "type": "Feature", "properties": { "variant": "T0", "miles": 1.0 }, "geometry": { "type": "Polygon", "coordinates": [ [ [ -77.27672, 38.89346 ], [ -77.27494, 38.89468 ], [ -77.2751, 38.89488 ], [ -77.27596, 38.89442 ], [ -77.27666, 38.89496 ], [ -77.27424, 38.89762 ], [ -77.27757, 38.89763 ], [ -77.27802, 38.90119 ], [ -77.2787, 38.90099 ], [ -77.27929, 38.9016 ], [ -77.27681, 38.90324 ], [ -77.27764, 38.90385 ], [ -77.27736, 38.90483 ], [ -77.27823, 38.90519 ], [ -77.27852, 38.90592 ], [ -77.27758, 38.90615 ], [ -77.27667, 38.90577 ], [ -77.27658, 38.90692 ], [ -77.27571, 38.90706 ], [ -77.27663, 38.90801 ], [ -77.27647, 38.90854 ], [ -77.276, 38.90872 ], [ -77.27481, 38.90818 ], [ -77.27564, 38.90883 ], [ -77.27571, 38.90925 ], [ -77.27504, 38.9096 ], [ -77.27623, 38.91035 ], [ -77.2762, 38.91076 ], [ -77.27528, 38.91102 ], [ -77.27323, 38.91024 ], [ -77.2732, 38.90961 ], [ -77.27207, 38.90849 ], [ -77.27185, 38.90735 ], [ -77.26964, 38.90647 ], [ -77.27023, 38.90751 ], [ -77.26945, 38.90789 ], [ -77.27033, 38.90882 ], [ -77.26972, 38.90943 ], [ -77.26908, 38.90914 ], [ -77.26865, 38.90935 ], [ -77.26939, 38.91004 ], [ -77.26915, 38.91078 ], [ -77.26705, 38.91075 ], [ -77.26725, 38.9098 ], [ -77.2663, 38.90908 ], [ -77.2652, 38.90919 ], [ -77.26534, 38.9083 ], [ -77.26462, 38.90776 ], [ -77.26358, 38.90762 ], [ -77.26184, 38.90901 ], [ -77.26373, 38.91032 ], [ -77.26315, 38.91093 ], [ -77.26086, 38.90979 ], [ -77.25881, 38.9112 ], [ -77.2581, 38.91067 ], [ -77.25853, 38.90983 ], [ -77.25728, 38.91072 ], [ -77.2556, 38.91002 ], [ -77.2544, 38.91075 ], [ -77.25354, 38.91049 ], [ -77.25349, 38.90992 ], [ -77.2546, 38.90926 ], [ -77.25387, 38.90873 ], [ -77.25384, 38.90796 ], [ -77.25433, 38.90779 ], [ -77.25557, 38.90849 ], [ -77.2558, 38.90831 ], [ -77.25385, 38.9068 ], [ -77.25385, 38.90603 ], [ -77.25483, 38.90603 ], [ -77.25556, 38.9066 ], [ -77.2566, 38.90598 ], [ -77.2571, 38.90613 ], [ -77.25731, 38.90651 ], [ -77.25655, 38.90736 ], [ -77.25677, 38.90753 ], [ -77.25789, 38.90665 ], [ -77.25327, 38.90289 ], [ -77.25395, 38.90234 ], [ -77.25536, 38.9032 ], [ -77.25649, 38.9023 ], [ -77.25553, 38.90122 ], [ -77.25345, 38.90093 ], [ -77.25216, 38.90178 ], [ -77.25111, 38.9009 ], [ -77.25149, 38.90044 ], [ -77.25003, 38.89994 ], [ -77.25031, 38.89921 ], [ -77.25125, 38.89926 ], [ -77.25103, 38.8981 ], [ -77.25034, 38.89736 ], [ -77.25195, 38.89589 ], [ -77.25124, 38.89534 ], [ -77.25122, 38.89458 ], [ -77.2522, 38.89457 ], [ -77.25293, 38.89512 ], [ -77.25393, 38.89432 ], [ -77.2531, 38.89374 ], [ -77.25316, 38.89333 ], [ -77.2541, 38.89311 ], [ -77.2549, 38.89354 ], [ -77.25566, 38.89294 ], [ -77.25539, 38.89204 ], [ -77.25401, 38.89153 ], [ -77.25392, 38.89077 ], [ -77.25553, 38.89044 ], [ -77.25678, 38.89204 ], [ -77.25822, 38.89108 ], [ -77.26129, 38.88988 ], [ -77.26443, 38.89277 ], [ -77.26562, 38.89204 ], [ -77.26519, 38.89139 ], [ -77.26627, 38.8909 ], [ -77.26639, 38.89001 ], [ -77.26815, 38.88976 ], [ -77.26808, 38.88893 ], [ -77.26901, 38.8887 ], [ -77.26947, 38.89027 ], [ -77.26996, 38.88997 ], [ -77.27074, 38.89027 ], [ -77.27249, 38.88947 ], [ -77.27295, 38.88969 ], [ -77.2728, 38.89044 ], [ -77.272, 38.8909 ], [ -77.27358, 38.89241 ], [ -77.27416, 38.89361 ], [ -77.27601, 38.89237 ], [ -77.27671, 38.8927 ], [ -77.27672, 38.89346 ] ], [ [ -77.26694, 38.90803 ], [ -77.26699, 38.90742 ], [ -77.26534, 38.90615 ], [ -77.26477, 38.90667 ], [ -77.26655, 38.90715 ], [ -77.26694, 38.90803 ] ], [ [ -77.26397, 38.89881 ], [ -77.26347, 38.89868 ], [ -77.26333, 38.89809 ], [ -77.26251, 38.89874 ], [ -77.26295, 38.89909 ], [ -77.26397, 38.89881 ] ], [ [ -77.26333, 38.89504 ], [ -77.26328, 38.89494 ], [ -77.26317, 38.89491 ], [ -77.26333, 38.89504 ] ], [ [ -77.2734, 38.90814 ], [ -77.27352, 38.90777 ], [ -77.27332, 38.90766 ], [ -77.2734, 38.90814 ] ], [ [ -77.27315, 38.90163 ], [ -77.27202, 38.90161 ], [ -77.27188, 38.90108 ], [ -77.27163, 38.9014 ], [ -77.27166, 38.90189 ], [ -77.27315, 38.90163 ] ], [ [ -77.27035, 38.89825 ], [ -77.27169, 38.89832 ], [ -77.27267, 38.89725 ], [ -77.27216, 38.89681 ], [ -77.27035, 38.89825 ] ], [ [ -77.26982, 38.89691 ], [ -77.26913, 38.897 ], [ -77.26825, 38.89671 ], [ -77.26934, 38.89752 ], [ -77.26982, 38.89691 ] ], [ [ -77.27005, 38.89497 ], [ -77.27019, 38.89474 ], [ -77.27038, 38.89446 ], [ -77.27022, 38.89448 ], [ -77.27005, 38.89497 ] ], [ [ -77.27091, 38.8939 ], [ -77.27093, 38.89392 ], [ -77.27094, 38.89392 ], [ -77.27091, 38.8939 ] ], [ [ -77.27036, 38.89324 ], [ -77.27131, 38.8923 ], [ -77.27073, 38.89156 ], [ -77.26854, 38.8927 ], [ -77.26821, 38.89354 ], [ -77.26965, 38.89236 ], [ -77.27013, 38.89254 ], [ -77.27036, 38.89324 ] ], [ [ -77.27303, 38.89997 ], [ -77.27295, 38.89877 ], [ -77.27231, 38.9 ], [ -77.27303, 38.89997 ] ], [ [ -77.27367, 38.8962 ], [ -77.27414, 38.89571 ], [ -77.27394, 38.89547 ], [ -77.27313, 38.89604 ], [ -77.27367, 38.8962 ] ], [ [ -77.27592, 38.89862 ], [ -77.27524, 38.89933 ], [ -77.27568, 38.89983 ], [ -77.27654, 38.89979 ], [ -77.27646, 38.8986 ], [ -77.27592, 38.89862 ] ], [ [ -77.27448, 38.90096 ], [ -77.27454, 38.9016 ], [ -77.27552, 38.90092 ], [ -77.27507, 38.90094 ], [ -77.27448, 38.90096 ] ], [ [ -77.2744, 38.89869 ], [ -77.27438, 38.89941 ], [ -77.27473, 38.89926 ], [ -77.2744, 38.89869 ] ], [ [ -77.27614, 38.90424 ], [ -77.27615, 38.90431 ], [ -77.27621, 38.90418 ], [ -77.27614, 38.90424 ] ], [ [ -77.27662, 38.90088 ], [ -77.27565, 38.90091 ], [ -77.27607, 38.90112 ], [ -77.27605, 38.90169 ], [ -77.27667, 38.90168 ], [ -77.27662, 38.90088 ] ], [ [ -77.27524, 38.90281 ], [ -77.27457, 38.90284 ], [ -77.27456, 38.9032 ], [ -77.27524, 38.90281 ] ], [ [ -77.27268, 38.89442 ], [ -77.2728, 38.89468 ], [ -77.27302, 38.89452 ], [ -77.27268, 38.89442 ] ], [ [ -77.27244, 38.89425 ], [ -77.2724, 38.89422 ], [ -77.27239, 38.89423 ], [ -77.27244, 38.89425 ] ], [ [ -77.27166, 38.90577 ], [ -77.27087, 38.9044 ], [ -77.27018, 38.90465 ], [ -77.27166, 38.90577 ] ], [ [ -77.27102, 38.9041 ], [ -77.27095, 38.90408 ], [ -77.27096, 38.90418 ], [ -77.27102, 38.9041 ] ], [ [ -77.26956, 38.9002 ], [ -77.26882, 38.90064 ], [ -77.26924, 38.90129 ], [ -77.26976, 38.90085 ], [ -77.26956, 38.9002 ] ], [ [ -77.26827, 38.89822 ], [ -77.26745, 38.8976 ], [ -77.26721, 38.89742 ], [ -77.2677, 38.89882 ], [ -77.26827, 38.89822 ] ], [ [ -77.26677, 38.89371 ], [ -77.2655, 38.89375 ], [ -77.26524, 38.89442 ], [ -77.26469, 38.89447 ], [ -77.26639, 38.89525 ], [ -77.26677, 38.89371 ] ], [ [ -77.27176, 38.90296 ], [ -77.27205, 38.90306 ], [ -77.27212, 38.90295 ], [ -77.27176, 38.90296 ] ], [ [ -77.26918, 38.89581 ], [ -77.2692, 38.89582 ], [ -77.26921, 38.89582 ], [ -77.26918, 38.89581 ] ], [ [ -77.26949, 38.90404 ], [ -77.26922, 38.90352 ], [ -77.26897, 38.90372 ], [ -77.26949, 38.90404 ] ], [ [ -77.2646, 38.89708 ], [ -77.26552, 38.89635 ], [ -77.26576, 38.89621 ], [ -77.26571, 38.89619 ], [ -77.2646, 38.89708 ] ], [ [ -77.25944, 38.90756 ], [ -77.26136, 38.90603 ], [ -77.26098, 38.90573 ], [ -77.25902, 38.9073 ], [ -77.25944, 38.90756 ] ], [ [ -77.25935, 38.9045 ], [ -77.25794, 38.90517 ], [ -77.25886, 38.90588 ], [ -77.25998, 38.90498 ], [ -77.25935, 38.9045 ] ], [ [ -77.26185, 38.90349 ], [ -77.26092, 38.9028 ], [ -77.26003, 38.90351 ], [ -77.26095, 38.90421 ], [ -77.26185, 38.90349 ] ], [ [ -77.25951, 38.8981 ], [ -77.25728, 38.89625 ], [ -77.2572, 38.89632 ], [ -77.25951, 38.8981 ] ], [ [ -77.2604, 38.89569 ], [ -77.2594, 38.89636 ], [ -77.25948, 38.89642 ], [ -77.2604, 38.89569 ] ], [ [ -77.25842, 38.8956 ], [ -77.25935, 38.8946 ], [ -77.25825, 38.89548 ], [ -77.25842, 38.8956 ] ], [ [ -77.25704, 38.8949 ], [ -77.25679, 38.89491 ], [ -77.25683, 38.89506 ], [ -77.25704, 38.8949 ] ], [ [ -77.2635, 38.90614 ], [ -77.2642, 38.90528 ], [ -77.26332, 38.90601 ], [ -77.2635, 38.90614 ] ], [ [ -77.26423, 38.90158 ], [ -77.26192, 38.89981 ], [ -77.26092, 38.90061 ], [ -77.26388, 38.90186 ], [ -77.26423, 38.90158 ] ], [ [ -77.26539, 38.90248 ], [ -77.2651, 38.90243 ], [ -77.26532, 38.90255 ], [ -77.26539, 38.90248 ] ], [ [ -77.26538, 38.90039 ], [ -77.26505, 38.9005 ], [ -77.26463, 38.90037 ], [ -77.2652, 38.90081 ], [ -77.26538, 38.90039 ] ], [ [ -77.26438, 38.90002 ], [ -77.26429, 38.90011 ], [ -77.26453, 38.90029 ], [ -77.26438, 38.90002 ] ], [ [ -77.26619, 38.90157 ], [ -77.26626, 38.90163 ], [ -77.26695, 38.90096 ], [ -77.26619, 38.90157 ] ], [ [ -77.26109, 38.89118 ], [ -77.26038, 38.8918 ], [ -77.26149, 38.8919 ], [ -77.2613, 38.8926 ], [ -77.26335, 38.89344 ], [ -77.26109, 38.89118 ] ], [ [ -77.26281, 38.90272 ], [ -77.26284, 38.90265 ], [ -77.26258, 38.90254 ], [ -77.26281, 38.90272 ] ], [ [ -77.26079, 38.89917 ], [ -77.26059, 38.89878 ], [ -77.26, 38.8993 ], [ -77.26032, 38.89955 ], [ -77.26079, 38.89917 ] ], [ [ -77.26047, 38.89717 ], [ -77.26148, 38.89651 ], [ -77.26139, 38.89645 ], [ -77.26047, 38.89717 ] ], [ [ -77.26233, 38.90525 ], [ -77.26321, 38.90453 ], [ -77.26284, 38.90425 ], [ -77.26194, 38.90496 ], [ -77.26233, 38.90525 ] ], [ [ -77.26253, 38.90691 ], [ -77.26146, 38.90751 ], [ -77.26053, 38.90823 ], [ -77.26253, 38.90691 ] ], [ [ -77.2586, 38.89345 ], [ -77.25873, 38.89358 ], [ -77.25882, 38.89353 ], [ -77.2586, 38.89345 ] ], [ [ -77.25781, 38.89301 ], [ -77.25754, 38.89299 ], [ -77.25795, 38.89311 ], [ -77.25781, 38.89301 ] ], [ [ -77.25804, 38.90807 ], [ -77.25656, 38.90924 ], [ -77.25696, 38.90954 ], [ -77.25847, 38.90834 ], [ -77.25804, 38.90807 ] ], [ [ -77.2566, 38.90092 ], [ -77.25715, 38.90056 ], [ -77.25602, 38.9006 ], [ -77.2566, 38.90092 ] ], [ [ -77.25587, 38.89738 ], [ -77.25839, 38.89931 ], [ -77.25861, 38.89892 ], [ -77.25623, 38.89709 ], [ -77.25587, 38.89738 ] ], [ [ -77.2558, 38.89589 ], [ -77.25569, 38.89555 ], [ -77.25543, 38.89574 ], [ -77.2558, 38.89589 ] ], [ [ -77.25817, 38.90165 ], [ -77.25759, 38.90163 ], [ -77.25906, 38.90274 ], [ -77.25832, 38.90214 ], [ -77.25817, 38.90165 ] ], [ [ -77.25782, 38.90055 ], [ -77.25779, 38.90037 ], [ -77.25738, 38.90055 ], [ -77.25782, 38.90055 ] ], [ [ -77.2579, 38.90337 ], [ -77.25807, 38.90352 ], [ -77.25809, 38.90351 ], [ -77.2579, 38.90337 ] ], [ [ -77.25748, 38.90305 ], [ -77.25747, 38.90305 ], [ -77.25749, 38.90306 ], [ -77.25748, 38.90305 ] ], [ [ -77.25308, 38.89969 ], [ -77.25302, 38.89963 ], [ -77.25298, 38.89966 ], [ -77.25308, 38.89969 ] ], [ [ -77.25459, 38.89641 ], [ -77.2547, 38.89649 ], [ -77.25463, 38.89637 ], [ -77.25459, 38.89641 ] ], [ [ -77.25389, 38.89738 ], [ -77.25367, 38.89721 ], [ -77.25269, 38.89785 ], [ -77.25301, 38.89809 ], [ -77.25389, 38.89738 ] ], [ [ -77.25405, 38.89891 ], [ -77.25488, 38.89814 ], [ -77.25398, 38.89886 ], [ -77.25405, 38.89891 ] ] ] } },
{ "type": "Feature", "properties": { "variant": "T0", "miles": 1.5 }, "geometry": { "type": "Polygon", "coordinates": [ [ [ -77.27912, 38.88788 ], [ -77.27846, 38.8876 ], [ -77.27769, 38.88781 ], [ -77.27937, 38.88945 ], [ -77.28225, 38.88717 ], [ -77.28315, 38.88722 ], [ -77.28344, 38.88777 ], [ -77.2813, 38.88964 ], [ -77.28168, 38.89018 ], [ -77.28077, 38.89087 ], [ -77.28154, 38.89048 ], [ -77.28242, 38.89082 ], [ -77.28222, 38.89144 ], [ -77.28128, 38.89191 ], [ -77.28151, 38.8929 ], [ -77.28067, 38.89335 ], [ -77.28222, 38.89499 ], [ -77.28199, 38.89582 ], [ -77.28043, 38.89635 ], [ -77.27721, 38.8929 ], [ -77.27661, 38.89356 ], [ -77.27825, 38.89561 ], [ -77.27831, 38.89602 ], [ -77.27721, 38.8967 ], [ -77.27774, 38.89748 ], [ -77.27792, 38.89974 ], [ -77.28042, 38.89964 ], [ -77.27968, 38.89856 ], [ -77.27996, 38.89821 ], [ -77.28075, 38.89825 ], [ -77.28135, 38.89757 ], [ -77.28186, 38.89769 ], [ -77.28246, 38.89865 ], [ -77.28279, 38.89847 ], [ -77.28173, 38.89708 ], [ -77.2825, 38.89661 ], [ -77.28392, 38.89785 ], [ -77.28549, 38.89746 ], [ -77.28675, 38.89789 ], [ -77.2868, 38.89831 ], [ -77.28647, 38.89863 ], [ -77.28472, 38.89873 ], [ -77.28542, 38.9004 ], [ -77.28502, 38.90093 ], [ -77.28413, 38.90116 ], [ -77.28495, 38.90323 ], [ -77.283, 38.90524 ], [ -77.28374, 38.90529 ], [ -77.28378, 38.90606 ], [ -77.28221, 38.90745 ], [ -77.28308, 38.90829 ], [ -77.28286, 38.9072 ], [ -77.28433, 38.90714 ], [ -77.28459, 38.90796 ], [ -77.28424, 38.90888 ], [ -77.28516, 38.90946 ], [ -77.28512, 38.90988 ], [ -77.28471, 38.91014 ], [ -77.28355, 38.90983 ], [ -77.28132, 38.91067 ], [ -77.28081, 38.91055 ], [ -77.28014, 38.90937 ], [ -77.28023, 38.91066 ], [ -77.28114, 38.91063 ], [ -77.2814, 38.91146 ], [ -77.28076, 38.91247 ], [ -77.27934, 38.91329 ], [ -77.27905, 38.91387 ], [ -77.27956, 38.9144 ], [ -77.27939, 38.91479 ], [ -77.27891, 38.91497 ], [ -77.27743, 38.91435 ], [ -77.27303, 38.91018 ], [ -77.2732, 38.90961 ], [ -77.27211, 38.90855 ], [ -77.27185, 38.90735 ], [ -77.26964, 38.90647 ], [ -77.27023, 38.90751 ], [ -77.26945, 38.90789 ], [ -77.27062, 38.90928 ], [ -77.26995, 38.91044 ], [ -77.27188, 38.91118 ], [ -77.27208, 38.91301 ], [ -77.27288, 38.91308 ], [ -77.27307, 38.91347 ], [ -77.27186, 38.91454 ], [ -77.27056, 38.91472 ], [ -77.27145, 38.9153 ], [ -77.27137, 38.91606 ], [ -77.27086, 38.91619 ], [ -77.27015, 38.91578 ], [ -77.2686, 38.91636 ], [ -77.26799, 38.91577 ], [ -77.26824, 38.9154 ], [ -77.26877, 38.91526 ], [ -77.26806, 38.91472 ], [ -77.26776, 38.91579 ], [ -77.26629, 38.91627 ], [ -77.2651, 38.91426 ], [ -77.263, 38.91569 ], [ -77.2625, 38.91582 ], [ -77.26191, 38.91538 ], [ -77.26095, 38.91604 ], [ -77.26007, 38.9157 ], [ -77.26051, 38.91501 ], [ -77.25911, 38.91562 ], [ -77.25843, 38.91469 ], [ -77.25779, 38.91531 ], [ -77.2578, 38.9173 ], [ -77.25683, 38.91738 ], [ -77.25575, 38.91632 ], [ -77.25754, 38.91385 ], [ -77.25669, 38.91064 ], [ -77.2556, 38.91002 ], [ -77.2544, 38.91075 ], [ -77.25043, 38.91145 ], [ -77.24623, 38.91351 ], [ -77.24528, 38.91332 ], [ -77.24553, 38.91258 ], [ -77.24807, 38.91115 ], [ -77.24748, 38.91104 ], [ -77.24576, 38.91186 ], [ -77.24447, 38.91018 ], [ -77.24506, 38.90958 ], [ -77.24704, 38.90989 ], [ -77.24766, 38.90834 ], [ -77.24729, 38.90765 ], [ -77.24847, 38.90646 ], [ -77.24746, 38.90569 ], [ -77.24745, 38.90493 ], [ -77.24927, 38.90348 ], [ -77.24943, 38.9028 ], [ -77.25301, 38.90286 ], [ -77.25045, 38.90252 ], [ -77.25052, 38.90176 ], [ -77.25178, 38.90166 ], [ -77.25121, 38.90108 ], [ -77.24982, 38.90119 ], [ -77.24691, 38.90068 ], [ -77.24631, 38.89974 ], [ -77.2445, 38.89875 ], [ -77.24451, 38.89798 ], [ -77.24524, 38.89744 ], [ -77.2447, 38.8973 ], [ -77.2447, 38.89653 ], [ -77.24682, 38.89487 ], [ -77.24617, 38.89437 ], [ -77.24523, 38.89513 ], [ -77.24426, 38.89517 ], [ -77.24421, 38.89441 ], [ -77.24517, 38.89361 ], [ -77.2438, 38.89303 ], [ -77.24376, 38.89261 ], [ -77.24446, 38.89215 ], [ -77.24523, 38.89217 ], [ -77.2478, 38.89411 ], [ -77.24883, 38.89328 ], [ -77.24815, 38.89228 ], [ -77.24554, 38.89224 ], [ -77.24373, 38.89139 ], [ -77.24351, 38.89065 ], [ -77.24483, 38.88904 ], [ -77.2457, 38.88885 ], [ -77.24816, 38.89007 ], [ -77.25151, 38.88922 ], [ -77.25069, 38.88781 ], [ -77.25093, 38.88744 ], [ -77.25144, 38.88732 ], [ -77.25212, 38.88771 ], [ -77.25361, 38.88734 ], [ -77.25326, 38.88712 ], [ -77.25335, 38.88615 ], [ -77.2517, 38.88504 ], [ -77.25218, 38.88438 ], [ -77.2536, 38.88484 ], [ -77.2559, 38.88416 ], [ -77.25624, 38.88476 ], [ -77.25583, 38.88546 ], [ -77.25644, 38.88614 ], [ -77.25753, 38.8849 ], [ -77.25837, 38.88538 ], [ -77.25992, 38.88415 ], [ -77.26067, 38.88463 ], [ -77.26007, 38.88547 ], [ -77.26088, 38.88617 ], [ -77.26246, 38.8856 ], [ -77.26057, 38.8836 ], [ -77.26067, 38.8832 ], [ -77.26174, 38.8831 ], [ -77.26373, 38.88513 ], [ -77.26725, 38.88366 ], [ -77.26634, 38.8833 ], [ -77.26624, 38.88289 ], [ -77.26705, 38.88247 ], [ -77.26829, 38.88255 ], [ -77.26861, 38.88288 ], [ -77.26976, 38.8858 ], [ -77.27103, 38.88454 ], [ -77.27066, 38.88313 ], [ -77.27159, 38.8829 ], [ -77.27233, 38.88417 ], [ -77.27435, 38.8855 ], [ -77.27438, 38.88591 ], [ -77.27352, 38.88625 ], [ -77.27407, 38.88715 ], [ -77.27491, 38.88743 ], [ -77.27601, 38.88705 ], [ -77.27611, 38.88605 ], [ -77.2754, 38.8851 ], [ -77.27631, 38.88446 ], [ -77.27682, 38.88457 ], [ -77.27734, 38.88548 ], [ -77.27997, 38.88594 ], [ -77.28039, 38.88673 ], [ -77.27912, 38.88788 ] ], [ [ -77.26685, 38.91476 ], [ -77.26688, 38.91483 ], [ -77.26689, 38.9148 ], [ -77.26685, 38.91476 ] ], [ [ -77.26657, 38.91423 ], [ -77.26665, 38.91438 ], [ -77.26684, 38.91402 ], [ -77.26657, 38.91423 ] ], [ [ -77.26699, 38.9139 ], [ -77.26685, 38.91401 ], [ -77.26704, 38.91395 ], [ -77.26699, 38.9139 ] ], [ [ -77.2679, 38.91174 ], [ -77.26763, 38.91162 ], [ -77.26778, 38.91179 ], [ -77.2679, 38.91174 ] ], [ [ -77.26742, 38.91125 ], [ -77.26715, 38.91147 ], [ -77.26754, 38.91153 ], [ -77.26742, 38.91125 ] ], [ [ -77.26576, 38.90932 ], [ -77.26528, 38.90921 ], [ -77.26404, 38.91034 ], [ -77.26541, 38.91131 ], [ -77.26657, 38.91038 ], [ -77.26576, 38.90932 ] ], [ [ -77.26699, 38.90742 ], [ -77.26534, 38.90615 ], [ -77.26477, 38.90667 ], [ -77.26655, 38.90715 ], [ -77.26695, 38.90806 ], [ -77.26699, 38.90742 ] ], [ [ -77.26619, 38.90157 ], [ -77.26626, 38.90163 ], [ -77.26695, 38.90096 ], [ -77.26619, 38.90157 ] ], [ [ -77.26677, 38.89371 ], [ -77.2655, 38.89375 ], [ -77.26524, 38.89442 ], [ -77.26469, 38.89447 ], [ -77.26643, 38.89507 ], [ -77.26677, 38.89371 ] ], [ [ -77.26541, 38.89108 ], [ -77.26546, 38.89113 ], [ -77.26549, 38.8911 ], [ -77.26541, 38.89108 ] ], [ [ -77.26693, 38.88957 ], [ -77.26715, 38.88993 ], [ -77.26747, 38.8897 ], [ -77.26693, 38.88957 ] ], [ [ -77.26553, 38.88773 ], [ -77.2651, 38.88758 ], [ -77.26528, 38.88781 ], [ -77.26553, 38.88773 ] ], [ [ -77.26515, 38.8868 ], [ -77.26449, 38.88653 ], [ -77.26492, 38.88733 ], [ -77.26515, 38.8868 ] ], [ [ -77.2661, 38.88592 ], [ -77.26596, 38.88579 ], [ -77.26592, 38.88612 ], [ -77.2661, 38.88592 ] ], [ [ -77.27531, 38.90958 ], [ -77.27504, 38.9096 ], [ -77.27523, 38.90972 ], [ -77.27531, 38.90958 ] ], [ [ -77.27622, 38.90864 ], [ -77.2755, 38.90859 ], [ -77.27493, 38.90802 ], [ -77.27576, 38.90907 ], [ -77.27622, 38.90864 ] ], [ [ -77.27581, 38.90708 ], [ -77.27571, 38.90706 ], [ -77.27586, 38.9072 ], [ -77.27581, 38.90708 ] ], [ [ -77.27659, 38.90689 ], [ -77.27683, 38.90691 ], [ -77.27671, 38.90662 ], [ -77.27659, 38.90689 ] ], [ [ -77.27671, 38.90634 ], [ -77.27662, 38.9063 ], [ -77.2767, 38.90642 ], [ -77.27671, 38.90634 ] ], [ [ -77.27644, 38.90613 ], [ -77.27641, 38.9061 ], [ -77.2764, 38.90612 ], [ -77.27644, 38.90613 ] ], [ [ -77.27621, 38.90418 ], [ -77.2761, 38.90429 ], [ -77.27615, 38.90431 ], [ -77.27621, 38.90418 ] ], [ [ -77.27687, 38.90334 ], [ -77.27688, 38.90334 ], [ -77.27685, 38.90331 ], [ -77.27687, 38.90334 ] ], [ [ -77.27565, 38.90091 ], [ -77.27607, 38.90112 ], [ -77.27605, 38.90169 ], [ -77.27667, 38.90168 ], [ -77.27662, 38.90088 ], [ -77.27565, 38.90091 ] ], [ [ -77.27448, 38.90096 ], [ -77.27454, 38.9016 ], [ -77.27552, 38.90092 ], [ -77.27448, 38.90096 ] ], [ [ -77.27646, 38.8986 ], [ -77.27578, 38.89863 ], [ -77.27524, 38.89933 ], [ -77.27568, 38.89983 ], [ -77.2763, 38.8998 ], [ -77.27646, 38.8986 ] ], [ [ -77.27629, 38.89752 ], [ -77.27505, 38.89656 ], [ -77.27424, 38.89762 ], [ -77.27629, 38.89752 ] ], [ [ -77.27596, 38.89574 ], [ -77.27622, 38.89595 ], [ -77.27623, 38.89594 ], [ -77.27596, 38.89574 ] ], [ [ -77.27313, 38.89604 ], [ -77.27351, 38.89636 ], [ -77.27414, 38.89571 ], [ -77.27397, 38.89551 ], [ -77.27313, 38.89604 ] ], [ [ -77.2728, 38.89468 ], [ -77.27302, 38.89452 ], [ -77.27268, 38.89442 ], [ -77.2728, 38.89468 ] ], [ [ -77.27239, 38.89133 ], [ -77.27233, 38.89135 ], [ -77.27297, 38.89214 ], [ -77.27239, 38.89133 ] ], [ [ -77.27398, 38.88834 ], [ -77.27294, 38.88782 ], [ -77.27197, 38.88541 ], [ -77.27113, 38.88624 ], [ -77.2718, 38.8866 ], [ -77.27281, 38.88909 ], [ -77.27398, 38.88834 ] ], [ [ -77.27881, 38.88992 ], [ -77.27827, 38.88981 ], [ -77.27724, 38.89043 ], [ -77.2769, 38.89116 ], [ -77.27627, 38.8912 ], [ -77.27552, 38.89226 ], [ -77.27487, 38.8924 ], [ -77.27485, 38.89306 ], [ -77.27881, 38.88992 ] ], [ [ -77.27987, 38.89247 ], [ -77.28003, 38.89238 ], [ -77.2796, 38.89152 ], [ -77.27894, 38.89151 ], [ -77.27987, 38.89247 ] ], [ [ -77.27875, 38.90452 ], [ -77.27858, 38.90489 ], [ -77.27885, 38.90467 ], [ -77.27875, 38.90452 ] ], [ [ -77.28003, 38.90408 ], [ -77.27846, 38.90229 ], [ -77.27872, 38.90289 ], [ -77.28003, 38.90408 ] ], [ [ -77.278, 38.90082 ], [ -77.27802, 38.90119 ], [ -77.27829, 38.90103 ], [ -77.2787, 38.90079 ], [ -77.278, 38.90082 ] ], [ [ -77.28051, 38.90264 ], [ -77.28112, 38.90329 ], [ -77.28131, 38.90315 ], [ -77.28051, 38.90264 ] ], [ [ -77.28357, 38.89936 ], [ -77.28296, 38.89971 ], [ -77.28321, 38.90014 ], [ -77.28381, 38.90007 ], [ -77.28357, 38.89936 ] ], [ [ -77.28117, 38.90071 ], [ -77.27956, 38.90164 ], [ -77.28071, 38.90148 ], [ -77.2818, 38.90188 ], [ -77.28117, 38.90071 ] ], [ [ -77.28191, 38.90929 ], [ -77.28241, 38.90924 ], [ -77.28211, 38.90909 ], [ -77.28187, 38.90892 ], [ -77.28191, 38.90929 ] ], [ [ -77.28196, 38.90602 ], [ -77.28228, 38.90574 ], [ -77.28103, 38.90658 ], [ -77.28196, 38.90602 ] ], [ [ -77.28243, 38.90379 ], [ -77.28261, 38.90389 ], [ -77.28264, 38.90379 ], [ -77.28267, 38.90355 ], [ -77.28243, 38.90379 ] ], [ [ -77.28144, 38.90488 ], [ -77.28173, 38.90468 ], [ -77.28143, 38.90454 ], [ -77.28144, 38.90488 ] ], [ [ -77.27971, 38.91177 ], [ -77.28005, 38.91095 ], [ -77.27885, 38.91165 ], [ -77.27912, 38.91198 ], [ -77.27971, 38.91177 ] ], [ [ -77.27567, 38.89441 ], [ -77.27551, 38.89423 ], [ -77.27494, 38.89468 ], [ -77.2751, 38.89488 ], [ -77.27567, 38.89441 ] ], [ [ -77.27709, 38.90714 ], [ -77.27714, 38.90706 ], [ -77.27693, 38.90697 ], [ -77.27709, 38.90714 ] ], [ [ -77.27742, 38.90347 ], [ -77.27761, 38.9038 ], [ -77.27772, 38.90363 ], [ -77.27742, 38.90347 ] ], [ [ -77.27734, 38.90896 ], [ -77.27739, 38.90882 ], [ -77.27727, 38.90896 ], [ -77.27734, 38.90896 ] ], [ [ -77.27789, 38.90949 ], [ -77.27794, 38.90938 ], [ -77.2779, 38.90937 ], [ -77.27789, 38.90949 ] ], [ [ -77.27348, 38.89065 ], [ -77.27355, 38.89074 ], [ -77.27356, 38.89067 ], [ -77.27348, 38.89065 ] ], [ [ -77.27412, 38.89188 ], [ -77.27409, 38.89192 ], [ -77.27415, 38.89194 ], [ -77.27412, 38.89188 ] ], [ [ -77.27248, 38.90181 ], [ -77.27179, 38.90109 ], [ -77.27166, 38.90189 ], [ -77.27317, 38.90182 ], [ -77.27314, 38.90159 ], [ -77.27248, 38.90181 ] ], [ [ -77.26882, 38.90064 ], [ -77.26924, 38.90129 ], [ -77.26976, 38.90085 ], [ -77.26956, 38.9002 ], [ -77.26882, 38.90064 ] ], [ [ -77.26913, 38.897 ], [ -77.26825, 38.89671 ], [ -77.26934, 38.89752 ], [ -77.26982, 38.89691 ], [ -77.26913, 38.897 ] ], [ [ -77.26923, 38.89249 ], [ -77.26935, 38.89228 ], [ -77.26851, 38.89273 ], [ -77.26821, 38.89354 ], [ -77.26923, 38.89249 ] ], [ [ -77.2695, 38.8889 ], [ -77.26875, 38.88717 ], [ -77.26947, 38.89027 ], [ -77.26996, 38.88998 ], [ -77.2695, 38.8889 ] ], [ [ -77.27297, 38.89906 ], [ -77.27295, 38.89877 ], [ -77.27231, 38.9 ], [ -77.27302, 38.89983 ], [ -77.27297, 38.89906 ] ], [ [ -77.27216, 38.89681 ], [ -77.27035, 38.89825 ], [ -77.27169, 38.89832 ], [ -77.27262, 38.8973 ], [ -77.27216, 38.89681 ] ], [ [ -77.27473, 38.89926 ], [ -77.27433, 38.89869 ], [ -77.27435, 38.899 ], [ -77.27438, 38.89941 ], [ -77.27473, 38.89926 ] ], [ [ -77.27456, 38.9032 ], [ -77.27524, 38.90281 ], [ -77.27457, 38.90284 ], [ -77.27456, 38.9032 ] ], [ [ -77.2734, 38.90814 ], [ -77.27332, 38.90766 ], [ -77.27331, 38.90792 ], [ -77.2734, 38.90814 ] ], [ [ -77.27038, 38.89446 ], [ -77.27027, 38.89459 ], [ -77.2702, 38.89505 ], [ -77.27038, 38.89446 ] ], [ [ -77.27131, 38.8923 ], [ -77.27073, 38.89156 ], [ -77.26996, 38.89196 ], [ -77.27096, 38.8925 ], [ -77.27131, 38.8923 ] ], [ [ -77.27087, 38.9044 ], [ -77.27018, 38.90465 ], [ -77.27166, 38.90577 ], [ -77.27087, 38.9044 ] ], [ [ -77.26922, 38.90352 ], [ -77.26897, 38.90372 ], [ -77.26956, 38.90417 ], [ -77.26922, 38.90352 ] ], [ [ -77.27212, 38.90295 ], [ -77.27176, 38.90296 ], [ -77.27177, 38.90304 ], [ -77.27212, 38.90295 ] ], [ [ -77.27102, 38.9041 ], [ -77.27104, 38.90408 ], [ -77.27095, 38.90408 ], [ -77.27102, 38.9041 ] ], [ [ -77.26962, 38.91364 ], [ -77.26941, 38.91387 ], [ -77.27015, 38.91368 ], [ -77.2698, 38.9134 ], [ -77.26962, 38.91364 ] ], [ [ -77.26747, 38.88802 ], [ -77.26729, 38.88814 ], [ -77.26749, 38.88812 ], [ -77.26747, 38.88802 ] ], [ [ -77.26825, 38.88601 ], [ -77.26797, 38.88602 ], [ -77.2681, 38.88622 ], [ -77.26825, 38.88601 ] ], [ [ -77.2675, 38.8985 ], [ -77.2677, 38.89882 ], [ -77.26837, 38.89829 ], [ -77.26721, 38.89742 ], [ -77.2675, 38.8985 ] ], [ [ -77.26913, 38.9092 ], [ -77.26908, 38.90914 ], [ -77.26865, 38.90935 ], [ -77.2689, 38.90955 ], [ -77.26913, 38.9092 ] ], [ [ -77.26795, 38.91313 ], [ -77.26819, 38.91331 ], [ -77.26867, 38.91272 ], [ -77.26795, 38.91313 ] ], [ [ -77.26896, 38.91166 ], [ -77.26904, 38.9113 ], [ -77.26873, 38.91142 ], [ -77.26896, 38.91166 ] ], [ [ -77.26879, 38.91133 ], [ -77.26878, 38.91135 ], [ -77.26879, 38.91135 ], [ -77.26879, 38.91133 ] ], [ [ -77.25873, 38.9129 ], [ -77.25899, 38.91268 ], [ -77.25855, 38.91269 ], [ -77.25873, 38.9129 ] ], [ [ -77.25878, 38.90989 ], [ -77.25862, 38.90985 ], [ -77.25869, 38.90997 ], [ -77.25878, 38.90989 ] ], [ [ -77.25656, 38.90924 ], [ -77.25696, 38.90954 ], [ -77.25847, 38.90834 ], [ -77.25804, 38.90807 ], [ -77.25656, 38.90924 ] ], [ [ -77.25794, 38.90517 ], [ -77.25886, 38.90588 ], [ -77.25998, 38.90498 ], [ -77.25935, 38.9045 ], [ -77.25794, 38.90517 ] ], [ [ -77.25817, 38.90165 ], [ -77.25759, 38.90163 ], [ -77.25906, 38.90274 ], [ -77.25817, 38.90165 ] ], [ [ -77.25623, 38.89709 ], [ -77.25587, 38.89738 ], [ -77.25839, 38.89931 ], [ -77.25861, 38.89892 ], [ -77.25623, 38.89709 ] ], [ [ -77.25488, 38.89814 ], [ -77.25398, 38.89886 ], [ -77.25405, 38.89891 ], [ -77.25488, 38.89814 ] ], [ [ -77.2547, 38.89649 ], [ -77.25463, 38.89637 ], [ -77.25459, 38.89641 ], [ -77.2547, 38.89649 ] ], [ [ -77.2549, 38.89354 ], [ -77.25508, 38.8934 ], [ -77.25465, 38.89329 ], [ -77.2549, 38.89354 ] ], [ [ -77.25479, 38.89062 ], [ -77.25484, 38.88977 ], [ -77.25662, 38.88908 ], [ -77.25323, 38.88993 ], [ -77.25328, 38.89062 ], [ -77.25286, 38.89087 ], [ -77.25233, 38.89083 ], [ -77.25192, 38.89026 ], [ -77.24884, 38.89103 ], [ -77.25024, 38.89303 ], [ -77.25074, 38.89292 ], [ -77.25136, 38.89346 ], [ -77.25186, 38.89294 ], [ -77.25168, 38.89218 ], [ -77.25268, 38.89198 ], [ -77.25328, 38.89237 ], [ -77.25392, 38.89077 ], [ -77.25479, 38.89062 ] ], [ [ -77.25583, 38.88814 ], [ -77.2551, 38.88787 ], [ -77.25275, 38.88869 ], [ -77.25583, 38.88814 ] ], [ [ -77.26465, 38.91313 ], [ -77.26454, 38.91275 ], [ -77.26311, 38.91418 ], [ -77.26465, 38.91313 ] ], [ [ -77.263, 38.91107 ], [ -77.26274, 38.9109 ], [ -77.26025, 38.91319 ], [ -77.26034, 38.91372 ], [ -77.263, 38.91107 ] ], [ [ -77.26534, 38.9083 ], [ -77.26462, 38.90776 ], [ -77.26358, 38.90762 ], [ -77.26184, 38.90901 ], [ -77.26295, 38.90967 ], [ -77.26467, 38.90839 ], [ -77.26534, 38.9083 ] ], [ [ -77.26146, 38.90751 ], [ -77.26053, 38.90823 ], [ -77.26079, 38.90831 ], [ -77.26235, 38.90678 ], [ -77.26146, 38.90751 ] ], [ [ -77.26194, 38.90496 ], [ -77.26233, 38.90525 ], [ -77.26321, 38.90453 ], [ -77.26284, 38.90425 ], [ -77.26194, 38.90496 ] ], [ [ -77.26281, 38.90272 ], [ -77.26288, 38.90266 ], [ -77.26284, 38.90265 ], [ -77.26258, 38.90254 ], [ -77.26281, 38.90272 ] ], [ [ -77.26192, 38.89981 ], [ -77.26092, 38.90061 ], [ -77.26388, 38.90186 ], [ -77.26423, 38.90158 ], [ -77.26192, 38.89981 ] ], [ [ -77.26333, 38.89809 ], [ -77.26251, 38.89874 ], [ -77.26295, 38.89909 ], [ -77.26378, 38.89896 ], [ -77.26333, 38.89809 ] ], [ [ -77.26335, 38.89344 ], [ -77.26109, 38.89118 ], [ -77.26028, 38.89157 ], [ -77.26149, 38.8919 ], [ -77.2613, 38.8926 ], [ -77.26335, 38.89344 ] ], [ [ -77.25833, 38.88999 ], [ -77.25813, 38.88979 ], [ -77.25858, 38.89032 ], [ -77.25833, 38.88999 ] ], [ [ -77.26218, 38.89051 ], [ -77.2627, 38.89103 ], [ -77.26328, 38.89067 ], [ -77.26277, 38.89016 ], [ -77.26218, 38.89051 ] ], [ [ -77.26247, 38.88897 ], [ -77.26261, 38.88888 ], [ -77.26255, 38.88888 ], [ -77.26247, 38.88897 ] ], [ [ -77.26183, 38.88833 ], [ -77.26198, 38.88802 ], [ -77.26156, 38.88806 ], [ -77.26183, 38.88833 ] ], [ [ -77.26092, 38.88742 ], [ -77.26111, 38.88761 ], [ -77.26119, 38.88727 ], [ -77.26092, 38.88742 ] ], [ [ -77.26568, 38.89002 ], [ -77.26563, 38.88994 ], [ -77.26551, 38.88999 ], [ -77.26568, 38.89002 ] ], [ [ -77.26432, 38.88611 ], [ -77.26445, 38.88644 ], [ -77.26446, 38.88608 ], [ -77.26432, 38.88611 ] ], [ [ -77.26389, 38.8881 ], [ -77.26375, 38.88831 ], [ -77.26385, 38.88826 ], [ -77.26389, 38.8881 ] ], [ [ -77.265, 38.89243 ], [ -77.26411, 38.89154 ], [ -77.26355, 38.89188 ], [ -77.26443, 38.89277 ], [ -77.265, 38.89243 ] ], [ [ -77.26576, 38.89621 ], [ -77.26571, 38.89619 ], [ -77.26552, 38.89635 ], [ -77.26576, 38.89621 ] ], [ [ -77.26333, 38.89504 ], [ -77.26339, 38.89499 ], [ -77.26328, 38.89494 ], [ -77.26333, 38.89504 ] ], [ [ -77.26505, 38.9005 ], [ -77.26463, 38.90037 ], [ -77.2652, 38.90081 ], [ -77.26539, 38.90041 ], [ -77.26505, 38.9005 ] ], [ [ -77.26429, 38.90011 ], [ -77.26453, 38.90029 ], [ -77.26438, 38.90002 ], [ -77.26429, 38.90011 ] ], [ [ -77.26522, 38.90234 ], [ -77.2651, 38.90243 ], [ -77.26532, 38.90255 ], [ -77.26522, 38.90234 ] ], [ [ -77.2642, 38.90528 ], [ -77.26332, 38.90601 ], [ -77.2635, 38.90614 ], [ -77.2642, 38.90528 ] ], [ [ -77.26136, 38.88964 ], [ -77.26137, 38.88963 ], [ -77.2613, 38.88956 ], [ -77.26136, 38.88964 ] ], [ [ -77.25937, 38.88902 ], [ -77.25857, 38.8885 ], [ -77.26007, 38.89043 ], [ -77.25937, 38.88902 ] ], [ [ -77.25976, 38.91065 ], [ -77.26023, 38.91155 ], [ -77.26164, 38.91025 ], [ -77.26086, 38.90979 ], [ -77.25976, 38.91065 ] ], [ [ -77.25728, 38.89625 ], [ -77.2572, 38.89632 ], [ -77.25951, 38.8981 ], [ -77.25728, 38.89625 ] ], [ [ -77.25825, 38.89548 ], [ -77.25842, 38.8956 ], [ -77.25944, 38.8948 ], [ -77.25825, 38.89548 ] ], [ [ -77.25866, 38.89348 ], [ -77.2586, 38.89345 ], [ -77.25873, 38.89358 ], [ -77.25866, 38.89348 ] ], [ [ -77.25754, 38.89299 ], [ -77.25795, 38.89311 ], [ -77.25785, 38.89304 ], [ -77.25754, 38.89299 ] ], [ [ -77.26056, 38.89724 ], [ -77.26148, 38.89651 ], [ -77.26139, 38.89645 ], [ -77.26056, 38.89724 ] ], [ [ -77.2594, 38.89636 ], [ -77.25948, 38.89642 ], [ -77.2604, 38.89569 ], [ -77.2594, 38.89636 ] ], [ [ -77.26079, 38.89917 ], [ -77.26059, 38.89878 ], [ -77.26, 38.8993 ], [ -77.26032, 38.89955 ], [ -77.26079, 38.89917 ] ], [ [ -77.26136, 38.90603 ], [ -77.26098, 38.90573 ], [ -77.25902, 38.9073 ], [ -77.2595, 38.90751 ], [ -77.26136, 38.90603 ] ], [ [ -77.26003, 38.90351 ], [ -77.26095, 38.90421 ], [ -77.26185, 38.90349 ], [ -77.26092, 38.9028 ], [ -77.26003, 38.90351 ] ], [ [ -77.25683, 38.89506 ], [ -77.25704, 38.8949 ], [ -77.25685, 38.89487 ], [ -77.25683, 38.89506 ] ], [ [ -77.25678, 38.89201 ], [ -77.25678, 38.89204 ], [ -77.25682, 38.89202 ], [ -77.25678, 38.89201 ] ], [ [ -77.25543, 38.89574 ], [ -77.2558, 38.89589 ], [ -77.2561, 38.89565 ], [ -77.25543, 38.89574 ] ], [ [ -77.2541, 38.90929 ], [ -77.25428, 38.90946 ], [ -77.2546, 38.90926 ], [ -77.2541, 38.90929 ] ], [ [ -77.25434, 38.90718 ], [ -77.2541, 38.90738 ], [ -77.25557, 38.90849 ], [ -77.25572, 38.90823 ], [ -77.25434, 38.90718 ] ], [ [ -77.25312, 38.90661 ], [ -77.25336, 38.90642 ], [ -77.25189, 38.9053 ], [ -77.25164, 38.90549 ], [ -77.25312, 38.90661 ] ], [ [ -77.25216, 38.9074 ], [ -77.2519, 38.9072 ], [ -77.25165, 38.9074 ], [ -77.25216, 38.9074 ] ], [ [ -77.25067, 38.90626 ], [ -77.25043, 38.90646 ], [ -77.25066, 38.90664 ], [ -77.25067, 38.90626 ] ], [ [ -77.25099, 38.89816 ], [ -77.25, 38.89897 ], [ -77.25125, 38.89926 ], [ -77.25099, 38.89816 ] ], [ [ -77.25195, 38.89589 ], [ -77.25099, 38.89515 ], [ -77.25035, 38.89606 ], [ -77.25133, 38.89637 ], [ -77.25195, 38.89589 ] ], [ [ -77.24878, 38.89486 ], [ -77.24936, 38.89531 ], [ -77.25018, 38.89453 ], [ -77.24968, 38.89415 ], [ -77.24878, 38.89486 ] ], [ [ -77.25731, 38.90651 ], [ -77.25655, 38.90736 ], [ -77.25677, 38.90753 ], [ -77.25789, 38.90665 ], [ -77.25503, 38.90446 ], [ -77.25409, 38.90547 ], [ -77.25433, 38.90565 ], [ -77.25575, 38.90506 ], [ -77.25613, 38.90577 ], [ -77.25531, 38.90641 ], [ -77.25556, 38.9066 ], [ -77.2566, 38.90598 ], [ -77.25731, 38.90651 ] ], [ [ -77.25286, 38.90453 ], [ -77.2531, 38.90471 ], [ -77.25439, 38.90397 ], [ -77.25397, 38.90365 ], [ -77.25286, 38.90453 ] ], [ [ -77.25491, 38.90245 ], [ -77.25448, 38.90252 ], [ -77.25465, 38.90266 ], [ -77.25491, 38.90245 ] ], [ [ -77.25584, 38.90225 ], [ -77.25612, 38.90259 ], [ -77.25649, 38.9023 ], [ -77.25584, 38.90225 ] ], [ [ -77.25345, 38.90093 ], [ -77.25258, 38.90165 ], [ -77.25529, 38.90126 ], [ -77.25466, 38.90089 ], [ -77.25345, 38.90093 ] ], [ [ -77.25807, 38.90352 ], [ -77.25809, 38.90351 ], [ -77.2579, 38.90337 ], [ -77.25807, 38.90352 ] ], [ [ -77.25772, 38.90048 ], [ -77.25738, 38.90055 ], [ -77.25804, 38.90056 ], [ -77.25772, 38.90048 ] ], [ [ -77.25602, 38.9006 ], [ -77.2566, 38.90092 ], [ -77.25715, 38.90056 ], [ -77.25602, 38.9006 ] ], [ [ -77.25308, 38.89969 ], [ -77.25308, 38.89968 ], [ -77.25302, 38.89963 ], [ -77.25308, 38.89969 ] ], [ [ -77.25264, 38.89491 ], [ -77.25293, 38.89512 ], [ -77.25331, 38.89481 ], [ -77.25283, 38.89453 ], [ -77.25264, 38.89491 ] ], [ [ -77.25329, 38.89287 ], [ -77.25331, 38.89288 ], [ -77.25331, 38.89276 ], [ -77.25329, 38.89287 ] ], [ [ -77.25269, 38.89785 ], [ -77.25301, 38.89809 ], [ -77.25389, 38.89738 ], [ -77.25367, 38.89721 ], [ -77.25269, 38.89785 ] ], [ [ -77.25149, 38.90044 ], [ -77.25144, 38.90043 ], [ -77.25145, 38.90045 ], [ -77.25149, 38.90044 ] ], [ [ -77.25051, 38.90973 ], [ -77.25059, 38.91005 ], [ -77.25086, 38.90968 ], [ -77.25051, 38.90973 ] ], [ [ -77.2529, 38.90835 ], [ -77.25312, 38.90852 ], [ -77.25337, 38.90833 ], [ -77.2529, 38.90835 ] ], [ [ -77.2484, 38.91009 ], [ -77.24922, 38.91021 ], [ -77.24854, 38.90955 ], [ -77.24872, 38.90904 ], [ -77.24856, 38.90937 ], [ -77.2484, 38.91009 ] ], [ [ -77.24978, 38.89715 ], [ -77.24943, 38.89688 ], [ -77.24748, 38.89843 ], [ -77.24759, 38.89875 ], [ -77.24821, 38.89865 ], [ -77.24842, 38.89802 ], [ -77.2492, 38.89806 ], [ -77.24978, 38.89715 ] ], [ [ -77.24682, 38.89923 ], [ -77.24685, 38.89921 ], [ -77.24681, 38.89919 ], [ -77.24682, 38.89923 ] ], [ [ -77.24678, 38.89121 ], [ -77.24738, 38.8912 ], [ -77.24711, 38.8908 ], [ -77.24678, 38.89121 ] ], [ [ -77.24536, 38.89093 ], [ -77.24599, 38.89013 ], [ -77.24567, 38.89002 ], [ -77.24536, 38.89093 ] ], [ [ -77.24658, 38.8976 ], [ -77.24775, 38.89667 ], [ -77.24819, 38.89592 ], [ -77.2478, 38.89562 ], [ -77.24657, 38.89658 ], [ -77.24658, 38.8976 ] ] ] } },
{ "type": "Feature", "properties": { "variant": "T2s", "miles": 0.5 }, "geometry": { "type": "Polygon", "coordinates": [ [ [ -77.26769, 38.89487 ], [ -77.26759, 38.89596 ], [ -77.26818, 38.89608 ], [ -77.26825, 38.89671 ], [ -77.27005, 38.89826 ], [ -77.26918, 38.89919 ], [ -77.26997, 38.89942 ], [ -77.27002, 38.89983 ], [ -77.26882, 38.90064 ], [ -77.27006, 38.90279 ], [ -77.26644, 38.90552 ], [ -77.26572, 38.90519 ], [ -77.265, 38.90576 ], [ -77.26284, 38.90425 ], [ -77.26146, 38.90535 ], [ -77.26048, 38.90535 ], [ -77.26047, 38.90459 ], [ -77.26185, 38.90349 ], [ -77.25891, 38.90157 ], [ -77.25705, 38.89958 ], [ -77.25773, 38.89903 ], [ -77.25839, 38.89931 ], [ -77.2596, 38.89802 ], [ -77.25794, 38.89675 ], [ -77.25793, 38.89599 ], [ -77.25891, 38.89598 ], [ -77.26056, 38.89724 ], [ -77.26333, 38.89526 ], [ -77.26403, 38.8958 ], [ -77.26343, 38.8965 ], [ -77.26435, 38.8972 ], [ -77.26613, 38.89613 ], [ -77.26673, 38.89473 ], [ -77.26769, 38.89487 ] ], [ [ -77.26695, 38.90096 ], [ -77.26619, 38.90157 ], [ -77.26626, 38.90163 ], [ -77.26695, 38.90096 ] ], [ [ -77.26563, 38.90047 ], [ -77.26505, 38.9005 ], [ -77.26463, 38.90037 ], [ -77.2652, 38.90081 ], [ -77.26563, 38.90047 ] ], [ [ -77.26438, 38.90002 ], [ -77.26429, 38.90011 ], [ -77.26453, 38.90029 ], [ -77.26438, 38.90002 ] ], [ [ -77.26423, 38.90158 ], [ -77.26192, 38.89981 ], [ -77.26092, 38.90061 ], [ -77.26388, 38.90186 ], [ -77.26423, 38.90158 ] ], [ [ -77.26251, 38.89874 ], [ -77.26361, 38.8991 ], [ -77.26398, 38.89881 ], [ -77.26347, 38.89868 ], [ -77.26333, 38.89809 ], [ -77.26251, 38.89874 ] ], [ [ -77.26721, 38.89742 ], [ -77.2675, 38.8985 ], [ -77.2677, 38.89882 ], [ -77.26837, 38.89829 ], [ -77.26721, 38.89742 ] ], [ [ -77.26284, 38.90265 ], [ -77.26258, 38.90254 ], [ -77.26281, 38.90272 ], [ -77.26284, 38.90265 ] ], [ [ -77.26532, 38.90255 ], [ -77.26522, 38.90234 ], [ -77.2651, 38.90243 ], [ -77.26532, 38.90255 ] ], [ [ -77.26083, 38.89898 ], [ -77.26, 38.8993 ], [ -77.26032, 38.89955 ], [ -77.26083, 38.89898 ] ] ] } },
{ "type": "Feature", "properties": { "variant": "T2s", "miles": 1.0 }, "geometry": { "type": "Polygon", "coordinates": [ [ [ -77.27672, 38.89346 ], [ -77.27494, 38.89468 ], [ -77.2751, 38.89488 ], [ -77.27596, 38.89442 ], [ -77.27666, 38.89496 ], [ -77.27424, 38.89762 ], [ -77.27757, 38.89763 ], [ -77.27802, 38.90119 ], [ -77.2787, 38.90099 ], [ -77.27929, 38.9016 ], [ -77.27681, 38.90324 ], [ -77.27764, 38.90385 ], [ -77.27736, 38.90483 ], [ -77.27823, 38.90519 ], [ -77.27852, 38.90592 ], [ -77.27758, 38.90615 ], [ -77.27667, 38.90577 ], [ -77.27658, 38.90692 ], [ -77.27571, 38.90706 ], [ -77.27663, 38.90801 ], [ -77.27647, 38.90854 ], [ -77.276, 38.90872 ], [ -77.27481, 38.90818 ], [ -77.27564, 38.90883 ], [ -77.27571, 38.90925 ], [ -77.27504, 38.9096 ], [ -77.27623, 38.91035 ], [ -77.2762, 38.91076 ], [ -77.27528, 38.91102 ], [ -77.27323, 38.91024 ], [ -77.2732, 38.90961 ], [ -77.27207, 38.90849 ], [ -77.27185, 38.90735 ], [ -77.26964, 38.90647 ], [ -77.27023, 38.90751 ], [ -77.26945, 38.90789 ], [ -77.27033, 38.90882 ], [ -77.26972, 38.90943 ], [ -77.26908, 38.90914 ], [ -77.26865, 38.90935 ], [ -77.26939, 38.91004 ], [ -77.26915, 38.91078 ], [ -77.26705, 38.91075 ], [ -77.26725, 38.9098 ], [ -77.2663, 38.90908 ], [ -77.2652, 38.90919 ], [ -77.26534, 38.9083 ], [ -77.26462, 38.90776 ], [ -77.26358, 38.90762 ], [ -77.26184, 38.90901 ], [ -77.26373, 38.91032 ], [ -77.26315, 38.91093 ], [ -77.26086, 38.90979 ], [ -77.25881, 38.9112 ], [ -77.2581, 38.91067 ], [ -77.25853, 38.90983 ], [ -77.25728, 38.91072 ], [ -77.2556, 38.91002 ], [ -77.25448, 38.91073 ], [ -77.25354, 38.91049 ], [ -77.2535, 38.91008 ], [ -77.2546, 38.90926 ], [ -77.25387, 38.90873 ], [ -77.25384, 38.90796 ], [ -77.25433, 38.90779 ], [ -77.25557, 38.90849 ], [ -77.2558, 38.90831 ], [ -77.25385, 38.9068 ], [ -77.25385, 38.90603 ], [ -77.25483, 38.90603 ], [ -77.25556, 38.9066 ], [ -77.2566, 38.90598 ], [ -77.2571, 38.90613 ], [ -77.25731, 38.90651 ], [ -77.25655, 38.90736 ], [ -77.25677, 38.90753 ], [ -77.25789, 38.90665 ], [ -77.25327, 38.90289 ], [ -77.25395, 38.90234 ], [ -77.25536, 38.9032 ], [ -77.25649, 38.9023 ], [ -77.25553, 38.90122 ], [ -77.25345, 38.90093 ], [ -77.25216, 38.90178 ], [ -77.25111, 38.9009 ], [ -77.25149, 38.90044 ], [ -77.25003, 38.89994 ], [ -77.25031, 38.89921 ], [ -77.25125, 38.89926 ], [ -77.25103, 38.8981 ], [ -77.25034, 38.89736 ], [ -77.25195, 38.89589 ], [ -77.25124, 38.89534 ], [ -77.25122, 38.89458 ], [ -77.2522, 38.89457 ], [ -77.25293, 38.89512 ], [ -77.25393, 38.89432 ], [ -77.2531, 38.89374 ], [ -77.25316, 38.89333 ], [ -77.2541, 38.89311 ], [ -77.2549, 38.89354 ], [ -77.25566, 38.89294 ], [ -77.25539, 38.89204 ], [ -77.25401, 38.89153 ], [ -77.25392, 38.89077 ], [ -77.25553, 38.89044 ], [ -77.25678, 38.89204 ], [ -77.25822, 38.89108 ], [ -77.26129, 38.88988 ], [ -77.26443, 38.89277 ], [ -77.26562, 38.89204 ], [ -77.26519, 38.89139 ], [ -77.26627, 38.8909 ], [ -77.26639, 38.89001 ], [ -77.26815, 38.88976 ], [ -77.26808, 38.88893 ], [ -77.26901, 38.8887 ], [ -77.26947, 38.89027 ], [ -77.27049, 38.89002 ], [ -77.27075, 38.89076 ], [ -77.2693, 38.89144 ], [ -77.26954, 38.89199 ], [ -77.26851, 38.89273 ], [ -77.26821, 38.89354 ], [ -77.26916, 38.89251 ], [ -77.27013, 38.89254 ], [ -77.27016, 38.89321 ], [ -77.27042, 38.89336 ], [ -77.27058, 38.89276 ], [ -77.27176, 38.8922 ], [ -77.27232, 38.89265 ], [ -77.27358, 38.89241 ], [ -77.27416, 38.89361 ], [ -77.27601, 38.89237 ], [ -77.27671, 38.8927 ], [ -77.27672, 38.89346 ] ], [ [ -77.26694, 38.90803 ], [ -77.26699, 38.90742 ], [ -77.26534, 38.90615 ], [ -77.26477, 38.90667 ], [ -77.26655, 38.90715 ], [ -77.26694, 38.90803 ] ], [ [ -77.26397, 38.89881 ], [ -77.26347, 38.89868 ], [ -77.26333, 38.89809 ], [ -77.26251, 38.89874 ], [ -77.26295, 38.89909 ], [ -77.26397, 38.89881 ] ], [ [ -77.26333, 38.89504 ], [ -77.26328, 38.89494 ], [ -77.26317, 38.89491 ], [ -77.26333, 38.89504 ] ], [ [ -77.26335, 38.89344 ], [ -77.26109, 38.89118 ], [ -77.26028, 38.89157 ], [ -77.26149, 38.8919 ], [ -77.2613, 38.8926 ], [ -77.26335, 38.89344 ] ], [ [ -77.2734, 38.90814 ], [ -77.27352, 38.90777 ], [ -77.27332, 38.90766 ], [ -77.2734, 38.90814 ] ], [ [ -77.27315, 38.90163 ], [ -77.27202, 38.90161 ], [ -77.27188, 38.90108 ], [ -77.27163, 38.9014 ], [ -77.27166, 38.90189 ], [ -77.27315, 38.90163 ] ], [ [ -77.27035, 38.89825 ], [ -77.27169, 38.89832 ], [ -77.27267, 38.89725 ], [ -77.27216, 38.89681 ], [ -77.27035, 38.89825 ] ], [ [ -77.26982, 38.89691 ], [ -77.26913, 38.897 ], [ -77.26825, 38.89671 ], [ -77.26934, 38.89752 ], [ -77.26982, 38.89691 ] ], [ [ -77.27005, 38.89497 ], [ -77.27019, 38.89474 ], [ -77.27038, 38.89446 ], [ -77.27022, 38.89448 ], [ -77.27005, 38.89497 ] ], [ [ -77.27091, 38.8939 ], [ -77.27093, 38.89392 ], [ -77.27094, 38.89392 ], [ -77.27091, 38.8939 ] ], [ [ -77.27303, 38.89997 ], [ -77.27295, 38.89877 ], [ -77.27231, 38.9 ], [ -77.27303, 38.89997 ] ], [ [ -77.27367, 38.8962 ], [ -77.27414, 38.89571 ], [ -77.27394, 38.89547 ], [ -77.27313, 38.89604 ], [ -77.27367, 38.8962 ] ], [ [ -77.27592, 38.89862 ], [ -77.27524, 38.89933 ], [ -77.27568, 38.89983 ], [ -77.27654, 38.89979 ], [ -77.27646, 38.8986 ], [ -77.27592, 38.89862 ] ], [ [ -77.27448, 38.90096 ], [ -77.27454, 38.9016 ], [ -77.27552, 38.90092 ], [ -77.27507, 38.90094 ], [ -77.27448, 38.90096 ] ], [ [ -77.2744, 38.89869 ], [ -77.27438, 38.89941 ], [ -77.27473, 38.89926 ], [ -77.2744, 38.89869 ] ], [ [ -77.27662, 38.90088 ], [ -77.27565, 38.90091 ], [ -77.27607, 38.90112 ], [ -77.27605, 38.90169 ], [ -77.27667, 38.90168 ], [ -77.27662, 38.90088 ] ], [ [ -77.27524, 38.90281 ], [ -77.27457, 38.90284 ], [ -77.27456, 38.9032 ], [ -77.27524, 38.90281 ] ], [ [ -77.27612, 38.90426 ], [ -77.27615, 38.90431 ], [ -77.27621, 38.90418 ], [ -77.27612, 38.90426 ] ], [ [ -77.27239, 38.89423 ], [ -77.27244, 38.89425 ], [ -77.2724, 38.89422 ], [ -77.27239, 38.89423 ] ], [ [ -77.27268, 38.89442 ], [ -77.2728, 38.89468 ], [ -77.27302, 38.89452 ], [ -77.27268, 38.89442 ] ], [ [ -77.27166, 38.90577 ], [ -77.27087, 38.9044 ], [ -77.27018, 38.90465 ], [ -77.27166, 38.90577 ] ], [ [ -77.27102, 38.9041 ], [ -77.27095, 38.90408 ], [ -77.27096, 38.90418 ], [ -77.27102, 38.9041 ] ], [ [ -77.27177, 38.90304 ], [ -77.27212, 38.90295 ], [ -77.27176, 38.90296 ], [ -77.27177, 38.90304 ] ], [ [ -77.26827, 38.89822 ], [ -77.26745, 38.8976 ], [ -77.26721, 38.89742 ], [ -77.2677, 38.89882 ], [ -77.26827, 38.89822 ] ], [ [ -77.26677, 38.89371 ], [ -77.2655, 38.89375 ], [ -77.26524, 38.89442 ], [ -77.26469, 38.89447 ], [ -77.26639, 38.89525 ], [ -77.26677, 38.89371 ] ], [ [ -77.26918, 38.89581 ], [ -77.2692, 38.89582 ], [ -77.26921, 38.89582 ], [ -77.26918, 38.89581 ] ], [ [ -77.26959, 38.90019 ], [ -77.26882, 38.90064 ], [ -77.26924, 38.90129 ], [ -77.26976, 38.90085 ], [ -77.26959, 38.90019 ] ], [ [ -77.26949, 38.90404 ], [ -77.26922, 38.90352 ], [ -77.26897, 38.90372 ], [ -77.26949, 38.90404 ] ], [ [ -77.2646, 38.89708 ], [ -77.26552, 38.89635 ], [ -77.26576, 38.89621 ], [ -77.26571, 38.89619 ], [ -77.2646, 38.89708 ] ], [ [ -77.25944, 38.90756 ], [ -77.26136, 38.90603 ], [ -77.26098, 38.90573 ], [ -77.25902, 38.9073 ], [ -77.25944, 38.90756 ] ], [ [ -77.25935, 38.9045 ], [ -77.25794, 38.90517 ], [ -77.25886, 38.90588 ], [ -77.25998, 38.90498 ], [ -77.25935, 38.9045 ] ], [ [ -77.26185, 38.90349 ], [ -77.26092, 38.9028 ], [ -77.26003, 38.90351 ], [ -77.26095, 38.90421 ], [ -77.26185, 38.90349 ] ], [ [ -77.25951, 38.8981 ], [ -77.25728, 38.89625 ], [ -77.2572, 38.89632 ], [ -77.25951, 38.8981 ] ], [ [ -77.2604, 38.89569 ], [ -77.2594, 38.89636 ], [ -77.25948, 38.89642 ], [ -77.2604, 38.89569 ] ], [ [ -77.25842, 38.8956 ], [ -77.25935, 38.8946 ], [ -77.25825, 38.89548 ], [ -77.25842, 38.8956 ] ], [ [ -77.25704, 38.8949 ], [ -77.25679, 38.89491 ], [ -77.25683, 38.89506 ], [ -77.25704, 38.8949 ] ], [ [ -77.2635, 38.90614 ], [ -77.2642, 38.90528 ], [ -77.26332, 38.90601 ], [ -77.2635, 38.90614 ] ], [ [ -77.26423, 38.90158 ], [ -77.26192, 38.89981 ], [ -77.26092, 38.90061 ], [ -77.26388, 38.90186 ], [ -77.26423, 38.90158 ] ], [ [ -77.26539, 38.90248 ], [ -77.2651, 38.90243 ], [ -77.26532, 38.90255 ], [ -77.26539, 38.90248 ] ], [ [ -77.26538, 38.90039 ], [ -77.26505, 38.9005 ], [ -77.26463, 38.90037 ], [ -77.2652, 38.90081 ], [ -77.26538, 38.90039 ] ], [ [ -77.26438, 38.90002 ], [ -77.26429, 38.90011 ], [ -77.26453, 38.90029 ], [ -77.26438, 38.90002 ] ], [ [ -77.26619, 38.90157 ], [ -77.26626, 38.90163 ], [ -77.26695, 38.90096 ], [ -77.26619, 38.90157 ] ], [ [ -77.26047, 38.89717 ], [ -77.26148, 38.89651 ], [ -77.26139, 38.89645 ], [ -77.26047, 38.89717 ] ], [ [ -77.26281, 38.90272 ], [ -77.26284, 38.90265 ], [ -77.26258, 38.90254 ], [ -77.26281, 38.90272 ] ], [ [ -77.26079, 38.89917 ], [ -77.26059, 38.89878 ], [ -77.26, 38.8993 ], [ -77.26032, 38.89955 ], [ -77.26079, 38.89917 ] ], [ [ -77.26233, 38.90525 ], [ -77.26321, 38.90453 ], [ -77.26284, 38.90425 ], [ -77.26194, 38.90496 ], [ -77.26233, 38.90525 ] ], [ [ -77.26253, 38.90691 ], [ -77.26146, 38.90751 ], [ -77.26053, 38.90823 ], [ -77.26253, 38.90691 ] ], [ [ -77.2586, 38.89345 ], [ -77.25873, 38.89358 ], [ -77.25882, 38.89353 ], [ -77.2586, 38.89345 ] ], [ [ -77.25781, 38.89301 ], [ -77.25754, 38.89299 ], [ -77.25795, 38.89311 ], [ -77.25781, 38.89301 ] ], [ [ -77.25804, 38.90807 ], [ -77.25656, 38.90924 ], [ -77.25696, 38.90954 ], [ -77.25847, 38.90834 ], [ -77.25804, 38.90807 ] ], [ [ -77.2566, 38.90092 ], [ -77.25715, 38.90056 ], [ -77.25602, 38.9006 ], [ -77.2566, 38.90092 ] ], [ [ -77.25587, 38.89738 ], [ -77.25839, 38.89931 ], [ -77.25861, 38.89892 ], [ -77.25623, 38.89709 ], [ -77.25587, 38.89738 ] ], [ [ -77.2558, 38.89589 ], [ -77.25569, 38.89555 ], [ -77.25543, 38.89574 ], [ -77.2558, 38.89589 ] ], [ [ -77.25817, 38.90165 ], [ -77.25759, 38.90163 ], [ -77.25906, 38.90274 ], [ -77.25832, 38.90214 ], [ -77.25817, 38.90165 ] ], [ [ -77.25782, 38.90055 ], [ -77.25779, 38.90037 ], [ -77.25738, 38.90055 ], [ -77.25782, 38.90055 ] ], [ [ -77.2579, 38.90337 ], [ -77.25807, 38.90352 ], [ -77.25809, 38.90351 ], [ -77.2579, 38.90337 ] ], [ [ -77.25748, 38.90305 ], [ -77.25747, 38.90305 ], [ -77.25749, 38.90306 ], [ -77.25748, 38.90305 ] ], [ [ -77.25494, 38.89818 ], [ -77.25398, 38.89886 ], [ -77.25405, 38.89891 ], [ -77.25494, 38.89818 ] ], [ [ -77.25308, 38.89968 ], [ -77.25298, 38.89966 ], [ -77.25308, 38.89969 ], [ -77.25308, 38.89968 ] ], [ [ -77.25459, 38.89641 ], [ -77.2547, 38.89649 ], [ -77.25463, 38.89637 ], [ -77.25459, 38.89641 ] ], [ [ -77.25389, 38.89738 ], [ -77.25367, 38.89721 ], [ -77.25269, 38.89785 ], [ -77.25301, 38.89809 ], [ -77.25389, 38.89738 ] ] ] } },
{ "type": "Feature", "properties": { "variant": "T2s", "miles": 1.5 }, "geometry": { "type": "MultiPolygon", "coordinates": [ [ [ [ -77.28168, 38.89018 ], [ -77.28077, 38.89087 ], [ -77.28206, 38.89051 ], [ -77.28239, 38.89123 ], [ -77.28128, 38.89191 ], [ -77.28152, 38.89289 ], [ -77.28067, 38.89335 ], [ -77.28222, 38.89499 ], [ -77.28199, 38.89582 ], [ -77.28043, 38.89635 ], [ -77.27721, 38.8929 ], [ -77.27661, 38.89356 ], [ -77.27825, 38.89561 ], [ -77.27831, 38.89602 ], [ -77.27721, 38.8967 ], [ -77.27774, 38.89748 ], [ -77.27792, 38.89974 ], [ -77.28042, 38.89964 ], [ -77.27968, 38.89856 ], [ -77.27996, 38.89821 ], [ -77.28075, 38.89825 ], [ -77.28135, 38.89757 ], [ -77.28186, 38.89769 ], [ -77.28246, 38.89865 ], [ -77.28279, 38.89847 ], [ -77.28173, 38.89708 ], [ -77.2825, 38.89661 ], [ -77.28392, 38.89785 ], [ -77.28549, 38.89746 ], [ -77.28675, 38.89789 ], [ -77.2868, 38.89831 ], [ -77.28647, 38.89863 ], [ -77.28472, 38.89873 ], [ -77.28542, 38.9004 ], [ -77.28502, 38.90093 ], [ -77.28413, 38.90116 ], [ -77.28495, 38.90323 ], [ -77.283, 38.90524 ], [ -77.28374, 38.90529 ], [ -77.28378, 38.90606 ], [ -77.28221, 38.90745 ], [ -77.28308, 38.90829 ], [ -77.28286, 38.9072 ], [ -77.28433, 38.90714 ], [ -77.28459, 38.90796 ], [ -77.28424, 38.90888 ], [ -77.28516, 38.90946 ], [ -77.28512, 38.90988 ], [ -77.28471, 38.91014 ], [ -77.28355, 38.90983 ], [ -77.28132, 38.91067 ], [ -77.28081, 38.91055 ], [ -77.28014, 38.90937 ], [ -77.28023, 38.91066 ], [ -77.28114, 38.91063 ], [ -77.2814, 38.91146 ], [ -77.28076, 38.91247 ], [ -77.27934, 38.91329 ], [ -77.27905, 38.91387 ], [ -77.27956, 38.9144 ], [ -77.27939, 38.91479 ], [ -77.27891, 38.91497 ], [ -77.27743, 38.91435 ], [ -77.27303, 38.91018 ], [ -77.2732, 38.90961 ], [ -77.27211, 38.90855 ], [ -77.27185, 38.90735 ], [ -77.26964, 38.90647 ], [ -77.27023, 38.90751 ], [ -77.26945, 38.90789 ], [ -77.27062, 38.90928 ], [ -77.26995, 38.91044 ], [ -77.27188, 38.91118 ], [ -77.27208, 38.91301 ], [ -77.27288, 38.91308 ], [ -77.27307, 38.91347 ], [ -77.27186, 38.91454 ], [ -77.27056, 38.91472 ], [ -77.27145, 38.9153 ], [ -77.27137, 38.91606 ], [ -77.27086, 38.91619 ], [ -77.27015, 38.91578 ], [ -77.2686, 38.91636 ], [ -77.26799, 38.91577 ], [ -77.26824, 38.9154 ], [ -77.26877, 38.91526 ], [ -77.26806, 38.91472 ], [ -77.26776, 38.91579 ], [ -77.26629, 38.91627 ], [ -77.2651, 38.91426 ], [ -77.263, 38.91569 ], [ -77.2625, 38.91582 ], [ -77.26191, 38.91538 ], [ -77.26095, 38.91604 ], [ -77.26007, 38.9157 ], [ -77.26051, 38.91501 ], [ -77.25911, 38.91562 ], [ -77.25843, 38.91469 ], [ -77.25779, 38.91531 ], [ -77.2578, 38.9173 ], [ -77.25683, 38.91738 ], [ -77.25575, 38.91632 ], [ -77.25754, 38.91385 ], [ -77.25669, 38.91064 ], [ -77.2556, 38.91002 ], [ -77.2544, 38.91075 ], [ -77.25043, 38.91145 ], [ -77.24623, 38.91351 ], [ -77.24528, 38.91332 ], [ -77.24553, 38.91258 ], [ -77.24807, 38.91115 ], [ -77.24748, 38.91104 ], [ -77.24576, 38.91186 ], [ -77.24447, 38.91018 ], [ -77.24506, 38.90958 ], [ -77.24704, 38.90989 ], [ -77.24766, 38.90834 ], [ -77.24729, 38.90765 ], [ -77.24847, 38.90646 ], [ -77.24746, 38.90569 ], [ -77.24745, 38.90493 ], [ -77.24927, 38.90348 ], [ -77.24943, 38.9028 ], [ -77.25301, 38.90286 ], [ -77.25045, 38.90252 ], [ -77.25052, 38.90176 ], [ -77.25178, 38.90166 ], [ -77.25121, 38.90108 ], [ -77.24982, 38.90119 ], [ -77.24691, 38.90068 ], [ -77.24631, 38.89974 ], [ -77.2445, 38.89875 ], [ -77.24451, 38.89798 ], [ -77.24524, 38.89744 ], [ -77.2447, 38.8973 ], [ -77.2447, 38.89653 ], [ -77.24682, 38.89487 ], [ -77.24617, 38.89437 ], [ -77.24523, 38.89513 ], [ -77.24426, 38.89517 ], [ -77.24421, 38.89441 ], [ -77.24517, 38.89361 ], [ -77.2438, 38.89303 ], [ -77.24376, 38.89261 ], [ -77.24446, 38.89215 ], [ -77.24523, 38.89217 ], [ -77.2478, 38.89411 ], [ -77.24883, 38.89328 ], [ -77.24815, 38.89228 ], [ -77.24554, 38.89224 ], [ -77.24373, 38.89139 ], [ -77.24351, 38.89065 ], [ -77.24483, 38.88904 ], [ -77.2457, 38.88885 ], [ -77.24816, 38.89007 ], [ -77.25151, 38.88922 ], [ -77.25069, 38.88781 ], [ -77.25093, 38.88744 ], [ -77.25144, 38.88732 ], [ -77.25212, 38.88771 ], [ -77.25361, 38.88734 ], [ -77.25326, 38.88712 ], [ -77.25335, 38.88615 ], [ -77.2517, 38.88504 ], [ -77.25218, 38.88438 ], [ -77.2536, 38.88484 ], [ -77.2559, 38.88416 ], [ -77.25624, 38.88476 ], [ -77.25583, 38.88546 ], [ -77.25644, 38.88614 ], [ -77.25753, 38.8849 ], [ -77.25837, 38.88538 ], [ -77.25992, 38.88415 ], [ -77.26067, 38.88463 ], [ -77.26007, 38.88547 ], [ -77.26088, 38.88617 ], [ -77.26246, 38.8856 ], [ -77.26057, 38.8836 ], [ -77.26111, 38.88296 ], [ -77.26187, 38.88319 ], [ -77.26373, 38.88513 ], [ -77.26727, 38.88381 ], [ -77.26868, 38.88527 ], [ -77.2681, 38.88622 ], [ -77.27027, 38.88592 ], [ -77.2706, 38.88777 ], [ -77.27119, 38.88724 ], [ -77.27171, 38.88726 ], [ -77.27274, 38.88914 ], [ -77.27438, 38.88779 ], [ -77.27532, 38.88801 ], [ -77.27653, 38.88954 ], [ -77.27581, 38.89006 ], [ -77.27504, 38.88972 ], [ -77.27547, 38.89107 ], [ -77.27515, 38.89139 ], [ -77.27407, 38.89135 ], [ -77.27409, 38.89192 ], [ -77.27485, 38.89236 ], [ -77.27504, 38.89275 ], [ -77.27485, 38.89306 ], [ -77.28093, 38.88821 ], [ -77.28226, 38.88732 ], [ -77.28323, 38.88731 ], [ -77.28325, 38.88807 ], [ -77.2813, 38.88964 ], [ -77.28168, 38.89018 ] ], [ [ -77.26685, 38.91476 ], [ -77.26688, 38.91483 ], [ -77.26689, 38.9148 ], [ -77.26685, 38.91476 ] ], [ [ -77.26576, 38.90932 ], [ -77.26528, 38.90921 ], [ -77.26404, 38.91034 ], [ -77.26541, 38.91131 ], [ -77.26643, 38.9105 ], [ -77.26576, 38.90932 ] ], [ [ -77.26464, 38.90777 ], [ -77.26358, 38.90762 ], [ -77.26184, 38.90901 ], [ -77.26295, 38.90967 ], [ -77.2642, 38.90857 ], [ -77.26519, 38.90842 ], [ -77.26464, 38.90777 ] ], [ [ -77.26655, 38.90715 ], [ -77.26661, 38.90778 ], [ -77.26695, 38.90806 ], [ -77.26699, 38.90742 ], [ -77.26534, 38.90615 ], [ -77.26477, 38.90667 ], [ -77.26655, 38.90715 ] ], [ [ -77.26522, 38.90234 ], [ -77.2651, 38.90243 ], [ -77.26532, 38.90255 ], [ -77.26522, 38.90234 ] ], [ [ -77.26505, 38.9005 ], [ -77.26463, 38.90037 ], [ -77.2652, 38.90081 ], [ -77.26563, 38.90047 ], [ -77.26505, 38.9005 ] ], [ [ -77.26471, 38.89698 ], [ -77.26459, 38.89708 ], [ -77.26576, 38.89621 ], [ -77.26471, 38.89698 ] ], [ [ -77.26677, 38.89371 ], [ -77.2655, 38.89375 ], [ -77.26524, 38.89442 ], [ -77.26469, 38.89447 ], [ -77.26639, 38.89525 ], [ -77.26677, 38.89371 ] ], [ [ -77.26411, 38.89154 ], [ -77.26355, 38.89188 ], [ -77.26443, 38.89277 ], [ -77.265, 38.89243 ], [ -77.26411, 38.89154 ] ], [ [ -77.26541, 38.89108 ], [ -77.26546, 38.89113 ], [ -77.26549, 38.8911 ], [ -77.26541, 38.89108 ] ], [ [ -77.26563, 38.88994 ], [ -77.26551, 38.88999 ], [ -77.26568, 38.89002 ], [ -77.26563, 38.88994 ] ], [ [ -77.26553, 38.88773 ], [ -77.2651, 38.88758 ], [ -77.26528, 38.88781 ], [ -77.26553, 38.88773 ] ], [ [ -77.26515, 38.8868 ], [ -77.26449, 38.88653 ], [ -77.26492, 38.88733 ], [ -77.26515, 38.8868 ] ], [ [ -77.26432, 38.88611 ], [ -77.26445, 38.88644 ], [ -77.26446, 38.88608 ], [ -77.26432, 38.88611 ] ], [ [ -77.27531, 38.90958 ], [ -77.27504, 38.9096 ], [ -77.27523, 38.90972 ], [ -77.27531, 38.90958 ] ], [ [ -77.27622, 38.90864 ], [ -77.2755, 38.90859 ], [ -77.27493, 38.90802 ], [ -77.27576, 38.90907 ], [ -77.27622, 38.90864 ] ], [ [ -77.27456, 38.9032 ], [ -77.27524, 38.90281 ], [ -77.27457, 38.90284 ], [ -77.27456, 38.9032 ] ], [ [ -77.275, 38.90105 ], [ -77.27552, 38.90092 ], [ -77.27448, 38.90096 ], [ -77.27457, 38.90152 ], [ -77.275, 38.90105 ] ], [ [ -77.27464, 38.89923 ], [ -77.27433, 38.89869 ], [ -77.27438, 38.89941 ], [ -77.27464, 38.89923 ] ], [ [ -77.27629, 38.89752 ], [ -77.27505, 38.89656 ], [ -77.27423, 38.89742 ], [ -77.27629, 38.89752 ] ], [ [ -77.27313, 38.89604 ], [ -77.27351, 38.89636 ], [ -77.27414, 38.89571 ], [ -77.27397, 38.89551 ], [ -77.27313, 38.89604 ] ], [ [ -77.27073, 38.89156 ], [ -77.26996, 38.89196 ], [ -77.27096, 38.8925 ], [ -77.27131, 38.8923 ], [ -77.27073, 38.89156 ] ], [ [ -77.2751, 38.89488 ], [ -77.27551, 38.89423 ], [ -77.27494, 38.89468 ], [ -77.2751, 38.89488 ] ], [ [ -77.27474, 38.89314 ], [ -77.27439, 38.89324 ], [ -77.27437, 38.89342 ], [ -77.27474, 38.89314 ] ], [ [ -77.27987, 38.89247 ], [ -77.28003, 38.89238 ], [ -77.2796, 38.89152 ], [ -77.27901, 38.89157 ], [ -77.27987, 38.89247 ] ], [ [ -77.27875, 38.90452 ], [ -77.27858, 38.90489 ], [ -77.27885, 38.90467 ], [ -77.27875, 38.90452 ] ], [ [ -77.28003, 38.90408 ], [ -77.27846, 38.90229 ], [ -77.27872, 38.90289 ], [ -77.28003, 38.90408 ] ], [ [ -77.278, 38.90082 ], [ -77.27802, 38.90119 ], [ -77.27829, 38.90103 ], [ -77.2787, 38.90079 ], [ -77.278, 38.90082 ] ], [ [ -77.28051, 38.90264 ], [ -77.28112, 38.90329 ], [ -77.28131, 38.90315 ], [ -77.28051, 38.90264 ] ], [ [ -77.28321, 38.90014 ], [ -77.28381, 38.90007 ], [ -77.28357, 38.89936 ], [ -77.28296, 38.89971 ], [ -77.28321, 38.90014 ] ], [ [ -77.28117, 38.90071 ], [ -77.27956, 38.90164 ], [ -77.28071, 38.90148 ], [ -77.2818, 38.90188 ], [ -77.28117, 38.90071 ] ], [ [ -77.28191, 38.90929 ], [ -77.28241, 38.90924 ], [ -77.28211, 38.90909 ], [ -77.28187, 38.90892 ], [ -77.28191, 38.90929 ] ], [ [ -77.28228, 38.90574 ], [ -77.28103, 38.90658 ], [ -77.28122, 38.90669 ], [ -77.28228, 38.90574 ] ], [ [ -77.28243, 38.90379 ], [ -77.28261, 38.90389 ], [ -77.28264, 38.90379 ], [ -77.28267, 38.90355 ], [ -77.28243, 38.90379 ] ], [ [ -77.28144, 38.90488 ], [ -77.28173, 38.90468 ], [ -77.28143, 38.90454 ], [ -77.28144, 38.90488 ] ], [ [ -77.27971, 38.91177 ], [ -77.28005, 38.91095 ], [ -77.27885, 38.91165 ], [ -77.27912, 38.91198 ], [ -77.27971, 38.91177 ] ], [ [ -77.27641, 38.9061 ], [ -77.2764, 38.90612 ], [ -77.27644, 38.90613 ], [ -77.27641, 38.9061 ] ], [ [ -77.27565, 38.90091 ], [ -77.27607, 38.90112 ], [ -77.27605, 38.90169 ], [ -77.27667, 38.90168 ], [ -77.27662, 38.90088 ], [ -77.27565, 38.90091 ] ], [ [ -77.27524, 38.89933 ], [ -77.27568, 38.89983 ], [ -77.27654, 38.89979 ], [ -77.27646, 38.8986 ], [ -77.27578, 38.89863 ], [ -77.27524, 38.89933 ] ], [ [ -77.27596, 38.89574 ], [ -77.27622, 38.89595 ], [ -77.27623, 38.89594 ], [ -77.27596, 38.89574 ] ], [ [ -77.27761, 38.9038 ], [ -77.27772, 38.90363 ], [ -77.27742, 38.90347 ], [ -77.27761, 38.9038 ] ], [ [ -77.27687, 38.90334 ], [ -77.27688, 38.90334 ], [ -77.27685, 38.90331 ], [ -77.27687, 38.90334 ] ], [ [ -77.27615, 38.90431 ], [ -77.27621, 38.90418 ], [ -77.27612, 38.90426 ], [ -77.27615, 38.90431 ] ], [ [ -77.27789, 38.90937 ], [ -77.27789, 38.90949 ], [ -77.2779, 38.90947 ], [ -77.27789, 38.90937 ] ], [ [ -77.27734, 38.90896 ], [ -77.27739, 38.90882 ], [ -77.27727, 38.90896 ], [ -77.27734, 38.90896 ] ], [ [ -77.27714, 38.90706 ], [ -77.27693, 38.90697 ], [ -77.27709, 38.90714 ], [ -77.27714, 38.90706 ] ], [ [ -77.27659, 38.90689 ], [ -77.27683, 38.90691 ], [ -77.27671, 38.90662 ], [ -77.27659, 38.90689 ] ], [ [ -77.27596, 38.90709 ], [ -77.27571, 38.90706 ], [ -77.27586, 38.9072 ], [ -77.27596, 38.90709 ] ], [ [ -77.27671, 38.90634 ], [ -77.27662, 38.9063 ], [ -77.2767, 38.90642 ], [ -77.27671, 38.90634 ] ], [ [ -77.27348, 38.89065 ], [ -77.27355, 38.89074 ], [ -77.27356, 38.89067 ], [ -77.27348, 38.89065 ] ], [ [ -77.27239, 38.89133 ], [ -77.27233, 38.89135 ], [ -77.27297, 38.89214 ], [ -77.27239, 38.89133 ] ], [ [ -77.2724, 38.89422 ], [ -77.27239, 38.89423 ], [ -77.27244, 38.89425 ], [ -77.2724, 38.89422 ] ], [ [ -77.2728, 38.89468 ], [ -77.27302, 38.89452 ], [ -77.27268, 38.89442 ], [ -77.2728, 38.89468 ] ], [ [ -77.27087, 38.9044 ], [ -77.27018, 38.90465 ], [ -77.27166, 38.90577 ], [ -77.27087, 38.9044 ] ], [ [ -77.27095, 38.90408 ], [ -77.27096, 38.90418 ], [ -77.27102, 38.9041 ], [ -77.27095, 38.90408 ] ], [ [ -77.26906, 38.90379 ], [ -77.26956, 38.90417 ], [ -77.26922, 38.90352 ], [ -77.26906, 38.90379 ] ], [ [ -77.26745, 38.8976 ], [ -77.26721, 38.89742 ], [ -77.2677, 38.89882 ], [ -77.26827, 38.89822 ], [ -77.26745, 38.8976 ] ], [ [ -77.26934, 38.89752 ], [ -77.26993, 38.89704 ], [ -77.26829, 38.89664 ], [ -77.26934, 38.89752 ] ], [ [ -77.26862, 38.89297 ], [ -77.26935, 38.89228 ], [ -77.26851, 38.89273 ], [ -77.26835, 38.89338 ], [ -77.26862, 38.89297 ] ], [ [ -77.26715, 38.88993 ], [ -77.26747, 38.8897 ], [ -77.26693, 38.88957 ], [ -77.26715, 38.88993 ] ], [ [ -77.26729, 38.88814 ], [ -77.26752, 38.88814 ], [ -77.26747, 38.88802 ], [ -77.26729, 38.88814 ] ], [ [ -77.27317, 38.90182 ], [ -77.27313, 38.90149 ], [ -77.27248, 38.90181 ], [ -77.27179, 38.90109 ], [ -77.27166, 38.90189 ], [ -77.27317, 38.90182 ] ], [ [ -77.27267, 38.89725 ], [ -77.27216, 38.89681 ], [ -77.27035, 38.89825 ], [ -77.27182, 38.89814 ], [ -77.27267, 38.89725 ] ], [ [ -77.27264, 38.89933 ], [ -77.27231, 38.9 ], [ -77.27303, 38.89997 ], [ -77.2729, 38.89885 ], [ -77.27264, 38.89933 ] ], [ [ -77.27352, 38.90777 ], [ -77.27332, 38.90766 ], [ -77.27331, 38.90792 ], [ -77.27352, 38.90777 ] ], [ [ -77.26875, 38.88717 ], [ -77.26947, 38.89027 ], [ -77.26996, 38.88998 ], [ -77.26875, 38.88717 ] ], [ [ -77.27019, 38.89474 ], [ -77.27038, 38.89446 ], [ -77.27022, 38.89448 ], [ -77.27005, 38.89497 ], [ -77.27019, 38.89474 ] ], [ [ -77.26882, 38.90064 ], [ -77.26924, 38.90129 ], [ -77.26976, 38.90085 ], [ -77.26942, 38.90024 ], [ -77.26882, 38.90064 ] ], [ [ -77.26867, 38.91272 ], [ -77.26795, 38.91313 ], [ -77.26819, 38.91331 ], [ -77.26867, 38.91272 ] ], [ [ -77.26896, 38.91166 ], [ -77.26904, 38.9113 ], [ -77.26893, 38.91126 ], [ -77.26896, 38.91166 ] ], [ [ -77.26908, 38.90914 ], [ -77.26865, 38.90935 ], [ -77.2689, 38.90955 ], [ -77.26908, 38.90914 ] ], [ [ -77.27015, 38.91368 ], [ -77.27014, 38.91367 ], [ -77.2698, 38.9134 ], [ -77.26942, 38.91386 ], [ -77.27015, 38.91368 ] ], [ [ -77.26592, 38.88612 ], [ -77.26594, 38.88601 ], [ -77.26596, 38.88579 ], [ -77.26592, 38.88612 ] ], [ [ -77.26695, 38.90096 ], [ -77.26619, 38.90157 ], [ -77.26626, 38.90163 ], [ -77.26695, 38.90096 ] ], [ [ -77.2679, 38.91174 ], [ -77.26763, 38.91162 ], [ -77.26778, 38.91179 ], [ -77.2679, 38.91174 ] ], [ [ -77.26715, 38.91147 ], [ -77.26754, 38.91153 ], [ -77.26742, 38.91125 ], [ -77.26715, 38.91147 ] ], [ [ -77.26879, 38.91135 ], [ -77.26879, 38.91133 ], [ -77.26878, 38.91135 ], [ -77.26879, 38.91135 ] ], [ [ -77.26699, 38.9139 ], [ -77.26685, 38.91401 ], [ -77.26704, 38.91395 ], [ -77.26699, 38.9139 ] ], [ [ -77.26665, 38.91438 ], [ -77.26684, 38.91402 ], [ -77.26663, 38.91419 ], [ -77.26665, 38.91438 ] ], [ [ -77.25873, 38.9129 ], [ -77.25899, 38.91268 ], [ -77.25855, 38.91269 ], [ -77.25873, 38.9129 ] ], [ [ -77.25878, 38.90989 ], [ -77.25862, 38.90985 ], [ -77.25869, 38.90997 ], [ -77.25878, 38.90989 ] ], [ [ -77.25656, 38.90924 ], [ -77.25696, 38.90954 ], [ -77.25847, 38.90834 ], [ -77.25804, 38.90807 ], [ -77.25656, 38.90924 ] ], [ [ -77.25789, 38.90665 ], [ -77.25503, 38.90446 ], [ -77.25409, 38.90547 ], [ -77.25433, 38.90565 ], [ -77.25575, 38.90506 ], [ -77.25613, 38.90577 ], [ -77.25531, 38.90641 ], [ -77.2571, 38.90613 ], [ -77.25731, 38.90651 ], [ -77.25655, 38.90736 ], [ -77.25677, 38.90753 ], [ -77.25789, 38.90665 ] ], [ [ -77.25793, 38.90342 ], [ -77.25807, 38.90352 ], [ -77.25809, 38.90351 ], [ -77.25793, 38.90342 ] ], [ [ -77.25817, 38.90165 ], [ -77.25759, 38.90163 ], [ -77.25906, 38.90274 ], [ -77.25817, 38.90165 ] ], [ [ -77.25692, 38.90046 ], [ -77.25602, 38.9006 ], [ -77.2566, 38.90092 ], [ -77.25692, 38.90046 ] ], [ [ -77.25779, 38.90037 ], [ -77.25738, 38.90055 ], [ -77.25782, 38.90055 ], [ -77.25779, 38.90037 ] ], [ [ -77.25623, 38.89709 ], [ -77.25587, 38.89738 ], [ -77.25839, 38.89931 ], [ -77.2585, 38.89903 ], [ -77.25623, 38.89709 ] ], [ [ -77.25405, 38.89891 ], [ -77.25494, 38.89818 ], [ -77.25488, 38.89814 ], [ -77.25405, 38.89891 ] ], [ [ -77.25269, 38.89785 ], [ -77.25301, 38.89809 ], [ -77.25389, 38.89738 ], [ -77.25367, 38.89721 ], [ -77.25269, 38.89785 ] ], [ [ -77.2549, 38.89354 ], [ -77.25508, 38.8934 ], [ -77.25465, 38.89329 ], [ -77.2549, 38.89354 ] ], [ [ -77.25392, 38.89077 ], [ -77.25479, 38.89062 ], [ -77.25477, 38.88982 ], [ -77.25662, 38.88908 ], [ -77.25323, 38.88993 ], [ -77.25328, 38.89062 ], [ -77.25286, 38.89087 ], [ -77.25233, 38.89083 ], [ -77.25192, 38.89026 ], [ -77.24884, 38.89103 ], [ -77.25024, 38.89303 ], [ -77.25074, 38.89292 ], [ -77.25136, 38.89346 ], [ -77.25186, 38.89294 ], [ -77.25168, 38.89218 ], [ -77.25268, 38.89198 ], [ -77.25328, 38.89233 ], [ -77.25392, 38.89077 ] ], [ [ -77.25583, 38.88814 ], [ -77.2551, 38.88787 ], [ -77.25275, 38.88869 ], [ -77.25583, 38.88814 ] ], [ [ -77.263, 38.91107 ], [ -77.26274, 38.9109 ], [ -77.26025, 38.91319 ], [ -77.26034, 38.91372 ], [ -77.263, 38.91107 ] ], [ [ -77.25976, 38.91065 ], [ -77.26023, 38.91155 ], [ -77.26164, 38.91025 ], [ -77.26107, 38.90991 ], [ -77.25976, 38.91065 ] ], [ [ -77.26253, 38.90691 ], [ -77.26235, 38.90678 ], [ -77.26053, 38.90823 ], [ -77.26253, 38.90691 ] ], [ [ -77.25936, 38.90702 ], [ -77.25902, 38.9073 ], [ -77.25944, 38.90756 ], [ -77.26136, 38.90603 ], [ -77.26098, 38.90573 ], [ -77.25936, 38.90702 ] ], [ [ -77.26003, 38.90351 ], [ -77.26095, 38.90421 ], [ -77.26185, 38.90349 ], [ -77.26092, 38.9028 ], [ -77.26003, 38.90351 ] ], [ [ -77.26388, 38.90186 ], [ -77.26423, 38.90158 ], [ -77.26192, 38.89981 ], [ -77.26092, 38.90061 ], [ -77.26388, 38.90186 ] ], [ [ -77.26, 38.8993 ], [ -77.26032, 38.89955 ], [ -77.26079, 38.89917 ], [ -77.26059, 38.89878 ], [ -77.26, 38.8993 ] ], [ [ -77.26056, 38.89724 ], [ -77.26148, 38.89651 ], [ -77.26139, 38.89645 ], [ -77.26056, 38.89724 ] ], [ [ -77.26335, 38.89344 ], [ -77.26109, 38.89118 ], [ -77.26028, 38.89157 ], [ -77.26149, 38.8919 ], [ -77.2613, 38.8926 ], [ -77.26335, 38.89344 ] ], [ [ -77.2613, 38.88956 ], [ -77.26136, 38.88964 ], [ -77.26137, 38.88963 ], [ -77.2613, 38.88956 ] ], [ [ -77.26389, 38.8881 ], [ -77.26375, 38.88831 ], [ -77.26385, 38.88826 ], [ -77.26389, 38.8881 ] ], [ [ -77.26242, 38.88887 ], [ -77.26236, 38.88886 ], [ -77.26247, 38.88897 ], [ -77.26242, 38.88887 ] ], [ [ -77.2617, 38.8882 ], [ -77.26183, 38.88833 ], [ -77.26198, 38.88802 ], [ -77.2617, 38.8882 ] ], [ [ -77.26092, 38.88742 ], [ -77.26111, 38.88761 ], [ -77.26108, 38.88739 ], [ -77.26092, 38.88742 ] ], [ [ -77.26328, 38.89067 ], [ -77.26277, 38.89016 ], [ -77.26218, 38.89051 ], [ -77.2627, 38.89103 ], [ -77.26328, 38.89067 ] ], [ [ -77.26361, 38.8991 ], [ -77.26398, 38.89881 ], [ -77.26347, 38.89868 ], [ -77.26333, 38.89809 ], [ -77.26251, 38.89874 ], [ -77.26361, 38.8991 ] ], [ [ -77.26333, 38.89504 ], [ -77.26339, 38.89499 ], [ -77.26328, 38.89494 ], [ -77.26333, 38.89504 ] ], [ [ -77.26429, 38.90011 ], [ -77.26453, 38.90029 ], [ -77.26438, 38.90002 ], [ -77.26429, 38.90011 ] ], [ [ -77.26258, 38.90254 ], [ -77.26281, 38.90272 ], [ -77.26284, 38.90265 ], [ -77.26258, 38.90254 ] ], [ [ -77.26332, 38.90601 ], [ -77.2635, 38.90614 ], [ -77.26415, 38.9056 ], [ -77.2642, 38.90535 ], [ -77.26332, 38.90601 ] ], [ [ -77.26194, 38.90496 ], [ -77.26233, 38.90525 ], [ -77.26321, 38.90453 ], [ -77.26284, 38.90425 ], [ -77.26194, 38.90496 ] ], [ [ -77.26311, 38.91418 ], [ -77.26465, 38.91313 ], [ -77.26454, 38.91275 ], [ -77.26311, 38.91418 ] ], [ [ -77.25937, 38.88902 ], [ -77.25857, 38.8885 ], [ -77.26007, 38.89043 ], [ -77.25937, 38.88902 ] ], [ [ -77.25858, 38.89032 ], [ -77.2584, 38.89009 ], [ -77.25813, 38.88979 ], [ -77.25858, 38.89032 ] ], [ [ -77.25951, 38.8981 ], [ -77.2596, 38.89802 ], [ -77.25728, 38.89625 ], [ -77.25951, 38.8981 ] ], [ [ -77.25679, 38.89491 ], [ -77.25683, 38.89506 ], [ -77.25704, 38.8949 ], [ -77.25679, 38.89491 ] ], [ [ -77.25767, 38.89288 ], [ -77.25754, 38.89299 ], [ -77.25766, 38.89304 ], [ -77.25767, 38.89288 ] ], [ [ -77.25825, 38.89548 ], [ -77.25842, 38.8956 ], [ -77.25935, 38.8946 ], [ -77.25825, 38.89548 ] ], [ [ -77.25882, 38.89353 ], [ -77.2586, 38.89345 ], [ -77.25867, 38.89351 ], [ -77.25882, 38.89353 ] ], [ [ -77.26033, 38.89563 ], [ -77.2594, 38.89636 ], [ -77.25948, 38.89642 ], [ -77.26033, 38.89563 ] ], [ [ -77.25794, 38.90517 ], [ -77.25886, 38.90588 ], [ -77.25998, 38.90498 ], [ -77.25935, 38.9045 ], [ -77.25794, 38.90517 ] ], [ [ -77.25678, 38.89201 ], [ -77.25678, 38.89204 ], [ -77.25682, 38.89202 ], [ -77.25678, 38.89201 ] ], [ [ -77.25543, 38.89574 ], [ -77.2558, 38.89589 ], [ -77.2561, 38.89565 ], [ -77.25543, 38.89574 ] ], [ [ -77.2547, 38.89649 ], [ -77.25463, 38.89637 ], [ -77.25459, 38.89641 ], [ -77.2547, 38.89649 ] ], [ [ -77.2546, 38.90926 ], [ -77.25436, 38.90908 ], [ -77.2541, 38.90929 ], [ -77.2546, 38.90926 ] ], [ [ -77.2558, 38.90831 ], [ -77.25434, 38.90718 ], [ -77.2541, 38.90738 ], [ -77.25548, 38.90842 ], [ -77.2558, 38.90831 ] ], [ [ -77.25312, 38.90661 ], [ -77.25336, 38.90642 ], [ -77.25189, 38.9053 ], [ -77.25164, 38.90549 ], [ -77.25312, 38.90661 ] ], [ [ -77.2519, 38.9072 ], [ -77.25165, 38.9074 ], [ -77.25191, 38.9076 ], [ -77.2519, 38.9072 ] ], [ [ -77.25067, 38.90626 ], [ -77.25043, 38.90646 ], [ -77.25066, 38.90664 ], [ -77.25067, 38.90626 ] ], [ [ -77.25099, 38.89816 ], [ -77.25, 38.89897 ], [ -77.25125, 38.89926 ], [ -77.25099, 38.89816 ] ], [ [ -77.24943, 38.89688 ], [ -77.24748, 38.89843 ], [ -77.24759, 38.89875 ], [ -77.24821, 38.89865 ], [ -77.24842, 38.89802 ], [ -77.2492, 38.89806 ], [ -77.24978, 38.89715 ], [ -77.24943, 38.89688 ] ], [ [ -77.25195, 38.89589 ], [ -77.25099, 38.89515 ], [ -77.25035, 38.89606 ], [ -77.25133, 38.89637 ], [ -77.25195, 38.89589 ] ], [ [ -77.24878, 38.89486 ], [ -77.24936, 38.89531 ], [ -77.25018, 38.89453 ], [ -77.24968, 38.89415 ], [ -77.24878, 38.89486 ] ], [ [ -77.25286, 38.90453 ], [ -77.2531, 38.90471 ], [ -77.25439, 38.90397 ], [ -77.25397, 38.90365 ], [ -77.25286, 38.90453 ] ], [ [ -77.25529, 38.90126 ], [ -77.25466, 38.90089 ], [ -77.25345, 38.90093 ], [ -77.25258, 38.90165 ], [ -77.25529, 38.90126 ] ], [ [ -77.25584, 38.90225 ], [ -77.25612, 38.90259 ], [ -77.25649, 38.9023 ], [ -77.25584, 38.90225 ] ], [ [ -77.25465, 38.90266 ], [ -77.25491, 38.90245 ], [ -77.25451, 38.90252 ], [ -77.25465, 38.90266 ] ], [ [ -77.25264, 38.89491 ], [ -77.25293, 38.89512 ], [ -77.25331, 38.89481 ], [ -77.25283, 38.89453 ], [ -77.25264, 38.89491 ] ], [ [ -77.25331, 38.89276 ], [ -77.25329, 38.89287 ], [ -77.25331, 38.89288 ], [ -77.25331, 38.89276 ] ], [ [ -77.25302, 38.89963 ], [ -77.25298, 38.89966 ], [ -77.25308, 38.89969 ], [ -77.25302, 38.89963 ] ], [ [ -77.25149, 38.90044 ], [ -77.25144, 38.90043 ], [ -77.25145, 38.90045 ], [ -77.25149, 38.90044 ] ], [ [ -77.25051, 38.90973 ], [ -77.25059, 38.91005 ], [ -77.25086, 38.90968 ], [ -77.25051, 38.90973 ] ], [ [ -77.2529, 38.90835 ], [ -77.25312, 38.90852 ], [ -77.25337, 38.90833 ], [ -77.2529, 38.90835 ] ], [ [ -77.24854, 38.90955 ], [ -77.24872, 38.90904 ], [ -77.24861, 38.90915 ], [ -77.2484, 38.91009 ], [ -77.24922, 38.91021 ], [ -77.24854, 38.90955 ] ], [ [ -77.24536, 38.89093 ], [ -77.24599, 38.89013 ], [ -77.24567, 38.89002 ], [ -77.24536, 38.89093 ] ], [ [ -77.24678, 38.89121 ], [ -77.24738, 38.8912 ], [ -77.24711, 38.8908 ], [ -77.24678, 38.89121 ] ], [ [ -77.24658, 38.8976 ], [ -77.24775, 38.89667 ], [ -77.24819, 38.89592 ], [ -77.2478, 38.89562 ], [ -77.24657, 38.89658 ], [ -77.24658, 38.8976 ] ], [ [ -77.24682, 38.89923 ], [ -77.24685, 38.89921 ], [ -77.24681, 38.89919 ], [ -77.24682, 38.89923 ] ] ], [ [ [ -77.26829, 38.88255 ], [ -77.26854, 38.88329 ], [ -77.2676, 38.88362 ], [ -77.26634, 38.8833 ], [ -77.26653, 38.88255 ], [ -77.26829, 38.88255 ] ] ] ] } }
]
}
