{
"type": "FeatureCollection",
"name": "63",
"crs": { "type": "name", "properties": { "name": "urn:ogc:def:crs:OGC:1.3:CRS84" } },
"xy_coordinate_resolution": 1e-05,
"features": [
{ "type": "Feature", "properties": { "variant": "T0", "miles": 0.5 }, "geometry": { "type": "Polygon", "coordinates": [ [ [ -77.28349, 38.89273 ], [ -77.28515, 38.89346 ], [ -77.28691, 38.89539 ], [ -77.28701, 38.8958 ], [ -77.2862, 38.89622 ], [ -77.28495, 38.89514 ], [ -77.28404, 38.89542 ], [ -77.28567, 38.89749 ], [ -77.2867, 38.89772 ], [ -77.28645, 38.89703 ], [ -77.28685, 38.89676 ], [ -77.28825, 38.89715 ], [ -77.28967, 38.89656 ], [ -77.29022, 38.89719 ], [ -77.28823, 38.89909 ], [ -77.2866, 38.89882 ], [ -77.28694, 38.89974 ], [ -77.2878, 38.89949 ], [ -77.28824, 38.89973 ], [ -77.28803, 38.90048 ], [ -77.28703, 38.901 ], [ -77.28608, 38.90084 ], [ -77.28524, 38.89853 ], [ -77.28472, 38.89873 ], [ -77.28539, 38.90023 ], [ -77.2852, 38.90081 ], [ -77.28218, 38.90159 ], [ -77.28145, 38.90131 ], [ -77.28117, 38.90069 ], [ -77.28025, 38.90056 ], [ -77.28041, 38.8998 ], [ -77.28134, 38.89929 ], [ -77.2808, 38.89856 ], [ -77.28089, 38.89777 ], [ -77.28186, 38.89769 ], [ -77.28246, 38.89865 ], [ -77.28279, 38.89847 ], [ -77.28173, 38.89708 ], [ -77.2825, 38.89661 ], [ -77.28392, 38.89785 ], [ -77.28428, 38.8976 ], [ -77.28291, 38.89604 ], [ -77.2817, 38.89605 ], [ -77.28208, 38.89517 ], [ -77.28054, 38.89343 ], [ -77.27978, 38.89371 ], [ -77.27917, 38.89311 ], [ -77.28003, 38.89238 ], [ -77.27977, 38.89135 ], [ -77.28016, 38.89107 ], [ -77.28069, 38.89109 ], [ -77.28131, 38.89197 ], [ -77.28313, 38.89154 ], [ -77.28349, 38.89273 ] ], [ [ -77.28418, 38.89424 ], [ -77.28195, 38.89297 ], [ -77.2818, 38.89298 ], [ -77.28321, 38.89454 ], [ -77.28418, 38.89424 ] ], [ [ -77.28378, 38.90001 ], [ -77.28357, 38.89936 ], [ -77.28296, 38.89971 ], [ -77.28321, 38.90014 ], [ -77.28378, 38.90001 ] ] ] } },
{ "type": "Feature", "properties": { "variant": "T0", "miles": 1.0 }, "geometry": { "type": "Polygon", "coordinates": [ [ [ -77.2895, 38.8913 ], [ -77.29045, 38.89149 ], [ -77.29154, 38.89289 ], [ -77.29279, 38.89246 ], [ -77.29322, 38.8927 ], [ -77.29308, 38.89337 ], [ -77.29477, 38.89275 ], [ -77.29557, 38.89203 ], [ -77.29608, 38.89213 ], [ -77.29624, 38.89288 ], [ -77.29754, 38.89363 ], [ -77.29781, 38.89493 ], [ -77.29692, 38.89582 ], [ -77.29746, 38.89663 ], [ -77.29464, 38.89727 ], [ -77.29668, 38.89965 ], [ -77.29684, 38.9012 ], [ -77.29755, 38.90175 ], [ -77.29702, 38.90239 ], [ -77.29613, 38.90213 ], [ -77.29561, 38.90277 ], [ -77.2972, 38.90344 ], [ -77.29749, 38.90417 ], [ -77.29656, 38.9044 ], [ -77.29199, 38.90233 ], [ -77.28887, 38.90395 ], [ -77.29112, 38.90432 ], [ -77.29106, 38.90508 ], [ -77.28825, 38.90496 ], [ -77.28805, 38.90586 ], [ -77.28707, 38.90586 ], [ -77.2869, 38.90443 ], [ -77.28593, 38.90315 ], [ -77.28653, 38.90138 ], [ -77.28527, 38.89935 ], [ -77.28526, 38.89853 ], [ -77.28472, 38.89873 ], [ -77.28537, 38.90059 ], [ -77.28413, 38.90116 ], [ -77.28455, 38.90175 ], [ -77.28559, 38.90194 ], [ -77.28458, 38.90524 ], [ -77.28367, 38.90496 ], [ -77.28376, 38.90392 ], [ -77.28292, 38.90384 ], [ -77.28252, 38.90283 ], [ -77.28185, 38.90334 ], [ -77.28051, 38.90264 ], [ -77.28133, 38.90378 ], [ -77.28054, 38.90424 ], [ -77.27846, 38.90229 ], [ -77.27543, 38.90404 ], [ -77.27622, 38.9045 ], [ -77.27581, 38.90519 ], [ -77.27185, 38.90385 ], [ -77.27219, 38.90314 ], [ -77.27315, 38.90326 ], [ -77.27313, 38.90149 ], [ -77.27248, 38.90181 ], [ -77.27188, 38.90108 ], [ -77.27085, 38.90099 ], [ -77.27103, 38.8996 ], [ -77.27192, 38.89929 ], [ -77.27231, 38.9 ], [ -77.27303, 38.89997 ], [ -77.27308, 38.89782 ], [ -77.27629, 38.89752 ], [ -77.27441, 38.89604 ], [ -77.27333, 38.89437 ], [ -77.28046, 38.88859 ], [ -77.28046, 38.88784 ], [ -77.28142, 38.88705 ], [ -77.28016, 38.88592 ], [ -77.2802, 38.88516 ], [ -77.28118, 38.88519 ], [ -77.2828, 38.88673 ], [ -77.28481, 38.88529 ], [ -77.28582, 38.8856 ], [ -77.28557, 38.88632 ], [ -77.2813, 38.88964 ], [ -77.28168, 38.89018 ], [ -77.28077, 38.89087 ], [ -77.28206, 38.89051 ], [ -77.28239, 38.89123 ], [ -77.28131, 38.89197 ], [ -77.28313, 38.89154 ], [ -77.28322, 38.89246 ], [ -77.28515, 38.89346 ], [ -77.28691, 38.89539 ], [ -77.28676, 38.89609 ], [ -77.28776, 38.89597 ], [ -77.28802, 38.89555 ], [ -77.28891, 38.89564 ], [ -77.29112, 38.89443 ], [ -77.29002, 38.89468 ], [ -77.28961, 38.89442 ], [ -77.28954, 38.89401 ], [ -77.29029, 38.89337 ], [ -77.28903, 38.8938 ], [ -77.2886, 38.89356 ], [ -77.28851, 38.89315 ], [ -77.28958, 38.89244 ], [ -77.28919, 38.89163 ], [ -77.2895, 38.8913 ] ], [ [ -77.28378, 38.90001 ], [ -77.28357, 38.89936 ], [ -77.28296, 38.89971 ], [ -77.28321, 38.90014 ], [ -77.28378, 38.90001 ] ], [ [ -77.27968, 38.89856 ], [ -77.28135, 38.89757 ], [ -77.28186, 38.89769 ], [ -77.28246, 38.89865 ], [ -77.28279, 38.89847 ], [ -77.28173, 38.89708 ], [ -77.2825, 38.89661 ], [ -77.28392, 38.89785 ], [ -77.2843, 38.89766 ], [ -77.28291, 38.89604 ], [ -77.2817, 38.89605 ], [ -77.28208, 38.89517 ], [ -77.28054, 38.89343 ], [ -77.27959, 38.89379 ], [ -77.27797, 38.89229 ], [ -77.27661, 38.89356 ], [ -77.27764, 38.89579 ], [ -77.27721, 38.8967 ], [ -77.27774, 38.89748 ], [ -77.27792, 38.89974 ], [ -77.28042, 38.89964 ], [ -77.27968, 38.89856 ] ], [ [ -77.29097, 38.90156 ], [ -77.29044, 38.90109 ], [ -77.28966, 38.90143 ], [ -77.28973, 38.9019 ], [ -77.28731, 38.90309 ], [ -77.28749, 38.90341 ], [ -77.29097, 38.90156 ] ], [ [ -77.29206, 38.89953 ], [ -77.29208, 38.89938 ], [ -77.29181, 38.89935 ], [ -77.29206, 38.89953 ] ], [ [ -77.2867, 38.89614 ], [ -77.28576, 38.89599 ], [ -77.28495, 38.89514 ], [ -77.28404, 38.89542 ], [ -77.28567, 38.89749 ], [ -77.2867, 38.89772 ], [ -77.2864, 38.89744 ], [ -77.2867, 38.89614 ] ], [ [ -77.28321, 38.89454 ], [ -77.28418, 38.89422 ], [ -77.2818, 38.89298 ], [ -77.28321, 38.89454 ] ], [ [ -77.29199, 38.89758 ], [ -77.29151, 38.89783 ], [ -77.29214, 38.8983 ], [ -77.29236, 38.89816 ], [ -77.29199, 38.89758 ] ], [ [ -77.29644, 38.89473 ], [ -77.29592, 38.89394 ], [ -77.29449, 38.89507 ], [ -77.29617, 38.8949 ], [ -77.29644, 38.89473 ] ], [ [ -77.29226, 38.89382 ], [ -77.29234, 38.89377 ], [ -77.29226, 38.89381 ], [ -77.29226, 38.89382 ] ], [ [ -77.29314, 38.89695 ], [ -77.29303, 38.89722 ], [ -77.29324, 38.89732 ], [ -77.29314, 38.89695 ] ], [ [ -77.29535, 38.90109 ], [ -77.29539, 38.90005 ], [ -77.29327, 38.90179 ], [ -77.29438, 38.90226 ], [ -77.29535, 38.90109 ] ], [ [ -77.29225, 38.90103 ], [ -77.29319, 38.90021 ], [ -77.29208, 38.90089 ], [ -77.29225, 38.90103 ] ], [ [ -77.28657, 38.8989 ], [ -77.28694, 38.89974 ], [ -77.2878, 38.89949 ], [ -77.28824, 38.89973 ], [ -77.28769, 38.90077 ], [ -77.28938, 38.9003 ], [ -77.28772, 38.89912 ], [ -77.28657, 38.8989 ] ], [ [ -77.2818, 38.90188 ], [ -77.28117, 38.90071 ], [ -77.27956, 38.90164 ], [ -77.28071, 38.90148 ], [ -77.2818, 38.90188 ] ], [ [ -77.27646, 38.8986 ], [ -77.27578, 38.89863 ], [ -77.27524, 38.89933 ], [ -77.27568, 38.89983 ], [ -77.27654, 38.89979 ], [ -77.27646, 38.8986 ] ], [ [ -77.27623, 38.89594 ], [ -77.27596, 38.89574 ], [ -77.27622, 38.89595 ], [ -77.27623, 38.89594 ] ], [ [ -77.27567, 38.89441 ], [ -77.27494, 38.89468 ], [ -77.2751, 38.89488 ], [ -77.27567, 38.89441 ] ], [ [ -77.27951, 38.89146 ], [ -77.27894, 38.89151 ], [ -77.27987, 38.89247 ], [ -77.28003, 38.89238 ], [ -77.27951, 38.89146 ] ], [ [ -77.27648, 38.90087 ], [ -77.27565, 38.90091 ], [ -77.27607, 38.90112 ], [ -77.27605, 38.90169 ], [ -77.27667, 38.90168 ], [ -77.27648, 38.90087 ] ], [ [ -77.2787, 38.90079 ], [ -77.278, 38.90082 ], [ -77.27802, 38.90119 ], [ -77.27829, 38.90103 ], [ -77.2787, 38.90079 ] ], [ [ -77.27473, 38.89926 ], [ -77.27433, 38.89869 ], [ -77.27438, 38.89941 ], [ -77.27473, 38.89926 ] ], [ [ -77.27552, 38.90092 ], [ -77.27448, 38.90096 ], [ -77.27454, 38.9016 ], [ -77.27552, 38.90092 ] ], [ [ -77.27456, 38.9032 ], [ -77.27524, 38.90281 ], [ -77.27457, 38.90284 ], [ -77.27456, 38.9032 ] ] ] } },
{ "type": "Feature", "properties": { "variant": "T0", "miles": 1.5 }, "geometry": { "type": "Polygon", "coordinates": [ [ [ -77.2955, 38.89116 ], [ -77.29478, 38.89188 ], [ -77.29492, 38.89248 ], [ -77.29557, 38.89203 ], [ -77.29608, 38.89213 ], [ -77.29624, 38.89288 ], [ -77.29785, 38.89367 ], [ -77.29817, 38.894 ], [ -77.29779, 38.89499 ], [ -77.29849, 38.89589 ], [ -77.29706, 38.89689 ], [ -77.2949, 38.89713 ], [ -77.2949, 38.89777 ], [ -77.29565, 38.89853 ], [ -77.29865, 38.8969 ], [ -77.2996, 38.89707 ], [ -77.29938, 38.8979 ], [ -77.29649, 38.89939 ], [ -77.29693, 38.90092 ], [ -77.2977, 38.90087 ], [ -77.298, 38.90121 ], [ -77.29745, 38.90216 ], [ -77.29762, 38.90292 ], [ -77.29914, 38.90258 ], [ -77.29899, 38.9021 ], [ -77.29981, 38.90169 ], [ -77.30105, 38.90285 ], [ -77.30162, 38.90264 ], [ -77.29959, 38.90132 ], [ -77.30014, 38.90069 ], [ -77.30282, 38.90201 ], [ -77.3032, 38.90043 ], [ -77.30371, 38.9003 ], [ -77.30434, 38.90089 ], [ -77.3039, 38.90312 ], [ -77.29859, 38.90488 ], [ -77.2972, 38.90467 ], [ -77.29714, 38.90537 ], [ -77.29826, 38.90533 ], [ -77.29983, 38.90668 ], [ -77.30042, 38.90825 ], [ -77.3002, 38.90869 ], [ -77.29918, 38.90864 ], [ -77.29714, 38.90931 ], [ -77.29699, 38.91002 ], [ -77.29591, 38.91016 ], [ -77.29547, 38.91065 ], [ -77.29455, 38.91039 ], [ -77.29439, 38.90955 ], [ -77.29429, 38.91061 ], [ -77.29358, 38.91113 ], [ -77.2931, 38.91096 ], [ -77.29292, 38.91028 ], [ -77.29177, 38.91066 ], [ -77.29131, 38.91046 ], [ -77.29141, 38.9097 ], [ -77.29263, 38.90915 ], [ -77.29181, 38.90927 ], [ -77.29066, 38.91047 ], [ -77.29013, 38.91049 ], [ -77.2893, 38.90839 ], [ -77.29022, 38.90813 ], [ -77.29075, 38.90852 ], [ -77.29067, 38.90771 ], [ -77.28833, 38.90749 ], [ -77.28792, 38.90695 ], [ -77.288, 38.90587 ], [ -77.28707, 38.90586 ], [ -77.2869, 38.90443 ], [ -77.28593, 38.90315 ], [ -77.28653, 38.90138 ], [ -77.28527, 38.89935 ], [ -77.28526, 38.89853 ], [ -77.28472, 38.89873 ], [ -77.28537, 38.90059 ], [ -77.28413, 38.90116 ], [ -77.28455, 38.90175 ], [ -77.28559, 38.90194 ], [ -77.28495, 38.90494 ], [ -77.28405, 38.90525 ], [ -77.28359, 38.90475 ], [ -77.283, 38.90524 ], [ -77.28374, 38.90529 ], [ -77.28397, 38.90567 ], [ -77.28221, 38.90745 ], [ -77.28308, 38.90829 ], [ -77.28286, 38.9072 ], [ -77.28466, 38.907 ], [ -77.28526, 38.90746 ], [ -77.28537, 38.90685 ], [ -77.28634, 38.90673 ], [ -77.28664, 38.90748 ], [ -77.28625, 38.90842 ], [ -77.28472, 38.9091 ], [ -77.2871, 38.91066 ], [ -77.28707, 38.91143 ], [ -77.28658, 38.91158 ], [ -77.28477, 38.91036 ], [ -77.28374, 38.91139 ], [ -77.2828, 38.91154 ], [ -77.28199, 38.9109 ], [ -77.2824, 38.91035 ], [ -77.28081, 38.91055 ], [ -77.28014, 38.90937 ], [ -77.28018, 38.91081 ], [ -77.27948, 38.91149 ], [ -77.27815, 38.91194 ], [ -77.27819, 38.91257 ], [ -77.27603, 38.91271 ], [ -77.27566, 38.91239 ], [ -77.27568, 38.91118 ], [ -77.27323, 38.91024 ], [ -77.2732, 38.90961 ], [ -77.27207, 38.90849 ], [ -77.27181, 38.90731 ], [ -77.26855, 38.9063 ], [ -77.26721, 38.90513 ], [ -77.26644, 38.90552 ], [ -77.26595, 38.90537 ], [ -77.26442, 38.90422 ], [ -77.26444, 38.90339 ], [ -77.26344, 38.90273 ], [ -77.26352, 38.90232 ], [ -77.26394, 38.90207 ], [ -77.26539, 38.90248 ], [ -77.26452, 38.90158 ], [ -77.26563, 38.90047 ], [ -77.26517, 38.90003 ], [ -77.26545, 38.89956 ], [ -77.26451, 38.89862 ], [ -77.26582, 38.89735 ], [ -77.26607, 38.89635 ], [ -77.26521, 38.89596 ], [ -77.26496, 38.89522 ], [ -77.26538, 38.89497 ], [ -77.26639, 38.89525 ], [ -77.26717, 38.89244 ], [ -77.26774, 38.89181 ], [ -77.2675, 38.89114 ], [ -77.26791, 38.89088 ], [ -77.26898, 38.89117 ], [ -77.2702, 38.89054 ], [ -77.26955, 38.88847 ], [ -77.27088, 38.8876 ], [ -77.27183, 38.88751 ], [ -77.27274, 38.88914 ], [ -77.27535, 38.88715 ], [ -77.27651, 38.88713 ], [ -77.27849, 38.88606 ], [ -77.27859, 38.88488 ], [ -77.27903, 38.88465 ], [ -77.27983, 38.88506 ], [ -77.2797, 38.88396 ], [ -77.27868, 38.88372 ], [ -77.27819, 38.88303 ], [ -77.27856, 38.88245 ], [ -77.27817, 38.88134 ], [ -77.27841, 38.88097 ], [ -77.27935, 38.88088 ], [ -77.27929, 38.87794 ], [ -77.27978, 38.87779 ], [ -77.28046, 38.87834 ], [ -77.28083, 38.88165 ], [ -77.28481, 38.88137 ], [ -77.28533, 38.88145 ], [ -77.28555, 38.88204 ], [ -77.28888, 38.88211 ], [ -77.28936, 38.88228 ], [ -77.28952, 38.88308 ], [ -77.28921, 38.88351 ], [ -77.2885, 38.8835 ], [ -77.28857, 38.88377 ], [ -77.29237, 38.88231 ], [ -77.29338, 38.88244 ], [ -77.29333, 38.88329 ], [ -77.28989, 38.8846 ], [ -77.29024, 38.88543 ], [ -77.28966, 38.887 ], [ -77.29169, 38.88971 ], [ -77.29338, 38.89031 ], [ -77.29395, 38.88992 ], [ -77.29445, 38.89005 ], [ -77.2955, 38.89116 ] ], [ [ -77.28333, 38.91013 ], [ -77.28356, 38.90984 ], [ -77.28274, 38.9103 ], [ -77.28333, 38.91013 ] ], [ [ -77.28196, 38.90899 ], [ -77.28176, 38.90883 ], [ -77.28191, 38.90929 ], [ -77.28241, 38.90924 ], [ -77.28196, 38.90899 ] ], [ [ -77.28143, 38.90454 ], [ -77.28118, 38.90473 ], [ -77.28144, 38.90488 ], [ -77.28173, 38.90468 ], [ -77.28143, 38.90454 ] ], [ [ -77.27846, 38.90229 ], [ -77.27835, 38.90236 ], [ -77.27872, 38.90289 ], [ -77.2801, 38.90403 ], [ -77.27846, 38.90229 ] ], [ [ -77.28086, 38.90269 ], [ -77.28051, 38.90264 ], [ -77.28112, 38.90329 ], [ -77.28086, 38.90269 ] ], [ [ -77.28071, 38.90148 ], [ -77.2818, 38.90188 ], [ -77.28117, 38.90071 ], [ -77.27956, 38.90164 ], [ -77.28071, 38.90148 ] ], [ [ -77.27968, 38.89856 ], [ -77.27996, 38.89821 ], [ -77.28075, 38.89825 ], [ -77.28089, 38.89777 ], [ -77.28186, 38.89769 ], [ -77.28246, 38.89865 ], [ -77.28279, 38.89847 ], [ -77.28187, 38.89748 ], [ -77.28199, 38.89672 ], [ -77.28296, 38.89682 ], [ -77.28392, 38.89785 ], [ -77.28428, 38.8976 ], [ -77.28291, 38.89604 ], [ -77.28058, 38.89638 ], [ -77.28004, 38.89615 ], [ -77.27721, 38.8929 ], [ -77.27661, 38.89356 ], [ -77.27831, 38.89602 ], [ -77.27721, 38.8967 ], [ -77.27774, 38.89748 ], [ -77.27792, 38.89974 ], [ -77.28038, 38.89959 ], [ -77.27968, 38.89856 ] ], [ [ -77.2796, 38.89152 ], [ -77.27907, 38.8914 ], [ -77.27894, 38.89151 ], [ -77.27988, 38.89247 ], [ -77.2796, 38.89152 ] ], [ [ -77.28041, 38.88794 ], [ -77.27963, 38.88748 ], [ -77.27912, 38.88788 ], [ -77.27846, 38.8876 ], [ -77.27769, 38.88781 ], [ -77.27937, 38.88945 ], [ -77.28045, 38.88859 ], [ -77.28041, 38.88794 ] ], [ [ -77.27984, 38.8851 ], [ -77.27977, 38.88537 ], [ -77.27986, 38.88532 ], [ -77.27984, 38.8851 ] ], [ [ -77.29188, 38.90535 ], [ -77.29191, 38.90457 ], [ -77.29262, 38.90405 ], [ -77.29329, 38.9046 ], [ -77.29326, 38.9054 ], [ -77.29403, 38.90544 ], [ -77.29441, 38.90348 ], [ -77.29199, 38.90233 ], [ -77.28887, 38.90395 ], [ -77.29112, 38.90432 ], [ -77.29106, 38.90508 ], [ -77.28825, 38.90496 ], [ -77.2883, 38.90541 ], [ -77.29188, 38.90535 ] ], [ [ -77.28778, 38.90322 ], [ -77.29097, 38.90156 ], [ -77.29044, 38.90109 ], [ -77.28972, 38.9014 ], [ -77.28973, 38.9019 ], [ -77.28731, 38.90309 ], [ -77.28778, 38.90322 ] ], [ [ -77.28938, 38.9003 ], [ -77.28772, 38.89912 ], [ -77.2866, 38.89882 ], [ -77.28694, 38.89974 ], [ -77.2878, 38.89949 ], [ -77.28824, 38.89973 ], [ -77.28769, 38.90077 ], [ -77.28938, 38.9003 ] ], [ [ -77.28969, 38.89521 ], [ -77.28889, 38.89506 ], [ -77.2827, 38.88852 ], [ -77.28242, 38.88874 ], [ -77.28881, 38.89558 ], [ -77.28969, 38.89521 ] ], [ [ -77.29112, 38.89443 ], [ -77.29008, 38.89467 ], [ -77.29014, 38.89497 ], [ -77.29112, 38.89443 ] ], [ [ -77.29029, 38.89337 ], [ -77.28937, 38.89375 ], [ -77.28958, 38.89397 ], [ -77.29029, 38.89337 ] ], [ [ -77.28947, 38.8923 ], [ -77.28847, 38.89281 ], [ -77.28865, 38.893 ], [ -77.28947, 38.8923 ] ], [ [ -77.28843, 38.89144 ], [ -77.28752, 38.89179 ], [ -77.28773, 38.89201 ], [ -77.28843, 38.89144 ] ], [ [ -77.28762, 38.89056 ], [ -77.28656, 38.89079 ], [ -77.28682, 38.89106 ], [ -77.28762, 38.89056 ] ], [ [ -77.28933, 38.88877 ], [ -77.2889, 38.88821 ], [ -77.28819, 38.88862 ], [ -77.28933, 38.88877 ] ], [ [ -77.28841, 38.88753 ], [ -77.28866, 38.88509 ], [ -77.2862, 38.88606 ], [ -77.2865, 38.88644 ], [ -77.28731, 38.88624 ], [ -77.28774, 38.88648 ], [ -77.28783, 38.88688 ], [ -77.28722, 38.88737 ], [ -77.28841, 38.88753 ] ], [ [ -77.2935, 38.892 ], [ -77.29372, 38.89193 ], [ -77.29361, 38.8919 ], [ -77.2935, 38.892 ] ], [ [ -77.29478, 38.89267 ], [ -77.29467, 38.89275 ], [ -77.29477, 38.89275 ], [ -77.29478, 38.89267 ] ], [ [ -77.29413, 38.90787 ], [ -77.29205, 38.90777 ], [ -77.29204, 38.90807 ], [ -77.29421, 38.90847 ], [ -77.29413, 38.90787 ] ], [ [ -77.29309, 38.90648 ], [ -77.2929, 38.90672 ], [ -77.29394, 38.90677 ], [ -77.29396, 38.90652 ], [ -77.29309, 38.90648 ] ], [ [ -77.29331, 38.90181 ], [ -77.29335, 38.90173 ], [ -77.29327, 38.90179 ], [ -77.29331, 38.90181 ] ], [ [ -77.29559, 38.90062 ], [ -77.29539, 38.90005 ], [ -77.29432, 38.90089 ], [ -77.29559, 38.90062 ] ], [ [ -77.29314, 38.89695 ], [ -77.29274, 38.89717 ], [ -77.29324, 38.89732 ], [ -77.29314, 38.89695 ] ], [ [ -77.29562, 38.90401 ], [ -77.29542, 38.90529 ], [ -77.29576, 38.90531 ], [ -77.29562, 38.90401 ] ], [ [ -77.29459, 38.89505 ], [ -77.2955, 38.89496 ], [ -77.29526, 38.89465 ], [ -77.29459, 38.89505 ] ], [ [ -77.29674, 38.90317 ], [ -77.29684, 38.90311 ], [ -77.29673, 38.90308 ], [ -77.29674, 38.90317 ] ], [ [ -77.29937, 38.90347 ], [ -77.29979, 38.90332 ], [ -77.29959, 38.90309 ], [ -77.29937, 38.90347 ] ], [ [ -77.29569, 38.90639 ], [ -77.29535, 38.90637 ], [ -77.29583, 38.90836 ], [ -77.29645, 38.90831 ], [ -77.29569, 38.90639 ] ], [ [ -77.29707, 38.90645 ], [ -77.29706, 38.90716 ], [ -77.2978, 38.90788 ], [ -77.29786, 38.90668 ], [ -77.29707, 38.90645 ] ], [ [ -77.29136, 38.89105 ], [ -77.29076, 38.89188 ], [ -77.29171, 38.89142 ], [ -77.29136, 38.89105 ] ], [ [ -77.28981, 38.88938 ], [ -77.28912, 38.88979 ], [ -77.29001, 38.89094 ], [ -77.29098, 38.89077 ], [ -77.29136, 38.89105 ], [ -77.28981, 38.88938 ] ], [ [ -77.29308, 38.89337 ], [ -77.29359, 38.89309 ], [ -77.29331, 38.89311 ], [ -77.29308, 38.89337 ] ], [ [ -77.29222, 38.89245 ], [ -77.29147, 38.89281 ], [ -77.29154, 38.89289 ], [ -77.29222, 38.89245 ] ], [ [ -77.29206, 38.89953 ], [ -77.29232, 38.89937 ], [ -77.29219, 38.89938 ], [ -77.29206, 38.89953 ] ], [ [ -77.29236, 38.89816 ], [ -77.29199, 38.89758 ], [ -77.29151, 38.89783 ], [ -77.29236, 38.89816 ] ], [ [ -77.29319, 38.90021 ], [ -77.29208, 38.90089 ], [ -77.29225, 38.90103 ], [ -77.29319, 38.90021 ] ], [ [ -77.28934, 38.90631 ], [ -77.28932, 38.90657 ], [ -77.29122, 38.90665 ], [ -77.29141, 38.90641 ], [ -77.28934, 38.90631 ] ], [ [ -77.28257, 38.88646 ], [ -77.2828, 38.88673 ], [ -77.2839, 38.88588 ], [ -77.28257, 38.88646 ] ], [ [ -77.28469, 38.88797 ], [ -77.28499, 38.88763 ], [ -77.28592, 38.88778 ], [ -77.28505, 38.88665 ], [ -77.28367, 38.88773 ], [ -77.28522, 38.88936 ], [ -77.28469, 38.88797 ] ], [ [ -77.28676, 38.88398 ], [ -77.28701, 38.88393 ], [ -77.28694, 38.88391 ], [ -77.28676, 38.88398 ] ], [ [ -77.28511, 38.8847 ], [ -77.28482, 38.88435 ], [ -77.28471, 38.8844 ], [ -77.28511, 38.8847 ] ], [ [ -77.28504, 38.89331 ], [ -77.28144, 38.88953 ], [ -77.28168, 38.89018 ], [ -77.28078, 38.8909 ], [ -77.28154, 38.89048 ], [ -77.28242, 38.89082 ], [ -77.28226, 38.8914 ], [ -77.28131, 38.89197 ], [ -77.28313, 38.89154 ], [ -77.28322, 38.89246 ], [ -77.28515, 38.89346 ], [ -77.28691, 38.89539 ], [ -77.28676, 38.89609 ], [ -77.28749, 38.8959 ], [ -77.28504, 38.89331 ] ], [ [ -77.28381, 38.90007 ], [ -77.28357, 38.89936 ], [ -77.28296, 38.89971 ], [ -77.28381, 38.90007 ] ], [ [ -77.28418, 38.89422 ], [ -77.2818, 38.89298 ], [ -77.28321, 38.89454 ], [ -77.28418, 38.89422 ] ], [ [ -77.28495, 38.89514 ], [ -77.28404, 38.89542 ], [ -77.28567, 38.89749 ], [ -77.2867, 38.89772 ], [ -77.2864, 38.89744 ], [ -77.2867, 38.89614 ], [ -77.2862, 38.89622 ], [ -77.28495, 38.89514 ] ], [ [ -77.28495, 38.90797 ], [ -77.28476, 38.90802 ], [ -77.28485, 38.90801 ], [ -77.28495, 38.90797 ] ], [ [ -77.28243, 38.90379 ], [ -77.28261, 38.90389 ], [ -77.28264, 38.90379 ], [ -77.28243, 38.90379 ] ], [ [ -77.28228, 38.90574 ], [ -77.28103, 38.90658 ], [ -77.28122, 38.90669 ], [ -77.28228, 38.90574 ] ], [ [ -77.28101, 38.8834 ], [ -77.28189, 38.8827 ], [ -77.28129, 38.88273 ], [ -77.28095, 38.88273 ], [ -77.28101, 38.8834 ] ], [ [ -77.28153, 38.88404 ], [ -77.28105, 38.88367 ], [ -77.28111, 38.88416 ], [ -77.28117, 38.88463 ], [ -77.28153, 38.88404 ] ], [ [ -77.28105, 38.88737 ], [ -77.28113, 38.88731 ], [ -77.28103, 38.8873 ], [ -77.28105, 38.88737 ] ], [ [ -77.27352, 38.90777 ], [ -77.27332, 38.90766 ], [ -77.2734, 38.90814 ], [ -77.27352, 38.90777 ] ], [ [ -77.27202, 38.90161 ], [ -77.27188, 38.90108 ], [ -77.27163, 38.9014 ], [ -77.27166, 38.90189 ], [ -77.27315, 38.90163 ], [ -77.27202, 38.90161 ] ], [ [ -77.27295, 38.89877 ], [ -77.27231, 38.9 ], [ -77.27303, 38.89997 ], [ -77.27295, 38.89877 ] ], [ [ -77.27414, 38.89571 ], [ -77.27394, 38.89547 ], [ -77.27313, 38.89604 ], [ -77.27366, 38.89621 ], [ -77.27414, 38.89571 ] ], [ [ -77.27485, 38.89236 ], [ -77.27485, 38.89306 ], [ -77.27881, 38.88992 ], [ -77.27827, 38.88981 ], [ -77.27778, 38.89037 ], [ -77.27687, 38.8902 ], [ -77.27648, 38.89057 ], [ -77.27495, 38.89003 ], [ -77.27422, 38.8904 ], [ -77.27358, 38.88999 ], [ -77.27322, 38.8902 ], [ -77.27417, 38.89196 ], [ -77.27485, 38.89236 ] ], [ [ -77.27756, 38.9099 ], [ -77.2779, 38.90947 ], [ -77.27739, 38.90882 ], [ -77.27679, 38.90908 ], [ -77.27493, 38.90802 ], [ -77.27571, 38.90925 ], [ -77.27504, 38.9096 ], [ -77.27635, 38.91023 ], [ -77.27699, 38.90978 ], [ -77.27756, 38.9099 ] ], [ [ -77.27693, 38.90697 ], [ -77.27709, 38.90714 ], [ -77.27714, 38.90706 ], [ -77.27693, 38.90697 ] ], [ [ -77.27671, 38.90662 ], [ -77.27659, 38.90689 ], [ -77.27683, 38.90691 ], [ -77.27671, 38.90662 ] ], [ [ -77.27662, 38.9063 ], [ -77.2767, 38.90642 ], [ -77.27671, 38.90636 ], [ -77.27662, 38.9063 ] ], [ [ -77.27641, 38.9061 ], [ -77.2764, 38.90612 ], [ -77.27644, 38.90613 ], [ -77.27641, 38.9061 ] ], [ [ -77.27754, 38.90346 ], [ -77.27742, 38.90347 ], [ -77.27761, 38.9038 ], [ -77.27754, 38.90346 ] ], [ [ -77.27685, 38.90331 ], [ -77.27687, 38.90334 ], [ -77.27688, 38.90334 ], [ -77.27685, 38.90331 ] ], [ [ -77.27565, 38.90091 ], [ -77.27607, 38.90112 ], [ -77.27605, 38.90169 ], [ -77.27667, 38.90168 ], [ -77.27648, 38.90087 ], [ -77.27565, 38.90091 ] ], [ [ -77.27524, 38.89933 ], [ -77.27568, 38.89983 ], [ -77.27654, 38.89979 ], [ -77.27646, 38.8986 ], [ -77.27593, 38.89862 ], [ -77.27524, 38.89933 ] ], [ [ -77.27829, 38.90103 ], [ -77.2787, 38.90079 ], [ -77.278, 38.90082 ], [ -77.27829, 38.90103 ] ], [ [ -77.27875, 38.90452 ], [ -77.27858, 38.90489 ], [ -77.27885, 38.90467 ], [ -77.27875, 38.90452 ] ], [ [ -77.27424, 38.89762 ], [ -77.27629, 38.89752 ], [ -77.27505, 38.89656 ], [ -77.27424, 38.89762 ] ], [ [ -77.27443, 38.8922 ], [ -77.27446, 38.89222 ], [ -77.27447, 38.89221 ], [ -77.27443, 38.8922 ] ], [ [ -77.2751, 38.89488 ], [ -77.27551, 38.89423 ], [ -77.27494, 38.89468 ], [ -77.2751, 38.89488 ] ], [ [ -77.27596, 38.89574 ], [ -77.27622, 38.89595 ], [ -77.27623, 38.89594 ], [ -77.27596, 38.89574 ] ], [ [ -77.27615, 38.90431 ], [ -77.27621, 38.90418 ], [ -77.27614, 38.90424 ], [ -77.27615, 38.90431 ] ], [ [ -77.27454, 38.9016 ], [ -77.27552, 38.90092 ], [ -77.27507, 38.90094 ], [ -77.27448, 38.90096 ], [ -77.27454, 38.9016 ] ], [ [ -77.27464, 38.89923 ], [ -77.27433, 38.89869 ], [ -77.27438, 38.89941 ], [ -77.27464, 38.89923 ] ], [ [ -77.27457, 38.90284 ], [ -77.27456, 38.9032 ], [ -77.27524, 38.90281 ], [ -77.27457, 38.90284 ] ], [ [ -77.27596, 38.90709 ], [ -77.27571, 38.90706 ], [ -77.27586, 38.9072 ], [ -77.27596, 38.90709 ] ], [ [ -77.27087, 38.9044 ], [ -77.27018, 38.90465 ], [ -77.27166, 38.90577 ], [ -77.27087, 38.9044 ] ], [ [ -77.27095, 38.90408 ], [ -77.27096, 38.90418 ], [ -77.27102, 38.9041 ], [ -77.27095, 38.90408 ] ], [ [ -77.27169, 38.89832 ], [ -77.27267, 38.89725 ], [ -77.27216, 38.89681 ], [ -77.27035, 38.89825 ], [ -77.27169, 38.89832 ] ], [ [ -77.26989, 38.89621 ], [ -77.26785, 38.89505 ], [ -77.26759, 38.89596 ], [ -77.26818, 38.89608 ], [ -77.26825, 38.89671 ], [ -77.26934, 38.89752 ], [ -77.26993, 38.89704 ], [ -77.26989, 38.89621 ] ], [ [ -77.27094, 38.89392 ], [ -77.26941, 38.89286 ], [ -77.26935, 38.89228 ], [ -77.26851, 38.89273 ], [ -77.26821, 38.89354 ], [ -77.26886, 38.89288 ], [ -77.26939, 38.89289 ], [ -77.26975, 38.89319 ], [ -77.26944, 38.89406 ], [ -77.26993, 38.89414 ], [ -77.27021, 38.89486 ], [ -77.27094, 38.89392 ] ], [ [ -77.27073, 38.89156 ], [ -77.26996, 38.89196 ], [ -77.27096, 38.8925 ], [ -77.27131, 38.8923 ], [ -77.27073, 38.89156 ] ], [ [ -77.27233, 38.89135 ], [ -77.27297, 38.89214 ], [ -77.27307, 38.89205 ], [ -77.27233, 38.89135 ] ], [ [ -77.2724, 38.89422 ], [ -77.27239, 38.89423 ], [ -77.27244, 38.89425 ], [ -77.2724, 38.89422 ] ], [ [ -77.27302, 38.89452 ], [ -77.27268, 38.89442 ], [ -77.2728, 38.89468 ], [ -77.27302, 38.89452 ] ], [ [ -77.27205, 38.90306 ], [ -77.27212, 38.90295 ], [ -77.27176, 38.90296 ], [ -77.27205, 38.90306 ] ], [ [ -77.26721, 38.89793 ], [ -77.2677, 38.89882 ], [ -77.26837, 38.89829 ], [ -77.26725, 38.89745 ], [ -77.26721, 38.89793 ] ], [ [ -77.26882, 38.90064 ], [ -77.26924, 38.90129 ], [ -77.26976, 38.90085 ], [ -77.26942, 38.90024 ], [ -77.26882, 38.90064 ] ], [ [ -77.26619, 38.90157 ], [ -77.26626, 38.90163 ], [ -77.26695, 38.90096 ], [ -77.26619, 38.90157 ] ], [ [ -77.26922, 38.90352 ], [ -77.26897, 38.90372 ], [ -77.26952, 38.9041 ], [ -77.26922, 38.90352 ] ] ] } },
{ "type": "Feature", "properties": { "variant": "T2s", "miles": 0.5 }, "geometry": { "type": "Polygon", "coordinates": [ [ [ -77.28349, 38.89273 ], [ -77.28515, 38.89346 ], [ -77.28691, 38.89539 ], [ -77.28701, 38.8958 ], [ -77.2862, 38.89622 ], [ -77.28495, 38.89514 ], [ -77.28404, 38.89542 ], [ -77.28567, 38.89749 ], [ -77.2867, 38.89772 ], [ -77.28645, 38.89703 ], [ -77.28685, 38.89676 ], [ -77.28825, 38.89715 ], [ -77.28967, 38.89656 ], [ -77.29022, 38.89719 ], [ -77.28823, 38.89909 ], [ -77.2866, 38.89882 ], [ -77.28694, 38.89974 ], [ -77.2878, 38.89949 ], [ -77.28824, 38.89973 ], [ -77.28803, 38.90048 ], [ -77.28703, 38.901 ], [ -77.28608, 38.90084 ], [ -77.28524, 38.89853 ], [ -77.28472, 38.89873 ], [ -77.28539, 38.90023 ], [ -77.2852, 38.90081 ], [ -77.28218, 38.90159 ], [ -77.28145, 38.90131 ], [ -77.28117, 38.90069 ], [ -77.28025, 38.90056 ], [ -77.28041, 38.8998 ], [ -77.28134, 38.89929 ], [ -77.2808, 38.89856 ], [ -77.28089, 38.89777 ], [ -77.28186, 38.89769 ], [ -77.28246, 38.89865 ], [ -77.28279, 38.89847 ], [ -77.28173, 38.89708 ], [ -77.2825, 38.89661 ], [ -77.28392, 38.89785 ], [ -77.28428, 38.8976 ], [ -77.28291, 38.89604 ], [ -77.2817, 38.89605 ], [ -77.28208, 38.89517 ], [ -77.28054, 38.89343 ], [ -77.27978, 38.89371 ], [ -77.27917, 38.89311 ], [ -77.28003, 38.89238 ], [ -77.27977, 38.89135 ], [ -77.28016, 38.89107 ], [ -77.28069, 38.89109 ], [ -77.28131, 38.89197 ], [ -77.28313, 38.89154 ], [ -77.28349, 38.89273 ] ], [ [ -77.28418, 38.89424 ], [ -77.28195, 38.89297 ], [ -77.2818, 38.89298 ], [ -77.28321, 38.89454 ], [ -77.28418, 38.89424 ] ], [ [ -77.28378, 38.90001 ], [ -77.28357, 38.89936 ], [ -77.28296, 38.89971 ], [ -77.28321, 38.90014 ], [ -77.28378, 38.90001 ] ] ] } },
{ "type": "Feature", "properties": { "variant": "T2s", "miles": 1.0 }, "geometry": { "type": "Polygon", "coordinates": [ [ [ -77.29308, 38.89337 ], [ -77.29557, 38.89203 ], [ -77.29608, 38.89213 ], [ -77.29624, 38.89288 ], [ -77.2975, 38.89356 ], [ -77.29785, 38.8946 ], [ -77.29692, 38.89582 ], [ -77.29746, 38.89663 ], [ -77.29464, 38.89727 ], [ -77.29668, 38.89965 ], [ -77.29684, 38.9012 ], [ -77.29755, 38.90175 ], [ -77.29702, 38.90239 ], [ -77.29613, 38.90213 ], [ -77.29488, 38.90349 ], [ -77.29199, 38.90233 ], [ -77.28887, 38.90395 ], [ -77.29112, 38.90432 ], [ -77.29106, 38.90508 ], [ -77.28825, 38.90496 ], [ -77.28805, 38.90586 ], [ -77.28707, 38.90586 ], [ -77.2869, 38.90443 ], [ -77.28593, 38.90315 ], [ -77.28653, 38.90138 ], [ -77.28527, 38.89935 ], [ -77.28526, 38.89853 ], [ -77.28472, 38.89873 ], [ -77.28537, 38.90059 ], [ -77.28413, 38.90116 ], [ -77.28455, 38.90175 ], [ -77.28559, 38.90194 ], [ -77.28458, 38.90524 ], [ -77.28367, 38.90496 ], [ -77.28376, 38.90392 ], [ -77.28292, 38.90384 ], [ -77.28252, 38.90283 ], [ -77.28185, 38.90334 ], [ -77.28051, 38.90264 ], [ -77.28133, 38.90378 ], [ -77.28054, 38.90424 ], [ -77.27846, 38.90229 ], [ -77.27543, 38.90404 ], [ -77.27622, 38.9045 ], [ -77.27581, 38.90519 ], [ -77.27185, 38.90385 ], [ -77.27219, 38.90314 ], [ -77.27315, 38.90326 ], [ -77.27313, 38.90149 ], [ -77.27248, 38.90181 ], [ -77.27188, 38.90108 ], [ -77.27085, 38.90099 ], [ -77.27103, 38.8996 ], [ -77.27192, 38.89929 ], [ -77.27231, 38.9 ], [ -77.27303, 38.89997 ], [ -77.27308, 38.89782 ], [ -77.27629, 38.89752 ], [ -77.27441, 38.89604 ], [ -77.27333, 38.89437 ], [ -77.28474, 38.88545 ], [ -77.28537, 38.88534 ], [ -77.28589, 38.88599 ], [ -77.2813, 38.88964 ], [ -77.28168, 38.89018 ], [ -77.28077, 38.89087 ], [ -77.28206, 38.89051 ], [ -77.28239, 38.89123 ], [ -77.28131, 38.89197 ], [ -77.28313, 38.89154 ], [ -77.28322, 38.89246 ], [ -77.28515, 38.89346 ], [ -77.28691, 38.89539 ], [ -77.28676, 38.89609 ], [ -77.28776, 38.89597 ], [ -77.28802, 38.89555 ], [ -77.28891, 38.89564 ], [ -77.29112, 38.89443 ], [ -77.29002, 38.89468 ], [ -77.28961, 38.89442 ], [ -77.28954, 38.89401 ], [ -77.29029, 38.89337 ], [ -77.28903, 38.8938 ], [ -77.2886, 38.89356 ], [ -77.28851, 38.89315 ], [ -77.28958, 38.89244 ], [ -77.28919, 38.89163 ], [ -77.2895, 38.8913 ], [ -77.29045, 38.89149 ], [ -77.29154, 38.89289 ], [ -77.29279, 38.89246 ], [ -77.29322, 38.8927 ], [ -77.29308, 38.89337 ] ], [ [ -77.28378, 38.90001 ], [ -77.28357, 38.89936 ], [ -77.28296, 38.89971 ], [ -77.28321, 38.90014 ], [ -77.28378, 38.90001 ] ], [ [ -77.28038, 38.89959 ], [ -77.27968, 38.89856 ], [ -77.27996, 38.89821 ], [ -77.28075, 38.89825 ], [ -77.28089, 38.89777 ], [ -77.28186, 38.89769 ], [ -77.28246, 38.89865 ], [ -77.28279, 38.89847 ], [ -77.28187, 38.89748 ], [ -77.28199, 38.89672 ], [ -77.28296, 38.89682 ], [ -77.28392, 38.89785 ], [ -77.2843, 38.89766 ], [ -77.28291, 38.89604 ], [ -77.2817, 38.89605 ], [ -77.28208, 38.89517 ], [ -77.28054, 38.89343 ], [ -77.27959, 38.89379 ], [ -77.27797, 38.89229 ], [ -77.27661, 38.89356 ], [ -77.27764, 38.89579 ], [ -77.27721, 38.8967 ], [ -77.27774, 38.89748 ], [ -77.27792, 38.89974 ], [ -77.28038, 38.89959 ] ], [ [ -77.29097, 38.90156 ], [ -77.29044, 38.90109 ], [ -77.28966, 38.90143 ], [ -77.28973, 38.9019 ], [ -77.28731, 38.90309 ], [ -77.28749, 38.90341 ], [ -77.29097, 38.90156 ] ], [ [ -77.29206, 38.89953 ], [ -77.29208, 38.89938 ], [ -77.29181, 38.89935 ], [ -77.29206, 38.89953 ] ], [ [ -77.2867, 38.89614 ], [ -77.28576, 38.89599 ], [ -77.28495, 38.89514 ], [ -77.28404, 38.89542 ], [ -77.28567, 38.89749 ], [ -77.2867, 38.89772 ], [ -77.2864, 38.89744 ], [ -77.2867, 38.89614 ] ], [ [ -77.28321, 38.89454 ], [ -77.28418, 38.89422 ], [ -77.2818, 38.89298 ], [ -77.28321, 38.89454 ] ], [ [ -77.29199, 38.89758 ], [ -77.29151, 38.89783 ], [ -77.29214, 38.8983 ], [ -77.29236, 38.89816 ], [ -77.29199, 38.89758 ] ], [ [ -77.29644, 38.89473 ], [ -77.29592, 38.89394 ], [ -77.29449, 38.89507 ], [ -77.29617, 38.8949 ], [ -77.29644, 38.89473 ] ], [ [ -77.29226, 38.89382 ], [ -77.29234, 38.89377 ], [ -77.29226, 38.89381 ], [ -77.29226, 38.89382 ] ], [ [ -77.29314, 38.89695 ], [ -77.29303, 38.89722 ], [ -77.29324, 38.89732 ], [ -77.29314, 38.89695 ] ], [ [ -77.29552, 38.90087 ], [ -77.29539, 38.90005 ], [ -77.29327, 38.90179 ], [ -77.29438, 38.90226 ], [ -77.29552, 38.90087 ] ], [ [ -77.29208, 38.90089 ], [ -77.29289, 38.90064 ], [ -77.29319, 38.90021 ], [ -77.29208, 38.90089 ] ], [ [ -77.28657, 38.8989 ], [ -77.28694, 38.89974 ], [ -77.2878, 38.89949 ], [ -77.28824, 38.89973 ], [ -77.28769, 38.90077 ], [ -77.28938, 38.9003 ], [ -77.28772, 38.89912 ], [ -77.28657, 38.8989 ] ], [ [ -77.2818, 38.90188 ], [ -77.28117, 38.90071 ], [ -77.27956, 38.90164 ], [ -77.28071, 38.90148 ], [ -77.2818, 38.90188 ] ], [ [ -77.27802, 38.90119 ], [ -77.27829, 38.90103 ], [ -77.2787, 38.90079 ], [ -77.278, 38.90082 ], [ -77.27802, 38.90119 ] ], [ [ -77.27646, 38.8986 ], [ -77.27578, 38.89863 ], [ -77.27524, 38.89933 ], [ -77.27568, 38.89983 ], [ -77.27654, 38.89979 ], [ -77.27646, 38.8986 ] ], [ [ -77.27623, 38.89594 ], [ -77.27596, 38.89574 ], [ -77.27622, 38.89595 ], [ -77.27623, 38.89594 ] ], [ [ -77.27567, 38.89441 ], [ -77.27494, 38.89468 ], [ -77.2751, 38.89488 ], [ -77.27567, 38.89441 ] ], [ [ -77.27951, 38.89146 ], [ -77.27894, 38.89151 ], [ -77.27987, 38.89247 ], [ -77.28003, 38.89238 ], [ -77.27951, 38.89146 ] ], [ [ -77.27658, 38.90088 ], [ -77.27565, 38.90091 ], [ -77.27607, 38.90112 ], [ -77.27605, 38.90169 ], [ -77.27667, 38.90168 ], [ -77.27658, 38.90088 ] ], [ [ -77.27552, 38.90092 ], [ -77.27448, 38.90096 ], [ -77.27454, 38.9016 ], [ -77.27552, 38.90092 ] ], [ [ -77.27473, 38.89926 ], [ -77.27433, 38.89869 ], [ -77.27438, 38.89941 ], [ -77.27473, 38.89926 ] ], [ [ -77.27524, 38.90281 ], [ -77.27457, 38.90284 ], [ -77.27456, 38.9032 ], [ -77.27524, 38.90281 ] ] ] } },
{ "type": "Feature", "properties": { "variant": "T2s", "miles": 1.5 }, "geometry": { "type": "Polygon", "coordinates": [ [ [ -77.29273, 38.88234 ], [ -77.29358, 38.8827 ], [ -77.29352, 38.88312 ], [ -77.28989, 38.8846 ], [ -77.29024, 38.88543 ], [ -77.28967, 38.88706 ], [ -77.29169, 38.88971 ], [ -77.29338, 38.89031 ], [ -77.29395, 38.88992 ], [ -77.29445, 38.89005 ], [ -77.29466, 38.89072 ], [ -77.29523, 38.8908 ], [ -77.2955, 38.89116 ], [ -77.29478, 38.89188 ], [ -77.29492, 38.89248 ], [ -77.29557, 38.89203 ], [ -77.29608, 38.89213 ], [ -77.29624, 38.89288 ], [ -77.29817, 38.894 ], [ -77.29779, 38.89499 ], [ -77.29849, 38.89589 ], [ -77.29825, 38.89626 ], [ -77.2975, 38.89628 ], [ -77.29706, 38.89689 ], [ -77.29464, 38.89727 ], [ -77.29565, 38.89853 ], [ -77.29865, 38.8969 ], [ -77.2996, 38.89707 ], [ -77.29938, 38.8979 ], [ -77.29649, 38.89939 ], [ -77.29693, 38.90092 ], [ -77.2977, 38.90087 ], [ -77.298, 38.90121 ], [ -77.29745, 38.90216 ], [ -77.2978, 38.90261 ], [ -77.29627, 38.90339 ], [ -77.29543, 38.903 ], [ -77.29486, 38.90349 ], [ -77.29199, 38.90233 ], [ -77.28887, 38.90395 ], [ -77.29112, 38.90432 ], [ -77.29106, 38.90508 ], [ -77.28825, 38.90496 ], [ -77.28805, 38.90586 ], [ -77.28756, 38.90602 ], [ -77.28707, 38.90586 ], [ -77.2869, 38.90443 ], [ -77.28599, 38.90344 ], [ -77.28653, 38.90138 ], [ -77.28527, 38.89935 ], [ -77.28526, 38.89853 ], [ -77.28492, 38.89863 ], [ -77.28537, 38.90059 ], [ -77.28413, 38.90116 ], [ -77.28455, 38.90175 ], [ -77.28559, 38.90194 ], [ -77.28495, 38.90494 ], [ -77.28405, 38.90525 ], [ -77.28359, 38.90475 ], [ -77.283, 38.90524 ], [ -77.28374, 38.90529 ], [ -77.28397, 38.90567 ], [ -77.28221, 38.90745 ], [ -77.28308, 38.90829 ], [ -77.28286, 38.9072 ], [ -77.28466, 38.907 ], [ -77.28526, 38.90746 ], [ -77.28537, 38.90685 ], [ -77.28634, 38.90673 ], [ -77.28664, 38.90748 ], [ -77.28625, 38.90842 ], [ -77.28472, 38.9091 ], [ -77.2871, 38.91066 ], [ -77.28707, 38.91143 ], [ -77.2861, 38.91141 ], [ -77.28477, 38.91036 ], [ -77.28376, 38.91137 ], [ -77.2828, 38.91154 ], [ -77.28259, 38.91079 ], [ -77.28356, 38.90984 ], [ -77.28132, 38.91067 ], [ -77.28081, 38.91055 ], [ -77.28014, 38.90937 ], [ -77.2803, 38.91041 ], [ -77.27966, 38.91136 ], [ -77.27603, 38.91271 ], [ -77.27566, 38.91239 ], [ -77.27568, 38.91118 ], [ -77.27323, 38.91024 ], [ -77.2732, 38.90961 ], [ -77.27207, 38.90849 ], [ -77.27181, 38.90731 ], [ -77.26855, 38.9063 ], [ -77.26721, 38.90513 ], [ -77.26644, 38.90552 ], [ -77.26595, 38.90537 ], [ -77.26442, 38.90422 ], [ -77.26444, 38.90339 ], [ -77.26344, 38.90273 ], [ -77.26394, 38.90207 ], [ -77.26532, 38.90255 ], [ -77.26452, 38.90158 ], [ -77.26472, 38.9012 ], [ -77.26837, 38.89829 ], [ -77.26684, 38.89713 ], [ -77.26685, 38.89637 ], [ -77.26783, 38.89637 ], [ -77.26934, 38.89752 ], [ -77.26993, 38.89704 ], [ -77.26989, 38.89621 ], [ -77.26679, 38.8945 ], [ -77.26717, 38.89244 ], [ -77.26774, 38.89181 ], [ -77.2675, 38.89114 ], [ -77.26791, 38.89088 ], [ -77.26898, 38.89117 ], [ -77.2702, 38.89054 ], [ -77.26949, 38.88888 ], [ -77.26994, 38.88821 ], [ -77.27061, 38.88822 ], [ -77.2711, 38.8889 ], [ -77.27234, 38.8887 ], [ -77.27274, 38.88914 ], [ -77.27386, 38.88872 ], [ -77.27444, 38.88934 ], [ -77.27322, 38.8902 ], [ -77.27409, 38.89192 ], [ -77.27485, 38.89236 ], [ -77.27485, 38.89306 ], [ -77.2818, 38.88752 ], [ -77.28191, 38.88665 ], [ -77.28288, 38.88683 ], [ -77.28511, 38.88528 ], [ -77.29273, 38.88234 ] ], [ [ -77.27885, 38.90467 ], [ -77.27875, 38.90452 ], [ -77.27858, 38.90489 ], [ -77.27885, 38.90467 ] ], [ [ -77.2761, 38.90429 ], [ -77.27618, 38.90424 ], [ -77.27621, 38.90418 ], [ -77.2761, 38.90429 ] ], [ [ -77.27688, 38.90334 ], [ -77.27685, 38.90331 ], [ -77.27687, 38.90334 ], [ -77.27688, 38.90334 ] ], [ [ -77.27662, 38.90088 ], [ -77.27565, 38.90091 ], [ -77.27607, 38.90112 ], [ -77.27605, 38.90169 ], [ -77.27667, 38.90168 ], [ -77.27662, 38.90088 ] ], [ [ -77.27654, 38.89979 ], [ -77.27646, 38.8986 ], [ -77.27578, 38.89863 ], [ -77.27524, 38.89933 ], [ -77.27568, 38.89983 ], [ -77.27654, 38.89979 ] ], [ [ -77.27629, 38.89752 ], [ -77.27505, 38.89656 ], [ -77.27423, 38.89742 ], [ -77.27424, 38.89762 ], [ -77.27629, 38.89752 ] ], [ [ -77.27623, 38.89594 ], [ -77.27602, 38.89569 ], [ -77.27596, 38.89574 ], [ -77.27623, 38.89594 ] ], [ [ -77.27567, 38.89441 ], [ -77.27494, 38.89468 ], [ -77.2751, 38.89488 ], [ -77.27567, 38.89441 ] ], [ [ -77.27661, 38.89356 ], [ -77.27825, 38.89561 ], [ -77.27831, 38.89602 ], [ -77.27721, 38.8967 ], [ -77.27774, 38.89748 ], [ -77.27792, 38.89974 ], [ -77.28042, 38.89964 ], [ -77.27968, 38.89856 ], [ -77.27996, 38.89821 ], [ -77.28075, 38.89825 ], [ -77.28135, 38.89757 ], [ -77.28186, 38.89769 ], [ -77.28246, 38.89865 ], [ -77.28279, 38.89847 ], [ -77.28187, 38.89748 ], [ -77.28199, 38.89672 ], [ -77.28296, 38.89682 ], [ -77.28392, 38.89785 ], [ -77.2843, 38.89766 ], [ -77.28291, 38.89604 ], [ -77.28058, 38.89638 ], [ -77.28004, 38.89615 ], [ -77.27721, 38.8929 ], [ -77.27661, 38.89356 ] ], [ [ -77.28731, 38.90309 ], [ -77.28778, 38.90322 ], [ -77.29097, 38.90156 ], [ -77.29044, 38.90109 ], [ -77.28972, 38.9014 ], [ -77.28973, 38.9019 ], [ -77.28731, 38.90309 ] ], [ [ -77.28328, 38.90012 ], [ -77.28381, 38.90007 ], [ -77.28357, 38.89936 ], [ -77.28296, 38.89971 ], [ -77.28328, 38.90012 ] ], [ [ -77.28321, 38.89454 ], [ -77.28418, 38.89422 ], [ -77.2818, 38.89298 ], [ -77.28321, 38.89454 ] ], [ [ -77.28362, 38.89285 ], [ -77.28527, 38.89356 ], [ -77.28691, 38.89539 ], [ -77.28676, 38.89609 ], [ -77.28749, 38.8959 ], [ -77.28586, 38.89417 ], [ -77.28144, 38.88953 ], [ -77.28168, 38.89018 ], [ -77.28078, 38.8909 ], [ -77.28154, 38.89048 ], [ -77.28242, 38.89082 ], [ -77.28226, 38.8914 ], [ -77.28131, 38.89197 ], [ -77.28313, 38.89154 ], [ -77.28362, 38.89285 ] ], [ [ -77.2825, 38.88883 ], [ -77.28881, 38.89558 ], [ -77.28969, 38.89521 ], [ -77.28889, 38.89506 ], [ -77.2827, 38.88852 ], [ -77.2825, 38.88883 ] ], [ [ -77.29327, 38.90179 ], [ -77.29331, 38.90181 ], [ -77.29335, 38.90173 ], [ -77.29327, 38.90179 ] ], [ [ -77.29112, 38.89443 ], [ -77.29008, 38.89467 ], [ -77.28993, 38.89508 ], [ -77.29014, 38.89497 ], [ -77.29112, 38.89443 ] ], [ [ -77.28958, 38.89397 ], [ -77.29029, 38.89337 ], [ -77.28937, 38.89375 ], [ -77.28958, 38.89397 ] ], [ [ -77.28865, 38.893 ], [ -77.28947, 38.8923 ], [ -77.28847, 38.89281 ], [ -77.28865, 38.893 ] ], [ [ -77.29018, 38.89087 ], [ -77.29136, 38.89105 ], [ -77.29076, 38.89188 ], [ -77.29171, 38.89142 ], [ -77.28981, 38.88938 ], [ -77.28912, 38.88979 ], [ -77.29018, 38.89087 ] ], [ [ -77.2889, 38.88821 ], [ -77.28834, 38.88885 ], [ -77.28933, 38.88877 ], [ -77.2889, 38.88821 ] ], [ [ -77.28833, 38.88732 ], [ -77.28885, 38.88538 ], [ -77.28866, 38.88509 ], [ -77.2862, 38.88606 ], [ -77.2865, 38.88644 ], [ -77.28731, 38.88624 ], [ -77.28774, 38.88648 ], [ -77.28783, 38.88688 ], [ -77.28722, 38.88737 ], [ -77.28747, 38.88769 ], [ -77.28833, 38.88732 ] ], [ [ -77.2955, 38.89496 ], [ -77.29497, 38.89481 ], [ -77.29449, 38.89507 ], [ -77.2955, 38.89496 ] ], [ [ -77.29467, 38.89275 ], [ -77.29477, 38.89275 ], [ -77.29482, 38.89263 ], [ -77.29467, 38.89275 ] ], [ [ -77.29359, 38.89309 ], [ -77.29331, 38.89311 ], [ -77.29308, 38.89337 ], [ -77.29359, 38.89309 ] ], [ [ -77.29222, 38.89245 ], [ -77.29154, 38.89289 ], [ -77.29229, 38.89253 ], [ -77.29222, 38.89245 ] ], [ [ -77.2935, 38.892 ], [ -77.29372, 38.89193 ], [ -77.29342, 38.89183 ], [ -77.2935, 38.892 ] ], [ [ -77.29234, 38.89377 ], [ -77.29226, 38.89381 ], [ -77.29226, 38.89382 ], [ -77.29234, 38.89377 ] ], [ [ -77.29151, 38.89783 ], [ -77.29236, 38.89816 ], [ -77.29199, 38.89758 ], [ -77.29151, 38.89783 ] ], [ [ -77.29274, 38.89717 ], [ -77.29324, 38.89732 ], [ -77.29314, 38.89695 ], [ -77.29274, 38.89717 ] ], [ [ -77.29208, 38.90089 ], [ -77.29289, 38.90064 ], [ -77.29319, 38.90021 ], [ -77.29208, 38.90089 ] ], [ [ -77.29213, 38.89938 ], [ -77.29206, 38.89953 ], [ -77.29232, 38.89937 ], [ -77.29213, 38.89938 ] ], [ [ -77.29559, 38.90062 ], [ -77.29539, 38.90005 ], [ -77.29432, 38.90089 ], [ -77.29559, 38.90062 ] ], [ [ -77.28774, 38.89177 ], [ -77.28773, 38.89201 ], [ -77.28843, 38.89144 ], [ -77.28774, 38.89177 ] ], [ [ -77.28505, 38.88665 ], [ -77.28367, 38.88773 ], [ -77.28522, 38.88936 ], [ -77.28545, 38.88909 ], [ -77.28469, 38.88797 ], [ -77.28499, 38.88763 ], [ -77.28592, 38.88778 ], [ -77.28505, 38.88665 ] ], [ [ -77.28762, 38.89056 ], [ -77.28671, 38.89074 ], [ -77.28656, 38.89079 ], [ -77.28682, 38.89106 ], [ -77.28762, 38.89056 ] ], [ [ -77.2867, 38.89614 ], [ -77.28576, 38.89599 ], [ -77.28495, 38.89514 ], [ -77.28404, 38.89542 ], [ -77.28567, 38.89749 ], [ -77.2867, 38.89772 ], [ -77.2864, 38.89744 ], [ -77.2867, 38.89614 ] ], [ [ -77.28938, 38.9003 ], [ -77.2866, 38.89882 ], [ -77.28694, 38.89974 ], [ -77.2878, 38.89949 ], [ -77.28833, 38.90014 ], [ -77.28769, 38.90077 ], [ -77.28938, 38.9003 ] ], [ [ -77.2848, 38.90802 ], [ -77.28495, 38.90797 ], [ -77.28476, 38.90802 ], [ -77.2848, 38.90802 ] ], [ [ -77.2818, 38.90188 ], [ -77.28117, 38.90071 ], [ -77.27956, 38.90164 ], [ -77.28071, 38.90148 ], [ -77.2818, 38.90188 ] ], [ [ -77.28003, 38.90408 ], [ -77.27846, 38.90229 ], [ -77.27835, 38.90236 ], [ -77.28003, 38.90408 ] ], [ [ -77.28103, 38.90658 ], [ -77.28141, 38.90651 ], [ -77.28228, 38.90574 ], [ -77.28103, 38.90658 ] ], [ [ -77.28173, 38.90468 ], [ -77.28118, 38.90473 ], [ -77.28144, 38.90488 ], [ -77.28173, 38.90468 ] ], [ [ -77.28051, 38.90264 ], [ -77.28131, 38.90315 ], [ -77.28059, 38.9026 ], [ -77.28051, 38.90264 ] ], [ [ -77.28244, 38.90378 ], [ -77.28261, 38.90389 ], [ -77.28267, 38.90355 ], [ -77.28244, 38.90378 ] ], [ [ -77.28184, 38.9089 ], [ -77.28191, 38.90929 ], [ -77.28241, 38.90924 ], [ -77.28211, 38.90909 ], [ -77.28184, 38.9089 ] ], [ [ -77.278, 38.90082 ], [ -77.27802, 38.90119 ], [ -77.2787, 38.90079 ], [ -77.278, 38.90082 ] ], [ [ -77.27742, 38.90347 ], [ -77.27761, 38.9038 ], [ -77.27772, 38.90363 ], [ -77.27742, 38.90347 ] ], [ [ -77.27994, 38.89243 ], [ -77.2796, 38.89152 ], [ -77.27907, 38.8914 ], [ -77.27894, 38.89151 ], [ -77.27994, 38.89243 ] ], [ [ -77.2734, 38.90814 ], [ -77.27352, 38.90777 ], [ -77.27332, 38.90766 ], [ -77.2734, 38.90814 ] ], [ [ -77.27315, 38.90163 ], [ -77.27202, 38.90161 ], [ -77.27188, 38.90108 ], [ -77.27163, 38.9014 ], [ -77.27166, 38.90189 ], [ -77.27315, 38.90163 ] ], [ [ -77.27303, 38.89997 ], [ -77.27295, 38.89877 ], [ -77.27231, 38.9 ], [ -77.27303, 38.89997 ] ], [ [ -77.27366, 38.89621 ], [ -77.27414, 38.89571 ], [ -77.27394, 38.89547 ], [ -77.27313, 38.89604 ], [ -77.27366, 38.89621 ] ], [ [ -77.27131, 38.8923 ], [ -77.27073, 38.89156 ], [ -77.26996, 38.89196 ], [ -77.27096, 38.8925 ], [ -77.27131, 38.8923 ] ], [ [ -77.27699, 38.90978 ], [ -77.27756, 38.9099 ], [ -77.2779, 38.90947 ], [ -77.27739, 38.90882 ], [ -77.27679, 38.90908 ], [ -77.27493, 38.90802 ], [ -77.27571, 38.90925 ], [ -77.27504, 38.9096 ], [ -77.27635, 38.91023 ], [ -77.27699, 38.90978 ] ], [ [ -77.27714, 38.90706 ], [ -77.27693, 38.90697 ], [ -77.27709, 38.90714 ], [ -77.27714, 38.90706 ] ], [ [ -77.27683, 38.90691 ], [ -77.27671, 38.90662 ], [ -77.27659, 38.90689 ], [ -77.27683, 38.90691 ] ], [ [ -77.27671, 38.90636 ], [ -77.27662, 38.9063 ], [ -77.2767, 38.90642 ], [ -77.27671, 38.90636 ] ], [ [ -77.27644, 38.90613 ], [ -77.27641, 38.9061 ], [ -77.2764, 38.90612 ], [ -77.27644, 38.90613 ] ], [ [ -77.27297, 38.89214 ], [ -77.27239, 38.89133 ], [ -77.27233, 38.89135 ], [ -77.27297, 38.89214 ] ], [ [ -77.27437, 38.89342 ], [ -77.27463, 38.89323 ], [ -77.27474, 38.89314 ], [ -77.27439, 38.89324 ], [ -77.27437, 38.89342 ] ], [ [ -77.27443, 38.8922 ], [ -77.27447, 38.89221 ], [ -77.27443, 38.89219 ], [ -77.27443, 38.8922 ] ], [ [ -77.27588, 38.90709 ], [ -77.27586, 38.9072 ], [ -77.27596, 38.90709 ], [ -77.27588, 38.90709 ] ], [ [ -77.27457, 38.90284 ], [ -77.27456, 38.9032 ], [ -77.27524, 38.90281 ], [ -77.27457, 38.90284 ] ], [ [ -77.2744, 38.89869 ], [ -77.27435, 38.899 ], [ -77.27438, 38.89941 ], [ -77.27473, 38.89926 ], [ -77.2744, 38.89869 ] ], [ [ -77.27448, 38.90096 ], [ -77.27454, 38.9016 ], [ -77.27552, 38.90092 ], [ -77.27448, 38.90096 ] ], [ [ -77.27166, 38.90577 ], [ -77.27087, 38.9044 ], [ -77.27018, 38.90465 ], [ -77.27166, 38.90577 ] ], [ [ -77.27102, 38.9041 ], [ -77.27095, 38.90408 ], [ -77.27096, 38.90418 ], [ -77.27102, 38.9041 ] ], [ [ -77.27179, 38.89818 ], [ -77.27267, 38.89725 ], [ -77.27216, 38.89681 ], [ -77.27035, 38.89825 ], [ -77.27179, 38.89818 ] ], [ [ -77.27021, 38.89486 ], [ -77.27094, 38.89392 ], [ -77.26941, 38.89286 ], [ -77.26935, 38.89228 ], [ -77.26851, 38.89273 ], [ -77.26821, 38.89354 ], [ -77.26886, 38.89288 ], [ -77.26939, 38.89289 ], [ -77.26975, 38.89319 ], [ -77.26944, 38.89406 ], [ -77.26993, 38.89414 ], [ -77.27021, 38.89486 ] ], [ [ -77.2728, 38.89468 ], [ -77.27302, 38.89452 ], [ -77.27268, 38.89442 ], [ -77.2728, 38.89468 ] ], [ [ -77.27244, 38.89425 ], [ -77.2724, 38.89422 ], [ -77.27239, 38.89423 ], [ -77.27244, 38.89425 ] ], [ [ -77.27205, 38.90306 ], [ -77.27176, 38.90296 ], [ -77.27177, 38.90304 ], [ -77.27205, 38.90306 ] ], [ [ -77.26948, 38.90022 ], [ -77.26882, 38.90064 ], [ -77.26924, 38.90129 ], [ -77.26976, 38.90085 ], [ -77.26948, 38.90022 ] ], [ [ -77.26695, 38.90096 ], [ -77.26619, 38.90157 ], [ -77.26626, 38.90163 ], [ -77.26695, 38.90096 ] ], [ [ -77.26956, 38.90417 ], [ -77.26922, 38.90352 ], [ -77.26897, 38.90372 ], [ -77.26956, 38.90417 ] ] ] } }
]
}
