{
"type": "FeatureCollection",
"name": "65",
"crs": { "type": "name", "properties": { "name": "urn:ogc:def:crs:OGC:1.3:CRS84" } },
"xy_coordinate_resolution": 1e-05,
"features": [
{ "type": "Feature", "properties": { "variant": "T0", "miles": 0.5 }, "geometry": { "type": "Polygon", "coordinates": [ [ [ -77.22849, 38.88008 ], [ -77.23055, 38.88026 ], [ -77.23125, 38.88087 ], [ -77.23106, 38.88172 ], [ -77.22927, 38.88227 ], [ -77.22863, 38.88313 ], [ -77.22878, 38.88566 ], [ -77.23024, 38.88512 ], [ -77.22957, 38.8842 ], [ -77.23086, 38.88286 ], [ -77.23276, 38.88256 ], [ -77.23634, 38.88118 ], [ -77.23723, 38.88149 ], [ -77.23722, 38.8819 ], [ -77.23445, 38.88291 ], [ -77.23603, 38.88453 ], [ -77.23606, 38.88495 ], [ -77.23493, 38.88555 ], [ -77.23514, 38.88626 ], [ -77.23478, 38.88657 ], [ -77.23426, 38.88659 ], [ -77.23368, 38.88601 ], [ -77.23177, 38.88672 ], [ -77.23219, 38.88733 ], [ -77.23104, 38.88837 ], [ -77.23025, 38.88793 ], [ -77.23051, 38.88718 ], [ -77.22918, 38.88762 ], [ -77.22951, 38.88844 ], [ -77.22923, 38.88901 ], [ -77.22855, 38.88927 ], [ -77.22696, 38.88909 ], [ -77.22656, 38.89008 ], [ -77.22568, 38.89041 ], [ -77.22528, 38.89014 ], [ -77.22554, 38.88902 ], [ -77.22396, 38.8884 ], [ -77.22428, 38.88773 ], [ -77.22361, 38.88747 ], [ -77.22387, 38.88637 ], [ -77.22338, 38.88571 ], [ -77.2248, 38.88478 ], [ -77.22704, 38.88498 ], [ -77.22722, 38.88383 ], [ -77.22698, 38.8827 ], [ -77.22487, 38.88318 ], [ -77.22419, 38.88263 ], [ -77.22501, 38.8814 ], [ -77.22498, 38.88014 ], [ -77.22685, 38.87992 ], [ -77.2273, 38.87876 ], [ -77.2278, 38.87863 ], [ -77.22828, 38.87881 ], [ -77.22849, 38.88008 ] ], [ [ -77.23256, 38.88413 ], [ -77.23161, 38.88484 ], [ -77.23275, 38.88516 ], [ -77.23449, 38.88451 ], [ -77.23381, 38.88387 ], [ -77.23352, 38.88425 ], [ -77.23256, 38.88413 ] ], [ [ -77.22596, 38.88799 ], [ -77.22638, 38.88701 ], [ -77.226, 38.88691 ], [ -77.22498, 38.88718 ], [ -77.22456, 38.88769 ], [ -77.22596, 38.88799 ] ], [ [ -77.22667, 38.88594 ], [ -77.2269, 38.88585 ], [ -77.22696, 38.88578 ], [ -77.22667, 38.88594 ] ] ] } },
{ "type": "Feature", "properties": { "variant": "T0", "miles": 1.0 }, "geometry": { "type": "Polygon", "coordinates": [ [ [ -77.22798, 38.87182 ], [ -77.22916, 38.87218 ], [ -77.22912, 38.87329 ], [ -77.22966, 38.87296 ], [ -77.2319, 38.87303 ], [ -77.23218, 38.87476 ], [ -77.23173, 38.87746 ], [ -77.23417, 38.87783 ], [ -77.23408, 38.88 ], [ -77.23539, 38.88075 ], [ -77.23513, 38.8812 ], [ -77.23404, 38.88158 ], [ -77.23119, 38.88146 ], [ -77.22927, 38.88227 ], [ -77.22863, 38.88313 ], [ -77.22878, 38.88566 ], [ -77.23024, 38.88512 ], [ -77.22957, 38.8842 ], [ -77.23094, 38.88282 ], [ -77.23276, 38.88256 ], [ -77.23345, 38.88206 ], [ -77.23747, 38.88104 ], [ -77.23796, 38.8817 ], [ -77.23641, 38.88407 ], [ -77.2368, 38.88408 ], [ -77.23788, 38.88322 ], [ -77.23743, 38.88253 ], [ -77.23864, 38.88078 ], [ -77.242, 38.88025 ], [ -77.24308, 38.88043 ], [ -77.24367, 38.88095 ], [ -77.24324, 38.88184 ], [ -77.2437, 38.88278 ], [ -77.24338, 38.88344 ], [ -77.24426, 38.88387 ], [ -77.24422, 38.88428 ], [ -77.24357, 38.88459 ], [ -77.24164, 38.8841 ], [ -77.24057, 38.88432 ], [ -77.2412, 38.8853 ], [ -77.24008, 38.88637 ], [ -77.23956, 38.88633 ], [ -77.23925, 38.88563 ], [ -77.23794, 38.88478 ], [ -77.23493, 38.88555 ], [ -77.23531, 38.88663 ], [ -77.23461, 38.88882 ], [ -77.23572, 38.88641 ], [ -77.23787, 38.88634 ], [ -77.23832, 38.88657 ], [ -77.23833, 38.8873 ], [ -77.23702, 38.88871 ], [ -77.23925, 38.88957 ], [ -77.2396, 38.89028 ], [ -77.23921, 38.89056 ], [ -77.23821, 38.89039 ], [ -77.23739, 38.8919 ], [ -77.23687, 38.89199 ], [ -77.23617, 38.89147 ], [ -77.23566, 38.89288 ], [ -77.23466, 38.89277 ], [ -77.23347, 38.89422 ], [ -77.23254, 38.894 ], [ -77.23265, 38.8932 ], [ -77.23187, 38.89284 ], [ -77.23185, 38.89214 ], [ -77.22967, 38.89223 ], [ -77.22915, 38.89294 ], [ -77.22822, 38.89264 ], [ -77.2262, 38.89299 ], [ -77.2258, 38.89272 ], [ -77.226, 38.89151 ], [ -77.22574, 38.89221 ], [ -77.22599, 38.89456 ], [ -77.22721, 38.89505 ], [ -77.22752, 38.89577 ], [ -77.22712, 38.89604 ], [ -77.22582, 38.89571 ], [ -77.22536, 38.89661 ], [ -77.22359, 38.89713 ], [ -77.22271, 38.89558 ], [ -77.22306, 38.89527 ], [ -77.22433, 38.89546 ], [ -77.22442, 38.89509 ], [ -77.22236, 38.89442 ], [ -77.22203, 38.89491 ], [ -77.22067, 38.89462 ], [ -77.22076, 38.89354 ], [ -77.21959, 38.89312 ], [ -77.21914, 38.89133 ], [ -77.21948, 38.89102 ], [ -77.22094, 38.89123 ], [ -77.22021, 38.89042 ], [ -77.22053, 38.8897 ], [ -77.22188, 38.88941 ], [ -77.2223, 38.89005 ], [ -77.22299, 38.88836 ], [ -77.22235, 38.88705 ], [ -77.22307, 38.88634 ], [ -77.22376, 38.88662 ], [ -77.22338, 38.88571 ], [ -77.2237, 38.88539 ], [ -77.22432, 38.88535 ], [ -77.2248, 38.88478 ], [ -77.22704, 38.88498 ], [ -77.22722, 38.88383 ], [ -77.22698, 38.8827 ], [ -77.22416, 38.88322 ], [ -77.22248, 38.88264 ], [ -77.22209, 38.88052 ], [ -77.22148, 38.8801 ], [ -77.22218, 38.87947 ], [ -77.22196, 38.87805 ], [ -77.2215, 38.87761 ], [ -77.22186, 38.87716 ], [ -77.2217, 38.87554 ], [ -77.22221, 38.87494 ], [ -77.22609, 38.87413 ], [ -77.22664, 38.8715 ], [ -77.22739, 38.87137 ], [ -77.22798, 38.87182 ] ], [ [ -77.22832, 38.89196 ], [ -77.22816, 38.89197 ], [ -77.22827, 38.89207 ], [ -77.22832, 38.89196 ] ], [ [ -77.22929, 38.8897 ], [ -77.22994, 38.8882 ], [ -77.22947, 38.88756 ], [ -77.22929, 38.8897 ] ], [ [ -77.2278, 38.88906 ], [ -77.22696, 38.88909 ], [ -77.22639, 38.89047 ], [ -77.22768, 38.89081 ], [ -77.2278, 38.88906 ] ], [ [ -77.2267, 38.88587 ], [ -77.2269, 38.88585 ], [ -77.22696, 38.88578 ], [ -77.2267, 38.88587 ] ], [ [ -77.23285, 38.88051 ], [ -77.23287, 38.87864 ], [ -77.23159, 38.87853 ], [ -77.23133, 38.88039 ], [ -77.23285, 38.88051 ] ], [ [ -77.22849, 38.88008 ], [ -77.22996, 38.88021 ], [ -77.23004, 38.87968 ], [ -77.22931, 38.87995 ], [ -77.22842, 38.87969 ], [ -77.22849, 38.88008 ] ], [ [ -77.22824, 38.87789 ], [ -77.23028, 38.8779 ], [ -77.2308, 38.87467 ], [ -77.22897, 38.87489 ], [ -77.22945, 38.87685 ], [ -77.22887, 38.87747 ], [ -77.22808, 38.87702 ], [ -77.22778, 38.87573 ], [ -77.22824, 38.87789 ] ], [ [ -77.23285, 38.88748 ], [ -77.23241, 38.88746 ], [ -77.23224, 38.88755 ], [ -77.23285, 38.88748 ] ], [ [ -77.23212, 38.88486 ], [ -77.23273, 38.8842 ], [ -77.23212, 38.88435 ], [ -77.23161, 38.88484 ], [ -77.23212, 38.88486 ] ], [ [ -77.24231, 38.88298 ], [ -77.24223, 38.88308 ], [ -77.24238, 38.88311 ], [ -77.24231, 38.88298 ] ], [ [ -77.23947, 38.88247 ], [ -77.23958, 38.88244 ], [ -77.23945, 38.88243 ], [ -77.23947, 38.88247 ] ], [ [ -77.23447, 38.88291 ], [ -77.23447, 38.8829 ], [ -77.23445, 38.88291 ], [ -77.23447, 38.88291 ] ], [ [ -77.23671, 38.88736 ], [ -77.2367, 38.88739 ], [ -77.23673, 38.88736 ], [ -77.23671, 38.88736 ] ], [ [ -77.23129, 38.88861 ], [ -77.23123, 38.88859 ], [ -77.23121, 38.88864 ], [ -77.23129, 38.88861 ] ], [ [ -77.22546, 38.88922 ], [ -77.22432, 38.88868 ], [ -77.22417, 38.88903 ], [ -77.22546, 38.88922 ] ], [ [ -77.22592, 38.88798 ], [ -77.22596, 38.88799 ], [ -77.22599, 38.88792 ], [ -77.22592, 38.88798 ] ], [ [ -77.22624, 38.88735 ], [ -77.22638, 38.88701 ], [ -77.226, 38.88691 ], [ -77.22579, 38.88709 ], [ -77.22624, 38.88735 ] ], [ [ -77.22421, 38.89219 ], [ -77.2239, 38.8921 ], [ -77.22422, 38.89236 ], [ -77.22421, 38.89219 ] ], [ [ -77.22502, 38.89025 ], [ -77.22386, 38.88982 ], [ -77.22364, 38.89032 ], [ -77.22434, 38.89042 ], [ -77.22472, 38.89094 ], [ -77.22502, 38.89025 ] ], [ [ -77.22242, 38.89317 ], [ -77.22241, 38.89319 ], [ -77.22246, 38.89322 ], [ -77.22242, 38.89317 ] ], [ [ -77.22066, 38.8923 ], [ -77.22124, 38.89252 ], [ -77.22127, 38.89246 ], [ -77.22066, 38.8923 ] ], [ [ -77.22402, 38.87951 ], [ -77.22517, 38.87931 ], [ -77.22371, 38.87954 ], [ -77.22402, 38.87951 ] ], [ [ -77.22322, 38.87672 ], [ -77.2262, 38.87638 ], [ -77.22615, 38.87541 ], [ -77.22316, 38.87606 ], [ -77.22322, 38.87672 ] ] ] } },
{ "type": "Feature", "properties": { "variant": "T0", "miles": 1.5 }, "geometry": { "type": "Polygon", "coordinates": [ [ [ -77.24072, 38.87595 ], [ -77.24143, 38.87619 ], [ -77.24182, 38.8757 ], [ -77.24235, 38.87571 ], [ -77.24284, 38.87634 ], [ -77.24205, 38.87742 ], [ -77.23683, 38.87597 ], [ -77.2372, 38.87726 ], [ -77.2365, 38.88047 ], [ -77.23404, 38.88158 ], [ -77.23119, 38.88146 ], [ -77.22927, 38.88227 ], [ -77.22863, 38.88313 ], [ -77.22878, 38.88566 ], [ -77.23024, 38.88512 ], [ -77.22957, 38.8842 ], [ -77.23102, 38.88279 ], [ -77.23276, 38.88256 ], [ -77.23345, 38.88206 ], [ -77.23747, 38.88104 ], [ -77.23796, 38.8817 ], [ -77.23641, 38.88407 ], [ -77.23676, 38.88408 ], [ -77.23788, 38.88322 ], [ -77.23743, 38.88253 ], [ -77.23883, 38.88067 ], [ -77.24226, 38.88023 ], [ -77.24353, 38.8806 ], [ -77.24433, 38.88 ], [ -77.24601, 38.88002 ], [ -77.24604, 38.87942 ], [ -77.24378, 38.8789 ], [ -77.24342, 38.87819 ], [ -77.24417, 38.87728 ], [ -77.24594, 38.87779 ], [ -77.24571, 38.87594 ], [ -77.24634, 38.87536 ], [ -77.24709, 38.87584 ], [ -77.24719, 38.87669 ], [ -77.24817, 38.87718 ], [ -77.24802, 38.87764 ], [ -77.24734, 38.87784 ], [ -77.2474, 38.88008 ], [ -77.25129, 38.88151 ], [ -77.25315, 38.88396 ], [ -77.2531, 38.88499 ], [ -77.25254, 38.88542 ], [ -77.25066, 38.88475 ], [ -77.25017, 38.88549 ], [ -77.24964, 38.88553 ], [ -77.24923, 38.88527 ], [ -77.24919, 38.88416 ], [ -77.24812, 38.886 ], [ -77.24901, 38.88657 ], [ -77.24897, 38.88698 ], [ -77.24808, 38.88799 ], [ -77.24759, 38.89019 ], [ -77.24599, 38.89209 ], [ -77.24522, 38.89213 ], [ -77.24266, 38.89086 ], [ -77.24256, 38.89114 ], [ -77.24551, 38.89245 ], [ -77.24549, 38.89286 ], [ -77.24414, 38.89352 ], [ -77.24532, 38.89449 ], [ -77.24508, 38.89523 ], [ -77.2443, 38.8952 ], [ -77.24277, 38.894 ], [ -77.24179, 38.89401 ], [ -77.2428, 38.89457 ], [ -77.24237, 38.89525 ], [ -77.24121, 38.89499 ], [ -77.2395, 38.89608 ], [ -77.2379, 38.89569 ], [ -77.2374, 38.89521 ], [ -77.23594, 38.89657 ], [ -77.23738, 38.89718 ], [ -77.2375, 38.89786 ], [ -77.23709, 38.89811 ], [ -77.23606, 38.89783 ], [ -77.23549, 38.89843 ], [ -77.23624, 38.89892 ], [ -77.2362, 38.89933 ], [ -77.2353, 38.89956 ], [ -77.23501, 38.90029 ], [ -77.23319, 38.9004 ], [ -77.2322, 38.89996 ], [ -77.23255, 38.90109 ], [ -77.231, 38.90152 ], [ -77.23021, 38.90106 ], [ -77.2306, 38.90004 ], [ -77.23018, 38.89986 ], [ -77.2295, 38.90045 ], [ -77.22778, 38.89985 ], [ -77.22666, 38.90055 ], [ -77.2281, 38.90115 ], [ -77.22774, 38.90187 ], [ -77.22532, 38.90114 ], [ -77.2244, 38.90118 ], [ -77.22427, 38.90166 ], [ -77.22699, 38.90284 ], [ -77.22727, 38.90357 ], [ -77.22633, 38.90379 ], [ -77.22415, 38.90285 ], [ -77.22345, 38.90472 ], [ -77.22247, 38.90512 ], [ -77.22203, 38.90488 ], [ -77.22211, 38.90387 ], [ -77.22157, 38.90365 ], [ -77.2217, 38.90246 ], [ -77.21998, 38.9035 ], [ -77.2193, 38.90295 ], [ -77.21992, 38.90204 ], [ -77.21939, 38.90133 ], [ -77.22034, 38.90101 ], [ -77.22068, 38.90029 ], [ -77.21997, 38.9001 ], [ -77.21963, 38.90055 ], [ -77.21854, 38.90042 ], [ -77.21817, 38.89962 ], [ -77.21591, 38.89885 ], [ -77.21622, 38.89761 ], [ -77.21516, 38.89669 ], [ -77.21586, 38.8958 ], [ -77.21802, 38.89523 ], [ -77.21845, 38.89591 ], [ -77.218, 38.89694 ], [ -77.21923, 38.89708 ], [ -77.21884, 38.89675 ], [ -77.21935, 38.89607 ], [ -77.21892, 38.89516 ], [ -77.21767, 38.89466 ], [ -77.21781, 38.8941 ], [ -77.21716, 38.89437 ], [ -77.21701, 38.8949 ], [ -77.21598, 38.89487 ], [ -77.21426, 38.89554 ], [ -77.21148, 38.89565 ], [ -77.21077, 38.89513 ], [ -77.21143, 38.89457 ], [ -77.21313, 38.8945 ], [ -77.21389, 38.89323 ], [ -77.2148, 38.89351 ], [ -77.21484, 38.89412 ], [ -77.21657, 38.89339 ], [ -77.21655, 38.89227 ], [ -77.21735, 38.89122 ], [ -77.21825, 38.89151 ], [ -77.21789, 38.89282 ], [ -77.21931, 38.8923 ], [ -77.21914, 38.89133 ], [ -77.21948, 38.89102 ], [ -77.22094, 38.89123 ], [ -77.22018, 38.89001 ], [ -77.22188, 38.88941 ], [ -77.2223, 38.89005 ], [ -77.22268, 38.88913 ], [ -77.22159, 38.88884 ], [ -77.22115, 38.88816 ], [ -77.2215, 38.88785 ], [ -77.22251, 38.88795 ], [ -77.22249, 38.88675 ], [ -77.22307, 38.88634 ], [ -77.22376, 38.88662 ], [ -77.22338, 38.88571 ], [ -77.2248, 38.88478 ], [ -77.22704, 38.88498 ], [ -77.22698, 38.8827 ], [ -77.22416, 38.88322 ], [ -77.22248, 38.88264 ], [ -77.22209, 38.88052 ], [ -77.22148, 38.8801 ], [ -77.22218, 38.87947 ], [ -77.22196, 38.87805 ], [ -77.2215, 38.87761 ], [ -77.22179, 38.87628 ], [ -77.21863, 38.87648 ], [ -77.21556, 38.87612 ], [ -77.21426, 38.87711 ], [ -77.2138, 38.87691 ], [ -77.21358, 38.87547 ], [ -77.21435, 38.87503 ], [ -77.21501, 38.87351 ], [ -77.21609, 38.87382 ], [ -77.21593, 38.87496 ], [ -77.21769, 38.87518 ], [ -77.22037, 38.87526 ], [ -77.22378, 38.87462 ], [ -77.22366, 38.87426 ], [ -77.22228, 38.87396 ], [ -77.22116, 38.87288 ], [ -77.22148, 38.87197 ], [ -77.22253, 38.87162 ], [ -77.22229, 38.87102 ], [ -77.2214, 38.8706 ], [ -77.2213, 38.87001 ], [ -77.22045, 38.86986 ], [ -77.22033, 38.86857 ], [ -77.22164, 38.86761 ], [ -77.22317, 38.8676 ], [ -77.22405, 38.86847 ], [ -77.225, 38.86812 ], [ -77.22474, 38.8675 ], [ -77.22552, 38.86703 ], [ -77.22536, 38.86589 ], [ -77.22625, 38.86554 ], [ -77.22685, 38.86585 ], [ -77.22708, 38.86447 ], [ -77.22785, 38.86427 ], [ -77.22852, 38.86482 ], [ -77.22848, 38.86565 ], [ -77.23068, 38.86571 ], [ -77.23116, 38.86662 ], [ -77.23084, 38.86733 ], [ -77.22831, 38.86824 ], [ -77.22822, 38.86879 ], [ -77.2321, 38.86821 ], [ -77.23265, 38.86678 ], [ -77.23349, 38.86638 ], [ -77.23411, 38.86764 ], [ -77.23505, 38.86815 ], [ -77.23514, 38.86856 ], [ -77.23434, 38.86895 ], [ -77.23525, 38.86939 ], [ -77.23526, 38.8698 ], [ -77.23468, 38.87011 ], [ -77.23488, 38.87066 ], [ -77.23451, 38.87096 ], [ -77.23337, 38.87079 ], [ -77.2322, 38.87324 ], [ -77.23368, 38.87314 ], [ -77.23459, 38.87228 ], [ -77.23568, 38.87268 ], [ -77.23706, 38.86959 ], [ -77.23796, 38.86929 ], [ -77.23862, 38.86965 ], [ -77.23862, 38.87007 ], [ -77.23711, 38.87304 ], [ -77.2389, 38.87292 ], [ -77.2388, 38.87194 ], [ -77.23944, 38.87137 ], [ -77.24018, 38.87187 ], [ -77.24036, 38.87346 ], [ -77.23974, 38.87404 ], [ -77.23675, 38.87425 ], [ -77.23678, 38.87479 ], [ -77.23928, 38.87533 ], [ -77.24223, 38.87357 ], [ -77.2429, 38.87412 ], [ -77.24072, 38.87595 ] ], [ [ -77.22996, 38.88021 ], [ -77.23004, 38.87968 ], [ -77.22931, 38.87995 ], [ -77.22842, 38.87969 ], [ -77.22846, 38.88007 ], [ -77.22996, 38.88021 ] ], [ [ -77.22631, 38.87303 ], [ -77.22512, 38.87323 ], [ -77.2251, 38.8743 ], [ -77.22609, 38.87413 ], [ -77.22631, 38.87303 ] ], [ [ -77.22645, 38.87056 ], [ -77.22571, 38.86999 ], [ -77.22655, 38.86948 ], [ -77.22663, 38.86875 ], [ -77.22405, 38.86966 ], [ -77.22356, 38.87057 ], [ -77.22436, 38.87213 ], [ -77.2242, 38.87112 ], [ -77.2246, 38.87085 ], [ -77.22552, 38.87133 ], [ -77.22643, 38.87113 ], [ -77.22645, 38.87056 ] ], [ [ -77.23543, 38.87973 ], [ -77.23582, 38.87706 ], [ -77.23534, 38.87546 ], [ -77.23474, 38.87526 ], [ -77.23408, 38.88 ], [ -77.23438, 38.88027 ], [ -77.23543, 38.87973 ] ], [ [ -77.233, 38.86852 ], [ -77.23306, 38.86854 ], [ -77.23305, 38.86852 ], [ -77.233, 38.86852 ] ], [ [ -77.23285, 38.88051 ], [ -77.23287, 38.87864 ], [ -77.23159, 38.87853 ], [ -77.23133, 38.88039 ], [ -77.23285, 38.88051 ] ], [ [ -77.23341, 38.87481 ], [ -77.23218, 38.87457 ], [ -77.23173, 38.87746 ], [ -77.23302, 38.87757 ], [ -77.23341, 38.87481 ] ], [ [ -77.2308, 38.87467 ], [ -77.22897, 38.87489 ], [ -77.22923, 38.8759 ], [ -77.2301, 38.87632 ], [ -77.22887, 38.87747 ], [ -77.22808, 38.87702 ], [ -77.22778, 38.87573 ], [ -77.22824, 38.87789 ], [ -77.23028, 38.8779 ], [ -77.2308, 38.87467 ] ], [ [ -77.22928, 38.87171 ], [ -77.22973, 38.87074 ], [ -77.22923, 38.86973 ], [ -77.2281, 38.86992 ], [ -77.22806, 38.87116 ], [ -77.22905, 38.87119 ], [ -77.22928, 38.87171 ] ], [ [ -77.23064, 38.87194 ], [ -77.23127, 38.87212 ], [ -77.23158, 38.87152 ], [ -77.23103, 38.87135 ], [ -77.23064, 38.87194 ] ], [ [ -77.22878, 38.89683 ], [ -77.22582, 38.89571 ], [ -77.22629, 38.89727 ], [ -77.22725, 38.89669 ], [ -77.22839, 38.89719 ], [ -77.22878, 38.89683 ] ], [ [ -77.23134, 38.89666 ], [ -77.23264, 38.89639 ], [ -77.23238, 38.89597 ], [ -77.22815, 38.89485 ], [ -77.22786, 38.8953 ], [ -77.23134, 38.89666 ] ], [ [ -77.23306, 38.89503 ], [ -77.234, 38.89614 ], [ -77.23562, 38.89536 ], [ -77.23763, 38.89289 ], [ -77.23624, 38.89443 ], [ -77.2354, 38.89427 ], [ -77.23456, 38.89471 ], [ -77.23092, 38.89373 ], [ -77.23034, 38.89327 ], [ -77.22977, 38.89341 ], [ -77.22925, 38.89285 ], [ -77.22862, 38.89297 ], [ -77.22822, 38.89264 ], [ -77.22646, 38.89297 ], [ -77.23306, 38.89503 ] ], [ [ -77.22816, 38.89197 ], [ -77.22827, 38.89207 ], [ -77.22832, 38.89196 ], [ -77.22816, 38.89197 ] ], [ [ -77.22786, 38.88908 ], [ -77.22696, 38.88909 ], [ -77.22639, 38.89047 ], [ -77.22768, 38.89081 ], [ -77.22786, 38.88908 ] ], [ [ -77.22994, 38.8882 ], [ -77.22947, 38.88756 ], [ -77.22929, 38.8897 ], [ -77.22994, 38.8882 ] ], [ [ -77.23599, 38.88627 ], [ -77.23573, 38.88545 ], [ -77.23702, 38.88514 ], [ -77.23493, 38.88555 ], [ -77.2353, 38.88668 ], [ -77.23447, 38.88853 ], [ -77.23461, 38.88882 ], [ -77.23599, 38.88627 ] ], [ [ -77.24108, 38.89356 ], [ -77.24115, 38.8929 ], [ -77.24065, 38.8935 ], [ -77.24138, 38.89387 ], [ -77.24108, 38.89356 ] ], [ [ -77.24167, 38.89037 ], [ -77.24143, 38.89026 ], [ -77.24049, 38.89134 ], [ -77.24167, 38.89037 ] ], [ [ -77.24164, 38.88788 ], [ -77.23836, 38.88675 ], [ -77.23821, 38.88754 ], [ -77.23702, 38.88871 ], [ -77.24005, 38.88989 ], [ -77.24164, 38.88788 ] ], [ [ -77.24054, 38.88602 ], [ -77.24029, 38.88623 ], [ -77.24222, 38.88689 ], [ -77.24054, 38.88602 ] ], [ [ -77.24231, 38.88298 ], [ -77.24206, 38.88305 ], [ -77.24223, 38.88308 ], [ -77.24231, 38.88298 ] ], [ [ -77.24597, 38.883 ], [ -77.24508, 38.88454 ], [ -77.24705, 38.88528 ], [ -77.24786, 38.88387 ], [ -77.24597, 38.883 ] ], [ [ -77.2423, 38.88526 ], [ -77.24122, 38.88505 ], [ -77.24274, 38.88569 ], [ -77.2423, 38.88526 ] ], [ [ -77.24766, 38.8814 ], [ -77.24811, 38.88141 ], [ -77.24773, 38.88127 ], [ -77.24766, 38.8814 ] ], [ [ -77.25104, 38.88368 ], [ -77.25, 38.88209 ], [ -77.24962, 38.88313 ], [ -77.25104, 38.88368 ] ], [ [ -77.24757, 38.88237 ], [ -77.24727, 38.88208 ], [ -77.24718, 38.88224 ], [ -77.24835, 38.88267 ], [ -77.24757, 38.88237 ] ], [ [ -77.2436, 38.88259 ], [ -77.24367, 38.88272 ], [ -77.24372, 38.88262 ], [ -77.2436, 38.88259 ] ], [ [ -77.24351, 38.88459 ], [ -77.24343, 38.88459 ], [ -77.24348, 38.88463 ], [ -77.24351, 38.88459 ] ], [ [ -77.24536, 38.89093 ], [ -77.24599, 38.89013 ], [ -77.24567, 38.89002 ], [ -77.24536, 38.89093 ] ], [ [ -77.2431, 38.88797 ], [ -77.24355, 38.88812 ], [ -77.24591, 38.88646 ], [ -77.2445, 38.88552 ], [ -77.2431, 38.88797 ] ], [ [ -77.24732, 38.88688 ], [ -77.24484, 38.88854 ], [ -77.24515, 38.88865 ], [ -77.24732, 38.88688 ] ], [ [ -77.24655, 38.88914 ], [ -77.24663, 38.8889 ], [ -77.24643, 38.8891 ], [ -77.24655, 38.88914 ] ], [ [ -77.24361, 38.89005 ], [ -77.24389, 38.89019 ], [ -77.24439, 38.88957 ], [ -77.24361, 38.89005 ] ], [ [ -77.24244, 38.88947 ], [ -77.24277, 38.88904 ], [ -77.24249, 38.88894 ], [ -77.24244, 38.88947 ] ], [ [ -77.24318, 38.89274 ], [ -77.24291, 38.8926 ], [ -77.24304, 38.89284 ], [ -77.24318, 38.89274 ] ], [ [ -77.23958, 38.88244 ], [ -77.23945, 38.88243 ], [ -77.23947, 38.88247 ], [ -77.23958, 38.88244 ] ], [ [ -77.23817, 38.88549 ], [ -77.23923, 38.88586 ], [ -77.23794, 38.88478 ], [ -77.23761, 38.88497 ], [ -77.23817, 38.88549 ] ], [ [ -77.23671, 38.88736 ], [ -77.2367, 38.88739 ], [ -77.23673, 38.88736 ], [ -77.23671, 38.88736 ] ], [ [ -77.23881, 38.89359 ], [ -77.23995, 38.89235 ], [ -77.23976, 38.89225 ], [ -77.23881, 38.89359 ] ], [ [ -77.23885, 38.89481 ], [ -77.2398, 38.89508 ], [ -77.23999, 38.89448 ], [ -77.23885, 38.89481 ] ], [ [ -77.23123, 38.88859 ], [ -77.23121, 38.88864 ], [ -77.23127, 38.88861 ], [ -77.23123, 38.88859 ] ], [ [ -77.23212, 38.88435 ], [ -77.23161, 38.88484 ], [ -77.23212, 38.88486 ], [ -77.23273, 38.8842 ], [ -77.23212, 38.88435 ] ], [ [ -77.23266, 38.88735 ], [ -77.23224, 38.88755 ], [ -77.23254, 38.88751 ], [ -77.23266, 38.88735 ] ], [ [ -77.22993, 38.8985 ], [ -77.22995, 38.89839 ], [ -77.22985, 38.89846 ], [ -77.22993, 38.8985 ] ], [ [ -77.22682, 38.89451 ], [ -77.22597, 38.89425 ], [ -77.22599, 38.89456 ], [ -77.22662, 38.89482 ], [ -77.22682, 38.89451 ] ], [ [ -77.22576, 38.8923 ], [ -77.226, 38.89151 ], [ -77.22574, 38.89221 ], [ -77.22584, 38.89299 ], [ -77.22576, 38.8923 ] ], [ [ -77.2239, 38.8921 ], [ -77.22422, 38.89236 ], [ -77.22408, 38.89223 ], [ -77.2239, 38.8921 ] ], [ [ -77.22455, 38.8906 ], [ -77.22472, 38.89094 ], [ -77.22502, 38.89025 ], [ -77.22386, 38.88982 ], [ -77.22364, 38.89032 ], [ -77.22455, 38.8906 ] ], [ [ -77.22517, 38.87931 ], [ -77.22371, 38.87954 ], [ -77.22402, 38.87951 ], [ -77.22517, 38.87931 ] ], [ [ -77.22696, 38.88578 ], [ -77.22667, 38.88594 ], [ -77.22681, 38.88598 ], [ -77.22696, 38.88578 ] ], [ [ -77.2262, 38.87638 ], [ -77.22615, 38.87541 ], [ -77.22481, 38.87571 ], [ -77.22519, 38.8765 ], [ -77.2262, 38.87638 ] ], [ [ -77.22432, 38.88868 ], [ -77.22417, 38.88903 ], [ -77.22546, 38.88922 ], [ -77.22432, 38.88868 ] ], [ [ -77.22599, 38.88792 ], [ -77.22592, 38.88798 ], [ -77.22596, 38.88799 ], [ -77.22599, 38.88792 ] ], [ [ -77.22638, 38.88701 ], [ -77.22579, 38.88709 ], [ -77.22617, 38.88751 ], [ -77.22638, 38.88701 ] ], [ [ -77.22604, 38.89956 ], [ -77.22496, 38.89906 ], [ -77.22469, 38.90011 ], [ -77.22604, 38.89956 ] ], [ [ -77.21753, 38.89796 ], [ -77.2174, 38.89828 ], [ -77.21857, 38.89858 ], [ -77.21882, 38.8983 ], [ -77.22018, 38.89836 ], [ -77.22052, 38.8991 ], [ -77.22112, 38.89926 ], [ -77.22128, 38.89839 ], [ -77.21753, 38.89796 ] ], [ [ -77.22232, 38.89646 ], [ -77.22249, 38.89609 ], [ -77.22126, 38.89578 ], [ -77.22089, 38.89663 ], [ -77.22187, 38.8962 ], [ -77.22232, 38.89646 ] ], [ [ -77.22064, 38.89234 ], [ -77.22124, 38.89252 ], [ -77.22127, 38.89244 ], [ -77.22064, 38.89234 ] ], [ [ -77.22385, 38.89743 ], [ -77.22391, 38.89711 ], [ -77.22352, 38.89708 ], [ -77.22385, 38.89743 ] ], [ [ -77.22332, 38.8946 ], [ -77.22236, 38.89442 ], [ -77.2221, 38.89485 ], [ -77.22298, 38.89497 ], [ -77.22332, 38.8946 ] ], [ [ -77.22242, 38.89317 ], [ -77.22241, 38.89319 ], [ -77.22246, 38.89322 ], [ -77.22242, 38.89317 ] ], [ [ -77.22215, 38.90103 ], [ -77.22215, 38.901 ], [ -77.22204, 38.90113 ], [ -77.22215, 38.90103 ] ], [ [ -77.21862, 38.89374 ], [ -77.21819, 38.89393 ], [ -77.21853, 38.89392 ], [ -77.21862, 38.89374 ] ], [ [ -77.21849, 38.89705 ], [ -77.21849, 38.89706 ], [ -77.21851, 38.89706 ], [ -77.21849, 38.89705 ] ] ] } },
{ "type": "Feature", "properties": { "variant": "T2s", "miles": 0.5 }, "geometry": { "type": "Polygon", "coordinates": [ [ [ -77.2306, 38.88302 ], [ -77.23634, 38.88118 ], [ -77.23723, 38.88149 ], [ -77.23683, 38.88218 ], [ -77.23445, 38.88291 ], [ -77.23603, 38.88453 ], [ -77.23606, 38.88495 ], [ -77.23493, 38.88555 ], [ -77.23514, 38.88626 ], [ -77.23478, 38.88657 ], [ -77.23426, 38.88659 ], [ -77.23368, 38.88601 ], [ -77.23177, 38.88672 ], [ -77.23219, 38.88733 ], [ -77.23104, 38.88837 ], [ -77.23025, 38.88793 ], [ -77.23051, 38.88718 ], [ -77.22918, 38.88762 ], [ -77.22951, 38.88844 ], [ -77.22923, 38.88901 ], [ -77.22855, 38.88927 ], [ -77.22696, 38.88909 ], [ -77.22656, 38.89008 ], [ -77.22568, 38.89041 ], [ -77.22525, 38.88973 ], [ -77.22737, 38.88507 ], [ -77.22736, 38.88383 ], [ -77.22793, 38.8835 ], [ -77.22879, 38.88387 ], [ -77.22878, 38.88566 ], [ -77.23024, 38.88512 ], [ -77.22957, 38.8842 ], [ -77.2306, 38.88302 ] ], [ [ -77.23179, 38.88483 ], [ -77.23275, 38.88516 ], [ -77.23449, 38.88451 ], [ -77.23381, 38.88387 ], [ -77.23352, 38.88425 ], [ -77.23257, 38.88412 ], [ -77.23179, 38.88483 ] ] ] } },
{ "type": "Feature", "properties": { "variant": "T2s", "miles": 1.0 }, "geometry": { "type": "Polygon", "coordinates": [ [ [ -77.24215, 38.88023 ], [ -77.24323, 38.8805 ], [ -77.24373, 38.88135 ], [ -77.24324, 38.88184 ], [ -77.2437, 38.88278 ], [ -77.24338, 38.88344 ], [ -77.24426, 38.88387 ], [ -77.24362, 38.88459 ], [ -77.24164, 38.8841 ], [ -77.24057, 38.88432 ], [ -77.2412, 38.8853 ], [ -77.24008, 38.88637 ], [ -77.23956, 38.88633 ], [ -77.23925, 38.88563 ], [ -77.23794, 38.88478 ], [ -77.23493, 38.88555 ], [ -77.23531, 38.88663 ], [ -77.23461, 38.88882 ], [ -77.23572, 38.88641 ], [ -77.23787, 38.88634 ], [ -77.23832, 38.88657 ], [ -77.23833, 38.8873 ], [ -77.23702, 38.88871 ], [ -77.23925, 38.88957 ], [ -77.2396, 38.89028 ], [ -77.23921, 38.89056 ], [ -77.23821, 38.89039 ], [ -77.23739, 38.8919 ], [ -77.23687, 38.89199 ], [ -77.23617, 38.89147 ], [ -77.23566, 38.89288 ], [ -77.23466, 38.89277 ], [ -77.23347, 38.89422 ], [ -77.23254, 38.894 ], [ -77.23265, 38.8932 ], [ -77.23187, 38.89284 ], [ -77.23185, 38.89214 ], [ -77.22967, 38.89223 ], [ -77.22915, 38.89294 ], [ -77.22822, 38.89264 ], [ -77.2262, 38.89299 ], [ -77.2258, 38.89272 ], [ -77.226, 38.89151 ], [ -77.22574, 38.89221 ], [ -77.22599, 38.89456 ], [ -77.22721, 38.89505 ], [ -77.22752, 38.89577 ], [ -77.22712, 38.89604 ], [ -77.22582, 38.89571 ], [ -77.22534, 38.89662 ], [ -77.22389, 38.89648 ], [ -77.22342, 38.89581 ], [ -77.22433, 38.89546 ], [ -77.22461, 38.89453 ], [ -77.22438, 38.89195 ], [ -77.22737, 38.88507 ], [ -77.22736, 38.88383 ], [ -77.22793, 38.8835 ], [ -77.22879, 38.88387 ], [ -77.22878, 38.88566 ], [ -77.23024, 38.88512 ], [ -77.22957, 38.8842 ], [ -77.23082, 38.88287 ], [ -77.23276, 38.88256 ], [ -77.23345, 38.88206 ], [ -77.23729, 38.88101 ], [ -77.23796, 38.8817 ], [ -77.23641, 38.88407 ], [ -77.2368, 38.88408 ], [ -77.23788, 38.88322 ], [ -77.23743, 38.88253 ], [ -77.23852, 38.88088 ], [ -77.24215, 38.88023 ] ], [ [ -77.22994, 38.8882 ], [ -77.22947, 38.88756 ], [ -77.22929, 38.8897 ], [ -77.22994, 38.8882 ] ], [ [ -77.23123, 38.88859 ], [ -77.23121, 38.88864 ], [ -77.23127, 38.88861 ], [ -77.23123, 38.88859 ] ], [ [ -77.23212, 38.88486 ], [ -77.23273, 38.8842 ], [ -77.23212, 38.88435 ], [ -77.23172, 38.88483 ], [ -77.23212, 38.88486 ] ], [ [ -77.24206, 38.88305 ], [ -77.24238, 38.88311 ], [ -77.24231, 38.88298 ], [ -77.24206, 38.88305 ] ], [ [ -77.23953, 38.88245 ], [ -77.23958, 38.88244 ], [ -77.23945, 38.88243 ], [ -77.23953, 38.88245 ] ], [ [ -77.2367, 38.88739 ], [ -77.23673, 38.88736 ], [ -77.23671, 38.88736 ], [ -77.2367, 38.88739 ] ], [ [ -77.23224, 38.88755 ], [ -77.23285, 38.88748 ], [ -77.23266, 38.88735 ], [ -77.23224, 38.88755 ] ], [ [ -77.22786, 38.88908 ], [ -77.22696, 38.88909 ], [ -77.22639, 38.89047 ], [ -77.22768, 38.89081 ], [ -77.22786, 38.88908 ] ], [ [ -77.22832, 38.89196 ], [ -77.22816, 38.89197 ], [ -77.22827, 38.89207 ], [ -77.22832, 38.89196 ] ] ] } },
{ "type": "Feature", "properties": { "variant": "T2s", "miles": 1.5 }, "geometry": { "type": "Polygon", "coordinates": [ [ [ -77.2474, 38.88008 ], [ -77.25116, 38.8814 ], [ -77.25327, 38.8844 ], [ -77.25254, 38.88542 ], [ -77.25066, 38.88475 ], [ -77.25029, 38.88718 ], [ -77.24961, 38.88759 ], [ -77.24867, 38.88742 ], [ -77.24808, 38.88799 ], [ -77.24755, 38.89024 ], [ -77.24682, 38.89043 ], [ -77.24567, 38.89002 ], [ -77.24425, 38.89146 ], [ -77.24143, 38.89026 ], [ -77.24049, 38.89134 ], [ -77.24157, 38.892 ], [ -77.24154, 38.89242 ], [ -77.24039, 38.89257 ], [ -77.23917, 38.89196 ], [ -77.23895, 38.89125 ], [ -77.23624, 38.89443 ], [ -77.2354, 38.89427 ], [ -77.23509, 38.89466 ], [ -77.23097, 38.89375 ], [ -77.23034, 38.89327 ], [ -77.22977, 38.89341 ], [ -77.22925, 38.89285 ], [ -77.22862, 38.89297 ], [ -77.22822, 38.89264 ], [ -77.22646, 38.89297 ], [ -77.22686, 38.89338 ], [ -77.23309, 38.89504 ], [ -77.234, 38.89614 ], [ -77.23639, 38.89474 ], [ -77.23691, 38.89481 ], [ -77.23711, 38.89556 ], [ -77.23594, 38.89657 ], [ -77.23647, 38.89739 ], [ -77.23549, 38.89843 ], [ -77.23624, 38.89892 ], [ -77.2362, 38.89933 ], [ -77.2353, 38.89956 ], [ -77.23501, 38.90029 ], [ -77.23319, 38.9004 ], [ -77.2322, 38.89996 ], [ -77.23139, 38.90084 ], [ -77.23053, 38.90048 ], [ -77.2306, 38.90004 ], [ -77.2287, 38.8992 ], [ -77.22666, 38.90055 ], [ -77.2281, 38.90115 ], [ -77.22774, 38.90187 ], [ -77.2244, 38.90118 ], [ -77.22434, 38.90266 ], [ -77.22354, 38.90358 ], [ -77.22252, 38.90382 ], [ -77.22157, 38.90365 ], [ -77.2217, 38.90246 ], [ -77.22027, 38.9029 ], [ -77.21939, 38.90133 ], [ -77.22034, 38.90101 ], [ -77.22068, 38.90029 ], [ -77.21948, 38.89997 ], [ -77.21855, 38.90042 ], [ -77.21812, 38.89974 ], [ -77.21882, 38.8983 ], [ -77.22018, 38.89836 ], [ -77.22052, 38.8991 ], [ -77.22112, 38.89926 ], [ -77.22149, 38.89841 ], [ -77.21653, 38.89767 ], [ -77.21676, 38.89683 ], [ -77.2175, 38.89677 ], [ -77.21849, 38.89705 ], [ -77.21923, 38.89708 ], [ -77.21884, 38.89675 ], [ -77.21935, 38.89607 ], [ -77.21892, 38.89516 ], [ -77.21767, 38.89466 ], [ -77.21781, 38.8941 ], [ -77.21654, 38.89509 ], [ -77.2144, 38.89494 ], [ -77.21465, 38.8942 ], [ -77.21657, 38.89339 ], [ -77.21697, 38.89152 ], [ -77.21735, 38.89122 ], [ -77.21825, 38.89151 ], [ -77.21789, 38.89282 ], [ -77.21931, 38.8923 ], [ -77.21914, 38.89133 ], [ -77.21948, 38.89102 ], [ -77.22094, 38.89123 ], [ -77.22018, 38.89001 ], [ -77.22188, 38.88941 ], [ -77.2223, 38.89005 ], [ -77.22268, 38.88913 ], [ -77.22119, 38.88857 ], [ -77.2215, 38.88785 ], [ -77.22317, 38.88812 ], [ -77.22485, 38.88769 ], [ -77.22596, 38.88799 ], [ -77.22638, 38.88701 ], [ -77.22518, 38.88653 ], [ -77.22515, 38.88611 ], [ -77.22549, 38.8858 ], [ -77.22681, 38.88598 ], [ -77.22776, 38.88356 ], [ -77.22879, 38.88387 ], [ -77.22878, 38.88566 ], [ -77.23024, 38.88512 ], [ -77.22957, 38.8842 ], [ -77.23082, 38.88287 ], [ -77.23276, 38.88256 ], [ -77.23345, 38.88206 ], [ -77.23729, 38.88101 ], [ -77.23796, 38.8817 ], [ -77.23641, 38.88407 ], [ -77.23685, 38.88406 ], [ -77.23788, 38.88322 ], [ -77.23743, 38.88253 ], [ -77.23883, 38.88067 ], [ -77.24226, 38.88023 ], [ -77.24353, 38.8806 ], [ -77.24433, 38.88 ], [ -77.24601, 38.88002 ], [ -77.24604, 38.87942 ], [ -77.24532, 38.87907 ], [ -77.24456, 38.87924 ], [ -77.24341, 38.87861 ], [ -77.24415, 38.87729 ], [ -77.24594, 38.87779 ], [ -77.24606, 38.87688 ], [ -77.24783, 38.87677 ], [ -77.24817, 38.87724 ], [ -77.24754, 38.87784 ], [ -77.2474, 38.88008 ] ], [ [ -77.22994, 38.8882 ], [ -77.22947, 38.88756 ], [ -77.22929, 38.8897 ], [ -77.22994, 38.8882 ] ], [ [ -77.24216, 38.88934 ], [ -77.24244, 38.88947 ], [ -77.24277, 38.88904 ], [ -77.24216, 38.88934 ] ], [ [ -77.23702, 38.88871 ], [ -77.24005, 38.88989 ], [ -77.24164, 38.88788 ], [ -77.23855, 38.88681 ], [ -77.23702, 38.88871 ] ], [ [ -77.23673, 38.88736 ], [ -77.23671, 38.88736 ], [ -77.2367, 38.88739 ], [ -77.23673, 38.88736 ] ], [ [ -77.23573, 38.88545 ], [ -77.23702, 38.88514 ], [ -77.23493, 38.88555 ], [ -77.23531, 38.88663 ], [ -77.23461, 38.88882 ], [ -77.23598, 38.88627 ], [ -77.23573, 38.88545 ] ], [ [ -77.24812, 38.886 ], [ -77.24894, 38.88635 ], [ -77.24942, 38.88425 ], [ -77.24812, 38.886 ] ], [ [ -77.2445, 38.88552 ], [ -77.2431, 38.88797 ], [ -77.24355, 38.88812 ], [ -77.24591, 38.88646 ], [ -77.2445, 38.88552 ] ], [ [ -77.24345, 38.88459 ], [ -77.24343, 38.88459 ], [ -77.24348, 38.88463 ], [ -77.24345, 38.88459 ] ], [ [ -77.24206, 38.88305 ], [ -77.24238, 38.88311 ], [ -77.24231, 38.88298 ], [ -77.24206, 38.88305 ] ], [ [ -77.24773, 38.88127 ], [ -77.24766, 38.8814 ], [ -77.2477, 38.88137 ], [ -77.24811, 38.88141 ], [ -77.24773, 38.88127 ] ], [ [ -77.24757, 38.88237 ], [ -77.24727, 38.88208 ], [ -77.24718, 38.88224 ], [ -77.24828, 38.88262 ], [ -77.24757, 38.88237 ] ], [ [ -77.25034, 38.88231 ], [ -77.25, 38.88209 ], [ -77.24962, 38.88313 ], [ -77.25087, 38.8835 ], [ -77.25034, 38.88231 ] ], [ [ -77.24508, 38.88454 ], [ -77.24705, 38.88528 ], [ -77.24793, 38.88371 ], [ -77.24597, 38.883 ], [ -77.24508, 38.88454 ] ], [ [ -77.2436, 38.88259 ], [ -77.24367, 38.88272 ], [ -77.24372, 38.88262 ], [ -77.2436, 38.88259 ] ], [ [ -77.24054, 38.88602 ], [ -77.24029, 38.88623 ], [ -77.24222, 38.88689 ], [ -77.24054, 38.88602 ] ], [ [ -77.24655, 38.88914 ], [ -77.24663, 38.8889 ], [ -77.24658, 38.88895 ], [ -77.24655, 38.88914 ] ], [ [ -77.2469, 38.88737 ], [ -77.24742, 38.88693 ], [ -77.24484, 38.88854 ], [ -77.2469, 38.88737 ] ], [ [ -77.24361, 38.89005 ], [ -77.24389, 38.89019 ], [ -77.24439, 38.88957 ], [ -77.24361, 38.89005 ] ], [ [ -77.23953, 38.88245 ], [ -77.23958, 38.88244 ], [ -77.23945, 38.88243 ], [ -77.23953, 38.88245 ] ], [ [ -77.23817, 38.88549 ], [ -77.23923, 38.88586 ], [ -77.23794, 38.88478 ], [ -77.23767, 38.88494 ], [ -77.23817, 38.88549 ] ], [ [ -77.2423, 38.88526 ], [ -77.24122, 38.88505 ], [ -77.24274, 38.88569 ], [ -77.2423, 38.88526 ] ], [ [ -77.23212, 38.88486 ], [ -77.23273, 38.8842 ], [ -77.23257, 38.88412 ], [ -77.23161, 38.88475 ], [ -77.23212, 38.88486 ] ], [ [ -77.23254, 38.88751 ], [ -77.23285, 38.88748 ], [ -77.23266, 38.88735 ], [ -77.23224, 38.88755 ], [ -77.23254, 38.88751 ] ], [ [ -77.23123, 38.88859 ], [ -77.23121, 38.88864 ], [ -77.23127, 38.88861 ], [ -77.23123, 38.88859 ] ], [ [ -77.22993, 38.8985 ], [ -77.22995, 38.89839 ], [ -77.22985, 38.89846 ], [ -77.22993, 38.8985 ] ], [ [ -77.23134, 38.89666 ], [ -77.23264, 38.89639 ], [ -77.23238, 38.89597 ], [ -77.22815, 38.89485 ], [ -77.22786, 38.8953 ], [ -77.23134, 38.89666 ] ], [ [ -77.22604, 38.89956 ], [ -77.22496, 38.89906 ], [ -77.22469, 38.90011 ], [ -77.22604, 38.89956 ] ], [ [ -77.22352, 38.89708 ], [ -77.22336, 38.89747 ], [ -77.22385, 38.89743 ], [ -77.22391, 38.89711 ], [ -77.22352, 38.89708 ] ], [ [ -77.22126, 38.89578 ], [ -77.22089, 38.89663 ], [ -77.22187, 38.8962 ], [ -77.22232, 38.89646 ], [ -77.22249, 38.89609 ], [ -77.22126, 38.89578 ] ], [ [ -77.22332, 38.8946 ], [ -77.22236, 38.89442 ], [ -77.2221, 38.89485 ], [ -77.22294, 38.89506 ], [ -77.22332, 38.8946 ] ], [ [ -77.22241, 38.89319 ], [ -77.22246, 38.89322 ], [ -77.22242, 38.89317 ], [ -77.22241, 38.89319 ] ], [ [ -77.2262, 38.89435 ], [ -77.22597, 38.89425 ], [ -77.22662, 38.89482 ], [ -77.22682, 38.89451 ], [ -77.2262, 38.89435 ] ], [ [ -77.22576, 38.8923 ], [ -77.226, 38.89151 ], [ -77.22574, 38.89221 ], [ -77.22584, 38.89299 ], [ -77.22576, 38.8923 ] ], [ [ -77.22386, 38.88982 ], [ -77.22364, 38.89032 ], [ -77.22434, 38.89042 ], [ -77.22472, 38.89094 ], [ -77.22502, 38.89025 ], [ -77.22386, 38.88982 ] ], [ [ -77.22554, 38.88902 ], [ -77.22432, 38.88868 ], [ -77.22417, 38.88903 ], [ -77.22554, 38.88902 ] ], [ [ -77.22639, 38.89047 ], [ -77.22768, 38.89081 ], [ -77.22786, 38.88908 ], [ -77.22713, 38.88906 ], [ -77.22639, 38.89047 ] ], [ [ -77.22816, 38.89197 ], [ -77.22827, 38.89207 ], [ -77.22832, 38.89196 ], [ -77.22816, 38.89197 ] ], [ [ -77.22629, 38.89727 ], [ -77.22745, 38.89669 ], [ -77.22836, 38.89721 ], [ -77.22878, 38.89683 ], [ -77.22582, 38.89571 ], [ -77.22629, 38.89727 ] ], [ [ -77.22723, 38.8988 ], [ -77.22737, 38.89871 ], [ -77.22733, 38.8987 ], [ -77.22723, 38.8988 ] ], [ [ -77.2239, 38.8921 ], [ -77.22422, 38.89236 ], [ -77.22421, 38.89219 ], [ -77.2239, 38.8921 ] ], [ [ -77.22124, 38.89252 ], [ -77.22127, 38.89246 ], [ -77.22066, 38.8923 ], [ -77.22124, 38.89252 ] ], [ [ -77.21862, 38.89374 ], [ -77.21819, 38.89393 ], [ -77.21853, 38.89392 ], [ -77.21862, 38.89374 ] ] ] } }
]
}
