{
"type": "FeatureCollection",
"name": "71",
"crs": { "type": "name", "properties": { "name": "urn:ogc:def:crs:OGC:1.3:CRS84" } },
"xy_coordinate_resolution": 1e-05,
"features": [
{ "type": "Feature", "properties": { "variant": "T0", "miles": 1.0 }, "geometry": { "type": "Polygon", "coordinates": [ [ [ -77.2292, 38.89679 ], [ -77.23153, 38.89677 ], [ -77.23186, 38.89749 ], [ -77.22985, 38.89846 ], [ -77.23125, 38.89909 ], [ -77.23177, 38.89871 ], [ -77.23262, 38.89909 ], [ -77.23139, 38.90084 ], [ -77.23086, 38.9008 ], [ -77.23018, 38.89986 ], [ -77.2295, 38.90045 ], [ -77.22838, 38.90012 ], [ -77.2285, 38.90062 ], [ -77.22937, 38.90103 ], [ -77.22929, 38.90156 ], [ -77.23028, 38.90191 ], [ -77.23074, 38.90269 ], [ -77.23062, 38.9031 ], [ -77.22964, 38.90321 ], [ -77.22934, 38.90372 ], [ -77.23048, 38.90443 ], [ -77.22999, 38.90509 ], [ -77.22923, 38.90492 ], [ -77.23, 38.90555 ], [ -77.22981, 38.90618 ], [ -77.23032, 38.90704 ], [ -77.22935, 38.90728 ], [ -77.22834, 38.90825 ], [ -77.23011, 38.90906 ], [ -77.23046, 38.90977 ], [ -77.22946, 38.91001 ], [ -77.2285, 38.91178 ], [ -77.23153, 38.91321 ], [ -77.23179, 38.91389 ], [ -77.23081, 38.91427 ], [ -77.22881, 38.91325 ], [ -77.22785, 38.91475 ], [ -77.22505, 38.91322 ], [ -77.22605, 38.91195 ], [ -77.22551, 38.91171 ], [ -77.22451, 38.91199 ], [ -77.22371, 38.91107 ], [ -77.21966, 38.91023 ], [ -77.21869, 38.90932 ], [ -77.21873, 38.90825 ], [ -77.21764, 38.90714 ], [ -77.21877, 38.90593 ], [ -77.21886, 38.90516 ], [ -77.21785, 38.9041 ], [ -77.21843, 38.90306 ], [ -77.2192, 38.90311 ], [ -77.21886, 38.90225 ], [ -77.21992, 38.90204 ], [ -77.2194, 38.90142 ], [ -77.21882, 38.90149 ], [ -77.21835, 38.90252 ], [ -77.21747, 38.90286 ], [ -77.21707, 38.90259 ], [ -77.21719, 38.90182 ], [ -77.2161, 38.90126 ], [ -77.21632, 38.90037 ], [ -77.21535, 38.90016 ], [ -77.21566, 38.89896 ], [ -77.21414, 38.89856 ], [ -77.21372, 38.89787 ], [ -77.2146, 38.89754 ], [ -77.21609, 38.89793 ], [ -77.21599, 38.89688 ], [ -77.21693, 38.89668 ], [ -77.21772, 38.89718 ], [ -77.2174, 38.89828 ], [ -77.21857, 38.89858 ], [ -77.21882, 38.8983 ], [ -77.22018, 38.89836 ], [ -77.22052, 38.8991 ], [ -77.22112, 38.89926 ], [ -77.22149, 38.89841 ], [ -77.22032, 38.89818 ], [ -77.22015, 38.89779 ], [ -77.22135, 38.89628 ], [ -77.22232, 38.89646 ], [ -77.22249, 38.89609 ], [ -77.22062, 38.8956 ], [ -77.22021, 38.89491 ], [ -77.22109, 38.89458 ], [ -77.22293, 38.89507 ], [ -77.2236, 38.89446 ], [ -77.22522, 38.89429 ], [ -77.22755, 38.89536 ], [ -77.22712, 38.89604 ], [ -77.22582, 38.89571 ], [ -77.22629, 38.89727 ], [ -77.22691, 38.89676 ], [ -77.22775, 38.89675 ], [ -77.22856, 38.89791 ], [ -77.22916, 38.8975 ], [ -77.2292, 38.89679 ] ], [ [ -77.22307, 38.90611 ], [ -77.22492, 38.90643 ], [ -77.22593, 38.9062 ], [ -77.22539, 38.90556 ], [ -77.22613, 38.9037 ], [ -77.22415, 38.90285 ], [ -77.22307, 38.90611 ] ], [ [ -77.22339, 38.89747 ], [ -77.22385, 38.89743 ], [ -77.22391, 38.89711 ], [ -77.22352, 38.89708 ], [ -77.22339, 38.89747 ] ], [ [ -77.22728, 38.9133 ], [ -77.22725, 38.91292 ], [ -77.22669, 38.91297 ], [ -77.22728, 38.9133 ] ], [ [ -77.22736, 38.9111 ], [ -77.22669, 38.91086 ], [ -77.22732, 38.91117 ], [ -77.22736, 38.9111 ] ], [ [ -77.22544, 38.90217 ], [ -77.22646, 38.90165 ], [ -77.22532, 38.90114 ], [ -77.2244, 38.90118 ], [ -77.22427, 38.90166 ], [ -77.22544, 38.90217 ] ], [ [ -77.22469, 38.90011 ], [ -77.22604, 38.89956 ], [ -77.22496, 38.89906 ], [ -77.22469, 38.90011 ] ], [ [ -77.22759, 38.90577 ], [ -77.22746, 38.90602 ], [ -77.22746, 38.90604 ], [ -77.22759, 38.90577 ] ], [ [ -77.22807, 38.90326 ], [ -77.22864, 38.90203 ], [ -77.22738, 38.90193 ], [ -77.22759, 38.90308 ], [ -77.22807, 38.90326 ] ], [ [ -77.22711, 38.90057 ], [ -77.22666, 38.90055 ], [ -77.22706, 38.90067 ], [ -77.22711, 38.90057 ] ], [ [ -77.22737, 38.89871 ], [ -77.22729, 38.89875 ], [ -77.22723, 38.8988 ], [ -77.22737, 38.89871 ] ], [ [ -77.22532, 38.91032 ], [ -77.22471, 38.91005 ], [ -77.22468, 38.91007 ], [ -77.22532, 38.91032 ] ], [ [ -77.22227, 38.90921 ], [ -77.22211, 38.90947 ], [ -77.22243, 38.90952 ], [ -77.22246, 38.9095 ], [ -77.22227, 38.90921 ] ], [ [ -77.22098, 38.90286 ], [ -77.22154, 38.9035 ], [ -77.2217, 38.90246 ], [ -77.22098, 38.90286 ] ], [ [ -77.22003, 38.90101 ], [ -77.21968, 38.90096 ], [ -77.21963, 38.90112 ], [ -77.21974, 38.90102 ], [ -77.22003, 38.90101 ] ], [ [ -77.22213, 38.90115 ], [ -77.22204, 38.90113 ], [ -77.22207, 38.90114 ], [ -77.22213, 38.90115 ] ], [ [ -77.22062, 38.90852 ], [ -77.22006, 38.90853 ], [ -77.22048, 38.90898 ], [ -77.22062, 38.90852 ] ], [ [ -77.21817, 38.89962 ], [ -77.21697, 38.89931 ], [ -77.21678, 38.89974 ], [ -77.21803, 38.89992 ], [ -77.21817, 38.89962 ] ] ] } },
{ "type": "Feature", "properties": { "variant": "T0", "miles": 1.5 }, "geometry": { "type": "Polygon", "coordinates": [ [ [ -77.2397, 38.89421 ], [ -77.23961, 38.89461 ], [ -77.23885, 38.89481 ], [ -77.24004, 38.89517 ], [ -77.24047, 38.89602 ], [ -77.24026, 38.89704 ], [ -77.23912, 38.89811 ], [ -77.23939, 38.89911 ], [ -77.23756, 38.90011 ], [ -77.23776, 38.90085 ], [ -77.23919, 38.90068 ], [ -77.23994, 38.90114 ], [ -77.23992, 38.90371 ], [ -77.23894, 38.90374 ], [ -77.23867, 38.90228 ], [ -77.23613, 38.90182 ], [ -77.23598, 38.90289 ], [ -77.23645, 38.90372 ], [ -77.23595, 38.90479 ], [ -77.23506, 38.90512 ], [ -77.23467, 38.90484 ], [ -77.23499, 38.90368 ], [ -77.23457, 38.90279 ], [ -77.23307, 38.90208 ], [ -77.23274, 38.90175 ], [ -77.23314, 38.90113 ], [ -77.23261, 38.90091 ], [ -77.2321, 38.9013 ], [ -77.23156, 38.90119 ], [ -77.23191, 38.90206 ], [ -77.23054, 38.90219 ], [ -77.23062, 38.9031 ], [ -77.22964, 38.90321 ], [ -77.22934, 38.90372 ], [ -77.23199, 38.90449 ], [ -77.23286, 38.90439 ], [ -77.23306, 38.90513 ], [ -77.23389, 38.90565 ], [ -77.23412, 38.90602 ], [ -77.23309, 38.90803 ], [ -77.23339, 38.90868 ], [ -77.23293, 38.90897 ], [ -77.23406, 38.9089 ], [ -77.23513, 38.91011 ], [ -77.23608, 38.90971 ], [ -77.23639, 38.91057 ], [ -77.2373, 38.91106 ], [ -77.23736, 38.91202 ], [ -77.23814, 38.91262 ], [ -77.23776, 38.91333 ], [ -77.23697, 38.91312 ], [ -77.23572, 38.91379 ], [ -77.23463, 38.91358 ], [ -77.23424, 38.91427 ], [ -77.23764, 38.9157 ], [ -77.23875, 38.91528 ], [ -77.23964, 38.91555 ], [ -77.23979, 38.91629 ], [ -77.23869, 38.91663 ], [ -77.23912, 38.91742 ], [ -77.23895, 38.91861 ], [ -77.23724, 38.91949 ], [ -77.23664, 38.91924 ], [ -77.23543, 38.9174 ], [ -77.23411, 38.91779 ], [ -77.23199, 38.91709 ], [ -77.2311, 38.91781 ], [ -77.23313, 38.91935 ], [ -77.23313, 38.92047 ], [ -77.23202, 38.92052 ], [ -77.2304, 38.91904 ], [ -77.22928, 38.91945 ], [ -77.22885, 38.92022 ], [ -77.22684, 38.92053 ], [ -77.22653, 38.92168 ], [ -77.22603, 38.92181 ], [ -77.22537, 38.92124 ], [ -77.22546, 38.92054 ], [ -77.22357, 38.92077 ], [ -77.22123, 38.91981 ], [ -77.22191, 38.91898 ], [ -77.22315, 38.91927 ], [ -77.22483, 38.91846 ], [ -77.22379, 38.9161 ], [ -77.22294, 38.91578 ], [ -77.22212, 38.91657 ], [ -77.22197, 38.91691 ], [ -77.22261, 38.91743 ], [ -77.22208, 38.91807 ], [ -77.21755, 38.91737 ], [ -77.21796, 38.91414 ], [ -77.21921, 38.91323 ], [ -77.21955, 38.91225 ], [ -77.21404, 38.90917 ], [ -77.2139, 38.90824 ], [ -77.215, 38.90814 ], [ -77.22012, 38.91103 ], [ -77.22044, 38.91036 ], [ -77.21964, 38.91023 ], [ -77.21869, 38.90932 ], [ -77.21873, 38.90825 ], [ -77.21764, 38.90714 ], [ -77.21824, 38.9065 ], [ -77.21813, 38.9058 ], [ -77.21716, 38.90534 ], [ -77.21681, 38.90269 ], [ -77.2162, 38.90236 ], [ -77.21643, 38.90063 ], [ -77.21535, 38.90016 ], [ -77.21566, 38.89896 ], [ -77.21379, 38.89847 ], [ -77.21294, 38.8991 ], [ -77.21225, 38.89878 ], [ -77.2108, 38.90055 ], [ -77.20992, 38.90021 ], [ -77.2103, 38.89931 ], [ -77.20908, 38.8999 ], [ -77.20867, 38.8992 ], [ -77.21, 38.89733 ], [ -77.21056, 38.89567 ], [ -77.20955, 38.8957 ], [ -77.20882, 38.89519 ], [ -77.21064, 38.89407 ], [ -77.21163, 38.89456 ], [ -77.21225, 38.8934 ], [ -77.2132, 38.89359 ], [ -77.21311, 38.8945 ], [ -77.21406, 38.89446 ], [ -77.21657, 38.89339 ], [ -77.21655, 38.89227 ], [ -77.21735, 38.89122 ], [ -77.21825, 38.89151 ], [ -77.21789, 38.89282 ], [ -77.21931, 38.8923 ], [ -77.21914, 38.89133 ], [ -77.21948, 38.89102 ], [ -77.22094, 38.89123 ], [ -77.22021, 38.89042 ], [ -77.22053, 38.8897 ], [ -77.22188, 38.88941 ], [ -77.2223, 38.89005 ], [ -77.22268, 38.88913 ], [ -77.22119, 38.88857 ], [ -77.2215, 38.88785 ], [ -77.22317, 38.88812 ], [ -77.22485, 38.88769 ], [ -77.22596, 38.88799 ], [ -77.22697, 38.8862 ], [ -77.22789, 38.88646 ], [ -77.22787, 38.88727 ], [ -77.22902, 38.88749 ], [ -77.22951, 38.88844 ], [ -77.22884, 38.88922 ], [ -77.22696, 38.88909 ], [ -77.22639, 38.89047 ], [ -77.22828, 38.89096 ], [ -77.22873, 38.89164 ], [ -77.22816, 38.89197 ], [ -77.22833, 38.89256 ], [ -77.22793, 38.89283 ], [ -77.22646, 38.89297 ], [ -77.22686, 38.89338 ], [ -77.23297, 38.89499 ], [ -77.234, 38.89614 ], [ -77.23555, 38.89542 ], [ -77.23724, 38.89342 ], [ -77.23819, 38.89327 ], [ -77.2397, 38.89421 ] ], [ [ -77.22725, 38.91859 ], [ -77.22634, 38.91812 ], [ -77.22676, 38.91881 ], [ -77.22725, 38.91859 ] ], [ [ -77.22665, 38.91428 ], [ -77.22588, 38.91384 ], [ -77.2256, 38.91414 ], [ -77.22648, 38.91449 ], [ -77.22665, 38.91428 ] ], [ [ -77.22605, 38.91195 ], [ -77.22551, 38.91171 ], [ -77.22451, 38.91199 ], [ -77.22327, 38.91097 ], [ -77.22257, 38.91218 ], [ -77.22459, 38.91339 ], [ -77.22605, 38.91195 ] ], [ [ -77.22593, 38.9062 ], [ -77.22539, 38.90556 ], [ -77.22613, 38.9037 ], [ -77.22415, 38.90285 ], [ -77.22307, 38.90611 ], [ -77.22593, 38.9062 ] ], [ [ -77.22646, 38.90165 ], [ -77.22532, 38.90114 ], [ -77.2244, 38.90118 ], [ -77.22427, 38.90166 ], [ -77.22544, 38.90217 ], [ -77.22646, 38.90165 ] ], [ [ -77.22536, 38.89999 ], [ -77.22604, 38.89956 ], [ -77.22496, 38.89906 ], [ -77.22475, 38.90011 ], [ -77.22536, 38.89999 ] ], [ [ -77.22352, 38.89708 ], [ -77.22336, 38.89747 ], [ -77.22363, 38.89749 ], [ -77.22352, 38.89708 ] ], [ [ -77.22421, 38.89219 ], [ -77.2239, 38.8921 ], [ -77.22408, 38.89223 ], [ -77.22421, 38.89219 ] ], [ [ -77.22472, 38.89094 ], [ -77.22502, 38.89025 ], [ -77.22386, 38.88982 ], [ -77.22368, 38.8903 ], [ -77.22472, 38.89094 ] ], [ [ -77.22546, 38.88922 ], [ -77.22554, 38.88902 ], [ -77.22432, 38.88868 ], [ -77.22417, 38.88903 ], [ -77.22546, 38.88922 ] ], [ [ -77.2306, 38.90004 ], [ -77.23018, 38.89986 ], [ -77.22986, 38.90035 ], [ -77.2306, 38.90004 ] ], [ [ -77.22985, 38.89846 ], [ -77.22993, 38.8985 ], [ -77.22995, 38.89839 ], [ -77.22985, 38.89846 ] ], [ [ -77.22878, 38.89683 ], [ -77.22582, 38.89571 ], [ -77.22629, 38.89727 ], [ -77.22725, 38.89669 ], [ -77.22847, 38.89712 ], [ -77.22878, 38.89683 ] ], [ [ -77.23134, 38.89666 ], [ -77.23264, 38.89639 ], [ -77.23238, 38.89597 ], [ -77.22815, 38.89485 ], [ -77.22786, 38.8953 ], [ -77.23134, 38.89666 ] ], [ [ -77.23561, 38.90047 ], [ -77.23577, 38.90045 ], [ -77.23565, 38.9004 ], [ -77.23561, 38.90047 ] ], [ [ -77.23728, 38.89821 ], [ -77.23677, 38.8987 ], [ -77.23732, 38.89874 ], [ -77.23781, 38.89824 ], [ -77.23728, 38.89821 ] ], [ [ -77.23752, 38.89694 ], [ -77.2361, 38.89663 ], [ -77.23661, 38.89684 ], [ -77.23752, 38.89694 ] ], [ [ -77.23116, 38.91445 ], [ -77.22881, 38.91325 ], [ -77.2286, 38.91405 ], [ -77.23132, 38.9156 ], [ -77.23189, 38.91583 ], [ -77.23321, 38.91522 ], [ -77.23116, 38.91445 ] ], [ [ -77.23112, 38.91246 ], [ -77.23073, 38.91224 ], [ -77.23048, 38.91269 ], [ -77.23089, 38.91289 ], [ -77.23112, 38.91246 ] ], [ [ -77.22946, 38.91001 ], [ -77.2285, 38.91178 ], [ -77.22931, 38.91208 ], [ -77.23033, 38.91014 ], [ -77.22946, 38.91001 ] ], [ [ -77.23105, 38.90816 ], [ -77.2306, 38.90803 ], [ -77.23048, 38.90822 ], [ -77.23123, 38.90866 ], [ -77.23105, 38.90816 ] ], [ [ -77.23, 38.906 ], [ -77.22981, 38.90618 ], [ -77.23003, 38.90631 ], [ -77.23, 38.906 ] ], [ [ -77.23598, 38.91223 ], [ -77.23561, 38.91191 ], [ -77.23523, 38.91257 ], [ -77.23598, 38.91223 ] ], [ [ -77.23414, 38.91668 ], [ -77.2358, 38.9161 ], [ -77.23525, 38.91587 ], [ -77.23359, 38.91649 ], [ -77.23414, 38.91668 ] ], [ [ -77.23753, 38.91825 ], [ -77.23721, 38.91731 ], [ -77.23734, 38.91782 ], [ -77.23753, 38.91825 ] ], [ [ -77.23244, 38.90612 ], [ -77.23233, 38.90606 ], [ -77.23137, 38.90662 ], [ -77.23158, 38.90681 ], [ -77.23244, 38.90612 ] ], [ [ -77.22669, 38.91086 ], [ -77.22732, 38.91117 ], [ -77.22736, 38.9111 ], [ -77.22669, 38.91086 ] ], [ [ -77.22746, 38.90602 ], [ -77.22746, 38.90604 ], [ -77.22759, 38.90577 ], [ -77.22746, 38.90602 ] ], [ [ -77.22738, 38.90193 ], [ -77.22759, 38.90308 ], [ -77.22808, 38.90326 ], [ -77.22863, 38.90224 ], [ -77.22738, 38.90193 ] ], [ [ -77.22666, 38.90055 ], [ -77.22706, 38.90067 ], [ -77.22711, 38.90057 ], [ -77.22666, 38.90055 ] ], [ [ -77.2285, 38.90062 ], [ -77.22913, 38.90073 ], [ -77.22941, 38.90042 ], [ -77.22861, 38.9002 ], [ -77.2285, 38.90062 ] ], [ [ -77.22834, 38.90825 ], [ -77.22887, 38.90841 ], [ -77.22947, 38.90734 ], [ -77.22834, 38.90825 ] ], [ [ -77.22759, 38.91725 ], [ -77.2274, 38.91737 ], [ -77.22916, 38.91831 ], [ -77.22759, 38.91725 ] ], [ [ -77.23028, 38.91692 ], [ -77.23071, 38.91657 ], [ -77.2279, 38.91499 ], [ -77.22768, 38.91526 ], [ -77.23028, 38.91692 ] ], [ [ -77.22682, 38.89451 ], [ -77.22597, 38.89425 ], [ -77.22599, 38.89456 ], [ -77.22666, 38.89475 ], [ -77.22682, 38.89451 ] ], [ [ -77.22576, 38.8923 ], [ -77.226, 38.89151 ], [ -77.22574, 38.89221 ], [ -77.22584, 38.89299 ], [ -77.22576, 38.8923 ] ], [ [ -77.22682, 38.91286 ], [ -77.22669, 38.91297 ], [ -77.22728, 38.9133 ], [ -77.22682, 38.91286 ] ], [ [ -77.22154, 38.9035 ], [ -77.2217, 38.90246 ], [ -77.22098, 38.90286 ], [ -77.22154, 38.9035 ] ], [ [ -77.21753, 38.89796 ], [ -77.2174, 38.89828 ], [ -77.21857, 38.89858 ], [ -77.21882, 38.8983 ], [ -77.22018, 38.89836 ], [ -77.22052, 38.8991 ], [ -77.22112, 38.89926 ], [ -77.22149, 38.89841 ], [ -77.21753, 38.89796 ] ], [ [ -77.22232, 38.89646 ], [ -77.22249, 38.89609 ], [ -77.22126, 38.89578 ], [ -77.22089, 38.89663 ], [ -77.22135, 38.89628 ], [ -77.22232, 38.89646 ] ], [ [ -77.22124, 38.89252 ], [ -77.22127, 38.89246 ], [ -77.22066, 38.8923 ], [ -77.22124, 38.89252 ] ], [ [ -77.22509, 38.9101 ], [ -77.22468, 38.91007 ], [ -77.22532, 38.91032 ], [ -77.22509, 38.9101 ] ], [ [ -77.22332, 38.8946 ], [ -77.22236, 38.89442 ], [ -77.2221, 38.89485 ], [ -77.22296, 38.895 ], [ -77.22332, 38.8946 ] ], [ [ -77.22246, 38.89322 ], [ -77.22242, 38.89317 ], [ -77.22241, 38.89319 ], [ -77.22246, 38.89322 ] ], [ [ -77.22386, 38.91467 ], [ -77.22376, 38.91478 ], [ -77.22543, 38.91566 ], [ -77.22386, 38.91467 ] ], [ [ -77.21939, 38.91432 ], [ -77.21921, 38.91531 ], [ -77.22027, 38.9157 ], [ -77.22035, 38.91492 ], [ -77.21939, 38.91432 ] ], [ [ -77.22188, 38.91348 ], [ -77.2215, 38.91329 ], [ -77.22063, 38.91367 ], [ -77.22188, 38.91348 ] ], [ [ -77.2213, 38.91164 ], [ -77.22135, 38.91167 ], [ -77.22199, 38.91056 ], [ -77.2213, 38.91164 ] ], [ [ -77.22006, 38.90853 ], [ -77.22048, 38.90898 ], [ -77.22062, 38.90852 ], [ -77.22006, 38.90853 ] ], [ [ -77.21992, 38.90204 ], [ -77.2194, 38.90142 ], [ -77.21882, 38.90149 ], [ -77.21992, 38.90204 ] ], [ [ -77.21697, 38.89931 ], [ -77.21678, 38.89974 ], [ -77.21803, 38.89992 ], [ -77.21817, 38.89962 ], [ -77.21697, 38.89931 ] ], [ [ -77.21968, 38.90096 ], [ -77.21963, 38.90112 ], [ -77.21974, 38.90102 ], [ -77.21968, 38.90096 ] ], [ [ -77.21922, 38.8971 ], [ -77.21884, 38.89675 ], [ -77.21935, 38.89607 ], [ -77.21892, 38.89516 ], [ -77.21813, 38.89495 ], [ -77.21845, 38.89591 ], [ -77.218, 38.89694 ], [ -77.21922, 38.8971 ] ], [ [ -77.21716, 38.89437 ], [ -77.21716, 38.89439 ], [ -77.21766, 38.89451 ], [ -77.2178, 38.8941 ], [ -77.21716, 38.89437 ] ], [ [ -77.21849, 38.89705 ], [ -77.21849, 38.89706 ], [ -77.21851, 38.89706 ], [ -77.21849, 38.89705 ] ], [ [ -77.2194, 38.9166 ], [ -77.21899, 38.9164 ], [ -77.21893, 38.91662 ], [ -77.2194, 38.9166 ] ], [ [ -77.21577, 38.89588 ], [ -77.21598, 38.89487 ], [ -77.21436, 38.89552 ], [ -77.2151, 38.896 ], [ -77.21505, 38.89641 ], [ -77.21428, 38.89665 ], [ -77.21458, 38.89753 ], [ -77.21609, 38.89793 ], [ -77.21622, 38.89761 ], [ -77.21516, 38.89669 ], [ -77.21577, 38.89588 ] ], [ [ -77.21083, 38.89828 ], [ -77.21111, 38.89798 ], [ -77.21136, 38.89746 ], [ -77.21083, 38.89828 ] ], [ [ -77.21144, 38.89712 ], [ -77.21244, 38.89597 ], [ -77.21203, 38.89581 ], [ -77.21144, 38.89712 ] ], [ [ -77.21351, 38.89675 ], [ -77.21397, 38.89658 ], [ -77.21368, 38.89646 ], [ -77.21328, 38.89711 ], [ -77.21351, 38.89675 ] ] ] } },
{ "type": "Feature", "properties": { "variant": "T0", "miles": 2.0 }, "geometry": { "type": "Polygon", "coordinates": [ [ [ -77.24408, 38.88829 ], [ -77.24447, 38.88899 ], [ -77.24357, 38.8893 ], [ -77.24249, 38.88894 ], [ -77.24216, 38.88934 ], [ -77.24477, 38.89082 ], [ -77.24425, 38.89146 ], [ -77.24266, 38.89086 ], [ -77.24256, 38.89114 ], [ -77.24537, 38.89224 ], [ -77.24663, 38.89322 ], [ -77.24664, 38.89398 ], [ -77.24523, 38.89556 ], [ -77.24538, 38.8961 ], [ -77.24607, 38.89616 ], [ -77.24675, 38.89691 ], [ -77.24655, 38.8973 ], [ -77.24518, 38.89746 ], [ -77.244, 38.89676 ], [ -77.24288, 38.89738 ], [ -77.24097, 38.89621 ], [ -77.24106, 38.89526 ], [ -77.2402, 38.89552 ], [ -77.24049, 38.89645 ], [ -77.2427, 38.89776 ], [ -77.2426, 38.90029 ], [ -77.24443, 38.89974 ], [ -77.24528, 38.89984 ], [ -77.24587, 38.90038 ], [ -77.24601, 38.90169 ], [ -77.2455, 38.90263 ], [ -77.24459, 38.90297 ], [ -77.24519, 38.90387 ], [ -77.2447, 38.90445 ], [ -77.24367, 38.9042 ], [ -77.24319, 38.90315 ], [ -77.24345, 38.90235 ], [ -77.24261, 38.90196 ], [ -77.24195, 38.90396 ], [ -77.24108, 38.90396 ], [ -77.2401, 38.90325 ], [ -77.24016, 38.90491 ], [ -77.24159, 38.90494 ], [ -77.2423, 38.90573 ], [ -77.24166, 38.90653 ], [ -77.24166, 38.90735 ], [ -77.24063, 38.90781 ], [ -77.24323, 38.90827 ], [ -77.24464, 38.90926 ], [ -77.24425, 38.90975 ], [ -77.24297, 38.91 ], [ -77.2425, 38.91075 ], [ -77.242, 38.9109 ], [ -77.2414, 38.91046 ], [ -77.24048, 38.91087 ], [ -77.24077, 38.91128 ], [ -77.2435, 38.91206 ], [ -77.24427, 38.91288 ], [ -77.24708, 38.91183 ], [ -77.2482, 38.91311 ], [ -77.24829, 38.91377 ], [ -77.24515, 38.91743 ], [ -77.24468, 38.91761 ], [ -77.24349, 38.91719 ], [ -77.24197, 38.91775 ], [ -77.24261, 38.9197 ], [ -77.24205, 38.92004 ], [ -77.24235, 38.92086 ], [ -77.24118, 38.92163 ], [ -77.24005, 38.92156 ], [ -77.24023, 38.92258 ], [ -77.23872, 38.92306 ], [ -77.23785, 38.92393 ], [ -77.23924, 38.92541 ], [ -77.23907, 38.92616 ], [ -77.23742, 38.92579 ], [ -77.23644, 38.92474 ], [ -77.23106, 38.92728 ], [ -77.23048, 38.92686 ], [ -77.22863, 38.92706 ], [ -77.22825, 38.92644 ], [ -77.2285, 38.92566 ], [ -77.2271, 38.92716 ], [ -77.22719, 38.9281 ], [ -77.22624, 38.92828 ], [ -77.22577, 38.92745 ], [ -77.22455, 38.92732 ], [ -77.22234, 38.9259 ], [ -77.2214, 38.92434 ], [ -77.22116, 38.92278 ], [ -77.21806, 38.92405 ], [ -77.21738, 38.92338 ], [ -77.21817, 38.92255 ], [ -77.21816, 38.92161 ], [ -77.21467, 38.92299 ], [ -77.21374, 38.92275 ], [ -77.21405, 38.92203 ], [ -77.21816, 38.92021 ], [ -77.21815, 38.91941 ], [ -77.21726, 38.91878 ], [ -77.21715, 38.91817 ], [ -77.21799, 38.91406 ], [ -77.21921, 38.91323 ], [ -77.21955, 38.91225 ], [ -77.21644, 38.9106 ], [ -77.21658, 38.91147 ], [ -77.21777, 38.9124 ], [ -77.2177, 38.9137 ], [ -77.2168, 38.914 ], [ -77.21642, 38.91371 ], [ -77.21642, 38.91266 ], [ -77.21548, 38.91214 ], [ -77.21516, 38.91149 ], [ -77.21506, 38.91237 ], [ -77.21557, 38.91266 ], [ -77.21525, 38.91374 ], [ -77.2148, 38.9141 ], [ -77.21374, 38.91407 ], [ -77.21427, 38.91483 ], [ -77.21401, 38.9152 ], [ -77.21304, 38.91511 ], [ -77.2118, 38.91424 ], [ -77.21233, 38.91317 ], [ -77.21053, 38.91191 ], [ -77.2084, 38.91139 ], [ -77.20854, 38.91064 ], [ -77.20941, 38.91058 ], [ -77.20931, 38.90991 ], [ -77.2097, 38.90963 ], [ -77.21039, 38.90978 ], [ -77.21055, 38.90925 ], [ -77.20919, 38.90876 ], [ -77.20938, 38.90775 ], [ -77.20712, 38.90712 ], [ -77.20587, 38.90614 ], [ -77.20676, 38.90524 ], [ -77.20799, 38.90614 ], [ -77.20961, 38.90655 ], [ -77.20987, 38.9059 ], [ -77.20855, 38.90581 ], [ -77.20818, 38.90511 ], [ -77.20856, 38.90481 ], [ -77.2103, 38.9048 ], [ -77.21019, 38.90374 ], [ -77.21116, 38.90366 ], [ -77.21173, 38.90437 ], [ -77.21094, 38.90686 ], [ -77.2124, 38.9072 ], [ -77.21354, 38.90639 ], [ -77.21403, 38.90655 ], [ -77.21442, 38.90773 ], [ -77.21476, 38.90685 ], [ -77.21572, 38.90671 ], [ -77.21605, 38.90741 ], [ -77.21554, 38.90848 ], [ -77.22012, 38.91103 ], [ -77.22044, 38.91036 ], [ -77.21964, 38.91023 ], [ -77.21869, 38.90932 ], [ -77.21873, 38.90825 ], [ -77.21764, 38.90714 ], [ -77.21824, 38.9065 ], [ -77.21813, 38.9058 ], [ -77.21716, 38.90534 ], [ -77.21681, 38.90269 ], [ -77.2162, 38.90236 ], [ -77.21643, 38.90063 ], [ -77.21535, 38.90016 ], [ -77.21566, 38.89896 ], [ -77.21379, 38.89847 ], [ -77.21294, 38.8991 ], [ -77.21225, 38.89878 ], [ -77.2112, 38.90028 ], [ -77.21027, 38.90052 ], [ -77.20992, 38.90021 ], [ -77.2103, 38.89931 ], [ -77.20961, 38.89988 ], [ -77.2087, 38.89962 ], [ -77.20895, 38.8986 ], [ -77.20823, 38.89868 ], [ -77.20761, 38.89805 ], [ -77.20675, 38.89868 ], [ -77.2058, 38.89849 ], [ -77.20599, 38.89729 ], [ -77.20407, 38.89831 ], [ -77.20428, 38.8994 ], [ -77.20349, 38.89984 ], [ -77.20179, 38.89892 ], [ -77.20222, 38.89803 ], [ -77.20121, 38.89674 ], [ -77.20203, 38.89632 ], [ -77.20279, 38.89681 ], [ -77.20328, 38.89608 ], [ -77.2048, 38.89601 ], [ -77.20414, 38.89567 ], [ -77.20426, 38.89501 ], [ -77.20616, 38.89424 ], [ -77.20647, 38.89361 ], [ -77.20724, 38.89374 ], [ -77.20712, 38.89315 ], [ -77.20753, 38.89289 ], [ -77.21008, 38.89191 ], [ -77.21002, 38.89139 ], [ -77.20911, 38.89082 ], [ -77.20687, 38.89052 ], [ -77.20661, 38.88978 ], [ -77.20703, 38.88953 ], [ -77.20916, 38.88959 ], [ -77.21127, 38.8889 ], [ -77.21173, 38.88911 ], [ -77.2118, 38.88995 ], [ -77.21309, 38.88923 ], [ -77.21357, 38.8894 ], [ -77.21354, 38.89014 ], [ -77.21474, 38.88918 ], [ -77.21527, 38.88922 ], [ -77.21606, 38.89003 ], [ -77.21731, 38.89018 ], [ -77.2173, 38.89094 ], [ -77.21621, 38.89167 ], [ -77.21643, 38.89239 ], [ -77.21614, 38.89274 ], [ -77.21537, 38.89275 ], [ -77.21484, 38.89412 ], [ -77.21657, 38.89339 ], [ -77.21655, 38.89227 ], [ -77.21735, 38.89122 ], [ -77.21825, 38.89151 ], [ -77.21789, 38.89282 ], [ -77.21931, 38.8923 ], [ -77.21914, 38.89133 ], [ -77.21948, 38.89102 ], [ -77.22094, 38.89123 ], [ -77.22018, 38.89001 ], [ -77.22188, 38.88941 ], [ -77.2223, 38.89005 ], [ -77.22268, 38.88913 ], [ -77.22159, 38.88884 ], [ -77.22115, 38.88816 ], [ -77.2215, 38.88785 ], [ -77.22251, 38.88795 ], [ -77.22263, 38.88658 ], [ -77.22307, 38.88634 ], [ -77.22376, 38.88662 ], [ -77.22338, 38.88571 ], [ -77.2248, 38.88478 ], [ -77.22704, 38.88498 ], [ -77.22698, 38.8827 ], [ -77.22487, 38.88318 ], [ -77.22419, 38.88263 ], [ -77.22501, 38.8814 ], [ -77.22498, 38.88014 ], [ -77.22685, 38.87992 ], [ -77.2273, 38.87876 ], [ -77.2278, 38.87863 ], [ -77.22845, 38.8792 ], [ -77.22839, 38.88007 ], [ -77.23055, 38.88026 ], [ -77.23125, 38.88087 ], [ -77.23106, 38.88172 ], [ -77.22927, 38.88227 ], [ -77.22863, 38.88313 ], [ -77.22878, 38.88566 ], [ -77.23024, 38.88512 ], [ -77.22957, 38.8842 ], [ -77.2306, 38.88302 ], [ -77.23141, 38.88271 ], [ -77.23425, 38.88282 ], [ -77.23603, 38.88453 ], [ -77.23606, 38.88495 ], [ -77.23493, 38.88555 ], [ -77.23531, 38.88663 ], [ -77.23466, 38.88814 ], [ -77.2343, 38.88844 ], [ -77.23123, 38.88859 ], [ -77.2306, 38.89004 ], [ -77.23496, 38.88872 ], [ -77.23508, 38.88797 ], [ -77.23589, 38.88755 ], [ -77.23633, 38.88778 ], [ -77.23635, 38.8886 ], [ -77.24005, 38.88989 ], [ -77.24309, 38.8859 ], [ -77.24389, 38.88644 ], [ -77.2431, 38.88797 ], [ -77.24408, 38.88829 ] ], [ [ -77.23141, 38.92575 ], [ -77.23211, 38.92534 ], [ -77.2296, 38.92295 ], [ -77.22855, 38.92293 ], [ -77.22749, 38.92362 ], [ -77.23141, 38.92575 ] ], [ [ -77.22851, 38.92181 ], [ -77.22825, 38.92031 ], [ -77.22708, 38.9205 ], [ -77.22717, 38.92236 ], [ -77.22851, 38.92181 ] ], [ [ -77.22725, 38.91859 ], [ -77.22634, 38.91812 ], [ -77.22676, 38.91881 ], [ -77.22725, 38.91859 ] ], [ [ -77.22893, 38.91839 ], [ -77.22916, 38.91831 ], [ -77.22759, 38.91725 ], [ -77.2274, 38.91737 ], [ -77.22893, 38.91839 ] ], [ [ -77.22665, 38.91428 ], [ -77.22588, 38.91384 ], [ -77.2256, 38.91414 ], [ -77.22648, 38.91449 ], [ -77.22665, 38.91428 ] ], [ [ -77.22725, 38.91292 ], [ -77.22669, 38.91297 ], [ -77.22728, 38.9133 ], [ -77.22725, 38.91292 ] ], [ [ -77.2271, 38.9108 ], [ -77.22669, 38.91086 ], [ -77.22732, 38.91117 ], [ -77.2271, 38.9108 ] ], [ [ -77.22742, 38.90577 ], [ -77.22746, 38.90604 ], [ -77.22753, 38.90588 ], [ -77.22742, 38.90577 ] ], [ [ -77.22613, 38.9037 ], [ -77.22415, 38.90285 ], [ -77.22307, 38.90611 ], [ -77.22411, 38.90603 ], [ -77.22492, 38.90643 ], [ -77.22591, 38.90625 ], [ -77.22539, 38.9056 ], [ -77.22613, 38.9037 ] ], [ [ -77.22864, 38.90203 ], [ -77.22738, 38.90193 ], [ -77.22759, 38.90308 ], [ -77.2279, 38.90319 ], [ -77.22864, 38.90203 ] ], [ [ -77.22686, 38.90044 ], [ -77.22666, 38.90055 ], [ -77.22706, 38.90067 ], [ -77.22686, 38.90044 ] ], [ [ -77.22496, 38.89906 ], [ -77.22469, 38.90011 ], [ -77.22536, 38.89999 ], [ -77.2259, 38.89952 ], [ -77.22496, 38.89906 ] ], [ [ -77.22707, 38.89671 ], [ -77.22836, 38.89721 ], [ -77.22878, 38.89683 ], [ -77.22582, 38.89571 ], [ -77.22629, 38.89727 ], [ -77.22707, 38.89671 ] ], [ [ -77.22682, 38.89451 ], [ -77.22597, 38.89425 ], [ -77.22599, 38.89456 ], [ -77.22666, 38.89475 ], [ -77.22682, 38.89451 ] ], [ [ -77.2261, 38.89153 ], [ -77.226, 38.89151 ], [ -77.2258, 38.892 ], [ -77.2261, 38.89153 ] ], [ [ -77.2281, 38.89092 ], [ -77.2278, 38.88906 ], [ -77.22696, 38.88909 ], [ -77.22639, 38.89047 ], [ -77.2281, 38.89092 ] ], [ [ -77.22592, 38.88798 ], [ -77.22596, 38.88799 ], [ -77.22599, 38.88792 ], [ -77.22592, 38.88798 ] ], [ [ -77.22638, 38.88701 ], [ -77.226, 38.88691 ], [ -77.22579, 38.88709 ], [ -77.22619, 38.88746 ], [ -77.22638, 38.88701 ] ], [ [ -77.2355, 38.92378 ], [ -77.2351, 38.92339 ], [ -77.23396, 38.92405 ], [ -77.23423, 38.92433 ], [ -77.2355, 38.92378 ] ], [ [ -77.23702, 38.92291 ], [ -77.23809, 38.92042 ], [ -77.23798, 38.91929 ], [ -77.23664, 38.91924 ], [ -77.23593, 38.91783 ], [ -77.23329, 38.91932 ], [ -77.23502, 38.92037 ], [ -77.23501, 38.92093 ], [ -77.23702, 38.92291 ] ], [ [ -77.23525, 38.91587 ], [ -77.23351, 38.91646 ], [ -77.23414, 38.91668 ], [ -77.2358, 38.9161 ], [ -77.23525, 38.91587 ] ], [ [ -77.23764, 38.9157 ], [ -77.23812, 38.91552 ], [ -77.23607, 38.91432 ], [ -77.23587, 38.91377 ], [ -77.23463, 38.91358 ], [ -77.23424, 38.91427 ], [ -77.23764, 38.9157 ] ], [ [ -77.23543, 38.90962 ], [ -77.23569, 38.9093 ], [ -77.23495, 38.90981 ], [ -77.23518, 38.91001 ], [ -77.23543, 38.90962 ] ], [ [ -77.23431, 38.90769 ], [ -77.23483, 38.90744 ], [ -77.23354, 38.90679 ], [ -77.23309, 38.90803 ], [ -77.23339, 38.90868 ], [ -77.23293, 38.90897 ], [ -77.23433, 38.90877 ], [ -77.23431, 38.90769 ] ], [ [ -77.23651, 38.90551 ], [ -77.23607, 38.90452 ], [ -77.23559, 38.9051 ], [ -77.23466, 38.90474 ], [ -77.23436, 38.90592 ], [ -77.23513, 38.90624 ], [ -77.23651, 38.90551 ] ], [ [ -77.23405, 38.90253 ], [ -77.23359, 38.90232 ], [ -77.23455, 38.90283 ], [ -77.23405, 38.90253 ] ], [ [ -77.23314, 38.90113 ], [ -77.23261, 38.90091 ], [ -77.23149, 38.90126 ], [ -77.23194, 38.90185 ], [ -77.23305, 38.90206 ], [ -77.2328, 38.90134 ], [ -77.23314, 38.90113 ] ], [ [ -77.23534, 38.89557 ], [ -77.23319, 38.89509 ], [ -77.234, 38.89614 ], [ -77.23534, 38.89557 ] ], [ [ -77.23763, 38.89289 ], [ -77.23699, 38.89338 ], [ -77.23616, 38.89298 ], [ -77.23646, 38.89231 ], [ -77.23576, 38.89173 ], [ -77.23608, 38.88967 ], [ -77.23256, 38.89039 ], [ -77.23014, 38.89147 ], [ -77.2284, 38.89104 ], [ -77.22873, 38.89164 ], [ -77.22816, 38.89197 ], [ -77.22822, 38.89264 ], [ -77.23623, 38.89464 ], [ -77.23763, 38.89289 ] ], [ [ -77.24261, 38.9163 ], [ -77.24299, 38.91618 ], [ -77.24166, 38.91545 ], [ -77.24203, 38.91634 ], [ -77.24076, 38.91665 ], [ -77.24131, 38.9168 ], [ -77.24261, 38.9163 ] ], [ [ -77.23937, 38.91505 ], [ -77.23954, 38.91498 ], [ -77.23947, 38.91496 ], [ -77.23937, 38.91505 ] ], [ [ -77.24308, 38.91343 ], [ -77.24268, 38.91294 ], [ -77.24143, 38.91248 ], [ -77.24195, 38.91367 ], [ -77.24102, 38.91391 ], [ -77.23975, 38.91232 ], [ -77.23945, 38.91265 ], [ -77.24007, 38.91303 ], [ -77.23947, 38.91377 ], [ -77.24059, 38.91403 ], [ -77.24075, 38.91448 ], [ -77.24308, 38.91343 ] ], [ [ -77.23707, 38.90963 ], [ -77.2368, 38.90995 ], [ -77.23832, 38.91063 ], [ -77.23822, 38.91103 ], [ -77.23729, 38.91128 ], [ -77.2373, 38.91183 ], [ -77.23865, 38.91166 ], [ -77.23993, 38.9108 ], [ -77.23707, 38.90963 ] ], [ [ -77.23796, 38.90616 ], [ -77.23728, 38.90642 ], [ -77.23757, 38.9068 ], [ -77.23796, 38.90616 ] ], [ [ -77.23874, 38.9039 ], [ -77.23773, 38.90387 ], [ -77.23746, 38.90447 ], [ -77.23778, 38.90507 ], [ -77.23856, 38.90523 ], [ -77.23874, 38.9039 ] ], [ [ -77.23728, 38.89821 ], [ -77.23677, 38.8987 ], [ -77.23732, 38.89874 ], [ -77.23781, 38.89824 ], [ -77.23728, 38.89821 ] ], [ [ -77.23752, 38.89694 ], [ -77.2361, 38.89663 ], [ -77.23725, 38.89709 ], [ -77.23752, 38.89694 ] ], [ [ -77.23737, 38.89007 ], [ -77.23747, 38.89106 ], [ -77.23788, 38.89055 ], [ -77.23805, 38.89033 ], [ -77.23737, 38.89007 ] ], [ [ -77.23981, 38.89436 ], [ -77.23885, 38.89481 ], [ -77.2398, 38.89508 ], [ -77.23981, 38.89436 ] ], [ [ -77.23995, 38.89235 ], [ -77.23976, 38.89225 ], [ -77.23874, 38.89355 ], [ -77.23995, 38.89235 ] ], [ [ -77.24414, 38.89352 ], [ -77.24472, 38.89398 ], [ -77.24517, 38.89361 ], [ -77.24474, 38.89326 ], [ -77.24414, 38.89352 ] ], [ [ -77.2436, 38.89491 ], [ -77.24375, 38.89478 ], [ -77.24277, 38.894 ], [ -77.24198, 38.89402 ], [ -77.2436, 38.89491 ] ], [ [ -77.24065, 38.8935 ], [ -77.24138, 38.89387 ], [ -77.24108, 38.89356 ], [ -77.24137, 38.89302 ], [ -77.24065, 38.8935 ] ], [ [ -77.24049, 38.89134 ], [ -77.24069, 38.89144 ], [ -77.24167, 38.89037 ], [ -77.24049, 38.89134 ] ], [ [ -77.24318, 38.89274 ], [ -77.24291, 38.8926 ], [ -77.24304, 38.89284 ], [ -77.24318, 38.89274 ] ], [ [ -77.2429, 38.8961 ], [ -77.24302, 38.896 ], [ -77.24244, 38.89549 ], [ -77.2429, 38.8961 ] ], [ [ -77.23992, 38.90104 ], [ -77.23993, 38.9011 ], [ -77.24, 38.90106 ], [ -77.23992, 38.90104 ] ], [ [ -77.23957, 38.89744 ], [ -77.23941, 38.89774 ], [ -77.2393, 38.89829 ], [ -77.23957, 38.89744 ] ], [ [ -77.24453, 38.9015 ], [ -77.24457, 38.90083 ], [ -77.24361, 38.90114 ], [ -77.24453, 38.9015 ] ], [ [ -77.23995, 38.90607 ], [ -77.24054, 38.90671 ], [ -77.24097, 38.90641 ], [ -77.24083, 38.9059 ], [ -77.23995, 38.90607 ] ], [ [ -77.24641, 38.91397 ], [ -77.24643, 38.91398 ], [ -77.24644, 38.91397 ], [ -77.24641, 38.91397 ] ], [ [ -77.24312, 38.91493 ], [ -77.24432, 38.91548 ], [ -77.24436, 38.91629 ], [ -77.24473, 38.91558 ], [ -77.24312, 38.91493 ] ], [ [ -77.23808, 38.90282 ], [ -77.23869, 38.90282 ], [ -77.23867, 38.90228 ], [ -77.23743, 38.90211 ], [ -77.23808, 38.90282 ] ], [ [ -77.23883, 38.90822 ], [ -77.23869, 38.90817 ], [ -77.23876, 38.90821 ], [ -77.23883, 38.90822 ] ], [ [ -77.23697, 38.91312 ], [ -77.23672, 38.9134 ], [ -77.2371, 38.91359 ], [ -77.23697, 38.91312 ] ], [ [ -77.23561, 38.90047 ], [ -77.23577, 38.90045 ], [ -77.23565, 38.9004 ], [ -77.23561, 38.90047 ] ], [ [ -77.2357, 38.91267 ], [ -77.23588, 38.91202 ], [ -77.23561, 38.91191 ], [ -77.23523, 38.91257 ], [ -77.2357, 38.91267 ] ], [ [ -77.23753, 38.91825 ], [ -77.23721, 38.91731 ], [ -77.23734, 38.91782 ], [ -77.23753, 38.91825 ] ], [ [ -77.23381, 38.88387 ], [ -77.23352, 38.88425 ], [ -77.23257, 38.88412 ], [ -77.23161, 38.88484 ], [ -77.23275, 38.88516 ], [ -77.23449, 38.88451 ], [ -77.23381, 38.88387 ] ], [ [ -77.23241, 38.88746 ], [ -77.23224, 38.88755 ], [ -77.23285, 38.88748 ], [ -77.23241, 38.88746 ] ], [ [ -77.22918, 38.88762 ], [ -77.22929, 38.8897 ], [ -77.22994, 38.8882 ], [ -77.22918, 38.88762 ] ], [ [ -77.23264, 38.92084 ], [ -77.23193, 38.92116 ], [ -77.2298, 38.9205 ], [ -77.22989, 38.92188 ], [ -77.23146, 38.92289 ], [ -77.23217, 38.92247 ], [ -77.23192, 38.9219 ], [ -77.23264, 38.92084 ] ], [ [ -77.23117, 38.91963 ], [ -77.23077, 38.91973 ], [ -77.23099, 38.91981 ], [ -77.23117, 38.91963 ] ], [ [ -77.23243, 38.91779 ], [ -77.233, 38.91747 ], [ -77.23199, 38.91709 ], [ -77.2311, 38.91781 ], [ -77.23187, 38.91805 ], [ -77.23243, 38.91779 ] ], [ [ -77.23116, 38.91445 ], [ -77.22881, 38.91325 ], [ -77.2286, 38.91405 ], [ -77.23132, 38.9156 ], [ -77.23189, 38.91583 ], [ -77.23346, 38.9153 ], [ -77.23116, 38.91445 ] ], [ [ -77.23073, 38.91224 ], [ -77.23048, 38.91269 ], [ -77.23089, 38.91289 ], [ -77.23112, 38.91246 ], [ -77.23073, 38.91224 ] ], [ [ -77.23105, 38.90816 ], [ -77.2306, 38.90803 ], [ -77.23092, 38.90854 ], [ -77.23131, 38.9085 ], [ -77.23105, 38.90816 ] ], [ [ -77.23244, 38.90612 ], [ -77.23233, 38.90606 ], [ -77.23137, 38.90662 ], [ -77.23244, 38.90612 ] ], [ [ -77.22861, 38.9002 ], [ -77.22838, 38.90012 ], [ -77.2285, 38.90062 ], [ -77.22913, 38.90073 ], [ -77.22913, 38.90032 ], [ -77.22861, 38.9002 ] ], [ [ -77.23134, 38.89666 ], [ -77.23264, 38.89639 ], [ -77.23238, 38.89597 ], [ -77.22815, 38.89485 ], [ -77.22786, 38.8953 ], [ -77.23134, 38.89666 ] ], [ [ -77.23286, 38.90439 ], [ -77.23316, 38.90519 ], [ -77.23334, 38.90443 ], [ -77.23293, 38.90376 ], [ -77.23328, 38.90346 ], [ -77.23293, 38.90327 ], [ -77.23251, 38.90377 ], [ -77.23199, 38.90375 ], [ -77.23138, 38.90231 ], [ -77.23069, 38.90215 ], [ -77.23062, 38.9031 ], [ -77.22964, 38.90321 ], [ -77.22934, 38.90372 ], [ -77.2311, 38.90429 ], [ -77.23286, 38.90439 ] ], [ [ -77.2306, 38.90004 ], [ -77.23018, 38.89986 ], [ -77.22986, 38.90035 ], [ -77.2306, 38.90004 ] ], [ [ -77.22993, 38.8985 ], [ -77.22995, 38.89839 ], [ -77.22985, 38.89846 ], [ -77.22993, 38.8985 ] ], [ [ -77.23402, 38.92267 ], [ -77.23349, 38.92216 ], [ -77.23367, 38.92274 ], [ -77.23402, 38.92267 ] ], [ [ -77.22931, 38.91208 ], [ -77.23042, 38.91008 ], [ -77.22946, 38.91001 ], [ -77.22862, 38.91181 ], [ -77.22931, 38.91208 ] ], [ [ -77.22935, 38.90728 ], [ -77.22834, 38.90825 ], [ -77.22887, 38.90841 ], [ -77.22935, 38.90728 ] ], [ [ -77.23003, 38.90631 ], [ -77.23018, 38.90605 ], [ -77.23, 38.906 ], [ -77.23003, 38.90631 ] ], [ [ -77.23071, 38.91657 ], [ -77.2279, 38.91499 ], [ -77.22768, 38.91526 ], [ -77.23033, 38.91688 ], [ -77.23071, 38.91657 ] ], [ [ -77.2269, 38.88585 ], [ -77.22696, 38.88578 ], [ -77.2267, 38.88587 ], [ -77.2269, 38.88585 ] ], [ [ -77.22472, 38.92605 ], [ -77.22362, 38.92499 ], [ -77.22269, 38.92249 ], [ -77.22291, 38.92404 ], [ -77.22367, 38.92525 ], [ -77.22472, 38.92605 ] ], [ [ -77.21955, 38.92159 ], [ -77.21953, 38.92191 ], [ -77.22102, 38.92154 ], [ -77.22098, 38.92122 ], [ -77.21955, 38.92159 ] ], [ [ -77.22315, 38.91927 ], [ -77.22483, 38.91846 ], [ -77.22379, 38.9161 ], [ -77.22294, 38.91578 ], [ -77.22212, 38.91657 ], [ -77.22197, 38.91691 ], [ -77.22261, 38.91743 ], [ -77.22208, 38.91807 ], [ -77.21867, 38.91768 ], [ -77.21876, 38.91844 ], [ -77.22315, 38.91927 ] ], [ [ -77.22045, 38.91475 ], [ -77.21938, 38.91433 ], [ -77.21921, 38.91531 ], [ -77.22027, 38.9157 ], [ -77.22045, 38.91475 ] ], [ [ -77.22188, 38.91348 ], [ -77.2215, 38.91329 ], [ -77.22063, 38.91367 ], [ -77.22188, 38.91348 ] ], [ [ -77.22006, 38.90853 ], [ -77.22048, 38.90898 ], [ -77.22062, 38.90852 ], [ -77.22006, 38.90853 ] ], [ [ -77.22154, 38.9035 ], [ -77.2217, 38.90246 ], [ -77.22098, 38.90286 ], [ -77.22154, 38.9035 ] ], [ [ -77.2194, 38.90142 ], [ -77.21882, 38.90149 ], [ -77.21945, 38.90201 ], [ -77.21982, 38.90202 ], [ -77.2194, 38.90142 ] ], [ [ -77.21968, 38.90096 ], [ -77.21963, 38.90112 ], [ -77.21974, 38.90102 ], [ -77.21968, 38.90096 ] ], [ [ -77.22149, 38.89841 ], [ -77.21753, 38.89796 ], [ -77.2174, 38.89828 ], [ -77.21857, 38.89858 ], [ -77.21882, 38.8983 ], [ -77.22018, 38.89836 ], [ -77.22052, 38.8991 ], [ -77.22112, 38.89926 ], [ -77.22149, 38.89841 ] ], [ [ -77.22232, 38.89646 ], [ -77.22249, 38.89609 ], [ -77.22126, 38.89578 ], [ -77.22089, 38.89663 ], [ -77.22135, 38.89628 ], [ -77.22232, 38.89646 ] ], [ [ -77.22124, 38.89252 ], [ -77.22127, 38.89246 ], [ -77.22066, 38.8923 ], [ -77.22124, 38.89252 ] ], [ [ -77.22712, 38.92515 ], [ -77.22586, 38.92397 ], [ -77.2255, 38.92232 ], [ -77.22429, 38.92239 ], [ -77.22488, 38.92453 ], [ -77.2265, 38.92601 ], [ -77.22712, 38.92515 ] ], [ [ -77.2226, 38.92082 ], [ -77.22263, 38.92127 ], [ -77.22538, 38.92111 ], [ -77.22543, 38.92076 ], [ -77.2226, 38.92082 ] ], [ [ -77.22386, 38.91467 ], [ -77.22376, 38.91478 ], [ -77.22543, 38.91566 ], [ -77.22386, 38.91467 ] ], [ [ -77.22605, 38.91195 ], [ -77.22551, 38.91171 ], [ -77.22451, 38.91199 ], [ -77.22327, 38.91097 ], [ -77.22257, 38.91218 ], [ -77.22459, 38.91339 ], [ -77.22605, 38.91195 ] ], [ [ -77.22509, 38.9101 ], [ -77.22468, 38.91007 ], [ -77.22532, 38.91032 ], [ -77.22509, 38.9101 ] ], [ [ -77.22332, 38.8946 ], [ -77.22236, 38.89442 ], [ -77.2221, 38.89485 ], [ -77.22296, 38.895 ], [ -77.22332, 38.8946 ] ], [ [ -77.22246, 38.89322 ], [ -77.22242, 38.89317 ], [ -77.22241, 38.89319 ], [ -77.22246, 38.89322 ] ], [ [ -77.22646, 38.90165 ], [ -77.22532, 38.90114 ], [ -77.2244, 38.90118 ], [ -77.22427, 38.90166 ], [ -77.22544, 38.90217 ], [ -77.22646, 38.90165 ] ], [ [ -77.22336, 38.89747 ], [ -77.22385, 38.89743 ], [ -77.22391, 38.89711 ], [ -77.22336, 38.89747 ] ], [ [ -77.22408, 38.89223 ], [ -77.22422, 38.89236 ], [ -77.22421, 38.89219 ], [ -77.22408, 38.89223 ] ], [ [ -77.22364, 38.89032 ], [ -77.22434, 38.89042 ], [ -77.22472, 38.89094 ], [ -77.22502, 38.89025 ], [ -77.22386, 38.88982 ], [ -77.22364, 38.89032 ] ], [ [ -77.22432, 38.88868 ], [ -77.22417, 38.88903 ], [ -77.22546, 38.88922 ], [ -77.22432, 38.88868 ] ], [ [ -77.22135, 38.91167 ], [ -77.22199, 38.91056 ], [ -77.22181, 38.91053 ], [ -77.22135, 38.91167 ] ], [ [ -77.21893, 38.91662 ], [ -77.21978, 38.91672 ], [ -77.21952, 38.91665 ], [ -77.21893, 38.91662 ] ], [ [ -77.21279, 38.90898 ], [ -77.213, 38.90953 ], [ -77.21348, 38.90899 ], [ -77.21279, 38.90898 ] ], [ [ -77.21357, 38.91079 ], [ -77.21374, 38.91078 ], [ -77.21407, 38.91023 ], [ -77.21357, 38.91079 ] ], [ [ -77.21096, 38.91088 ], [ -77.21111, 38.91093 ], [ -77.21094, 38.91076 ], [ -77.21096, 38.91088 ] ], [ [ -77.21244, 38.89597 ], [ -77.21203, 38.89581 ], [ -77.21144, 38.89712 ], [ -77.21244, 38.89597 ] ], [ [ -77.2118, 38.89414 ], [ -77.21155, 38.89456 ], [ -77.2117, 38.89443 ], [ -77.2118, 38.89414 ] ], [ [ -77.21242, 38.89305 ], [ -77.21217, 38.89349 ], [ -77.21225, 38.8934 ], [ -77.2128, 38.89336 ], [ -77.21242, 38.89305 ] ], [ [ -77.21215, 38.89141 ], [ -77.21223, 38.89114 ], [ -77.21208, 38.89137 ], [ -77.21215, 38.89141 ] ], [ [ -77.21922, 38.8971 ], [ -77.21884, 38.89675 ], [ -77.21935, 38.89607 ], [ -77.21892, 38.89516 ], [ -77.21813, 38.89495 ], [ -77.21845, 38.89591 ], [ -77.218, 38.89694 ], [ -77.21922, 38.8971 ] ], [ [ -77.21716, 38.89437 ], [ -77.21716, 38.89439 ], [ -77.21766, 38.89451 ], [ -77.21778, 38.89411 ], [ -77.21716, 38.89437 ] ], [ [ -77.21854, 38.89392 ], [ -77.21862, 38.89374 ], [ -77.21844, 38.89381 ], [ -77.21819, 38.89393 ], [ -77.21854, 38.89392 ] ], [ [ -77.21849, 38.89706 ], [ -77.21851, 38.89706 ], [ -77.21849, 38.89705 ], [ -77.21849, 38.89706 ] ], [ [ -77.21817, 38.89962 ], [ -77.21697, 38.89931 ], [ -77.21678, 38.89974 ], [ -77.21791, 38.89987 ], [ -77.21817, 38.89962 ] ], [ [ -77.21436, 38.89104 ], [ -77.21421, 38.89109 ], [ -77.21429, 38.89114 ], [ -77.21436, 38.89104 ] ], [ [ -77.21436, 38.89552 ], [ -77.2151, 38.896 ], [ -77.21505, 38.89641 ], [ -77.21428, 38.89665 ], [ -77.21458, 38.89753 ], [ -77.21609, 38.89793 ], [ -77.21622, 38.89761 ], [ -77.21516, 38.89669 ], [ -77.21598, 38.89487 ], [ -77.21436, 38.89552 ] ], [ [ -77.21321, 38.89369 ], [ -77.21311, 38.8945 ], [ -77.21313, 38.8945 ], [ -77.21321, 38.89369 ] ], [ [ -77.21288, 38.89188 ], [ -77.21371, 38.89254 ], [ -77.21367, 38.89212 ], [ -77.21288, 38.89188 ] ], [ [ -77.21351, 38.89675 ], [ -77.21397, 38.89658 ], [ -77.21368, 38.89646 ], [ -77.21328, 38.89711 ], [ -77.21351, 38.89675 ] ], [ [ -77.21047, 38.89216 ], [ -77.2104, 38.89276 ], [ -77.21096, 38.89296 ], [ -77.21127, 38.89242 ], [ -77.21047, 38.89216 ] ], [ [ -77.21101, 38.8983 ], [ -77.21141, 38.89755 ], [ -77.21136, 38.89746 ], [ -77.21101, 38.8983 ] ], [ [ -77.20911, 38.89784 ], [ -77.20925, 38.89815 ], [ -77.21, 38.89733 ], [ -77.21005, 38.89708 ], [ -77.20911, 38.89784 ] ], [ [ -77.20315, 38.89716 ], [ -77.20334, 38.89739 ], [ -77.20377, 38.89716 ], [ -77.20315, 38.89716 ] ], [ [ -77.20919, 38.89572 ], [ -77.20916, 38.89572 ], [ -77.20918, 38.89574 ], [ -77.20919, 38.89572 ] ], [ [ -77.20752, 38.89515 ], [ -77.20689, 38.89483 ], [ -77.20691, 38.89486 ], [ -77.20752, 38.89515 ] ], [ [ -77.21011, 38.89429 ], [ -77.21004, 38.89429 ], [ -77.21006, 38.89433 ], [ -77.21011, 38.89429 ] ] ] } },
{ "type": "Feature", "properties": { "variant": "T2s", "miles": 1.0 }, "geometry": { "type": "Polygon", "coordinates": [ [ [ -77.2292, 38.89679 ], [ -77.23153, 38.89677 ], [ -77.23186, 38.89749 ], [ -77.22985, 38.89846 ], [ -77.23125, 38.89909 ], [ -77.23177, 38.89871 ], [ -77.23262, 38.89909 ], [ -77.23139, 38.90084 ], [ -77.23086, 38.9008 ], [ -77.23018, 38.89986 ], [ -77.2295, 38.90045 ], [ -77.22838, 38.90012 ], [ -77.2285, 38.90062 ], [ -77.22937, 38.90103 ], [ -77.22929, 38.90156 ], [ -77.23028, 38.90191 ], [ -77.23074, 38.90269 ], [ -77.23062, 38.9031 ], [ -77.22964, 38.90321 ], [ -77.22934, 38.90372 ], [ -77.23048, 38.90443 ], [ -77.22999, 38.90509 ], [ -77.22923, 38.90492 ], [ -77.23, 38.90555 ], [ -77.22981, 38.90618 ], [ -77.23032, 38.90704 ], [ -77.22935, 38.90728 ], [ -77.22834, 38.90825 ], [ -77.23011, 38.90906 ], [ -77.23046, 38.90977 ], [ -77.22946, 38.91001 ], [ -77.2285, 38.91178 ], [ -77.23153, 38.91321 ], [ -77.23179, 38.91389 ], [ -77.23081, 38.91427 ], [ -77.22881, 38.91325 ], [ -77.22785, 38.91475 ], [ -77.22505, 38.91322 ], [ -77.22605, 38.91195 ], [ -77.2233, 38.91046 ], [ -77.22134, 38.90777 ], [ -77.22135, 38.90667 ], [ -77.21914, 38.9063 ], [ -77.21873, 38.90566 ], [ -77.21926, 38.90476 ], [ -77.2218, 38.90502 ], [ -77.22471, 38.89441 ], [ -77.22547, 38.89435 ], [ -77.22755, 38.89536 ], [ -77.22712, 38.89604 ], [ -77.22582, 38.89571 ], [ -77.22629, 38.89727 ], [ -77.22691, 38.89676 ], [ -77.22775, 38.89675 ], [ -77.22856, 38.89791 ], [ -77.22916, 38.8975 ], [ -77.2292, 38.89679 ] ], [ [ -77.22728, 38.9133 ], [ -77.22725, 38.91292 ], [ -77.22669, 38.91297 ], [ -77.22728, 38.9133 ] ], [ [ -77.22732, 38.91117 ], [ -77.2271, 38.9108 ], [ -77.22669, 38.91086 ], [ -77.22732, 38.91117 ] ], [ [ -77.22307, 38.90611 ], [ -77.22593, 38.9062 ], [ -77.22539, 38.90556 ], [ -77.22613, 38.9037 ], [ -77.22415, 38.90285 ], [ -77.22307, 38.90611 ] ], [ [ -77.22553, 38.90203 ], [ -77.22646, 38.90165 ], [ -77.22532, 38.90114 ], [ -77.2244, 38.90118 ], [ -77.22427, 38.90166 ], [ -77.22553, 38.90203 ] ], [ [ -77.22469, 38.90011 ], [ -77.22604, 38.89956 ], [ -77.22496, 38.89906 ], [ -77.22469, 38.90011 ] ], [ [ -77.22753, 38.90588 ], [ -77.22742, 38.90577 ], [ -77.22746, 38.90604 ], [ -77.22753, 38.90588 ] ], [ [ -77.22808, 38.90326 ], [ -77.22864, 38.90203 ], [ -77.22738, 38.90193 ], [ -77.22759, 38.90308 ], [ -77.22808, 38.90326 ] ], [ [ -77.22706, 38.90067 ], [ -77.22686, 38.90044 ], [ -77.22666, 38.90055 ], [ -77.22706, 38.90067 ] ], [ [ -77.22737, 38.89871 ], [ -77.22729, 38.89875 ], [ -77.22723, 38.8988 ], [ -77.22737, 38.89871 ] ], [ [ -77.22532, 38.91032 ], [ -77.22509, 38.9101 ], [ -77.22468, 38.91007 ], [ -77.22532, 38.91032 ] ] ] } },
{ "type": "Feature", "properties": { "variant": "T2s", "miles": 1.5 }, "geometry": { "type": "Polygon", "coordinates": [ [ [ -77.23819, 38.89327 ], [ -77.2397, 38.89421 ], [ -77.23961, 38.89461 ], [ -77.23885, 38.89481 ], [ -77.24004, 38.89517 ], [ -77.24047, 38.89602 ], [ -77.24026, 38.89704 ], [ -77.23912, 38.89811 ], [ -77.23939, 38.89911 ], [ -77.23756, 38.90011 ], [ -77.23776, 38.90085 ], [ -77.23919, 38.90068 ], [ -77.23994, 38.90114 ], [ -77.23992, 38.90371 ], [ -77.23894, 38.90374 ], [ -77.23867, 38.90228 ], [ -77.23613, 38.90182 ], [ -77.23598, 38.90289 ], [ -77.23645, 38.90372 ], [ -77.23595, 38.90479 ], [ -77.23506, 38.90512 ], [ -77.23467, 38.90484 ], [ -77.23499, 38.90368 ], [ -77.23457, 38.90279 ], [ -77.23307, 38.90208 ], [ -77.23274, 38.90175 ], [ -77.23314, 38.90113 ], [ -77.23261, 38.90091 ], [ -77.2321, 38.9013 ], [ -77.23156, 38.90119 ], [ -77.23191, 38.90206 ], [ -77.23054, 38.90219 ], [ -77.23062, 38.9031 ], [ -77.22964, 38.90321 ], [ -77.22934, 38.90372 ], [ -77.23199, 38.90449 ], [ -77.23286, 38.90439 ], [ -77.23306, 38.90513 ], [ -77.23412, 38.90602 ], [ -77.23309, 38.90803 ], [ -77.23339, 38.90868 ], [ -77.23293, 38.90897 ], [ -77.23406, 38.9089 ], [ -77.23513, 38.91011 ], [ -77.23608, 38.90971 ], [ -77.23639, 38.91057 ], [ -77.2373, 38.91106 ], [ -77.23736, 38.91202 ], [ -77.23814, 38.91262 ], [ -77.23776, 38.91333 ], [ -77.23697, 38.91312 ], [ -77.23572, 38.91379 ], [ -77.23463, 38.91358 ], [ -77.23424, 38.91427 ], [ -77.23764, 38.9157 ], [ -77.23928, 38.91528 ], [ -77.23973, 38.91606 ], [ -77.23869, 38.91663 ], [ -77.23912, 38.91742 ], [ -77.23829, 38.91783 ], [ -77.23709, 38.91706 ], [ -77.2342, 38.91779 ], [ -77.23199, 38.91709 ], [ -77.2311, 38.91781 ], [ -77.23313, 38.91935 ], [ -77.23308, 38.91976 ], [ -77.23213, 38.92016 ], [ -77.2304, 38.91904 ], [ -77.22802, 38.91974 ], [ -77.22603, 38.92136 ], [ -77.22557, 38.92116 ], [ -77.22455, 38.9172 ], [ -77.22377, 38.91668 ], [ -77.22379, 38.9161 ], [ -77.22294, 38.91578 ], [ -77.22155, 38.91679 ], [ -77.22067, 38.91646 ], [ -77.22234, 38.91454 ], [ -77.22152, 38.91438 ], [ -77.22188, 38.91348 ], [ -77.2215, 38.91329 ], [ -77.22033, 38.91404 ], [ -77.21935, 38.91407 ], [ -77.21914, 38.91348 ], [ -77.21961, 38.91205 ], [ -77.21792, 38.9109 ], [ -77.21856, 38.91032 ], [ -77.22012, 38.91103 ], [ -77.22044, 38.91036 ], [ -77.21942, 38.91009 ], [ -77.21862, 38.90915 ], [ -77.2191, 38.90752 ], [ -77.21841, 38.90686 ], [ -77.21924, 38.90633 ], [ -77.21878, 38.90541 ], [ -77.21968, 38.9047 ], [ -77.2218, 38.90502 ], [ -77.22253, 38.90234 ], [ -77.22016, 38.90194 ], [ -77.22068, 38.90029 ], [ -77.21882, 38.89979 ], [ -77.21839, 38.8991 ], [ -77.21927, 38.89877 ], [ -77.22112, 38.89926 ], [ -77.22149, 38.89841 ], [ -77.21912, 38.89797 ], [ -77.21923, 38.89708 ], [ -77.21884, 38.89675 ], [ -77.21935, 38.89607 ], [ -77.21892, 38.89516 ], [ -77.21767, 38.89466 ], [ -77.21781, 38.8941 ], [ -77.21654, 38.89509 ], [ -77.21598, 38.89487 ], [ -77.21482, 38.89519 ], [ -77.21433, 38.89453 ], [ -77.21657, 38.89339 ], [ -77.21665, 38.89233 ], [ -77.21762, 38.89226 ], [ -77.21789, 38.89282 ], [ -77.21931, 38.8923 ], [ -77.21914, 38.89133 ], [ -77.21948, 38.89102 ], [ -77.22094, 38.89123 ], [ -77.22018, 38.89001 ], [ -77.22188, 38.88941 ], [ -77.2223, 38.89005 ], [ -77.22339, 38.88792 ], [ -77.22485, 38.88769 ], [ -77.22596, 38.88799 ], [ -77.22697, 38.8862 ], [ -77.22789, 38.88646 ], [ -77.22787, 38.88727 ], [ -77.22902, 38.88749 ], [ -77.22951, 38.88844 ], [ -77.22884, 38.88922 ], [ -77.22696, 38.88909 ], [ -77.22639, 38.89047 ], [ -77.22828, 38.89096 ], [ -77.22873, 38.89164 ], [ -77.22816, 38.89197 ], [ -77.22833, 38.89256 ], [ -77.22793, 38.89283 ], [ -77.22646, 38.89297 ], [ -77.22686, 38.89338 ], [ -77.23297, 38.89499 ], [ -77.234, 38.89614 ], [ -77.23555, 38.89542 ], [ -77.23724, 38.89342 ], [ -77.23819, 38.89327 ] ], [ [ -77.22893, 38.91839 ], [ -77.22759, 38.91725 ], [ -77.2274, 38.91737 ], [ -77.22893, 38.91839 ] ], [ [ -77.22664, 38.91645 ], [ -77.22662, 38.91647 ], [ -77.22665, 38.91645 ], [ -77.22664, 38.91645 ] ], [ [ -77.22648, 38.91449 ], [ -77.22665, 38.91428 ], [ -77.22588, 38.91384 ], [ -77.2256, 38.91414 ], [ -77.22648, 38.91449 ] ], [ [ -77.22728, 38.9133 ], [ -77.22725, 38.91292 ], [ -77.22669, 38.91297 ], [ -77.22728, 38.9133 ] ], [ [ -77.22732, 38.91117 ], [ -77.2271, 38.9108 ], [ -77.22669, 38.91086 ], [ -77.22732, 38.91117 ] ], [ [ -77.22753, 38.90588 ], [ -77.22742, 38.90577 ], [ -77.22746, 38.90604 ], [ -77.22753, 38.90588 ] ], [ [ -77.22539, 38.9056 ], [ -77.22613, 38.9037 ], [ -77.22415, 38.90285 ], [ -77.22307, 38.90611 ], [ -77.22411, 38.90603 ], [ -77.22492, 38.90643 ], [ -77.22591, 38.90625 ], [ -77.22539, 38.9056 ] ], [ [ -77.2279, 38.90319 ], [ -77.22864, 38.90203 ], [ -77.22738, 38.90193 ], [ -77.22759, 38.90308 ], [ -77.2279, 38.90319 ] ], [ [ -77.22706, 38.90067 ], [ -77.22686, 38.90044 ], [ -77.22666, 38.90055 ], [ -77.22706, 38.90067 ] ], [ [ -77.2259, 38.89952 ], [ -77.22496, 38.89906 ], [ -77.22469, 38.90011 ], [ -77.22536, 38.89999 ], [ -77.2259, 38.89952 ] ], [ [ -77.22629, 38.89727 ], [ -77.22707, 38.89671 ], [ -77.22836, 38.89721 ], [ -77.22878, 38.89683 ], [ -77.22582, 38.89571 ], [ -77.22629, 38.89727 ] ], [ [ -77.22666, 38.89475 ], [ -77.22682, 38.89451 ], [ -77.22597, 38.89425 ], [ -77.22599, 38.89456 ], [ -77.22666, 38.89475 ] ], [ [ -77.22584, 38.89299 ], [ -77.22576, 38.8923 ], [ -77.226, 38.89151 ], [ -77.22574, 38.89221 ], [ -77.22584, 38.89299 ] ], [ [ -77.22417, 38.88903 ], [ -77.22554, 38.88902 ], [ -77.22432, 38.88868 ], [ -77.22417, 38.88903 ] ], [ [ -77.22986, 38.90035 ], [ -77.2306, 38.90004 ], [ -77.23018, 38.89986 ], [ -77.22986, 38.90035 ] ], [ [ -77.22995, 38.89839 ], [ -77.22985, 38.89846 ], [ -77.22993, 38.8985 ], [ -77.22995, 38.89839 ] ], [ [ -77.2315, 38.89662 ], [ -77.23264, 38.89639 ], [ -77.23249, 38.89602 ], [ -77.22815, 38.89485 ], [ -77.22786, 38.8953 ], [ -77.2315, 38.89662 ] ], [ [ -77.23475, 38.9016 ], [ -77.23477, 38.90161 ], [ -77.23472, 38.90158 ], [ -77.23475, 38.9016 ] ], [ [ -77.23565, 38.9004 ], [ -77.23561, 38.90047 ], [ -77.23577, 38.90045 ], [ -77.23565, 38.9004 ] ], [ [ -77.23781, 38.89824 ], [ -77.23728, 38.89821 ], [ -77.23677, 38.8987 ], [ -77.23732, 38.89874 ], [ -77.23781, 38.89824 ] ], [ [ -77.23661, 38.89684 ], [ -77.23752, 38.89694 ], [ -77.2361, 38.89663 ], [ -77.23661, 38.89684 ] ], [ [ -77.23321, 38.91522 ], [ -77.23116, 38.91445 ], [ -77.22881, 38.91325 ], [ -77.2286, 38.91405 ], [ -77.23132, 38.9156 ], [ -77.23189, 38.91583 ], [ -77.23321, 38.91522 ] ], [ [ -77.23089, 38.91289 ], [ -77.23112, 38.91246 ], [ -77.23073, 38.91224 ], [ -77.23048, 38.91269 ], [ -77.23089, 38.91289 ] ], [ [ -77.23123, 38.90866 ], [ -77.23105, 38.90816 ], [ -77.2306, 38.90803 ], [ -77.23048, 38.90822 ], [ -77.23123, 38.90866 ] ], [ [ -77.23158, 38.90681 ], [ -77.23244, 38.90612 ], [ -77.23233, 38.90606 ], [ -77.23137, 38.90662 ], [ -77.23158, 38.90681 ] ], [ [ -77.23523, 38.91257 ], [ -77.23598, 38.91223 ], [ -77.23561, 38.91191 ], [ -77.23523, 38.91257 ] ], [ [ -77.23351, 38.91646 ], [ -77.23414, 38.91668 ], [ -77.2358, 38.9161 ], [ -77.23525, 38.91587 ], [ -77.23351, 38.91646 ] ], [ [ -77.2321, 38.90977 ], [ -77.2321, 38.90978 ], [ -77.23211, 38.90977 ], [ -77.2321, 38.90977 ] ], [ [ -77.22859, 38.91181 ], [ -77.22931, 38.91208 ], [ -77.23042, 38.91008 ], [ -77.22946, 38.91001 ], [ -77.22859, 38.91181 ] ], [ [ -77.22891, 38.90833 ], [ -77.22947, 38.90734 ], [ -77.22935, 38.90728 ], [ -77.22834, 38.90825 ], [ -77.22891, 38.90833 ] ], [ [ -77.22913, 38.90073 ], [ -77.22941, 38.90042 ], [ -77.22838, 38.90012 ], [ -77.2285, 38.90062 ], [ -77.22913, 38.90073 ] ], [ [ -77.22737, 38.89871 ], [ -77.22729, 38.89875 ], [ -77.22723, 38.8988 ], [ -77.22737, 38.89871 ] ], [ [ -77.23, 38.906 ], [ -77.23003, 38.90631 ], [ -77.23018, 38.90605 ], [ -77.23, 38.906 ] ], [ [ -77.22768, 38.91526 ], [ -77.23028, 38.91692 ], [ -77.23071, 38.91657 ], [ -77.2279, 38.91499 ], [ -77.22768, 38.91526 ] ], [ [ -77.22368, 38.91487 ], [ -77.22543, 38.91566 ], [ -77.22386, 38.91467 ], [ -77.22368, 38.91487 ] ], [ [ -77.22475, 38.91321 ], [ -77.22605, 38.91195 ], [ -77.22551, 38.91171 ], [ -77.22451, 38.91199 ], [ -77.22327, 38.91097 ], [ -77.22257, 38.91218 ], [ -77.22475, 38.91321 ] ], [ [ -77.22634, 38.91812 ], [ -77.22676, 38.91881 ], [ -77.22742, 38.91873 ], [ -77.22725, 38.91859 ], [ -77.22634, 38.91812 ] ], [ [ -77.22532, 38.91032 ], [ -77.22471, 38.91005 ], [ -77.22468, 38.91007 ], [ -77.22532, 38.91032 ] ], [ [ -77.22352, 38.89708 ], [ -77.22385, 38.89743 ], [ -77.22391, 38.89711 ], [ -77.22352, 38.89708 ] ], [ [ -77.22294, 38.89506 ], [ -77.22332, 38.8946 ], [ -77.22236, 38.89442 ], [ -77.2221, 38.89485 ], [ -77.22294, 38.89506 ] ], [ [ -77.22242, 38.89317 ], [ -77.22241, 38.89319 ], [ -77.22246, 38.89322 ], [ -77.22242, 38.89317 ] ], [ [ -77.22422, 38.89236 ], [ -77.22421, 38.89219 ], [ -77.2239, 38.8921 ], [ -77.22422, 38.89236 ] ], [ [ -77.22544, 38.90217 ], [ -77.22646, 38.90165 ], [ -77.22532, 38.90114 ], [ -77.2244, 38.90118 ], [ -77.22427, 38.90166 ], [ -77.22544, 38.90217 ] ], [ [ -77.22502, 38.89025 ], [ -77.22386, 38.88982 ], [ -77.22364, 38.89032 ], [ -77.22434, 38.89042 ], [ -77.22472, 38.89094 ], [ -77.22502, 38.89025 ] ], [ [ -77.22127, 38.89244 ], [ -77.22064, 38.89234 ], [ -77.22124, 38.89252 ], [ -77.22127, 38.89244 ] ], [ [ -77.22199, 38.91056 ], [ -77.2213, 38.91164 ], [ -77.22135, 38.91167 ], [ -77.22199, 38.91056 ] ], [ [ -77.22233, 38.89605 ], [ -77.22126, 38.89578 ], [ -77.22089, 38.89663 ], [ -77.22187, 38.8962 ], [ -77.22232, 38.89646 ], [ -77.22233, 38.89605 ] ], [ [ -77.22214, 38.90104 ], [ -77.22213, 38.90115 ], [ -77.22215, 38.901 ], [ -77.22214, 38.90104 ] ], [ [ -77.22062, 38.90852 ], [ -77.22006, 38.90853 ], [ -77.22048, 38.90898 ], [ -77.22062, 38.90852 ] ], [ [ -77.21853, 38.89392 ], [ -77.21862, 38.89374 ], [ -77.21819, 38.89393 ], [ -77.21853, 38.89392 ] ] ] } },
{ "type": "Feature", "properties": { "variant": "T2s", "miles": 2.0 }, "geometry": { "type": "Polygon", "coordinates": [ [ [ -77.2431, 38.88797 ], [ -77.24408, 38.88829 ], [ -77.24447, 38.88899 ], [ -77.24357, 38.8893 ], [ -77.24249, 38.88894 ], [ -77.24216, 38.88934 ], [ -77.24477, 38.89082 ], [ -77.24425, 38.89146 ], [ -77.24266, 38.89086 ], [ -77.24256, 38.89114 ], [ -77.24537, 38.89224 ], [ -77.24663, 38.89322 ], [ -77.24664, 38.89398 ], [ -77.24523, 38.89556 ], [ -77.24538, 38.8961 ], [ -77.24607, 38.89616 ], [ -77.24675, 38.89691 ], [ -77.24655, 38.8973 ], [ -77.24518, 38.89746 ], [ -77.244, 38.89676 ], [ -77.24288, 38.89738 ], [ -77.24097, 38.89621 ], [ -77.24106, 38.89526 ], [ -77.2402, 38.89552 ], [ -77.24049, 38.89645 ], [ -77.2427, 38.89776 ], [ -77.2426, 38.90029 ], [ -77.24443, 38.89974 ], [ -77.24528, 38.89984 ], [ -77.24587, 38.90038 ], [ -77.24601, 38.90169 ], [ -77.2455, 38.90263 ], [ -77.24459, 38.90297 ], [ -77.24519, 38.90387 ], [ -77.2447, 38.90445 ], [ -77.24367, 38.9042 ], [ -77.24319, 38.90315 ], [ -77.24345, 38.90235 ], [ -77.24261, 38.90196 ], [ -77.24195, 38.90396 ], [ -77.24108, 38.90396 ], [ -77.2401, 38.90325 ], [ -77.24016, 38.90491 ], [ -77.24159, 38.90494 ], [ -77.2423, 38.90573 ], [ -77.24166, 38.90653 ], [ -77.24166, 38.90735 ], [ -77.24063, 38.90781 ], [ -77.24323, 38.90827 ], [ -77.24464, 38.90926 ], [ -77.24425, 38.90975 ], [ -77.24297, 38.91 ], [ -77.2425, 38.91075 ], [ -77.242, 38.9109 ], [ -77.2414, 38.91046 ], [ -77.24048, 38.91087 ], [ -77.24077, 38.91128 ], [ -77.2435, 38.91206 ], [ -77.24427, 38.91288 ], [ -77.24708, 38.91183 ], [ -77.2482, 38.91311 ], [ -77.24829, 38.91377 ], [ -77.24515, 38.91743 ], [ -77.24468, 38.91761 ], [ -77.24349, 38.91719 ], [ -77.24197, 38.91775 ], [ -77.24261, 38.9197 ], [ -77.24205, 38.92004 ], [ -77.24235, 38.92086 ], [ -77.24118, 38.92163 ], [ -77.24005, 38.92156 ], [ -77.24023, 38.92258 ], [ -77.23872, 38.92306 ], [ -77.23785, 38.92393 ], [ -77.23882, 38.92496 ], [ -77.2387, 38.92571 ], [ -77.23734, 38.92548 ], [ -77.23644, 38.92474 ], [ -77.23481, 38.92528 ], [ -77.23434, 38.92447 ], [ -77.2355, 38.92378 ], [ -77.2351, 38.92339 ], [ -77.23205, 38.92501 ], [ -77.22991, 38.92311 ], [ -77.22882, 38.92286 ], [ -77.22749, 38.92362 ], [ -77.23048, 38.92524 ], [ -77.22983, 38.92686 ], [ -77.22888, 38.92702 ], [ -77.2285, 38.92566 ], [ -77.22764, 38.92686 ], [ -77.22601, 38.92734 ], [ -77.22362, 38.92499 ], [ -77.22291, 38.92247 ], [ -77.22272, 38.92417 ], [ -77.22227, 38.92439 ], [ -77.2213, 38.92398 ], [ -77.22116, 38.92278 ], [ -77.21832, 38.92401 ], [ -77.21742, 38.9237 ], [ -77.21817, 38.92255 ], [ -77.21815, 38.91941 ], [ -77.21726, 38.91878 ], [ -77.21719, 38.91795 ], [ -77.21799, 38.91406 ], [ -77.21921, 38.91323 ], [ -77.21955, 38.91225 ], [ -77.21597, 38.91026 ], [ -77.21487, 38.91222 ], [ -77.21393, 38.91245 ], [ -77.21345, 38.91207 ], [ -77.21355, 38.91124 ], [ -77.21456, 38.9099 ], [ -77.21219, 38.91161 ], [ -77.21152, 38.91105 ], [ -77.21214, 38.9104 ], [ -77.21143, 38.90932 ], [ -77.20913, 38.90868 ], [ -77.20975, 38.90675 ], [ -77.2124, 38.9072 ], [ -77.21354, 38.90639 ], [ -77.21403, 38.90655 ], [ -77.21442, 38.90773 ], [ -77.21521, 38.90663 ], [ -77.21601, 38.90706 ], [ -77.21554, 38.90848 ], [ -77.22012, 38.91103 ], [ -77.22044, 38.91036 ], [ -77.21964, 38.91023 ], [ -77.21869, 38.90932 ], [ -77.21873, 38.90825 ], [ -77.21764, 38.90714 ], [ -77.21824, 38.9065 ], [ -77.21813, 38.9058 ], [ -77.21716, 38.90534 ], [ -77.21681, 38.90269 ], [ -77.2162, 38.90236 ], [ -77.21643, 38.90063 ], [ -77.21535, 38.90016 ], [ -77.21566, 38.89896 ], [ -77.21379, 38.89847 ], [ -77.21294, 38.8991 ], [ -77.21242, 38.899 ], [ -77.21244, 38.89808 ], [ -77.21132, 38.89739 ], [ -77.21244, 38.89597 ], [ -77.21111, 38.89527 ], [ -77.21186, 38.89395 ], [ -77.21103, 38.89416 ], [ -77.20982, 38.89357 ], [ -77.20984, 38.89316 ], [ -77.21096, 38.89296 ], [ -77.21127, 38.89242 ], [ -77.20998, 38.89182 ], [ -77.20953, 38.89044 ], [ -77.21065, 38.89031 ], [ -77.21215, 38.89141 ], [ -77.21314, 38.89049 ], [ -77.21429, 38.89114 ], [ -77.21501, 38.88961 ], [ -77.21731, 38.89018 ], [ -77.2173, 38.89094 ], [ -77.21621, 38.89167 ], [ -77.21643, 38.89239 ], [ -77.21614, 38.89274 ], [ -77.21537, 38.89275 ], [ -77.21484, 38.89412 ], [ -77.21657, 38.89339 ], [ -77.21655, 38.89227 ], [ -77.21735, 38.89122 ], [ -77.21825, 38.89151 ], [ -77.21789, 38.89282 ], [ -77.21931, 38.8923 ], [ -77.21914, 38.89133 ], [ -77.21948, 38.89102 ], [ -77.22094, 38.89123 ], [ -77.22021, 38.89042 ], [ -77.22053, 38.8897 ], [ -77.22188, 38.88941 ], [ -77.2223, 38.89005 ], [ -77.22268, 38.88913 ], [ -77.22159, 38.88884 ], [ -77.22115, 38.88816 ], [ -77.2215, 38.88785 ], [ -77.22251, 38.88795 ], [ -77.22263, 38.88658 ], [ -77.22307, 38.88634 ], [ -77.22376, 38.88662 ], [ -77.22338, 38.88571 ], [ -77.2237, 38.88539 ], [ -77.22432, 38.88535 ], [ -77.2248, 38.88478 ], [ -77.22704, 38.88498 ], [ -77.22705, 38.88392 ], [ -77.22793, 38.8835 ], [ -77.22879, 38.88387 ], [ -77.22878, 38.88566 ], [ -77.23024, 38.88512 ], [ -77.22957, 38.8842 ], [ -77.2306, 38.88302 ], [ -77.23259, 38.88257 ], [ -77.23472, 38.88304 ], [ -77.23603, 38.88453 ], [ -77.23606, 38.88495 ], [ -77.23493, 38.88555 ], [ -77.23519, 38.88707 ], [ -77.23434, 38.88842 ], [ -77.23123, 38.88859 ], [ -77.23046, 38.88988 ], [ -77.22953, 38.88964 ], [ -77.22994, 38.8882 ], [ -77.22918, 38.88762 ], [ -77.22951, 38.88844 ], [ -77.22928, 38.89051 ], [ -77.2284, 38.89104 ], [ -77.22873, 38.89164 ], [ -77.22816, 38.89197 ], [ -77.22822, 38.89264 ], [ -77.23623, 38.89464 ], [ -77.23763, 38.89289 ], [ -77.23699, 38.89338 ], [ -77.23616, 38.89298 ], [ -77.23646, 38.89231 ], [ -77.23576, 38.89173 ], [ -77.23608, 38.88967 ], [ -77.23528, 38.88956 ], [ -77.23498, 38.88898 ], [ -77.23537, 38.88763 ], [ -77.23633, 38.88778 ], [ -77.23635, 38.8886 ], [ -77.24005, 38.88989 ], [ -77.24309, 38.8859 ], [ -77.24389, 38.88644 ], [ -77.2431, 38.88797 ] ], [ [ -77.22851, 38.92181 ], [ -77.22825, 38.92031 ], [ -77.22708, 38.9205 ], [ -77.22714, 38.92238 ], [ -77.22851, 38.92181 ] ], [ [ -77.22893, 38.91839 ], [ -77.22759, 38.91725 ], [ -77.2274, 38.91737 ], [ -77.22893, 38.91839 ] ], [ [ -77.22768, 38.91526 ], [ -77.23028, 38.91692 ], [ -77.23071, 38.91657 ], [ -77.2279, 38.91499 ], [ -77.22768, 38.91526 ] ], [ [ -77.2286, 38.91405 ], [ -77.23189, 38.91583 ], [ -77.23346, 38.9153 ], [ -77.22881, 38.91325 ], [ -77.2286, 38.91405 ] ], [ [ -77.22851, 38.91179 ], [ -77.22931, 38.91208 ], [ -77.23042, 38.91008 ], [ -77.22946, 38.91001 ], [ -77.22851, 38.91179 ] ], [ [ -77.22753, 38.90588 ], [ -77.22742, 38.90577 ], [ -77.22746, 38.90604 ], [ -77.22753, 38.90588 ] ], [ [ -77.22539, 38.9056 ], [ -77.22613, 38.9037 ], [ -77.22415, 38.90285 ], [ -77.22307, 38.90611 ], [ -77.22411, 38.90603 ], [ -77.22492, 38.90643 ], [ -77.22591, 38.90625 ], [ -77.22539, 38.9056 ] ], [ [ -77.22553, 38.90203 ], [ -77.22646, 38.90165 ], [ -77.22532, 38.90114 ], [ -77.2244, 38.90118 ], [ -77.22427, 38.90166 ], [ -77.22553, 38.90203 ] ], [ [ -77.22469, 38.90011 ], [ -77.22604, 38.89956 ], [ -77.22496, 38.89906 ], [ -77.22469, 38.90011 ] ], [ [ -77.22629, 38.89727 ], [ -77.22707, 38.89671 ], [ -77.22836, 38.89721 ], [ -77.22878, 38.89683 ], [ -77.22582, 38.89571 ], [ -77.22629, 38.89727 ] ], [ [ -77.22666, 38.89475 ], [ -77.22682, 38.89451 ], [ -77.22597, 38.89425 ], [ -77.22599, 38.89456 ], [ -77.22666, 38.89475 ] ], [ [ -77.2258, 38.892 ], [ -77.2261, 38.89153 ], [ -77.226, 38.89151 ], [ -77.2258, 38.892 ] ], [ [ -77.22417, 38.88903 ], [ -77.22554, 38.88902 ], [ -77.22432, 38.88868 ], [ -77.22417, 38.88903 ] ], [ [ -77.22599, 38.88792 ], [ -77.22592, 38.88798 ], [ -77.22596, 38.88799 ], [ -77.22599, 38.88792 ] ], [ [ -77.22619, 38.88746 ], [ -77.22638, 38.88701 ], [ -77.226, 38.88691 ], [ -77.22579, 38.88709 ], [ -77.22619, 38.88746 ] ], [ [ -77.23798, 38.9212 ], [ -77.23798, 38.91929 ], [ -77.23664, 38.91924 ], [ -77.23593, 38.91783 ], [ -77.23329, 38.91932 ], [ -77.23502, 38.92037 ], [ -77.23501, 38.92093 ], [ -77.23694, 38.92296 ], [ -77.23798, 38.9212 ] ], [ [ -77.2358, 38.9161 ], [ -77.23525, 38.91587 ], [ -77.23351, 38.91646 ], [ -77.23414, 38.91668 ], [ -77.2358, 38.9161 ] ], [ [ -77.23424, 38.91427 ], [ -77.23764, 38.9157 ], [ -77.23812, 38.91552 ], [ -77.23607, 38.91432 ], [ -77.23587, 38.91377 ], [ -77.23463, 38.91358 ], [ -77.23424, 38.91427 ] ], [ [ -77.23529, 38.9126 ], [ -77.23572, 38.91265 ], [ -77.23586, 38.91201 ], [ -77.23561, 38.91191 ], [ -77.23529, 38.9126 ] ], [ [ -77.23518, 38.91001 ], [ -77.23543, 38.90962 ], [ -77.23569, 38.9093 ], [ -77.23495, 38.90981 ], [ -77.23518, 38.91001 ] ], [ [ -77.23433, 38.90877 ], [ -77.23431, 38.90769 ], [ -77.23483, 38.90744 ], [ -77.23354, 38.90679 ], [ -77.23309, 38.90803 ], [ -77.23339, 38.90868 ], [ -77.23293, 38.90897 ], [ -77.23433, 38.90877 ] ], [ [ -77.23513, 38.90624 ], [ -77.23651, 38.90551 ], [ -77.23607, 38.90452 ], [ -77.23559, 38.9051 ], [ -77.23466, 38.90474 ], [ -77.23436, 38.90592 ], [ -77.23513, 38.90624 ] ], [ [ -77.23455, 38.90283 ], [ -77.23405, 38.90253 ], [ -77.23359, 38.90232 ], [ -77.23455, 38.90283 ] ], [ [ -77.23477, 38.90159 ], [ -77.23475, 38.9016 ], [ -77.23477, 38.90161 ], [ -77.23477, 38.90159 ] ], [ [ -77.23565, 38.9004 ], [ -77.23561, 38.90047 ], [ -77.23577, 38.90045 ], [ -77.23565, 38.9004 ] ], [ [ -77.234, 38.89614 ], [ -77.23534, 38.89557 ], [ -77.23319, 38.89509 ], [ -77.234, 38.89614 ] ], [ [ -77.24083, 38.9059 ], [ -77.23995, 38.90607 ], [ -77.24054, 38.90671 ], [ -77.24097, 38.90641 ], [ -77.24083, 38.9059 ] ], [ [ -77.23757, 38.9068 ], [ -77.23796, 38.90616 ], [ -77.23728, 38.90642 ], [ -77.23757, 38.9068 ] ], [ [ -77.23865, 38.90509 ], [ -77.23874, 38.9039 ], [ -77.23773, 38.90387 ], [ -77.23746, 38.90447 ], [ -77.23778, 38.90507 ], [ -77.23865, 38.90509 ] ], [ [ -77.23736, 38.90204 ], [ -77.23808, 38.90282 ], [ -77.23869, 38.90282 ], [ -77.23867, 38.90228 ], [ -77.23736, 38.90204 ] ], [ [ -77.23775, 38.89818 ], [ -77.23728, 38.89821 ], [ -77.23677, 38.8987 ], [ -77.23732, 38.89874 ], [ -77.23775, 38.89818 ] ], [ [ -77.23805, 38.89033 ], [ -77.23737, 38.89007 ], [ -77.23747, 38.89106 ], [ -77.23788, 38.89055 ], [ -77.23805, 38.89033 ] ], [ [ -77.2398, 38.89508 ], [ -77.23981, 38.89436 ], [ -77.23885, 38.89481 ], [ -77.2398, 38.89508 ] ], [ [ -77.23874, 38.89355 ], [ -77.23995, 38.89235 ], [ -77.23976, 38.89225 ], [ -77.23874, 38.89355 ] ], [ [ -77.24302, 38.896 ], [ -77.24244, 38.89549 ], [ -77.2429, 38.8961 ], [ -77.24302, 38.896 ] ], [ [ -77.24474, 38.89326 ], [ -77.24414, 38.89352 ], [ -77.24472, 38.89398 ], [ -77.24517, 38.89361 ], [ -77.24474, 38.89326 ] ], [ [ -77.24184, 38.89401 ], [ -77.2436, 38.89491 ], [ -77.24375, 38.89478 ], [ -77.24277, 38.894 ], [ -77.24184, 38.89401 ] ], [ [ -77.24137, 38.89302 ], [ -77.24065, 38.8935 ], [ -77.24138, 38.89387 ], [ -77.24108, 38.89356 ], [ -77.24137, 38.89302 ] ], [ [ -77.24167, 38.89037 ], [ -77.24049, 38.89134 ], [ -77.24069, 38.89144 ], [ -77.24167, 38.89037 ] ], [ [ -77.24304, 38.89284 ], [ -77.24318, 38.89274 ], [ -77.24291, 38.8926 ], [ -77.24304, 38.89284 ] ], [ [ -77.24, 38.90106 ], [ -77.23992, 38.90104 ], [ -77.23993, 38.9011 ], [ -77.24, 38.90106 ] ], [ [ -77.23957, 38.89744 ], [ -77.23912, 38.89811 ], [ -77.2393, 38.89829 ], [ -77.23937, 38.89785 ], [ -77.23957, 38.89744 ] ], [ [ -77.24361, 38.90114 ], [ -77.24453, 38.9015 ], [ -77.24457, 38.90083 ], [ -77.24361, 38.90114 ] ], [ [ -77.24028, 38.9089 ], [ -77.24, 38.9088 ], [ -77.23995, 38.90885 ], [ -77.24028, 38.9089 ] ], [ [ -77.24131, 38.9168 ], [ -77.24261, 38.9163 ], [ -77.24299, 38.91618 ], [ -77.24166, 38.91545 ], [ -77.24203, 38.91634 ], [ -77.24076, 38.91665 ], [ -77.24131, 38.9168 ] ], [ [ -77.23947, 38.91496 ], [ -77.23937, 38.91505 ], [ -77.23954, 38.91498 ], [ -77.23947, 38.91496 ] ], [ [ -77.24075, 38.91448 ], [ -77.24308, 38.91343 ], [ -77.24268, 38.91294 ], [ -77.24143, 38.91248 ], [ -77.24195, 38.91367 ], [ -77.24102, 38.91391 ], [ -77.23975, 38.91232 ], [ -77.23945, 38.91265 ], [ -77.24007, 38.91303 ], [ -77.23947, 38.91377 ], [ -77.24059, 38.91403 ], [ -77.24075, 38.91448 ] ], [ [ -77.24473, 38.91558 ], [ -77.24312, 38.91493 ], [ -77.24432, 38.91548 ], [ -77.24436, 38.91629 ], [ -77.24473, 38.91558 ] ], [ [ -77.24644, 38.91397 ], [ -77.24641, 38.91397 ], [ -77.24643, 38.91398 ], [ -77.24644, 38.91397 ] ], [ [ -77.23873, 38.91379 ], [ -77.23871, 38.91378 ], [ -77.23871, 38.91379 ], [ -77.23873, 38.91379 ] ], [ [ -77.2373, 38.91183 ], [ -77.23865, 38.91166 ], [ -77.23993, 38.9108 ], [ -77.23707, 38.90963 ], [ -77.2368, 38.90995 ], [ -77.23832, 38.91063 ], [ -77.23822, 38.91103 ], [ -77.23729, 38.91128 ], [ -77.2373, 38.91183 ] ], [ [ -77.23869, 38.90817 ], [ -77.2388, 38.90824 ], [ -77.23883, 38.90822 ], [ -77.23869, 38.90817 ] ], [ [ -77.23661, 38.89684 ], [ -77.23752, 38.89694 ], [ -77.2361, 38.89663 ], [ -77.23661, 38.89684 ] ], [ [ -77.23672, 38.9134 ], [ -77.2371, 38.91359 ], [ -77.23734, 38.91333 ], [ -77.23697, 38.91312 ], [ -77.23672, 38.9134 ] ], [ [ -77.23449, 38.88451 ], [ -77.23381, 38.88387 ], [ -77.23352, 38.88425 ], [ -77.23257, 38.88412 ], [ -77.23161, 38.88484 ], [ -77.23275, 38.88516 ], [ -77.23449, 38.88451 ] ], [ [ -77.23192, 38.9219 ], [ -77.23264, 38.92084 ], [ -77.23193, 38.92116 ], [ -77.2298, 38.9205 ], [ -77.22989, 38.92188 ], [ -77.23146, 38.92289 ], [ -77.23217, 38.92247 ], [ -77.23192, 38.9219 ] ], [ [ -77.23217, 38.91868 ], [ -77.23301, 38.91747 ], [ -77.23199, 38.91709 ], [ -77.2311, 38.91781 ], [ -77.23217, 38.91868 ] ], [ [ -77.2321, 38.90978 ], [ -77.23211, 38.90977 ], [ -77.2321, 38.90977 ], [ -77.2321, 38.90978 ] ], [ [ -77.23131, 38.9085 ], [ -77.23105, 38.90816 ], [ -77.2306, 38.90803 ], [ -77.23092, 38.90854 ], [ -77.23131, 38.9085 ] ], [ [ -77.23137, 38.90662 ], [ -77.23244, 38.90612 ], [ -77.23233, 38.90606 ], [ -77.23137, 38.90662 ] ], [ [ -77.23196, 38.90448 ], [ -77.23286, 38.90439 ], [ -77.23316, 38.90519 ], [ -77.23334, 38.90443 ], [ -77.23293, 38.90376 ], [ -77.23328, 38.90346 ], [ -77.23293, 38.90327 ], [ -77.23251, 38.90377 ], [ -77.23199, 38.90375 ], [ -77.23138, 38.90231 ], [ -77.23054, 38.90219 ], [ -77.23062, 38.9031 ], [ -77.22964, 38.90321 ], [ -77.22934, 38.90372 ], [ -77.23196, 38.90448 ] ], [ [ -77.23194, 38.90185 ], [ -77.23305, 38.90206 ], [ -77.23274, 38.90175 ], [ -77.23314, 38.90113 ], [ -77.23261, 38.90091 ], [ -77.2321, 38.9013 ], [ -77.23156, 38.90119 ], [ -77.23194, 38.90185 ] ], [ [ -77.23022, 38.89994 ], [ -77.22986, 38.90035 ], [ -77.23032, 38.90048 ], [ -77.2306, 38.90004 ], [ -77.23022, 38.89994 ] ], [ [ -77.23134, 38.89666 ], [ -77.23264, 38.89639 ], [ -77.23249, 38.89602 ], [ -77.22815, 38.89485 ], [ -77.22786, 38.8953 ], [ -77.23134, 38.89666 ] ], [ [ -77.2375, 38.91821 ], [ -77.23765, 38.91792 ], [ -77.23721, 38.91731 ], [ -77.23738, 38.91795 ], [ -77.2375, 38.91821 ] ], [ [ -77.23364, 38.92249 ], [ -77.23402, 38.92267 ], [ -77.23349, 38.92216 ], [ -77.23364, 38.92249 ] ], [ [ -77.23285, 38.88748 ], [ -77.23241, 38.88746 ], [ -77.23224, 38.88755 ], [ -77.23285, 38.88748 ] ], [ [ -77.2281, 38.89092 ], [ -77.22786, 38.88908 ], [ -77.22696, 38.88909 ], [ -77.22639, 38.89047 ], [ -77.2281, 38.89092 ] ], [ [ -77.22887, 38.90841 ], [ -77.22935, 38.90728 ], [ -77.22834, 38.90825 ], [ -77.22887, 38.90841 ] ], [ [ -77.22864, 38.90203 ], [ -77.22738, 38.90193 ], [ -77.22759, 38.90308 ], [ -77.22808, 38.90326 ], [ -77.22864, 38.90203 ] ], [ [ -77.22912, 38.90032 ], [ -77.22861, 38.9002 ], [ -77.22838, 38.90012 ], [ -77.2285, 38.90062 ], [ -77.22913, 38.90073 ], [ -77.22912, 38.90032 ] ], [ [ -77.22737, 38.89871 ], [ -77.22726, 38.89877 ], [ -77.22723, 38.8988 ], [ -77.22737, 38.89871 ] ], [ [ -77.23018, 38.90605 ], [ -77.22981, 38.90618 ], [ -77.23003, 38.90631 ], [ -77.23018, 38.90605 ] ], [ [ -77.22992, 38.89841 ], [ -77.22993, 38.8985 ], [ -77.22995, 38.89839 ], [ -77.22992, 38.89841 ] ], [ [ -77.23093, 38.91283 ], [ -77.23112, 38.91246 ], [ -77.23073, 38.91224 ], [ -77.23048, 38.91269 ], [ -77.23093, 38.91283 ] ], [ [ -77.22681, 38.88598 ], [ -77.2267, 38.88587 ], [ -77.22667, 38.88594 ], [ -77.22681, 38.88598 ] ], [ [ -77.22684, 38.9006 ], [ -77.22686, 38.90044 ], [ -77.22666, 38.90055 ], [ -77.22684, 38.9006 ] ], [ [ -77.2304, 38.91904 ], [ -77.2308, 38.91975 ], [ -77.23127, 38.91971 ], [ -77.2304, 38.91904 ] ], [ [ -77.22536, 38.92112 ], [ -77.22546, 38.92054 ], [ -77.2226, 38.92082 ], [ -77.22263, 38.92127 ], [ -77.22536, 38.92112 ] ], [ [ -77.21876, 38.91844 ], [ -77.22365, 38.91914 ], [ -77.22483, 38.91846 ], [ -77.22379, 38.9161 ], [ -77.22294, 38.91578 ], [ -77.22197, 38.91691 ], [ -77.22261, 38.91743 ], [ -77.22208, 38.91807 ], [ -77.21867, 38.91768 ], [ -77.21876, 38.91844 ] ], [ [ -77.22257, 38.91218 ], [ -77.22459, 38.91339 ], [ -77.22605, 38.91195 ], [ -77.22551, 38.91171 ], [ -77.22451, 38.91199 ], [ -77.22327, 38.91097 ], [ -77.22257, 38.91218 ] ], [ [ -77.22168, 38.90257 ], [ -77.22098, 38.90286 ], [ -77.22145, 38.90351 ], [ -77.22154, 38.9035 ], [ -77.22168, 38.90257 ] ], [ [ -77.22213, 38.90115 ], [ -77.22215, 38.901 ], [ -77.22204, 38.90113 ], [ -77.22213, 38.90115 ] ], [ [ -77.22112, 38.89926 ], [ -77.22149, 38.89841 ], [ -77.21753, 38.89796 ], [ -77.2174, 38.89828 ], [ -77.21857, 38.89858 ], [ -77.21882, 38.8983 ], [ -77.22018, 38.89836 ], [ -77.22052, 38.8991 ], [ -77.22112, 38.89926 ] ], [ [ -77.22066, 38.8923 ], [ -77.22124, 38.89252 ], [ -77.22127, 38.89246 ], [ -77.22066, 38.8923 ] ], [ [ -77.22543, 38.91566 ], [ -77.22386, 38.91467 ], [ -77.22376, 38.91478 ], [ -77.22543, 38.91566 ] ], [ [ -77.22532, 38.91032 ], [ -77.22509, 38.9101 ], [ -77.22468, 38.91007 ], [ -77.22532, 38.91032 ] ], [ [ -77.22634, 38.91812 ], [ -77.22676, 38.91881 ], [ -77.22742, 38.91873 ], [ -77.22725, 38.91859 ], [ -77.22634, 38.91812 ] ], [ [ -77.22665, 38.91645 ], [ -77.22664, 38.91645 ], [ -77.22662, 38.91647 ], [ -77.22665, 38.91645 ] ], [ [ -77.22647, 38.91418 ], [ -77.22588, 38.91384 ], [ -77.2256, 38.91414 ], [ -77.22637, 38.91462 ], [ -77.22647, 38.91418 ] ], [ [ -77.22728, 38.9133 ], [ -77.22725, 38.91292 ], [ -77.22669, 38.91297 ], [ -77.22728, 38.9133 ] ], [ [ -77.22705, 38.91103 ], [ -77.22732, 38.91117 ], [ -77.22669, 38.91086 ], [ -77.22705, 38.91103 ] ], [ [ -77.22712, 38.92515 ], [ -77.22581, 38.92388 ], [ -77.2255, 38.92232 ], [ -77.22429, 38.92239 ], [ -77.22488, 38.92453 ], [ -77.2265, 38.92601 ], [ -77.22712, 38.92515 ] ], [ [ -77.22385, 38.89743 ], [ -77.22352, 38.89708 ], [ -77.22336, 38.89747 ], [ -77.22385, 38.89743 ] ], [ [ -77.22421, 38.89219 ], [ -77.2239, 38.8921 ], [ -77.22422, 38.89236 ], [ -77.22421, 38.89219 ] ], [ [ -77.22502, 38.89025 ], [ -77.22386, 38.88982 ], [ -77.22364, 38.89032 ], [ -77.22434, 38.89042 ], [ -77.22472, 38.89094 ], [ -77.22502, 38.89025 ] ], [ [ -77.22249, 38.89609 ], [ -77.22126, 38.89578 ], [ -77.22089, 38.89663 ], [ -77.22187, 38.8962 ], [ -77.22232, 38.89646 ], [ -77.22249, 38.89609 ] ], [ [ -77.22298, 38.89497 ], [ -77.22332, 38.8946 ], [ -77.22236, 38.89442 ], [ -77.2221, 38.89485 ], [ -77.22298, 38.89497 ] ], [ [ -77.22246, 38.89322 ], [ -77.22242, 38.89317 ], [ -77.22241, 38.89319 ], [ -77.22246, 38.89322 ] ], [ [ -77.22035, 38.91492 ], [ -77.21939, 38.91432 ], [ -77.21921, 38.91531 ], [ -77.22027, 38.9157 ], [ -77.22035, 38.91492 ] ], [ [ -77.22063, 38.91367 ], [ -77.22188, 38.91348 ], [ -77.2215, 38.91329 ], [ -77.22063, 38.91367 ] ], [ [ -77.22062, 38.90852 ], [ -77.22006, 38.90853 ], [ -77.22048, 38.90898 ], [ -77.22062, 38.90852 ] ], [ [ -77.21678, 38.89974 ], [ -77.21817, 38.89962 ], [ -77.21697, 38.89931 ], [ -77.21678, 38.89974 ] ], [ [ -77.2194, 38.90142 ], [ -77.21879, 38.90154 ], [ -77.21989, 38.90209 ], [ -77.21943, 38.90175 ], [ -77.2194, 38.90142 ] ], [ [ -77.21974, 38.90102 ], [ -77.21968, 38.90096 ], [ -77.21963, 38.90112 ], [ -77.21974, 38.90102 ] ], [ [ -77.22181, 38.91053 ], [ -77.22135, 38.91167 ], [ -77.22199, 38.91056 ], [ -77.22181, 38.91053 ] ], [ [ -77.21917, 38.90309 ], [ -77.2192, 38.90311 ], [ -77.21917, 38.90307 ], [ -77.21917, 38.90309 ] ], [ [ -77.22104, 38.92067 ], [ -77.22056, 38.92029 ], [ -77.22074, 38.91978 ], [ -77.21953, 38.91962 ], [ -77.21953, 38.92191 ], [ -77.22102, 38.92154 ], [ -77.22104, 38.92067 ] ], [ [ -77.21813, 38.89495 ], [ -77.218, 38.89694 ], [ -77.21922, 38.8971 ], [ -77.21884, 38.89675 ], [ -77.21935, 38.89607 ], [ -77.21892, 38.89516 ], [ -77.21813, 38.89495 ] ], [ [ -77.2178, 38.8941 ], [ -77.21716, 38.89437 ], [ -77.21716, 38.89439 ], [ -77.21766, 38.89451 ], [ -77.2178, 38.8941 ] ], [ [ -77.21853, 38.89392 ], [ -77.21862, 38.89374 ], [ -77.21819, 38.89393 ], [ -77.21853, 38.89392 ] ], [ [ -77.21851, 38.89706 ], [ -77.21849, 38.89705 ], [ -77.21849, 38.89706 ], [ -77.21851, 38.89706 ] ], [ [ -77.21952, 38.91665 ], [ -77.21893, 38.91662 ], [ -77.21978, 38.91672 ], [ -77.21952, 38.91665 ] ], [ [ -77.21286, 38.90874 ], [ -77.21279, 38.90914 ], [ -77.213, 38.90953 ], [ -77.21348, 38.90899 ], [ -77.21286, 38.90874 ] ], [ [ -77.21602, 38.89494 ], [ -77.21436, 38.89552 ], [ -77.2151, 38.896 ], [ -77.21505, 38.89641 ], [ -77.21428, 38.89665 ], [ -77.21458, 38.89753 ], [ -77.21609, 38.89793 ], [ -77.21622, 38.89761 ], [ -77.21516, 38.89669 ], [ -77.21602, 38.89494 ] ], [ [ -77.21367, 38.89212 ], [ -77.21288, 38.89188 ], [ -77.21371, 38.89254 ], [ -77.21367, 38.89212 ] ], [ [ -77.21313, 38.8945 ], [ -77.21321, 38.89369 ], [ -77.21311, 38.8945 ], [ -77.21313, 38.8945 ] ], [ [ -77.21277, 38.89334 ], [ -77.21242, 38.89305 ], [ -77.21217, 38.89349 ], [ -77.21225, 38.8934 ], [ -77.21277, 38.89334 ] ], [ [ -77.21328, 38.89711 ], [ -77.21351, 38.89675 ], [ -77.21397, 38.89658 ], [ -77.21368, 38.89646 ], [ -77.21328, 38.89711 ] ] ] } }
]
}
