{
"type": "FeatureCollection",
"name": "75",
"crs": { "type": "name", "properties": { "name": "urn:ogc:def:crs:OGC:1.3:CRS84" } },
"xy_coordinate_resolution": 1e-05,
"features": [
{ "type": "Feature", "properties": { "variant": "T0", "miles": 0.5 }, "geometry": { "type": "Polygon", "coordinates": [ [ [ -77.20915, 38.91404 ], [ -77.21056, 38.91546 ], [ -77.21022, 38.91588 ], [ -77.21092, 38.91625 ], [ -77.21097, 38.91695 ], [ -77.21002, 38.91745 ], [ -77.21019, 38.91811 ], [ -77.20967, 38.91935 ], [ -77.20899, 38.91953 ], [ -77.20588, 38.91855 ], [ -77.20392, 38.91971 ], [ -77.20446, 38.91961 ], [ -77.20502, 38.92023 ], [ -77.20316, 38.92175 ], [ -77.20369, 38.92239 ], [ -77.20355, 38.92304 ], [ -77.20268, 38.92356 ], [ -77.20196, 38.92303 ], [ -77.20207, 38.92242 ], [ -77.20137, 38.92252 ], [ -77.20143, 38.92387 ], [ -77.20066, 38.92466 ], [ -77.19983, 38.92467 ], [ -77.19696, 38.92308 ], [ -77.19713, 38.92232 ], [ -77.20005, 38.9206 ], [ -77.19993, 38.91949 ], [ -77.19929, 38.91913 ], [ -77.19895, 38.91809 ], [ -77.20011, 38.91738 ], [ -77.20017, 38.91653 ], [ -77.19993, 38.91612 ], [ -77.19845, 38.91574 ], [ -77.19829, 38.91534 ], [ -77.19854, 38.91498 ], [ -77.19964, 38.91495 ], [ -77.19985, 38.91427 ], [ -77.20077, 38.914 ], [ -77.20113, 38.91431 ], [ -77.20093, 38.91537 ], [ -77.20176, 38.91629 ], [ -77.20096, 38.91344 ], [ -77.20144, 38.91326 ], [ -77.20233, 38.91368 ], [ -77.20335, 38.91306 ], [ -77.20385, 38.91321 ], [ -77.20407, 38.91358 ], [ -77.20337, 38.9144 ], [ -77.20495, 38.91487 ], [ -77.20629, 38.9142 ], [ -77.20726, 38.91503 ], [ -77.2075, 38.91463 ], [ -77.20845, 38.91471 ], [ -77.20864, 38.91415 ], [ -77.20915, 38.91404 ] ], [ [ -77.20226, 38.91929 ], [ -77.20223, 38.91923 ], [ -77.20177, 38.91957 ], [ -77.20226, 38.91929 ] ], [ [ -77.20434, 38.91811 ], [ -77.20594, 38.91715 ], [ -77.20506, 38.91636 ], [ -77.20372, 38.9172 ], [ -77.20434, 38.91811 ] ], [ [ -77.20324, 38.91615 ], [ -77.20315, 38.9161 ], [ -77.20335, 38.91614 ], [ -77.20324, 38.91615 ] ], [ [ -77.20604, 38.91554 ], [ -77.20601, 38.91557 ], [ -77.20613, 38.91566 ], [ -77.20604, 38.91554 ] ], [ [ -77.20862, 38.91781 ], [ -77.20824, 38.91741 ], [ -77.20705, 38.91785 ], [ -77.20768, 38.9181 ], [ -77.20862, 38.91781 ] ], [ [ -77.20281, 38.91542 ], [ -77.20282, 38.9154 ], [ -77.20279, 38.91539 ], [ -77.20281, 38.91542 ] ], [ [ -77.19979, 38.92329 ], [ -77.19977, 38.92235 ], [ -77.19898, 38.92281 ], [ -77.19979, 38.92329 ] ] ] } },
{ "type": "Feature", "properties": { "variant": "T0", "miles": 1.0 }, "geometry": { "type": "Polygon", "coordinates": [ [ [ -77.21626, 38.90967 ], [ -77.21498, 38.91178 ], [ -77.21506, 38.91237 ], [ -77.21557, 38.91266 ], [ -77.21544, 38.91329 ], [ -77.21656, 38.91342 ], [ -77.21678, 38.91379 ], [ -77.21618, 38.91433 ], [ -77.21656, 38.91523 ], [ -77.2161, 38.91597 ], [ -77.21672, 38.91625 ], [ -77.21666, 38.91718 ], [ -77.21583, 38.91758 ], [ -77.21534, 38.91707 ], [ -77.21349, 38.9178 ], [ -77.21532, 38.9186 ], [ -77.2155, 38.91995 ], [ -77.21511, 38.92066 ], [ -77.21399, 38.92067 ], [ -77.21305, 38.91992 ], [ -77.21238, 38.92219 ], [ -77.21074, 38.92329 ], [ -77.21005, 38.92275 ], [ -77.2112, 38.9216 ], [ -77.21178, 38.91846 ], [ -77.21066, 38.91819 ], [ -77.20967, 38.91935 ], [ -77.20899, 38.91953 ], [ -77.20588, 38.91855 ], [ -77.20392, 38.91971 ], [ -77.20446, 38.91961 ], [ -77.20502, 38.92023 ], [ -77.20316, 38.92175 ], [ -77.20369, 38.92239 ], [ -77.20357, 38.92302 ], [ -77.20482, 38.92371 ], [ -77.20539, 38.92333 ], [ -77.20706, 38.92318 ], [ -77.20831, 38.92449 ], [ -77.20695, 38.92537 ], [ -77.20735, 38.9259 ], [ -77.20655, 38.92716 ], [ -77.20433, 38.92871 ], [ -77.20383, 38.92883 ], [ -77.2032, 38.92825 ], [ -77.20479, 38.92673 ], [ -77.2045, 38.92653 ], [ -77.20002, 38.92758 ], [ -77.19964, 38.92729 ], [ -77.20013, 38.92653 ], [ -77.19997, 38.92584 ], [ -77.2013, 38.92508 ], [ -77.20079, 38.9246 ], [ -77.20001, 38.92472 ], [ -77.19928, 38.92434 ], [ -77.19992, 38.92592 ], [ -77.19902, 38.92622 ], [ -77.19734, 38.92354 ], [ -77.19673, 38.92388 ], [ -77.19709, 38.92499 ], [ -77.19632, 38.92527 ], [ -77.1982, 38.9287 ], [ -77.19785, 38.92941 ], [ -77.19732, 38.92942 ], [ -77.19644, 38.92862 ], [ -77.19534, 38.92845 ], [ -77.19531, 38.9278 ], [ -77.19384, 38.92831 ], [ -77.19328, 38.92718 ], [ -77.19168, 38.92729 ], [ -77.19147, 38.92654 ], [ -77.19298, 38.92612 ], [ -77.19271, 38.92525 ], [ -77.19154, 38.92519 ], [ -77.19124, 38.92486 ], [ -77.19133, 38.92445 ], [ -77.19225, 38.92419 ], [ -77.1921, 38.92388 ], [ -77.19129, 38.92418 ], [ -77.18999, 38.92382 ], [ -77.1901, 38.92306 ], [ -77.1912, 38.9223 ], [ -77.19214, 38.92228 ], [ -77.19057, 38.92133 ], [ -77.19044, 38.92057 ], [ -77.19091, 38.92037 ], [ -77.19193, 38.92079 ], [ -77.19192, 38.91964 ], [ -77.19279, 38.91929 ], [ -77.19431, 38.92126 ], [ -77.19431, 38.922 ], [ -77.19526, 38.92337 ], [ -77.19613, 38.92288 ], [ -77.19428, 38.91854 ], [ -77.19232, 38.91601 ], [ -77.19204, 38.91421 ], [ -77.19349, 38.91328 ], [ -77.19274, 38.9114 ], [ -77.19728, 38.90727 ], [ -77.19824, 38.9072 ], [ -77.19886, 38.90772 ], [ -77.2, 38.90684 ], [ -77.20096, 38.90695 ], [ -77.20094, 38.90767 ], [ -77.1995, 38.90868 ], [ -77.20113, 38.90929 ], [ -77.20081, 38.90886 ], [ -77.20147, 38.90829 ], [ -77.20329, 38.90901 ], [ -77.20476, 38.90769 ], [ -77.20547, 38.9077 ], [ -77.20581, 38.90813 ], [ -77.2066, 38.90769 ], [ -77.20732, 38.9082 ], [ -77.20756, 38.90931 ], [ -77.20853, 38.90855 ], [ -77.20906, 38.90857 ], [ -77.20942, 38.90888 ], [ -77.20907, 38.90969 ], [ -77.20931, 38.90999 ], [ -77.2097, 38.90963 ], [ -77.21039, 38.90978 ], [ -77.21082, 38.90908 ], [ -77.21135, 38.90911 ], [ -77.21226, 38.91031 ], [ -77.21393, 38.90866 ], [ -77.21492, 38.90874 ], [ -77.21626, 38.90967 ] ], [ [ -77.20223, 38.91923 ], [ -77.20177, 38.91957 ], [ -77.20226, 38.91929 ], [ -77.20223, 38.91923 ] ], [ [ -77.20096, 38.91153 ], [ -77.20088, 38.91159 ], [ -77.20104, 38.9119 ], [ -77.20134, 38.91165 ], [ -77.20096, 38.91153 ] ], [ [ -77.2126, 38.91674 ], [ -77.21232, 38.91645 ], [ -77.21226, 38.91692 ], [ -77.2126, 38.91674 ] ], [ [ -77.20613, 38.91566 ], [ -77.20604, 38.91554 ], [ -77.20601, 38.91557 ], [ -77.20613, 38.91566 ] ], [ [ -77.20553, 38.91286 ], [ -77.20549, 38.91288 ], [ -77.20637, 38.91394 ], [ -77.20553, 38.91286 ] ], [ [ -77.20713, 38.9125 ], [ -77.2068, 38.91241 ], [ -77.20699, 38.91252 ], [ -77.20713, 38.9125 ] ], [ [ -77.20738, 38.91072 ], [ -77.20812, 38.91054 ], [ -77.20735, 38.91071 ], [ -77.20657, 38.91032 ], [ -77.20497, 38.91163 ], [ -77.20738, 38.91072 ] ], [ [ -77.20552, 38.90868 ], [ -77.20395, 38.91021 ], [ -77.20453, 38.9104 ], [ -77.20589, 38.90915 ], [ -77.20552, 38.90868 ] ], [ [ -77.21232, 38.91318 ], [ -77.21233, 38.91317 ], [ -77.21229, 38.91317 ], [ -77.21232, 38.91318 ] ], [ [ -77.21357, 38.91079 ], [ -77.21374, 38.91078 ], [ -77.21407, 38.91023 ], [ -77.21357, 38.91079 ] ], [ [ -77.21482, 38.91468 ], [ -77.2141, 38.91442 ], [ -77.21485, 38.91529 ], [ -77.21482, 38.91468 ] ], [ [ -77.21336, 38.91555 ], [ -77.21325, 38.91562 ], [ -77.21368, 38.91606 ], [ -77.21336, 38.91555 ] ], [ [ -77.21126, 38.9125 ], [ -77.21065, 38.91294 ], [ -77.21156, 38.91276 ], [ -77.21126, 38.9125 ] ], [ [ -77.20946, 38.91212 ], [ -77.20916, 38.91254 ], [ -77.21017, 38.91182 ], [ -77.20961, 38.91172 ], [ -77.20946, 38.91212 ] ], [ [ -77.21096, 38.91088 ], [ -77.21111, 38.91093 ], [ -77.21094, 38.91076 ], [ -77.21096, 38.91088 ] ], [ [ -77.20782, 38.91208 ], [ -77.20822, 38.91163 ], [ -77.208, 38.91169 ], [ -77.20782, 38.91208 ] ], [ [ -77.20712, 38.91486 ], [ -77.20726, 38.91503 ], [ -77.20724, 38.91499 ], [ -77.2075, 38.91463 ], [ -77.20712, 38.91486 ] ], [ [ -77.2032, 38.91619 ], [ -77.20335, 38.91614 ], [ -77.20324, 38.91615 ], [ -77.2032, 38.91619 ] ], [ [ -77.20282, 38.9154 ], [ -77.20279, 38.91539 ], [ -77.20281, 38.91542 ], [ -77.20282, 38.9154 ] ], [ [ -77.20359, 38.91449 ], [ -77.2037, 38.91453 ], [ -77.20343, 38.91435 ], [ -77.20359, 38.91449 ] ], [ [ -77.20824, 38.91741 ], [ -77.20705, 38.91785 ], [ -77.20781, 38.91809 ], [ -77.20866, 38.91802 ], [ -77.20824, 38.91741 ] ], [ [ -77.20514, 38.91444 ], [ -77.20477, 38.9148 ], [ -77.20495, 38.91487 ], [ -77.20514, 38.91444 ] ], [ [ -77.20437, 38.91355 ], [ -77.20445, 38.9136 ], [ -77.20439, 38.91354 ], [ -77.20437, 38.91355 ] ], [ [ -77.20372, 38.9172 ], [ -77.20423, 38.91818 ], [ -77.20594, 38.91715 ], [ -77.20496, 38.91645 ], [ -77.20372, 38.9172 ] ], [ [ -77.20328, 38.92444 ], [ -77.20261, 38.92381 ], [ -77.20209, 38.92413 ], [ -77.20286, 38.9248 ], [ -77.20328, 38.92444 ] ], [ [ -77.19977, 38.92235 ], [ -77.19898, 38.92281 ], [ -77.19975, 38.92307 ], [ -77.19977, 38.92235 ] ], [ [ -77.19985, 38.91947 ], [ -77.19988, 38.91955 ], [ -77.19992, 38.9195 ], [ -77.19985, 38.91947 ] ], [ [ -77.19883, 38.91702 ], [ -77.19835, 38.91611 ], [ -77.19823, 38.91615 ], [ -77.19893, 38.91756 ], [ -77.19883, 38.91702 ] ], [ [ -77.20207, 38.92242 ], [ -77.20137, 38.92252 ], [ -77.20139, 38.92319 ], [ -77.20207, 38.92242 ] ], [ [ -77.20242, 38.92588 ], [ -77.20244, 38.92591 ], [ -77.20248, 38.9259 ], [ -77.20242, 38.92588 ] ], [ [ -77.20019, 38.91025 ], [ -77.20025, 38.91036 ], [ -77.20035, 38.9102 ], [ -77.20019, 38.91025 ] ], [ [ -77.19993, 38.91612 ], [ -77.19971, 38.91608 ], [ -77.20009, 38.91659 ], [ -77.19993, 38.91612 ] ], [ [ -77.19374, 38.91559 ], [ -77.19397, 38.91558 ], [ -77.19355, 38.91471 ], [ -77.19374, 38.91559 ] ], [ [ -77.1928, 38.92132 ], [ -77.19276, 38.92126 ], [ -77.19268, 38.92125 ], [ -77.1928, 38.92132 ] ], [ [ -77.19336, 38.92279 ], [ -77.19327, 38.92296 ], [ -77.19352, 38.92297 ], [ -77.19336, 38.92279 ] ], [ [ -77.1946, 38.92685 ], [ -77.19553, 38.92655 ], [ -77.19459, 38.92488 ], [ -77.19413, 38.9252 ], [ -77.1946, 38.92685 ] ] ] } },
{ "type": "Feature", "properties": { "variant": "T0", "miles": 1.5 }, "geometry": { "type": "Polygon", "coordinates": [ [ [ -77.21442, 38.90773 ], [ -77.21476, 38.90685 ], [ -77.21572, 38.90671 ], [ -77.21605, 38.90741 ], [ -77.21554, 38.90848 ], [ -77.22239, 38.91229 ], [ -77.22214, 38.91281 ], [ -77.22102, 38.91303 ], [ -77.21644, 38.9106 ], [ -77.21658, 38.91147 ], [ -77.21749, 38.91197 ], [ -77.21787, 38.91284 ], [ -77.21766, 38.91454 ], [ -77.21632, 38.91461 ], [ -77.21655, 38.91545 ], [ -77.2161, 38.91597 ], [ -77.21672, 38.91625 ], [ -77.21666, 38.91718 ], [ -77.21583, 38.91758 ], [ -77.21534, 38.91707 ], [ -77.21349, 38.9178 ], [ -77.21523, 38.91847 ], [ -77.21539, 38.92033 ], [ -77.21511, 38.92066 ], [ -77.21399, 38.92067 ], [ -77.21305, 38.91992 ], [ -77.21251, 38.92196 ], [ -77.21174, 38.92277 ], [ -77.21762, 38.92043 ], [ -77.21855, 38.92066 ], [ -77.2186, 38.92107 ], [ -77.21722, 38.92198 ], [ -77.21244, 38.92388 ], [ -77.21371, 38.92455 ], [ -77.21191, 38.9266 ], [ -77.21558, 38.92893 ], [ -77.21565, 38.92933 ], [ -77.2152, 38.92978 ], [ -77.21428, 38.92978 ], [ -77.21215, 38.9284 ], [ -77.21126, 38.92958 ], [ -77.2093, 38.9304 ], [ -77.20873, 38.92951 ], [ -77.20903, 38.92781 ], [ -77.20966, 38.92698 ], [ -77.20819, 38.92587 ], [ -77.20026, 38.93172 ], [ -77.20101, 38.93222 ], [ -77.20174, 38.93161 ], [ -77.20298, 38.93152 ], [ -77.2032, 38.93226 ], [ -77.20213, 38.93285 ], [ -77.2037, 38.93378 ], [ -77.20317, 38.93453 ], [ -77.20071, 38.93425 ], [ -77.19972, 38.93301 ], [ -77.19902, 38.93384 ], [ -77.19958, 38.93465 ], [ -77.19724, 38.93498 ], [ -77.19704, 38.93423 ], [ -77.19852, 38.93247 ], [ -77.19387, 38.93387 ], [ -77.19279, 38.93303 ], [ -77.19322, 38.93187 ], [ -77.19158, 38.9314 ], [ -77.1913, 38.93032 ], [ -77.1886, 38.93021 ], [ -77.18796, 38.92963 ], [ -77.1887, 38.92913 ], [ -77.19143, 38.92924 ], [ -77.19383, 38.92897 ], [ -77.19371, 38.92859 ], [ -77.19324, 38.92899 ], [ -77.19272, 38.92892 ], [ -77.19206, 38.92734 ], [ -77.19137, 38.92695 ], [ -77.19208, 38.92527 ], [ -77.1907, 38.92504 ], [ -77.19024, 38.92585 ], [ -77.18971, 38.92579 ], [ -77.18931, 38.92507 ], [ -77.18771, 38.92533 ], [ -77.18929, 38.9258 ], [ -77.18941, 38.92621 ], [ -77.18827, 38.92688 ], [ -77.18845, 38.92774 ], [ -77.18762, 38.92816 ], [ -77.1874, 38.92898 ], [ -77.18642, 38.92897 ], [ -77.18588, 38.92755 ], [ -77.18631, 38.92674 ], [ -77.18637, 38.92369 ], [ -77.18569, 38.92315 ], [ -77.18569, 38.92233 ], [ -77.18671, 38.92124 ], [ -77.18501, 38.92106 ], [ -77.18403, 38.92142 ], [ -77.1829, 38.91888 ], [ -77.18356, 38.91811 ], [ -77.1869, 38.91799 ], [ -77.18654, 38.91725 ], [ -77.18448, 38.9175 ], [ -77.18421, 38.91715 ], [ -77.18485, 38.91653 ], [ -77.18477, 38.9159 ], [ -77.18568, 38.91563 ], [ -77.18617, 38.9162 ], [ -77.18706, 38.91602 ], [ -77.18766, 38.9165 ], [ -77.18894, 38.91582 ], [ -77.18772, 38.91415 ], [ -77.18777, 38.91374 ], [ -77.18871, 38.91351 ], [ -77.19106, 38.91629 ], [ -77.19526, 38.92337 ], [ -77.19613, 38.92288 ], [ -77.19428, 38.91854 ], [ -77.19189, 38.916 ], [ -77.19191, 38.91519 ], [ -77.19038, 38.9143 ], [ -77.18973, 38.91337 ], [ -77.19051, 38.91291 ], [ -77.1912, 38.91329 ], [ -77.19298, 38.91229 ], [ -77.1929, 38.91109 ], [ -77.1961, 38.90839 ], [ -77.1955, 38.9082 ], [ -77.19566, 38.90744 ], [ -77.19715, 38.90739 ], [ -77.19815, 38.90644 ], [ -77.19826, 38.90325 ], [ -77.20327, 38.90216 ], [ -77.20598, 38.90408 ], [ -77.20747, 38.90586 ], [ -77.20961, 38.90655 ], [ -77.20964, 38.90496 ], [ -77.2103, 38.9048 ], [ -77.21064, 38.90385 ], [ -77.21115, 38.90375 ], [ -77.21173, 38.90437 ], [ -77.21094, 38.90686 ], [ -77.2124, 38.9072 ], [ -77.21354, 38.90639 ], [ -77.21424, 38.90693 ], [ -77.21401, 38.90732 ], [ -77.21442, 38.90773 ] ], [ [ -77.20479, 38.92673 ], [ -77.2045, 38.92653 ], [ -77.20002, 38.92777 ], [ -77.20144, 38.9284 ], [ -77.20188, 38.92913 ], [ -77.20479, 38.92673 ] ], [ [ -77.20328, 38.92444 ], [ -77.20261, 38.92381 ], [ -77.20209, 38.92413 ], [ -77.20286, 38.9248 ], [ -77.20328, 38.92444 ] ], [ [ -77.20482, 38.92371 ], [ -77.20553, 38.92332 ], [ -77.20524, 38.92265 ], [ -77.20554, 38.92231 ], [ -77.20607, 38.92224 ], [ -77.207, 38.92303 ], [ -77.20942, 38.92208 ], [ -77.21064, 38.92209 ], [ -77.21122, 38.92154 ], [ -77.21178, 38.91846 ], [ -77.21066, 38.91819 ], [ -77.20967, 38.91935 ], [ -77.20899, 38.91953 ], [ -77.20588, 38.91855 ], [ -77.20392, 38.91971 ], [ -77.20446, 38.91961 ], [ -77.20502, 38.92023 ], [ -77.20316, 38.92175 ], [ -77.20415, 38.92352 ], [ -77.20482, 38.92371 ] ], [ [ -77.19993, 38.91949 ], [ -77.19985, 38.91947 ], [ -77.19988, 38.91955 ], [ -77.19993, 38.91949 ] ], [ [ -77.19993, 38.91612 ], [ -77.19971, 38.91608 ], [ -77.20009, 38.91659 ], [ -77.19993, 38.91612 ] ], [ [ -77.20096, 38.91153 ], [ -77.20088, 38.91159 ], [ -77.20104, 38.9119 ], [ -77.20134, 38.91165 ], [ -77.20096, 38.91153 ] ], [ [ -77.20035, 38.9102 ], [ -77.20013, 38.91012 ], [ -77.20025, 38.91036 ], [ -77.20035, 38.9102 ] ], [ [ -77.1998, 38.90855 ], [ -77.1995, 38.90868 ], [ -77.19987, 38.90882 ], [ -77.1998, 38.90855 ] ], [ [ -77.20115, 38.90693 ], [ -77.20099, 38.90696 ], [ -77.20109, 38.90718 ], [ -77.20115, 38.90693 ] ], [ [ -77.20066, 38.90591 ], [ -77.20103, 38.90581 ], [ -77.19945, 38.90543 ], [ -77.19953, 38.90587 ], [ -77.20066, 38.90591 ] ], [ [ -77.20213, 38.9049 ], [ -77.20195, 38.90477 ], [ -77.20193, 38.90511 ], [ -77.20213, 38.9049 ] ], [ [ -77.20945, 38.92511 ], [ -77.20964, 38.92531 ], [ -77.20995, 38.92494 ], [ -77.20945, 38.92511 ] ], [ [ -77.20957, 38.92323 ], [ -77.20808, 38.92383 ], [ -77.20838, 38.92414 ], [ -77.20957, 38.92323 ] ], [ [ -77.21117, 38.91273 ], [ -77.21156, 38.91276 ], [ -77.21126, 38.9125 ], [ -77.21082, 38.91284 ], [ -77.21117, 38.91273 ] ], [ [ -77.20961, 38.91172 ], [ -77.20916, 38.91254 ], [ -77.21017, 38.91182 ], [ -77.20961, 38.91172 ] ], [ [ -77.21039, 38.90978 ], [ -77.21055, 38.90925 ], [ -77.20941, 38.90894 ], [ -77.20907, 38.90969 ], [ -77.20931, 38.90999 ], [ -77.2097, 38.90963 ], [ -77.21039, 38.90978 ] ], [ [ -77.20938, 38.90775 ], [ -77.20615, 38.90654 ], [ -77.20688, 38.90726 ], [ -77.20756, 38.90931 ], [ -77.20906, 38.90841 ], [ -77.20938, 38.90775 ] ], [ [ -77.21336, 38.91555 ], [ -77.21325, 38.91562 ], [ -77.21368, 38.91606 ], [ -77.21336, 38.91555 ] ], [ [ -77.21232, 38.91318 ], [ -77.21233, 38.91317 ], [ -77.21229, 38.91317 ], [ -77.21232, 38.91318 ] ], [ [ -77.21371, 38.91063 ], [ -77.21357, 38.91079 ], [ -77.21374, 38.91078 ], [ -77.21407, 38.91023 ], [ -77.21371, 38.91063 ] ], [ [ -77.21286, 38.90874 ], [ -77.213, 38.90953 ], [ -77.21348, 38.90899 ], [ -77.21286, 38.90874 ] ], [ [ -77.21633, 38.91257 ], [ -77.21548, 38.91214 ], [ -77.21516, 38.91149 ], [ -77.21506, 38.91237 ], [ -77.21633, 38.91257 ] ], [ [ -77.21482, 38.91468 ], [ -77.2141, 38.91442 ], [ -77.21485, 38.91529 ], [ -77.21482, 38.91468 ] ], [ [ -77.21096, 38.91088 ], [ -77.21111, 38.91093 ], [ -77.21094, 38.91076 ], [ -77.21096, 38.91088 ] ], [ [ -77.21232, 38.91645 ], [ -77.21226, 38.91692 ], [ -77.2126, 38.91674 ], [ -77.21232, 38.91645 ] ], [ [ -77.21062, 38.92832 ], [ -77.21039, 38.92871 ], [ -77.21077, 38.92814 ], [ -77.21062, 38.92832 ] ], [ [ -77.21109, 38.92568 ], [ -77.21104, 38.92561 ], [ -77.21075, 38.92596 ], [ -77.21109, 38.92568 ] ], [ [ -77.20598, 38.90643 ], [ -77.20604, 38.90646 ], [ -77.20597, 38.9064 ], [ -77.20598, 38.90643 ] ], [ [ -77.20506, 38.91636 ], [ -77.20372, 38.9172 ], [ -77.20423, 38.91818 ], [ -77.20594, 38.91715 ], [ -77.20506, 38.91636 ] ], [ [ -77.20528, 38.91461 ], [ -77.20514, 38.91444 ], [ -77.20477, 38.9148 ], [ -77.20528, 38.91461 ] ], [ [ -77.20553, 38.91286 ], [ -77.20549, 38.91288 ], [ -77.20637, 38.91394 ], [ -77.20553, 38.91286 ] ], [ [ -77.20578, 38.91148 ], [ -77.20549, 38.91119 ], [ -77.20497, 38.91163 ], [ -77.20578, 38.91148 ] ], [ [ -77.20414, 38.90989 ], [ -77.20395, 38.91021 ], [ -77.20465, 38.91029 ], [ -77.20414, 38.90989 ] ], [ [ -77.20355, 38.904 ], [ -77.20256, 38.9035 ], [ -77.20312, 38.90413 ], [ -77.20373, 38.90418 ], [ -77.20355, 38.904 ] ], [ [ -77.20613, 38.91566 ], [ -77.20604, 38.91554 ], [ -77.20601, 38.91557 ], [ -77.20613, 38.91566 ] ], [ [ -77.20782, 38.91208 ], [ -77.20822, 38.91163 ], [ -77.208, 38.91169 ], [ -77.20782, 38.91208 ] ], [ [ -77.20803, 38.91043 ], [ -77.2078, 38.9106 ], [ -77.20796, 38.91056 ], [ -77.20803, 38.91043 ] ], [ [ -77.20713, 38.9125 ], [ -77.2068, 38.91241 ], [ -77.20696, 38.9126 ], [ -77.20713, 38.9125 ] ], [ [ -77.20726, 38.91503 ], [ -77.20753, 38.91462 ], [ -77.20752, 38.91462 ], [ -77.20726, 38.91503 ] ], [ [ -77.20866, 38.91802 ], [ -77.20862, 38.91759 ], [ -77.20824, 38.91741 ], [ -77.20726, 38.91796 ], [ -77.20866, 38.91802 ] ], [ [ -77.20316, 38.90683 ], [ -77.20327, 38.90692 ], [ -77.20455, 38.90578 ], [ -77.20431, 38.90559 ], [ -77.20316, 38.90683 ] ], [ [ -77.2032, 38.91619 ], [ -77.20335, 38.91614 ], [ -77.20315, 38.9161 ], [ -77.2032, 38.91619 ] ], [ [ -77.20279, 38.91539 ], [ -77.20281, 38.91542 ], [ -77.20282, 38.9154 ], [ -77.20279, 38.91539 ] ], [ [ -77.20359, 38.91449 ], [ -77.2037, 38.91453 ], [ -77.20343, 38.91435 ], [ -77.20359, 38.91449 ] ], [ [ -77.20437, 38.91355 ], [ -77.20445, 38.9136 ], [ -77.20439, 38.91354 ], [ -77.20437, 38.91355 ] ], [ [ -77.20223, 38.91923 ], [ -77.20177, 38.91957 ], [ -77.20226, 38.91929 ], [ -77.20223, 38.91923 ] ], [ [ -77.19624, 38.92989 ], [ -77.19715, 38.93162 ], [ -77.19765, 38.9304 ], [ -77.1973, 38.92976 ], [ -77.19624, 38.92989 ] ], [ [ -77.19883, 38.91702 ], [ -77.19835, 38.91611 ], [ -77.19823, 38.91615 ], [ -77.19893, 38.91755 ], [ -77.19883, 38.91702 ] ], [ [ -77.19957, 38.90724 ], [ -77.19943, 38.90695 ], [ -77.19874, 38.90758 ], [ -77.19957, 38.90724 ] ], [ [ -77.20207, 38.92242 ], [ -77.20137, 38.92252 ], [ -77.20139, 38.92319 ], [ -77.20207, 38.92242 ] ], [ [ -77.20248, 38.9259 ], [ -77.20242, 38.92588 ], [ -77.20244, 38.92591 ], [ -77.20248, 38.9259 ] ], [ [ -77.19999, 38.9044 ], [ -77.2002, 38.90452 ], [ -77.19998, 38.90405 ], [ -77.19999, 38.9044 ] ], [ [ -77.19977, 38.92235 ], [ -77.19898, 38.92281 ], [ -77.19979, 38.92329 ], [ -77.19977, 38.92235 ] ], [ [ -77.1995, 38.92677 ], [ -77.19734, 38.92354 ], [ -77.19673, 38.92388 ], [ -77.19862, 38.92731 ], [ -77.1995, 38.92677 ] ], [ [ -77.19405, 38.93012 ], [ -77.19324, 38.93019 ], [ -77.19328, 38.93078 ], [ -77.1941, 38.93064 ], [ -77.19405, 38.93012 ] ], [ [ -77.19257, 38.92527 ], [ -77.19274, 38.92534 ], [ -77.19271, 38.92525 ], [ -77.19257, 38.92527 ] ], [ [ -77.19225, 38.92419 ], [ -77.1921, 38.92388 ], [ -77.19181, 38.92415 ], [ -77.19225, 38.92419 ] ], [ [ -77.19336, 38.92279 ], [ -77.19327, 38.92296 ], [ -77.19352, 38.92297 ], [ -77.19336, 38.92279 ] ], [ [ -77.19276, 38.92126 ], [ -77.19268, 38.92125 ], [ -77.1928, 38.92132 ], [ -77.19276, 38.92126 ] ], [ [ -77.19517, 38.92871 ], [ -77.19523, 38.92891 ], [ -77.19536, 38.92889 ], [ -77.19517, 38.92871 ] ], [ [ -77.19405, 38.92499 ], [ -77.1946, 38.92685 ], [ -77.19553, 38.92655 ], [ -77.19462, 38.92495 ], [ -77.19405, 38.92499 ] ], [ [ -77.18945, 38.9213 ], [ -77.19001, 38.92099 ], [ -77.18891, 38.92037 ], [ -77.18945, 38.9213 ] ], [ [ -77.18781, 38.92115 ], [ -77.18775, 38.92116 ], [ -77.18786, 38.92125 ], [ -77.18781, 38.92115 ] ], [ [ -77.18969, 38.91679 ], [ -77.18979, 38.91674 ], [ -77.18975, 38.91669 ], [ -77.18969, 38.91679 ] ], [ [ -77.19155, 38.91942 ], [ -77.19139, 38.91918 ], [ -77.19125, 38.91924 ], [ -77.19155, 38.91942 ] ], [ [ -77.19047, 38.91863 ], [ -77.19037, 38.9187 ], [ -77.19045, 38.91875 ], [ -77.19047, 38.91863 ] ], [ [ -77.18955, 38.91782 ], [ -77.18957, 38.91781 ], [ -77.18953, 38.91779 ], [ -77.18955, 38.91782 ] ], [ [ -77.1873, 38.92011 ], [ -77.18543, 38.92002 ], [ -77.18641, 38.92016 ], [ -77.1873, 38.92011 ] ], [ [ -77.18776, 38.92356 ], [ -77.18774, 38.92424 ], [ -77.18781, 38.92393 ], [ -77.18776, 38.92356 ] ], [ [ -77.19089, 38.92266 ], [ -77.19079, 38.9226 ], [ -77.19081, 38.92273 ], [ -77.19089, 38.92266 ] ], [ [ -77.18775, 38.92344 ], [ -77.18836, 38.92286 ], [ -77.18887, 38.92298 ], [ -77.18949, 38.92385 ], [ -77.18942, 38.92265 ], [ -77.18707, 38.92257 ], [ -77.18775, 38.92344 ] ], [ [ -77.19092, 38.92394 ], [ -77.1909, 38.92397 ], [ -77.19097, 38.92397 ], [ -77.19092, 38.92394 ] ], [ [ -77.19381, 38.91558 ], [ -77.19397, 38.91558 ], [ -77.19382, 38.91526 ], [ -77.19381, 38.91558 ] ], [ [ -77.19302, 38.91345 ], [ -77.19291, 38.91348 ], [ -77.19299, 38.91347 ], [ -77.19302, 38.91345 ] ] ] } },
{ "type": "Feature", "properties": { "variant": "T2s", "miles": 0.5 }, "geometry": { "type": "Polygon", "coordinates": [ [ [ -77.20915, 38.91404 ], [ -77.21056, 38.91546 ], [ -77.21022, 38.91588 ], [ -77.21092, 38.91625 ], [ -77.21097, 38.91695 ], [ -77.21002, 38.91745 ], [ -77.21019, 38.91811 ], [ -77.20967, 38.91935 ], [ -77.20899, 38.91953 ], [ -77.20588, 38.91855 ], [ -77.20392, 38.91971 ], [ -77.20446, 38.91961 ], [ -77.20502, 38.92023 ], [ -77.20316, 38.92175 ], [ -77.20369, 38.92239 ], [ -77.20355, 38.92304 ], [ -77.20268, 38.92356 ], [ -77.20196, 38.92303 ], [ -77.20207, 38.92242 ], [ -77.20137, 38.92252 ], [ -77.20143, 38.92387 ], [ -77.20066, 38.92466 ], [ -77.19983, 38.92467 ], [ -77.19696, 38.92308 ], [ -77.19713, 38.92232 ], [ -77.20005, 38.9206 ], [ -77.19993, 38.91949 ], [ -77.19929, 38.91913 ], [ -77.19895, 38.91809 ], [ -77.20011, 38.91738 ], [ -77.20017, 38.91653 ], [ -77.19993, 38.91612 ], [ -77.19845, 38.91574 ], [ -77.19829, 38.91534 ], [ -77.19854, 38.91498 ], [ -77.19964, 38.91495 ], [ -77.19985, 38.91427 ], [ -77.20077, 38.914 ], [ -77.20113, 38.91431 ], [ -77.20093, 38.91537 ], [ -77.20176, 38.91629 ], [ -77.20096, 38.91344 ], [ -77.20144, 38.91326 ], [ -77.20233, 38.91368 ], [ -77.20335, 38.91306 ], [ -77.20385, 38.91321 ], [ -77.20407, 38.91358 ], [ -77.20337, 38.9144 ], [ -77.20495, 38.91487 ], [ -77.20629, 38.9142 ], [ -77.20726, 38.91503 ], [ -77.2075, 38.91463 ], [ -77.20845, 38.91471 ], [ -77.20864, 38.91415 ], [ -77.20915, 38.91404 ] ], [ [ -77.20226, 38.91929 ], [ -77.20223, 38.91923 ], [ -77.20177, 38.91957 ], [ -77.20226, 38.91929 ] ], [ [ -77.20434, 38.91811 ], [ -77.20594, 38.91715 ], [ -77.20506, 38.91636 ], [ -77.20372, 38.9172 ], [ -77.20434, 38.91811 ] ], [ [ -77.20324, 38.91615 ], [ -77.20315, 38.9161 ], [ -77.20335, 38.91614 ], [ -77.20324, 38.91615 ] ], [ [ -77.20604, 38.91554 ], [ -77.20601, 38.91557 ], [ -77.20613, 38.91566 ], [ -77.20604, 38.91554 ] ], [ [ -77.20862, 38.91781 ], [ -77.20824, 38.91741 ], [ -77.20705, 38.91785 ], [ -77.20768, 38.9181 ], [ -77.20862, 38.91781 ] ], [ [ -77.20281, 38.91542 ], [ -77.20282, 38.9154 ], [ -77.20279, 38.91539 ], [ -77.20281, 38.91542 ] ], [ [ -77.19979, 38.92329 ], [ -77.19977, 38.92235 ], [ -77.19898, 38.92281 ], [ -77.19979, 38.92329 ] ] ] } },
{ "type": "Feature", "properties": { "variant": "T2s", "miles": 1.0 }, "geometry": { "type": "Polygon", "coordinates": [ [ [ -77.21626, 38.90967 ], [ -77.21498, 38.91178 ], [ -77.21506, 38.91237 ], [ -77.21557, 38.91266 ], [ -77.21544, 38.91329 ], [ -77.21656, 38.91342 ], [ -77.21678, 38.91379 ], [ -77.21618, 38.91433 ], [ -77.21656, 38.91523 ], [ -77.2161, 38.91597 ], [ -77.21672, 38.91625 ], [ -77.21666, 38.91718 ], [ -77.21583, 38.91758 ], [ -77.21534, 38.91707 ], [ -77.21349, 38.9178 ], [ -77.21532, 38.9186 ], [ -77.2155, 38.91995 ], [ -77.21511, 38.92066 ], [ -77.21399, 38.92067 ], [ -77.21305, 38.91992 ], [ -77.21238, 38.92219 ], [ -77.21074, 38.92329 ], [ -77.21005, 38.92275 ], [ -77.2112, 38.9216 ], [ -77.21178, 38.91846 ], [ -77.21066, 38.91819 ], [ -77.20967, 38.91935 ], [ -77.20899, 38.91953 ], [ -77.20588, 38.91855 ], [ -77.20392, 38.91971 ], [ -77.20446, 38.91961 ], [ -77.20502, 38.92023 ], [ -77.20316, 38.92175 ], [ -77.20408, 38.92352 ], [ -77.20482, 38.92371 ], [ -77.20539, 38.92333 ], [ -77.20699, 38.92316 ], [ -77.20815, 38.92409 ], [ -77.20826, 38.92465 ], [ -77.20695, 38.92537 ], [ -77.20716, 38.92629 ], [ -77.20383, 38.92883 ], [ -77.2032, 38.92825 ], [ -77.20479, 38.92673 ], [ -77.2045, 38.92653 ], [ -77.20002, 38.92758 ], [ -77.19963, 38.92688 ], [ -77.20096, 38.92597 ], [ -77.20085, 38.92537 ], [ -77.2013, 38.92508 ], [ -77.20079, 38.9246 ], [ -77.20001, 38.92472 ], [ -77.19928, 38.92434 ], [ -77.19992, 38.92592 ], [ -77.19902, 38.92622 ], [ -77.19734, 38.92354 ], [ -77.19673, 38.92388 ], [ -77.19709, 38.92499 ], [ -77.19632, 38.92527 ], [ -77.19764, 38.92814 ], [ -77.19672, 38.92841 ], [ -77.19348, 38.92291 ], [ -77.1903, 38.92097 ], [ -77.19091, 38.92037 ], [ -77.19193, 38.92079 ], [ -77.19192, 38.91964 ], [ -77.19279, 38.91929 ], [ -77.19431, 38.92126 ], [ -77.19431, 38.922 ], [ -77.19526, 38.92337 ], [ -77.19613, 38.92288 ], [ -77.19428, 38.91854 ], [ -77.19232, 38.91601 ], [ -77.19204, 38.91421 ], [ -77.19349, 38.91328 ], [ -77.19274, 38.91178 ], [ -77.19296, 38.91103 ], [ -77.19728, 38.90727 ], [ -77.19824, 38.9072 ], [ -77.19886, 38.90772 ], [ -77.20051, 38.90674 ], [ -77.20096, 38.90695 ], [ -77.20101, 38.90758 ], [ -77.1995, 38.90868 ], [ -77.20113, 38.90929 ], [ -77.20099, 38.90847 ], [ -77.20147, 38.90829 ], [ -77.20329, 38.90901 ], [ -77.2051, 38.90763 ], [ -77.20581, 38.90813 ], [ -77.2066, 38.90769 ], [ -77.2071, 38.90782 ], [ -77.20756, 38.90931 ], [ -77.20853, 38.90855 ], [ -77.20906, 38.90857 ], [ -77.20942, 38.90888 ], [ -77.20907, 38.90969 ], [ -77.20931, 38.90999 ], [ -77.2097, 38.90963 ], [ -77.21039, 38.90978 ], [ -77.21082, 38.90908 ], [ -77.21135, 38.90911 ], [ -77.21226, 38.91031 ], [ -77.21393, 38.90866 ], [ -77.21492, 38.90874 ], [ -77.21626, 38.90967 ] ], [ [ -77.20223, 38.91923 ], [ -77.20177, 38.91957 ], [ -77.20226, 38.91929 ], [ -77.20223, 38.91923 ] ], [ [ -77.20324, 38.91615 ], [ -77.20315, 38.9161 ], [ -77.2032, 38.91619 ], [ -77.20324, 38.91615 ] ], [ [ -77.20279, 38.91539 ], [ -77.20281, 38.91542 ], [ -77.20282, 38.9154 ], [ -77.20279, 38.91539 ] ], [ [ -77.2126, 38.91674 ], [ -77.21232, 38.91645 ], [ -77.21226, 38.91692 ], [ -77.2126, 38.91674 ] ], [ [ -77.20726, 38.91503 ], [ -77.20753, 38.91462 ], [ -77.20752, 38.91462 ], [ -77.20726, 38.91503 ] ], [ [ -77.20553, 38.91286 ], [ -77.20549, 38.91288 ], [ -77.20637, 38.91394 ], [ -77.20553, 38.91286 ] ], [ [ -77.20738, 38.91072 ], [ -77.20812, 38.91054 ], [ -77.20735, 38.91071 ], [ -77.20657, 38.91032 ], [ -77.20497, 38.91163 ], [ -77.20738, 38.91072 ] ], [ [ -77.20552, 38.90868 ], [ -77.20395, 38.91021 ], [ -77.20453, 38.9104 ], [ -77.20589, 38.90915 ], [ -77.20552, 38.90868 ] ], [ [ -77.21232, 38.91318 ], [ -77.21233, 38.91317 ], [ -77.21229, 38.91317 ], [ -77.21232, 38.91318 ] ], [ [ -77.21126, 38.9125 ], [ -77.21065, 38.91294 ], [ -77.21156, 38.91276 ], [ -77.21126, 38.9125 ] ], [ [ -77.21357, 38.91079 ], [ -77.21374, 38.91078 ], [ -77.21407, 38.91023 ], [ -77.21357, 38.91079 ] ], [ [ -77.21482, 38.91468 ], [ -77.2141, 38.91442 ], [ -77.21485, 38.91529 ], [ -77.21482, 38.91468 ] ], [ [ -77.21336, 38.91555 ], [ -77.21325, 38.91562 ], [ -77.21368, 38.91606 ], [ -77.21336, 38.91555 ] ], [ [ -77.20937, 38.91227 ], [ -77.20916, 38.91254 ], [ -77.21017, 38.91182 ], [ -77.20961, 38.91172 ], [ -77.20937, 38.91227 ] ], [ [ -77.20782, 38.91208 ], [ -77.20822, 38.91163 ], [ -77.208, 38.91169 ], [ -77.20782, 38.91208 ] ], [ [ -77.21096, 38.91088 ], [ -77.21111, 38.91093 ], [ -77.21094, 38.91076 ], [ -77.21096, 38.91088 ] ], [ [ -77.20713, 38.9125 ], [ -77.2068, 38.91241 ], [ -77.20696, 38.9126 ], [ -77.20713, 38.9125 ] ], [ [ -77.20506, 38.91636 ], [ -77.20372, 38.9172 ], [ -77.20423, 38.91818 ], [ -77.20594, 38.91715 ], [ -77.20506, 38.91636 ] ], [ [ -77.20613, 38.91566 ], [ -77.20604, 38.91554 ], [ -77.20601, 38.91557 ], [ -77.20613, 38.91566 ] ], [ [ -77.20824, 38.91741 ], [ -77.20705, 38.91785 ], [ -77.20768, 38.9181 ], [ -77.20862, 38.91781 ], [ -77.20824, 38.91741 ] ], [ [ -77.20437, 38.91355 ], [ -77.20445, 38.9136 ], [ -77.20439, 38.91354 ], [ -77.20437, 38.91355 ] ], [ [ -77.20528, 38.91461 ], [ -77.20514, 38.91444 ], [ -77.20477, 38.9148 ], [ -77.20528, 38.91461 ] ], [ [ -77.20343, 38.91435 ], [ -77.20337, 38.9144 ], [ -77.20352, 38.91446 ], [ -77.20343, 38.91435 ] ], [ [ -77.20242, 38.92588 ], [ -77.20244, 38.92591 ], [ -77.20248, 38.9259 ], [ -77.20242, 38.92588 ] ], [ [ -77.20328, 38.92444 ], [ -77.20261, 38.92381 ], [ -77.20209, 38.92413 ], [ -77.20286, 38.9248 ], [ -77.20328, 38.92444 ] ], [ [ -77.20137, 38.92252 ], [ -77.20139, 38.92319 ], [ -77.20187, 38.92288 ], [ -77.20215, 38.92265 ], [ -77.20137, 38.92252 ] ], [ [ -77.19985, 38.91947 ], [ -77.19988, 38.91955 ], [ -77.19992, 38.9195 ], [ -77.19985, 38.91947 ] ], [ [ -77.19971, 38.91608 ], [ -77.20009, 38.91659 ], [ -77.20017, 38.91653 ], [ -77.19971, 38.91608 ] ], [ [ -77.20088, 38.91159 ], [ -77.20104, 38.9119 ], [ -77.20134, 38.91165 ], [ -77.20088, 38.91159 ] ], [ [ -77.20013, 38.91012 ], [ -77.20025, 38.91036 ], [ -77.20035, 38.9102 ], [ -77.20013, 38.91012 ] ], [ [ -77.19977, 38.92235 ], [ -77.19898, 38.92281 ], [ -77.19979, 38.92329 ], [ -77.19977, 38.92235 ] ], [ [ -77.19883, 38.91702 ], [ -77.19835, 38.91611 ], [ -77.19823, 38.91615 ], [ -77.19893, 38.91754 ], [ -77.19883, 38.91702 ] ], [ [ -77.19374, 38.91559 ], [ -77.19397, 38.91558 ], [ -77.19355, 38.91471 ], [ -77.19374, 38.91559 ] ], [ [ -77.19268, 38.92125 ], [ -77.1928, 38.92132 ], [ -77.19276, 38.92126 ], [ -77.19268, 38.92125 ] ] ] } },
{ "type": "Feature", "properties": { "variant": "T2s", "miles": 1.5 }, "geometry": { "type": "Polygon", "coordinates": [ [ [ -77.21442, 38.90773 ], [ -77.21476, 38.90685 ], [ -77.21572, 38.90671 ], [ -77.21605, 38.90741 ], [ -77.21554, 38.90848 ], [ -77.22202, 38.91205 ], [ -77.22214, 38.91281 ], [ -77.22102, 38.91303 ], [ -77.21644, 38.9106 ], [ -77.21658, 38.91147 ], [ -77.21749, 38.91197 ], [ -77.21787, 38.91284 ], [ -77.21766, 38.91454 ], [ -77.21632, 38.91461 ], [ -77.21655, 38.91545 ], [ -77.2161, 38.91597 ], [ -77.21672, 38.91625 ], [ -77.21666, 38.91718 ], [ -77.21583, 38.91758 ], [ -77.21534, 38.91707 ], [ -77.21349, 38.9178 ], [ -77.21523, 38.91847 ], [ -77.21539, 38.92033 ], [ -77.21511, 38.92066 ], [ -77.21399, 38.92067 ], [ -77.21305, 38.91992 ], [ -77.21251, 38.92196 ], [ -77.21174, 38.92277 ], [ -77.21271, 38.92258 ], [ -77.21312, 38.92327 ], [ -77.20763, 38.92595 ], [ -77.20283, 38.93011 ], [ -77.20026, 38.93172 ], [ -77.20101, 38.93222 ], [ -77.20174, 38.93161 ], [ -77.20298, 38.93152 ], [ -77.2032, 38.93226 ], [ -77.20213, 38.93285 ], [ -77.20344, 38.93349 ], [ -77.20359, 38.93425 ], [ -77.20314, 38.93446 ], [ -77.20211, 38.93409 ], [ -77.20114, 38.93444 ], [ -77.20026, 38.934 ], [ -77.19972, 38.93301 ], [ -77.19819, 38.93483 ], [ -77.19724, 38.93498 ], [ -77.19704, 38.93423 ], [ -77.19852, 38.93247 ], [ -77.19533, 38.93345 ], [ -77.19484, 38.93225 ], [ -77.19399, 38.93339 ], [ -77.19301, 38.93341 ], [ -77.19278, 38.93282 ], [ -77.19322, 38.93187 ], [ -77.19158, 38.9314 ], [ -77.1913, 38.93032 ], [ -77.19042, 38.93015 ], [ -77.19022, 38.92977 ], [ -77.19043, 38.92939 ], [ -77.192, 38.92899 ], [ -77.19383, 38.92897 ], [ -77.19375, 38.9273 ], [ -77.19553, 38.92655 ], [ -77.19459, 38.92488 ], [ -77.19333, 38.92512 ], [ -77.19249, 38.92473 ], [ -77.193, 38.92407 ], [ -77.19404, 38.92388 ], [ -77.19338, 38.92281 ], [ -77.18757, 38.9193 ], [ -77.18624, 38.91644 ], [ -77.18706, 38.91602 ], [ -77.18766, 38.9165 ], [ -77.18894, 38.91582 ], [ -77.18777, 38.91374 ], [ -77.18871, 38.91351 ], [ -77.191, 38.91621 ], [ -77.19526, 38.92337 ], [ -77.19613, 38.92288 ], [ -77.19428, 38.91854 ], [ -77.19189, 38.916 ], [ -77.19191, 38.91519 ], [ -77.19038, 38.9143 ], [ -77.18973, 38.91337 ], [ -77.19051, 38.91291 ], [ -77.1912, 38.91329 ], [ -77.19298, 38.91229 ], [ -77.1929, 38.91109 ], [ -77.1961, 38.90839 ], [ -77.1955, 38.9082 ], [ -77.19566, 38.90744 ], [ -77.19715, 38.90739 ], [ -77.19815, 38.90644 ], [ -77.19826, 38.90325 ], [ -77.20258, 38.90225 ], [ -77.20468, 38.90298 ], [ -77.20782, 38.90619 ], [ -77.20957, 38.90666 ], [ -77.20991, 38.90581 ], [ -77.20944, 38.90535 ], [ -77.20964, 38.90496 ], [ -77.21092, 38.90489 ], [ -77.21146, 38.90552 ], [ -77.21094, 38.90686 ], [ -77.2124, 38.9072 ], [ -77.21354, 38.90639 ], [ -77.21403, 38.90655 ], [ -77.21442, 38.90773 ] ], [ [ -77.20479, 38.92673 ], [ -77.20456, 38.92656 ], [ -77.20002, 38.92777 ], [ -77.20144, 38.9284 ], [ -77.20188, 38.92913 ], [ -77.20479, 38.92673 ] ], [ [ -77.20242, 38.92588 ], [ -77.20244, 38.92591 ], [ -77.20248, 38.9259 ], [ -77.20242, 38.92588 ] ], [ [ -77.20328, 38.92444 ], [ -77.20261, 38.92381 ], [ -77.20209, 38.92413 ], [ -77.20288, 38.9248 ], [ -77.20328, 38.92444 ] ], [ [ -77.20137, 38.92252 ], [ -77.20139, 38.92319 ], [ -77.20187, 38.92288 ], [ -77.20215, 38.92265 ], [ -77.20137, 38.92252 ] ], [ [ -77.20223, 38.91923 ], [ -77.20177, 38.91957 ], [ -77.20226, 38.91929 ], [ -77.20223, 38.91923 ] ], [ [ -77.20099, 38.90696 ], [ -77.20109, 38.90718 ], [ -77.20125, 38.90704 ], [ -77.20099, 38.90696 ] ], [ [ -77.20213, 38.9049 ], [ -77.20195, 38.90477 ], [ -77.20193, 38.90511 ], [ -77.20213, 38.9049 ] ], [ [ -77.20956, 38.92363 ], [ -77.20957, 38.92323 ], [ -77.20808, 38.92383 ], [ -77.20844, 38.9241 ], [ -77.20956, 38.92363 ] ], [ [ -77.21112, 38.92174 ], [ -77.21178, 38.91846 ], [ -77.21066, 38.91819 ], [ -77.20967, 38.91935 ], [ -77.20899, 38.91953 ], [ -77.20588, 38.91855 ], [ -77.20392, 38.91971 ], [ -77.20446, 38.91961 ], [ -77.20502, 38.92023 ], [ -77.20316, 38.92175 ], [ -77.20408, 38.92352 ], [ -77.20482, 38.92371 ], [ -77.20553, 38.92332 ], [ -77.20524, 38.92265 ], [ -77.20554, 38.92231 ], [ -77.20607, 38.92224 ], [ -77.207, 38.92303 ], [ -77.21112, 38.92174 ] ], [ [ -77.20866, 38.91802 ], [ -77.20862, 38.91759 ], [ -77.20727, 38.91772 ], [ -77.20734, 38.91801 ], [ -77.20866, 38.91802 ] ], [ [ -77.20712, 38.91486 ], [ -77.20726, 38.91503 ], [ -77.20724, 38.91499 ], [ -77.2075, 38.91463 ], [ -77.20712, 38.91486 ] ], [ [ -77.20713, 38.9125 ], [ -77.2068, 38.91241 ], [ -77.20699, 38.91252 ], [ -77.20713, 38.9125 ] ], [ [ -77.20811, 38.91182 ], [ -77.20822, 38.91163 ], [ -77.20776, 38.9118 ], [ -77.20811, 38.91182 ] ], [ [ -77.20812, 38.91054 ], [ -77.20803, 38.91043 ], [ -77.2078, 38.9106 ], [ -77.20812, 38.91054 ] ], [ [ -77.20853, 38.90855 ], [ -77.20911, 38.90862 ], [ -77.20938, 38.90775 ], [ -77.20615, 38.90654 ], [ -77.20688, 38.90726 ], [ -77.20756, 38.90931 ], [ -77.20853, 38.90855 ] ], [ [ -77.21336, 38.91555 ], [ -77.21325, 38.91562 ], [ -77.21368, 38.91606 ], [ -77.21336, 38.91555 ] ], [ [ -77.21232, 38.91318 ], [ -77.21233, 38.91317 ], [ -77.21229, 38.91317 ], [ -77.21232, 38.91318 ] ], [ [ -77.21286, 38.90874 ], [ -77.213, 38.90953 ], [ -77.21348, 38.90899 ], [ -77.21286, 38.90874 ] ], [ [ -77.21506, 38.91237 ], [ -77.21648, 38.91281 ], [ -77.21516, 38.91149 ], [ -77.21506, 38.91237 ] ], [ [ -77.21357, 38.91079 ], [ -77.21374, 38.91078 ], [ -77.21407, 38.91023 ], [ -77.21357, 38.91079 ] ], [ [ -77.21423, 38.91443 ], [ -77.2141, 38.91442 ], [ -77.21485, 38.91529 ], [ -77.21488, 38.91472 ], [ -77.21423, 38.91443 ] ], [ [ -77.21096, 38.91088 ], [ -77.21111, 38.91093 ], [ -77.21104, 38.91087 ], [ -77.21096, 38.91088 ] ], [ [ -77.2094, 38.91222 ], [ -77.20916, 38.91254 ], [ -77.21017, 38.91182 ], [ -77.2094, 38.91222 ] ], [ [ -77.20931, 38.90999 ], [ -77.2097, 38.90963 ], [ -77.21039, 38.90978 ], [ -77.21055, 38.90925 ], [ -77.20941, 38.90894 ], [ -77.20931, 38.90999 ] ], [ [ -77.21126, 38.9125 ], [ -77.21065, 38.91294 ], [ -77.21156, 38.91276 ], [ -77.21126, 38.9125 ] ], [ [ -77.2126, 38.91674 ], [ -77.21232, 38.91645 ], [ -77.21242, 38.91671 ], [ -77.2126, 38.91674 ] ], [ [ -77.20594, 38.91715 ], [ -77.20506, 38.91636 ], [ -77.20372, 38.9172 ], [ -77.20423, 38.91818 ], [ -77.20594, 38.91715 ] ], [ [ -77.20528, 38.91461 ], [ -77.20514, 38.91444 ], [ -77.20477, 38.9148 ], [ -77.20528, 38.91461 ] ], [ [ -77.20439, 38.91354 ], [ -77.20437, 38.91355 ], [ -77.20445, 38.9136 ], [ -77.20439, 38.91354 ] ], [ [ -77.20578, 38.91148 ], [ -77.20549, 38.91119 ], [ -77.20497, 38.91163 ], [ -77.20578, 38.91148 ] ], [ [ -77.20414, 38.90989 ], [ -77.20395, 38.91021 ], [ -77.20465, 38.91029 ], [ -77.20414, 38.90989 ] ], [ [ -77.20431, 38.90559 ], [ -77.20327, 38.90692 ], [ -77.20455, 38.90578 ], [ -77.20431, 38.90559 ] ], [ [ -77.20317, 38.90388 ], [ -77.20256, 38.9035 ], [ -77.20338, 38.90426 ], [ -77.20376, 38.90402 ], [ -77.20317, 38.90388 ] ], [ [ -77.20604, 38.90646 ], [ -77.20597, 38.9064 ], [ -77.20598, 38.90643 ], [ -77.20604, 38.90646 ] ], [ [ -77.20613, 38.91566 ], [ -77.20604, 38.91554 ], [ -77.20601, 38.91557 ], [ -77.20613, 38.91566 ] ], [ [ -77.20549, 38.91288 ], [ -77.20637, 38.91394 ], [ -77.20645, 38.91389 ], [ -77.20549, 38.91288 ] ], [ [ -77.20335, 38.91614 ], [ -77.20315, 38.9161 ], [ -77.20324, 38.91615 ], [ -77.20335, 38.91614 ] ], [ [ -77.20282, 38.9154 ], [ -77.20279, 38.91539 ], [ -77.20281, 38.91542 ], [ -77.20282, 38.9154 ] ], [ [ -77.20337, 38.9144 ], [ -77.2037, 38.91453 ], [ -77.20343, 38.91435 ], [ -77.20337, 38.9144 ] ], [ [ -77.1995, 38.92677 ], [ -77.19734, 38.92354 ], [ -77.19673, 38.92388 ], [ -77.19874, 38.92721 ], [ -77.1995, 38.92677 ] ], [ [ -77.19977, 38.92235 ], [ -77.19898, 38.92281 ], [ -77.19979, 38.92329 ], [ -77.19977, 38.92235 ] ], [ [ -77.19985, 38.91947 ], [ -77.19988, 38.91955 ], [ -77.19993, 38.91949 ], [ -77.19985, 38.91947 ] ], [ [ -77.19971, 38.91608 ], [ -77.20009, 38.91659 ], [ -77.20017, 38.91653 ], [ -77.19971, 38.91608 ] ], [ [ -77.20013, 38.91012 ], [ -77.20025, 38.91036 ], [ -77.20035, 38.9102 ], [ -77.20013, 38.91012 ] ], [ [ -77.1998, 38.90855 ], [ -77.1995, 38.90868 ], [ -77.19987, 38.90882 ], [ -77.1998, 38.90855 ] ], [ [ -77.19938, 38.90694 ], [ -77.19886, 38.90772 ], [ -77.19957, 38.90724 ], [ -77.19938, 38.90694 ] ], [ [ -77.20066, 38.90591 ], [ -77.20103, 38.90581 ], [ -77.19945, 38.90543 ], [ -77.19953, 38.90587 ], [ -77.20066, 38.90591 ] ], [ [ -77.20104, 38.9119 ], [ -77.20134, 38.91165 ], [ -77.20096, 38.91153 ], [ -77.20104, 38.9119 ] ], [ [ -77.20004, 38.90443 ], [ -77.2002, 38.90452 ], [ -77.19998, 38.90405 ], [ -77.20004, 38.90443 ] ], [ [ -77.19835, 38.91611 ], [ -77.19823, 38.91615 ], [ -77.19892, 38.91757 ], [ -77.19835, 38.91611 ] ], [ [ -77.19324, 38.93019 ], [ -77.19328, 38.93078 ], [ -77.1941, 38.93064 ], [ -77.19405, 38.93012 ], [ -77.19324, 38.93019 ] ], [ [ -77.19532, 38.92871 ], [ -77.19517, 38.92871 ], [ -77.19523, 38.92891 ], [ -77.19532, 38.92871 ] ], [ [ -77.19381, 38.91558 ], [ -77.19397, 38.91558 ], [ -77.19382, 38.91526 ], [ -77.19381, 38.91558 ] ], [ [ -77.19624, 38.92989 ], [ -77.19715, 38.93162 ], [ -77.19765, 38.93035 ], [ -77.197, 38.92972 ], [ -77.19624, 38.92989 ] ], [ [ -77.19302, 38.91345 ], [ -77.19291, 38.91348 ], [ -77.19299, 38.91347 ], [ -77.19302, 38.91345 ] ], [ [ -77.18947, 38.91683 ], [ -77.18979, 38.91674 ], [ -77.18975, 38.91669 ], [ -77.18947, 38.91683 ] ], [ [ -77.19276, 38.92126 ], [ -77.19268, 38.92125 ], [ -77.1928, 38.92132 ], [ -77.19276, 38.92126 ] ], [ [ -77.19037, 38.9187 ], [ -77.19045, 38.91875 ], [ -77.19047, 38.91863 ], [ -77.19037, 38.9187 ] ], [ [ -77.18955, 38.91782 ], [ -77.18957, 38.91781 ], [ -77.18953, 38.91779 ], [ -77.18955, 38.91782 ] ], [ [ -77.19125, 38.91924 ], [ -77.19155, 38.91942 ], [ -77.19139, 38.91918 ], [ -77.19125, 38.91924 ] ] ] } }
]
}
