{
"type": "FeatureCollection",
"name": "84",
"crs": { "type": "name", "properties": { "name": "urn:ogc:def:crs:OGC:1.3:CRS84" } },
"xy_coordinate_resolution": 1e-05,
"features": [
{ "type": "Feature", "properties": { "variant": "T0", "miles": 0.5 }, "geometry": { "type": "Polygon", "coordinates": [ [ [ -77.20783, 38.87257 ], [ -77.20783, 38.87413 ], [ -77.20637, 38.87465 ], [ -77.20625, 38.87581 ], [ -77.20528, 38.87588 ], [ -77.20487, 38.87117 ], [ -77.2057, 38.87076 ], [ -77.20484, 38.87054 ], [ -77.20483, 38.86971 ], [ -77.20365, 38.86956 ], [ -77.20344, 38.86918 ], [ -77.20364, 38.8688 ], [ -77.20464, 38.86863 ], [ -77.20499, 38.8671 ], [ -77.20545, 38.8669 ], [ -77.20622, 38.86737 ], [ -77.20604, 38.86908 ], [ -77.20682, 38.87012 ], [ -77.20751, 38.87023 ], [ -77.20794, 38.86968 ], [ -77.20847, 38.86964 ], [ -77.20888, 38.86991 ], [ -77.20869, 38.87094 ], [ -77.212, 38.87092 ], [ -77.21274, 38.87129 ], [ -77.2129, 38.87343 ], [ -77.212, 38.87509 ], [ -77.20989, 38.87572 ], [ -77.20849, 38.87554 ], [ -77.20841, 38.87478 ], [ -77.20906, 38.87458 ], [ -77.20914, 38.87267 ], [ -77.21007, 38.87244 ], [ -77.21005, 38.87202 ], [ -77.20783, 38.87257 ] ], [ [ -77.21141, 38.87282 ], [ -77.21125, 38.87309 ], [ -77.21153, 38.8731 ], [ -77.21147, 38.87199 ], [ -77.21141, 38.87282 ] ], [ [ -77.20649, 38.87356 ], [ -77.20645, 38.87265 ], [ -77.20635, 38.87267 ], [ -77.20649, 38.87356 ] ] ] } },
{ "type": "Feature", "properties": { "variant": "T0", "miles": 1.0 }, "geometry": { "type": "Polygon", "coordinates": [ [ [ -77.21504, 38.87203 ], [ -77.21592, 38.87241 ], [ -77.21702, 38.87165 ], [ -77.21796, 38.8722 ], [ -77.21688, 38.87336 ], [ -77.2172, 38.87427 ], [ -77.21665, 38.87505 ], [ -77.22014, 38.87527 ], [ -77.22089, 38.87576 ], [ -77.22073, 38.87616 ], [ -77.21914, 38.87649 ], [ -77.21556, 38.87612 ], [ -77.21453, 38.8773 ], [ -77.21413, 38.87872 ], [ -77.21452, 38.87928 ], [ -77.2132, 38.88015 ], [ -77.21239, 38.87972 ], [ -77.21266, 38.87887 ], [ -77.21121, 38.87839 ], [ -77.21081, 38.87907 ], [ -77.20962, 38.87973 ], [ -77.20871, 38.87929 ], [ -77.20616, 38.87898 ], [ -77.2056, 38.88085 ], [ -77.20508, 38.88096 ], [ -77.20414, 38.88042 ], [ -77.20238, 38.88072 ], [ -77.20148, 38.8798 ], [ -77.19938, 38.87961 ], [ -77.19924, 38.87761 ], [ -77.19843, 38.87788 ], [ -77.19753, 38.87707 ], [ -77.19616, 38.87737 ], [ -77.19533, 38.87698 ], [ -77.19574, 38.87612 ], [ -77.19892, 38.87525 ], [ -77.19884, 38.87314 ], [ -77.1998, 38.87258 ], [ -77.19994, 38.86885 ], [ -77.19912, 38.86818 ], [ -77.19795, 38.8682 ], [ -77.19781, 38.8678 ], [ -77.19939, 38.86661 ], [ -77.198, 38.86646 ], [ -77.19779, 38.86608 ], [ -77.19798, 38.86553 ], [ -77.19863, 38.86536 ], [ -77.19884, 38.86438 ], [ -77.19932, 38.86422 ], [ -77.19981, 38.86438 ], [ -77.20002, 38.86533 ], [ -77.20456, 38.8651 ], [ -77.20545, 38.86541 ], [ -77.20532, 38.86505 ], [ -77.20607, 38.86424 ], [ -77.20758, 38.86448 ], [ -77.20698, 38.86384 ], [ -77.20626, 38.86374 ], [ -77.20616, 38.86298 ], [ -77.20828, 38.86253 ], [ -77.20897, 38.86303 ], [ -77.21016, 38.86311 ], [ -77.21066, 38.86387 ], [ -77.20863, 38.86536 ], [ -77.21271, 38.86529 ], [ -77.21342, 38.86581 ], [ -77.21324, 38.8662 ], [ -77.21236, 38.86638 ], [ -77.21268, 38.86709 ], [ -77.2122, 38.86762 ], [ -77.21167, 38.86761 ], [ -77.21085, 38.86676 ], [ -77.20753, 38.86676 ], [ -77.20752, 38.86833 ], [ -77.20823, 38.86885 ], [ -77.20723, 38.87009 ], [ -77.20847, 38.86964 ], [ -77.20888, 38.86991 ], [ -77.20869, 38.87094 ], [ -77.21238, 38.87101 ], [ -77.21288, 38.87236 ], [ -77.21394, 38.87294 ], [ -77.21504, 38.87203 ] ], [ [ -77.20725, 38.8746 ], [ -77.20705, 38.8746 ], [ -77.20637, 38.87466 ], [ -77.20725, 38.8746 ] ], [ [ -77.20792, 38.87314 ], [ -77.20863, 38.87259 ], [ -77.21007, 38.87244 ], [ -77.21005, 38.87202 ], [ -77.20783, 38.87257 ], [ -77.20792, 38.87314 ] ], [ [ -77.20635, 38.87157 ], [ -77.20633, 38.87153 ], [ -77.20633, 38.87157 ], [ -77.20635, 38.87157 ] ], [ [ -77.20609, 38.86925 ], [ -77.2061, 38.86888 ], [ -77.20603, 38.86888 ], [ -77.20609, 38.86925 ] ], [ [ -77.20605, 38.8678 ], [ -77.20617, 38.8677 ], [ -77.20618, 38.8675 ], [ -77.20605, 38.8678 ] ], [ [ -77.20615, 38.86679 ], [ -77.20462, 38.86681 ], [ -77.20478, 38.86733 ], [ -77.20545, 38.8669 ], [ -77.20617, 38.86731 ], [ -77.20615, 38.86679 ] ], [ [ -77.20905, 38.87447 ], [ -77.209, 38.87383 ], [ -77.20863, 38.8745 ], [ -77.20905, 38.87447 ] ], [ [ -77.21276, 38.87453 ], [ -77.21319, 38.87388 ], [ -77.21278, 38.87372 ], [ -77.21233, 38.87445 ], [ -77.21276, 38.87453 ] ], [ [ -77.21147, 38.87199 ], [ -77.21141, 38.87282 ], [ -77.21125, 38.87309 ], [ -77.21153, 38.8731 ], [ -77.21147, 38.87199 ] ], [ [ -77.20829, 38.87668 ], [ -77.20766, 38.87651 ], [ -77.20742, 38.87689 ], [ -77.20829, 38.87668 ] ], [ [ -77.20932, 38.87579 ], [ -77.20936, 38.87576 ], [ -77.20934, 38.87576 ], [ -77.20932, 38.87579 ] ], [ [ -77.2103, 38.87734 ], [ -77.2112, 38.8762 ], [ -77.21147, 38.87561 ], [ -77.2103, 38.87734 ] ], [ [ -77.20276, 38.87764 ], [ -77.20374, 38.87677 ], [ -77.20321, 38.8764 ], [ -77.20276, 38.87764 ] ], [ [ -77.20344, 38.87377 ], [ -77.2024, 38.87402 ], [ -77.20243, 38.87493 ], [ -77.20346, 38.87495 ], [ -77.20344, 38.87377 ] ], [ [ -77.20058, 38.86758 ], [ -77.2006, 38.86753 ], [ -77.20061, 38.86747 ], [ -77.20058, 38.86758 ] ], [ [ -77.2034, 38.87213 ], [ -77.20267, 38.87163 ], [ -77.20232, 38.87125 ], [ -77.20234, 38.87192 ], [ -77.2028, 38.87176 ], [ -77.2034, 38.87213 ] ], [ [ -77.20649, 38.87356 ], [ -77.20635, 38.87267 ], [ -77.20637, 38.87356 ], [ -77.20649, 38.87356 ] ], [ [ -77.20487, 38.87117 ], [ -77.2057, 38.87076 ], [ -77.20485, 38.87054 ], [ -77.20485, 38.87488 ], [ -77.20487, 38.87117 ] ], [ [ -77.20491, 38.86985 ], [ -77.20484, 38.86972 ], [ -77.20484, 38.86994 ], [ -77.20491, 38.86985 ] ], [ [ -77.2051, 38.87646 ], [ -77.20507, 38.87709 ], [ -77.20539, 38.87685 ], [ -77.2051, 38.87646 ] ], [ [ -77.20445, 38.87771 ], [ -77.20426, 38.87796 ], [ -77.20429, 38.87817 ], [ -77.20445, 38.87771 ] ], [ [ -77.20214, 38.86788 ], [ -77.20213, 38.8672 ], [ -77.20226, 38.86685 ], [ -77.20209, 38.86685 ], [ -77.20197, 38.86768 ], [ -77.20214, 38.86788 ] ], [ [ -77.20136, 38.8787 ], [ -77.20177, 38.87673 ], [ -77.2005, 38.87652 ], [ -77.20091, 38.87866 ], [ -77.20136, 38.8787 ] ], [ [ -77.20263, 38.87913 ], [ -77.20294, 38.87904 ], [ -77.20304, 38.87873 ], [ -77.20276, 38.87872 ], [ -77.20263, 38.87913 ] ] ] } },
{ "type": "Feature", "properties": { "variant": "T0", "miles": 1.5 }, "geometry": { "type": "Polygon", "coordinates": [ [ [ -77.22222, 38.86618 ], [ -77.21462, 38.8665 ], [ -77.21504, 38.86757 ], [ -77.21716, 38.86841 ], [ -77.21803, 38.86923 ], [ -77.21826, 38.87176 ], [ -77.21877, 38.87192 ], [ -77.21899, 38.87123 ], [ -77.21948, 38.87108 ], [ -77.22016, 38.87163 ], [ -77.2199, 38.87359 ], [ -77.21836, 38.87356 ], [ -77.21796, 38.87282 ], [ -77.21688, 38.87336 ], [ -77.21764, 38.87518 ], [ -77.22037, 38.87526 ], [ -77.22378, 38.87462 ], [ -77.22259, 38.87366 ], [ -77.22442, 38.87228 ], [ -77.22438, 38.87158 ], [ -77.2248, 38.87133 ], [ -77.22533, 38.87138 ], [ -77.2259, 38.87239 ], [ -77.2249, 38.87352 ], [ -77.2251, 38.8743 ], [ -77.22609, 38.87413 ], [ -77.22611, 38.87365 ], [ -77.22689, 38.87336 ], [ -77.22754, 38.87378 ], [ -77.22948, 38.87389 ], [ -77.22977, 38.87424 ], [ -77.2292, 38.87486 ], [ -77.22779, 38.8751 ], [ -77.22777, 38.87708 ], [ -77.22695, 38.87738 ], [ -77.2257, 38.87909 ], [ -77.2237, 38.87946 ], [ -77.22366, 38.88045 ], [ -77.22321, 38.88067 ], [ -77.22165, 38.88032 ], [ -77.22145, 38.88145 ], [ -77.21954, 38.88258 ], [ -77.21902, 38.88267 ], [ -77.21846, 38.88204 ], [ -77.22035, 38.88078 ], [ -77.21969, 38.87819 ], [ -77.21848, 38.87647 ], [ -77.21556, 38.87612 ], [ -77.21453, 38.8773 ], [ -77.2141, 38.88023 ], [ -77.21304, 38.88097 ], [ -77.21035, 38.88102 ], [ -77.20982, 38.88025 ], [ -77.20895, 38.88018 ], [ -77.20922, 38.8808 ], [ -77.20889, 38.88112 ], [ -77.20569, 38.88073 ], [ -77.20498, 38.88091 ], [ -77.20475, 38.88128 ], [ -77.20629, 38.88091 ], [ -77.20802, 38.88168 ], [ -77.20752, 38.88234 ], [ -77.20608, 38.88198 ], [ -77.20396, 38.88247 ], [ -77.20709, 38.88299 ], [ -77.20823, 38.88371 ], [ -77.20849, 38.88453 ], [ -77.20811, 38.88542 ], [ -77.20642, 38.88617 ], [ -77.20495, 38.88579 ], [ -77.20366, 38.88362 ], [ -77.20277, 38.88305 ], [ -77.2018, 38.88312 ], [ -77.20135, 38.88236 ], [ -77.19919, 38.8816 ], [ -77.20273, 38.884 ], [ -77.20279, 38.88476 ], [ -77.20232, 38.88494 ], [ -77.20061, 38.88398 ], [ -77.19976, 38.88398 ], [ -77.19959, 38.88328 ], [ -77.19901, 38.88373 ], [ -77.19831, 38.88331 ], [ -77.19776, 38.88427 ], [ -77.19789, 38.88496 ], [ -77.19603, 38.88555 ], [ -77.19543, 38.88494 ], [ -77.19695, 38.88305 ], [ -77.19371, 38.88334 ], [ -77.1929, 38.87972 ], [ -77.19231, 38.87975 ], [ -77.19191, 38.88121 ], [ -77.19144, 38.8814 ], [ -77.19093, 38.88127 ], [ -77.19073, 38.88027 ], [ -77.19021, 38.87992 ], [ -77.19067, 38.87927 ], [ -77.19017, 38.87922 ], [ -77.18987, 38.87867 ], [ -77.1877, 38.87971 ], [ -77.18693, 38.87924 ], [ -77.18791, 38.87391 ], [ -77.19125, 38.86789 ], [ -77.18781, 38.8681 ], [ -77.18755, 38.86736 ], [ -77.19145, 38.86651 ], [ -77.191, 38.86616 ], [ -77.19103, 38.8654 ], [ -77.19166, 38.86477 ], [ -77.1924, 38.86497 ], [ -77.19237, 38.86466 ], [ -77.19089, 38.86453 ], [ -77.19029, 38.86393 ], [ -77.19173, 38.86263 ], [ -77.19348, 38.86246 ], [ -77.19363, 38.86065 ], [ -77.19411, 38.86048 ], [ -77.19482, 38.86101 ], [ -77.19486, 38.86246 ], [ -77.19549, 38.86295 ], [ -77.19494, 38.86357 ], [ -77.19745, 38.86296 ], [ -77.19559, 38.86215 ], [ -77.19549, 38.86139 ], [ -77.19646, 38.86131 ], [ -77.19801, 38.86016 ], [ -77.20041, 38.86056 ], [ -77.20173, 38.85897 ], [ -77.20325, 38.85844 ], [ -77.20343, 38.85765 ], [ -77.20391, 38.85749 ], [ -77.20462, 38.85802 ], [ -77.20467, 38.86041 ], [ -77.20529, 38.86092 ], [ -77.20469, 38.86144 ], [ -77.20458, 38.86242 ], [ -77.20958, 38.86251 ], [ -77.20977, 38.86155 ], [ -77.21143, 38.86025 ], [ -77.21139, 38.85919 ], [ -77.21043, 38.85929 ], [ -77.2103, 38.85854 ], [ -77.21099, 38.8579 ], [ -77.21151, 38.85793 ], [ -77.2126, 38.85845 ], [ -77.21279, 38.85978 ], [ -77.21383, 38.85848 ], [ -77.2146, 38.85854 ], [ -77.21473, 38.8593 ], [ -77.21362, 38.86123 ], [ -77.21217, 38.8613 ], [ -77.21128, 38.86386 ], [ -77.20863, 38.86536 ], [ -77.22109, 38.86515 ], [ -77.22216, 38.86541 ], [ -77.22222, 38.86618 ] ], [ [ -77.20725, 38.8746 ], [ -77.20725, 38.87457 ], [ -77.20637, 38.87466 ], [ -77.20725, 38.8746 ] ], [ [ -77.20792, 38.87314 ], [ -77.20863, 38.87259 ], [ -77.21007, 38.87244 ], [ -77.21005, 38.87202 ], [ -77.20783, 38.87257 ], [ -77.20792, 38.87314 ] ], [ [ -77.20635, 38.87157 ], [ -77.20633, 38.87153 ], [ -77.20633, 38.87157 ], [ -77.20635, 38.87157 ] ], [ [ -77.20609, 38.86925 ], [ -77.2061, 38.86888 ], [ -77.20603, 38.86888 ], [ -77.20609, 38.86925 ] ], [ [ -77.20605, 38.8678 ], [ -77.20617, 38.8677 ], [ -77.20618, 38.8675 ], [ -77.20605, 38.8678 ] ], [ [ -77.20615, 38.86679 ], [ -77.20462, 38.86681 ], [ -77.20478, 38.86733 ], [ -77.20545, 38.8669 ], [ -77.20617, 38.86731 ], [ -77.20615, 38.86679 ] ], [ [ -77.20361, 38.86453 ], [ -77.20487, 38.86519 ], [ -77.20497, 38.86498 ], [ -77.20361, 38.86453 ] ], [ [ -77.20307, 38.8634 ], [ -77.20307, 38.86337 ], [ -77.20247, 38.86334 ], [ -77.20307, 38.8634 ] ], [ [ -77.20331, 38.86135 ], [ -77.20331, 38.86133 ], [ -77.20327, 38.86135 ], [ -77.20331, 38.86135 ] ], [ [ -77.21276, 38.87453 ], [ -77.21319, 38.87388 ], [ -77.21278, 38.87372 ], [ -77.21233, 38.87445 ], [ -77.21276, 38.87453 ] ], [ [ -77.21372, 38.87288 ], [ -77.21504, 38.87203 ], [ -77.21592, 38.87241 ], [ -77.21654, 38.87188 ], [ -77.21648, 38.86965 ], [ -77.21526, 38.86906 ], [ -77.21413, 38.8691 ], [ -77.21317, 38.86836 ], [ -77.21191, 38.86803 ], [ -77.21102, 38.8668 ], [ -77.20753, 38.86676 ], [ -77.20752, 38.86833 ], [ -77.20823, 38.86885 ], [ -77.20723, 38.87009 ], [ -77.20847, 38.86964 ], [ -77.20888, 38.86991 ], [ -77.20869, 38.87094 ], [ -77.21005, 38.87094 ], [ -77.21045, 38.86967 ], [ -77.21251, 38.8693 ], [ -77.21332, 38.87074 ], [ -77.21401, 38.87114 ], [ -77.21372, 38.87288 ] ], [ [ -77.22218, 38.87947 ], [ -77.22196, 38.87805 ], [ -77.2215, 38.87761 ], [ -77.22179, 38.87628 ], [ -77.21991, 38.87647 ], [ -77.22103, 38.87789 ], [ -77.22155, 38.8799 ], [ -77.22218, 38.87947 ] ], [ [ -77.22488, 38.87576 ], [ -77.22519, 38.8765 ], [ -77.2262, 38.87638 ], [ -77.22615, 38.87541 ], [ -77.22488, 38.87576 ] ], [ [ -77.21308, 38.86715 ], [ -77.21307, 38.86653 ], [ -77.21249, 38.86653 ], [ -77.21268, 38.86709 ], [ -77.21308, 38.86715 ] ], [ [ -77.2103, 38.87734 ], [ -77.2112, 38.8762 ], [ -77.21147, 38.87561 ], [ -77.2103, 38.87734 ] ], [ [ -77.20932, 38.87579 ], [ -77.20936, 38.87576 ], [ -77.20934, 38.87576 ], [ -77.20932, 38.87579 ] ], [ [ -77.20905, 38.87447 ], [ -77.209, 38.87383 ], [ -77.20863, 38.8745 ], [ -77.20905, 38.87447 ] ], [ [ -77.21147, 38.87199 ], [ -77.21141, 38.87282 ], [ -77.21125, 38.87309 ], [ -77.21153, 38.8731 ], [ -77.21147, 38.87199 ] ], [ [ -77.20585, 38.86455 ], [ -77.20554, 38.86447 ], [ -77.20536, 38.86483 ], [ -77.20585, 38.86455 ] ], [ [ -77.20725, 38.86412 ], [ -77.20708, 38.86443 ], [ -77.20755, 38.86457 ], [ -77.20725, 38.86412 ] ], [ [ -77.20756, 38.87691 ], [ -77.20818, 38.87682 ], [ -77.20829, 38.87668 ], [ -77.20773, 38.87639 ], [ -77.20756, 38.87691 ] ], [ [ -77.20028, 38.87986 ], [ -77.20035, 38.87965 ], [ -77.20019, 38.87977 ], [ -77.20028, 38.87986 ] ], [ [ -77.19952, 38.87868 ], [ -77.1995, 38.8783 ], [ -77.19946, 38.87879 ], [ -77.19952, 38.87868 ] ], [ [ -77.19593, 38.87608 ], [ -77.19892, 38.87525 ], [ -77.19889, 38.87472 ], [ -77.19764, 38.87499 ], [ -77.19758, 38.8754 ], [ -77.19663, 38.8756 ], [ -77.19593, 38.87608 ] ], [ [ -77.19885, 38.8736 ], [ -77.19868, 38.8735 ], [ -77.19864, 38.87365 ], [ -77.19885, 38.8736 ] ], [ [ -77.19831, 38.87249 ], [ -77.19828, 38.87253 ], [ -77.19832, 38.87255 ], [ -77.19831, 38.87249 ] ], [ [ -77.19742, 38.86949 ], [ -77.19565, 38.86974 ], [ -77.1949, 38.86926 ], [ -77.19505, 38.86886 ], [ -77.19647, 38.86859 ], [ -77.19573, 38.867 ], [ -77.19491, 38.86863 ], [ -77.19303, 38.8687 ], [ -77.19258, 38.86936 ], [ -77.19168, 38.86953 ], [ -77.19121, 38.87044 ], [ -77.19742, 38.86949 ] ], [ [ -77.19655, 38.8654 ], [ -77.1965, 38.86415 ], [ -77.19534, 38.86462 ], [ -77.19553, 38.86547 ], [ -77.19655, 38.8654 ] ], [ [ -77.19948, 38.86305 ], [ -77.20055, 38.86327 ], [ -77.20109, 38.8632 ], [ -77.19948, 38.86305 ] ], [ [ -77.19875, 38.863 ], [ -77.19886, 38.863 ], [ -77.19875, 38.86299 ], [ -77.19875, 38.863 ] ], [ [ -77.20294, 38.87904 ], [ -77.20276, 38.87872 ], [ -77.20259, 38.87919 ], [ -77.20294, 38.87904 ] ], [ [ -77.20276, 38.87764 ], [ -77.20374, 38.87677 ], [ -77.20321, 38.8764 ], [ -77.20276, 38.87764 ] ], [ [ -77.19969, 38.87103 ], [ -77.1997, 38.87259 ], [ -77.1998, 38.87258 ], [ -77.19969, 38.87103 ] ], [ [ -77.19973, 38.86952 ], [ -77.19828, 38.86998 ], [ -77.19842, 38.87027 ], [ -77.19901, 38.87008 ], [ -77.19973, 38.86952 ] ], [ [ -77.2024, 38.87402 ], [ -77.20243, 38.87493 ], [ -77.20346, 38.87495 ], [ -77.20344, 38.87377 ], [ -77.20284, 38.87416 ], [ -77.2024, 38.87402 ] ], [ [ -77.2034, 38.87213 ], [ -77.20267, 38.87163 ], [ -77.20232, 38.87125 ], [ -77.20234, 38.87192 ], [ -77.2028, 38.87176 ], [ -77.2034, 38.87213 ] ], [ [ -77.20212, 38.8673 ], [ -77.20226, 38.86685 ], [ -77.20214, 38.86788 ], [ -77.20212, 38.8673 ] ], [ [ -77.20485, 38.87054 ], [ -77.20478, 38.87167 ], [ -77.20485, 38.87488 ], [ -77.20487, 38.87117 ], [ -77.2057, 38.87076 ], [ -77.20485, 38.87054 ] ], [ [ -77.20491, 38.86985 ], [ -77.20484, 38.86972 ], [ -77.20484, 38.86994 ], [ -77.20491, 38.86985 ] ], [ [ -77.20635, 38.87267 ], [ -77.20649, 38.87356 ], [ -77.20645, 38.87265 ], [ -77.20635, 38.87267 ] ], [ [ -77.20511, 38.87692 ], [ -77.2054, 38.87672 ], [ -77.2051, 38.87646 ], [ -77.20506, 38.87646 ], [ -77.20511, 38.87692 ] ], [ [ -77.20445, 38.87771 ], [ -77.20426, 38.87796 ], [ -77.20429, 38.87817 ], [ -77.20445, 38.87771 ] ], [ [ -77.20695, 38.88417 ], [ -77.20622, 38.88394 ], [ -77.20509, 38.88393 ], [ -77.20606, 38.88509 ], [ -77.20684, 38.88495 ], [ -77.20695, 38.88417 ] ], [ [ -77.20099, 38.86437 ], [ -77.20096, 38.86531 ], [ -77.20252, 38.86513 ], [ -77.20224, 38.86441 ], [ -77.20099, 38.86437 ] ], [ [ -77.20074, 38.86208 ], [ -77.20111, 38.86211 ], [ -77.20085, 38.86199 ], [ -77.20074, 38.86208 ] ], [ [ -77.20058, 38.86758 ], [ -77.2006, 38.86753 ], [ -77.20061, 38.86747 ], [ -77.20058, 38.86758 ] ], [ [ -77.20246, 38.88079 ], [ -77.20169, 38.88037 ], [ -77.20145, 38.88049 ], [ -77.20246, 38.88079 ] ], [ [ -77.20137, 38.87868 ], [ -77.20177, 38.87673 ], [ -77.2005, 38.87652 ], [ -77.20091, 38.87866 ], [ -77.20137, 38.87868 ] ], [ [ -77.19863, 38.86711 ], [ -77.19896, 38.8669 ], [ -77.19842, 38.86691 ], [ -77.19863, 38.86711 ] ], [ [ -77.19788, 38.88101 ], [ -77.19808, 38.87877 ], [ -77.1976, 38.87877 ], [ -77.19761, 38.8799 ], [ -77.19703, 38.8804 ], [ -77.19725, 38.881 ], [ -77.19788, 38.88101 ] ], [ [ -77.19385, 38.86568 ], [ -77.19389, 38.86456 ], [ -77.19375, 38.86458 ], [ -77.19385, 38.86568 ] ], [ [ -77.19486, 38.8744 ], [ -77.19473, 38.8725 ], [ -77.1952, 38.87097 ], [ -77.19167, 38.87138 ], [ -77.19093, 38.87096 ], [ -77.18923, 38.87422 ], [ -77.18871, 38.877 ], [ -77.18938, 38.87536 ], [ -77.1892, 38.87467 ], [ -77.18989, 38.87438 ], [ -77.18977, 38.87365 ], [ -77.19038, 38.87306 ], [ -77.19114, 38.87353 ], [ -77.19235, 38.87687 ], [ -77.19309, 38.87671 ], [ -77.19284, 38.87544 ], [ -77.19325, 38.8747 ], [ -77.19486, 38.8744 ] ], [ [ -77.19532, 38.87465 ], [ -77.19532, 38.87461 ], [ -77.19527, 38.87459 ], [ -77.19532, 38.87465 ] ], [ [ -77.19431, 38.87859 ], [ -77.19469, 38.878 ], [ -77.19498, 38.87778 ], [ -77.19415, 38.87796 ], [ -77.19431, 38.87859 ] ], [ [ -77.1961, 38.87905 ], [ -77.1959, 38.87865 ], [ -77.19584, 38.87866 ], [ -77.1957, 38.87892 ], [ -77.1961, 38.87905 ] ], [ [ -77.19274, 38.86358 ], [ -77.19329, 38.86355 ], [ -77.1924, 38.86358 ], [ -77.19274, 38.86358 ] ], [ [ -77.19054, 38.87602 ], [ -77.19043, 38.87656 ], [ -77.19015, 38.87734 ], [ -77.19102, 38.87715 ], [ -77.19054, 38.87602 ] ] ] } },
{ "type": "Feature", "properties": { "variant": "T2s", "miles": 0.5 }, "geometry": { "type": "Polygon", "coordinates": [ [ [ -77.20869, 38.87094 ], [ -77.212, 38.87092 ], [ -77.21274, 38.87129 ], [ -77.2129, 38.87343 ], [ -77.21216, 38.87496 ], [ -77.21111, 38.87541 ], [ -77.20934, 38.87538 ], [ -77.20898, 38.87305 ], [ -77.20915, 38.87266 ], [ -77.21007, 38.87244 ], [ -77.21005, 38.87202 ], [ -77.20914, 38.87204 ], [ -77.20889, 38.87243 ], [ -77.20783, 38.87257 ], [ -77.20769, 38.87433 ], [ -77.20637, 38.87465 ], [ -77.20621, 38.87561 ], [ -77.20524, 38.87565 ], [ -77.20487, 38.87117 ], [ -77.2057, 38.87076 ], [ -77.20484, 38.87054 ], [ -77.20483, 38.86971 ], [ -77.20365, 38.86956 ], [ -77.20344, 38.86918 ], [ -77.20364, 38.8688 ], [ -77.20464, 38.86863 ], [ -77.20499, 38.8671 ], [ -77.20545, 38.8669 ], [ -77.20622, 38.86737 ], [ -77.20604, 38.86908 ], [ -77.20682, 38.87012 ], [ -77.20751, 38.87023 ], [ -77.20794, 38.86968 ], [ -77.20888, 38.86991 ], [ -77.20869, 38.87094 ] ], [ [ -77.21147, 38.87199 ], [ -77.21144, 38.87269 ], [ -77.21125, 38.87309 ], [ -77.21153, 38.8731 ], [ -77.21147, 38.87199 ] ], [ [ -77.20633, 38.87157 ], [ -77.20635, 38.87157 ], [ -77.20633, 38.87153 ], [ -77.20633, 38.87157 ] ], [ [ -77.20635, 38.87267 ], [ -77.20637, 38.87356 ], [ -77.20649, 38.87356 ], [ -77.20635, 38.87267 ] ] ] } },
{ "type": "Feature", "properties": { "variant": "T2s", "miles": 1.0 }, "geometry": { "type": "Polygon", "coordinates": [ [ [ -77.21251, 38.87108 ], [ -77.21288, 38.87236 ], [ -77.21394, 38.87294 ], [ -77.21504, 38.87203 ], [ -77.21592, 38.87241 ], [ -77.21702, 38.87165 ], [ -77.21772, 38.87183 ], [ -77.21796, 38.8722 ], [ -77.21688, 38.87336 ], [ -77.2172, 38.87427 ], [ -77.21665, 38.87505 ], [ -77.21963, 38.87548 ], [ -77.21956, 38.87624 ], [ -77.21229, 38.87557 ], [ -77.21179, 38.87518 ], [ -77.20526, 38.87566 ], [ -77.20487, 38.87117 ], [ -77.2057, 38.87076 ], [ -77.20485, 38.87054 ], [ -77.20452, 38.87181 ], [ -77.20309, 38.87181 ], [ -77.20232, 38.87125 ], [ -77.20234, 38.87192 ], [ -77.20329, 38.87192 ], [ -77.2035, 38.8723 ], [ -77.20352, 38.87361 ], [ -77.20333, 38.87399 ], [ -77.2024, 38.87402 ], [ -77.20223, 38.87592 ], [ -77.19697, 38.87684 ], [ -77.19611, 38.87648 ], [ -77.19658, 38.87581 ], [ -77.19892, 38.87525 ], [ -77.19884, 38.87314 ], [ -77.1998, 38.87258 ], [ -77.19994, 38.86885 ], [ -77.19912, 38.86818 ], [ -77.19795, 38.8682 ], [ -77.19781, 38.8678 ], [ -77.19984, 38.86589 ], [ -77.21165, 38.86584 ], [ -77.21266, 38.86685 ], [ -77.2122, 38.86762 ], [ -77.21167, 38.86761 ], [ -77.21085, 38.86676 ], [ -77.20753, 38.86676 ], [ -77.20752, 38.86833 ], [ -77.20823, 38.86885 ], [ -77.20723, 38.87009 ], [ -77.20847, 38.86964 ], [ -77.20888, 38.86991 ], [ -77.20869, 38.87094 ], [ -77.21251, 38.87108 ] ], [ [ -77.20705, 38.8746 ], [ -77.20637, 38.87466 ], [ -77.20725, 38.8746 ], [ -77.20705, 38.8746 ] ], [ [ -77.20645, 38.87265 ], [ -77.20637, 38.87356 ], [ -77.20649, 38.87356 ], [ -77.20645, 38.87265 ] ], [ [ -77.2061, 38.86888 ], [ -77.20603, 38.86888 ], [ -77.20609, 38.86925 ], [ -77.2061, 38.86888 ] ], [ [ -77.20617, 38.8677 ], [ -77.20618, 38.8675 ], [ -77.20605, 38.8678 ], [ -77.20617, 38.8677 ] ], [ [ -77.20462, 38.86681 ], [ -77.20478, 38.86733 ], [ -77.20545, 38.8669 ], [ -77.20617, 38.86731 ], [ -77.20615, 38.86679 ], [ -77.20462, 38.86681 ] ], [ [ -77.21144, 38.87269 ], [ -77.21125, 38.87309 ], [ -77.21153, 38.8731 ], [ -77.21147, 38.87199 ], [ -77.21144, 38.87269 ] ], [ [ -77.21278, 38.87372 ], [ -77.21233, 38.87454 ], [ -77.21288, 38.87455 ], [ -77.21278, 38.87372 ] ], [ [ -77.20889, 38.87243 ], [ -77.20783, 38.87257 ], [ -77.20786, 38.87322 ], [ -77.20863, 38.87259 ], [ -77.21007, 38.87244 ], [ -77.21005, 38.87202 ], [ -77.20914, 38.87204 ], [ -77.20889, 38.87243 ] ], [ [ -77.20865, 38.87429 ], [ -77.20863, 38.8745 ], [ -77.20905, 38.87447 ], [ -77.209, 38.87383 ], [ -77.20865, 38.87429 ] ], [ [ -77.20214, 38.86788 ], [ -77.20226, 38.86685 ], [ -77.20212, 38.8673 ], [ -77.20214, 38.86788 ] ], [ [ -77.20484, 38.86994 ], [ -77.20491, 38.86985 ], [ -77.20484, 38.86972 ], [ -77.20484, 38.86994 ] ], [ [ -77.2006, 38.86753 ], [ -77.20061, 38.86747 ], [ -77.20058, 38.86758 ], [ -77.2006, 38.86753 ] ] ] } },
{ "type": "Feature", "properties": { "variant": "T2s", "miles": 1.5 }, "geometry": { "type": "MultiPolygon", "coordinates": [ [ [ [ -77.21487, 38.86735 ], [ -77.21793, 38.8691 ], [ -77.21826, 38.87176 ], [ -77.21877, 38.87192 ], [ -77.21899, 38.87123 ], [ -77.21997, 38.87124 ], [ -77.2199, 38.87359 ], [ -77.21836, 38.87356 ], [ -77.21796, 38.87282 ], [ -77.21688, 38.87336 ], [ -77.21764, 38.87518 ], [ -77.21963, 38.87548 ], [ -77.21956, 38.87624 ], [ -77.21229, 38.87557 ], [ -77.21179, 38.87518 ], [ -77.20526, 38.87566 ], [ -77.20487, 38.87117 ], [ -77.2057, 38.87076 ], [ -77.20485, 38.87054 ], [ -77.20452, 38.87181 ], [ -77.20309, 38.87181 ], [ -77.20232, 38.87125 ], [ -77.20234, 38.87192 ], [ -77.20329, 38.87192 ], [ -77.2035, 38.8723 ], [ -77.20352, 38.87361 ], [ -77.20333, 38.87399 ], [ -77.2024, 38.87402 ], [ -77.20223, 38.87592 ], [ -77.19655, 38.87681 ], [ -77.19263, 38.87793 ], [ -77.19187, 38.8783 ], [ -77.19144, 38.8791 ], [ -77.19052, 38.87855 ], [ -77.1877, 38.8793 ], [ -77.18689, 38.87887 ], [ -77.18755, 38.87762 ], [ -77.18867, 38.87709 ], [ -77.18938, 38.87536 ], [ -77.1892, 38.87467 ], [ -77.18989, 38.87438 ], [ -77.18991, 38.87326 ], [ -77.19089, 38.87317 ], [ -77.19114, 38.87353 ], [ -77.19235, 38.87687 ], [ -77.19309, 38.87671 ], [ -77.19284, 38.87544 ], [ -77.19325, 38.8747 ], [ -77.19403, 38.87438 ], [ -77.1951, 38.87451 ], [ -77.19473, 38.8725 ], [ -77.1952, 38.87097 ], [ -77.19167, 38.87138 ], [ -77.19116, 38.87127 ], [ -77.19104, 38.87051 ], [ -77.19757, 38.86965 ], [ -77.19565, 38.86974 ], [ -77.1949, 38.86926 ], [ -77.19505, 38.86886 ], [ -77.19647, 38.86859 ], [ -77.19579, 38.867 ], [ -77.19491, 38.86863 ], [ -77.19448, 38.86887 ], [ -77.19264, 38.86845 ], [ -77.19158, 38.86934 ], [ -77.19066, 38.86906 ], [ -77.19125, 38.86789 ], [ -77.191, 38.8677 ], [ -77.18913, 38.86801 ], [ -77.18831, 38.8676 ], [ -77.18884, 38.86695 ], [ -77.19145, 38.86651 ], [ -77.191, 38.86616 ], [ -77.19103, 38.8654 ], [ -77.19166, 38.86477 ], [ -77.1924, 38.86497 ], [ -77.19237, 38.86466 ], [ -77.19106, 38.86438 ], [ -77.19109, 38.86321 ], [ -77.19189, 38.86257 ], [ -77.19348, 38.86246 ], [ -77.19366, 38.86163 ], [ -77.19463, 38.86161 ], [ -77.19549, 38.86295 ], [ -77.19492, 38.86348 ], [ -77.19553, 38.86547 ], [ -77.19655, 38.8654 ], [ -77.19668, 38.86382 ], [ -77.19933, 38.86368 ], [ -77.19997, 38.8641 ], [ -77.20002, 38.86533 ], [ -77.20082, 38.86561 ], [ -77.21095, 38.86568 ], [ -77.21192, 38.86598 ], [ -77.21311, 38.86719 ], [ -77.21309, 38.86607 ], [ -77.21393, 38.8655 ], [ -77.21462, 38.86605 ], [ -77.21487, 38.86735 ] ], [ [ -77.20725, 38.8746 ], [ -77.20705, 38.8746 ], [ -77.20637, 38.87466 ], [ -77.20725, 38.8746 ] ], [ [ -77.19969, 38.87103 ], [ -77.1997, 38.87259 ], [ -77.1998, 38.87258 ], [ -77.19969, 38.87103 ] ], [ [ -77.19969, 38.86966 ], [ -77.19828, 38.86998 ], [ -77.19842, 38.87027 ], [ -77.19969, 38.86966 ] ], [ [ -77.20058, 38.86758 ], [ -77.2006, 38.86753 ], [ -77.20061, 38.86747 ], [ -77.20058, 38.86758 ] ], [ [ -77.21364, 38.87286 ], [ -77.21504, 38.87203 ], [ -77.21592, 38.87241 ], [ -77.21662, 38.87178 ], [ -77.21632, 38.86951 ], [ -77.21526, 38.86906 ], [ -77.21413, 38.8691 ], [ -77.21317, 38.86836 ], [ -77.21191, 38.86803 ], [ -77.21102, 38.8668 ], [ -77.20753, 38.86676 ], [ -77.20752, 38.86833 ], [ -77.20823, 38.86885 ], [ -77.20723, 38.87009 ], [ -77.20847, 38.86964 ], [ -77.20888, 38.86991 ], [ -77.20869, 38.87094 ], [ -77.21005, 38.87094 ], [ -77.21045, 38.86967 ], [ -77.21251, 38.8693 ], [ -77.21332, 38.87074 ], [ -77.21401, 38.87114 ], [ -77.21364, 38.87286 ] ], [ [ -77.20609, 38.86925 ], [ -77.2061, 38.86888 ], [ -77.20603, 38.86888 ], [ -77.20609, 38.86925 ] ], [ [ -77.20617, 38.8677 ], [ -77.20618, 38.8675 ], [ -77.20605, 38.8678 ], [ -77.20617, 38.8677 ] ], [ [ -77.20462, 38.86681 ], [ -77.20478, 38.86733 ], [ -77.20545, 38.8669 ], [ -77.20617, 38.86731 ], [ -77.20615, 38.86679 ], [ -77.20462, 38.86681 ] ], [ [ -77.20982, 38.87203 ], [ -77.20783, 38.87257 ], [ -77.20786, 38.87322 ], [ -77.20863, 38.87259 ], [ -77.21007, 38.87244 ], [ -77.20982, 38.87203 ] ], [ [ -77.21288, 38.87455 ], [ -77.21278, 38.87372 ], [ -77.21233, 38.87454 ], [ -77.21288, 38.87455 ] ], [ [ -77.209, 38.87387 ], [ -77.20865, 38.87429 ], [ -77.20863, 38.8745 ], [ -77.20905, 38.87447 ], [ -77.209, 38.87387 ] ], [ [ -77.21147, 38.87199 ], [ -77.21141, 38.87282 ], [ -77.21125, 38.87309 ], [ -77.21153, 38.8731 ], [ -77.21147, 38.87199 ] ], [ [ -77.20209, 38.86685 ], [ -77.20214, 38.86788 ], [ -77.20226, 38.86685 ], [ -77.20209, 38.86685 ] ], [ [ -77.20484, 38.86994 ], [ -77.20491, 38.86985 ], [ -77.20484, 38.86972 ], [ -77.20484, 38.86994 ] ], [ [ -77.20635, 38.87157 ], [ -77.20633, 38.87153 ], [ -77.20633, 38.87157 ], [ -77.20635, 38.87157 ] ], [ [ -77.20649, 38.87356 ], [ -77.20635, 38.87267 ], [ -77.20637, 38.87356 ], [ -77.20649, 38.87356 ] ], [ [ -77.19595, 38.87614 ], [ -77.19892, 38.87525 ], [ -77.19889, 38.87472 ], [ -77.19764, 38.87499 ], [ -77.19758, 38.8754 ], [ -77.19663, 38.8756 ], [ -77.19595, 38.87614 ] ], [ [ -77.19375, 38.86458 ], [ -77.19417, 38.86564 ], [ -77.19389, 38.86456 ], [ -77.19375, 38.86458 ] ], [ [ -77.19868, 38.86691 ], [ -77.19863, 38.86711 ], [ -77.19896, 38.8669 ], [ -77.19868, 38.86691 ] ], [ [ -77.19868, 38.8735 ], [ -77.19864, 38.87365 ], [ -77.19885, 38.8736 ], [ -77.19868, 38.8735 ] ], [ [ -77.19831, 38.87249 ], [ -77.19828, 38.87253 ], [ -77.19832, 38.87255 ], [ -77.19831, 38.87249 ] ], [ [ -77.19242, 38.86358 ], [ -77.19274, 38.86358 ], [ -77.19329, 38.86355 ], [ -77.19242, 38.86358 ] ], [ [ -77.19536, 38.8746 ], [ -77.19527, 38.87459 ], [ -77.19532, 38.87465 ], [ -77.19536, 38.8746 ] ], [ [ -77.19102, 38.87715 ], [ -77.19054, 38.87602 ], [ -77.19015, 38.87734 ], [ -77.19102, 38.87715 ] ] ], [ [ [ -77.2259, 38.87239 ], [ -77.22465, 38.87401 ], [ -77.2233, 38.87429 ], [ -77.22272, 38.87406 ], [ -77.22259, 38.87366 ], [ -77.22442, 38.87228 ], [ -77.22438, 38.87158 ], [ -77.2248, 38.87133 ], [ -77.22533, 38.87138 ], [ -77.2259, 38.87239 ] ] ], [ [ [ -77.22706, 38.87342 ], [ -77.22754, 38.87378 ], [ -77.22893, 38.87373 ], [ -77.22911, 38.87448 ], [ -77.22708, 38.87584 ], [ -77.22644, 38.87535 ], [ -77.22529, 38.87544 ], [ -77.22492, 38.87441 ], [ -77.22706, 38.87342 ] ] ] ] } }
]
}
