{
"type": "FeatureCollection",
"name": "86",
"crs": { "type": "name", "properties": { "name": "urn:ogc:def:crs:OGC:1.3:CRS84" } },
"xy_coordinate_resolution": 1e-05,
"features": [
{ "type": "Feature", "properties": { "variant": "T0", "miles": 0.5 }, "geometry": { "type": "Polygon", "coordinates": [ [ [ -77.23015, 38.84345 ], [ -77.22973, 38.84399 ], [ -77.23066, 38.84439 ], [ -77.23103, 38.84519 ], [ -77.23189, 38.84515 ], [ -77.23221, 38.84588 ], [ -77.22901, 38.8469 ], [ -77.22832, 38.84834 ], [ -77.22938, 38.8486 ], [ -77.23246, 38.8481 ], [ -77.23365, 38.84895 ], [ -77.23367, 38.84971 ], [ -77.23247, 38.8496 ], [ -77.23081, 38.85057 ], [ -77.22571, 38.85072 ], [ -77.22562, 38.84996 ], [ -77.22649, 38.84974 ], [ -77.22658, 38.84931 ], [ -77.22531, 38.84924 ], [ -77.22506, 38.84888 ], [ -77.22565, 38.84831 ], [ -77.22547, 38.84714 ], [ -77.22337, 38.8479 ], [ -77.22268, 38.84736 ], [ -77.22319, 38.84677 ], [ -77.22522, 38.84591 ], [ -77.22221, 38.8463 ], [ -77.22153, 38.84574 ], [ -77.22175, 38.84537 ], [ -77.22352, 38.84455 ], [ -77.2246, 38.84494 ], [ -77.22785, 38.8425 ], [ -77.22925, 38.8426 ], [ -77.23015, 38.84345 ] ], [ [ -77.22692, 38.84649 ], [ -77.22691, 38.8465 ], [ -77.22692, 38.8465 ], [ -77.22692, 38.84649 ] ], [ [ -77.22748, 38.84603 ], [ -77.22746, 38.84602 ], [ -77.22743, 38.84604 ], [ -77.22748, 38.84603 ] ], [ [ -77.22741, 38.84426 ], [ -77.22772, 38.84401 ], [ -77.22836, 38.84352 ], [ -77.22806, 38.84361 ], [ -77.22741, 38.84426 ] ], [ [ -77.22879, 38.84546 ], [ -77.22871, 38.84577 ], [ -77.22904, 38.84565 ], [ -77.22879, 38.84546 ] ], [ [ -77.22638, 38.8453 ], [ -77.22643, 38.84529 ], [ -77.22648, 38.84524 ], [ -77.22638, 38.8453 ] ] ] } },
{ "type": "Feature", "properties": { "variant": "T0", "miles": 1.0 }, "geometry": { "type": "Polygon", "coordinates": [ [ [ -77.23604, 38.8423 ], [ -77.23495, 38.8434 ], [ -77.23325, 38.84338 ], [ -77.23169, 38.8425 ], [ -77.23149, 38.84265 ], [ -77.23379, 38.84412 ], [ -77.23466, 38.8464 ], [ -77.23426, 38.84667 ], [ -77.23348, 38.8465 ], [ -77.23261, 38.84469 ], [ -77.23144, 38.84392 ], [ -77.2309, 38.8447 ], [ -77.23159, 38.84459 ], [ -77.23262, 38.84561 ], [ -77.232, 38.84609 ], [ -77.22901, 38.8469 ], [ -77.22832, 38.84834 ], [ -77.22916, 38.8486 ], [ -77.23019, 38.84842 ], [ -77.22915, 38.84846 ], [ -77.22883, 38.84813 ], [ -77.22889, 38.84772 ], [ -77.22969, 38.84739 ], [ -77.23294, 38.84686 ], [ -77.23445, 38.84729 ], [ -77.23564, 38.84705 ], [ -77.23706, 38.8458 ], [ -77.23648, 38.84515 ], [ -77.23665, 38.84394 ], [ -77.23757, 38.84348 ], [ -77.23804, 38.84367 ], [ -77.23784, 38.84491 ], [ -77.23871, 38.8456 ], [ -77.23859, 38.846 ], [ -77.23662, 38.84782 ], [ -77.23479, 38.84834 ], [ -77.23439, 38.84899 ], [ -77.23761, 38.84846 ], [ -77.23804, 38.8487 ], [ -77.23775, 38.84948 ], [ -77.23535, 38.84992 ], [ -77.23569, 38.85084 ], [ -77.23607, 38.8501 ], [ -77.23658, 38.85001 ], [ -77.23725, 38.85062 ], [ -77.23718, 38.85164 ], [ -77.23597, 38.8519 ], [ -77.23595, 38.85413 ], [ -77.23477, 38.85435 ], [ -77.2331, 38.85571 ], [ -77.2324, 38.85518 ], [ -77.23145, 38.8552 ], [ -77.23123, 38.85477 ], [ -77.23056, 38.85495 ], [ -77.23105, 38.85551 ], [ -77.23038, 38.85607 ], [ -77.22941, 38.85593 ], [ -77.22917, 38.85485 ], [ -77.22761, 38.85482 ], [ -77.22753, 38.85405 ], [ -77.23012, 38.85369 ], [ -77.23138, 38.85039 ], [ -77.22571, 38.85072 ], [ -77.22562, 38.84996 ], [ -77.22649, 38.84974 ], [ -77.22658, 38.84931 ], [ -77.22531, 38.84924 ], [ -77.22506, 38.84888 ], [ -77.22565, 38.84831 ], [ -77.22547, 38.84714 ], [ -77.22387, 38.84774 ], [ -77.22277, 38.84939 ], [ -77.22316, 38.85236 ], [ -77.22301, 38.85276 ], [ -77.22204, 38.85283 ], [ -77.22085, 38.84771 ], [ -77.22183, 38.84642 ], [ -77.22344, 38.84664 ], [ -77.22528, 38.846 ], [ -77.22221, 38.8463 ], [ -77.22153, 38.84574 ], [ -77.22352, 38.84455 ], [ -77.2243, 38.84505 ], [ -77.22477, 38.84485 ], [ -77.22329, 38.84373 ], [ -77.22385, 38.8431 ], [ -77.22498, 38.84369 ], [ -77.22758, 38.84176 ], [ -77.23068, 38.84177 ], [ -77.22951, 38.84066 ], [ -77.23018, 38.84006 ], [ -77.22877, 38.83946 ], [ -77.2291, 38.83839 ], [ -77.22999, 38.83808 ], [ -77.23038, 38.83869 ], [ -77.2309, 38.83862 ], [ -77.23239, 38.83967 ], [ -77.23261, 38.84169 ], [ -77.23337, 38.84094 ], [ -77.23517, 38.84061 ], [ -77.23599, 38.84102 ], [ -77.23604, 38.8423 ] ], [ [ -77.23109, 38.84047 ], [ -77.23133, 38.84073 ], [ -77.2312, 38.84039 ], [ -77.23082, 38.84027 ], [ -77.23109, 38.84047 ] ], [ [ -77.23258, 38.85222 ], [ -77.23212, 38.85226 ], [ -77.23166, 38.85346 ], [ -77.23263, 38.85341 ], [ -77.23258, 38.85222 ] ], [ [ -77.23253, 38.85113 ], [ -77.23256, 38.85113 ], [ -77.23256, 38.85105 ], [ -77.23253, 38.85113 ] ], [ [ -77.23313, 38.84794 ], [ -77.23124, 38.84825 ], [ -77.23246, 38.8481 ], [ -77.23306, 38.84862 ], [ -77.23313, 38.84794 ] ], [ [ -77.23394, 38.851 ], [ -77.2343, 38.85097 ], [ -77.23418, 38.85064 ], [ -77.23394, 38.851 ] ], [ [ -77.23383, 38.84958 ], [ -77.23385, 38.84958 ], [ -77.23385, 38.84957 ], [ -77.23383, 38.84958 ] ], [ [ -77.23401, 38.85332 ], [ -77.23471, 38.85327 ], [ -77.2346, 38.85203 ], [ -77.23396, 38.85209 ], [ -77.23401, 38.85332 ] ], [ [ -77.22692, 38.8465 ], [ -77.22692, 38.84649 ], [ -77.22691, 38.8465 ], [ -77.22692, 38.8465 ] ], [ [ -77.22743, 38.84604 ], [ -77.22748, 38.84603 ], [ -77.22746, 38.84602 ], [ -77.22743, 38.84604 ] ], [ [ -77.22904, 38.84565 ], [ -77.22862, 38.84543 ], [ -77.22871, 38.84577 ], [ -77.22904, 38.84565 ] ], [ [ -77.22772, 38.84401 ], [ -77.22836, 38.84352 ], [ -77.22806, 38.84361 ], [ -77.22741, 38.84425 ], [ -77.22772, 38.84401 ] ], [ [ -77.22241, 38.84754 ], [ -77.22248, 38.84742 ], [ -77.22247, 38.84741 ], [ -77.22241, 38.84754 ] ] ] } },
{ "type": "Feature", "properties": { "variant": "T0", "miles": 1.5 }, "geometry": { "type": "Polygon", "coordinates": [ [ [ -77.24077, 38.83699 ], [ -77.24202, 38.83829 ], [ -77.24144, 38.83896 ], [ -77.2407, 38.83897 ], [ -77.23905, 38.84116 ], [ -77.24082, 38.84196 ], [ -77.2418, 38.84102 ], [ -77.24364, 38.84071 ], [ -77.24582, 38.84077 ], [ -77.24646, 38.84135 ], [ -77.24571, 38.84185 ], [ -77.24252, 38.84195 ], [ -77.24051, 38.84416 ], [ -77.23927, 38.84489 ], [ -77.23799, 38.84666 ], [ -77.23642, 38.84794 ], [ -77.23479, 38.84834 ], [ -77.23439, 38.84899 ], [ -77.23761, 38.84846 ], [ -77.23804, 38.8487 ], [ -77.23775, 38.84948 ], [ -77.23535, 38.84992 ], [ -77.23569, 38.85084 ], [ -77.23607, 38.8501 ], [ -77.23658, 38.85001 ], [ -77.23725, 38.85062 ], [ -77.23744, 38.85243 ], [ -77.23818, 38.8522 ], [ -77.24104, 38.85309 ], [ -77.24134, 38.85343 ], [ -77.24084, 38.85407 ], [ -77.24154, 38.85527 ], [ -77.24118, 38.8565 ], [ -77.23871, 38.85688 ], [ -77.23845, 38.85714 ], [ -77.23917, 38.85699 ], [ -77.23954, 38.85729 ], [ -77.23948, 38.8578 ], [ -77.23871, 38.85825 ], [ -77.2377, 38.85809 ], [ -77.23741, 38.85871 ], [ -77.23615, 38.85873 ], [ -77.23554, 38.85826 ], [ -77.23452, 38.85895 ], [ -77.23469, 38.85958 ], [ -77.23325, 38.86029 ], [ -77.23212, 38.8599 ], [ -77.23213, 38.85866 ], [ -77.23353, 38.85765 ], [ -77.23353, 38.85695 ], [ -77.23225, 38.85716 ], [ -77.23253, 38.85782 ], [ -77.2318, 38.8583 ], [ -77.23173, 38.85947 ], [ -77.2313, 38.85972 ], [ -77.23049, 38.85935 ], [ -77.22715, 38.85939 ], [ -77.22706, 38.86 ], [ -77.22599, 38.86007 ], [ -77.22407, 38.85632 ], [ -77.21981, 38.85443 ], [ -77.21879, 38.85453 ], [ -77.2184, 38.85359 ], [ -77.21728, 38.85297 ], [ -77.21735, 38.85244 ], [ -77.21825, 38.85215 ], [ -77.22201, 38.8541 ], [ -77.22146, 38.84906 ], [ -77.22085, 38.84851 ], [ -77.22082, 38.84777 ], [ -77.22183, 38.84642 ], [ -77.22344, 38.84664 ], [ -77.22528, 38.846 ], [ -77.22172, 38.84613 ], [ -77.22175, 38.84537 ], [ -77.2226, 38.84492 ], [ -77.22352, 38.84455 ], [ -77.2243, 38.84505 ], [ -77.22477, 38.84485 ], [ -77.22361, 38.8441 ], [ -77.22212, 38.84428 ], [ -77.2213, 38.8439 ], [ -77.22083, 38.84028 ], [ -77.22141, 38.83967 ], [ -77.22245, 38.84041 ], [ -77.2225, 38.84313 ], [ -77.22397, 38.84305 ], [ -77.22498, 38.84369 ], [ -77.22483, 38.84273 ], [ -77.22616, 38.84153 ], [ -77.22547, 38.83748 ], [ -77.22208, 38.83732 ], [ -77.22144, 38.83675 ], [ -77.22217, 38.83625 ], [ -77.22334, 38.83625 ], [ -77.22356, 38.83475 ], [ -77.22813, 38.83525 ], [ -77.22924, 38.83427 ], [ -77.22985, 38.83502 ], [ -77.23053, 38.83507 ], [ -77.23009, 38.83439 ], [ -77.22742, 38.83351 ], [ -77.22777, 38.8328 ], [ -77.22949, 38.83309 ], [ -77.22893, 38.8315 ], [ -77.22942, 38.83083 ], [ -77.22994, 38.83088 ], [ -77.23043, 38.83169 ], [ -77.2322, 38.83187 ], [ -77.23218, 38.83263 ], [ -77.23081, 38.83277 ], [ -77.23173, 38.83426 ], [ -77.23331, 38.8344 ], [ -77.2334, 38.83481 ], [ -77.23257, 38.83533 ], [ -77.23432, 38.8356 ], [ -77.23442, 38.83467 ], [ -77.23534, 38.83441 ], [ -77.23624, 38.8359 ], [ -77.23902, 38.83631 ], [ -77.24077, 38.83699 ] ], [ [ -77.23123, 38.85477 ], [ -77.23056, 38.85495 ], [ -77.23102, 38.85556 ], [ -77.23185, 38.85561 ], [ -77.23242, 38.85607 ], [ -77.23123, 38.85477 ] ], [ [ -77.23263, 38.85341 ], [ -77.23258, 38.85222 ], [ -77.23212, 38.85226 ], [ -77.23166, 38.85346 ], [ -77.23263, 38.85341 ] ], [ [ -77.23138, 38.85039 ], [ -77.22628, 38.85084 ], [ -77.22686, 38.85394 ], [ -77.23012, 38.85369 ], [ -77.23138, 38.85039 ] ], [ [ -77.22915, 38.84846 ], [ -77.22889, 38.84772 ], [ -77.23294, 38.84686 ], [ -77.23445, 38.84729 ], [ -77.23562, 38.84706 ], [ -77.23615, 38.84661 ], [ -77.23363, 38.84659 ], [ -77.23261, 38.84469 ], [ -77.23144, 38.84392 ], [ -77.2309, 38.8447 ], [ -77.23159, 38.84459 ], [ -77.23262, 38.84561 ], [ -77.23198, 38.8461 ], [ -77.22916, 38.84681 ], [ -77.22838, 38.84773 ], [ -77.22832, 38.84834 ], [ -77.22916, 38.8486 ], [ -77.23, 38.84845 ], [ -77.22915, 38.84846 ] ], [ [ -77.22951, 38.84066 ], [ -77.23018, 38.84006 ], [ -77.22733, 38.84042 ], [ -77.22761, 38.84175 ], [ -77.23068, 38.84177 ], [ -77.22951, 38.84066 ] ], [ [ -77.23127, 38.83676 ], [ -77.22776, 38.83643 ], [ -77.22783, 38.83773 ], [ -77.22686, 38.83805 ], [ -77.22687, 38.83837 ], [ -77.22908, 38.83841 ], [ -77.22999, 38.83808 ], [ -77.23038, 38.83869 ], [ -77.23134, 38.83885 ], [ -77.23144, 38.83929 ], [ -77.23127, 38.83676 ] ], [ [ -77.23664, 38.85443 ], [ -77.23661, 38.85545 ], [ -77.23677, 38.85543 ], [ -77.23664, 38.85443 ] ], [ [ -77.23651, 38.85423 ], [ -77.23631, 38.85423 ], [ -77.2366, 38.85437 ], [ -77.23651, 38.85423 ] ], [ [ -77.23401, 38.85332 ], [ -77.23471, 38.85327 ], [ -77.2346, 38.85203 ], [ -77.23396, 38.85209 ], [ -77.23401, 38.85332 ] ], [ [ -77.23392, 38.85067 ], [ -77.23394, 38.851 ], [ -77.2343, 38.85097 ], [ -77.23392, 38.85067 ] ], [ [ -77.23313, 38.84794 ], [ -77.23124, 38.84825 ], [ -77.23246, 38.8481 ], [ -77.23306, 38.84862 ], [ -77.23313, 38.84794 ] ], [ [ -77.23668, 38.84552 ], [ -77.23675, 38.84382 ], [ -77.23757, 38.84348 ], [ -77.23804, 38.84367 ], [ -77.23784, 38.8447 ], [ -77.24001, 38.84284 ], [ -77.23742, 38.84323 ], [ -77.23695, 38.84252 ], [ -77.23751, 38.84221 ], [ -77.23616, 38.84181 ], [ -77.23541, 38.84314 ], [ -77.23431, 38.84348 ], [ -77.2329, 38.84327 ], [ -77.23169, 38.8425 ], [ -77.23372, 38.84404 ], [ -77.23463, 38.84568 ], [ -77.23668, 38.84552 ] ], [ [ -77.23269, 38.84154 ], [ -77.23261, 38.84169 ], [ -77.23283, 38.84151 ], [ -77.23269, 38.84154 ] ], [ [ -77.23743, 38.8399 ], [ -77.23817, 38.83854 ], [ -77.23764, 38.83795 ], [ -77.2378, 38.83755 ], [ -77.23592, 38.83724 ], [ -77.23603, 38.83837 ], [ -77.23721, 38.83964 ], [ -77.23634, 38.83999 ], [ -77.2352, 38.83938 ], [ -77.23504, 38.84064 ], [ -77.23763, 38.84091 ], [ -77.23743, 38.8399 ] ], [ [ -77.23879, 38.83954 ], [ -77.23875, 38.83954 ], [ -77.23877, 38.83957 ], [ -77.23879, 38.83954 ] ], [ [ -77.2361, 38.85274 ], [ -77.23597, 38.8519 ], [ -77.23609, 38.85316 ], [ -77.2361, 38.85274 ] ], [ [ -77.23869, 38.85447 ], [ -77.23908, 38.85491 ], [ -77.23859, 38.85393 ], [ -77.238, 38.85404 ], [ -77.23869, 38.85447 ] ], [ [ -77.23385, 38.84958 ], [ -77.23385, 38.84957 ], [ -77.23383, 38.84958 ], [ -77.23385, 38.84958 ] ], [ [ -77.23366, 38.83691 ], [ -77.23376, 38.83677 ], [ -77.23362, 38.83676 ], [ -77.23366, 38.83691 ] ], [ [ -77.23377, 38.855 ], [ -77.23378, 38.85516 ], [ -77.23423, 38.85508 ], [ -77.23377, 38.855 ] ], [ [ -77.23608, 38.8572 ], [ -77.23599, 38.85764 ], [ -77.23633, 38.85765 ], [ -77.23608, 38.8572 ] ], [ [ -77.23548, 38.85787 ], [ -77.23555, 38.85799 ], [ -77.23561, 38.85786 ], [ -77.23548, 38.85787 ] ], [ [ -77.23256, 38.85113 ], [ -77.23256, 38.85105 ], [ -77.23253, 38.85113 ], [ -77.23256, 38.85113 ] ], [ [ -77.23112, 38.84036 ], [ -77.23077, 38.84024 ], [ -77.23133, 38.84073 ], [ -77.23112, 38.84036 ] ], [ [ -77.22611, 38.84977 ], [ -77.22649, 38.84974 ], [ -77.22658, 38.84931 ], [ -77.22611, 38.84977 ] ], [ [ -77.22565, 38.84831 ], [ -77.22547, 38.84714 ], [ -77.22376, 38.84785 ], [ -77.22277, 38.84939 ], [ -77.22286, 38.85007 ], [ -77.22479, 38.84935 ], [ -77.22565, 38.84831 ] ], [ [ -77.22692, 38.84649 ], [ -77.22691, 38.8465 ], [ -77.22692, 38.8465 ], [ -77.22692, 38.84649 ] ], [ [ -77.22748, 38.84603 ], [ -77.22746, 38.84602 ], [ -77.22743, 38.84604 ], [ -77.22748, 38.84603 ] ], [ [ -77.22772, 38.844 ], [ -77.22836, 38.84352 ], [ -77.22806, 38.84361 ], [ -77.22746, 38.84421 ], [ -77.22772, 38.844 ] ], [ [ -77.22904, 38.84565 ], [ -77.22862, 38.84543 ], [ -77.22876, 38.84561 ], [ -77.22904, 38.84565 ] ], [ [ -77.22613, 38.83646 ], [ -77.2263, 38.83649 ], [ -77.2249, 38.83608 ], [ -77.22613, 38.83646 ] ], [ [ -77.22638, 38.8453 ], [ -77.22639, 38.84533 ], [ -77.22643, 38.84529 ], [ -77.22638, 38.8453 ] ], [ [ -77.22851, 38.85737 ], [ -77.22693, 38.85675 ], [ -77.22672, 38.85831 ], [ -77.23041, 38.85827 ], [ -77.23037, 38.85741 ], [ -77.22851, 38.85737 ] ], [ [ -77.22708, 38.85531 ], [ -77.22745, 38.85564 ], [ -77.2274, 38.85499 ], [ -77.22697, 38.85502 ], [ -77.22708, 38.85531 ] ], [ [ -77.22919, 38.85614 ], [ -77.22917, 38.85485 ], [ -77.22916, 38.8552 ], [ -77.22919, 38.85614 ] ], [ [ -77.23067, 38.85608 ], [ -77.23069, 38.85596 ], [ -77.23059, 38.85599 ], [ -77.23067, 38.85608 ] ], [ [ -77.22559, 38.85512 ], [ -77.22476, 38.85517 ], [ -77.22583, 38.85608 ], [ -77.22559, 38.85512 ] ], [ [ -77.22548, 38.85405 ], [ -77.2254, 38.85355 ], [ -77.22335, 38.85369 ], [ -77.22341, 38.85418 ], [ -77.22548, 38.85405 ] ], [ [ -77.22401, 38.85106 ], [ -77.2239, 38.85107 ], [ -77.22397, 38.85118 ], [ -77.22401, 38.85106 ] ] ] } },
{ "type": "Feature", "properties": { "variant": "T2s", "miles": 0.5 }, "geometry": { "type": "Polygon", "coordinates": [ [ [ -77.23015, 38.84345 ], [ -77.22973, 38.84399 ], [ -77.23066, 38.84439 ], [ -77.23103, 38.84519 ], [ -77.23189, 38.84515 ], [ -77.23221, 38.84588 ], [ -77.22901, 38.8469 ], [ -77.22832, 38.84834 ], [ -77.22938, 38.8486 ], [ -77.23246, 38.8481 ], [ -77.23365, 38.84895 ], [ -77.23367, 38.84971 ], [ -77.23247, 38.8496 ], [ -77.23081, 38.85057 ], [ -77.22571, 38.85072 ], [ -77.22562, 38.84996 ], [ -77.22649, 38.84974 ], [ -77.22658, 38.84931 ], [ -77.22531, 38.84924 ], [ -77.22506, 38.84888 ], [ -77.22565, 38.84831 ], [ -77.22547, 38.84714 ], [ -77.22337, 38.8479 ], [ -77.22268, 38.84736 ], [ -77.22319, 38.84677 ], [ -77.22522, 38.84591 ], [ -77.22221, 38.8463 ], [ -77.22153, 38.84574 ], [ -77.22175, 38.84537 ], [ -77.22352, 38.84455 ], [ -77.2246, 38.84494 ], [ -77.22785, 38.8425 ], [ -77.22925, 38.8426 ], [ -77.23015, 38.84345 ] ], [ [ -77.22692, 38.84649 ], [ -77.22691, 38.8465 ], [ -77.22692, 38.8465 ], [ -77.22692, 38.84649 ] ], [ [ -77.22748, 38.84603 ], [ -77.22746, 38.84602 ], [ -77.22743, 38.84604 ], [ -77.22748, 38.84603 ] ], [ [ -77.22741, 38.84426 ], [ -77.22772, 38.84401 ], [ -77.22836, 38.84352 ], [ -77.22806, 38.84361 ], [ -77.22741, 38.84426 ] ], [ [ -77.22879, 38.84546 ], [ -77.22871, 38.84577 ], [ -77.22904, 38.84565 ], [ -77.22879, 38.84546 ] ], [ [ -77.22638, 38.8453 ], [ -77.22643, 38.84529 ], [ -77.22648, 38.84524 ], [ -77.22638, 38.8453 ] ] ] } },
{ "type": "Feature", "properties": { "variant": "T2s", "miles": 1.0 }, "geometry": { "type": "Polygon", "coordinates": [ [ [ -77.23604, 38.8423 ], [ -77.23495, 38.8434 ], [ -77.23325, 38.84338 ], [ -77.23169, 38.8425 ], [ -77.23149, 38.84265 ], [ -77.23379, 38.84412 ], [ -77.23466, 38.8464 ], [ -77.23426, 38.84667 ], [ -77.23348, 38.8465 ], [ -77.23261, 38.84469 ], [ -77.23144, 38.84392 ], [ -77.2309, 38.8447 ], [ -77.23159, 38.84459 ], [ -77.23262, 38.84561 ], [ -77.232, 38.84609 ], [ -77.22901, 38.8469 ], [ -77.22832, 38.84834 ], [ -77.22916, 38.8486 ], [ -77.23019, 38.84842 ], [ -77.22915, 38.84846 ], [ -77.22883, 38.84813 ], [ -77.22889, 38.84772 ], [ -77.22969, 38.84739 ], [ -77.23294, 38.84686 ], [ -77.23445, 38.84729 ], [ -77.23564, 38.84705 ], [ -77.23706, 38.8458 ], [ -77.23648, 38.84515 ], [ -77.23665, 38.84394 ], [ -77.23757, 38.84348 ], [ -77.23804, 38.84367 ], [ -77.23784, 38.84491 ], [ -77.23871, 38.8456 ], [ -77.23859, 38.846 ], [ -77.23662, 38.84782 ], [ -77.23479, 38.84834 ], [ -77.23439, 38.84899 ], [ -77.23761, 38.84846 ], [ -77.23804, 38.8487 ], [ -77.23775, 38.84948 ], [ -77.23535, 38.84992 ], [ -77.23569, 38.85084 ], [ -77.23607, 38.8501 ], [ -77.23658, 38.85001 ], [ -77.23725, 38.85062 ], [ -77.23718, 38.85164 ], [ -77.23597, 38.8519 ], [ -77.23595, 38.85413 ], [ -77.23477, 38.85435 ], [ -77.2331, 38.85571 ], [ -77.2324, 38.85518 ], [ -77.23145, 38.8552 ], [ -77.23123, 38.85477 ], [ -77.23056, 38.85495 ], [ -77.23105, 38.85551 ], [ -77.23038, 38.85607 ], [ -77.22941, 38.85593 ], [ -77.22917, 38.85485 ], [ -77.22761, 38.85482 ], [ -77.22753, 38.85405 ], [ -77.23012, 38.85369 ], [ -77.23138, 38.85039 ], [ -77.22571, 38.85072 ], [ -77.22562, 38.84996 ], [ -77.22649, 38.84974 ], [ -77.22658, 38.84931 ], [ -77.22531, 38.84924 ], [ -77.22506, 38.84888 ], [ -77.22565, 38.84831 ], [ -77.22547, 38.84714 ], [ -77.22387, 38.84774 ], [ -77.22277, 38.84939 ], [ -77.22316, 38.85236 ], [ -77.22301, 38.85276 ], [ -77.22204, 38.85283 ], [ -77.22085, 38.84771 ], [ -77.22183, 38.84642 ], [ -77.22344, 38.84664 ], [ -77.22528, 38.846 ], [ -77.22221, 38.8463 ], [ -77.22153, 38.84574 ], [ -77.22352, 38.84455 ], [ -77.2243, 38.84505 ], [ -77.22477, 38.84485 ], [ -77.22329, 38.84373 ], [ -77.22385, 38.8431 ], [ -77.22498, 38.84369 ], [ -77.22758, 38.84176 ], [ -77.23068, 38.84177 ], [ -77.22951, 38.84066 ], [ -77.23018, 38.84006 ], [ -77.22877, 38.83946 ], [ -77.2291, 38.83839 ], [ -77.22999, 38.83808 ], [ -77.23038, 38.83869 ], [ -77.2309, 38.83862 ], [ -77.23239, 38.83967 ], [ -77.23261, 38.84169 ], [ -77.23337, 38.84094 ], [ -77.23517, 38.84061 ], [ -77.23599, 38.84102 ], [ -77.23604, 38.8423 ] ], [ [ -77.23109, 38.84047 ], [ -77.23133, 38.84073 ], [ -77.2312, 38.84039 ], [ -77.23082, 38.84027 ], [ -77.23109, 38.84047 ] ], [ [ -77.23258, 38.85222 ], [ -77.23212, 38.85226 ], [ -77.23166, 38.85346 ], [ -77.23263, 38.85341 ], [ -77.23258, 38.85222 ] ], [ [ -77.23253, 38.85113 ], [ -77.23256, 38.85113 ], [ -77.23256, 38.85105 ], [ -77.23253, 38.85113 ] ], [ [ -77.23313, 38.84794 ], [ -77.23124, 38.84825 ], [ -77.23246, 38.8481 ], [ -77.23306, 38.84862 ], [ -77.23313, 38.84794 ] ], [ [ -77.23394, 38.851 ], [ -77.2343, 38.85097 ], [ -77.23418, 38.85064 ], [ -77.23394, 38.851 ] ], [ [ -77.23383, 38.84958 ], [ -77.23385, 38.84958 ], [ -77.23385, 38.84957 ], [ -77.23383, 38.84958 ] ], [ [ -77.23401, 38.85332 ], [ -77.23471, 38.85327 ], [ -77.2346, 38.85203 ], [ -77.23396, 38.85209 ], [ -77.23401, 38.85332 ] ], [ [ -77.22692, 38.8465 ], [ -77.22692, 38.84649 ], [ -77.22691, 38.8465 ], [ -77.22692, 38.8465 ] ], [ [ -77.22743, 38.84604 ], [ -77.22748, 38.84603 ], [ -77.22746, 38.84602 ], [ -77.22743, 38.84604 ] ], [ [ -77.22904, 38.84565 ], [ -77.22862, 38.84543 ], [ -77.22871, 38.84577 ], [ -77.22904, 38.84565 ] ], [ [ -77.22772, 38.84401 ], [ -77.22836, 38.84352 ], [ -77.22806, 38.84361 ], [ -77.22741, 38.84425 ], [ -77.22772, 38.84401 ] ], [ [ -77.22241, 38.84754 ], [ -77.22248, 38.84742 ], [ -77.22247, 38.84741 ], [ -77.22241, 38.84754 ] ] ] } },
{ "type": "Feature", "properties": { "variant": "T2s", "miles": 1.5 }, "geometry": { "type": "Polygon", "coordinates": [ [ [ -77.2384, 38.8364 ], [ -77.24077, 38.83699 ], [ -77.24202, 38.8384 ], [ -77.24144, 38.83896 ], [ -77.2407, 38.83897 ], [ -77.23905, 38.84116 ], [ -77.24082, 38.84196 ], [ -77.24227, 38.84088 ], [ -77.24455, 38.84071 ], [ -77.24522, 38.84127 ], [ -77.24451, 38.84179 ], [ -77.24252, 38.84195 ], [ -77.24051, 38.84416 ], [ -77.23927, 38.84489 ], [ -77.23799, 38.84666 ], [ -77.23642, 38.84794 ], [ -77.23479, 38.84834 ], [ -77.23439, 38.84899 ], [ -77.23761, 38.84846 ], [ -77.23804, 38.8487 ], [ -77.23775, 38.84948 ], [ -77.23535, 38.84992 ], [ -77.23569, 38.85084 ], [ -77.23607, 38.8501 ], [ -77.23658, 38.85001 ], [ -77.23725, 38.85062 ], [ -77.23744, 38.85243 ], [ -77.23818, 38.8522 ], [ -77.24104, 38.85309 ], [ -77.24134, 38.85343 ], [ -77.24084, 38.85407 ], [ -77.24154, 38.85527 ], [ -77.24118, 38.8565 ], [ -77.23871, 38.85688 ], [ -77.23845, 38.85714 ], [ -77.23917, 38.85699 ], [ -77.23954, 38.85729 ], [ -77.23948, 38.8578 ], [ -77.23871, 38.85825 ], [ -77.2377, 38.85809 ], [ -77.23741, 38.85871 ], [ -77.23615, 38.85873 ], [ -77.23554, 38.85826 ], [ -77.23452, 38.85895 ], [ -77.23469, 38.85958 ], [ -77.23325, 38.86029 ], [ -77.23212, 38.8599 ], [ -77.23213, 38.85866 ], [ -77.23353, 38.85765 ], [ -77.23353, 38.85695 ], [ -77.23225, 38.85716 ], [ -77.23253, 38.85782 ], [ -77.2318, 38.8583 ], [ -77.23173, 38.85947 ], [ -77.2313, 38.85972 ], [ -77.23049, 38.85935 ], [ -77.22715, 38.85939 ], [ -77.22706, 38.86 ], [ -77.22599, 38.86007 ], [ -77.22428, 38.85627 ], [ -77.21728, 38.85297 ], [ -77.21735, 38.85244 ], [ -77.21825, 38.85215 ], [ -77.22201, 38.8541 ], [ -77.22146, 38.84906 ], [ -77.22085, 38.84851 ], [ -77.22082, 38.84777 ], [ -77.22183, 38.84642 ], [ -77.22344, 38.84664 ], [ -77.22528, 38.846 ], [ -77.22172, 38.84613 ], [ -77.22175, 38.84537 ], [ -77.2226, 38.84492 ], [ -77.22352, 38.84455 ], [ -77.2243, 38.84505 ], [ -77.22477, 38.84485 ], [ -77.22361, 38.8441 ], [ -77.22212, 38.84428 ], [ -77.2213, 38.8439 ], [ -77.22083, 38.84028 ], [ -77.22141, 38.83967 ], [ -77.22245, 38.84041 ], [ -77.2225, 38.84313 ], [ -77.22397, 38.84305 ], [ -77.22498, 38.84369 ], [ -77.22483, 38.84273 ], [ -77.22616, 38.84153 ], [ -77.22547, 38.83748 ], [ -77.22208, 38.83732 ], [ -77.22144, 38.83675 ], [ -77.22217, 38.83625 ], [ -77.22334, 38.83625 ], [ -77.22351, 38.83518 ], [ -77.22399, 38.83501 ], [ -77.22471, 38.83553 ], [ -77.22472, 38.83629 ], [ -77.22672, 38.83676 ], [ -77.22687, 38.83837 ], [ -77.22908, 38.83841 ], [ -77.22999, 38.83808 ], [ -77.23038, 38.83869 ], [ -77.23134, 38.83885 ], [ -77.23144, 38.83929 ], [ -77.2313, 38.83622 ], [ -77.23201, 38.83571 ], [ -77.23299, 38.83576 ], [ -77.23345, 38.83596 ], [ -77.23366, 38.83691 ], [ -77.23415, 38.83659 ], [ -77.23493, 38.83705 ], [ -77.23504, 38.84064 ], [ -77.23757, 38.84107 ], [ -77.23743, 38.8399 ], [ -77.23817, 38.83854 ], [ -77.23779, 38.83756 ], [ -77.2384, 38.8364 ] ], [ [ -77.23242, 38.85607 ], [ -77.23123, 38.85477 ], [ -77.23056, 38.85495 ], [ -77.23102, 38.85556 ], [ -77.23185, 38.85561 ], [ -77.23242, 38.85607 ] ], [ [ -77.23166, 38.85346 ], [ -77.23263, 38.85341 ], [ -77.23258, 38.85222 ], [ -77.23212, 38.85226 ], [ -77.23166, 38.85346 ] ], [ [ -77.23012, 38.85369 ], [ -77.23138, 38.85039 ], [ -77.22628, 38.85084 ], [ -77.22686, 38.85394 ], [ -77.23012, 38.85369 ] ], [ [ -77.23, 38.84845 ], [ -77.22915, 38.84846 ], [ -77.22889, 38.84772 ], [ -77.23294, 38.84686 ], [ -77.23445, 38.84729 ], [ -77.23562, 38.84706 ], [ -77.23615, 38.84661 ], [ -77.23363, 38.84659 ], [ -77.23261, 38.84469 ], [ -77.23144, 38.84392 ], [ -77.2309, 38.8447 ], [ -77.23159, 38.84459 ], [ -77.23262, 38.84561 ], [ -77.23198, 38.8461 ], [ -77.22916, 38.84681 ], [ -77.22838, 38.84773 ], [ -77.22832, 38.84834 ], [ -77.22916, 38.8486 ], [ -77.23, 38.84845 ] ], [ [ -77.23068, 38.84177 ], [ -77.22951, 38.84066 ], [ -77.23018, 38.84006 ], [ -77.22733, 38.84042 ], [ -77.22761, 38.84175 ], [ -77.23068, 38.84177 ] ], [ [ -77.23132, 38.84072 ], [ -77.2312, 38.84039 ], [ -77.23077, 38.84024 ], [ -77.23105, 38.84044 ], [ -77.23132, 38.84072 ] ], [ [ -77.23463, 38.84568 ], [ -77.23668, 38.84552 ], [ -77.23675, 38.84382 ], [ -77.23757, 38.84348 ], [ -77.23804, 38.84367 ], [ -77.23784, 38.8447 ], [ -77.24001, 38.84284 ], [ -77.23742, 38.84323 ], [ -77.23695, 38.84252 ], [ -77.23751, 38.84221 ], [ -77.23616, 38.84181 ], [ -77.23541, 38.84314 ], [ -77.23431, 38.84348 ], [ -77.2329, 38.84327 ], [ -77.23169, 38.8425 ], [ -77.23372, 38.84404 ], [ -77.23463, 38.84568 ] ], [ [ -77.23879, 38.83954 ], [ -77.23875, 38.83954 ], [ -77.23877, 38.83957 ], [ -77.23879, 38.83954 ] ], [ [ -77.23711, 38.85487 ], [ -77.23664, 38.85443 ], [ -77.23661, 38.85545 ], [ -77.23711, 38.85487 ] ], [ [ -77.2366, 38.85437 ], [ -77.23651, 38.85423 ], [ -77.23631, 38.85423 ], [ -77.2366, 38.85437 ] ], [ [ -77.23377, 38.855 ], [ -77.23423, 38.85508 ], [ -77.23422, 38.85498 ], [ -77.23377, 38.855 ] ], [ [ -77.2346, 38.85203 ], [ -77.23396, 38.85209 ], [ -77.23401, 38.85332 ], [ -77.23471, 38.85327 ], [ -77.2346, 38.85203 ] ], [ [ -77.2343, 38.85097 ], [ -77.23392, 38.85067 ], [ -77.23394, 38.851 ], [ -77.2343, 38.85097 ] ], [ [ -77.23385, 38.84957 ], [ -77.23383, 38.84958 ], [ -77.23385, 38.84958 ], [ -77.23385, 38.84957 ] ], [ [ -77.23859, 38.85393 ], [ -77.238, 38.85404 ], [ -77.23908, 38.85491 ], [ -77.23859, 38.85393 ] ], [ [ -77.23893, 38.85448 ], [ -77.23892, 38.85448 ], [ -77.23895, 38.85449 ], [ -77.23893, 38.85448 ] ], [ [ -77.23834, 38.85722 ], [ -77.23832, 38.85724 ], [ -77.23836, 38.85721 ], [ -77.23834, 38.85722 ] ], [ [ -77.23609, 38.85316 ], [ -77.2361, 38.85274 ], [ -77.23597, 38.8519 ], [ -77.23609, 38.85316 ] ], [ [ -77.23599, 38.85764 ], [ -77.23638, 38.85728 ], [ -77.23608, 38.8572 ], [ -77.23599, 38.85764 ] ], [ [ -77.23561, 38.85786 ], [ -77.23548, 38.85787 ], [ -77.23555, 38.85799 ], [ -77.23561, 38.85786 ] ], [ [ -77.23296, 38.84795 ], [ -77.2317, 38.84817 ], [ -77.23124, 38.84825 ], [ -77.23246, 38.8481 ], [ -77.23306, 38.84862 ], [ -77.23342, 38.84806 ], [ -77.23296, 38.84795 ] ], [ [ -77.23256, 38.85105 ], [ -77.23253, 38.85113 ], [ -77.23256, 38.85113 ], [ -77.23256, 38.85105 ] ], [ [ -77.23274, 38.84145 ], [ -77.23261, 38.84169 ], [ -77.23278, 38.84132 ], [ -77.23274, 38.84145 ] ], [ [ -77.22566, 38.84816 ], [ -77.22547, 38.84714 ], [ -77.22394, 38.84768 ], [ -77.22277, 38.84939 ], [ -77.22286, 38.85007 ], [ -77.22479, 38.84935 ], [ -77.22566, 38.84816 ] ], [ [ -77.22692, 38.8465 ], [ -77.22692, 38.84649 ], [ -77.22691, 38.8465 ], [ -77.22692, 38.8465 ] ], [ [ -77.22743, 38.84604 ], [ -77.22748, 38.84603 ], [ -77.22746, 38.84602 ], [ -77.22743, 38.84604 ] ], [ [ -77.22871, 38.84577 ], [ -77.22904, 38.84565 ], [ -77.22862, 38.84543 ], [ -77.22871, 38.84577 ] ], [ [ -77.22772, 38.844 ], [ -77.22836, 38.84352 ], [ -77.22739, 38.84427 ], [ -77.22772, 38.844 ] ], [ [ -77.22643, 38.84529 ], [ -77.22638, 38.8453 ], [ -77.22639, 38.84533 ], [ -77.22643, 38.84529 ] ], [ [ -77.23037, 38.85741 ], [ -77.22851, 38.85737 ], [ -77.22693, 38.85675 ], [ -77.22672, 38.85831 ], [ -77.23041, 38.85827 ], [ -77.23037, 38.85741 ] ], [ [ -77.22697, 38.85502 ], [ -77.22708, 38.85531 ], [ -77.22745, 38.85564 ], [ -77.2274, 38.85499 ], [ -77.22697, 38.85502 ] ], [ [ -77.22916, 38.8552 ], [ -77.22919, 38.85614 ], [ -77.22917, 38.85485 ], [ -77.22916, 38.8552 ] ], [ [ -77.23059, 38.85599 ], [ -77.23067, 38.85599 ], [ -77.23069, 38.85596 ], [ -77.23059, 38.85599 ] ], [ [ -77.22583, 38.85608 ], [ -77.22559, 38.85512 ], [ -77.22476, 38.85517 ], [ -77.22583, 38.85608 ] ], [ [ -77.22341, 38.85418 ], [ -77.22548, 38.85405 ], [ -77.2254, 38.85355 ], [ -77.22335, 38.85369 ], [ -77.22341, 38.85418 ] ], [ [ -77.22657, 38.84933 ], [ -77.22619, 38.84934 ], [ -77.22611, 38.84977 ], [ -77.22649, 38.84974 ], [ -77.22657, 38.84933 ] ], [ [ -77.22244, 38.84749 ], [ -77.22247, 38.84741 ], [ -77.22241, 38.84754 ], [ -77.22244, 38.84749 ] ], [ [ -77.22401, 38.85106 ], [ -77.2239, 38.85107 ], [ -77.22397, 38.85118 ], [ -77.22401, 38.85106 ] ] ] } }
]
}
