{
"type": "FeatureCollection",
"name": "87",
"crs": { "type": "name", "properties": { "name": "urn:ogc:def:crs:OGC:1.3:CRS84" } },
"xy_coordinate_resolution": 1e-05,
"features": [
{ "type": "Feature", "properties": { "variant": "T0", "miles": 0.5 }, "geometry": { "type": "Polygon", "coordinates": [ [ [ -77.24843, 38.86473 ], [ -77.25175, 38.86478 ], [ -77.25246, 38.86531 ], [ -77.25178, 38.86586 ], [ -77.24982, 38.86612 ], [ -77.24947, 38.87064 ], [ -77.24876, 38.87117 ], [ -77.24809, 38.87061 ], [ -77.24822, 38.86853 ], [ -77.2449, 38.86834 ], [ -77.24426, 38.86862 ], [ -77.24356, 38.86808 ], [ -77.24423, 38.86739 ], [ -77.24566, 38.86737 ], [ -77.24606, 38.86504 ], [ -77.24702, 38.86486 ], [ -77.24758, 38.86393 ], [ -77.24848, 38.86422 ], [ -77.24843, 38.86473 ] ], [ [ -77.24834, 38.86745 ], [ -77.24706, 38.86732 ], [ -77.24704, 38.86747 ], [ -77.24834, 38.86745 ] ], [ [ -77.24843, 38.86621 ], [ -77.2472, 38.86619 ], [ -77.24719, 38.86623 ], [ -77.24843, 38.86621 ] ] ] } },
{ "type": "Feature", "properties": { "variant": "T0", "miles": 1.0 }, "geometry": { "type": "Polygon", "coordinates": [ [ [ -77.25457, 38.85858 ], [ -77.25539, 38.85823 ], [ -77.256, 38.85883 ], [ -77.25491, 38.86025 ], [ -77.25528, 38.86102 ], [ -77.25427, 38.8612 ], [ -77.25262, 38.8639 ], [ -77.25245, 38.86448 ], [ -77.25291, 38.86447 ], [ -77.25263, 38.86407 ], [ -77.25336, 38.86352 ], [ -77.25402, 38.86192 ], [ -77.25556, 38.86199 ], [ -77.25677, 38.86122 ], [ -77.25729, 38.86129 ], [ -77.2576, 38.86191 ], [ -77.25613, 38.863 ], [ -77.25491, 38.863 ], [ -77.25474, 38.86444 ], [ -77.2579, 38.86455 ], [ -77.25988, 38.86357 ], [ -77.26027, 38.86385 ], [ -77.26018, 38.86482 ], [ -77.26105, 38.86534 ], [ -77.26086, 38.86573 ], [ -77.2594, 38.86591 ], [ -77.25913, 38.86766 ], [ -77.25788, 38.86815 ], [ -77.25758, 38.86912 ], [ -77.25699, 38.86949 ], [ -77.2562, 38.86904 ], [ -77.25648, 38.86798 ], [ -77.25522, 38.86714 ], [ -77.25471, 38.86583 ], [ -77.25466, 38.86809 ], [ -77.25387, 38.86834 ], [ -77.25409, 38.86879 ], [ -77.25302, 38.86975 ], [ -77.25202, 38.86996 ], [ -77.2524, 38.87307 ], [ -77.25036, 38.87332 ], [ -77.25034, 38.87392 ], [ -77.24987, 38.87411 ], [ -77.24868, 38.87404 ], [ -77.24834, 38.87347 ], [ -77.2484, 38.87564 ], [ -77.2471, 38.87589 ], [ -77.24709, 38.8776 ], [ -77.24612, 38.87766 ], [ -77.24577, 38.87645 ], [ -77.24505, 38.8769 ], [ -77.24456, 38.87674 ], [ -77.24411, 38.87581 ], [ -77.24461, 38.87515 ], [ -77.24565, 38.87538 ], [ -77.24544, 38.87366 ], [ -77.24352, 38.87379 ], [ -77.24208, 38.87471 ], [ -77.24142, 38.87415 ], [ -77.24196, 38.87288 ], [ -77.24379, 38.87259 ], [ -77.24387, 38.87117 ], [ -77.24261, 38.87101 ], [ -77.24241, 38.87063 ], [ -77.24262, 38.87025 ], [ -77.24391, 38.87009 ], [ -77.24404, 38.86855 ], [ -77.24356, 38.86808 ], [ -77.24423, 38.86739 ], [ -77.24566, 38.86737 ], [ -77.24583, 38.86596 ], [ -77.2381, 38.86609 ], [ -77.23739, 38.86556 ], [ -77.23762, 38.86391 ], [ -77.23862, 38.86321 ], [ -77.24116, 38.86346 ], [ -77.24168, 38.86385 ], [ -77.24137, 38.86482 ], [ -77.24446, 38.86479 ], [ -77.24435, 38.86435 ], [ -77.24485, 38.86396 ], [ -77.24732, 38.86385 ], [ -77.24644, 38.86324 ], [ -77.24669, 38.86243 ], [ -77.24721, 38.86235 ], [ -77.24793, 38.86288 ], [ -77.24846, 38.86233 ], [ -77.24772, 38.86188 ], [ -77.24743, 38.8611 ], [ -77.24812, 38.85961 ], [ -77.24794, 38.85882 ], [ -77.24858, 38.85795 ], [ -77.24971, 38.85752 ], [ -77.25052, 38.85761 ], [ -77.25117, 38.85815 ], [ -77.25115, 38.859 ], [ -77.25371, 38.85972 ], [ -77.25457, 38.85858 ] ], [ [ -77.25082, 38.87073 ], [ -77.24995, 38.87039 ], [ -77.24998, 38.86939 ], [ -77.24955, 38.86935 ], [ -77.24947, 38.8706 ], [ -77.25027, 38.87076 ], [ -77.25048, 38.87122 ], [ -77.25084, 38.87124 ], [ -77.25082, 38.87073 ] ], [ [ -77.24834, 38.86745 ], [ -77.24706, 38.86732 ], [ -77.24704, 38.86747 ], [ -77.24834, 38.86745 ] ], [ [ -77.24843, 38.86621 ], [ -77.2472, 38.86619 ], [ -77.24719, 38.86623 ], [ -77.24843, 38.86621 ] ], [ [ -77.24843, 38.86473 ], [ -77.25107, 38.86467 ], [ -77.25127, 38.86363 ], [ -77.25306, 38.86067 ], [ -77.25268, 38.86053 ], [ -77.25079, 38.86371 ], [ -77.25015, 38.86389 ], [ -77.24903, 38.86358 ], [ -77.24843, 38.86473 ] ], [ [ -77.25135, 38.86019 ], [ -77.25071, 38.86107 ], [ -77.25036, 38.86174 ], [ -77.25135, 38.86019 ] ], [ [ -77.25726, 38.86596 ], [ -77.25754, 38.8671 ], [ -77.25794, 38.86699 ], [ -77.25801, 38.86593 ], [ -77.25726, 38.86596 ] ], [ [ -77.24969, 38.86781 ], [ -77.2521, 38.86775 ], [ -77.25176, 38.86737 ], [ -77.25091, 38.86757 ], [ -77.25046, 38.86611 ], [ -77.24982, 38.86612 ], [ -77.24969, 38.86781 ] ], [ [ -77.25023, 38.86197 ], [ -77.25003, 38.86238 ], [ -77.25031, 38.86181 ], [ -77.25023, 38.86197 ] ], [ [ -77.24987, 38.85985 ], [ -77.24882, 38.86114 ], [ -77.24906, 38.86135 ], [ -77.24987, 38.85985 ] ], [ [ -77.24965, 38.85877 ], [ -77.24983, 38.85865 ], [ -77.24943, 38.85883 ], [ -77.24965, 38.85877 ] ], [ [ -77.24995, 38.86254 ], [ -77.24988, 38.86268 ], [ -77.25002, 38.8624 ], [ -77.24995, 38.86254 ] ], [ [ -77.24686, 38.8706 ], [ -77.24809, 38.8705 ], [ -77.24822, 38.86853 ], [ -77.24694, 38.86855 ], [ -77.24686, 38.8706 ] ], [ [ -77.24772, 38.86287 ], [ -77.24774, 38.86289 ], [ -77.24773, 38.86286 ], [ -77.24772, 38.86287 ] ], [ [ -77.24697, 38.87482 ], [ -77.24701, 38.874 ], [ -77.24687, 38.87401 ], [ -77.24697, 38.87482 ] ], [ [ -77.24522, 38.8684 ], [ -77.24529, 38.87012 ], [ -77.2455, 38.87013 ], [ -77.24556, 38.86847 ], [ -77.24522, 38.8684 ] ], [ [ -77.24538, 38.87248 ], [ -77.24525, 38.8712 ], [ -77.24518, 38.87249 ], [ -77.24538, 38.87248 ] ], [ [ -77.23991, 38.86452 ], [ -77.23891, 38.8643 ], [ -77.23875, 38.86487 ], [ -77.23971, 38.86485 ], [ -77.23991, 38.86452 ] ] ] } },
{ "type": "Feature", "properties": { "variant": "T0", "miles": 1.5 }, "geometry": { "type": "Polygon", "coordinates": [ [ [ -77.26079, 38.85621 ], [ -77.26309, 38.85622 ], [ -77.26349, 38.85649 ], [ -77.26317, 38.85721 ], [ -77.26107, 38.85748 ], [ -77.26217, 38.85828 ], [ -77.26213, 38.85904 ], [ -77.26067, 38.85881 ], [ -77.26025, 38.85962 ], [ -77.25932, 38.85985 ], [ -77.25778, 38.8591 ], [ -77.25815, 38.8584 ], [ -77.25925, 38.85861 ], [ -77.25895, 38.85823 ], [ -77.2575, 38.85796 ], [ -77.2555, 38.85943 ], [ -77.2575, 38.86139 ], [ -77.25733, 38.86224 ], [ -77.25806, 38.86268 ], [ -77.26002, 38.86278 ], [ -77.26094, 38.86434 ], [ -77.27035, 38.86424 ], [ -77.27105, 38.86497 ], [ -77.27088, 38.86536 ], [ -77.26758, 38.86567 ], [ -77.26781, 38.86797 ], [ -77.26581, 38.86852 ], [ -77.26542, 38.86771 ], [ -77.26397, 38.86735 ], [ -77.26358, 38.86584 ], [ -77.26267, 38.86567 ], [ -77.2631, 38.86731 ], [ -77.26261, 38.86863 ], [ -77.26033, 38.86887 ], [ -77.26043, 38.87248 ], [ -77.25904, 38.87303 ], [ -77.25761, 38.87307 ], [ -77.26044, 38.87319 ], [ -77.26056, 38.87395 ], [ -77.25731, 38.87448 ], [ -77.25563, 38.87326 ], [ -77.25564, 38.87437 ], [ -77.25682, 38.87483 ], [ -77.25751, 38.87569 ], [ -77.25721, 38.87642 ], [ -77.25668, 38.87646 ], [ -77.25438, 38.87483 ], [ -77.25268, 38.87698 ], [ -77.25327, 38.87775 ], [ -77.25212, 38.87803 ], [ -77.2527, 38.87854 ], [ -77.25249, 38.87898 ], [ -77.24925, 38.87945 ], [ -77.24789, 38.8777 ], [ -77.24734, 38.87784 ], [ -77.24739, 38.88023 ], [ -77.24647, 38.88199 ], [ -77.24691, 38.88274 ], [ -77.24652, 38.88302 ], [ -77.24437, 38.88253 ], [ -77.24243, 38.88278 ], [ -77.24206, 38.88207 ], [ -77.24366, 38.88147 ], [ -77.24377, 38.88028 ], [ -77.24601, 38.88002 ], [ -77.24604, 38.87942 ], [ -77.24532, 38.87907 ], [ -77.24464, 38.87949 ], [ -77.24358, 38.87929 ], [ -77.24213, 38.8797 ], [ -77.2398, 38.87969 ], [ -77.23926, 38.87901 ], [ -77.24034, 38.877 ], [ -77.23255, 38.87454 ], [ -77.231, 38.87451 ], [ -77.23074, 38.87415 ], [ -77.23093, 38.87303 ], [ -77.23141, 38.87287 ], [ -77.23202, 38.87325 ], [ -77.23368, 38.87314 ], [ -77.23459, 38.87228 ], [ -77.23568, 38.87268 ], [ -77.23808, 38.868 ], [ -77.23759, 38.86772 ], [ -77.23644, 38.86867 ], [ -77.23563, 38.86825 ], [ -77.23683, 38.86682 ], [ -77.23669, 38.86627 ], [ -77.23614, 38.86628 ], [ -77.23512, 38.8686 ], [ -77.23434, 38.86895 ], [ -77.23525, 38.86939 ], [ -77.23526, 38.8698 ], [ -77.23397, 38.87079 ], [ -77.23344, 38.87081 ], [ -77.23178, 38.87012 ], [ -77.23168, 38.8687 ], [ -77.23227, 38.8684 ], [ -77.23206, 38.86788 ], [ -77.23258, 38.8674 ], [ -77.23146, 38.86698 ], [ -77.2303, 38.86735 ], [ -77.22977, 38.86684 ], [ -77.22999, 38.86621 ], [ -77.22779, 38.86605 ], [ -77.22776, 38.86514 ], [ -77.23009, 38.86499 ], [ -77.23003, 38.86446 ], [ -77.23067, 38.86389 ], [ -77.23412, 38.86361 ], [ -77.23473, 38.86246 ], [ -77.23849, 38.85906 ], [ -77.24085, 38.85781 ], [ -77.24403, 38.85861 ], [ -77.24309, 38.86066 ], [ -77.24439, 38.8608 ], [ -77.24396, 38.86029 ], [ -77.24497, 38.85971 ], [ -77.24529, 38.85896 ], [ -77.24625, 38.85908 ], [ -77.24637, 38.85949 ], [ -77.24603, 38.86152 ], [ -77.24487, 38.86274 ], [ -77.24442, 38.86295 ], [ -77.24315, 38.86267 ], [ -77.24256, 38.86167 ], [ -77.24137, 38.86482 ], [ -77.24446, 38.86479 ], [ -77.24435, 38.86435 ], [ -77.24485, 38.86396 ], [ -77.24732, 38.86385 ], [ -77.24658, 38.86346 ], [ -77.24639, 38.86283 ], [ -77.24721, 38.86235 ], [ -77.24793, 38.86288 ], [ -77.24846, 38.86233 ], [ -77.24743, 38.86116 ], [ -77.24852, 38.85799 ], [ -77.24965, 38.85753 ], [ -77.25052, 38.85761 ], [ -77.25117, 38.85815 ], [ -77.25115, 38.859 ], [ -77.25197, 38.85921 ], [ -77.25224, 38.85875 ], [ -77.2513, 38.85741 ], [ -77.25252, 38.85666 ], [ -77.25345, 38.85689 ], [ -77.25463, 38.85853 ], [ -77.25591, 38.85767 ], [ -77.25497, 38.85711 ], [ -77.25422, 38.85576 ], [ -77.25415, 38.85393 ], [ -77.25479, 38.8534 ], [ -77.25676, 38.85347 ], [ -77.25841, 38.85485 ], [ -77.2589, 38.85591 ], [ -77.25839, 38.8571 ], [ -77.25946, 38.85686 ], [ -77.25904, 38.85514 ], [ -77.25966, 38.85455 ], [ -77.26042, 38.85503 ], [ -77.26079, 38.85621 ] ], [ [ -77.2504, 38.87779 ], [ -77.24945, 38.87762 ], [ -77.2493, 38.87709 ], [ -77.2493, 38.87779 ], [ -77.24967, 38.87828 ], [ -77.2504, 38.87779 ] ], [ [ -77.25015, 38.87644 ], [ -77.25064, 38.87629 ], [ -77.25125, 38.87673 ], [ -77.2522, 38.87557 ], [ -77.25091, 38.87531 ], [ -77.25068, 38.87494 ], [ -77.25086, 38.87455 ], [ -77.25198, 38.87435 ], [ -77.25205, 38.8733 ], [ -77.25123, 38.87327 ], [ -77.25103, 38.87414 ], [ -77.24993, 38.87436 ], [ -77.25015, 38.87644 ] ], [ [ -77.24952, 38.86975 ], [ -77.2499, 38.86928 ], [ -77.24955, 38.86935 ], [ -77.24952, 38.86975 ] ], [ [ -77.24971, 38.86781 ], [ -77.25151, 38.8681 ], [ -77.2521, 38.86775 ], [ -77.25176, 38.86737 ], [ -77.25091, 38.86757 ], [ -77.25046, 38.86611 ], [ -77.24982, 38.86612 ], [ -77.24971, 38.86781 ] ], [ [ -77.25107, 38.86467 ], [ -77.25127, 38.86363 ], [ -77.25306, 38.86067 ], [ -77.25268, 38.86053 ], [ -77.25081, 38.86369 ], [ -77.25015, 38.86389 ], [ -77.24903, 38.86358 ], [ -77.24843, 38.86473 ], [ -77.25107, 38.86467 ] ], [ [ -77.24907, 38.86134 ], [ -77.24943, 38.86065 ], [ -77.24987, 38.85985 ], [ -77.2493, 38.86021 ], [ -77.24882, 38.86115 ], [ -77.24907, 38.86134 ] ], [ [ -77.25617, 38.85657 ], [ -77.25718, 38.85656 ], [ -77.2575, 38.85581 ], [ -77.25615, 38.85447 ], [ -77.25552, 38.85447 ], [ -77.25557, 38.85551 ], [ -77.25655, 38.85535 ], [ -77.25694, 38.85563 ], [ -77.25695, 38.85605 ], [ -77.25617, 38.85657 ] ], [ [ -77.25726, 38.86594 ], [ -77.25725, 38.86598 ], [ -77.25739, 38.86594 ], [ -77.25726, 38.86594 ] ], [ [ -77.25592, 38.8646 ], [ -77.25641, 38.86285 ], [ -77.25491, 38.863 ], [ -77.25474, 38.86444 ], [ -77.25592, 38.8646 ] ], [ [ -77.25586, 38.86146 ], [ -77.25529, 38.86094 ], [ -77.25427, 38.8612 ], [ -77.25262, 38.8639 ], [ -77.25245, 38.86448 ], [ -77.25291, 38.86447 ], [ -77.25263, 38.86407 ], [ -77.25336, 38.86352 ], [ -77.25391, 38.862 ], [ -77.25439, 38.86177 ], [ -77.25556, 38.86199 ], [ -77.25586, 38.86146 ] ], [ [ -77.2598, 38.867 ], [ -77.25969, 38.8659 ], [ -77.2594, 38.86591 ], [ -77.25932, 38.86698 ], [ -77.2598, 38.867 ] ], [ [ -77.26107, 38.86588 ], [ -77.26129, 38.86598 ], [ -77.26129, 38.86587 ], [ -77.26107, 38.86588 ] ], [ [ -77.25787, 38.86597 ], [ -77.25801, 38.86593 ], [ -77.25768, 38.86594 ], [ -77.25787, 38.86597 ] ], [ [ -77.25371, 38.85972 ], [ -77.25352, 38.85917 ], [ -77.25329, 38.85956 ], [ -77.25371, 38.85972 ] ], [ [ -77.25354, 38.87387 ], [ -77.25328, 38.87382 ], [ -77.25344, 38.87399 ], [ -77.25354, 38.87387 ] ], [ [ -77.2538, 38.87059 ], [ -77.25355, 38.8704 ], [ -77.25325, 38.87054 ], [ -77.2538, 38.87059 ] ], [ [ -77.25487, 38.86988 ], [ -77.25546, 38.86734 ], [ -77.25471, 38.86583 ], [ -77.25487, 38.86988 ] ], [ [ -77.25052, 38.86144 ], [ -77.25135, 38.86019 ], [ -77.25036, 38.86174 ], [ -77.25052, 38.86144 ] ], [ [ -77.24988, 38.86268 ], [ -77.24995, 38.86254 ], [ -77.24986, 38.86267 ], [ -77.24988, 38.86268 ] ], [ [ -77.25023, 38.86197 ], [ -77.25031, 38.86181 ], [ -77.25003, 38.86238 ], [ -77.25023, 38.86197 ] ], [ [ -77.24143, 38.87603 ], [ -77.24274, 38.87446 ], [ -77.24072, 38.87595 ], [ -77.24143, 38.87603 ] ], [ [ -77.24028, 38.87283 ], [ -77.24379, 38.87259 ], [ -77.24387, 38.87117 ], [ -77.24166, 38.87096 ], [ -77.24105, 38.87185 ], [ -77.23848, 38.87033 ], [ -77.23711, 38.87304 ], [ -77.2389, 38.87292 ], [ -77.2388, 38.87194 ], [ -77.23944, 38.87137 ], [ -77.24018, 38.87187 ], [ -77.24028, 38.87283 ] ], [ [ -77.24391, 38.87009 ], [ -77.24404, 38.86855 ], [ -77.24356, 38.86808 ], [ -77.24423, 38.86739 ], [ -77.24566, 38.86737 ], [ -77.24583, 38.86596 ], [ -77.24074, 38.86605 ], [ -77.24043, 38.86664 ], [ -77.24253, 38.8667 ], [ -77.24287, 38.86701 ], [ -77.24212, 38.86994 ], [ -77.24391, 38.87009 ] ], [ [ -77.24725, 38.8767 ], [ -77.24776, 38.87676 ], [ -77.24723, 38.87588 ], [ -77.2471, 38.87589 ], [ -77.24725, 38.8767 ] ], [ [ -77.24697, 38.87482 ], [ -77.24701, 38.874 ], [ -77.24687, 38.87401 ], [ -77.24697, 38.87482 ] ], [ [ -77.24806, 38.87048 ], [ -77.24822, 38.86853 ], [ -77.24694, 38.86855 ], [ -77.24686, 38.8706 ], [ -77.24806, 38.87048 ] ], [ [ -77.24706, 38.86732 ], [ -77.24834, 38.86745 ], [ -77.24835, 38.86729 ], [ -77.24706, 38.86732 ] ], [ [ -77.24965, 38.85877 ], [ -77.24983, 38.85865 ], [ -77.24943, 38.85883 ], [ -77.24965, 38.85877 ] ], [ [ -77.24774, 38.86289 ], [ -77.24773, 38.86286 ], [ -77.24773, 38.86289 ], [ -77.24774, 38.86289 ] ], [ [ -77.24719, 38.86623 ], [ -77.24843, 38.86621 ], [ -77.24843, 38.86616 ], [ -77.24719, 38.86623 ] ], [ [ -77.24842, 38.87346 ], [ -77.24863, 38.87589 ], [ -77.24875, 38.87601 ], [ -77.24842, 38.87346 ] ], [ [ -77.24544, 38.87366 ], [ -77.24317, 38.87413 ], [ -77.24514, 38.87418 ], [ -77.24565, 38.87538 ], [ -77.24544, 38.87366 ] ], [ [ -77.24415, 38.87613 ], [ -77.24386, 38.87672 ], [ -77.24279, 38.87669 ], [ -77.24594, 38.87779 ], [ -77.24577, 38.87645 ], [ -77.24505, 38.8769 ], [ -77.24415, 38.87613 ] ], [ [ -77.24538, 38.87248 ], [ -77.24525, 38.8712 ], [ -77.24518, 38.87249 ], [ -77.24538, 38.87248 ] ], [ [ -77.24522, 38.8684 ], [ -77.24529, 38.87012 ], [ -77.2455, 38.87013 ], [ -77.24556, 38.86847 ], [ -77.24522, 38.8684 ] ], [ [ -77.24175, 38.86034 ], [ -77.24245, 38.85922 ], [ -77.24102, 38.8589 ], [ -77.23945, 38.85985 ], [ -77.24175, 38.86034 ] ], [ [ -77.23838, 38.8753 ], [ -77.23963, 38.87523 ], [ -77.24143, 38.87394 ], [ -77.23675, 38.87425 ], [ -77.23678, 38.87479 ], [ -77.23838, 38.8753 ] ], [ [ -77.23736, 38.8649 ], [ -77.23818, 38.86333 ], [ -77.24053, 38.86335 ], [ -77.23656, 38.86247 ], [ -77.2359, 38.86305 ], [ -77.2369, 38.86329 ], [ -77.23738, 38.86396 ], [ -77.23652, 38.86433 ], [ -77.23538, 38.86406 ], [ -77.23496, 38.86494 ], [ -77.23736, 38.8649 ] ], [ [ -77.24081, 38.86943 ], [ -77.23941, 38.8697 ], [ -77.24051, 38.87036 ], [ -77.24081, 38.86943 ] ], [ [ -77.23806, 38.86609 ], [ -77.23824, 38.86664 ], [ -77.2386, 38.86697 ], [ -77.23909, 38.86607 ], [ -77.23806, 38.86609 ] ], [ [ -77.24123, 38.86137 ], [ -77.23846, 38.86076 ], [ -77.23757, 38.86157 ], [ -77.2409, 38.86231 ], [ -77.24123, 38.86137 ] ], [ [ -77.23991, 38.86452 ], [ -77.23891, 38.8643 ], [ -77.23875, 38.86487 ], [ -77.23971, 38.86485 ], [ -77.23991, 38.86452 ] ], [ [ -77.24041, 38.86811 ], [ -77.24101, 38.86836 ], [ -77.24112, 38.86778 ], [ -77.24093, 38.86776 ], [ -77.24041, 38.86811 ] ], [ [ -77.23306, 38.86854 ], [ -77.23307, 38.86851 ], [ -77.233, 38.86852 ], [ -77.23306, 38.86854 ] ], [ [ -77.23289, 38.8646 ], [ -77.23348, 38.86495 ], [ -77.23363, 38.86462 ], [ -77.23327, 38.86456 ], [ -77.23289, 38.8646 ] ], [ [ -77.23424, 38.86645 ], [ -77.23409, 38.86761 ], [ -77.23454, 38.8666 ], [ -77.23424, 38.86645 ] ], [ [ -77.23177, 38.86636 ], [ -77.23175, 38.86645 ], [ -77.23202, 38.86635 ], [ -77.23177, 38.86636 ] ] ] } },
{ "type": "Feature", "properties": { "variant": "T2s", "miles": 0.5 }, "geometry": { "type": "Polygon", "coordinates": [ [ [ -77.24656, 38.86487 ], [ -77.25065, 38.86502 ], [ -77.25136, 38.86555 ], [ -77.25117, 38.86593 ], [ -77.24982, 38.86612 ], [ -77.24947, 38.87064 ], [ -77.24876, 38.87117 ], [ -77.24809, 38.87061 ], [ -77.24822, 38.86853 ], [ -77.24619, 38.86857 ], [ -77.24557, 38.86806 ], [ -77.24587, 38.86541 ], [ -77.24656, 38.86487 ] ], [ [ -77.24843, 38.86621 ], [ -77.2472, 38.86619 ], [ -77.24719, 38.86623 ], [ -77.24843, 38.86621 ] ], [ [ -77.24834, 38.86745 ], [ -77.24706, 38.86732 ], [ -77.24704, 38.86747 ], [ -77.24834, 38.86745 ] ] ] } },
{ "type": "Feature", "properties": { "variant": "T2s", "miles": 1.0 }, "geometry": { "type": "Polygon", "coordinates": [ [ [ -77.24137, 38.86482 ], [ -77.26035, 38.86481 ], [ -77.26105, 38.86534 ], [ -77.26086, 38.86573 ], [ -77.2594, 38.86591 ], [ -77.25913, 38.86766 ], [ -77.25788, 38.86815 ], [ -77.25758, 38.86912 ], [ -77.25699, 38.86949 ], [ -77.2562, 38.86904 ], [ -77.25648, 38.86798 ], [ -77.25522, 38.86714 ], [ -77.25471, 38.86583 ], [ -77.25466, 38.86809 ], [ -77.25387, 38.86834 ], [ -77.25409, 38.86879 ], [ -77.25302, 38.86975 ], [ -77.25202, 38.86996 ], [ -77.25224, 38.87154 ], [ -77.25157, 38.87209 ], [ -77.25086, 38.87157 ], [ -77.25078, 38.87051 ], [ -77.24995, 38.87039 ], [ -77.2499, 38.86928 ], [ -77.24955, 38.86935 ], [ -77.24925, 38.87102 ], [ -77.24827, 38.871 ], [ -77.24822, 38.86853 ], [ -77.24694, 38.86855 ], [ -77.24685, 38.87071 ], [ -77.24614, 38.87123 ], [ -77.24566, 38.87106 ], [ -77.24583, 38.86596 ], [ -77.2381, 38.86609 ], [ -77.23737, 38.86544 ], [ -77.23772, 38.86373 ], [ -77.23874, 38.8632 ], [ -77.24137, 38.86352 ], [ -77.24168, 38.8641 ], [ -77.24137, 38.86482 ] ], [ [ -77.25209, 38.86773 ], [ -77.25176, 38.86737 ], [ -77.25091, 38.86757 ], [ -77.25046, 38.86611 ], [ -77.24982, 38.86612 ], [ -77.24969, 38.86781 ], [ -77.25151, 38.8681 ], [ -77.25209, 38.86773 ] ], [ [ -77.25801, 38.86602 ], [ -77.25726, 38.86594 ], [ -77.25754, 38.8671 ], [ -77.25794, 38.86699 ], [ -77.25801, 38.86602 ] ], [ [ -77.23991, 38.86452 ], [ -77.23891, 38.8643 ], [ -77.23875, 38.86487 ], [ -77.23971, 38.86485 ], [ -77.23991, 38.86452 ] ], [ [ -77.24843, 38.86621 ], [ -77.2472, 38.86619 ], [ -77.24719, 38.86623 ], [ -77.24843, 38.86621 ] ], [ [ -77.24835, 38.86729 ], [ -77.24704, 38.86747 ], [ -77.24834, 38.86745 ], [ -77.24835, 38.86729 ] ] ] } },
{ "type": "Feature", "properties": { "variant": "T2s", "miles": 1.5 }, "geometry": { "type": "Polygon", "coordinates": [ [ [ -77.25989, 38.86272 ], [ -77.26094, 38.86434 ], [ -77.26794, 38.86451 ], [ -77.26865, 38.86504 ], [ -77.26758, 38.86567 ], [ -77.26781, 38.86797 ], [ -77.26678, 38.86793 ], [ -77.26634, 38.86849 ], [ -77.26542, 38.86824 ], [ -77.26542, 38.86771 ], [ -77.26418, 38.86751 ], [ -77.26358, 38.86584 ], [ -77.26267, 38.86567 ], [ -77.2631, 38.86731 ], [ -77.26277, 38.86823 ], [ -77.26214, 38.86882 ], [ -77.26033, 38.86887 ], [ -77.26052, 38.87227 ], [ -77.25984, 38.87279 ], [ -77.24913, 38.87288 ], [ -77.24615, 38.87406 ], [ -77.24548, 38.87365 ], [ -77.24402, 38.87359 ], [ -77.24396, 38.87271 ], [ -77.24538, 38.87248 ], [ -77.24583, 38.86596 ], [ -77.24074, 38.86605 ], [ -77.24043, 38.86664 ], [ -77.24253, 38.8667 ], [ -77.24287, 38.86701 ], [ -77.24212, 38.86994 ], [ -77.2431, 38.87034 ], [ -77.24314, 38.87075 ], [ -77.2428, 38.87107 ], [ -77.24166, 38.87096 ], [ -77.24105, 38.87185 ], [ -77.23848, 38.87033 ], [ -77.23658, 38.87408 ], [ -77.23586, 38.8743 ], [ -77.23539, 38.8741 ], [ -77.23528, 38.87348 ], [ -77.23808, 38.868 ], [ -77.23759, 38.86772 ], [ -77.23644, 38.86867 ], [ -77.23563, 38.86825 ], [ -77.23683, 38.86682 ], [ -77.23669, 38.86627 ], [ -77.23614, 38.86628 ], [ -77.23512, 38.8686 ], [ -77.23434, 38.86895 ], [ -77.23525, 38.86939 ], [ -77.23526, 38.8698 ], [ -77.2349, 38.8701 ], [ -77.23378, 38.86994 ], [ -77.2332, 38.87058 ], [ -77.2323, 38.87028 ], [ -77.2325, 38.86953 ], [ -77.23169, 38.86911 ], [ -77.23258, 38.8674 ], [ -77.23146, 38.86698 ], [ -77.23031, 38.86736 ], [ -77.22977, 38.86684 ], [ -77.22974, 38.86643 ], [ -77.23061, 38.86577 ], [ -77.23003, 38.86487 ], [ -77.23018, 38.86428 ], [ -77.23067, 38.86389 ], [ -77.23271, 38.86352 ], [ -77.23412, 38.86361 ], [ -77.23477, 38.86242 ], [ -77.23819, 38.85958 ], [ -77.24401, 38.86086 ], [ -77.24439, 38.8608 ], [ -77.24396, 38.86029 ], [ -77.24445, 38.8598 ], [ -77.24613, 38.86007 ], [ -77.24599, 38.86159 ], [ -77.24445, 38.86295 ], [ -77.24272, 38.86244 ], [ -77.24289, 38.86174 ], [ -77.24256, 38.86167 ], [ -77.24137, 38.86482 ], [ -77.25585, 38.86472 ], [ -77.25641, 38.86281 ], [ -77.25714, 38.86225 ], [ -77.25806, 38.86268 ], [ -77.25989, 38.86272 ] ], [ [ -77.25153, 38.86809 ], [ -77.25199, 38.8676 ], [ -77.25091, 38.86757 ], [ -77.25046, 38.86611 ], [ -77.24982, 38.86612 ], [ -77.24969, 38.86781 ], [ -77.25153, 38.86809 ] ], [ [ -77.2598, 38.867 ], [ -77.2594, 38.86591 ], [ -77.25932, 38.86698 ], [ -77.2598, 38.867 ] ], [ [ -77.26107, 38.86588 ], [ -77.26129, 38.86598 ], [ -77.26129, 38.86587 ], [ -77.26107, 38.86588 ] ], [ [ -77.25726, 38.86594 ], [ -77.25725, 38.86598 ], [ -77.25739, 38.86594 ], [ -77.25726, 38.86594 ] ], [ [ -77.25801, 38.86603 ], [ -77.25801, 38.86593 ], [ -77.25768, 38.86594 ], [ -77.25801, 38.86603 ] ], [ [ -77.2588, 38.87102 ], [ -77.25869, 38.87099 ], [ -77.25875, 38.87102 ], [ -77.2588, 38.87102 ] ], [ [ -77.25835, 38.87066 ], [ -77.25838, 38.87091 ], [ -77.25851, 38.87092 ], [ -77.25835, 38.87066 ] ], [ [ -77.25545, 38.86811 ], [ -77.25471, 38.86583 ], [ -77.25487, 38.86988 ], [ -77.25545, 38.86811 ] ], [ [ -77.25363, 38.87036 ], [ -77.25325, 38.87054 ], [ -77.2538, 38.87059 ], [ -77.25363, 38.87036 ] ], [ [ -77.24686, 38.8706 ], [ -77.24809, 38.8705 ], [ -77.24822, 38.86853 ], [ -77.24694, 38.86855 ], [ -77.24686, 38.8706 ] ], [ [ -77.24706, 38.86732 ], [ -77.24834, 38.86745 ], [ -77.24835, 38.86729 ], [ -77.24706, 38.86732 ] ], [ [ -77.24104, 38.86778 ], [ -77.2404, 38.86812 ], [ -77.24036, 38.86823 ], [ -77.24101, 38.86836 ], [ -77.24104, 38.86778 ] ], [ [ -77.23806, 38.86609 ], [ -77.2386, 38.86697 ], [ -77.23909, 38.86607 ], [ -77.23806, 38.86609 ] ], [ [ -77.23736, 38.86474 ], [ -77.23818, 38.86333 ], [ -77.24053, 38.86335 ], [ -77.23656, 38.86247 ], [ -77.2359, 38.86305 ], [ -77.2369, 38.86329 ], [ -77.23738, 38.86396 ], [ -77.23652, 38.86433 ], [ -77.23538, 38.86406 ], [ -77.23496, 38.86494 ], [ -77.23736, 38.86474 ] ], [ [ -77.23757, 38.86157 ], [ -77.2409, 38.86231 ], [ -77.24123, 38.86137 ], [ -77.23846, 38.86076 ], [ -77.23757, 38.86157 ] ], [ [ -77.24755, 38.86622 ], [ -77.24843, 38.86616 ], [ -77.24719, 38.86623 ], [ -77.24755, 38.86622 ] ], [ [ -77.24998, 38.86939 ], [ -77.24955, 38.86935 ], [ -77.24952, 38.86975 ], [ -77.24985, 38.86975 ], [ -77.24998, 38.86939 ] ], [ [ -77.23891, 38.8643 ], [ -77.23875, 38.86487 ], [ -77.23971, 38.86485 ], [ -77.23991, 38.86452 ], [ -77.23891, 38.8643 ] ], [ [ -77.2401, 38.8693 ], [ -77.23941, 38.8697 ], [ -77.24051, 38.87036 ], [ -77.24081, 38.86943 ], [ -77.2401, 38.8693 ] ], [ [ -77.23363, 38.86462 ], [ -77.2328, 38.86462 ], [ -77.23274, 38.86478 ], [ -77.23348, 38.86495 ], [ -77.23363, 38.86462 ] ], [ [ -77.23424, 38.86645 ], [ -77.23409, 38.86761 ], [ -77.23454, 38.8666 ], [ -77.23424, 38.86645 ] ], [ [ -77.23175, 38.86645 ], [ -77.23202, 38.86635 ], [ -77.23177, 38.86636 ], [ -77.23175, 38.86645 ] ], [ [ -77.23306, 38.86854 ], [ -77.23305, 38.86852 ], [ -77.233, 38.86852 ], [ -77.23306, 38.86854 ] ] ] } }
]
}
