{
"type": "FeatureCollection",
"name": "96",
"crs": { "type": "name", "properties": { "name": "urn:ogc:def:crs:OGC:1.3:CRS84" } },
"xy_coordinate_resolution": 1e-05,
"features": [
{ "type": "Feature", "properties": { "variant": "T0", "miles": 0.5 }, "geometry": { "type": "Polygon", "coordinates": [ [ [ -77.18453, 38.84782 ], [ -77.18456, 38.84851 ], [ -77.18358, 38.84959 ], [ -77.18448, 38.84981 ], [ -77.18471, 38.85079 ], [ -77.18534, 38.85041 ], [ -77.18582, 38.85058 ], [ -77.18595, 38.85244 ], [ -77.18788, 38.85252 ], [ -77.18811, 38.8529 ], [ -77.18723, 38.85347 ], [ -77.18726, 38.85397 ], [ -77.18817, 38.85423 ], [ -77.18831, 38.85463 ], [ -77.18804, 38.85499 ], [ -77.18569, 38.85529 ], [ -77.18552, 38.85626 ], [ -77.18504, 38.85643 ], [ -77.18432, 38.85591 ], [ -77.18425, 38.8543 ], [ -77.18368, 38.85432 ], [ -77.18318, 38.85774 ], [ -77.17993, 38.85833 ], [ -77.17929, 38.85953 ], [ -77.17831, 38.85957 ], [ -77.17813, 38.85738 ], [ -77.17935, 38.85735 ], [ -77.1805, 38.85348 ], [ -77.18172, 38.85258 ], [ -77.18145, 38.8522 ], [ -77.18213, 38.85136 ], [ -77.182, 38.85066 ], [ -77.18037, 38.8509 ], [ -77.18002, 38.85018 ], [ -77.18131, 38.84872 ], [ -77.18183, 38.84877 ], [ -77.18212, 38.84936 ], [ -77.18357, 38.84771 ], [ -77.18453, 38.84782 ] ], [ [ -77.18347, 38.85082 ], [ -77.18364, 38.85068 ], [ -77.18347, 38.85109 ], [ -77.18347, 38.85082 ] ], [ [ -77.18419, 38.85322 ], [ -77.18397, 38.85291 ], [ -77.18382, 38.85323 ], [ -77.18419, 38.85322 ] ], [ [ -77.18232, 38.85356 ], [ -77.18168, 38.85409 ], [ -77.18083, 38.85709 ], [ -77.18196, 38.85696 ], [ -77.18232, 38.85356 ] ] ] } },
{ "type": "Feature", "properties": { "variant": "T0", "miles": 1.0 }, "geometry": { "type": "Polygon", "coordinates": [ [ [ -77.19028, 38.8494 ], [ -77.19216, 38.85086 ], [ -77.19161, 38.85175 ], [ -77.19211, 38.85221 ], [ -77.19229, 38.85158 ], [ -77.19327, 38.85156 ], [ -77.19354, 38.85335 ], [ -77.1942, 38.85264 ], [ -77.19523, 38.85316 ], [ -77.1966, 38.85316 ], [ -77.19689, 38.85351 ], [ -77.19677, 38.85391 ], [ -77.19556, 38.85422 ], [ -77.1955, 38.85511 ], [ -77.19453, 38.8552 ], [ -77.19425, 38.85473 ], [ -77.19429, 38.85668 ], [ -77.19548, 38.85659 ], [ -77.19623, 38.85708 ], [ -77.19561, 38.85767 ], [ -77.19453, 38.85775 ], [ -77.19528, 38.85852 ], [ -77.19511, 38.85891 ], [ -77.19464, 38.85909 ], [ -77.19375, 38.85869 ], [ -77.1932, 38.85909 ], [ -77.19389, 38.85977 ], [ -77.19373, 38.86017 ], [ -77.19275, 38.86022 ], [ -77.19195, 38.85968 ], [ -77.19163, 38.86006 ], [ -77.18934, 38.86017 ], [ -77.18902, 38.86086 ], [ -77.18816, 38.86065 ], [ -77.18848, 38.86248 ], [ -77.18802, 38.86269 ], [ -77.18728, 38.86239 ], [ -77.18717, 38.86305 ], [ -77.18671, 38.86325 ], [ -77.18591, 38.86253 ], [ -77.18444, 38.86296 ], [ -77.1839, 38.86229 ], [ -77.18154, 38.8626 ], [ -77.18185, 38.86487 ], [ -77.18129, 38.86549 ], [ -77.18049, 38.86505 ], [ -77.18021, 38.86337 ], [ -77.17855, 38.86377 ], [ -77.17766, 38.86296 ], [ -77.17739, 38.86357 ], [ -77.17808, 38.86406 ], [ -77.17792, 38.86446 ], [ -77.17649, 38.86468 ], [ -77.17574, 38.8644 ], [ -77.17577, 38.86375 ], [ -77.1736, 38.86294 ], [ -77.17394, 38.86223 ], [ -77.1763, 38.86275 ], [ -77.17741, 38.8613 ], [ -77.17682, 38.86094 ], [ -77.17701, 38.86037 ], [ -77.173, 38.85958 ], [ -77.17248, 38.86035 ], [ -77.17196, 38.86039 ], [ -77.1715, 38.85971 ], [ -77.17214, 38.8585 ], [ -77.1781, 38.85946 ], [ -77.1782, 38.85835 ], [ -77.17643, 38.85849 ], [ -77.17565, 38.85803 ], [ -77.17609, 38.85749 ], [ -77.17574, 38.85693 ], [ -77.17638, 38.85647 ], [ -77.17588, 38.856 ], [ -77.17605, 38.85561 ], [ -77.17791, 38.85523 ], [ -77.17584, 38.85535 ], [ -77.17567, 38.85632 ], [ -77.17496, 38.85682 ], [ -77.1742, 38.85634 ], [ -77.17446, 38.85547 ], [ -77.17303, 38.8554 ], [ -77.17279, 38.85504 ], [ -77.17341, 38.85445 ], [ -77.17805, 38.85415 ], [ -77.17712, 38.85353 ], [ -77.17657, 38.85104 ], [ -77.17586, 38.85053 ], [ -77.17564, 38.84969 ], [ -77.17399, 38.84955 ], [ -77.173, 38.84879 ], [ -77.17305, 38.84802 ], [ -77.17391, 38.84798 ], [ -77.17423, 38.84621 ], [ -77.17521, 38.84624 ], [ -77.17548, 38.84859 ], [ -77.17613, 38.84777 ], [ -77.17857, 38.84734 ], [ -77.17823, 38.84663 ], [ -77.17728, 38.84633 ], [ -77.17729, 38.84592 ], [ -77.17982, 38.84488 ], [ -77.17979, 38.8437 ], [ -77.18025, 38.84308 ], [ -77.18227, 38.84346 ], [ -77.18268, 38.84222 ], [ -77.18385, 38.84245 ], [ -77.18383, 38.84313 ], [ -77.1867, 38.84213 ], [ -77.18794, 38.84346 ], [ -77.18588, 38.84474 ], [ -77.1862, 38.84615 ], [ -77.18785, 38.84648 ], [ -77.18818, 38.84727 ], [ -77.18928, 38.84746 ], [ -77.18978, 38.84797 ], [ -77.19028, 38.8494 ] ], [ [ -77.18351, 38.86096 ], [ -77.18288, 38.86091 ], [ -77.18277, 38.86121 ], [ -77.1834, 38.86121 ], [ -77.18351, 38.86096 ] ], [ [ -77.1836, 38.85947 ], [ -77.1835, 38.85955 ], [ -77.18363, 38.85963 ], [ -77.1836, 38.85947 ] ], [ [ -77.18436, 38.85663 ], [ -77.18425, 38.8543 ], [ -77.18368, 38.85432 ], [ -77.18336, 38.85679 ], [ -77.18436, 38.85663 ] ], [ [ -77.18397, 38.85291 ], [ -77.18419, 38.85322 ], [ -77.18423, 38.85286 ], [ -77.18397, 38.85291 ] ], [ [ -77.18442, 38.85056 ], [ -77.18462, 38.85054 ], [ -77.18463, 38.85022 ], [ -77.18442, 38.85056 ] ], [ [ -77.18464, 38.85018 ], [ -77.18465, 38.8499 ], [ -77.18453, 38.84992 ], [ -77.18464, 38.85018 ] ], [ [ -77.18373, 38.84944 ], [ -77.18358, 38.84959 ], [ -77.18373, 38.8496 ], [ -77.18373, 38.84944 ] ], [ [ -77.18471, 38.84567 ], [ -77.18462, 38.84531 ], [ -77.18436, 38.84555 ], [ -77.18471, 38.84567 ] ], [ [ -77.18362, 38.84368 ], [ -77.18359, 38.84377 ], [ -77.18367, 38.84377 ], [ -77.18362, 38.84368 ] ], [ [ -77.18979, 38.85856 ], [ -77.1905, 38.85906 ], [ -77.19095, 38.85893 ], [ -77.19045, 38.85705 ], [ -77.18977, 38.85766 ], [ -77.18928, 38.85751 ], [ -77.18898, 38.85663 ], [ -77.18819, 38.85749 ], [ -77.18656, 38.85765 ], [ -77.18682, 38.8593 ], [ -77.18744, 38.85923 ], [ -77.18752, 38.85816 ], [ -77.188, 38.85797 ], [ -77.1885, 38.8581 ], [ -77.18881, 38.85911 ], [ -77.18979, 38.85856 ] ], [ [ -77.19015, 38.85485 ], [ -77.19111, 38.85428 ], [ -77.19022, 38.85231 ], [ -77.19071, 38.85189 ], [ -77.19101, 38.85175 ], [ -77.19055, 38.85135 ], [ -77.19072, 38.85094 ], [ -77.18991, 38.85046 ], [ -77.1887, 38.85106 ], [ -77.18898, 38.85235 ], [ -77.18974, 38.85269 ], [ -77.18966, 38.85437 ], [ -77.19015, 38.85485 ] ], [ [ -77.18543, 38.8486 ], [ -77.1855, 38.84832 ], [ -77.18496, 38.84834 ], [ -77.18543, 38.8486 ] ], [ [ -77.18571, 38.84719 ], [ -77.18568, 38.84716 ], [ -77.18562, 38.8472 ], [ -77.18571, 38.84719 ] ], [ [ -77.19178, 38.85674 ], [ -77.19181, 38.85686 ], [ -77.19193, 38.85686 ], [ -77.19178, 38.85674 ] ], [ [ -77.19054, 38.85206 ], [ -77.1906, 38.85202 ], [ -77.19053, 38.85206 ], [ -77.19054, 38.85206 ] ], [ [ -77.19289, 38.85568 ], [ -77.19253, 38.85573 ], [ -77.19289, 38.8561 ], [ -77.19289, 38.85601 ], [ -77.19289, 38.85568 ] ], [ [ -77.18883, 38.84964 ], [ -77.18883, 38.84965 ], [ -77.18884, 38.84964 ], [ -77.18883, 38.84964 ] ], [ [ -77.1898, 38.84834 ], [ -77.1898, 38.84831 ], [ -77.18978, 38.84832 ], [ -77.1898, 38.84834 ] ], [ [ -77.18704, 38.84901 ], [ -77.18705, 38.84899 ], [ -77.18703, 38.84899 ], [ -77.18704, 38.84901 ] ], [ [ -77.18576, 38.85642 ], [ -77.18573, 38.85642 ], [ -77.18573, 38.85643 ], [ -77.18576, 38.85642 ] ], [ [ -77.18569, 38.85529 ], [ -77.18569, 38.85534 ], [ -77.18576, 38.85534 ], [ -77.18569, 38.85529 ] ], [ [ -77.18688, 38.85502 ], [ -77.18685, 38.85506 ], [ -77.18695, 38.85503 ], [ -77.18688, 38.85502 ] ], [ [ -77.17938, 38.8572 ], [ -77.1805, 38.85348 ], [ -77.18172, 38.85258 ], [ -77.18145, 38.8522 ], [ -77.18213, 38.85136 ], [ -77.182, 38.85066 ], [ -77.18037, 38.8509 ], [ -77.17986, 38.8498 ], [ -77.17989, 38.85083 ], [ -77.17893, 38.85099 ], [ -77.17843, 38.8496 ], [ -77.17794, 38.85089 ], [ -77.17838, 38.85291 ], [ -77.18028, 38.85383 ], [ -77.17941, 38.85442 ], [ -77.17938, 38.8572 ] ], [ [ -77.18196, 38.85696 ], [ -77.18238, 38.85364 ], [ -77.1824, 38.85353 ], [ -77.18168, 38.85409 ], [ -77.18083, 38.85709 ], [ -77.18196, 38.85696 ] ], [ [ -77.18225, 38.84918 ], [ -77.18267, 38.84844 ], [ -77.18069, 38.84845 ], [ -77.18091, 38.84896 ], [ -77.18183, 38.84877 ], [ -77.18225, 38.84918 ] ], [ [ -77.17968, 38.84859 ], [ -77.17946, 38.84819 ], [ -77.17929, 38.84855 ], [ -77.17968, 38.84859 ] ], [ [ -77.18179, 38.84667 ], [ -77.18136, 38.84545 ], [ -77.18177, 38.84447 ], [ -77.18131, 38.84434 ], [ -77.18108, 38.84588 ], [ -77.17958, 38.84636 ], [ -77.18179, 38.84667 ] ], [ [ -77.18339, 38.85066 ], [ -77.18347, 38.85082 ], [ -77.18364, 38.85068 ], [ -77.18339, 38.85066 ] ], [ [ -77.1833, 38.84486 ], [ -77.18307, 38.84484 ], [ -77.18276, 38.84536 ], [ -77.1833, 38.84486 ] ], [ [ -77.17956, 38.86046 ], [ -77.18008, 38.86055 ], [ -77.17951, 38.85967 ], [ -77.17956, 38.86046 ] ], [ [ -77.17704, 38.84971 ], [ -77.17707, 38.8498 ], [ -77.17705, 38.8497 ], [ -77.17704, 38.84971 ] ] ] } },
{ "type": "Feature", "properties": { "variant": "T0", "miles": 1.5 }, "geometry": { "type": "Polygon", "coordinates": [ [ [ -77.19518, 38.84517 ], [ -77.19602, 38.84575 ], [ -77.19655, 38.84543 ], [ -77.19831, 38.84634 ], [ -77.19791, 38.84701 ], [ -77.19834, 38.84752 ], [ -77.19775, 38.84814 ], [ -77.19752, 38.84947 ], [ -77.19788, 38.85007 ], [ -77.19846, 38.85012 ], [ -77.19988, 38.84911 ], [ -77.20051, 38.84908 ], [ -77.20097, 38.84959 ], [ -77.2013, 38.84892 ], [ -77.20227, 38.84902 ], [ -77.20222, 38.85032 ], [ -77.20311, 38.85192 ], [ -77.20287, 38.85229 ], [ -77.20179, 38.85235 ], [ -77.20119, 38.85176 ], [ -77.199, 38.85332 ], [ -77.19918, 38.85445 ], [ -77.19876, 38.8547 ], [ -77.19751, 38.85459 ], [ -77.19711, 38.85396 ], [ -77.19556, 38.85422 ], [ -77.19652, 38.85454 ], [ -77.19692, 38.85562 ], [ -77.1996, 38.85543 ], [ -77.19961, 38.85458 ], [ -77.20007, 38.85438 ], [ -77.20085, 38.85468 ], [ -77.20113, 38.85531 ], [ -77.20393, 38.85526 ], [ -77.20418, 38.85563 ], [ -77.20355, 38.85622 ], [ -77.19976, 38.8565 ], [ -77.19979, 38.85696 ], [ -77.20392, 38.85749 ], [ -77.20462, 38.85802 ], [ -77.20394, 38.85857 ], [ -77.20218, 38.85841 ], [ -77.2006, 38.86061 ], [ -77.20254, 38.86144 ], [ -77.20229, 38.86315 ], [ -77.19875, 38.86299 ], [ -77.19803, 38.86343 ], [ -77.1962, 38.8625 ], [ -77.19492, 38.86348 ], [ -77.19556, 38.86687 ], [ -77.19403, 38.86705 ], [ -77.1925, 38.8665 ], [ -77.19237, 38.86466 ], [ -77.19157, 38.8646 ], [ -77.1906, 38.86569 ], [ -77.18881, 38.86567 ], [ -77.18892, 38.86697 ], [ -77.18966, 38.86737 ], [ -77.18983, 38.86799 ], [ -77.18958, 38.86875 ], [ -77.18801, 38.86899 ], [ -77.18756, 38.86877 ], [ -77.18751, 38.86812 ], [ -77.17985, 38.86941 ], [ -77.18018, 38.87069 ], [ -77.17963, 38.87133 ], [ -77.17882, 38.8709 ], [ -77.17856, 38.86985 ], [ -77.17805, 38.86994 ], [ -77.17788, 38.8707 ], [ -77.17736, 38.87078 ], [ -77.17664, 38.87017 ], [ -77.1753, 38.87039 ], [ -77.17529, 38.87094 ], [ -77.17643, 38.87091 ], [ -77.17664, 38.87166 ], [ -77.17523, 38.87206 ], [ -77.17488, 38.87269 ], [ -77.17368, 38.87252 ], [ -77.17335, 38.87219 ], [ -77.17391, 38.87061 ], [ -77.17219, 38.87089 ], [ -77.17131, 38.87031 ], [ -77.17141, 38.8699 ], [ -77.17267, 38.86922 ], [ -77.17397, 38.86892 ], [ -77.17049, 38.86968 ], [ -77.16966, 38.86928 ], [ -77.17041, 38.8672 ], [ -77.17163, 38.86629 ], [ -77.17256, 38.86647 ], [ -77.17367, 38.86776 ], [ -77.17399, 38.86763 ], [ -77.17398, 38.86718 ], [ -77.17293, 38.86628 ], [ -77.17289, 38.86562 ], [ -77.17049, 38.86346 ], [ -77.17045, 38.86246 ], [ -77.17131, 38.86021 ], [ -77.17056, 38.8605 ], [ -77.16753, 38.85984 ], [ -77.16731, 38.86001 ], [ -77.16814, 38.86032 ], [ -77.16826, 38.86039 ], [ -77.16827, 38.8604 ], [ -77.16868, 38.86063 ], [ -77.16846, 38.86137 ], [ -77.1663, 38.86084 ], [ -77.16473, 38.86274 ], [ -77.16376, 38.86286 ], [ -77.16348, 38.86251 ], [ -77.16528, 38.8601 ], [ -77.16743, 38.85844 ], [ -77.16509, 38.85836 ], [ -77.16497, 38.85796 ], [ -77.16556, 38.8574 ], [ -77.1649, 38.85757 ], [ -77.16418, 38.85705 ], [ -77.16497, 38.85631 ], [ -77.16363, 38.85653 ], [ -77.1628, 38.85613 ], [ -77.16323, 38.85545 ], [ -77.16457, 38.85525 ], [ -77.16451, 38.85444 ], [ -77.16524, 38.85301 ], [ -77.16661, 38.85311 ], [ -77.16714, 38.85245 ], [ -77.16666, 38.85101 ], [ -77.1676, 38.85088 ], [ -77.16616, 38.84991 ], [ -77.16694, 38.84836 ], [ -77.16634, 38.84825 ], [ -77.16622, 38.84749 ], [ -77.17089, 38.84601 ], [ -77.174, 38.84673 ], [ -77.17401, 38.84546 ], [ -77.17218, 38.84565 ], [ -77.17113, 38.84484 ], [ -77.17021, 38.84507 ], [ -77.16972, 38.84561 ], [ -77.16878, 38.84542 ], [ -77.16921, 38.84432 ], [ -77.17073, 38.84381 ], [ -77.1704, 38.84244 ], [ -77.17133, 38.84221 ], [ -77.17205, 38.84349 ], [ -77.17318, 38.84323 ], [ -77.17266, 38.84195 ], [ -77.17386, 38.84107 ], [ -77.17471, 38.84116 ], [ -77.17474, 38.84192 ], [ -77.17419, 38.84223 ], [ -77.17503, 38.84428 ], [ -77.17611, 38.84456 ], [ -77.17597, 38.84156 ], [ -77.17612, 38.84116 ], [ -77.17712, 38.84092 ], [ -77.17714, 38.83963 ], [ -77.17811, 38.83954 ], [ -77.17839, 38.84007 ], [ -77.17997, 38.83767 ], [ -77.18021, 38.83653 ], [ -77.18162, 38.83621 ], [ -77.18171, 38.83524 ], [ -77.18306, 38.83492 ], [ -77.18471, 38.83575 ], [ -77.1856, 38.83726 ], [ -77.18768, 38.83848 ], [ -77.18829, 38.83702 ], [ -77.1878, 38.83621 ], [ -77.18874, 38.83598 ], [ -77.18942, 38.83634 ], [ -77.1897, 38.83706 ], [ -77.18909, 38.8386 ], [ -77.19067, 38.83953 ], [ -77.18994, 38.84131 ], [ -77.19046, 38.84162 ], [ -77.19162, 38.84042 ], [ -77.1915, 38.83947 ], [ -77.19247, 38.83952 ], [ -77.19313, 38.84038 ], [ -77.19247, 38.84133 ], [ -77.1937, 38.84137 ], [ -77.19401, 38.8417 ], [ -77.19349, 38.84236 ], [ -77.19408, 38.84291 ], [ -77.19395, 38.84331 ], [ -77.1933, 38.84348 ], [ -77.19446, 38.8454 ], [ -77.19518, 38.84517 ] ], [ [ -77.18573, 38.85642 ], [ -77.18573, 38.85643 ], [ -77.18576, 38.85642 ], [ -77.18573, 38.85642 ] ], [ [ -77.18569, 38.85529 ], [ -77.18569, 38.85534 ], [ -77.18576, 38.85534 ], [ -77.18569, 38.85529 ] ], [ [ -77.1855, 38.84832 ], [ -77.18496, 38.84834 ], [ -77.18543, 38.8486 ], [ -77.1855, 38.84832 ] ], [ [ -77.18182, 38.84671 ], [ -77.18179, 38.84676 ], [ -77.1819, 38.84679 ], [ -77.18182, 38.84671 ] ], [ [ -77.18307, 38.84484 ], [ -77.18276, 38.84536 ], [ -77.1833, 38.84486 ], [ -77.18307, 38.84484 ] ], [ [ -77.19242, 38.86358 ], [ -77.19274, 38.86358 ], [ -77.19329, 38.86355 ], [ -77.19242, 38.86358 ] ], [ [ -77.19141, 38.86282 ], [ -77.19178, 38.86261 ], [ -77.19094, 38.86263 ], [ -77.19119, 38.86305 ], [ -77.19141, 38.86282 ] ], [ [ -77.19194, 38.85969 ], [ -77.19195, 38.85979 ], [ -77.19202, 38.85972 ], [ -77.19194, 38.85969 ] ], [ [ -77.19289, 38.85568 ], [ -77.19253, 38.85573 ], [ -77.19289, 38.8561 ], [ -77.19289, 38.85568 ] ], [ [ -77.19306, 38.84825 ], [ -77.19207, 38.84824 ], [ -77.19202, 38.84841 ], [ -77.19265, 38.84872 ], [ -77.19306, 38.84825 ] ], [ [ -77.19224, 38.84703 ], [ -77.19176, 38.84614 ], [ -77.19069, 38.84625 ], [ -77.19038, 38.84553 ], [ -77.1925, 38.84479 ], [ -77.19203, 38.84395 ], [ -77.19076, 38.84412 ], [ -77.18923, 38.84336 ], [ -77.18982, 38.8443 ], [ -77.18972, 38.8453 ], [ -77.18897, 38.84613 ], [ -77.18793, 38.84651 ], [ -77.18964, 38.84687 ], [ -77.19072, 38.84759 ], [ -77.19224, 38.84703 ] ], [ [ -77.19509, 38.86181 ], [ -77.19484, 38.86163 ], [ -77.19485, 38.86225 ], [ -77.19509, 38.86181 ] ], [ [ -77.1947, 38.85791 ], [ -77.19501, 38.85812 ], [ -77.19493, 38.85772 ], [ -77.1947, 38.85791 ] ], [ [ -77.19432, 38.85609 ], [ -77.19425, 38.85473 ], [ -77.19429, 38.85668 ], [ -77.19432, 38.85609 ] ], [ [ -77.19688, 38.85287 ], [ -77.19862, 38.85221 ], [ -77.19794, 38.85157 ], [ -77.19812, 38.85118 ], [ -77.19707, 38.85092 ], [ -77.19698, 38.85045 ], [ -77.19506, 38.8505 ], [ -77.19377, 38.84939 ], [ -77.19286, 38.84984 ], [ -77.19452, 38.85054 ], [ -77.19546, 38.85182 ], [ -77.19643, 38.8521 ], [ -77.19688, 38.85287 ] ], [ [ -77.19986, 38.85061 ], [ -77.19991, 38.85122 ], [ -77.20062, 38.85062 ], [ -77.20088, 38.85006 ], [ -77.19986, 38.85061 ] ], [ [ -77.19533, 38.84919 ], [ -77.19564, 38.84949 ], [ -77.19613, 38.8494 ], [ -77.19533, 38.84919 ] ], [ [ -77.19678, 38.84719 ], [ -77.19658, 38.84727 ], [ -77.1968, 38.84735 ], [ -77.19678, 38.84719 ] ], [ [ -77.19528, 38.84758 ], [ -77.19579, 38.84779 ], [ -77.19621, 38.84732 ], [ -77.19528, 38.84758 ] ], [ [ -77.19635, 38.86123 ], [ -77.19646, 38.86131 ], [ -77.19696, 38.86086 ], [ -77.19635, 38.86123 ] ], [ [ -77.19892, 38.85891 ], [ -77.19778, 38.85999 ], [ -77.19905, 38.85897 ], [ -77.19967, 38.85804 ], [ -77.19892, 38.85891 ] ], [ [ -77.19805, 38.85798 ], [ -77.19815, 38.85782 ], [ -77.19792, 38.85778 ], [ -77.19805, 38.85798 ] ], [ [ -77.19619, 38.85835 ], [ -77.19559, 38.85852 ], [ -77.19591, 38.85873 ], [ -77.19724, 38.85769 ], [ -77.19648, 38.85761 ], [ -77.19619, 38.85835 ] ], [ [ -77.19839, 38.85663 ], [ -77.19784, 38.85667 ], [ -77.1984, 38.85676 ], [ -77.19839, 38.85663 ] ], [ [ -77.20074, 38.86208 ], [ -77.20111, 38.86211 ], [ -77.20085, 38.86199 ], [ -77.20074, 38.86208 ] ], [ [ -77.19352, 38.85287 ], [ -77.19354, 38.85335 ], [ -77.19369, 38.85333 ], [ -77.19352, 38.85287 ] ], [ [ -77.19389, 38.86456 ], [ -77.19375, 38.86458 ], [ -77.19383, 38.86598 ], [ -77.19389, 38.86456 ] ], [ [ -77.18776, 38.86493 ], [ -77.18765, 38.86507 ], [ -77.18748, 38.86539 ], [ -77.18776, 38.86493 ] ], [ [ -77.18906, 38.86356 ], [ -77.18853, 38.86317 ], [ -77.1886, 38.86367 ], [ -77.18906, 38.86356 ] ], [ [ -77.18847, 38.86271 ], [ -77.18849, 38.86285 ], [ -77.1885, 38.86279 ], [ -77.18847, 38.86271 ] ], [ [ -77.18979, 38.85856 ], [ -77.1905, 38.85906 ], [ -77.19095, 38.85893 ], [ -77.19045, 38.85705 ], [ -77.18977, 38.85766 ], [ -77.18928, 38.85751 ], [ -77.18898, 38.85663 ], [ -77.18833, 38.85738 ], [ -77.189, 38.8591 ], [ -77.18979, 38.85856 ] ], [ [ -77.18974, 38.85269 ], [ -77.18945, 38.85341 ], [ -77.19015, 38.85485 ], [ -77.19111, 38.85428 ], [ -77.19022, 38.85272 ], [ -77.19022, 38.85231 ], [ -77.19071, 38.85189 ], [ -77.19101, 38.85175 ], [ -77.19055, 38.85135 ], [ -77.19072, 38.85094 ], [ -77.18991, 38.85046 ], [ -77.1887, 38.85106 ], [ -77.18915, 38.85238 ], [ -77.18974, 38.85269 ] ], [ [ -77.18568, 38.84716 ], [ -77.18562, 38.8472 ], [ -77.18571, 38.84719 ], [ -77.18568, 38.84716 ] ], [ [ -77.18462, 38.84531 ], [ -77.18436, 38.84555 ], [ -77.18471, 38.84567 ], [ -77.18462, 38.84531 ] ], [ [ -77.18629, 38.84179 ], [ -77.18608, 38.84154 ], [ -77.18605, 38.84171 ], [ -77.18629, 38.84179 ] ], [ [ -77.18606, 38.8412 ], [ -77.18608, 38.84127 ], [ -77.18611, 38.84115 ], [ -77.18606, 38.8412 ] ], [ [ -77.18557, 38.84004 ], [ -77.18566, 38.84025 ], [ -77.18585, 38.84015 ], [ -77.18557, 38.84004 ] ], [ [ -77.19058, 38.86014 ], [ -77.19056, 38.86014 ], [ -77.19058, 38.86059 ], [ -77.19058, 38.86014 ] ], [ [ -77.18883, 38.84965 ], [ -77.18884, 38.84964 ], [ -77.18883, 38.84964 ], [ -77.18883, 38.84965 ] ], [ [ -77.19187, 38.85683 ], [ -77.19178, 38.85674 ], [ -77.19181, 38.85686 ], [ -77.19187, 38.85683 ] ], [ [ -77.18978, 38.86478 ], [ -77.19019, 38.8645 ], [ -77.18986, 38.86453 ], [ -77.18978, 38.86478 ] ], [ [ -77.18986, 38.86343 ], [ -77.18976, 38.8632 ], [ -77.18962, 38.86344 ], [ -77.18986, 38.86343 ] ], [ [ -77.18614, 38.84486 ], [ -77.18612, 38.84459 ], [ -77.18588, 38.84474 ], [ -77.18625, 38.84511 ], [ -77.18614, 38.84486 ] ], [ [ -77.18703, 38.84899 ], [ -77.18704, 38.84901 ], [ -77.18705, 38.84899 ], [ -77.18703, 38.84899 ] ], [ [ -77.18743, 38.8591 ], [ -77.18679, 38.85915 ], [ -77.18682, 38.8593 ], [ -77.18743, 38.8591 ] ], [ [ -77.18688, 38.85502 ], [ -77.18685, 38.85506 ], [ -77.18695, 38.85503 ], [ -77.18688, 38.85502 ] ], [ [ -77.18435, 38.84084 ], [ -77.18448, 38.84088 ], [ -77.18441, 38.84073 ], [ -77.18435, 38.84084 ] ], [ [ -77.18418, 38.83888 ], [ -77.1842, 38.83888 ], [ -77.18428, 38.83758 ], [ -77.18418, 38.83888 ] ], [ [ -77.18362, 38.84368 ], [ -77.18359, 38.84377 ], [ -77.18367, 38.84377 ], [ -77.18362, 38.84368 ] ], [ [ -77.18005, 38.86349 ], [ -77.18023, 38.86357 ], [ -77.18023, 38.86355 ], [ -77.18005, 38.86349 ] ], [ [ -77.17916, 38.86346 ], [ -77.17919, 38.86346 ], [ -77.17918, 38.86345 ], [ -77.17916, 38.86346 ] ], [ [ -77.1774, 38.86356 ], [ -77.178, 38.86353 ], [ -77.17787, 38.86318 ], [ -77.17763, 38.86303 ], [ -77.1774, 38.86356 ] ], [ [ -77.17638, 38.86153 ], [ -77.1763, 38.86275 ], [ -77.17741, 38.8613 ], [ -77.17693, 38.86105 ], [ -77.17638, 38.86153 ] ], [ [ -77.17607, 38.86017 ], [ -77.17503, 38.85998 ], [ -77.17583, 38.86054 ], [ -77.17686, 38.86071 ], [ -77.17701, 38.86037 ], [ -77.17607, 38.86017 ] ], [ [ -77.17817, 38.85831 ], [ -77.17643, 38.85849 ], [ -77.17565, 38.85803 ], [ -77.17609, 38.85749 ], [ -77.17574, 38.85693 ], [ -77.17638, 38.85647 ], [ -77.17588, 38.856 ], [ -77.17605, 38.85561 ], [ -77.17791, 38.85523 ], [ -77.17584, 38.85535 ], [ -77.17567, 38.85632 ], [ -77.17496, 38.85682 ], [ -77.1742, 38.85634 ], [ -77.17448, 38.85572 ], [ -77.17418, 38.85549 ], [ -77.17406, 38.85712 ], [ -77.17339, 38.85728 ], [ -77.17332, 38.85792 ], [ -77.17194, 38.85825 ], [ -77.1781, 38.85946 ], [ -77.17817, 38.85831 ] ], [ [ -77.17712, 38.85353 ], [ -77.17657, 38.85104 ], [ -77.17586, 38.85053 ], [ -77.17564, 38.84969 ], [ -77.17481, 38.85124 ], [ -77.17154, 38.85139 ], [ -77.17056, 38.85207 ], [ -77.17047, 38.8526 ], [ -77.17179, 38.85279 ], [ -77.17197, 38.85318 ], [ -77.17175, 38.85356 ], [ -77.1704, 38.85368 ], [ -77.17032, 38.85462 ], [ -77.17805, 38.85407 ], [ -77.17712, 38.85353 ] ], [ [ -77.17621, 38.84773 ], [ -77.17857, 38.84734 ], [ -77.17729, 38.846 ], [ -77.17542, 38.84553 ], [ -77.17522, 38.84858 ], [ -77.17621, 38.84773 ] ], [ [ -77.17894, 38.84522 ], [ -77.17893, 38.84386 ], [ -77.17837, 38.84544 ], [ -77.17894, 38.84522 ] ], [ [ -77.17805, 38.84193 ], [ -77.17742, 38.84198 ], [ -77.17748, 38.84241 ], [ -77.17805, 38.84193 ] ], [ [ -77.1839, 38.86229 ], [ -77.18154, 38.8626 ], [ -77.18161, 38.86349 ], [ -77.18281, 38.8633 ], [ -77.18335, 38.86274 ], [ -77.18425, 38.86293 ], [ -77.1839, 38.86229 ] ], [ [ -77.18277, 38.86121 ], [ -77.1834, 38.86121 ], [ -77.18351, 38.86096 ], [ -77.18288, 38.86091 ], [ -77.18277, 38.86121 ] ], [ [ -77.18363, 38.85963 ], [ -77.1836, 38.85947 ], [ -77.1835, 38.85955 ], [ -77.18363, 38.85963 ] ], [ [ -77.18035, 38.85378 ], [ -77.18172, 38.85258 ], [ -77.1816, 38.85186 ], [ -77.17832, 38.85222 ], [ -77.17838, 38.85291 ], [ -77.18028, 38.85383 ], [ -77.17941, 38.85442 ], [ -77.17932, 38.85736 ], [ -77.18035, 38.85378 ] ], [ [ -77.182, 38.85066 ], [ -77.18037, 38.8509 ], [ -77.17986, 38.8498 ], [ -77.17989, 38.85083 ], [ -77.17947, 38.85105 ], [ -77.18123, 38.85085 ], [ -77.18172, 38.85099 ], [ -77.1818, 38.85166 ], [ -77.182, 38.85066 ] ], [ [ -77.17946, 38.84819 ], [ -77.17929, 38.84855 ], [ -77.17968, 38.84859 ], [ -77.17989, 38.84833 ], [ -77.17946, 38.84819 ] ], [ [ -77.18018, 38.84653 ], [ -77.18073, 38.8466 ], [ -77.18054, 38.8462 ], [ -77.17979, 38.8461 ], [ -77.18018, 38.84653 ] ], [ [ -77.18056, 38.83896 ], [ -77.18031, 38.83927 ], [ -77.18042, 38.83918 ], [ -77.18056, 38.83896 ] ], [ [ -77.18425, 38.8543 ], [ -77.18368, 38.85432 ], [ -77.18336, 38.85679 ], [ -77.18436, 38.85663 ], [ -77.18425, 38.8543 ] ], [ [ -77.18343, 38.85093 ], [ -77.18347, 38.85109 ], [ -77.18364, 38.85068 ], [ -77.18343, 38.85093 ] ], [ [ -77.18267, 38.84844 ], [ -77.18069, 38.84845 ], [ -77.18091, 38.84896 ], [ -77.18183, 38.84877 ], [ -77.18212, 38.84936 ], [ -77.18267, 38.84844 ] ], [ [ -77.18453, 38.84992 ], [ -77.18464, 38.85018 ], [ -77.18465, 38.8499 ], [ -77.18453, 38.84992 ] ], [ [ -77.18442, 38.85056 ], [ -77.18462, 38.85071 ], [ -77.18462, 38.85054 ], [ -77.18463, 38.85022 ], [ -77.18442, 38.85056 ] ], [ [ -77.18373, 38.8496 ], [ -77.18373, 38.84944 ], [ -77.18358, 38.84959 ], [ -77.18373, 38.8496 ] ], [ [ -77.18419, 38.85322 ], [ -77.18423, 38.85286 ], [ -77.18397, 38.85291 ], [ -77.18419, 38.85322 ] ], [ [ -77.18177, 38.84447 ], [ -77.18131, 38.84434 ], [ -77.18138, 38.84521 ], [ -77.18177, 38.84447 ] ], [ [ -77.18139, 38.83728 ], [ -77.18112, 38.83827 ], [ -77.18169, 38.83845 ], [ -77.18139, 38.83728 ] ], [ [ -77.18157, 38.83998 ], [ -77.18158, 38.83987 ], [ -77.18141, 38.83994 ], [ -77.18157, 38.83998 ] ], [ [ -77.18168, 38.85409 ], [ -77.18083, 38.85709 ], [ -77.18196, 38.85696 ], [ -77.18228, 38.85357 ], [ -77.18168, 38.85409 ] ], [ [ -77.17964, 38.86017 ], [ -77.17951, 38.85967 ], [ -77.17956, 38.86046 ], [ -77.18008, 38.86055 ], [ -77.17964, 38.86017 ] ], [ [ -77.178, 38.85116 ], [ -77.17942, 38.85106 ], [ -77.17863, 38.85064 ], [ -77.17844, 38.8496 ], [ -77.178, 38.85116 ] ], [ [ -77.17927, 38.84249 ], [ -77.17913, 38.84269 ], [ -77.17921, 38.84269 ], [ -77.17952, 38.84187 ], [ -77.17927, 38.84249 ] ], [ [ -77.17758, 38.84355 ], [ -77.17753, 38.84356 ], [ -77.17757, 38.84359 ], [ -77.17758, 38.84355 ] ], [ [ -77.17706, 38.8685 ], [ -77.17537, 38.86715 ], [ -77.17536, 38.86879 ], [ -77.17706, 38.8685 ] ], [ [ -77.17337, 38.86451 ], [ -77.17352, 38.86461 ], [ -77.17387, 38.86415 ], [ -77.17337, 38.86451 ] ], [ [ -77.17797, 38.86603 ], [ -77.17786, 38.86606 ], [ -77.17795, 38.86611 ], [ -77.17797, 38.86603 ] ], [ [ -77.1746, 38.86531 ], [ -77.17481, 38.8654 ], [ -77.17577, 38.86375 ], [ -77.1746, 38.86531 ] ], [ [ -77.17316, 38.84892 ], [ -77.17305, 38.84802 ], [ -77.17392, 38.84781 ], [ -77.17246, 38.8475 ], [ -77.17231, 38.84858 ], [ -77.17145, 38.84895 ], [ -77.17104, 38.84869 ], [ -77.17107, 38.8475 ], [ -77.17015, 38.84825 ], [ -77.16836, 38.84785 ], [ -77.16845, 38.84836 ], [ -77.16925, 38.84828 ], [ -77.1698, 38.84891 ], [ -77.16886, 38.85042 ], [ -77.16933, 38.85157 ], [ -77.17316, 38.84892 ] ], [ [ -77.17407, 38.85032 ], [ -77.17413, 38.8497 ], [ -77.17304, 38.85041 ], [ -77.17407, 38.85032 ] ], [ [ -77.1733, 38.84452 ], [ -77.1737, 38.84456 ], [ -77.17358, 38.84426 ], [ -77.17248, 38.84458 ], [ -77.1733, 38.84452 ] ], [ [ -77.17275, 38.857 ], [ -77.17295, 38.85704 ], [ -77.17283, 38.85686 ], [ -77.17278, 38.85658 ], [ -77.17275, 38.857 ] ], [ [ -77.17274, 38.85556 ], [ -77.17011, 38.85571 ], [ -77.17006, 38.85602 ], [ -77.17265, 38.85582 ], [ -77.17274, 38.85556 ] ], [ [ -77.16896, 38.85437 ], [ -77.1681, 38.85512 ], [ -77.16742, 38.85457 ], [ -77.16898, 38.85268 ], [ -77.16868, 38.85255 ], [ -77.1675, 38.85398 ], [ -77.16607, 38.85412 ], [ -77.16595, 38.85443 ], [ -77.16633, 38.85481 ], [ -77.166, 38.85556 ], [ -77.1668, 38.85692 ], [ -77.16735, 38.8559 ], [ -77.16787, 38.85581 ], [ -77.16832, 38.85603 ], [ -77.1684, 38.85754 ], [ -77.16896, 38.85437 ] ], [ [ -77.16784, 38.84938 ], [ -77.16775, 38.84936 ], [ -77.16761, 38.84956 ], [ -77.16784, 38.84938 ] ], [ [ -77.1709, 38.85945 ], [ -77.17139, 38.86001 ], [ -77.17166, 38.85931 ], [ -77.16903, 38.8588 ], [ -77.1687, 38.85902 ], [ -77.1709, 38.85945 ] ], [ [ -77.17131, 38.85704 ], [ -77.17139, 38.85754 ], [ -77.17071, 38.85801 ], [ -77.17176, 38.85822 ], [ -77.17131, 38.85704 ] ], [ [ -77.16987, 38.85711 ], [ -77.16975, 38.85783 ], [ -77.17051, 38.85797 ], [ -77.16987, 38.85711 ] ], [ [ -77.17212, 38.86247 ], [ -77.17289, 38.86159 ], [ -77.17228, 38.86147 ], [ -77.1718, 38.86274 ], [ -77.17212, 38.86247 ] ], [ [ -77.17141, 38.86814 ], [ -77.17235, 38.86816 ], [ -77.17179, 38.86752 ], [ -77.17141, 38.86814 ] ] ] } },
{ "type": "Feature", "properties": { "variant": "T2s", "miles": 0.5 }, "geometry": { "type": "Polygon", "coordinates": [ [ [ -77.18453, 38.84782 ], [ -77.18456, 38.84851 ], [ -77.18358, 38.84959 ], [ -77.18448, 38.84981 ], [ -77.18471, 38.85079 ], [ -77.18534, 38.85041 ], [ -77.18582, 38.85058 ], [ -77.18595, 38.85244 ], [ -77.18788, 38.85252 ], [ -77.18811, 38.8529 ], [ -77.18723, 38.85347 ], [ -77.18726, 38.85397 ], [ -77.18817, 38.85423 ], [ -77.18831, 38.85463 ], [ -77.18804, 38.85499 ], [ -77.18569, 38.85529 ], [ -77.18552, 38.85626 ], [ -77.18504, 38.85643 ], [ -77.18432, 38.85591 ], [ -77.18425, 38.8543 ], [ -77.18368, 38.85432 ], [ -77.18318, 38.85774 ], [ -77.17993, 38.85833 ], [ -77.17929, 38.85953 ], [ -77.17831, 38.85957 ], [ -77.17813, 38.85738 ], [ -77.17935, 38.85735 ], [ -77.1805, 38.85348 ], [ -77.18172, 38.85258 ], [ -77.18145, 38.8522 ], [ -77.18213, 38.85136 ], [ -77.182, 38.85066 ], [ -77.18037, 38.8509 ], [ -77.18002, 38.85018 ], [ -77.18131, 38.84872 ], [ -77.18183, 38.84877 ], [ -77.18212, 38.84936 ], [ -77.18357, 38.84771 ], [ -77.18453, 38.84782 ] ], [ [ -77.18347, 38.85082 ], [ -77.18364, 38.85068 ], [ -77.18347, 38.85109 ], [ -77.18347, 38.85082 ] ], [ [ -77.18419, 38.85322 ], [ -77.18397, 38.85291 ], [ -77.18382, 38.85323 ], [ -77.18419, 38.85322 ] ], [ [ -77.18232, 38.85356 ], [ -77.18168, 38.85409 ], [ -77.18083, 38.85709 ], [ -77.18196, 38.85696 ], [ -77.18232, 38.85356 ] ] ] } },
{ "type": "Feature", "properties": { "variant": "T2s", "miles": 1.0 }, "geometry": { "type": "Polygon", "coordinates": [ [ [ -77.18959, 38.84773 ], [ -77.19028, 38.8494 ], [ -77.19201, 38.85047 ], [ -77.19212, 38.85129 ], [ -77.19161, 38.85175 ], [ -77.19211, 38.85221 ], [ -77.19229, 38.85158 ], [ -77.19327, 38.85156 ], [ -77.19354, 38.85335 ], [ -77.1942, 38.85264 ], [ -77.19523, 38.85316 ], [ -77.1966, 38.85316 ], [ -77.19689, 38.85351 ], [ -77.19677, 38.85391 ], [ -77.19556, 38.85422 ], [ -77.1955, 38.85511 ], [ -77.19453, 38.8552 ], [ -77.19425, 38.85473 ], [ -77.19435, 38.85722 ], [ -77.19419, 38.85762 ], [ -77.19331, 38.85784 ], [ -77.19382, 38.85852 ], [ -77.1932, 38.85909 ], [ -77.19389, 38.85977 ], [ -77.19373, 38.86017 ], [ -77.19275, 38.86022 ], [ -77.19195, 38.85968 ], [ -77.19163, 38.86006 ], [ -77.19068, 38.8599 ], [ -77.19095, 38.85893 ], [ -77.19045, 38.85705 ], [ -77.18977, 38.85766 ], [ -77.18928, 38.85751 ], [ -77.18898, 38.85663 ], [ -77.18819, 38.85749 ], [ -77.18656, 38.85765 ], [ -77.18682, 38.8593 ], [ -77.18744, 38.85923 ], [ -77.18807, 38.85861 ], [ -77.18857, 38.85873 ], [ -77.18934, 38.86014 ], [ -77.18902, 38.86086 ], [ -77.18816, 38.86065 ], [ -77.18812, 38.86153 ], [ -77.18718, 38.86166 ], [ -77.18707, 38.86227 ], [ -77.18444, 38.86296 ], [ -77.1839, 38.86229 ], [ -77.18154, 38.8626 ], [ -77.18185, 38.86487 ], [ -77.18129, 38.86549 ], [ -77.18049, 38.86505 ], [ -77.18021, 38.86337 ], [ -77.17855, 38.86377 ], [ -77.17766, 38.86296 ], [ -77.17739, 38.86357 ], [ -77.17808, 38.86406 ], [ -77.17792, 38.86446 ], [ -77.17603, 38.8646 ], [ -77.17577, 38.86375 ], [ -77.17398, 38.86323 ], [ -77.17358, 38.86253 ], [ -77.17447, 38.86221 ], [ -77.1763, 38.86275 ], [ -77.17741, 38.8613 ], [ -77.17682, 38.86094 ], [ -77.17701, 38.86037 ], [ -77.173, 38.85958 ], [ -77.17248, 38.86035 ], [ -77.17196, 38.86039 ], [ -77.1715, 38.85971 ], [ -77.17187, 38.85879 ], [ -77.17266, 38.85842 ], [ -77.1781, 38.85946 ], [ -77.17817, 38.85831 ], [ -77.17643, 38.85849 ], [ -77.17565, 38.85803 ], [ -77.17609, 38.85749 ], [ -77.17574, 38.85693 ], [ -77.17638, 38.85647 ], [ -77.17588, 38.856 ], [ -77.17605, 38.85561 ], [ -77.17791, 38.85523 ], [ -77.17584, 38.85535 ], [ -77.17567, 38.85632 ], [ -77.17496, 38.85682 ], [ -77.1742, 38.85634 ], [ -77.17446, 38.85547 ], [ -77.17303, 38.8554 ], [ -77.17279, 38.85504 ], [ -77.17341, 38.85445 ], [ -77.17805, 38.85415 ], [ -77.17712, 38.85353 ], [ -77.17657, 38.85104 ], [ -77.17586, 38.85053 ], [ -77.17564, 38.84969 ], [ -77.17358, 38.84927 ], [ -77.17423, 38.84621 ], [ -77.17521, 38.84624 ], [ -77.17548, 38.84859 ], [ -77.17613, 38.84777 ], [ -77.17857, 38.84734 ], [ -77.17823, 38.84663 ], [ -77.17728, 38.84633 ], [ -77.17729, 38.84592 ], [ -77.17982, 38.84488 ], [ -77.17979, 38.8437 ], [ -77.18025, 38.84308 ], [ -77.18227, 38.84346 ], [ -77.18268, 38.84222 ], [ -77.18385, 38.84245 ], [ -77.18383, 38.84313 ], [ -77.1867, 38.84213 ], [ -77.18794, 38.84346 ], [ -77.18588, 38.84474 ], [ -77.1862, 38.84615 ], [ -77.18797, 38.84653 ], [ -77.18818, 38.84727 ], [ -77.18959, 38.84773 ] ], [ [ -77.18576, 38.85642 ], [ -77.18573, 38.85642 ], [ -77.18573, 38.85643 ], [ -77.18576, 38.85642 ] ], [ [ -77.18576, 38.85534 ], [ -77.18569, 38.85529 ], [ -77.18569, 38.85534 ], [ -77.18576, 38.85534 ] ], [ [ -77.18442, 38.85056 ], [ -77.18462, 38.85054 ], [ -77.18463, 38.85022 ], [ -77.18442, 38.85056 ] ], [ [ -77.18347, 38.85082 ], [ -77.18339, 38.85066 ], [ -77.18347, 38.85109 ], [ -77.18347, 38.85082 ] ], [ [ -77.18216, 38.84931 ], [ -77.18287, 38.84854 ], [ -77.18069, 38.84845 ], [ -77.18091, 38.84896 ], [ -77.18183, 38.84877 ], [ -77.18216, 38.84931 ] ], [ [ -77.18189, 38.84677 ], [ -77.18136, 38.84557 ], [ -77.18177, 38.84447 ], [ -77.18131, 38.84434 ], [ -77.18108, 38.84588 ], [ -77.17958, 38.84636 ], [ -77.18189, 38.84677 ] ], [ [ -77.1891, 38.85237 ], [ -77.18974, 38.85269 ], [ -77.18945, 38.85341 ], [ -77.19015, 38.85485 ], [ -77.19111, 38.85428 ], [ -77.19022, 38.85272 ], [ -77.19022, 38.85231 ], [ -77.19071, 38.85189 ], [ -77.19101, 38.85175 ], [ -77.19055, 38.85135 ], [ -77.19072, 38.85094 ], [ -77.18991, 38.85046 ], [ -77.1887, 38.85106 ], [ -77.1891, 38.85237 ] ], [ [ -77.18704, 38.84901 ], [ -77.18705, 38.84899 ], [ -77.18703, 38.84899 ], [ -77.18704, 38.84901 ] ], [ [ -77.18465, 38.8499 ], [ -77.18453, 38.84992 ], [ -77.18464, 38.85018 ], [ -77.18465, 38.8499 ] ], [ [ -77.18571, 38.84719 ], [ -77.18568, 38.84716 ], [ -77.18562, 38.8472 ], [ -77.18571, 38.84719 ] ], [ [ -77.18471, 38.84567 ], [ -77.18462, 38.84531 ], [ -77.18436, 38.84555 ], [ -77.18471, 38.84567 ] ], [ [ -77.18359, 38.84377 ], [ -77.18367, 38.84377 ], [ -77.18362, 38.84368 ], [ -77.18359, 38.84377 ] ], [ [ -77.18883, 38.84964 ], [ -77.18883, 38.84965 ], [ -77.18884, 38.84964 ], [ -77.18883, 38.84964 ] ], [ [ -77.18978, 38.84832 ], [ -77.1898, 38.84834 ], [ -77.1898, 38.84831 ], [ -77.18978, 38.84832 ] ], [ [ -77.19054, 38.85206 ], [ -77.1906, 38.85202 ], [ -77.19053, 38.85206 ], [ -77.19054, 38.85206 ] ], [ [ -77.19289, 38.8561 ], [ -77.19289, 38.85568 ], [ -77.19253, 38.85573 ], [ -77.19289, 38.8561 ] ], [ [ -77.19181, 38.85686 ], [ -77.19187, 38.85683 ], [ -77.19178, 38.85674 ], [ -77.19181, 38.85686 ] ], [ [ -77.18543, 38.8486 ], [ -77.1855, 38.84832 ], [ -77.18496, 38.84834 ], [ -77.18543, 38.8486 ] ], [ [ -77.18688, 38.85502 ], [ -77.18685, 38.85506 ], [ -77.18695, 38.85503 ], [ -77.18688, 38.85502 ] ], [ [ -77.1833, 38.84486 ], [ -77.18307, 38.84484 ], [ -77.18276, 38.84536 ], [ -77.1833, 38.84486 ] ], [ [ -77.18373, 38.84944 ], [ -77.18358, 38.84959 ], [ -77.18373, 38.8496 ], [ -77.18373, 38.84944 ] ], [ [ -77.18174, 38.85068 ], [ -77.18037, 38.8509 ], [ -77.17986, 38.8498 ], [ -77.17989, 38.85083 ], [ -77.17893, 38.85099 ], [ -77.17843, 38.8496 ], [ -77.17794, 38.85089 ], [ -77.17838, 38.85291 ], [ -77.18028, 38.85383 ], [ -77.17941, 38.85442 ], [ -77.17932, 38.85736 ], [ -77.18052, 38.85343 ], [ -77.18172, 38.85258 ], [ -77.18145, 38.8522 ], [ -77.18213, 38.85136 ], [ -77.18174, 38.85068 ] ], [ [ -77.17956, 38.86046 ], [ -77.18008, 38.86055 ], [ -77.17951, 38.85967 ], [ -77.17956, 38.86046 ] ], [ [ -77.1834, 38.86121 ], [ -77.18288, 38.86091 ], [ -77.18277, 38.86121 ], [ -77.1834, 38.86121 ] ], [ [ -77.1835, 38.85955 ], [ -77.18363, 38.85963 ], [ -77.1836, 38.85947 ], [ -77.1835, 38.85955 ] ], [ [ -77.18196, 38.85696 ], [ -77.18238, 38.85364 ], [ -77.1824, 38.85353 ], [ -77.18168, 38.85409 ], [ -77.18083, 38.85709 ], [ -77.18196, 38.85696 ] ], [ [ -77.18419, 38.85322 ], [ -77.18397, 38.85291 ], [ -77.18382, 38.85323 ], [ -77.18419, 38.85322 ] ], [ [ -77.18436, 38.85663 ], [ -77.18425, 38.8543 ], [ -77.18368, 38.85432 ], [ -77.18336, 38.85679 ], [ -77.18436, 38.85663 ] ], [ [ -77.17999, 38.84836 ], [ -77.17946, 38.84819 ], [ -77.17929, 38.84855 ], [ -77.17999, 38.84836 ] ], [ [ -77.17704, 38.84971 ], [ -77.17708, 38.85002 ], [ -77.17705, 38.8497 ], [ -77.17704, 38.84971 ] ] ] } },
{ "type": "Feature", "properties": { "variant": "T2s", "miles": 1.5 }, "geometry": { "type": "Polygon", "coordinates": [ [ [ -77.19518, 38.84517 ], [ -77.19602, 38.84575 ], [ -77.19655, 38.84543 ], [ -77.19831, 38.84634 ], [ -77.19791, 38.84701 ], [ -77.19834, 38.84752 ], [ -77.19775, 38.84814 ], [ -77.19752, 38.84947 ], [ -77.19784, 38.85027 ], [ -77.19528, 38.85056 ], [ -77.19377, 38.84939 ], [ -77.19286, 38.84984 ], [ -77.19452, 38.85054 ], [ -77.19546, 38.85182 ], [ -77.19668, 38.85223 ], [ -77.19688, 38.85288 ], [ -77.19775, 38.85318 ], [ -77.19736, 38.85388 ], [ -77.19556, 38.85422 ], [ -77.19652, 38.85454 ], [ -77.19692, 38.85562 ], [ -77.1996, 38.85543 ], [ -77.19961, 38.85458 ], [ -77.20007, 38.85438 ], [ -77.20085, 38.85468 ], [ -77.20113, 38.85531 ], [ -77.20342, 38.85514 ], [ -77.20418, 38.85563 ], [ -77.20355, 38.85622 ], [ -77.19976, 38.8565 ], [ -77.19979, 38.85696 ], [ -77.20392, 38.85749 ], [ -77.20462, 38.85802 ], [ -77.20394, 38.85857 ], [ -77.20218, 38.85841 ], [ -77.2006, 38.86061 ], [ -77.20253, 38.86144 ], [ -77.20244, 38.8622 ], [ -77.20085, 38.86199 ], [ -77.19971, 38.86295 ], [ -77.19803, 38.86343 ], [ -77.1962, 38.8625 ], [ -77.19492, 38.86348 ], [ -77.19573, 38.86647 ], [ -77.19511, 38.86705 ], [ -77.19422, 38.86661 ], [ -77.19389, 38.86456 ], [ -77.19375, 38.86629 ], [ -77.19294, 38.86672 ], [ -77.19224, 38.86579 ], [ -77.19237, 38.86466 ], [ -77.19157, 38.8646 ], [ -77.1906, 38.86569 ], [ -77.18881, 38.86567 ], [ -77.18912, 38.8667 ], [ -77.18827, 38.86768 ], [ -77.17782, 38.86948 ], [ -77.17817, 38.87035 ], [ -77.17788, 38.8707 ], [ -77.17736, 38.87078 ], [ -77.17664, 38.87017 ], [ -77.1753, 38.87039 ], [ -77.17502, 38.87261 ], [ -77.17368, 38.87252 ], [ -77.17335, 38.87219 ], [ -77.17391, 38.87061 ], [ -77.17219, 38.87089 ], [ -77.17131, 38.87031 ], [ -77.17141, 38.8699 ], [ -77.17267, 38.86922 ], [ -77.17397, 38.86892 ], [ -77.17049, 38.86968 ], [ -77.16966, 38.86928 ], [ -77.17041, 38.8672 ], [ -77.17163, 38.86629 ], [ -77.17256, 38.86647 ], [ -77.17367, 38.86776 ], [ -77.17399, 38.86763 ], [ -77.17398, 38.86718 ], [ -77.17293, 38.86628 ], [ -77.17289, 38.86562 ], [ -77.17049, 38.86346 ], [ -77.17045, 38.86246 ], [ -77.17131, 38.86021 ], [ -77.17056, 38.8605 ], [ -77.16753, 38.85984 ], [ -77.16731, 38.86001 ], [ -77.16814, 38.86032 ], [ -77.16826, 38.86039 ], [ -77.16827, 38.8604 ], [ -77.16868, 38.86063 ], [ -77.16877, 38.86104 ], [ -77.16794, 38.86144 ], [ -77.1656, 38.86057 ], [ -77.1654, 38.86019 ], [ -77.16743, 38.85844 ], [ -77.1659, 38.85753 ], [ -77.16607, 38.85714 ], [ -77.16693, 38.85707 ], [ -77.16735, 38.8559 ], [ -77.16832, 38.85603 ], [ -77.1684, 38.85754 ], [ -77.16937, 38.8515 ], [ -77.17386, 38.84837 ], [ -77.17403, 38.84557 ], [ -77.17266, 38.84195 ], [ -77.17386, 38.84107 ], [ -77.17471, 38.84116 ], [ -77.17474, 38.84192 ], [ -77.17419, 38.84223 ], [ -77.17503, 38.84428 ], [ -77.17611, 38.84456 ], [ -77.17597, 38.84156 ], [ -77.17612, 38.84116 ], [ -77.17712, 38.84092 ], [ -77.17714, 38.83963 ], [ -77.17811, 38.83954 ], [ -77.17839, 38.84007 ], [ -77.17997, 38.83767 ], [ -77.18025, 38.8365 ], [ -77.18162, 38.83621 ], [ -77.18171, 38.83536 ], [ -77.18217, 38.83516 ], [ -77.1836, 38.83507 ], [ -77.18484, 38.83588 ], [ -77.1856, 38.83726 ], [ -77.18768, 38.83848 ], [ -77.18829, 38.83702 ], [ -77.1878, 38.83621 ], [ -77.18874, 38.83598 ], [ -77.18945, 38.83636 ], [ -77.1897, 38.83706 ], [ -77.18909, 38.8386 ], [ -77.19067, 38.83953 ], [ -77.18994, 38.84131 ], [ -77.19046, 38.84162 ], [ -77.19162, 38.84042 ], [ -77.1915, 38.83947 ], [ -77.19247, 38.83952 ], [ -77.19313, 38.84038 ], [ -77.19247, 38.84133 ], [ -77.1937, 38.84137 ], [ -77.19401, 38.8417 ], [ -77.19349, 38.84236 ], [ -77.19408, 38.84291 ], [ -77.19395, 38.84331 ], [ -77.1933, 38.84348 ], [ -77.19446, 38.8454 ], [ -77.19518, 38.84517 ] ], [ [ -77.1839, 38.86229 ], [ -77.18244, 38.86229 ], [ -77.18154, 38.8626 ], [ -77.18161, 38.86349 ], [ -77.18281, 38.8633 ], [ -77.18335, 38.86274 ], [ -77.18407, 38.86307 ], [ -77.1839, 38.86229 ] ], [ [ -77.18425, 38.8543 ], [ -77.18368, 38.85432 ], [ -77.18336, 38.85679 ], [ -77.18436, 38.85663 ], [ -77.18425, 38.8543 ] ], [ [ -77.18423, 38.85286 ], [ -77.18382, 38.85323 ], [ -77.18419, 38.85322 ], [ -77.18423, 38.85286 ] ], [ [ -77.18462, 38.85054 ], [ -77.18463, 38.85022 ], [ -77.18442, 38.85056 ], [ -77.18462, 38.85054 ] ], [ [ -77.18465, 38.8499 ], [ -77.18453, 38.84992 ], [ -77.18464, 38.85018 ], [ -77.18465, 38.8499 ] ], [ [ -77.18462, 38.84531 ], [ -77.18436, 38.84555 ], [ -77.18471, 38.84567 ], [ -77.18462, 38.84531 ] ], [ [ -77.18359, 38.84377 ], [ -77.18367, 38.84377 ], [ -77.18362, 38.84368 ], [ -77.18359, 38.84377 ] ], [ [ -77.18441, 38.84073 ], [ -77.18433, 38.84077 ], [ -77.18435, 38.84084 ], [ -77.18441, 38.84073 ] ], [ [ -77.18431, 38.83767 ], [ -77.18428, 38.83758 ], [ -77.18418, 38.83888 ], [ -77.18431, 38.83767 ] ], [ [ -77.19141, 38.86282 ], [ -77.19178, 38.86261 ], [ -77.19094, 38.86263 ], [ -77.19119, 38.86305 ], [ -77.19141, 38.86282 ] ], [ [ -77.19194, 38.85969 ], [ -77.19195, 38.85979 ], [ -77.19202, 38.85972 ], [ -77.19194, 38.85969 ] ], [ [ -77.19045, 38.85705 ], [ -77.19026, 38.8575 ], [ -77.18928, 38.85751 ], [ -77.18898, 38.85663 ], [ -77.18857, 38.85676 ], [ -77.18833, 38.85738 ], [ -77.18881, 38.85911 ], [ -77.18979, 38.85856 ], [ -77.19082, 38.85905 ], [ -77.19045, 38.85705 ] ], [ [ -77.19178, 38.85674 ], [ -77.19181, 38.85686 ], [ -77.19187, 38.85683 ], [ -77.19178, 38.85674 ] ], [ [ -77.19022, 38.85272 ], [ -77.19022, 38.85231 ], [ -77.19071, 38.85189 ], [ -77.19101, 38.85175 ], [ -77.19055, 38.85135 ], [ -77.19072, 38.85094 ], [ -77.18991, 38.85046 ], [ -77.1887, 38.85106 ], [ -77.18898, 38.85235 ], [ -77.18974, 38.85269 ], [ -77.18945, 38.85341 ], [ -77.19015, 38.85485 ], [ -77.19111, 38.85427 ], [ -77.19022, 38.85272 ] ], [ [ -77.19224, 38.84703 ], [ -77.19176, 38.84614 ], [ -77.19069, 38.84625 ], [ -77.19038, 38.84553 ], [ -77.1925, 38.84479 ], [ -77.19203, 38.84395 ], [ -77.19076, 38.84412 ], [ -77.18923, 38.84336 ], [ -77.18982, 38.8443 ], [ -77.18972, 38.8453 ], [ -77.18897, 38.84613 ], [ -77.18793, 38.84651 ], [ -77.18964, 38.84687 ], [ -77.19072, 38.84759 ], [ -77.19224, 38.84703 ] ], [ [ -77.1968, 38.84735 ], [ -77.19704, 38.84717 ], [ -77.19678, 38.84719 ], [ -77.1968, 38.84735 ] ], [ [ -77.19563, 38.8473 ], [ -77.19528, 38.84758 ], [ -77.19579, 38.84779 ], [ -77.19621, 38.84732 ], [ -77.19563, 38.8473 ] ], [ [ -77.19533, 38.84919 ], [ -77.19613, 38.84941 ], [ -77.19617, 38.8492 ], [ -77.19533, 38.84919 ] ], [ [ -77.19509, 38.86181 ], [ -77.19484, 38.86163 ], [ -77.19485, 38.86225 ], [ -77.19509, 38.86181 ] ], [ [ -77.1947, 38.85791 ], [ -77.19501, 38.85812 ], [ -77.19493, 38.85772 ], [ -77.1947, 38.85791 ] ], [ [ -77.19432, 38.85609 ], [ -77.19425, 38.85473 ], [ -77.19429, 38.85668 ], [ -77.19461, 38.85661 ], [ -77.19432, 38.85609 ] ], [ [ -77.19352, 38.85287 ], [ -77.19354, 38.85335 ], [ -77.19369, 38.85333 ], [ -77.19352, 38.85287 ] ], [ [ -77.19815, 38.85782 ], [ -77.19792, 38.85778 ], [ -77.19805, 38.85798 ], [ -77.19815, 38.85782 ] ], [ [ -77.1963, 38.85762 ], [ -77.19619, 38.85835 ], [ -77.19559, 38.85852 ], [ -77.19591, 38.85873 ], [ -77.19724, 38.85769 ], [ -77.1963, 38.85762 ] ], [ [ -77.19839, 38.85663 ], [ -77.19784, 38.85667 ], [ -77.1984, 38.85676 ], [ -77.19839, 38.85663 ] ], [ [ -77.19967, 38.85804 ], [ -77.19775, 38.85997 ], [ -77.19788, 38.86004 ], [ -77.19967, 38.85804 ] ], [ [ -77.19696, 38.86086 ], [ -77.19685, 38.86079 ], [ -77.19635, 38.86123 ], [ -77.19696, 38.86086 ] ], [ [ -77.19202, 38.84841 ], [ -77.19264, 38.84872 ], [ -77.19306, 38.84825 ], [ -77.19248, 38.8481 ], [ -77.19202, 38.84841 ] ], [ [ -77.19253, 38.85573 ], [ -77.19289, 38.8561 ], [ -77.19289, 38.85601 ], [ -77.19289, 38.85568 ], [ -77.19253, 38.85573 ] ], [ [ -77.19309, 38.86357 ], [ -77.19329, 38.86355 ], [ -77.1924, 38.86358 ], [ -77.19309, 38.86357 ] ], [ [ -77.18614, 38.84486 ], [ -77.18612, 38.84459 ], [ -77.18588, 38.84474 ], [ -77.18625, 38.84511 ], [ -77.18614, 38.84486 ] ], [ [ -77.18776, 38.86493 ], [ -77.18765, 38.86507 ], [ -77.18748, 38.86539 ], [ -77.18776, 38.86493 ] ], [ [ -77.18743, 38.8591 ], [ -77.18679, 38.85915 ], [ -77.18682, 38.8593 ], [ -77.18743, 38.8591 ] ], [ [ -77.18705, 38.84899 ], [ -77.18703, 38.84899 ], [ -77.18704, 38.84901 ], [ -77.18705, 38.84899 ] ], [ [ -77.18884, 38.84964 ], [ -77.18883, 38.84964 ], [ -77.18883, 38.84965 ], [ -77.18884, 38.84964 ] ], [ [ -77.19058, 38.86059 ], [ -77.1906, 38.86059 ], [ -77.19058, 38.86014 ], [ -77.19058, 38.86059 ] ], [ [ -77.18962, 38.86344 ], [ -77.18948, 38.86348 ], [ -77.18986, 38.86343 ], [ -77.18976, 38.8632 ], [ -77.18962, 38.86344 ] ], [ [ -77.18906, 38.86356 ], [ -77.18853, 38.86317 ], [ -77.1886, 38.86367 ], [ -77.18906, 38.86356 ] ], [ [ -77.18854, 38.8627 ], [ -77.18852, 38.86273 ], [ -77.18849, 38.86285 ], [ -77.18854, 38.8627 ] ], [ [ -77.19002, 38.8647 ], [ -77.19019, 38.8645 ], [ -77.18986, 38.86453 ], [ -77.19002, 38.8647 ] ], [ [ -77.18611, 38.84115 ], [ -77.18605, 38.84113 ], [ -77.18606, 38.8412 ], [ -77.18611, 38.84115 ] ], [ [ -77.18566, 38.84025 ], [ -77.18585, 38.84015 ], [ -77.18569, 38.84007 ], [ -77.18566, 38.84025 ] ], [ [ -77.18629, 38.84179 ], [ -77.18608, 38.84154 ], [ -77.18605, 38.84171 ], [ -77.18629, 38.84179 ] ], [ [ -77.1855, 38.84832 ], [ -77.18496, 38.84834 ], [ -77.1852, 38.84847 ], [ -77.1855, 38.84832 ] ], [ [ -77.18562, 38.8472 ], [ -77.18579, 38.84719 ], [ -77.18571, 38.84717 ], [ -77.18562, 38.8472 ] ], [ [ -77.18573, 38.85643 ], [ -77.18576, 38.85642 ], [ -77.18573, 38.85642 ], [ -77.18573, 38.85643 ] ], [ [ -77.18688, 38.85502 ], [ -77.18685, 38.85506 ], [ -77.18695, 38.85503 ], [ -77.18688, 38.85502 ] ], [ [ -77.18569, 38.85534 ], [ -77.18576, 38.85534 ], [ -77.18569, 38.85529 ], [ -77.18569, 38.85534 ] ], [ [ -77.17916, 38.86346 ], [ -77.17919, 38.86346 ], [ -77.17918, 38.86345 ], [ -77.17916, 38.86346 ] ], [ [ -77.18008, 38.86055 ], [ -77.17951, 38.85967 ], [ -77.17956, 38.86046 ], [ -77.18008, 38.86055 ] ], [ [ -77.18035, 38.85378 ], [ -77.18172, 38.85258 ], [ -77.1816, 38.85186 ], [ -77.17832, 38.85222 ], [ -77.17838, 38.85291 ], [ -77.18028, 38.85383 ], [ -77.17941, 38.85442 ], [ -77.17935, 38.85735 ], [ -77.18035, 38.85378 ] ], [ [ -77.17863, 38.85064 ], [ -77.17843, 38.8496 ], [ -77.178, 38.85116 ], [ -77.17942, 38.85106 ], [ -77.17863, 38.85064 ] ], [ [ -77.17729, 38.846 ], [ -77.17542, 38.84553 ], [ -77.17522, 38.84858 ], [ -77.17621, 38.84773 ], [ -77.17857, 38.84734 ], [ -77.17729, 38.846 ] ], [ [ -77.17894, 38.84522 ], [ -77.17893, 38.84386 ], [ -77.17837, 38.84544 ], [ -77.17894, 38.84522 ] ], [ [ -77.17758, 38.84355 ], [ -77.17753, 38.84356 ], [ -77.17757, 38.84359 ], [ -77.17758, 38.84355 ] ], [ [ -77.17951, 38.842 ], [ -77.17952, 38.84187 ], [ -77.17913, 38.84269 ], [ -77.17951, 38.842 ] ], [ [ -77.18288, 38.86091 ], [ -77.18277, 38.86121 ], [ -77.1834, 38.86121 ], [ -77.18288, 38.86091 ] ], [ [ -77.18238, 38.85364 ], [ -77.1824, 38.85353 ], [ -77.18168, 38.85409 ], [ -77.18083, 38.85709 ], [ -77.18196, 38.85696 ], [ -77.18238, 38.85364 ] ], [ [ -77.182, 38.85066 ], [ -77.18037, 38.8509 ], [ -77.17986, 38.8498 ], [ -77.17989, 38.85083 ], [ -77.17947, 38.85105 ], [ -77.18123, 38.85085 ], [ -77.18172, 38.85099 ], [ -77.1818, 38.85166 ], [ -77.182, 38.85066 ] ], [ [ -77.18267, 38.84844 ], [ -77.18069, 38.84845 ], [ -77.18091, 38.84896 ], [ -77.18183, 38.84877 ], [ -77.18225, 38.84918 ], [ -77.18267, 38.84844 ] ], [ [ -77.18179, 38.84676 ], [ -77.1819, 38.84679 ], [ -77.18189, 38.84677 ], [ -77.18179, 38.84676 ] ], [ [ -77.18177, 38.84447 ], [ -77.18131, 38.84434 ], [ -77.1812, 38.84501 ], [ -77.18177, 38.84447 ] ], [ [ -77.18125, 38.84227 ], [ -77.18136, 38.84235 ], [ -77.18138, 38.84228 ], [ -77.18125, 38.84227 ] ], [ [ -77.18136, 38.83997 ], [ -77.18126, 38.84007 ], [ -77.18157, 38.83998 ], [ -77.18136, 38.83997 ] ], [ [ -77.18152, 38.83729 ], [ -77.18139, 38.83728 ], [ -77.18112, 38.83827 ], [ -77.18169, 38.83845 ], [ -77.18152, 38.83729 ] ], [ [ -77.18307, 38.84484 ], [ -77.18276, 38.84536 ], [ -77.1833, 38.84486 ], [ -77.18307, 38.84484 ] ], [ [ -77.18358, 38.84959 ], [ -77.18373, 38.8496 ], [ -77.18373, 38.84944 ], [ -77.18358, 38.84959 ] ], [ [ -77.18339, 38.85066 ], [ -77.18347, 38.85109 ], [ -77.18347, 38.85082 ], [ -77.18339, 38.85066 ] ], [ [ -77.18363, 38.85963 ], [ -77.1836, 38.85947 ], [ -77.1835, 38.85955 ], [ -77.18363, 38.85963 ] ], [ [ -77.18023, 38.86355 ], [ -77.18021, 38.86337 ], [ -77.18005, 38.86349 ], [ -77.18023, 38.86355 ] ], [ [ -77.17958, 38.84638 ], [ -77.18073, 38.8466 ], [ -77.18054, 38.8462 ], [ -77.17958, 38.84638 ] ], [ [ -77.18056, 38.83896 ], [ -77.18031, 38.83927 ], [ -77.18042, 38.83918 ], [ -77.18056, 38.83896 ] ], [ [ -77.17929, 38.84855 ], [ -77.17999, 38.84836 ], [ -77.17971, 38.84828 ], [ -77.17929, 38.84855 ] ], [ [ -77.17706, 38.8685 ], [ -77.17537, 38.86715 ], [ -77.17536, 38.86879 ], [ -77.17706, 38.8685 ] ], [ [ -77.1746, 38.86531 ], [ -77.17481, 38.8654 ], [ -77.1757, 38.86388 ], [ -77.1746, 38.86531 ] ], [ [ -77.17701, 38.86037 ], [ -77.17503, 38.85998 ], [ -77.17583, 38.86054 ], [ -77.17686, 38.86071 ], [ -77.17701, 38.86037 ] ], [ [ -77.1781, 38.85946 ], [ -77.17817, 38.85831 ], [ -77.17643, 38.85849 ], [ -77.17565, 38.85803 ], [ -77.17609, 38.85749 ], [ -77.17574, 38.85693 ], [ -77.17638, 38.85647 ], [ -77.17588, 38.856 ], [ -77.17605, 38.85561 ], [ -77.17791, 38.85523 ], [ -77.17584, 38.85535 ], [ -77.17567, 38.85632 ], [ -77.17496, 38.85682 ], [ -77.1742, 38.85634 ], [ -77.17448, 38.85572 ], [ -77.17418, 38.85549 ], [ -77.17406, 38.85712 ], [ -77.17339, 38.85728 ], [ -77.17332, 38.85792 ], [ -77.17194, 38.85825 ], [ -77.1781, 38.85946 ] ], [ [ -77.17806, 38.85397 ], [ -77.17713, 38.85355 ], [ -77.17657, 38.85104 ], [ -77.17552, 38.84969 ], [ -77.17537, 38.8507 ], [ -77.17481, 38.85124 ], [ -77.17154, 38.85139 ], [ -77.1706, 38.852 ], [ -77.17047, 38.8526 ], [ -77.17179, 38.85279 ], [ -77.17197, 38.85318 ], [ -77.17175, 38.85356 ], [ -77.1704, 38.85368 ], [ -77.17032, 38.85462 ], [ -77.17806, 38.85397 ] ], [ [ -77.17707, 38.8498 ], [ -77.17705, 38.8497 ], [ -77.17708, 38.85002 ], [ -77.17707, 38.8498 ] ], [ [ -77.178, 38.86353 ], [ -77.17766, 38.86296 ], [ -77.17754, 38.86325 ], [ -77.17743, 38.86349 ], [ -77.178, 38.86353 ] ], [ [ -77.17741, 38.8613 ], [ -77.17693, 38.86105 ], [ -77.17638, 38.86153 ], [ -77.1763, 38.86275 ], [ -77.17741, 38.8613 ] ], [ [ -77.17795, 38.86611 ], [ -77.17815, 38.866 ], [ -77.17797, 38.86603 ], [ -77.17795, 38.86611 ] ], [ [ -77.17791, 38.84218 ], [ -77.17805, 38.84193 ], [ -77.17742, 38.84198 ], [ -77.17748, 38.84241 ], [ -77.17791, 38.84218 ] ], [ [ -77.17176, 38.86277 ], [ -77.17289, 38.86159 ], [ -77.17228, 38.86147 ], [ -77.17176, 38.86277 ] ], [ [ -77.17275, 38.857 ], [ -77.17295, 38.85704 ], [ -77.17278, 38.85658 ], [ -77.17275, 38.857 ] ], [ [ -77.17071, 38.85801 ], [ -77.17176, 38.85822 ], [ -77.17136, 38.85704 ], [ -77.17115, 38.8579 ], [ -77.17071, 38.85801 ] ], [ [ -77.16997, 38.85756 ], [ -77.16987, 38.85711 ], [ -77.16975, 38.85783 ], [ -77.17051, 38.85797 ], [ -77.16997, 38.85756 ] ], [ [ -77.17413, 38.8497 ], [ -77.17304, 38.85041 ], [ -77.17399, 38.85034 ], [ -77.17413, 38.8497 ] ], [ [ -77.17011, 38.85571 ], [ -77.17006, 38.85602 ], [ -77.17263, 38.85593 ], [ -77.17274, 38.85556 ], [ -77.17011, 38.85571 ] ], [ [ -77.1709, 38.85945 ], [ -77.17139, 38.86001 ], [ -77.17166, 38.85931 ], [ -77.16903, 38.8588 ], [ -77.1687, 38.85902 ], [ -77.1709, 38.85945 ] ], [ [ -77.17141, 38.86814 ], [ -77.17235, 38.86816 ], [ -77.17179, 38.86752 ], [ -77.17141, 38.86814 ] ], [ [ -77.17352, 38.86461 ], [ -77.17387, 38.86415 ], [ -77.17371, 38.86428 ], [ -77.17352, 38.86461 ] ] ] } }
]
}
